CEINMS output
datacolumns 81
datarows 92
endheader
time	addbrev_r	addlong_r	addmagDist_r	addmagIsch_r	addmagMid_r	addmagProx_r	bflh_r	bfsh_r	edl_r	ehl_r	fdl_r	fhl_r	gaslat_r	gasmed_r	glmax1_r	glmax2_r	glmax3_r	glmed1_r	glmed2_r	glmed3_r	glmin1_r	glmin2_r	glmin3_r	grac_r	iliacus_r	perbrev_r	perlong_r	piri_r	psoas_r	recfem_r	sart_r	semimem_r	semiten_r	soleus_r	tfl_r	tibant_r	tibpost_r	vasint_r	vaslat_r	vasmed_r	addbrev_l	addlong_l	addmagDist_l	addmagIsch_l	addmagMid_l	addmagProx_l	bflh_l	bfsh_l	edl_l	ehl_l	fdl_l	fhl_l	gaslat_l	gasmed_l	glmax1_l	glmax2_l	glmax3_l	glmed1_l	glmed2_l	glmed3_l	glmin1_l	glmin2_l	glmin3_l	grac_l	iliacus_l	perbrev_l	perlong_l	piri_l	psoas_l	recfem_l	sart_l	semimem_l	semiten_l	soleus_l	tfl_l	tibant_l	tibpost_l	vasint_l	vaslat_l	vasmed_l	
3.175	0.001	0.001	0.001	0.001	0.001	0.001	0.001	0.001	0.001	0.001	0.001	0.001	0.001	0.001	0.001	0.001	0.001	0.001	0.001	0.001	0.001	0.001	0.001	0.001	0.001	0.001	0.001	0.001	0.001	0.001	0.001	0.001	0.001	0.001	0.001	0.001	0.001	0.001	0.001	0.000997281	0.001	0.001	0.999	0.999	0.999	0.001	0.999	0.566441	0.001	0.001	0.471217	0.023724	0.999	0.001	0.999	0.999	0.999	0.999	0.999	0.001	0.999	0.999	0.001	0.999	0.001	0.0496664	0.0104116	0.001	0.001	0.001	0.999	0.999	0.999	0.123963	0.001	0.001	0.261688	0.001	0.001	0.001	
3.18	0.001	0.001	0.001	0.001	0.001	0.001	0.001	0.001	0.001	0.001	0.001	0.001	0.001	0.001	0.001	0.001	0.001	0.001	0.001	0.001	0.001	0.001	0.001	0.001	0.001	0.001	0.001	0.001	0.001	0.001	0.001	0.001	0.001	0.001	0.001	0.001	0.001	0.001	0.001	0.000997281	0.001	0.001	0.999	0.999	0.999	0.710103	0.604	0.220327	0.001	0.001	0.344031	0.0693926	0.999	0.001	0.999	0.999	0.03206	0.660785	0.999	0.001	0.001	0.001	0.001	0.389402	0.001	0.146678	0.0334095	0.001	0.001	0.001	0.999	0.999	0.608821	0.0996913	0.001	0.001	0.435277	0.001	0.001	0.001	
3.185	0.001	0.001	0.001	0.001	0.001	0.001	0.001	0.001	0.001	0.001	0.001	0.001	0.001	0.001	0.001	0.001	0.001	0.001	0.001	0.001	0.001	0.001	0.001	0.001	0.001	0.001	0.001	0.001	0.001	0.001	0.001	0.001	0.001	0.001	0.001	0.001	0.001	0.001	0.001	0.000997281	0.001	0.001	0.999	0.968636	0.971839	0.204873	0.117848	0.115124	0.001	0.001	0.17285	0.0105375	0.0915194	0.001	0.152306	0.194291	0.0627169	0.562649	0.383512	0.001	0.001	0.001	0.001	0.662816	0.001	0.0267743	0.00570534	0.001	0.001	0.001	0.943319	0.001	0.143673	0.0789457	0.001	0.0268344	0.001	0.001	0.001	0.001	
3.19	0.001	0.001	0.001	0.001	0.001	0.001	0.001	0.001	0.001	0.001	0.001	0.001	0.001	0.001	0.001	0.001	0.001	0.001	0.001	0.001	0.001	0.001	0.001	0.001	0.001	0.001	0.001	0.001	0.001	0.001	0.001	0.001	0.001	0.001	0.001	0.001	0.001	0.001	0.001	0.000997281	0.999	0.999	0.001	0.001	0.001	0.126937	0.077343	0.120523	0.170209	0.089781	0.001	0.001	0.0947267	0.001	0.001	0.001	0.001	0.343457	0.001	0.001	0.999	0.999	0.001	0.666237	0.999	0.001	0.001	0.001	0.999	0.001	0.994473	0.001	0.131267	0.061596	0.001	0.199017	0.0126385	0.001	0.001	0.001	
3.195	0.001	0.001	0.001	0.001	0.001	0.001	0.001	0.001	0.001	0.001	0.001	0.001	0.001	0.001	0.001	0.001	0.001	0.001	0.001	0.001	0.001	0.001	0.001	0.001	0.001	0.001	0.001	0.001	0.001	0.001	0.001	0.001	0.001	0.001	0.001	0.001	0.001	0.001	0.001	0.000997281	0.999	0.999	0.001	0.001	0.001	0.383217	0.057216	0.117253	0.107214	0.0440155	0.001	0.001	0.0963632	0.001	0.001	0.001	0.001	0.104824	0.001	0.001	0.999	0.999	0.001	0.635363	0.999	0.00299408	0.001	0.001	0.999	0.00924955	0.998386	0.001	0.120075	0.0462834	0.001	0.222648	0.001	0.001	0.001	0.001	
3.2	0.001	0.001	0.001	0.001	0.001	0.001	0.001	0.001	0.001	0.001	0.001	0.001	0.001	0.001	0.001	0.001	0.001	0.001	0.001	0.001	0.001	0.001	0.001	0.001	0.001	0.001	0.001	0.001	0.001	0.001	0.001	0.001	0.001	0.001	0.001	0.001	0.001	0.001	0.001	0.000997281	0.999	0.731599	0.001	0.001	0.001	0.475525	0.0557309	0.114246	0.0507781	0.0178233	0.0120454	0.0086247	0.0955458	0.001	0.001	0.001	0.001	0.0201372	0.001	0.0101265	0.999	0.999	0.0101257	0.628729	0.999	0.0112716	0.0029589	0.0101258	0.999	0.0155972	0.999	0.0103402	0.117586	0.033906	0.001	0.249119	0.00668858	0.00325359	0.001	0.001	
3.205	0.001	0.001	0.001	0.001	0.001	0.001	0.001	0.001	0.001	0.001	0.001	0.001	0.001	0.001	0.001	0.001	0.001	0.001	0.001	0.001	0.001	0.001	0.001	0.001	0.001	0.001	0.001	0.001	0.001	0.001	0.001	0.001	0.001	0.001	0.001	0.001	0.001	0.001	0.001	0.000997281	0.999	0.577245	0.001	0.001	0.001	0.402868	0.0632525	0.109471	0.017228	0.00458196	0.0178626	0.00288052	0.104736	0.001	0.001	0.001	0.001	0.0169612	0.001	0.0061537	0.999	0.681236	0.001	0.62415	0.999	0.00379142	0.001	0.00435612	0.999	0.0328984	0.999	0.0575242	0.11661	0.0248769	0.001	0.278179	0.00225467	0.00677619	0.001	0.001	
3.21	0.001	0.001	0.001	0.001	0.001	0.001	0.001	0.001	0.001	0.001	0.001	0.001	0.001	0.001	0.001	0.001	0.001	0.001	0.001	0.001	0.001	0.001	0.001	0.001	0.001	0.001	0.001	0.001	0.001	0.001	0.001	0.001	0.001	0.001	0.001	0.001	0.001	0.001	0.001	0.000997281	0.999	0.627418	0.001	0.001	0.001	0.377979	0.0592728	0.104645	0.001	0.001	0.0620827	0.0159822	0.111241	0.001	0.001	0.001	0.001	0.001	0.001	0.00288121	0.999	0.372074	0.001	0.605961	0.999	0.02372	0.00770856	0.00204419	0.999	0.0813598	0.999	0.106748	0.114202	0.017401	0.001	0.317228	0.0220727	0.0065359	0.001	0.001	
3.215	0.001	0.001	0.001	0.001	0.001	0.001	0.001	0.001	0.001	0.001	0.001	0.001	0.001	0.001	0.001	0.001	0.001	0.001	0.001	0.001	0.001	0.001	0.001	0.001	0.001	0.001	0.001	0.001	0.001	0.001	0.001	0.001	0.001	0.001	0.001	0.001	0.001	0.001	0.001	0.000997281	0.999	0.679373	0.001	0.001	0.001	0.444206	0.0506633	0.102242	0.001	0.001	0.134301	0.0148749	0.122351	0.001	0.001	0.001	0.001	0.001	0.001	0.0187177	0.999	0.0247479	0.00191082	0.591644	0.999	0.0386931	0.00653369	0.001	0.999	0.127761	0.999	0.141904	0.112083	0.0123271	0.001	0.35438	0.0436743	0.0057528	0.001	0.001	
3.22	0.001	0.001	0.001	0.001	0.001	0.001	0.001	0.001	0.001	0.001	0.001	0.001	0.001	0.001	0.001	0.001	0.001	0.001	0.001	0.001	0.001	0.001	0.001	0.001	0.001	0.001	0.001	0.001	0.001	0.001	0.001	0.001	0.001	0.001	0.001	0.001	0.001	0.001	0.001	0.000997281	0.999	0.752973	0.001	0.001	0.001	0.999	0.0486469	0.100907	0.001	0.001	0.169283	0.05088	0.138781	0.001	0.001	0.001	0.001	0.001	0.001	0.0957704	0.999	0.001	0.0368545	0.608153	0.999	0.0763771	0.0419068	0.0365947	0.999	0.144525	0.999	0.162615	0.123927	0.0110754	0.001	0.364406	0.0844174	0.00429527	0.001	0.001	
3.225	0.001	0.001	0.001	0.001	0.001	0.001	0.001	0.001	0.001	0.001	0.001	0.001	0.001	0.001	0.001	0.001	0.001	0.001	0.001	0.001	0.001	0.001	0.001	0.001	0.001	0.001	0.001	0.001	0.001	0.001	0.001	0.001	0.001	0.001	0.001	0.001	0.001	0.001	0.001	0.000997281	0.999	0.783375	0.001	0.001	0.001	0.999	0.0417905	0.101628	0.001	0.001	0.222482	0.0436879	0.160305	0.001	0.001	0.001	0.001	0.001	0.001	0.001	0.455808	0.001	0.001	0.635624	0.999	0.117844	0.0212416	0.001	0.999	0.167793	0.999	0.200781	0.119578	0.00703471	0.808436	0.391449	0.178167	0.00174946	0.001	0.001	
3.23	0.001	0.001	0.001	0.001	0.001	0.001	0.001	0.001	0.001	0.001	0.001	0.001	0.001	0.001	0.001	0.001	0.001	0.001	0.001	0.001	0.001	0.001	0.001	0.001	0.001	0.001	0.001	0.001	0.001	0.001	0.001	0.001	0.001	0.001	0.001	0.001	0.001	0.001	0.001	0.000997281	0.999	0.777027	0.001	0.001	0.001	0.999	0.040593	0.0994707	0.001	0.001	0.246673	0.0765522	0.177829	0.001	0.001	0.001	0.001	0.001	0.001	0.001	0.178636	0.001	0.001	0.642356	0.999	0.148149	0.0535964	0.001	0.999	0.185858	0.999	0.217234	0.13712	0.00687998	0.793763	0.401254	0.206935	0.00576352	0.001	0.001	
3.235	0.001	0.001	0.001	0.001	0.001	0.001	0.001	0.001	0.001	0.001	0.001	0.001	0.001	0.001	0.001	0.001	0.001	0.001	0.001	0.001	0.001	0.001	0.001	0.001	0.001	0.001	0.001	0.001	0.001	0.001	0.001	0.001	0.001	0.001	0.001	0.001	0.001	0.001	0.001	0.000997281	0.999	0.835732	0.001	0.001	0.001	0.999	0.0259816	0.0936968	0.001	0.001	0.307314	0.0790643	0.17987	0.001	0.001	0.001	0.001	0.001	0.001	0.001	0.001	0.001	0.001	0.599039	0.999	0.180293	0.0345619	0.0240692	0.999	0.255844	0.999	0.19497	0.117446	0.00679242	0.854571	0.428772	0.299354	0.0075078	0.001	0.001	
3.24	0.001	0.001	0.001	0.001	0.001	0.001	0.001	0.001	0.001	0.001	0.001	0.001	0.001	0.001	0.001	0.001	0.001	0.001	0.001	0.001	0.001	0.001	0.001	0.001	0.001	0.001	0.001	0.001	0.001	0.001	0.001	0.001	0.001	0.001	0.001	0.001	0.001	0.001	0.001	0.000997281	0.999	0.87079	0.001	0.001	0.001	0.999	0.0172916	0.0865835	0.001	0.001	0.339712	0.095331	0.179049	0.001	0.001	0.001	0.001	0.001	0.001	0.001	0.001	0.001	0.0118978	0.58333	0.999	0.205256	0.0422347	0.001	0.999	0.312452	0.999	0.161967	0.112444	0.00793926	0.75399	0.449956	0.316193	0.00732171	0.001	0.001	
3.245	0.001	0.001	0.001	0.001	0.001	0.001	0.001	0.001	0.001	0.001	0.001	0.001	0.001	0.001	0.001	0.001	0.001	0.001	0.001	0.001	0.001	0.001	0.001	0.001	0.001	0.001	0.001	0.001	0.001	0.001	0.001	0.001	0.001	0.001	0.001	0.001	0.001	0.001	0.001	0.000997281	0.999	0.917021	0.001	0.001	0.001	0.999	0.0125163	0.0792684	0.001	0.001	0.369898	0.112773	0.173408	0.001	0.001	0.001	0.001	0.001	0.001	0.001	0.001	0.001	0.00212488	0.573096	0.999	0.227359	0.050498	0.001	0.999	0.356786	0.999	0.122631	0.107616	0.00934057	0.617435	0.476571	0.311606	0.00492761	0.001	0.001	
3.25	0.001	0.001	0.001	0.001	0.001	0.001	0.001	0.001	0.001	0.001	0.001	0.001	0.001	0.001	0.001	0.001	0.001	0.001	0.001	0.001	0.001	0.001	0.001	0.001	0.001	0.001	0.001	0.001	0.001	0.001	0.001	0.001	0.001	0.001	0.001	0.001	0.001	0.001	0.001	0.000997281	0.999	0.969194	0.001	0.001	0.001	0.999	0.0108379	0.0720857	0.001	0.001	0.398208	0.126409	0.163245	0.001	0.001	0.001	0.001	0.001	0.001	0.001	0.001	0.001	0.001	0.562339	0.999	0.24208	0.0561253	0.0333064	0.999	0.387859	0.999	0.078404	0.102433	0.0117088	0.475569	0.506548	0.285644	0.0031418	0.001	0.001	
3.255	0.001	0.001	0.001	0.001	0.001	0.001	0.001	0.001	0.001	0.001	0.001	0.001	0.001	0.001	0.001	0.001	0.001	0.001	0.001	0.001	0.001	0.001	0.001	0.001	0.001	0.001	0.001	0.001	0.001	0.001	0.001	0.001	0.001	0.001	0.001	0.001	0.001	0.001	0.001	0.000997281	0.999	0.999	0.001	0.001	0.001	0.999	0.00977655	0.0655682	0.001	0.001	0.422364	0.136845	0.149539	0.001	0.001	0.001	0.001	0.001	0.001	0.001	0.001	0.001	0.001	0.54755	0.999	0.249016	0.060877	0.001	0.999	0.402369	0.999	0.0310074	0.0952176	0.0139211	0.224968	0.539076	0.247416	0.00365979	0.001	0.001	
3.26	0.001	0.001	0.001	0.001	0.001	0.001	0.001	0.001	0.001	0.001	0.001	0.001	0.001	0.001	0.001	0.001	0.001	0.001	0.001	0.001	0.001	0.001	0.001	0.001	0.001	0.001	0.001	0.001	0.001	0.001	0.001	0.001	0.001	0.001	0.001	0.001	0.001	0.001	0.001	0.000997281	0.999	0.999	0.001	0.001	0.001	0.999	0.00316471	0.0597533	0.001	0.001	0.441187	0.144826	0.132053	0.001	0.001	0.001	0.001	0.001	0.001	0.001	0.001	0.001	0.001	0.527077	0.999	0.249864	0.0643344	0.001	0.999	0.402618	0.999	0.001	0.0810159	0.0160109	0.001	0.574314	0.205578	0.00586601	0.001	0.001	
3.265	0.001	0.001	0.001	0.001	0.001	0.001	0.001	0.001	0.001	0.001	0.001	0.001	0.001	0.001	0.001	0.001	0.001	0.001	0.001	0.001	0.001	0.001	0.001	0.001	0.001	0.001	0.001	0.001	0.001	0.001	0.001	0.001	0.001	0.001	0.001	0.001	0.001	0.001	0.001	0.000997281	0.999	0.999	0.001	0.001	0.001	0.999	0.001	0.0518134	0.001	0.001	0.45757	0.144053	0.110229	0.001	0.001	0.001	0.001	0.001	0.001	0.001	0.001	0.001	0.001	0.481879	0.999	0.245946	0.0639163	0.0279976	0.999	0.39339	0.999	0.001	0.050146	0.0186006	0.001	0.61163	0.165453	0.00636455	0.001	0.001	
3.27	0.001	0.001	0.001	0.001	0.001	0.001	0.001	0.001	0.001	0.001	0.001	0.001	0.001	0.001	0.001	0.001	0.001	0.001	0.001	0.001	0.001	0.001	0.001	0.001	0.001	0.001	0.001	0.001	0.001	0.001	0.001	0.001	0.001	0.001	0.001	0.001	0.001	0.001	0.001	0.000997281	0.999	0.999	0.001	0.001	0.001	0.999	0.001	0.0430048	0.001	0.001	0.469194	0.147021	0.0893408	0.001	0.001	0.001	0.001	0.001	0.001	0.001	0.001	0.001	0.001	0.424365	0.999	0.237789	0.0651559	0.001	0.999	0.376838	0.999	0.001	0.001	0.0202972	0.001	0.650357	0.148864	0.00730126	0.001	0.001	
3.275	0.001	0.001	0.001	0.001	0.001	0.001	0.001	0.001	0.001	0.001	0.001	0.001	0.001	0.001	0.001	0.001	0.001	0.001	0.001	0.001	0.001	0.001	0.001	0.001	0.001	0.001	0.001	0.001	0.001	0.001	0.001	0.001	0.001	0.001	0.001	0.001	0.001	0.001	0.001	0.000997281	0.999	0.999	0.001	0.001	0.001	0.999	0.001	0.0340811	0.001	0.001	0.47603	0.140429	0.0690514	0.001	0.001	0.001	0.001	0.001	0.001	0.001	0.001	0.001	0.001	0.357576	0.999	0.225195	0.0619365	0.001	0.999	0.366303	0.999	0.001	0.001	0.0220433	0.338601	0.689586	0.136641	0.00899276	0.032186	0.00754225	
3.28	0.001	0.001	0.001	0.001	0.001	0.001	0.001	0.001	0.001	0.001	0.001	0.001	0.001	0.001	0.001	0.001	0.001	0.001	0.001	0.001	0.001	0.001	0.001	0.001	0.001	0.001	0.001	0.001	0.001	0.001	0.001	0.001	0.001	0.001	0.001	0.001	0.001	0.001	0.001	0.000997281	0.999	0.999	0.001	0.001	0.001	0.999	0.001	0.0289731	0.001	0.001	0.478165	0.133438	0.0619948	0.001	0.001	0.001	0.001	0.001	0.001	0.001	0.001	0.001	0.001	0.296807	0.999	0.213425	0.0582004	0.0265428	0.999	0.351995	0.999	0.001	0.001	0.0232671	0.623389	0.728682	0.129773	0.390307	0.999	0.801846	
3.285	0.001	0.001	0.001	0.001	0.001	0.001	0.001	0.001	0.001	0.001	0.001	0.001	0.001	0.001	0.001	0.001	0.001	0.001	0.001	0.001	0.001	0.001	0.001	0.001	0.001	0.001	0.001	0.001	0.001	0.001	0.001	0.001	0.001	0.001	0.001	0.001	0.001	0.001	0.001	0.000997281	0.999	0.999	0.001	0.001	0.001	0.999	0.001	0.0271293	0.001	0.001	0.476022	0.122643	0.0656408	0.001	0.001	0.001	0.001	0.001	0.001	0.001	0.001	0.001	0.001	0.232127	0.999	0.197986	0.0525346	0.001	0.999	0.338925	0.999	0.001	0.001	0.024439	0.999	0.765945	0.125922	0.395218	0.999	0.59913	
3.29	0.001	0.001	0.001	0.001	0.001	0.001	0.001	0.001	0.001	0.001	0.001	0.001	0.001	0.001	0.001	0.001	0.001	0.001	0.001	0.001	0.001	0.001	0.001	0.001	0.001	0.001	0.001	0.001	0.001	0.001	0.001	0.001	0.001	0.001	0.001	0.001	0.001	0.001	0.001	0.000997281	0.999	0.999	0.001	0.001	0.001	0.999	0.001	0.0276058	0.001	0.001	0.46965	0.111382	0.0795657	0.001	0.001	0.001	0.001	0.001	0.001	0.001	0.001	0.001	0.001	0.170213	0.999	0.185151	0.0462666	0.001	0.999	0.320915	0.999	0.001	0.001	0.0254521	0.999	0.803675	0.125399	0.118426	0.847093	0.17249	
3.295	0.001	0.001	0.001	0.001	0.001	0.001	0.001	0.001	0.001	0.001	0.001	0.001	0.001	0.001	0.001	0.001	0.001	0.001	0.001	0.001	0.001	0.001	0.001	0.001	0.001	0.001	0.001	0.001	0.001	0.001	0.001	0.001	0.001	0.001	0.001	0.001	0.001	0.001	0.001	0.000997281	0.999	0.999	0.001	0.001	0.001	0.999	0.001	0.0262762	0.001	0.001	0.45879	0.0984555	0.0884376	0.001	0.001	0.001	0.001	0.001	0.001	0.001	0.001	0.001	0.001	0.118269	0.999	0.169716	0.0399992	0.0265106	0.999	0.293777	0.999	0.001	0.001	0.0260601	0.999	0.837473	0.120569	0.0273505	0.154178	0.0220973	
3.3	0.001	0.001	0.001	0.001	0.001	0.001	0.001	0.001	0.001	0.001	0.001	0.001	0.001	0.001	0.001	0.001	0.001	0.001	0.001	0.001	0.001	0.001	0.001	0.001	0.001	0.001	0.001	0.001	0.001	0.001	0.001	0.001	0.001	0.001	0.001	0.001	0.001	0.001	0.001	0.000997281	0.999	0.999	0.001	0.001	0.001	0.999	0.001	0.0246913	0.001	0.001	0.443723	0.0912835	0.0933876	0.001	0.001	0.001	0.001	0.001	0.001	0.001	0.001	0.001	0.001	0.0759205	0.999	0.16066	0.0364506	0.001	0.999	0.267261	0.999	0.001	0.001	0.0268862	0.999	0.868759	0.116629	0.0360617	0.219472	0.0307202	
3.305	0.001	0.001	0.001	0.001	0.001	0.001	0.001	0.001	0.001	0.001	0.001	0.001	0.001	0.001	0.001	0.001	0.001	0.001	0.001	0.001	0.001	0.001	0.001	0.001	0.001	0.001	0.001	0.001	0.001	0.001	0.001	0.001	0.001	0.001	0.001	0.001	0.001	0.001	0.001	0.000997281	0.999	0.999	0.001	0.001	0.001	0.999	0.001	0.022897	0.001	0.001	0.425716	0.0756155	0.100881	0.001	0.001	0.001	0.001	0.001	0.001	0.001	0.001	0.001	0.001	0.00772702	0.999	0.138704	0.0292559	0.001	0.999	0.237776	0.999	0.001	0.001	0.0270171	0.741528	0.895967	0.104725	0.0450563	0.206497	0.0385673	
3.31	0.001	0.001	0.001	0.001	0.001	0.001	0.001	0.001	0.001	0.001	0.001	0.001	0.001	0.001	0.001	0.001	0.001	0.001	0.001	0.001	0.001	0.001	0.001	0.001	0.001	0.001	0.001	0.001	0.001	0.001	0.001	0.001	0.001	0.001	0.001	0.001	0.001	0.001	0.001	0.000997281	0.999	0.372538	0.001	0.001	0.001	0.999	0.001	0.0218666	0.001	0.001	0.401652	0.0605654	0.106234	0.001	0.001	0.001	0.001	0.001	0.001	0.001	0.0351518	0.001	0.001	0.001	0.999	0.124133	0.0216195	0.011129	0.999	0.21595	0.999	0.001	0.001	0.0271485	0.001	0.920056	0.101006	0.0587694	0.274679	0.0539548	
3.315	0.001	0.001	0.001	0.001	0.001	0.001	0.001	0.001	0.001	0.001	0.001	0.001	0.001	0.001	0.001	0.001	0.001	0.001	0.001	0.001	0.001	0.001	0.001	0.001	0.001	0.001	0.001	0.001	0.001	0.001	0.001	0.001	0.001	0.001	0.001	0.001	0.001	0.001	0.001	0.000997281	0.999	0.001	0.001	0.001	0.001	0.488851	0.001	0.0215131	0.001	0.001	0.376649	0.0494181	0.114793	0.001	0.001	0.001	0.001	0.001	0.001	0.001	0.999	0.001	0.001	0.001	0.999	0.10691	0.0169473	0.00375956	0.999	0.192858	0.999	0.001	0.001	0.0268854	0.001	0.94039	0.0896042	0.0703459	0.294883	0.0650256	
3.32	0.001	0.001	0.001	0.001	0.001	0.001	0.001	0.001	0.001	0.001	0.001	0.001	0.001	0.001	0.001	0.001	0.001	0.001	0.001	0.001	0.001	0.001	0.001	0.001	0.001	0.001	0.001	0.001	0.001	0.001	0.001	0.001	0.001	0.001	0.001	0.001	0.001	0.001	0.001	0.000997281	0.666046	0.001	0.001	0.001	0.001	0.001	0.001	0.0217729	0.001	0.001	0.350968	0.0419777	0.123957	0.001	0.001	0.001	0.001	0.001	0.001	0.001	0.999	0.001	0.001	0.001	0.999	0.0995488	0.013335	0.001	0.999	0.171372	0.999	0.001	0.001	0.0263026	0.00136034	0.960147	0.0866177	0.101841	0.565863	0.110628	
3.325	0.001	0.001	0.001	0.001	0.001	0.001	0.001	0.001	0.001	0.001	0.001	0.001	0.001	0.001	0.001	0.001	0.001	0.001	0.001	0.001	0.001	0.001	0.001	0.001	0.001	0.001	0.001	0.001	0.001	0.001	0.001	0.001	0.001	0.001	0.001	0.001	0.001	0.001	0.001	0.000997281	0.001	0.001	0.001	0.001	0.001	0.001	0.001	0.0229057	0.001	0.001	0.329964	0.0366186	0.142725	0.001	0.001	0.001	0.001	0.001	0.001	0.001	0.999	0.071792	0.001	0.001	0.999	0.0908433	0.0112885	0.001	0.999	0.150702	0.999	0.001	0.001	0.0255382	0.00207773	0.987702	0.0804739	0.133695	0.814499	0.158608	
3.33	0.001	0.001	0.001	0.001	0.001	0.001	0.001	0.001	0.001	0.001	0.001	0.001	0.001	0.001	0.001	0.001	0.001	0.001	0.001	0.001	0.001	0.001	0.001	0.001	0.001	0.001	0.001	0.001	0.001	0.001	0.001	0.001	0.001	0.001	0.001	0.001	0.001	0.001	0.001	0.000997281	0.001	0.001	0.001	0.001	0.001	0.001	0.001	0.0217838	0.001	0.001	0.317428	0.0349841	0.142678	0.001	0.001	0.001	0.001	0.001	0.001	0.001	0.927158	0.190902	0.001	0.001	0.999	0.09536	0.0100323	0.00258182	0.999	0.131426	0.999	0.001	0.001	0.024737	0.001	0.999	0.0857852	0.224099	0.999	0.31395	
3.335	0.001	0.001	0.001	0.001	0.001	0.001	0.001	0.001	0.001	0.001	0.001	0.001	0.001	0.001	0.001	0.001	0.001	0.001	0.001	0.001	0.001	0.001	0.001	0.001	0.001	0.001	0.001	0.001	0.001	0.001	0.001	0.001	0.001	0.001	0.001	0.001	0.001	0.001	0.001	0.000997281	0.001	0.001	0.001	0.001	0.001	0.001	0.001	0.0152756	0.001	0.001	0.312069	0.035796	0.0658826	0.001	0.001	0.001	0.001	0.001	0.001	0.001	0.476089	0.328571	0.001	0.001	0.999	0.104237	0.00964282	0.001	0.999	0.113467	0.999	0.001	0.001	0.0240119	0.001	0.999	0.0920954	0.335691	0.999	0.506727	
3.34	0.001	0.001	0.001	0.001	0.001	0.001	0.001	0.001	0.001	0.001	0.001	0.001	0.001	0.001	0.001	0.001	0.001	0.001	0.001	0.001	0.001	0.001	0.001	0.001	0.001	0.001	0.001	0.001	0.001	0.001	0.001	0.001	0.001	0.001	0.001	0.001	0.001	0.001	0.001	0.000997281	0.001	0.001	0.001	0.001	0.001	0.001	0.001	0.001	0.001	0.001	0.312469	0.037243	0.001	0.00169229	0.001	0.001	0.001	0.001	0.001	0.001	0.147448	0.559784	0.001	0.001	0.999	0.1109	0.00980944	0.001	0.999	0.0966495	0.999	0.001	0.001	0.0234983	0.001	0.999	0.0987234	0.461169	0.999	0.711095	
3.345	0.001	0.001	0.001	0.001	0.001	0.001	0.001	0.001	0.001	0.001	0.001	0.001	0.001	0.001	0.001	0.001	0.001	0.001	0.001	0.001	0.001	0.001	0.001	0.001	0.001	0.001	0.001	0.001	0.001	0.001	0.001	0.001	0.001	0.001	0.001	0.001	0.001	0.001	0.001	0.000997281	0.001	0.00153169	0.001	0.001	0.001	0.001	0.001	0.001	0.001	0.001	0.317594	0.0426457	0.001	0.0102289	0.001	0.001	0.001	0.001	0.001	0.001	0.001	0.67916	0.001	0.001	0.999	0.126676	0.0104955	0.001	0.999	0.083257	0.999	0.001	0.001	0.0231216	0.001	0.999	0.110779	0.581987	0.999	0.900594	
3.35	0.001	0.001	0.001	0.001	0.001	0.001	0.001	0.001	0.001	0.001	0.001	0.001	0.001	0.001	0.001	0.001	0.001	0.001	0.001	0.001	0.001	0.001	0.001	0.001	0.001	0.001	0.001	0.001	0.001	0.001	0.001	0.001	0.001	0.001	0.001	0.001	0.001	0.001	0.001	0.000997281	0.001	0.001	0.001	0.001	0.001	0.001	0.001	0.001	0.001	0.001	0.323861	0.048813	0.001	0.00630732	0.001	0.001	0.001	0.001	0.001	0.001	0.001	0.638895	0.348398	0.001	0.999	0.139273	0.0113277	0.001	0.999	0.0713564	0.001	0.001	0.001	0.022685	0.001	0.999	0.114102	0.679839	0.999	0.999	
3.355	0.001	0.001	0.001	0.001	0.001	0.001	0.001	0.001	0.001	0.001	0.001	0.001	0.001	0.001	0.001	0.001	0.001	0.001	0.001	0.001	0.001	0.001	0.001	0.001	0.001	0.001	0.001	0.001	0.001	0.001	0.001	0.001	0.001	0.001	0.001	0.001	0.001	0.001	0.001	0.000997281	0.001	0.001	0.001	0.001	0.001	0.001	0.001	0.001	0.001	0.001	0.327778	0.049155	0.001	0.001	0.001	0.001	0.001	0.001	0.001	0.001	0.001	0.614919	0.605238	0.001	0.999	0.148922	0.0113206	0.001	0.999	0.0637831	0.001	0.001	0.001	0.0227769	0.001	0.999	0.120918	0.745415	0.999	0.999	
3.36	0.001	0.001	0.001	0.001	0.001	0.001	0.001	0.001	0.001	0.001	0.001	0.001	0.001	0.001	0.001	0.001	0.001	0.001	0.001	0.001	0.001	0.001	0.001	0.001	0.001	0.001	0.001	0.001	0.001	0.001	0.001	0.001	0.001	0.001	0.001	0.001	0.001	0.001	0.001	0.000997281	0.00872094	0.001	0.001	0.001	0.001	0.001	0.001	0.001	0.001	0.001	0.332198	0.0541594	0.001	0.001	0.001	0.001	0.001	0.001	0.001	0.0298889	0.001	0.366589	0.751276	0.001	0.999	0.156924	0.0120072	0.001	0.999	0.0578255	0.001	0.001	0.001	0.0229488	0.001	0.999	0.122112	0.814778	0.999	0.999	
3.365	0.001	0.001	0.001	0.001	0.001	0.001	0.001	0.001	0.001	0.001	0.001	0.001	0.001	0.001	0.001	0.001	0.001	0.001	0.001	0.001	0.001	0.001	0.001	0.001	0.001	0.001	0.001	0.001	0.001	0.001	0.001	0.001	0.001	0.001	0.001	0.001	0.001	0.001	0.001	0.000997281	0.00396456	0.001	0.001	0.001	0.001	0.001	0.001	0.001	0.001	0.001	0.332175	0.0606645	0.001	0.0290274	0.001	0.001	0.001	0.001	0.001	0.230642	0.001	0.001	0.639495	0.001	0.999	0.174863	0.0129555	0.001	0.999	0.0536799	0.001	0.001	0.001	0.0169896	0.001	0.999	0.121002	0.915122	0.999	0.999	
3.37	0.001	0.001	0.001	0.001	0.001	0.001	0.001	0.001	0.001	0.001	0.001	0.001	0.001	0.001	0.001	0.001	0.001	0.001	0.001	0.001	0.001	0.001	0.001	0.001	0.001	0.001	0.001	0.001	0.001	0.001	0.001	0.001	0.001	0.001	0.001	0.001	0.001	0.001	0.001	0.000997281	0.001	0.001	0.001	0.001	0.001	0.001	0.001	0.001	0.001	0.001	0.343288	0.0550668	0.001	0.001	0.001	0.001	0.001	0.001	0.001	0.339774	0.001	0.001	0.001	0.001	0.999	0.156899	0.01191	0.001	0.999	0.0509109	0.001	0.001	0.001	0.0252968	0.001	0.999	0.124026	0.999	0.999	0.999	
3.375	0.001	0.001	0.001	0.001	0.001	0.001	0.001	0.001	0.001	0.001	0.001	0.001	0.001	0.001	0.001	0.001	0.001	0.001	0.001	0.001	0.001	0.001	0.001	0.001	0.001	0.001	0.001	0.001	0.001	0.001	0.001	0.001	0.001	0.001	0.001	0.001	0.001	0.001	0.001	0.000997281	0.00185754	0.001	0.001	0.001	0.001	0.001	0.001	0.001	0.001	0.001	0.348837	0.0619835	0.001	0.001	0.001	0.001	0.001	0.001	0.001	0.871862	0.001	0.001	0.001	0.001	0.999	0.167936	0.0133231	0.001	0.999	0.0499577	0.001	0.001	0.001	0.0269647	0.001	0.999	0.119646	0.999	0.999	0.999	
3.38	0.001	0.001	0.001	0.001	0.001	0.001	0.001	0.001	0.001	0.001	0.001	0.001	0.001	0.001	0.001	0.001	0.001	0.001	0.001	0.001	0.001	0.001	0.001	0.001	0.001	0.001	0.001	0.001	0.001	0.001	0.001	0.001	0.001	0.001	0.001	0.001	0.001	0.001	0.001	0.000997281	0.00171778	0.001	0.001	0.001	0.001	0.001	0.001	0.001	0.001	0.001	0.352525	0.068871	0.001	0.0255546	0.117012	0.0129699	0.001	0.001	0.001	0.999	0.0194975	0.001	0.001	0.001	0.999	0.174156	0.0142477	0.001	0.999	0.0483074	0.001	0.001	0.001	0.0279634	0.001	0.999	0.117289	0.999	0.999	0.999	
3.385	0.001	0.001	0.001	0.001	0.001	0.001	0.001	0.001	0.001	0.001	0.001	0.001	0.001	0.001	0.001	0.001	0.001	0.001	0.001	0.001	0.001	0.001	0.001	0.001	0.001	0.001	0.001	0.001	0.001	0.001	0.001	0.001	0.001	0.001	0.001	0.001	0.001	0.001	0.001	0.000997281	0.00414156	0.001	0.001	0.001	0.001	0.001	0.001	0.001	0.001	0.001	0.354666	0.0652638	0.001	0.001	0.346149	0.34669	0.0638882	0.001	0.001	0.999	0.001	0.001	0.001	0.001	0.001	0.16829	0.0138628	0.001	0.314809	0.047953	0.001	0.001	0.001	0.0325784	0.001	0.999	0.116748	0.999	0.999	0.999	
3.39	0.001	0.001	0.001	0.001	0.001	0.001	0.001	0.001	0.001	0.001	0.001	0.001	0.001	0.001	0.001	0.001	0.001	0.001	0.001	0.001	0.001	0.001	0.001	0.001	0.001	0.001	0.001	0.001	0.001	0.001	0.001	0.001	0.001	0.001	0.001	0.001	0.001	0.001	0.001	0.000997281	0.00289785	0.001	0.001	0.001	0.001	0.001	0.001	0.001	0.001	0.001	0.355212	0.0660784	0.001	0.001	0.24859	0.320008	0.11045	0.001	0.001	0.999	0.001	0.001	0.001	0.001	0.001	0.165037	0.0140942	0.001	0.00852275	0.0475735	0.001	0.001	0.001	0.0359325	0.001	0.999	0.114653	0.999	0.999	0.999	
3.395	0.001	0.001	0.001	0.001	0.001	0.001	0.001	0.001	0.001	0.001	0.001	0.001	0.001	0.001	0.001	0.001	0.001	0.001	0.001	0.001	0.001	0.001	0.001	0.001	0.001	0.001	0.001	0.001	0.001	0.001	0.001	0.001	0.001	0.001	0.001	0.001	0.001	0.001	0.001	0.000997281	0.001	0.001	0.001	0.001	0.001	0.001	0.001	0.001	0.001	0.001	0.353312	0.0644943	0.001	0.0315604	0.677962	0.850928	0.21813	0.001	0.001	0.999	0.001	0.001	0.001	0.001	0.001	0.159163	0.0138071	0.001	0.001	0.0437522	0.001	0.001	0.001	0.0400289	0.001	0.999	0.111576	0.999	0.999	0.999	
3.4	0.001	0.001	0.001	0.001	0.001	0.001	0.001	0.001	0.001	0.001	0.001	0.001	0.001	0.001	0.001	0.001	0.001	0.001	0.001	0.001	0.001	0.001	0.001	0.001	0.001	0.001	0.001	0.001	0.001	0.001	0.001	0.001	0.001	0.001	0.001	0.001	0.001	0.001	0.001	0.000997281	0.001	0.001	0.999	0.991774	0.001	0.00142316	0.001	0.001	0.001	0.001	0.349262	0.0623149	0.001	0.001	0.999	0.999	0.274894	0.001	0.001	0.999	0.001	0.001	0.001	0.001	0.001	0.152747	0.0134463	0.001	0.001	0.040741	0.001	0.001	0.001	0.0442064	0.001	0.999	0.109538	0.999	0.999	0.999	
3.405	0.001	0.001	0.001	0.001	0.001	0.001	0.001	0.001	0.001	0.001	0.001	0.001	0.001	0.001	0.001	0.001	0.001	0.001	0.001	0.001	0.001	0.001	0.001	0.001	0.001	0.001	0.001	0.001	0.001	0.001	0.001	0.001	0.001	0.001	0.001	0.001	0.001	0.001	0.001	0.000997281	0.00410951	0.001	0.999	0.999	0.001	0.00138422	0.001	0.001	0.001	0.001	0.34448	0.0593386	0.001	0.001	0.999	0.999	0.293639	0.001	0.827157	0.999	0.00866487	0.001	0.001	0.001	0.001	0.14435	0.0129408	0.001	0.001	0.0392272	0.001	0.001	0.0577616	0.0475043	0.001	0.999	0.105492	0.935721	0.999	0.999	
3.41	0.001	0.001	0.001	0.001	0.001	0.001	0.001	0.001	0.001	0.001	0.001	0.001	0.001	0.001	0.001	0.001	0.001	0.001	0.001	0.001	0.001	0.001	0.001	0.001	0.001	0.001	0.001	0.001	0.001	0.001	0.001	0.001	0.001	0.001	0.001	0.001	0.001	0.001	0.001	0.000997281	0.00229487	0.001	0.999	0.999	0.001	0.001	0.001	0.001	0.001	0.001	0.332292	0.0541007	0.001	0.0191042	0.999	0.999	0.306619	0.001	0.257627	0.999	0.001	0.001	0.001	0.001	0.001	0.132052	0.0119241	0.001	0.001	0.0379479	0.001	0.001	0.168763	0.0533451	0.001	0.999	0.0985178	0.842952	0.999	0.999	
3.415	0.001	0.001	0.001	0.001	0.001	0.001	0.001	0.001	0.001	0.001	0.001	0.001	0.001	0.001	0.001	0.001	0.001	0.001	0.001	0.001	0.001	0.001	0.001	0.001	0.001	0.001	0.001	0.001	0.001	0.001	0.001	0.001	0.001	0.001	0.001	0.001	0.001	0.001	0.001	0.000997281	0.001	0.001	0.999	0.999	0.001	0.001	0.192133	0.001	0.001	0.001	0.318971	0.049765	0.001	0.001	0.999	0.999	0.325785	0.001	0.421481	0.999	0.001	0.001	0.001	0.001	0.001	0.122178	0.0110768	0.001	0.001	0.0366043	0.001	0.001	0.266088	0.0581347	0.001	0.999	0.0930715	0.767692	0.999	0.97648	
3.42	0.001	0.001	0.001	0.001	0.001	0.001	0.001	0.001	0.001	0.001	0.001	0.001	0.001	0.001	0.001	0.001	0.001	0.001	0.001	0.001	0.001	0.001	0.001	0.001	0.001	0.001	0.001	0.001	0.001	0.001	0.001	0.001	0.001	0.001	0.001	0.001	0.001	0.001	0.001	0.000997281	0.001	0.001	0.999	0.999	0.001	0.001	0.380135	0.001	0.001	0.001	0.303872	0.0451027	0.001	0.001	0.999	0.999	0.34847	0.001	0.512508	0.999	0.001	0.001	0.001	0.001	0.001	0.112189	0.0101606	0.001	0.001	0.0340289	0.001	0.013404	0.3541	0.0615461	0.001	0.999	0.0882611	0.705775	0.999	0.889392	
3.425	0.001	0.001	0.001	0.001	0.001	0.001	0.001	0.001	0.001	0.001	0.001	0.001	0.001	0.001	0.001	0.001	0.001	0.001	0.001	0.001	0.001	0.001	0.001	0.001	0.001	0.001	0.001	0.001	0.001	0.001	0.001	0.001	0.001	0.001	0.001	0.001	0.001	0.001	0.001	0.000997281	0.00166796	0.001	0.999	0.999	0.001	0.001	0.503846	0.0759556	0.001	0.001	0.283955	0.0384619	0.001	0.0113553	0.999	0.999	0.369133	0.001	0.556675	0.999	0.001	0.001	0.001	0.176923	0.001	0.0982864	0.00880687	0.001	0.001	0.0277521	0.001	0.355591	0.430887	0.0658522	0.001	0.999	0.0812338	0.646563	0.999	0.804315	
3.43	0.001	0.001	0.001	0.001	0.001	0.001	0.001	0.001	0.001	0.001	0.001	0.001	0.001	0.001	0.001	0.001	0.001	0.001	0.001	0.001	0.001	0.001	0.001	0.001	0.001	0.001	0.001	0.001	0.001	0.001	0.001	0.001	0.001	0.001	0.001	0.001	0.001	0.001	0.001	0.000997281	0.001025	0.001	0.999	0.999	0.001	0.001	0.589113	0.200949	0.001	0.001	0.255279	0.0313654	0.001	0.00214951	0.999	0.999	0.3844	0.001	0.476875	0.999	0.001	0.001	0.001	0.529343	0.001	0.081685	0.00730189	0.001	0.001	0.0142644	0.001	0.595789	0.498743	0.0704221	0.001	0.999	0.0695502	0.557267	0.999	0.684473	
3.435	0.001	0.001	0.001	0.001	0.001	0.001	0.001	0.001	0.001	0.001	0.001	0.001	0.001	0.001	0.001	0.001	0.001	0.001	0.001	0.001	0.001	0.001	0.001	0.001	0.001	0.001	0.001	0.001	0.001	0.001	0.001	0.001	0.001	0.001	0.001	0.001	0.001	0.001	0.001	0.000997281	0.001	0.001	0.999	0.999	0.001	0.001	0.647855	0.338456	0.001	0.001	0.221482	0.0248276	0.001	0.001	0.957332	0.999	0.39342	0.001	0.454183	0.999	0.001	0.001	0.001	0.780983	0.001	0.066279	0.00586252	0.001	0.001	0.001	0.001	0.720613	0.559124	0.0764598	0.001	0.999	0.0583646	0.426785	0.999	0.510884	
3.44	0.001	0.001	0.001	0.001	0.001	0.001	0.001	0.001	0.001	0.001	0.001	0.001	0.001	0.001	0.001	0.001	0.001	0.001	0.001	0.001	0.001	0.001	0.001	0.001	0.001	0.001	0.001	0.001	0.001	0.001	0.001	0.001	0.001	0.001	0.001	0.001	0.001	0.001	0.001	0.000997281	0.001	0.001	0.999	0.999	0.001	0.001	0.687966	0.470786	0.001	0.001	0.174163	0.0180716	0.001	0.001	0.891322	0.999	0.396024	0.001	0.388024	0.999	0.001	0.001	0.001	0.927867	0.001	0.0493202	0.00432247	0.001	0.001	0.001	0.001	0.742908	0.609499	0.081617	0.001	0.999	0.0446905	0.276085	0.999	0.304215	
3.445	0.001	0.001	0.001	0.001	0.001	0.001	0.001	0.001	0.001	0.001	0.001	0.001	0.001	0.001	0.001	0.001	0.001	0.001	0.001	0.001	0.001	0.001	0.001	0.001	0.001	0.001	0.001	0.001	0.001	0.001	0.001	0.001	0.001	0.001	0.001	0.001	0.001	0.001	0.001	0.000997281	0.001	0.001	0.999	0.999	0.001	0.001	0.702191	0.539963	0.001	0.001	0.078514	0.00330522	0.101551	0.001	0.822978	0.999	0.393099	0.001	0.320251	0.999	0.001	0.001	0.001	0.925289	0.001	0.0101488	0.001	0.001	0.001	0.001	0.001	0.692986	0.632491	0.0875272	0.001	0.764342	0.0103617	0.214666	0.201774	0.213945	
3.45	0.001	0.001	0.001	0.001	0.001	0.001	0.001	0.001	0.001	0.001	0.001	0.001	0.001	0.001	0.001	0.001	0.001	0.001	0.001	0.001	0.001	0.001	0.001	0.001	0.001	0.001	0.001	0.001	0.001	0.001	0.001	0.001	0.001	0.001	0.001	0.001	0.001	0.001	0.001	0.000997281	0.001	0.001	0.999	0.999	0.001	0.001	0.704639	0.563199	0.157315	0.104295	0.001	0.001	0.0910143	0.001	0.750863	0.97393	0.386355	0.001	0.231812	0.999	0.001	0.001	0.001	0.850524	0.001	0.001	0.001	0.001	0.001	0.001	0.001	0.64714	0.635125	0.0952534	0.001	0.581328	0.001	0.239422	0.155845	0.239386	
3.455	0.001	0.001	0.001	0.001	0.001	0.001	0.001	0.001	0.001	0.001	0.001	0.001	0.001	0.001	0.001	0.001	0.001	0.001	0.001	0.001	0.001	0.001	0.001	0.001	0.001	0.001	0.001	0.001	0.001	0.001	0.001	0.001	0.001	0.001	0.001	0.001	0.001	0.001	0.001	0.000997281	0.001	0.001	0.999	0.999	0.001	0.001	0.705151	0.583988	0.414782	0.269567	0.001	0.001	0.0851535	0.001	0.674324	0.871057	0.374085	0.001	0.125848	0.999	0.001	0.001	0.001	0.775207	0.001	0.001	0.001	0.001	0.001	0.001	0.001	0.625924	0.633637	0.105233	0.001	0.52658	0.001	0.266295	0.147191	0.267115	
3.46	0.001	0.001	0.001	0.001	0.001	0.001	0.001	0.001	0.001	0.001	0.001	0.001	0.001	0.001	0.001	0.001	0.001	0.001	0.001	0.001	0.001	0.001	0.001	0.001	0.001	0.001	0.001	0.001	0.001	0.001	0.001	0.001	0.001	0.001	0.001	0.001	0.001	0.001	0.001	0.000997281	0.001	0.001	0.999	0.999	0.001	0.001	0.70337	0.602347	0.697939	0.421856	0.001	0.001	0.0620176	0.001	0.592741	0.758822	0.356608	0.001	0.0350285	0.999	0.001	0.001	0.001	0.698586	0.001	0.001	0.001	0.001	0.001	0.001	0.001	0.61526	0.627967	0.117179	0.001	0.492884	0.001	0.293716	0.0797019	0.295309	
3.465	0.001	0.001	0.001	0.001	0.001	0.001	0.001	0.001	0.001	0.001	0.001	0.001	0.001	0.001	0.001	0.001	0.001	0.001	0.001	0.001	0.001	0.001	0.001	0.001	0.001	0.001	0.001	0.001	0.001	0.001	0.001	0.001	0.001	0.001	0.001	0.001	0.001	0.001	0.001	0.000997281	0.001	0.001	0.999	0.999	0.001	0.001	0.657401	0.61758	0.49488	0.304544	0.001	0.001	0.0983569	0.001	0.375188	0.439618	0.276042	0.001	0.62227	0.999	0.001	0.001	0.001	0.525228	0.001	0.001	0.001	0.001	0.001	0.0131305	0.001	0.58581	0.590913	0.131364	0.001	0.585586	0.001	0.324732	0.704931	0.329444	
3.47	0.001	0.001	0.001	0.001	0.001	0.001	0.001	0.001	0.001	0.001	0.001	0.001	0.001	0.001	0.001	0.001	0.001	0.001	0.001	0.001	0.001	0.001	0.001	0.001	0.001	0.001	0.001	0.001	0.001	0.001	0.001	0.001	0.001	0.001	0.001	0.001	0.001	0.001	0.001	0.000997281	0.001	0.001	0.999	0.80098	0.001	0.001	0.658641	0.636752	0.189724	0.0933283	0.001	0.001	0.165409	0.001	0.316111	0.355196	0.261099	0.001	0.297512	0.999	0.001	0.001	0.001	0.480057	0.001	0.001	0.001	0.001	0.001	0.0247232	0.001	0.580069	0.582997	0.147882	0.001	0.632781	0.001	0.325745	0.001	0.315887	
3.475	0.001	0.001	0.001	0.001	0.001	0.001	0.001	0.001	0.001	0.001	0.001	0.001	0.001	0.001	0.001	0.001	0.001	0.001	0.001	0.001	0.001	0.001	0.001	0.001	0.001	0.001	0.001	0.001	0.001	0.001	0.001	0.001	0.001	0.001	0.001	0.001	0.001	0.001	0.001	0.000997281	0.001	0.001	0.72767	0.418875	0.001	0.001	0.657938	0.64635	0.0322146	0.0035729	0.001	0.001	0.167827	0.001	0.292684	0.3092	0.252328	0.00587757	0.999	0.999	0.001	0.001	0.220239	0.423009	0.001	0.001	0.001	0.001	0.001	0.0411486	0.001	0.568286	0.569006	0.166923	0.001	0.622784	0.001	0.366648	0.137062	0.36845	
3.48	0.001	0.001	0.001	0.001	0.001	0.001	0.001	0.001	0.001	0.001	0.001	0.001	0.001	0.001	0.001	0.001	0.001	0.001	0.001	0.001	0.001	0.001	0.001	0.001	0.001	0.001	0.001	0.001	0.001	0.001	0.001	0.001	0.001	0.001	0.001	0.001	0.001	0.001	0.001	0.000997281	0.001	0.00104372	0.516563	0.304467	0.001	0.001	0.665475	0.657201	0.001	0.001	0.0982657	0.0102004	0.22421	0.001	0.296232	0.30824	0.25773	0.0755362	0.999	0.999	0.001	0.001	0.372993	0.390669	0.001	0.0454493	0.00198128	0.001	0.001	0.048557	0.001	0.557017	0.556893	0.188278	0.001	0.739016	0.0581414	0.386011	0.109912	0.387317	
3.485	0.001	0.001	0.001	0.001	0.001	0.001	0.001	0.001	0.001	0.001	0.001	0.001	0.001	0.001	0.001	0.001	0.001	0.001	0.001	0.001	0.001	0.001	0.001	0.001	0.001	0.001	0.001	0.001	0.001	0.001	0.001	0.001	0.001	0.001	0.001	0.001	0.001	0.001	0.001	0.000997281	0.001	0.001	0.776121	0.500267	0.001	0.001	0.677461	0.664289	0.001	0.001	0.199461	0.0336634	0.326388	0.001	0.350996	0.370572	0.276884	0.150143	0.999	0.999	0.001	0.217348	0.696154	0.365773	0.001	0.146822	0.00606128	0.001	0.001	0.0478722	0.001	0.546461	0.544965	0.211666	0.001	0.999	0.17348	0.402093	0.162975	0.401995	
3.49	0.001	0.001	0.001	0.001	0.001	0.001	0.001	0.001	0.001	0.001	0.001	0.001	0.001	0.001	0.001	0.001	0.001	0.001	0.001	0.001	0.001	0.001	0.001	0.001	0.001	0.001	0.001	0.001	0.001	0.001	0.001	0.001	0.001	0.001	0.001	0.001	0.001	0.001	0.001	0.000997281	0.001	0.001	0.999	0.887378	0.001	0.001	0.690769	0.666767	0.001	0.001	0.269963	0.0645253	0.445964	0.001	0.450183	0.487193	0.307473	0.280577	0.999	0.999	0.00190795	0.620092	0.999	0.343526	0.001	0.251095	0.0111834	0.001	0.001	0.0409557	0.001	0.537938	0.532889	0.236901	0.001	0.999	0.25377	0.416368	0.0984312	0.414739	
3.495	0.001	0.001	0.001	0.001	0.001	0.001	0.001	0.001	0.001	0.001	0.001	0.001	0.001	0.001	0.001	0.001	0.001	0.001	0.001	0.001	0.001	0.001	0.001	0.001	0.001	0.001	0.001	0.001	0.001	0.001	0.001	0.001	0.001	0.001	0.001	0.001	0.001	0.001	0.001	0.000997281	0.001	0.001	0.999	0.999	0.001	0.001	0.708801	0.664646	0.001	0.001	0.329605	0.097067	0.561254	0.001	0.594002	0.664664	0.355603	0.613215	0.999	0.999	0.001	0.420795	0.999	0.33694	0.001	0.320649	0.0162745	0.001	0.001	0.0234695	0.001	0.541078	0.525845	0.263778	0.001	0.999	0.258276	0.427122	0.0697347	0.422709	
3.5	0.001	0.001	0.001	0.001	0.001	0.001	0.001	0.001	0.001	0.001	0.001	0.001	0.001	0.001	0.001	0.001	0.001	0.001	0.001	0.001	0.001	0.001	0.001	0.001	0.001	0.001	0.001	0.001	0.001	0.001	0.001	0.001	0.001	0.001	0.001	0.001	0.001	0.001	0.001	0.000997281	0.001	0.001	0.999	0.999	0.001	0.001	0.728748	0.656838	0.001	0.001	0.366977	0.126837	0.658491	0.001	0.772295	0.888934	0.417815	0.999	0.999	0.999	0.00254264	0.562286	0.999	0.340189	0.001	0.345123	0.0211396	0.001	0.001	0.001	0.001	0.557328	0.524649	0.292961	0.001	0.999	0.20939	0.434583	0.036236	0.426114	
3.505	0.001	0.001	0.001	0.001	0.001	0.001	0.001	0.001	0.001	0.001	0.001	0.001	0.001	0.001	0.001	0.001	0.001	0.001	0.001	0.001	0.001	0.001	0.001	0.001	0.001	0.001	0.001	0.001	0.001	0.001	0.001	0.001	0.001	0.001	0.001	0.001	0.001	0.001	0.001	0.000997281	0.001	0.001	0.999	0.999	0.001	0.00113339	0.737729	0.644101	0.001	0.001	0.396683	0.163961	0.737119	0.001	0.918958	0.999	0.473283	0.999	0.999	0.999	0.001	0.999	0.999	0.33916	0.001	0.334202	0.0219018	0.001	0.001	0.001	0.001	0.562478	0.521717	0.322392	0.001	0.999	0.15655	0.439074	0.0260029	0.425176	
3.51	0.001	0.001	0.001	0.001	0.001	0.001	0.001	0.001	0.001	0.001	0.001	0.001	0.001	0.001	0.001	0.001	0.001	0.001	0.001	0.001	0.001	0.001	0.001	0.001	0.001	0.001	0.001	0.001	0.001	0.001	0.001	0.001	0.001	0.001	0.001	0.001	0.001	0.001	0.001	0.000997281	0.001	0.001	0.999	0.999	0.001	0.001	0.724512	0.624888	0.001	0.001	0.416272	0.168312	0.79092	0.001	0.983231	0.999	0.498591	0.999	0.999	0.999	0.001	0.999	0.999	0.306141	0.001	0.316486	0.0228635	0.001	0.001	0.001	0.001	0.550663	0.507372	0.353356	0.001	0.999	0.0831534	0.439847	0.0228924	0.419767	
3.515	0.001	0.001	0.001	0.001	0.001	0.001	0.001	0.001	0.001	0.001	0.001	0.001	0.001	0.001	0.001	0.001	0.001	0.001	0.001	0.001	0.001	0.001	0.001	0.001	0.001	0.001	0.001	0.001	0.001	0.001	0.001	0.001	0.001	0.001	0.001	0.001	0.001	0.001	0.001	0.000997281	0.001	0.001	0.999	0.999	0.001	0.001	0.68969	0.601285	0.001	0.001	0.431103	0.179509	0.830367	0.001	0.944913	0.999	0.492635	0.999	0.999	0.999	0.001	0.999	0.999	0.255196	0.001	0.286121	0.0231224	0.001	0.001	0.001	0.001	0.521837	0.480843	0.384919	0.001	0.999	0.0589529	0.438171	0.0306831	0.41106	
3.52	0.001	0.001	0.001	0.001	0.001	0.001	0.001	0.001	0.001	0.001	0.001	0.001	0.001	0.001	0.001	0.001	0.001	0.001	0.001	0.001	0.001	0.001	0.001	0.001	0.001	0.001	0.001	0.001	0.001	0.001	0.001	0.001	0.001	0.001	0.001	0.001	0.001	0.001	0.001	0.000997281	0.001	0.001	0.999	0.999	0.001	0.001	0.640572	0.57439	0.001	0.001	0.44204	0.187113	0.853181	0.001	0.814805	0.924701	0.46228	0.999	0.999	0.999	0.001	0.999	0.999	0.209689	0.001	0.259387	0.023191	0.001	0.001	0.0345963	0.001	0.478799	0.445227	0.416589	0.001	0.999	0.0578855	0.433937	0.0406147	0.399529	
3.525	0.001	0.001	0.001	0.001	0.001	0.001	0.001	0.001	0.001	0.001	0.001	0.001	0.001	0.001	0.001	0.001	0.001	0.001	0.001	0.001	0.001	0.001	0.001	0.001	0.001	0.001	0.001	0.001	0.001	0.001	0.001	0.001	0.001	0.001	0.001	0.001	0.001	0.001	0.001	0.000997281	0.001	0.001	0.999	0.999	0.001	0.001	0.583164	0.54543	0.001	0.001	0.45137	0.19492	0.869195	0.001	0.631232	0.693379	0.411821	0.999	0.999	0.999	0.001	0.999	0.999	0.168458	0.001	0.239885	0.0228801	0.001	0.001	0.0807583	0.001	0.424868	0.402991	0.448825	0.001	0.999	0.0667539	0.425954	0.0555724	0.384066	
3.53	0.001	0.001	0.001	0.001	0.001	0.001	0.001	0.001	0.001	0.001	0.001	0.001	0.001	0.001	0.001	0.001	0.001	0.001	0.001	0.001	0.001	0.001	0.001	0.001	0.001	0.001	0.001	0.001	0.001	0.001	0.001	0.001	0.001	0.001	0.001	0.001	0.001	0.001	0.001	0.000997281	0.001	0.001	0.414464	0.485979	0.00102993	0.001	0.524582	0.514551	0.001	0.001	0.457797	0.190974	0.877164	0.001	0.420459	0.430979	0.351495	0.999	0.999	0.999	0.001	0.999	0.999	0.151121	0.001	0.225892	0.0225539	0.001	0.001	0.130331	0.001	0.36839	0.360165	0.482583	0.00575241	0.999	0.0855662	0.414829	0.0703026	0.365914	
3.535	0.001	0.001	0.001	0.001	0.001	0.001	0.001	0.001	0.001	0.001	0.001	0.001	0.001	0.001	0.001	0.001	0.001	0.001	0.001	0.001	0.001	0.001	0.001	0.001	0.001	0.001	0.001	0.001	0.001	0.001	0.001	0.001	0.001	0.001	0.001	0.001	0.001	0.001	0.001	0.000997281	0.001	0.001	0.001	0.0791498	0.001	0.001	0.481948	0.482152	0.001	0.001	0.463929	0.193422	0.883281	0.001	0.337972	0.329675	0.320944	0.999	0.999	0.0411283	0.001	0.999	0.999	0.141313	0.410853	0.218471	0.0222409	0.00131934	0.001	0.156236	0.001	0.34063	0.33801	0.51752	0.220839	0.999	0.106129	0.398945	0.0851747	0.344073	
3.54	0.001	0.001	0.001	0.001	0.001	0.001	0.001	0.001	0.001	0.001	0.001	0.001	0.001	0.001	0.001	0.001	0.001	0.001	0.001	0.001	0.001	0.001	0.001	0.001	0.001	0.001	0.001	0.001	0.001	0.001	0.001	0.001	0.001	0.001	0.001	0.001	0.001	0.001	0.001	0.000997281	0.001	0.001	0.0148659	0.201538	0.001	0.001	0.449993	0.449014	0.001	0.001	0.470957	0.185738	0.88451	0.001	0.311285	0.309929	0.311972	0.999	0.999	0.001	0.001	0.999	0.656182	0.170727	0.260534	0.226997	0.022963	0.001	0.001	0.161284	0.001	0.337683	0.335431	0.552532	0.0700851	0.999	0.103457	0.378342	0.0954006	0.319912	
3.545	0.001	0.001	0.001	0.001	0.001	0.001	0.001	0.001	0.001	0.001	0.001	0.001	0.001	0.001	0.001	0.001	0.001	0.001	0.001	0.001	0.001	0.001	0.001	0.001	0.001	0.001	0.001	0.001	0.001	0.001	0.001	0.001	0.001	0.001	0.001	0.001	0.001	0.001	0.001	0.000997281	0.219483	0.001	0.386954	0.296138	0.001	0.001	0.418085	0.416885	0.001	0.001	0.474456	0.185284	0.881492	0.001	0.278138	0.279448	0.293011	0.999	0.66678	0.001	0.001	0.999	0.00699346	0.192138	0.594023	0.220615	0.0223253	0.001	0.001	0.166691	0.001	0.337861	0.336001	0.586311	0.001	0.999	0.109025	0.352647	0.0984053	0.293963	
3.55	0.001	0.001	0.001	0.001	0.001	0.001	0.001	0.001	0.001	0.001	0.001	0.001	0.001	0.001	0.001	0.001	0.001	0.001	0.001	0.001	0.001	0.001	0.001	0.001	0.001	0.001	0.001	0.001	0.001	0.001	0.001	0.001	0.001	0.001	0.001	0.001	0.001	0.001	0.001	0.000997281	0.138782	0.001	0.236924	0.233171	0.001	0.001	0.387614	0.386974	0.001	0.001	0.48035	0.180655	0.874356	0.001	0.252851	0.253248	0.266967	0.999	0.56327	0.001	0.001	0.999	0.00110742	0.19232	0.6974	0.222637	0.0224862	0.001	0.001	0.168398	0.001	0.341322	0.33967	0.61746	0.00643205	0.999	0.113134	0.322776	0.0913196	0.266701	
3.555	0.001	0.001	0.001	0.001	0.001	0.001	0.001	0.001	0.001	0.001	0.001	0.001	0.001	0.001	0.001	0.001	0.001	0.001	0.001	0.001	0.001	0.001	0.001	0.001	0.001	0.001	0.001	0.001	0.001	0.001	0.001	0.001	0.001	0.001	0.001	0.001	0.001	0.001	0.001	0.000997281	0.141308	0.001	0.140267	0.175362	0.001	0.001	0.360537	0.360357	0.001	0.001	0.484821	0.172858	0.861844	0.001	0.224775	0.22444	0.238039	0.999	0.389712	0.001	0.001	0.999	0.001	0.195168	0.79786	0.225968	0.0226682	0.001	0.001	0.165974	0.001	0.34756	0.346236	0.64324	0.0143018	0.999	0.118668	0.289816	0.0684597	0.2388	
3.56	0.001	0.001	0.001	0.001	0.001	0.001	0.001	0.001	0.001	0.001	0.001	0.001	0.001	0.001	0.001	0.001	0.001	0.001	0.001	0.001	0.001	0.001	0.001	0.001	0.001	0.001	0.001	0.001	0.001	0.001	0.001	0.001	0.001	0.001	0.001	0.001	0.001	0.001	0.001	0.000997281	0.0915111	0.001	0.103843	0.151577	0.001	0.001	0.33699	0.33694	0.001	0.001	0.487708	0.164379	0.841904	0.001	0.19697	0.196505	0.208549	0.999	0.252662	0.001	0.001	0.999	0.001	0.199833	0.771173	0.224949	0.0226773	0.001	0.001	0.158989	0.001	0.355737	0.354603	0.660381	0.0113979	0.999	0.119143	0.255174	0.0326769	0.210909	
3.565	0.001	0.001	0.001	0.001	0.001	0.001	0.001	0.001	0.001	0.001	0.001	0.001	0.001	0.001	0.001	0.001	0.001	0.001	0.001	0.001	0.001	0.001	0.001	0.001	0.001	0.001	0.001	0.001	0.001	0.001	0.001	0.001	0.001	0.001	0.001	0.001	0.001	0.001	0.001	0.000997281	0.0443427	0.001	0.118614	0.157337	0.001	0.001	0.317203	0.318802	0.001	0.001	0.490667	0.154045	0.819265	0.001	0.168511	0.168275	0.179217	0.999	0.128371	0.001	0.001	0.979714	0.001	0.223611	0.773653	0.223884	0.0229088	0.001	0.001	0.145246	0.0714869	0.368878	0.365303	0.666499	0.001	0.999	0.12284	0.201718	0.0033527	0.144709	
3.57	0.001	0.001	0.001	0.001	0.001	0.001	0.001	0.001	0.001	0.001	0.001	0.001	0.001	0.001	0.001	0.001	0.001	0.001	0.001	0.001	0.001	0.001	0.001	0.001	0.001	0.001	0.001	0.001	0.001	0.001	0.001	0.001	0.001	0.001	0.001	0.001	0.001	0.001	0.001	0.000997281	0.001	0.001	0.279805	0.249159	0.001	0.001	0.304174	0.310366	0.001	0.001	0.487892	0.14179	0.798136	0.001	0.144424	0.145931	0.155573	0.999	0.0970105	0.001	0.001	0.927272	0.001	0.285559	0.604018	0.229709	0.0276706	0.001	0.001	0.125201	0.925822	0.391446	0.378834	0.664347	0.001	0.999	0.162408	0.120206	0.157401	0.00187103	
3.575	0.001	0.001	0.001	0.001	0.001	0.001	0.001	0.001	0.001	0.001	0.001	0.001	0.001	0.001	0.001	0.001	0.001	0.001	0.001	0.001	0.001	0.001	0.001	0.001	0.001	0.001	0.001	0.001	0.001	0.001	0.001	0.001	0.001	0.001	0.001	0.001	0.001	0.001	0.001	0.000997281	0.001	0.001	0.001	0.166621	0.001	0.001	0.285349	0.299718	0.001	0.001	0.496074	0.137256	0.763224	0.001	0.121461	0.120295	0.124412	0.999	0.00319339	0.001	0.001	0.999	0.001	0.348663	0.747935	0.224942	0.0240655	0.001	0.001	0.100861	0.999	0.420676	0.39443	0.645295	0.001	0.999	0.122176	0.0137114	0.001	0.001	
3.58	0.001	0.001	0.001	0.001	0.001	0.001	0.001	0.001	0.001	0.001	0.001	0.001	0.001	0.001	0.001	0.001	0.001	0.001	0.001	0.001	0.001	0.001	0.001	0.001	0.001	0.001	0.001	0.001	0.001	0.001	0.001	0.001	0.001	0.001	0.001	0.001	0.001	0.001	0.001	0.000997281	0.001	0.001	0.001	0.001	0.001	0.001	0.267489	0.294739	0.001	0.001	0.498904	0.132202	0.730056	0.001	0.129594	0.119063	0.0926648	0.999	0.001	0.001	0.001	0.999	0.001	0.366497	0.719662	0.227667	0.0257868	0.001	0.001	0.0774498	0.999	0.450371	0.404777	0.619183	0.001	0.999	0.135599	0.001	0.13768	0.001	
3.585	0.001	0.001	0.001	0.001	0.001	0.001	0.001	0.001	0.001	0.001	0.001	0.001	0.001	0.001	0.001	0.001	0.001	0.001	0.001	0.001	0.001	0.001	0.001	0.001	0.001	0.001	0.001	0.001	0.001	0.001	0.001	0.001	0.001	0.001	0.001	0.001	0.001	0.001	0.001	0.000997281	0.001	0.001	0.001	0.001	0.00138323	0.001	0.24806	0.291227	0.001	0.001	0.501771	0.125926	0.692243	0.001	0.164389	0.139868	0.0578375	0.999	0.0483419	0.001	0.001	0.999	0.001	0.324533	0.640774	0.224783	0.0267776	0.001	0.001	0.05575	0.960972	0.479826	0.410893	0.58519	0.0849209	0.999	0.148569	0.001	0.001	0.001	
3.59	0.001	0.001	0.001	0.001	0.001	0.001	0.001	0.001	0.001	0.001	0.001	0.001	0.001	0.001	0.001	0.001	0.001	0.001	0.001	0.001	0.001	0.001	0.001	0.001	0.001	0.001	0.001	0.001	0.001	0.001	0.001	0.001	0.001	0.001	0.001	0.001	0.001	0.001	0.001	0.000997281	0.001	0.001	0.001	0.001	0.00748725	0.001	0.22706	0.286992	0.001	0.001	0.500019	0.118426	0.651294	0.001	0.220368	0.17886	0.0198681	0.999	0.0505012	0.001	0.001	0.999	0.001	0.201424	0.623159	0.220073	0.028067	0.001	0.001	0.0381695	0.953789	0.501043	0.410306	0.545497	0.212356	0.999	0.161143	0.001	0.0774593	0.001	
3.595	0.001	0.001	0.001	0.001	0.001	0.001	0.001	0.001	0.001	0.001	0.001	0.001	0.001	0.001	0.001	0.001	0.001	0.001	0.001	0.001	0.001	0.001	0.001	0.001	0.001	0.001	0.001	0.001	0.001	0.001	0.001	0.001	0.001	0.001	0.001	0.001	0.001	0.001	0.001	0.000997281	0.001	0.001	0.001	0.001	0.001	0.001	0.205284	0.280992	0.001	0.001	0.488262	0.102552	0.603691	0.001	0.293739	0.235889	0.001	0.999	0.001	0.001	0.001	0.999	0.001	0.001	0.59836	0.200633	0.0259978	0.001	0.001	0.0256383	0.947954	0.51431	0.402897	0.501405	0.390089	0.999	0.158106	0.001	0.001	0.001	
3.6	0.001	0.001	0.001	0.001	0.001	0.001	0.001	0.001	0.001	0.001	0.001	0.001	0.001	0.001	0.001	0.001	0.001	0.001	0.001	0.001	0.001	0.001	0.001	0.001	0.001	0.001	0.001	0.001	0.001	0.001	0.001	0.001	0.001	0.001	0.001	0.001	0.001	0.001	0.001	0.000997281	0.001	0.001	0.001	0.001	0.001	0.001	0.183406	0.273277	0.001	0.001	0.464767	0.0883609	0.553945	0.001	0.378062	0.306821	0.001	0.999	0.001	0.001	0.001	0.999	0.001	0.001	0.570052	0.177419	0.0234713	0.001	0.001	0.0184547	0.940372	0.517848	0.389842	0.455582	0.603631	0.845003	0.147436	0.001	0.0362355	0.001	
3.605	0.001	0.001	0.001	0.001	0.001	0.001	0.001	0.001	0.001	0.001	0.001	0.001	0.001	0.001	0.001	0.001	0.001	0.001	0.001	0.001	0.001	0.001	0.001	0.001	0.001	0.001	0.001	0.001	0.001	0.001	0.001	0.001	0.001	0.001	0.001	0.001	0.001	0.001	0.001	0.000997281	0.001	0.001	0.001	0.001	0.00638544	0.001	0.161373	0.265486	0.001	0.001	0.437703	0.0740703	0.50267	0.001	0.473747	0.39439	0.001	0.999	0.0618224	0.001	0.001	0.999	0.001	0.001	0.518161	0.15476	0.0209317	0.001	0.001	0.0155768	0.931815	0.510589	0.372609	0.407194	0.825311	0.669299	0.138938	0.001	0.001	0.001	
3.61	0.001	0.001	0.001	0.001	0.001	0.001	0.001	0.001	0.001	0.001	0.001	0.001	0.001	0.001	0.001	0.001	0.001	0.001	0.001	0.001	0.001	0.001	0.001	0.001	0.001	0.001	0.001	0.001	0.001	0.001	0.001	0.001	0.001	0.001	0.001	0.001	0.001	0.001	0.001	0.000997281	0.001	0.001	0.001	0.001	0.001	0.001	0.140778	0.259799	0.001	0.001	0.411976	0.0609461	0.456535	0.001	0.571262	0.489325	0.001	0.999	0.0583103	0.001	0.001	0.999	0.001	0.001	0.441424	0.134375	0.0186031	0.001	0.001	0.0156373	0.923563	0.502336	0.35375	0.360771	0.999	0.567029	0.13357	0.001	0.00720536	0.001	
3.615	0.001	0.001	0.001	0.001	0.001	0.001	0.001	0.001	0.001	0.001	0.001	0.001	0.001	0.001	0.001	0.001	0.001	0.001	0.001	0.001	0.001	0.001	0.001	0.001	0.001	0.001	0.001	0.001	0.001	0.001	0.001	0.001	0.001	0.001	0.001	0.001	0.001	0.001	0.001	0.000997281	0.001	0.001	0.001	0.001	0.001	0.001	0.118498	0.251995	0.001	0.001	0.377046	0.0401863	0.406629	0.001	0.675742	0.603397	0.001	0.999	0.001	0.001	0.001	0.999	0.001	0.001	0.348863	0.103138	0.0148128	0.001	0.001	0.0250559	0.916	0.483508	0.326507	0.310797	0.999	0.449238	0.127619	0.00704723	0.001	0.001	
3.62	0.001	0.001	0.001	0.001	0.001	0.001	0.001	0.001	0.001	0.001	0.001	0.001	0.001	0.001	0.001	0.001	0.001	0.001	0.001	0.001	0.001	0.001	0.001	0.001	0.001	0.001	0.001	0.001	0.001	0.001	0.001	0.001	0.001	0.001	0.001	0.001	0.001	0.001	0.001	0.000997281	0.001	0.001	0.001	0.001	0.0100966	0.001	0.0967298	0.244165	0.001	0.001	0.340814	0.0336408	0.362754	0.001	0.772014	0.720442	0.001	0.999	0.001	0.001	0.001	0.999	0.001	0.001	0.244847	0.0896813	0.0129497	0.001	0.001	0.0349581	0.908379	0.459545	0.294126	0.265393	0.999	0.33403	0.116331	0.00426992	0.001	0.001	
3.625	0.001	0.001	0.001	0.001	0.001	0.001	0.001	0.001	0.001	0.001	0.001	0.001	0.001	0.001	0.001	0.001	0.001	0.001	0.001	0.001	0.001	0.001	0.001	0.001	0.001	0.001	0.001	0.001	0.001	0.001	0.001	0.001	0.001	0.001	0.001	0.001	0.001	0.001	0.001	0.000997281	0.001	0.001	0.001	0.00907597	0.001	0.001	0.0493263	0.219258	0.001	0.001	0.146845	0.00757545	0.304205	0.001	0.789972	0.713471	0.001	0.999	0.209793	0.001	0.001	0.999	0.001	0.001	0.999	0.0224248	0.00322793	0.001	0.001	0.0744988	0.901941	0.347223	0.209729	0.223364	0.999	0.185642	0.0331051	0.00241364	0.001	0.001	
3.63	0.001	0.001	0.001	0.001	0.001	0.001	0.001	0.001	0.001	0.001	0.001	0.001	0.001	0.001	0.001	0.001	0.001	0.001	0.001	0.001	0.001	0.001	0.001	0.001	0.001	0.001	0.001	0.001	0.001	0.001	0.001	0.001	0.001	0.001	0.001	0.001	0.001	0.001	0.001	0.000997281	0.001	0.001	0.001	0.001	0.001	0.001	0.0475526	0.217352	0.001	0.001	0.158404	0.00643686	0.279246	0.001	0.95661	0.993213	0.001	0.999	0.345788	0.001	0.001	0.999	0.001	0.001	0.001	0.0208074	0.00295257	0.001	0.001	0.0817153	0.894643	0.374863	0.202897	0.18462	0.999	0.139258	0.0390452	0.00101466	0.001	0.001	
