CEINMS output
datacolumns 81
datarows 92
endheader
time	addbrev_r	addlong_r	addmagDist_r	addmagIsch_r	addmagMid_r	addmagProx_r	bflh_r	bfsh_r	edl_r	ehl_r	fdl_r	fhl_r	gaslat_r	gasmed_r	glmax1_r	glmax2_r	glmax3_r	glmed1_r	glmed2_r	glmed3_r	glmin1_r	glmin2_r	glmin3_r	grac_r	iliacus_r	perbrev_r	perlong_r	piri_r	psoas_r	recfem_r	sart_r	semimem_r	semiten_r	soleus_r	tfl_r	tibant_r	tibpost_r	vasint_r	vaslat_r	vasmed_r	addbrev_l	addlong_l	addmagDist_l	addmagIsch_l	addmagMid_l	addmagProx_l	bflh_l	bfsh_l	edl_l	ehl_l	fdl_l	fhl_l	gaslat_l	gasmed_l	glmax1_l	glmax2_l	glmax3_l	glmed1_l	glmed2_l	glmed3_l	glmin1_l	glmin2_l	glmin3_l	grac_l	iliacus_l	perbrev_l	perlong_l	piri_l	psoas_l	recfem_l	sart_l	semimem_l	semiten_l	soleus_l	tfl_l	tibant_l	tibpost_l	vasint_l	vaslat_l	vasmed_l	
3.19	0.0785366	1.59449	0.667081	0.351056	0.16502	0.231105	11.783	2.0734	0.343068	0.0837516	0.305813	0.583232	7.80972	20.8796	23.7052	31.5644	19.3229	6.72159	7.94663	16.3585	0.00863102	-2.51953e-05	0.366529	0.103487	0.861018	0.503222	0.407775	2.95347	0.458801	0.777884	0.0289909	36.0774	3.6815	20.2277	0.0535934	0.249008	1.67567	1.4566	2.16911	1.10657	0.371383	0.332198	337.724	326.626	332.823	0.352968	8.55733	1.17984	1.10268	0.161681	400.428	21.1961	20.2383	0.801009	11.1505	21.9404	4.48296	2188.14	721.435	437.316	291.382	691.533	0.141365	9.60315	0.668065	39.1608	4.00097	0.269439	2.5424	0.0565019	253.401	30.532	2.80888	2.38607	0.105723	7.58962	97.6502	0.0979465	4.1978	0.187506	
3.195	0.0951346	2.35063	0.494181	0.315922	0.107322	0.625681	16.8773	6.94826	0.905891	0.250226	0.547579	0.97559	17.3052	40.1536	17.1086	20.9627	9.11137	12.7129	8.47112	9.75023	0.0114392	-0.000105353	0.583532	0.24261	3.11424	0.851775	0.817436	1.71444	1.64187	2.11395	0.119811	47.8833	5.82342	21.6315	0.22977	0.830611	2.68418	1.38318	2.46231	1.21491	0.486475	0.483806	374.725	352.364	337.03	111.468	5.18766	0.842883	1.28186	0.226336	398.891	50.2496	19.1149	1.60452	27.9484	48.8311	7.39634	2538.16	942.931	515.353	311.707	186.113	0.164859	9.51645	1.61017	77.0407	10.6854	0.53344	3.4344	0.0359536	245.114	21.0949	1.83203	6.02601	0.211775	9.0915	162.334	0.26232	8.41599	0.805229	
3.2	1.99266	2.85312	1.77001	1.96878	1.41434	10.5318	24.4057	19.0517	2.32849	1.09128	0.912965	1.48872	24.3527	45.7291	16.9189	21.1556	9.33497	12.7798	8.28964	9.76119	0.00505681	-0.00016346	0.585301	1.02113	10.8669	1.31872	2.04125	1.45269	6.99912	18.9054	1.95443	49.1414	7.04477	26.2869	3.81737	5.61385	3.75845	2.7468	8.80625	4.45995	0.92923	0.92803	539.493	432.283	462.325	199.196	193.076	78.9893	1.29316	0.239951	392.543	180.839	301.907	3.2408	584.009	879.579	172.364	2632.54	368.523	52.348	312.232	106.495	0.168145	73.9303	3.2063	61.0703	-0.112282	1.04073	3.69351	0.0257186	236.83	156.354	104.34	28.2994	0.427743	3.91224	5.74803	3.78957	10.1045	11.5468	
3.205	2.21322	2.85241	1.83161	2.03214	1.47646	10.5193	23.2641	18.3651	2.27492	1.06399	0.924789	1.51421	24.6279	44.9537	16.4339	20.9754	9.36056	11.6352	7.73354	9.43978	0.000247506	-0.000199451	0.522404	1.01317	10.7914	1.34065	2.08037	1.37643	6.98366	20.6219	1.8952	46.5106	6.78491	28.6509	3.88848	5.45409	3.81927	2.78896	8.91043	4.54614	126.412	113.038	633.331	485.204	513.103	215.064	267.771	108.985	150.571	14.9481	391.944	276.756	455.735	3.23643	1201.88	1872.23	505.478	1726.57	32.4698	2.80082	640.847	707.46	0.16811	130.1	239.244	60.1994	-0.103994	1.03931	528.779	0.180716	228.864	202.368	133.663	23.1384	0.427166	1.97439	5.33599	3.78897	11.7594	11.6457	
3.21	2.40948	2.85168	1.83703	2.02146	1.52213	10.5058	21.675	17.7077	2.18502	1.01993	0.933268	1.53578	24.5465	44.0743	15.7011	20.4506	9.21695	10.5364	7.18706	9.08035	-1.11388e-05	-0.00022129	0.467756	0.990731	10.709	1.36011	2.10718	1.30442	6.98086	22.1692	1.83674	43.5136	6.48491	31.5474	3.90334	5.20284	3.87305	2.90336	9.22406	4.72389	304.082	214.99	574.297	482.578	426.534	193.866	317.304	110.424	277.908	0.936523	392.367	351.112	541.012	3.23186	1451.41	2406.14	623.712	672.198	2.67203	0.472817	958.117	1315.36	0.168075	155.212	577.062	68.1253	-0.102384	1.03783	1252.61	0.34319	220.601	223.687	134.45	17.8908	0.426563	0.460278	9.91105	3.78832	13.3011	11.6954	
3.215	2.66792	2.85098	1.85351	1.99521	1.58237	10.4934	19.8588	17.034	2.0917	0.973869	0.942464	1.56044	24.5341	43.5409	15.0327	20.018	9.12568	9.35228	6.67432	8.84417	-2.95824e-05	-0.000224262	0.41394	0.967801	10.614	1.38038	2.13654	1.24675	6.98097	23.5658	1.77802	40.2318	6.14767	34.8585	3.90437	4.9308	3.93276	3.00856	9.51363	4.88744	467.783	267.26	407.952	412.203	279.312	180.374	334.651	100.507	372.41	-0.000753966	394.607	404.876	573.436	3.22737	1432.25	2524.19	604.859	162.863	1.14634	0.259022	1128.9	1400.43	7.01282	153.82	990.733	77.931	-0.101383	14.0072	1943.29	0.422079	211.631	241.332	137.872	13.1757	0.42597	0.000509654	18.7428	3.78783	14.6907	11.7731	
3.22	2.9737	2.85025	1.87827	1.97948	1.65405	10.4799	18.1302	16.3458	1.984	0.92006	0.954309	1.59071	24.6001	43.1126	14.4179	19.6408	9.06028	8.11091	6.2192	8.72215	-4.04441e-05	-0.000207837	0.363895	0.94264	10.5036	1.40571	2.17376	1.21959	6.96894	24.9033	1.71927	36.6007	5.77817	39.0185	3.90693	4.59961	4.00688	3.1628	9.95672	5.13555	574.56	275.236	247.545	297.267	154.785	175.284	337.685	92.3684	436.802	-0.000577342	398.589	445.893	584.905	3.2229	1365.95	2517.71	589.863	139.417	1.10132	0.295566	1215.1	949.151	1.56927	142.84	1377.15	92.6823	-0.0992365	13.6965	2479.2	0.487347	201.956	267.254	145.283	9.45368	0.42538	-0.00456997	37.2139	4.39345	15.8863	11.8363	
3.225	3.32269	2.84949	1.90689	1.9624	1.74012	10.4657	16.5795	15.6503	1.8589	0.85749	0.967981	1.62427	24.6782	42.694	13.8629	19.3124	9.01769	6.85256	5.85349	8.72137	-4.26603e-05	-0.000175668	0.321655	0.917196	10.3799	1.43556	2.21566	1.22329	6.94806	26.1729	1.66092	32.8535	5.39849	43.8647	3.90915	4.20668	4.09105	3.38477	10.6045	5.49144	619.583	257.57	137.33	183.513	81.6188	169.036	338.444	86.849	465.988	-0.000297972	403.405	481.931	595.867	3.21846	1337.8	2554.01	630.09	26.1133	1.16495	0.309464	1260.37	552.471	0.339097	133.449	1669.46	111.513	-0.096537	10.7859	2716.87	0.594004	191.854	302.756	153.259	6.66241	0.424794	-0.011171	66.3406	5.30361	16.8829	11.8898	
3.23	3.70889	2.84874	1.94353	1.94393	1.84446	10.4518	15.2301	14.9561	1.72151	0.788907	0.982324	1.65899	24.7416	42.3101	13.3877	19.0444	9.00492	5.64241	5.56756	8.85166	-3.71111e-05	-0.000134884	0.290235	0.89402	10.2441	1.46762	2.25913	1.27334	6.91949	27.2742	1.60316	29.3061	5.03028	48.9488	3.90785	3.77174	4.17902	3.65331	11.3897	5.9162	627.474	233.11	76.9627	99.7499	44.3765	161.05	341.698	81.6887	479.543	21.189	409.276	516.599	609.806	3.21404	1333.08	2633.37	707.57	7.22391	1.26939	0.331342	1286.17	95.4765	0.177639	126.45	1854.75	130.996	-0.093756	37.5669	2812.14	0.713172	181.703	335.137	161.097	4.65005	0.42421	-0.0163504	106.221	6.32504	17.7113	11.9456	
3.235	4.12152	2.84799	1.99241	1.93472	1.97287	10.4378	14.1264	14.2701	1.57848	0.71758	0.996573	1.69327	24.7896	41.9639	13.0076	18.8499	9.02867	4.58171	5.36277	9.12481	-2.68714e-05	-9.49148e-05	0.269206	0.875287	10.0965	1.5003	2.30238	1.3756	6.88276	28.1498	1.54625	26.2291	4.69322	53.8176	3.9022	3.3204	4.2665	3.94895	12.2545	6.37926	611.389	210.307	44.5452	52.8653	25.1337	190.764	348.221	76.1983	482.853	12.53	416.005	550.742	625.121	3.20963	1327.98	2717.04	801.714	5.067	1.40186	0.372329	1302.91	13.8906	0.1591	120.589	1943.31	147.371	-0.0908931	49.6584	2819.49	0.795921	171.897	362.073	169.748	3.24269	0.420615	-0.0193642	153.92	7.10612	18.4098	12.007	
3.24	4.54505	2.84724	2.05547	1.93812	2.13348	10.4239	13.2788	13.6129	1.43594	0.646757	1.01007	1.72539	24.8165	41.6233	12.7331	18.7399	9.09688	3.77579	5.2207	9.42724	-1.62198e-05	-6.30306e-05	0.257201	0.862751	9.93822	1.53232	2.34377	1.51437	6.83802	28.8093	1.49048	23.7729	4.40383	58.0722	3.88911	2.88073	4.34928	4.27073	13.1968	6.88091	579.022	190.463	26.3958	29.3994	14.6992	241.991	358.339	70.7553	479.33	2.36754	423.401	584.057	640.722	3.20523	1316.76	2781.68	902.698	4.86585	1.54937	0.427078	1030.09	2.96437	0.157232	115.249	1952.06	158.044	-0.0878974	52.9426	2768.33	0.849257	162.704	387.773	179.985	2.28845	34.1219	-0.0198191	204.003	7.87204	18.9994	12.067	
3.245	4.96347	3.3649	2.13578	1.95522	2.33716	10.4097	12.648	12.9949	1.30028	0.579906	1.02204	1.75374	24.8154	41.2391	12.5743	18.7194	9.21696	3.22164	5.13361	9.5414	-8.06939e-06	-3.95772e-05	0.252901	0.857952	9.7702	1.56228	2.38127	1.67839	6.7854	29.2911	1.43633	21.9349	4.17422	61.3597	3.86486	2.48278	4.42303	4.61276	14.1966	7.41093	536.484	174.279	15.8928	17.5725	10.252	287.722	372.881	65.724	470.505	0.450125	431.254	615.693	656.928	3.20084	1302.05	2819.44	1009.01	4.8729	1.71223	0.495929	664.548	1.56557	0.157055	110.587	1892.33	161.969	-0.0848036	52.6686	2668.91	0.899591	154.231	415.963	192.517	1.65838	74.7809	-0.0180922	250.42	9.14196	19.4618	12.1005	
3.25	5.36049	4.16784	2.23641	1.9865	2.59584	10.3954	12.174	12.4405	1.178	0.520409	1.03186	1.77687	24.779	40.7598	12.5407	18.7941	9.39618	2.86878	5.07919	9.88908	-2.24152e-06	-2.2055e-05	0.254954	0.862078	9.59335	1.5889	2.41313	1.88298	6.72485	29.6397	1.38364	20.6065	4.01122	63.4543	3.82595	2.15316	4.48388	4.95767	15.201	7.94073	489.885	163.316	9.82751	10.9549	6.9539	314.163	393.16	61.7039	457.822	0.192291	439.256	644.351	674.771	3.19646	1283.85	2823.78	1117.67	4.90135	1.89084	0.583051	338.602	1.41035	0.157039	106.866	1774.08	162.48	-0.0816689	62.8381	2529.66	1.00925	146.525	449.073	208.434	1.24687	116.826	-0.0150501	287.677	10.4097	19.7919	12.0982	
3.255	5.71765	4.29992	2.36132	2.03449	2.92348	10.3809	11.8213	11.9517	1.07426	0.47088	1.03899	1.79353	24.6974	40.1316	12.6395	18.9655	9.64652	2.66991	4.92394	10.2552	5.67775e-05	-7.89276e-06	0.262135	0.876016	9.40849	1.61094	2.43794	2.13809	6.65637	29.8941	1.33257	19.7032	3.91913	64.3775	3.76876	1.90162	4.52892	5.28402	16.1493	8.43856	444.757	158.166	6.3362	7.11208	4.6716	321.78	421.169	58.9636	442.641	0.143655	447.101	668.781	695.42	3.19209	1260.44	2790.59	1219.73	4.93378	2.08413	0.692204	156.073	1.40441	0.157023	104.176	1607.83	162.839	-0.0785329	73.9629	2358.74	1.12556	139.642	490.062	229.347	0.993695	158.362	-0.0107409	311.343	11.3478	20.0151	12.069	
3.26	6.01627	4.39905	2.51486	2.10014	3.3367	10.3663	11.6324	11.5472	0.992499	0.432654	1.04311	1.80296	24.5609	39.3518	12.9505	19.2275	9.97896	2.58214	4.77883	10.638	0.000897586	8.49134e-05	0.273254	0.900288	9.21684	1.62758	2.45461	2.43589	6.58024	30.0835	1.2832	19.2043	3.89985	64.3515	3.68952	1.7196	4.55626	5.57196	16.9842	8.87526	404.55	155.556	4.34903	4.91398	3.21215	317.662	460.803	56.9946	426.232	0.131994	454.44	687.52	719.804	3.18772	1231.81	2724.52	1299.49	4.96895	2.29147	0.827595	68.5996	1.4143	14.7732	102.51	1412.59	162.841	-0.0754165	73.7918	2165.75	1.21959	133.644	541.759	257.52	0.860916	189.819	-0.00570155	318.753	12.0729	20.1747	12.028	
3.265	6.24501	4.54434	2.69921	2.18287	3.85233	10.3514	11.6683	11.2215	0.934141	0.405733	1.0441	1.80492	24.3641	38.4543	15.2183	19.573	10.4045	2.56628	4.69565	11.0092	0.00274175	0.00245867	0.28717	0.935084	9.01966	1.63814	2.46252	2.75177	6.49696	30.227	1.23574	19.0902	3.95436	63.6283	3.58474	1.59591	4.56524	5.80499	17.658	9.22656	370.319	152.261	3.24076	3.67586	2.34047	308.177	517.521	55.675	409.718	0.138129	460.93	699.273	748.981	3.18337	1199.03	2635.24	1346.06	5.00695	2.51256	0.99543	29.5362	1.42474	3.79508	101.885	1210.15	162.229	-0.0723318	64.5561	1965.16	1.24969	128.567	607.902	295.971	0.818393	209.271	-0.000259735	313.671	12.6592	20.2816	11.9672	
3.27	6.40748	4.67044	2.92252	2.2866	4.48028	10.3364	11.951	10.9814	0.898448	0.389496	1.04207	1.80017	24.1051	37.4816	17.2439	19.9828	10.9333	2.58849	4.61056	11.3206	0.00555046	0.00795488	0.302794	0.980012	8.81882	1.64231	2.4615	3.04656	6.40751	30.334	1.19016	19.3726	4.08334	62.4235	3.45267	1.52013	4.55615	5.97	18.1338	9.47339	341.585	148.068	2.6434	2.98592	1.84118	297.037	596.653	55.1389	394.156	0.142606	466.252	703.98	784.255	3.17902	1162.97	2531.47	1364.61	5.04577	2.74118	1.20559	12.8735	1.43445	1.14151	102.389	1008.04	161.009	-0.069268	54.6505	1768.25	1.15021	124.413	698.425	348.408	0.846081	212.059	0.0330204	301.996	13.3017	20.3119	11.8702	
3.275	6.50974	4.76228	3.18555	2.4154	5.20138	10.3213	12.4988	10.8254	0.884962	0.383567	1.03723	1.78927	23.7861	36.4415	19.0049	20.4357	11.5721	2.75512	4.5335	11.5241	0.0092666	0.0163648	0.318971	1.03408	8.61644	1.63999	2.45167	3.27179	6.31309	30.4039	1.14674	20.0793	4.28907	60.8495	3.2928	1.48676	4.53002	6.05876	18.386	9.60339	317.304	143.833	2.3415	2.61013	1.5626	286.182	703.904	56.09	380.521	0.146915	470.108	701.871	827.089	3.17468	1124.32	2419.8	1366.55	5.08271	2.96731	1.47229	5.98904	1.44342	0.540178	104.198	817.769	159.338	-0.0662083	60.406	1577.73	0.901137	121.159	829.813	419.064	0.929513	188.368	0.111877	287.219	13.9876	20.262	11.7281	
3.28	6.56119	4.83222	3.49298	2.57278	5.98237	10.3059	13.335	10.742	0.894859	0.388471	1.03	1.77213	23.4118	35.3345	20.4536	20.8976	12.3227	2.92698	4.46023	11.5745	0.0138253	0.0274487	0.334888	1.09549	8.41519	1.63141	2.4335	3.38048	6.21463	30.4236	1.10549	21.2677	4.57571	58.9616	3.10851	1.49832	4.48883	6.06717	18.4028	9.61064	296.586	140.527	2.2071	2.41188	1.40956	276.773	858.545	59.2125	369.572	0.152491	472.255	693.471	878.975	3.17035	1083.64	2305.1	1360.37	5.11504	3.18295	1.80386	3.21392	1.45176	0.607141	107.585	660.13	157.281	-0.0631249	65.5859	1396.29	0.58857	118.775	1020.48	512.483	1.05922	136.5	0.194769	271.13	14.7691	20.2445	11.6125	
3.285	6.56631	4.88685	3.84631	2.76206	6.78234	10.2904	14.507	10.7249	0.930205	0.405106	1.02087	1.74923	22.9801	34.1656	21.6599	21.3347	13.1785	3.04896	4.38879	11.4425	0.0191556	0.0409381	0.361457	1.16171	8.21779	1.61688	2.40765	3.34148	6.11351	30.3602	1.06653	23.0232	4.94571	56.7788	2.90761	1.56464	4.4348	5.99563	18.183	9.49492	278.982	139.267	2.1613	2.31086	1.32622	269.674	1076.09	63.7822	196.242	0.158386	472.511	679.765	941.297	3.16603	1041.27	2190.46	1352	5.14026	3.37993	2.19804	2.11616	1.45969	0.823857	112.958	548.991	154.848	-0.0599844	46.8938	1229.6	0.358746	117.226	1286.58	631.912	1.22184	85.5238	0.334974	254.453	15.7042	20.1983	11.4736	
3.29	6.53414	4.92992	4.24028	2.98535	7.55766	10.2747	16.0655	10.7634	0.994485	0.435285	1.01032	1.72209	22.4863	32.9383	22.6656	21.7044	14.1233	3.17502	4.32361	11.1209	0.0251848	0.0565505	0.412077	1.22968	8.02712	1.59686	2.37498	3.1538	6.01075	30.1096	1.02986	25.4474	5.4008	54.29	2.69746	1.69914	4.37038	5.84959	17.7389	9.26344	264.477	137	2.15804	2.26162	1.28103	265.599	1349.39	68.9911	16.0814	0.165195	470.784	661.96	1015.1	3.16171	997.294	2077.16	1342.43	5.15663	3.55076	2.64163	1.68579	1.46744	1.07139	120.838	471.07	152.12	-0.0567547	29.0923	1084.3	0.248891	116.481	1637.38	771.231	1.40797	64.453	0.586027	237.612	16.7838	270.541	14.0131	
3.295	6.47382	4.96658	4.66272	3.24356	8.27241	10.2589	18.033	10.8388	1.09365	0.482251	0.998804	1.69197	21.9168	31.6446	23.5075	21.9725	15.1297	3.27478	4.27049	10.6303	0.0318431	0.0739847	0.434302	1.29596	7.84526	1.57195	2.33632	2.84989	5.90773	29.5145	0.995507	28.6418	5.9333	51.4442	2.48441	1.92423	4.29786	5.6393	17.094	8.93032	253.285	133.299	2.17215	2.24019	1.2565	265.082	1672.69	75.0396	0.616112	0.172054	467.07	640.93	1100.79	3.15741	951.605	1964.97	1330.49	5.16375	3.68975	3.10791	1.5122	1.47457	1.29952	131.822	414.154	149.184	-0.0534103	16.2217	965.101	0.174472	116.524	2071.66	905.959	1.60234	52.0357	0.853759	221.01	70.552	1826.97	191.281	
3.3	6.39275	5.00246	5.09777	3.53503	8.90962	10.2429	20.43	10.9338	1.2355	0.550825	0.986724	1.65925	21.2538	30.2812	24.2136	22.107	16.1583	3.33655	4.21829	10.0096	0.0390762	0.0929527	0.454818	1.35694	7.67366	1.54268	2.29248	2.48351	5.80529	28.4896	0.963416	32.7021	6.52505	48.2428	2.27405	2.27565	4.21916	5.38033	16.2862	8.51566	245.666	133.317	2.19046	2.23486	1.24309	268.505	2042.45	82.9628	0.572283	0.179592	461.45	617.785	1198.24	3.15311	904.042	1853.76	1315.53	5.16237	3.7945	3.55641	1.42909	1.48103	1.47769	146.608	371.945	146.08	-0.0499322	8.27167	868.452	0.134507	117.369	2581.26	1014.38	1.79307	49.8622	1.08851	204.994	155.645	3278.12	422.457	
3.305	6.29399	5.04	5.53006	3.85542	9.43167	10.2267	23.2564	11.0346	1.42473	0.644514	0.974309	1.62421	20.4716	28.8447	24.8074	22.0548	17.1626	3.38853	4.15912	9.31551	0.0468645	0.113194	0.468789	1.40934	7.51305	1.50957	2.24422	2.12036	5.70443	26.9874	0.933368	37.5764	7.14932	44.6909	2.07199	2.80014	4.13565	5.09584	15.3699	8.04779	241.841	135.482	2.20732	2.23978	1.23565	276.206	2315.57	93.7013	0.747131	0.188048	454.06	593.839	1306.03	3.14883	854.621	1743.88	1297.61	5.1483	3.86661	3.95125	1.36642	1.48607	1.60504	166.56	339.052	142.845	-0.0463157	4.15951	788.519	0.105289	119.036	3030.49	1072.83	1.97049	53.2674	1.36728	189.814	224.687	4856.02	648.756	
3.31	6.1748	5.08144	5.94394	4.19757	9.81398	10.2103	26.42	11.1216	1.65944	0.762621	0.961599	1.58725	19.5317	27.3167	25.3084	21.7683	18.0846	3.48651	4.09546	8.60599	0.0552506	0.134499	0.47272	1.45057	7.36509	1.47299	2.19217	1.81091	5.60547	25.0412	0.905311	42.9907	7.77367	40.8113	1.88379	3.50961	4.04802	4.82132	14.4114	7.56274	241.889	137.721	2.22147	2.25045	1.23139	288.689	2358.56	107.772	0.720453	0.196573	445.107	570.152	1421.65	3.14455	803.742	1636.07	1277.44	5.10589	3.91028	4.27873	1.29046	1.48652	1.6873	193.082	312.263	139.541	-0.0425651	2.14549	724.536	0.0822989	121.595	2980.63	1075.74	2.12939	54.0864	1.77166	175.62	273.626	4605.28	811.188	
3.315	6.03257	5.12564	6.32629	4.54734	10.0989	10.1938	29.6966	11.1775	1.92833	0.898674	0.948498	1.54854	18.3971	25.7081	25.7326	21.3925	18.8738	3.60683	4.03241	7.93068	0.0663184	0.156837	0.466469	1.47903	7.23303	1.43317	2.13682	1.56523	5.50874	22.8179	0.878803	48.5365	8.3614	36.6081	1.71435	4.35125	3.95621	4.63744	13.5001	7.11127	245.826	140.412	2.23371	2.26405	1.22882	306.952	2343.84	125.379	0.686292	0.206361	434.858	547.133	1541.76	3.14028	753.451	1531.74	1256.14	5.00401	3.93147	4.53294	1.18322	1.47534	1.7327	225.456	286.699	136.223	-0.038699	1.14091	674.511	0.0645009	125.238	2762.37	1046.98	2.27114	48.4007	2.35377	162.495	307.665	4221.76	897.047	
3.32	5.86557	5.17011	6.66646	4.88782	10.2718	10.1771	32.8579	11.1959	2.20985	1.04021	0.934761	1.50803	17.0549	24.0174	26.0925	20.9049	19.4906	3.7756	3.97459	7.32529	0.0862893	0.181709	0.461863	1.49526	7.10769	1.39023	2.07843	1.35884	5.41392	20.5075	0.853762	53.8175	8.88618	32.0891	1.56733	5.21716	3.85937	4.9173	12.7475	6.77196	253.673	143.804	2.24537	2.27946	1.22715	332.797	2316.43	146.415	0.708671	0.216327	423.619	525.36	1662.08	3.13601	703.201	1432.25	1234.2	4.79667	3.93713	4.71414	1.0445	1.441	1.75033	260.911	263.487	132.934	-0.0347417	0.623626	636.622	0.0511233	130.168	2509.99	1007.12	2.39284	32.3756	3.18993	150.474	328.188	3833.89	925.217	
3.325	5.67333	5.21219	6.95637	5.2037	10.3701	10.1602	35.6859	11.1613	2.47819	1.17252	0.919916	1.46553	15.4943	22.1902	26.3983	20.3725	19.9129	3.99791	3.92892	6.8074	0.0979488	0.229829	0.461323	1.5004	6.9905	1.34429	2.01738	1.17131	5.32059	18.3151	0.829483	58.4399	9.32086	27.3477	1.44554	5.9787	3.75617	5.24622	12.4461	6.89437	265.445	132.58	2.25743	2.29444	1.95653	369.29	2287.23	170.721	0.746893	0.226741	411.712	505.187	1777.82	3.13176	653.276	1336.93	1210.92	4.4309	3.93458	4.82985	23.2569	1.36874	1.74787	295.729	244.35	129.711	-0.0307284	0.350966	608.595	0.0410296	136.774	2265.61	962.415	2.48728	21.6983	4.37975	139.556	337.039	3729.01	915.866	
3.33	5.45672	5.24921	7.19233	5.48231	10.4064	10.1432	38.0146	11.0774	2.70466	1.27958	0.903531	1.42079	13.7226	20.24	26.6582	20.9372	20.1317	4.22009	3.90247	6.38563	0.110046	0.263906	0.464145	1.49606	6.8782	1.29532	1.95391	1.02406	5.22786	16.4456	0.804821	62.1341	9.65199	22.5833	1.35055	6.50552	3.6452	5.52232	13.7223	7.63208	281.087	113.881	2.26955	2.30719	2.0397	387.178	2252.86	197.38	0.782874	0.238345	399.448	486.626	1883.34	3.12752	604.628	1246.85	1185.35	3.89213	3.931	4.89282	240.764	1.24539	1.73368	325.427	228.904	126.586	-0.0266958	0.205402	588.713	0.0333343	145.597	2027.41	915.073	2.55585	14.4703	6.00531	129.716	336.916	3819.03	882.507	
3.335	5.21755	5.27835	7.37214	5.71387	10.3941	17.9094	39.7272	10.9345	2.86341	1.34942	0.885126	1.37347	11.776	18.1462	26.8786	23.7375	20.1506	4.46794	3.89016	6.40549	0.120742	0.293802	0.477718	1.48451	6.76813	1.24356	1.88829	0.919964	5.13458	15.0768	0.781773	64.75	9.87096	18.219	1.28287	6.78211	3.52483	5.74669	14.8811	8.16311	274.015	93.304	2.28143	2.31892	2.02942	360.608	2212.99	224.9	0.820453	0.249759	387.117	469.657	1971.4	3.12328	557.781	1162.12	1157.24	3.28043	3.93264	4.9175	418.473	1.07982	1.71676	345.293	215.948	123.593	-0.0226834	0.127309	575.941	0.0273957	157.39	1794.02	866.529	2.59008	9.42684	7.97211	120.904	330.959	4186.66	835.464	
3.34	4.95792	5.29636	7.4946	5.89311	10.3417	18.5566	40.7805	10.7459	2.95285	1.38483	0.86432	1.32295	9.76826	15.944	27.0649	26.198	19.9919	4.76465	3.8845	8.26529	0.133855	0.321301	0.494381	1.46615	6.65697	1.18937	1.82124	0.844204	5.03846	14.3709	0.759181	66.2751	9.9803	14.5753	1.24195	6.8775	3.3942	5.93241	15.8514	8.60131	224.884	73.9395	2.29229	2.32879	2.07136	295.881	2170.71	252.152	0.863728	0.261922	374.966	454.275	2031.79	3.11905	513.217	1082.39	1127	2.79325	3.93183	4.91781	415.896	25.8312	1.70525	351.602	204.497	120.734	-0.0187279	0.0854192	569.958	0.0228552	173.279	1572.94	817.645	2.59075	5.86071	9.60488	113.04	321.746	4728.54	783.665	
3.345	4.68507	5.30052	7.56104	6.01564	10.2566	18.2662	41.1188	10.5046	2.98648	1.39403	0.840849	1.26934	7.86601	13.716	27.2213	28.2777	19.6716	5.1096	3.90588	10.3662	0.150128	0.349925	0.508956	1.44183	6.54382	1.13345	1.75341	0.78034	4.93938	14.6239	0.737024	66.6534	9.97305	11.7524	1.22753	6.86653	3.25328	6.08846	16.6338	8.9554	158.64	56.6697	2.3011	2.33668	2.09801	211.617	2125.99	279.098	0.911475	0.274288	363.204	440.482	2053.26	3.11483	471.208	1007.39	1094.99	2.31097	3.89428	4.9073	363.067	84.4959	1.69819	345.316	193.507	118.029	-0.0148651	0.0630248	570.281	0.0193019	194.559	1370.15	769.078	2.56126	3.49546	11.0929	106.099	312.032	5292.37	737.863	
3.35	4.40599	5.2882	7.57162	6.08204	10.1408	18.8009	40.7483	10.2223	2.98051	1.3858	0.814841	1.21552	6.28769	9.41844	27.3512	29.9736	19.2282	5.51284	3.96985	12.4019	0.169927	0.388703	0.530696	1.41227	6.42582	1.07688	1.68611	0.742624	4.83634	15.1607	0.715365	65.9431	9.85983	9.7686	1.24047	6.80706	3.10355	6.22079	17.2817	9.25155	102.915	43.2095	2.30621	2.34264	2.11079	135.098	2073.39	306.232	0.962364	0.287251	351.99	428.148	2030.23	3.11062	431.658	936.33	1061.87	1.93905	3.82115	4.89661	323.332	89.5728	1.6468	331.887	182.04	115.486	-0.0111246	0.051124	576.748	0.0165384	222.861	1187.52	721.35	2.51131	2.03557	14.8197	99.9587	304.247	5767.72	707.868	
3.355	4.12771	5.25832	7.52858	6.09311	9.99598	18.9273	39.6584	9.89621	2.94927	1.36713	0.786614	1.15948	5.08242	7.7405	27.4574	31.3823	18.6883	5.95246	4.06815	14.1641	0.194544	0.434572	0.561012	1.3777	6.30292	1.02109	1.62078	0.968307	4.73073	15.5095	0.694108	64.1376	9.63898	8.4228	1.28345	6.72554	2.94809	6.33363	17.8238	9.50083	64.6144	32.6352	2.30521	2.34432	2.11551	81.4549	2013.72	332.604	1.01542	0.299798	341.438	417.045	1969.27	3.12543	394.289	868.316	1028.62	1.68874	3.71595	4.89401	191.682	201.488	1.51526	315.796	169.406	113.111	-0.00753236	0.0448556	589.075	0.0142808	259.915	1024	674.901	2.45145	1.17674	19.6618	94.5795	300.095	6082.05	699.148	
3.36	3.85697	5.21117	7.43299	6.05203	9.81954	18.9614	37.8549	9.53339	2.90218	1.34204	0.756919	1.10263	4.21832	6.86203	27.542	32.5588	18.0877	6.46358	4.20612	15.6909	0.222236	0.493827	0.598402	1.33832	6.17453	0.967688	1.55939	1.38935	4.62675	15.7976	0.673281	61.2372	9.31411	7.49826	1.3606	6.61368	2.79184	6.43029	18.2815	9.71221	40.3866	23.9912	2.29466	2.33716	2.11087	47.8527	1948.26	355.061	1.07008	0.313022	331.579	406.998	1888.6	3.34001	358.737	802.36	995.391	1.53793	3.54902	4.90311	84.812	282.487	1.31946	298.707	156.038	110.901	-0.00410833	0.0415995	607.477	0.0124663	307.937	881.676	630.027	2.39058	0.68457	25.5004	89.84	300.512	6251.3	712.058	
3.365	3.60001	5.14934	7.28778	5.96331	9.60722	18.92	35.3753	9.12959	2.84445	1.31239	0.726877	1.05052	3.63771	5.98674	27.6068	33.5467	17.4608	7.08166	4.38639	16.9927	0.255469	0.562046	0.637922	1.29393	6.04033	0.918569	1.50419	1.83382	4.51933	16.0376	0.652939	57.2638	8.89037	7.04978	1.4778	6.46677	2.6414	6.51347	18.6696	9.8922	25.0369	17.0252	2.27029	2.31552	2.0929	27.9082	1876.87	370.506	1.12581	0.325626	322.535	397.926	1801.24	6.35266	324.729	737.74	959.811	1.46589	3.34805	4.90535	36.4206	263.136	130.595	281.109	142.884	108.784	-0.000867778	0.0399479	633.531	0.0109379	290.736	761.375	586.916	2.35048	0.406814	32.1815	85.7467	305.788	6278.43	742.987	
3.37	3.36031	5.07805	7.09605	5.8331	9.35139	18.7877	32.2979	8.68599	2.77901	1.27907	0.697879	1.00161	3.2644	5.37285	27.6531	34.3782	16.8532	7.80608	4.61534	18.0892	0.296186	0.643287	0.69337	1.2437	5.90152	0.875808	1.45743	2.34351	4.40995	16.2432	0.633077	52.2758	8.37277	6.68339	1.64123	6.28744	2.5047	6.5854	19.0004	10.0462	15.3505	11.6544	2.22758	2.27371	2.05729	16.1339	1799.46	378.895	1.18187	0.338332	314.288	389.775	1711.47	13.4951	292.098	674.099	919.353	1.4607	3.14939	4.87455	16.2407	211.673	246.883	263.352	130.891	106.95	-0.0020208	0.0391476	670.145	0.00972297	168.163	660.172	545.675	2.30658	0.251708	39.1982	82.189	315.112	6201.67	785.041	
3.375	3.13878	5.00182	6.86229	5.66826	9.04266	18.5465	28.768	8.20191	2.70784	1.24284	0.67157	0.959912	3.022	4.97768	27.6818	35.0804	16.9803	8.69721	4.90404	19.0054	0.345934	0.744636	0.766355	1.18619	5.75843	0.841298	1.42143	2.84857	4.29941	16.4192	0.613718	46.439	7.77292	6.26978	1.85457	6.08087	2.39205	6.64788	19.2838	10.1787	12.1706	7.84852	2.16217	2.20679	1.99914	9.30207	1716.58	382.372	1.23758	0.350838	306.782	382.473	1620.7	20.2186	260.797	611.154	872.342	1.51808	2.97435	116.943	10.1366	118.575	353.805	245.715	120.924	105.14	0.0753618	0.0387974	720.956	0.00876898	59.1085	574.423	506.364	2.26255	0.165814	46.0966	79.1122	327.136	6041.34	830.235	
3.38	2.93431	4.92202	6.59277	5.47767	8.66993	18.1854	25.0115	7.67608	2.63264	1.20451	0.650047	0.927205	2.84295	4.82532	27.6936	35.6751	18.3759	9.8998	5.26418	19.7701	0.412616	0.870346	0.857255	1.12018	5.61217	0.816356	1.39857	3.31707	4.18779	16.5698	0.594812	40.0741	7.11287	5.99379	2.11609	5.85462	2.31214	6.70236	19.5279	10.2932	9.3199	5.38314	2.07056	2.11129	1.9133	5.43155	1629.73	383.24	1.29229	0.362862	300.049	375.946	1529.48	17.9589	230.849	548.882	818	1.64094	2.83567	403.813	5.88796	22.1427	448.575	228.381	115.089	103.682	0.306064	1.8168	790.307	0.00799271	18.186	500.792	469.066	2.2511	0.118587	52.5959	76.4732	340.523	5810.45	871.214	
3.385	2.74386	4.83461	6.29575	5.27056	8.22528	17.6924	21.3413	7.11107	2.55479	1.16477	0.635125	0.905881	2.64802	4.93349	27.6889	36.1801	19.5579	11.5907	5.73344	20.4096	0.515743	1.02851	0.970062	1.04574	5.46587	0.802042	1.39183	3.7361	4.07563	16.6983	0.576274	33.6766	6.4008	6.02578	2.41556	5.61687	2.27042	6.75002	19.7391	10.3927	6.67069	3.89344	1.95183	1.98599	1.79762	3.28493	1540.84	383.187	1.34526	0.37426	294.022	370.123	1437.75	13.8943	202.344	487.338	756.751	1.8367	2.73915	884.127	3.22356	3.00245	276.001	211.481	115.89	102.279	0.674189	1.77565	885.016	0.00777257	6.99629	435.892	433.867	2.28641	0.092787	58.4836	74.2291	355.205	5523.82	905.741	
3.39	2.5635	4.73261	5.98146	5.05786	7.71535	17.0602	18.0475	6.51187	2.47483	1.12421	0.628427	0.896786	2.47027	5.07361	27.6769	36.6098	20.5427	13.9714	6.3776	20.9466	0.679437	1.25875	1.10895	0.963792	5.3184	0.799015	1.40364	4.10121	3.96343	16.8655	0.557939	27.9126	5.67347	6.20156	2.73311	5.37207	2.26966	6.79185	19.9227	10.4794	4.71429	3.03435	1.81199	1.8376	1.65769	2.12599	1451.35	382.562	1.39576	0.384904	288.65	364.95	1345.82	25.0203	175.444	426.97	689.87	2.11087	2.683	1515.22	1.84896	0.972996	36.8597	195.116	124.748	101.104	1.16211	1.27619	1012	0.00758655	3.17749	377.634	400.814	2.36304	0.0787793	63.5551	72.347	372.554	5204.69	937.426	
3.395	2.38875	4.60813	5.66182	4.85128	7.15743	16.3027	15.2483	5.88965	2.39165	1.08331	0.630985	0.901964	2.38371	5.18981	27.6661	36.9756	21.3456	17.255	7.28271	21.3993	0.929045	1.62993	1.29907	0.875712	5.16979	0.807982	1.43524	4.41046	3.85147	23.4199	0.539613	23.1562	4.97345	6.13453	3.04355	5.12722	2.30944	6.82864	20.0829	10.5553	3.36735	2.55322	1.65893	1.6761	1.50288	1.60134	1362.86	380.858	1.44294	0.394635	283.89	360.39	1254.41	22.7799	155.999	372.998	617.856	2.45382	2.66025	2016.5	18.3745	0.753533	3.13981	179.355	142.423	100.07	1.7514	0.824868	1172.45	0.00708473	1.86764	324.686	369.911	2.49523	0.0712224	67.6445	70.8043	393.625	4878.03	971.028	
3.4	2.2129	4.45352	5.34895	4.66156	6.57192	15.4511	12.9819	5.26355	2.30375	1.0419	0.643403	0.923201	2.37709	5.37395	27.6555	37.2866	22.016	21.6296	8.53366	21.7826	1.27533	2.21609	1.59413	0.783295	5.02041	0.82939	1.48703	4.66872	3.74045	29.6212	0.52105	19.4234	4.34376	6.36879	3.3179	4.90301	2.39026	6.86106	20.2232	10.6219	2.61616	2.28852	1.4998	1.50961	1.34925	1.29905	1277.67	377.706	1.48587	0.403252	279.487	356.421	1164.6	17.6461	148.256	333.926	544.205	2.84077	2.66136	2270.63	29.1168	0.82521	2.09647	164.24	104.448	99.1789	2.42376	0.511704	1007.28	0.00689549	1.46479	275.981	341.099	2.69243	0.0671762	70.6373	69.5276	415.465	4563.86	1006.49	
3.405	2.02616	4.26267	5.05497	4.4988	5.98342	14.5396	11.2372	4.65914	2.21094	0.998935	0.665606	0.962769	2.41679	5.66755	27.645	37.5503	22.5796	27.0785	10.2095	22.1079	1.6647	3.07675	2.04976	0.689286	4.87013	0.863746	1.55832	4.88377	3.63031	31.0857	0.50199	16.551	3.80476	7.02898	3.52863	4.69559	2.51014	6.88965	20.3463	10.6806	2.17435	2.14445	1.34082	1.34454	1.32481	1.13338	1197.91	373.024	1.5236	0.41055	275.771	353.044	1077.67	25.5921	147.747	309.146	472.435	3.23729	2.6758	2275.02	140.501	0.943996	1.2634	149.782	46.0229	98.45	3.16139	0.314448	258.696	0.0068679	1.35361	230.612	314.249	2.95991	0.0650319	72.4769	68.6351	430.237	4219.32	1020.67	
3.41	1.83819	4.03134	4.79028	4.37228	5.41529	13.6029	9.9668	4.10375	2.11147	0.952955	0.697465	1.02308	2.46721	6.08309	27.6347	37.7727	23.0563	33.0775	12.3766	22.3848	2.02737	4.13423	2.71	0.597626	4.7182	0.911172	1.64763	5.06322	3.52152	31.4811	0.482187	14.2948	3.35393	8.03894	3.66917	4.48597	2.67122	6.91489	20.4547	10.7323	1.71294	2.06651	1.18834	1.187	1.32409	1.04241	1125.09	366.586	1.5551	0.41635	272.648	350.268	994.859	22.4839	157.28	301.347	405.331	3.60859	2.69311	2211.97	59.9937	1.06317	1.37411	135.971	18.2447	97.8989	3.94741	0.19584	36.4682	0.00670541	1.33062	182.085	289.306	3.31315	0.0639139	73.1612	68.0094	439.711	3842.64	1020.15	
3.415	1.64821	3.7606	4.56331	4.29162	4.89308	12.6735	9.28709	3.62641	2.00355	0.903282	0.73835	1.10698	2.5241	6.61237	27.6244	37.9587	23.4604	39.0291	15.0642	22.6207	2.31622	5.17984	3.58175	0.512762	4.56505	0.971289	1.75319	5.21356	3.4137	31.8982	0.461438	12.5372	2.9811	9.34458	3.75133	4.2597	2.87698	6.93716	20.5503	10.7779	1.35352	2.02445	132.588	84.9612	1.32461	1.03341	1056.87	358.837	1.5794	0.420461	270.023	348.121	917.144	17.1498	178.77	309.154	345.145	3.93057	2.7038	2133.43	27.4085	1.16636	1.42169	122.743	9.12394	97.5348	4.76608	0.12652	7.62102	0.00663366	1.33237	138.332	266.269	3.7581	0.0633476	72.758	67.6646	445.772	3473.21	1016.37	
3.42	1.46656	3.46569	4.37979	4.2707	4.43476	11.7827	10.6296	3.23686	1.88736	0.84991	0.787053	1.21685	2.60633	7.21085	27.6142	38.1121	23.8038	44.4525	18.105	22.8215	2.50622	6.05712	4.54526	0.439471	4.40813	1.04301	1.87205	5.34006	3.30598	32.3428	0.439621	11.1438	2.68835	11.0035	3.7896	4.01012	3.12791	6.95679	20.6347	10.8183	1.10633	2.0017	303.35	187.368	1.32439	1.00683	988.549	350.868	1.59546	0.422743	267.902	346.637	844.807	21.0825	207.384	326.039	293.356	4.1893	346.988	2028.71	14.452	1.24851	1.4473	109.987	5.62057	97.3674	5.6027	0.0868361	3.04791	0.00685802	1.3395	105.725	245.049	4.29934	0.0630771	71.3979	67.5996	450.147	3150.86	1016.65	
3.425	1.29926	3.16257	4.24403	4.34706	4.05161	10.994	13.5825	2.92273	1.76439	0.793218	0.842376	1.3506	2.78225	7.11963	27.6041	38.2361	24.0961	49.0648	21.2145	22.9921	2.60591	6.69223	5.45685	0.380111	4.24944	1.12432	2.00035	5.44692	3.20049	32.7815	0.416783	10.0659	2.46504	13.188	3.79763	3.73402	3.41888	6.97407	35.526	17.7722	1.17814	1.98931	448.1	284.997	1.32408	0.981897	917.463	343.056	1.60233	0.423055	266.252	345.854	777.452	17.9008	237.612	346.081	249.89	4.38162	578.741	1908.2	7.06299	1.30884	1.49084	97.6217	3.94739	97.4028	6.4438	0.0645006	2.16894	0.00746415	1.34639	81.3856	225.054	4.92932	0.0629647	69.2669	67.8124	454.122	2896.54	1024.03	
3.43	1.15019	2.86389	4.15754	4.69156	3.74676	11.09	16.6566	2.67789	1.63941	0.735409	0.902549	1.50257	3.41549	5.95522	27.5942	38.3331	24.3452	52.7063	24.166	23.1365	2.64387	7.07287	6.23005	0.333418	4.08428	1.21243	2.1343	5.53751	3.09426	33.1766	0.393146	9.24653	2.30004	16.6999	3.78586	3.43408	3.74056	11.9833	36.3844	18.9858	1.23178	1.98245	525.86	367.016	1.32381	0.963179	841.538	336.017	1.59906	0.421312	265.077	345.812	714.548	13.5153	265.679	366.005	214.224	4.51192	797.106	1763.39	3.71983	1.34998	1.52958	85.7331	2.98301	97.6438	7.27616	0.05212	2.11533	0.0088564	1.3516	63.3802	205.85	5.62622	0.0629364	66.5981	68.2914	459.932	2717.06	1043.36	
3.435	1.02242	2.57868	4.12162	4.96642	3.51771	11.0817	19.4439	2.48741	1.51684	0.678002	0.965326	1.66488	4.47318	6.01894	27.5843	38.4051	24.5574	55.3413	26.8187	23.2578	2.64256	7.2636	6.83999	0.297911	3.91547	1.30409	2.26969	5.61452	2.98761	33.477	0.369117	8.56936	2.18214	23.1599	3.76111	3.12822	4.07986	12.2118	36.5708	19.0827	1.1198	1.97853	545.079	416.088	1.32359	0.950318	758.91	330.184	1.58488	0.417409	264.379	346.538	655.676	15.577	289.818	384.821	185.422	4.58891	923.632	1602.92	2.30682	1.37629	1.54546	75.7852	2.32272	98.0918	8.08687	0.0453611	2.26345	0.0115276	1.35487	52.7414	186.934	6.37322	0.062953	63.6448	69.0283	470.045	2616.58	1079.88	
3.44	0.916949	2.31466	4.13715	5.19524	3.35793	11.0827	21.8469	2.34472	1.39917	0.623179	1.02805	1.8288	5.7305	6.33023	27.5746	38.4535	24.7378	57.1404	29.1253	23.3586	2.61706	7.33013	7.29004	0.270474	3.73808	1.3959	2.40207	5.6801	2.88083	33.6093	0.345286	7.96296	2.09966	34.3161	3.72679	2.82477	4.42145	12.2573	36.8037	19.194	0.991733	1.97618	537.459	439.417	1.32339	0.941805	669.359	325.625	1.55904	0.411322	264.19	348.047	600.636	13.6084	309.745	402.666	163.257	4.62117	1008.96	1434.32	1.73195	1.39113	1.53915	70.2309	1.83242	98.7355	8.86187	0.0417359	2.45928	0.01533	1.35624	47.4359	168.394	7.13789	0.0629933	60.6642	70.0126	484.976	2591.96	1133.82	
3.445	0.833194	2.07647	4.20468	5.38216	3.25903	11.076	23.9118	2.23975	1.2879	0.571458	1.08815	1.98562	6.98372	6.59266	27.5649	38.4793	24.8905	58.321	31.0902	23.4409	2.57647	7.31759	7.60465	0.250598	3.55415	1.4846	2.52732	5.73596	2.77267	33.5019	0.322423	7.56454	2.03459	50.4093	3.68413	2.53602	4.74936	12.3306	37.0846	19.3402	0.890129	2.27561	519.505	445.022	1.3232	0.936195	575.749	321.943	1.52108	0.403044	264.502	350.326	549.441	10.4959	325.799	419.762	146.775	4.61353	1014.88	1268.5	1.50605	1.39628	1.51258	70.0545	1.47528	99.5592	9.58519	0.0398383	2.66524	0.0179051	1.35574	44.142	150.554	7.90284	0.0630462	57.8937	71.1689	503.875	2633	1201.99	
3.45	0.769469	1.86602	4.32538	5.53878	3.21326	11.0706	25.6586	2.16172	1.18387	0.523022	1.14338	2.12796	8.12049	6.78079	27.5554	38.4831	25.0189	59.0488	32.7428	23.5065	2.52564	7.25434	7.82286	0.237914	3.35991	1.56742	2.64201	5.78352	2.66235	33.1307	0.30138	9.11013	1.97773	67.3849	3.63346	2.2655	5.04963	12.4246	37.3174	19.4692	0.819695	3.5004	498.906	439.721	1.323	0.93241	482.593	318.701	1.47089	0.392629	265.346	353.327	502.129	7.79176	338.463	436.374	134.452	4.56674	974.761	1119.41	1.4184	1.39215	1.46318	74.7273	1.23982	100.532	10.2382	0.0388844	2.87633	0.0150841	1.35339	39.8949	133.79	8.73127	0.0631058	55.5359	72.4266	524.619	2723.11	1277.93	
3.455	0.722461	1.68307	4.50063	5.67098	3.21514	11.0653	27.1227	2.0989	1.08798	0.478468	1.19208	2.25087	9.12575	6.92134	27.5459	38.4686	25.1256	59.4427	34.1206	23.5566	2.46704	7.15713	7.97691	0.228898	3.15595	1.64241	2.74372	5.8239	2.54934	32.5566	0.282948	12.8652	1.94804	81.1644	3.57433	2.01666	5.31284	12.5072	37.4912	19.5685	0.774164	3.89326	479.177	428.154	1.3228	0.929729	394.815	315.558	1.4087	0.380175	266.727	356.951	458.87	6.14846	348.327	452.754	125.228	4.47794	874.213	988.924	1.3814	1.37797	1.38669	82.9962	1.11648	101.617	10.7993	0.0384422	3.09042	0.00583711	1.34917	33.8689	118.576	9.63493	0.0631688	53.7441	73.689	546.409	2853.32	1358.76	
3.46	0.693869	1.52654	4.7313	5.78338	3.26099	11.0602	28.3448	2.03758	1.0008	0.437786	1.23324	2.35136	9.99482	7.0327	27.5365	38.4535	25.2129	59.5803	35.2665	23.5922	2.40198	7.03544	8.08808	0.222954	2.94195	1.70833	2.83102	5.85801	2.43314	31.8573	0.267564	16.9242	1.95238	89.5897	3.50534	1.79477	5.53309	12.5738	37.6361	19.6546	0.745875	3.54102	462.458	413.873	1.3226	0.927696	317.133	312.231	23.7472	18.3304	268.081	361.043	421.951	4.85427	356.063	468.866	118.408	4.34241	737.363	876.563	1.35909	1.3519	1.28112	93.3813	1.09258	102.756	11.2312	0.0382755	3.30348	0.00219961	1.34308	27.5385	105.363	10.6545	0.0633811	71.201	74.638	569.821	2553.7	1445.53	
3.465	0.676297	1.39283	5.01807	5.87937	3.34949	11.055	29.3656	1.9964	0.922728	0.401786	1.2664	2.42824	10.7282	7.12837	27.5272	38.439	25.2825	59.5151	36.2347	23.6139	2.33136	6.89449	8.16933	0.219725	2.71841	1.76452	2.90313	5.88659	2.3133	31.0457	0.255184	21.589	1.987	93.7155	3.42365	1.60221	5.70852	12.6265	37.743	19.7232	0.728664	3.07571	449.86	399.537	1.3224	0.926038	254.914	308.483	168.516	67.3762	264.005	365.362	391.609	3.96046	362.334	484.43	113.518	4.15641	562.784	784.465	1.33625	1.31149	1.14887	104.655	1.15321	103.841	11.4612	0.0382563	3.51082	0.00118051	1.33507	23.492	94.6019	11.8603	0.063449	88.1201	74.0258	596.245	1826.75	1542.28	
3.47	0.662793	1.27745	5.36018	5.96171	3.47951	11.0498	30.2211	1.97713	0.853929	0.370403	1.29154	2.48181	11.3399	7.23072	27.5179	38.4247	25.3357	59.2815	37.0649	23.6223	2.25588	6.73721	8.22778	0.218892	2.48788	1.8108	2.95996	5.91022	2.18937	30.0982	0.245662	26.1372	2.05381	95.5348	3.32515	1.43869	5.83978	12.6441	37.7503	19.7376	0.718246	2.68846	441.708	386.848	1.3222	0.924593	211.334	304.193	283.324	96.9838	128.995	369.592	367.312	3.38602	367.701	499.684	110.177	3.91992	363.691	713.978	1.30548	1.25465	0.99704	116.049	1.28242	104.587	11.4982	0.0383157	3.70766	0.000957851	1.32512	22.1485	86.4581	13.3299	0.0634794	98.9188	65.0375	626.855	1446.75	1654.46	
3.475	0.654418	1.17662	5.75509	6.03268	3.65352	11.0445	30.9411	1.97949	0.794907	0.343398	1.30908	2.51358	11.8491	7.37533	27.5088	38.4106	25.3736	58.9009	37.7775	23.6178	2.17618	6.5652	8.26651	0.220438	2.25527	1.84739	3.00214	5.9294	2.06192	29.1325	0.239321	30.3208	2.15352	96.3167	3.20394	1.30622	5.92979	12.6221	37.6582	19.6952	0.711868	2.4134	437.873	376.66	1.322	0.923266	185.195	299.439	371.819	105.182	25.7099	373.354	348.038	3.0327	372.601	514.505	108.096	3.63785	148.871	663.977	1.26257	1.18149	0.838471	127.31	1.46117	104.603	11.3277	0.038417	3.89042	0.00439852	1.31324	23.0599	80.8648	15.1629	0.0635089	126.251	43.0969	662.268	962.982	1787.75	
3.48	0.648303	1.08753	6.19834	6.09411	3.87297	11.0391	31.5497	2.01404	0.745584	0.321161	1.31959	2.526	12.2741	7.70495	27.4997	38.3965	25.3968	58.3843	38.3795	23.6079	2.09313	6.3792	8.28568	0.224591	2.02748	1.87485	3.03028	5.94449	1.93276	28.3079	0.238987	34.0439	2.29215	96.7076	3.05285	1.2023	5.98253	12.5778	37.4899	19.6181	0.707839	2.23362	438.127	365.793	1.3218	0.922006	172.008	294.653	439.575	101.839	68.0938	376.108	333.497	2.82155	376.76	527.814	107.031	3.31949	296.478	628.994	1.2053	1.09407	0.690998	138.43	1.67119	103.203	10.9698	0.0385404	4.05765	0.0324856	1.29956	25.7224	77.5498	17.4635	0.0635473	124.513	16.1449	702.383	1540.6	1946.57	
3.485	0.643328	1.00915	6.68232	6.72626	4.14256	11.0336	32.0661	2.08998	0.705723	0.303303	1.32377	2.52196	12.6305	8.63561	27.4906	38.3826	25.406	57.7355	38.8693	23.599	2.00789	6.17931	8.28368	0.231463	1.81282	1.8937	3.04555	5.95579	1.79996	27.4652	0.238778	37.2796	2.49266	96.9389	2.86465	1.12037	6.00272	12.5153	37.2102	19.4986	0.705152	2.12191	441.308	345.123	1.32159	0.920782	166.989	290.442	392.686	64.7698	97.9651	377.423	323.681	2.69761	380.264	539.298	106.858	2.97861	340.175	598.913	1.13454	0.996086	0.573845	149.697	1.89651	100.777	10.4658	0.0386756	4.20853	0.0530745	1.28421	29.7481	76.0664	20.3468	0.0635948	104.385	7.02885	746.349	930.837	2128.86	
3.49	0.638756	0.939472	7.196	9.12856	4.46386	11.0281	32.5055	2.20336	0.674667	0.28948	1.32233	2.50485	12.9311	11.1656	27.4816	38.3689	25.4015	56.9562	39.2448	23.5903	1.92126	5.96542	8.25909	0.240593	1.61907	1.9048	3.04889	5.96354	1.66985	26.2743	0.240337	40.0156	2.79727	96.9579	2.63814	1.05903	5.99526	12.4166	36.7538	19.3085	1.05952	2.05474	424.167	309.2	1.32139	0.919578	167.037	287.397	255.397	18.6046	46.1114	376.8	317.997	2.62554	383.641	549.536	107.515	2.63329	461.049	575.404	1.05277	0.892245	102.685	161.417	2.12371	96.9275	9.82778	0.0388171	4.3427	0.0730486	1.26737	35.1632	76.123	23.9226	0.0636493	94.2587	5.87181	793.014	1014.21	2327.89	
3.495	0.634144	0.875792	7.72713	9.81541	4.84028	11.0224	32.8801	2.42913	0.651772	0.27925	1.316	2.47729	13.1861	13.8717	27.4726	38.3552	25.3909	56.0476	39.5097	23.5817	1.83389	5.7381	8.21236	0.251791	1.45493	1.90883	3.04141	5.96787	1.54291	24.482	0.243165	42.2998	3.27553	96.6659	2.37992	1.01573	5.96458	12.266	36.1556	19.0253	1.19104	2.01522	384.837	262.7	1.32118	0.918384	170.759	286.046	28.291	2.8277	98.9331	374.152	316.015	2.58361	387.507	559.979	108.986	78.0063	576.261	559.038	0.963926	0.788336	181.692	173.829	2.3421	98.6806	9.07855	0.0389619	4.46012	0.0891111	1.24932	42.2195	77.4779	28.2705	0.0637085	93.586	8.21076	841.221	925.908	2535.63	
3.5	0.629188	0.816311	8.25916	10.1334	5.27251	11.0167	33.1998	2.67331	0.636582	0.272454	1.30539	2.44152	13.4034	16.4227	27.4637	38.3418	25.3815	55.011	39.6773	23.5731	1.74646	5.49847	8.14616	0.266886	1.31769	1.90666	3.02449	5.96889	1.42378	21.9016	0.246993	44.202	4.02962	96.0006	2.09738	0.988522	5.91453	12.0962	35.8241	18.7868	1.23067	1.99227	352.508	220.666	1.32097	0.917196	177.574	286.856	1.1569	0.732514	145.6	370.874	318.026	2.55891	392.466	570.896	111.303	237.564	617.723	548.975	0.8741	0.690151	235.277	187.106	2.54367	103.088	8.25124	0.0391086	4.56112	0.100302	1.23035	51.2286	80.0843	33.4084	0.0637708	92.1415	13.1016	889.621	1008.59	2743.82	
3.505	0.624472	0.763523	8.77172	10.5181	5.75904	11.0109	33.4724	2.98634	0.629056	0.268923	1.29124	2.39955	13.5894	18.6466	27.4548	38.3285	25.3721	53.8473	39.7697	23.5646	1.6596	5.24726	8.06189	0.287865	1.2049	1.89909	2.99938	5.96694	1.31382	18.963	0.251612	45.7899	5.19269	94.9637	1.79954	0.976167	5.84841	11.9725	35.363	18.5858	1.32659	3.30362	360.131	204.509	1.32076	0.916011	186.948	290.243	0.503746	0.333889	182.845	367.971	324.713	2.54392	399.173	582.981	114.538	340.81	620.84	543.804	2.26953	224.808	260.246	201.359	2.72287	104.163	7.38623	0.0392563	4.64629	0.105962	1.2108	62.6523	84.1869	39.2755	0.0638349	93.9159	19.844	936.291	898.594	2944.28	
3.51	0.620059	0.720309	9.23962	10.8542	6.29222	11.005	33.7043	3.37297	0.63087	0.268614	1.27433	2.35317	13.7494	20.5723	27.4459	38.3153	25.3629	52.558	39.8078	23.5562	1.57396	4.9859	7.95518	0.316826	1.11408	1.8869	2.96732	5.96456	1.21429	16.4412	0.256828	47.1208	6.90406	93.6502	1.50164	0.979177	5.76887	11.7808	34.6912	18.2666	1.41857	3.406	403.96	220.984	1.32056	0.914827	198.619	296.596	0.675861	0.24536	216.909	365.443	336.336	2.53435	408.416	597.372	119	617.931	593.666	542.24	2.99099	262.352	257.345	216.709	2.87839	102.537	6.52434	0.0394047	4.71646	0.102091	1.19105	101.989	89.8877	45.7387	0.0639	100.858	27.3419	978.875	669.754	3129.2	
3.515	0.616671	0.685587	9.638	11.0854	6.85977	10.999	33.9008	3.85191	0.642735	0.272239	1.25531	2.30397	13.8875	22.2047	27.4371	38.3022	46.4839	51.1493	39.778	23.5479	1.48996	4.71662	7.82067	0.357319	1.04195	1.8708	2.92987	5.96234	1.12599	13.6311	0.262675	48.2411	9.07351	92.1469	1.22378	1.00257	5.67821	11.5322	33.9067	17.87	1.50522	3.42839	466.157	257.212	1.32035	0.913643	212.787	306.275	0.740772	0.229458	235.436	362.856	352.622	2.52778	420.966	615.327	125.046	869.241	562.669	543.185	3.15053	259.022	245.074	233.204	3.01178	99.9852	5.70262	0.0395535	4.77269	0.0908343	1.1715	152.389	97.2516	52.5941	0.0639657	112.534	34.3014	1015.07	265.317	3291.39	
3.52	0.61714	0.657214	9.95818	11.2453	7.44088	10.9929	34.066	4.49078	0.663492	0.280377	1.23493	2.25323	14.0069	23.5724	27.4283	68.9024	45.9309	49.6347	39.6414	23.5396	1.40764	4.44255	7.65429	0.414367	0.984814	1.8515	2.88831	5.96015	1.04983	10.8948	0.268985	49.1879	11.3567	90.4961	0.989523	1.04449	5.57884	11.2744	33.1236	17.4711	1.5906	3.44992	530.842	299.812	1.32013	0.970185	230.035	319.574	0.690668	0.233372	246.381	359.559	372.96	2.52287	437.272	637.606	132.313	922.71	535.147	545.627	3.12047	328.229	230.934	250.826	3.12476	97.3303	4.95046	0.0397026	4.81631	0.0823579	1.15255	183.243	106.482	59.6107	0.0639908	128.13	39.632	1042.85	34.0718	3424.17	
3.525	0.621509	0.634235	10.2034	11.3619	8.01202	10.9867	34.2033	5.36154	0.691358	0.292538	1.21383	2.20208	14.1104	24.7126	27.4194	69.9761	46.3855	48.035	39.366	23.5315	1.32741	4.16736	7.45378	0.493863	0.939618	1.82975	2.84397	5.95798	0.986161	8.68864	0.275849	49.991	13.4021	88.7544	0.806273	1.0992	5.47354	11.0279	32.3824	17.0952	1.67362	3.48756	591.73	341.934	1.31992	1.51148	250.91	336.698	0.69065	0.245524	252.319	354.754	395.697	2.51886	457.18	663.724	140.857	863.877	512.34	548.554	2.23019	367.918	217.404	269.399	3.21922	94.6411	4.28829	0.039852	4.8488	0.0850981	1.13453	216.045	117.76	66.5332	0.0946862	148.097	42.733	1060.21	11.2471	3520.72	
3.53	0.630019	0.615006	10.3805	11.4513	8.5538	10.9804	34.3155	6.50899	0.724788	0.307882	1.19257	2.15157	14.2003	25.6639	27.4106	69.6911	46.8629	46.3781	38.9352	43.4578	1.24964	3.89242	7.21856	0.601734	0.905346	1.80616	2.79799	5.95583	0.936354	7.04592	0.283837	50.674	14.9646	86.9646	0.669435	1.16153	5.36499	10.7645	31.6049	16.6947	1.75309	3.52837	649.939	382.571	1.31971	1.67311	275.414	357.71	0.750611	0.265642	255.272	347.971	420.022	2.51534	479.739	692.559	150.712	791.368	492.962	550.947	1.55532	360.653	204.719	288.563	3.29714	91.8349	3.7269	0.0400016	4.8719	0.10869	1.11773	259.13	131.269	73.075	0.125208	173.483	43.5229	1065.43	9.3543	3574.65	
3.535	0.643215	0.599248	10.4996	11.5248	8.99313	10.974	34.4048	7.93207	0.762178	0.32571	1.17161	2.10242	14.2783	26.4604	27.4019	70.4392	47.2713	44.6976	38.3389	44.0475	1.1746	3.61969	6.95057	0.743471	0.884197	1.78139	2.75145	5.91081	0.8993	5.82256	0.293923	51.2558	15.9525	85.1087	0.573244	1.233	5.25568	10.4647	30.7381	16.24	1.82838	3.56755	707.875	421.274	1.3195	1.70854	303.628	382.525	0.847365	0.29586	256.036	339.619	443.682	2.51209	503.278	722.195	161.744	744.42	475.92	551.825	1.18339	332.812	192.954	307.766	3.36068	88.9473	3.26926	0.0401514	4.88736	0.15808	1.10235	307.158	147.131	78.9773	0.154021	206.84	42.3052	1057.49	26.1205	3581.71	
3.54	0.661714	0.58833	10.5718	11.5885	9.37086	10.9675	34.4728	9.58286	0.804266	0.345421	1.15134	2.05506	14.3459	27.1309	28.3798	70.9295	47.6489	43.0283	37.574	43.7413	1.10222	3.35202	6.65395	0.915259	0.870831	1.75592	2.70512	11.3233	0.859675	4.93726	0.306313	51.7517	16.5154	83.1526	0.508985	1.31687	5.14782	10.1191	29.756	15.7141	1.89899	3.60392	757.057	453.315	1.31928	1.76921	335.789	410.827	0.975936	0.337922	255.084	330.387	465.543	2.50899	525.957	750.401	173.66	716.946	460.558	550.357	1.0056	309.983	182.189	326.305	3.41214	86.0684	2.91209	0.0403014	4.89691	0.216975	1.08844	356.563	165.355	83.1588	0.182103	250.859	39.7095	1036.19	40.1075	3540.77	
3.545	0.686793	0.583776	10.6066	11.6416	9.62565	10.9609	34.5209	11.3672	0.851571	0.367466	1.13202	2.01003	14.4044	27.6982	51.5809	71.3487	47.9783	41.3848	36.6552	44.5671	1.03203	3.09223	6.33144	1.10077	0.864519	1.73034	2.65988	11.9941	0.835374	4.31878	0.321672	52.174	16.8149	81.0657	0.465737	1.41441	5.04322	9.70954	28.6071	15.0894	1.96445	3.63515	732.379	455.912	3.0618	1.83018	372.084	442.152	1.14406	0.392228	252.987	320.81	483.752	2.50598	541.142	772.702	186.062	697.693	446.481	545.879	0.927276	295.635	172.458	343.363	3.45461	83.2354	2.6483	0.0404516	4.90219	0.304803	1.07598	407.743	185.804	87.1894	9.40053	308.13	37.2726	1002.41	60.1727	3454.15	
3.55	0.718739	0.588088	10.6113	11.678	9.78114	10.9542	34.5501	13.1358	0.903677	0.391975	1.11383	1.96772	14.4549	28.1807	48.8829	71.7331	48.2227	39.7472	35.6118	45.0148	0.961347	2.84308	5.98939	1.28261	0.866377	1.70499	2.61627	12.1711	0.818236	3.89608	0.341078	52.5326	16.965	78.8386	0.427484	1.52598	4.94316	9.22048	27.2468	14.3423	2.02438	3.66875	607.408	421.167	3.08428	1.88725	412.526	475.843	1.35378	0.456837	250.028	311.122	497.368	2.50301	544.892	786.01	198.485	683.771	433.401	277.597	0.894363	285.067	163.707	358.139	329.949	80.4514	2.46851	0.130841	4.90459	0.354222	21.2229	462.118	208.051	90.5602	17.2318	378.451	35.2806	957.857	76.1731	3327.12	
3.555	0.756595	0.622213	10.5902	11.6908	9.84967	10.9474	34.5609	14.8016	0.960593	0.418753	1.09692	1.92825	14.4981	28.5929	50.0496	72.0597	48.3616	38.0751	34.4792	45.3035	0.886693	2.60841	5.64588	1.44672	0.866063	1.68025	2.57452	12.2404	0.808424	3.60379	0.366006	52.8356	17.034	76.4864	0.385993	1.6526	4.84881	8.64977	25.6683	13.4701	2.07848	3.7023	454.166	367.829	2.67833	1.94157	456.885	511.119	1.59344	0.526826	246.519	301.342	504.805	2.50007	541.686	791.321	210.458	675.353	421.127	24.5393	0.880926	276.117	155.826	369.993	695.23	77.7804	2.36262	0.270674	4.90514	0.372737	12.0764	519.466	231.392	93.709	17.5445	457.923	33.4449	904.619	95.8566	3166.17	
3.56	0.800219	0.810177	10.545	11.6746	9.85118	10.9405	34.5539	16.3587	1.02158	0.447667	1.08133	1.8918	14.5348	28.9465	50.392	72.3312	48.3844	36.3308	33.2968	45.4864	0.815028	2.39337	5.31214	1.58569	0.879689	1.65646	2.5352	12.2842	0.806223	3.38602	0.398581	53.0895	17.0551	74.0376	0.353418	1.79342	4.76071	8.00592	23.8953	12.4864	98.7067	3.73181	368.296	318.226	2.25169	1.99216	504.623	547.043	1.84045	0.595024	242.514	291.48	505.028	2.49715	532.895	788.747	221.425	671.673	409.485	5.55157	0.87551	268.611	82.802	378.561	1157.05	75.2855	2.32023	1.25129	4.905	0.366455	4.98147	577.76	254.869	96.3992	14.0628	536.377	31.9696	844.687	111.778	2978.14	
3.565	0.851079	1.05081	10.4769	11.627	9.79571	10.9335	34.5398	17.8405	1.08585	0.478447	1.06708	1.8582	14.5655	29.2509	50.597	72.5249	48.287	34.4965	32.1024	45.527	0.743455	2.19705	4.99684	1.69516	0.90168	1.63375	2.49822	12.2282	0.812525	3.14071	0.44225	53.2995	17.0386	71.5255	0.336011	1.94882	4.67922	7.31179	21.9896	11.4271	164.084	3.75376	331.713	276.123	1.91611	2.03757	555.228	582.686	2.06908	0.653791	238.297	281.579	497.444	2.49423	518.794	778.58	230.967	671.804	398.496	2.82632	0.873308	262.638	15.6987	383.949	1689.26	72.8398	2.33133	2.04985	4.90418	0.358372	2.37463	636.342	277.651	97.5898	9.80151	596.638	30.7158	779.242	130.481	2769.67	
3.57	0.908064	1.30722	10.3876	11.5491	9.69472	10.9264	34.5272	19.3109	1.15205	0.510389	1.05417	1.82756	14.5908	29.5135	50.7787	72.6121	48.0811	32.5996	30.9317	45.4193	0.678551	2.0164	4.70649	1.77537	0.93292	1.61237	2.46397	12.0194	0.827749	2.87275	0.500994	94.3547	16.9843	68.9828	0.330237	2.11627	4.60446	6.59717	20.0305	10.3372	240.03	12.2551	302.092	237.979	1.68408	2.07713	608.232	617.083	2.2506	0.695977	233.789	271.677	481.657	2.49133	499.498	761.118	238.677	674.593	388.061	2.60876	0.872369	257.866	4.34586	386.545	2184.62	70.3917	2.38571	2.52648	4.90411	0.329793	4.99408	692.647	298.853	97.0891	6.26754	615.638	29.5942	708.395	145.375	2547.34	
3.575	0.969798	1.54163	10.2776	11.4465	9.55317	10.9191	52.4662	20.8227	1.21892	0.542896	1.04251	1.79976	14.6109	29.7404	50.9235	72.5783	47.7863	30.7157	29.8083	45.1728	0.62516	1.85218	4.44127	1.83068	0.977866	1.59242	2.43234	11.6456	0.852994	2.70969	0.580146	103.204	16.8889	66.447	0.330437	2.29333	4.53659	5.90324	18.1264	9.2788	271.684	12.3963	289.143	209.274	1.5348	2.11075	663.054	649.329	2.36932	0.718289	228.911	261.794	457.812	2.48844	475.655	737.182	244.33	679.338	378.046	2.58368	0.871919	253.844	1.32579	386.947	2599	67.9341	2.47319	2.71193	4.90909	0.292782	85.95	744.895	317.822	-0	3.81579	581.841	28.5496	632.95	161.492	2318.37	
3.58	1.03371	1.74972	10.1451	11.325	9.3722	10.9118	65.6188	22.39	1.28497	0.575221	1.03209	1.77474	14.6263	42.0805	50.9889	72.3916	47.4161	28.9664	28.7292	44.8069	0.586513	1.70589	4.19487	1.8674	1.03815	1.57401	2.40354	11.1281	0.887793	2.66342	0.686201	105.282	16.7519	63.9524	0.333986	2.47601	4.47534	5.26753	16.375	8.30959	275.443	10.2652	301.643	194.126	1.44308	2.13873	718.69	678.608	2.4339	0.723579	223.586	251.984	426.548	2.48556	448.072	707.678	247.842	685.383	361.182	2.58064	0.871657	250.095	26.8206	385.985	2838.21	65.5203	2.58632	2.64661	4.91375	0.240851	264.084	791.92	334.131	-1.25012	2.28525	511.582	27.6139	555.415	173.008	2090.27	
3.585	1.09753	1.93046	9.98503	11.1826	9.14771	10.9043	67.2034	23.9501	1.34896	0.60668	1.02283	1.75238	14.6372	54.1957	50.954	72.0151	46.946	27.4895	27.6768	44.3493	0.56417	1.57904	3.96249	1.89026	1.1155	1.55715	2.37736	10.5338	0.929866	2.69131	0.826013	105.173	16.5774	61.5466	0.344491	2.6589	4.42046	4.71593	14.8416	7.46748	231.967	21.4883	280.162	179.429	1.38846	2.16159	773.663	704.3	2.45847	0.716041	217.747	242.316	388.77	2.48268	417.867	673.856	249.341	692.026	352.354	2.57856	0.871466	246.336	28.4062	384.293	3001.38	63.1735	2.73192	2.51316	7.03309	0.210712	387.955	832.518	347.585	-1.18367	1.37975	424.747	26.8167	479.807	184.935	1872.24	
3.59	1.15632	2.08371	9.78893	11.0095	8.87177	10.8967	66.9126	25.3331	1.40971	0.636645	1.01466	1.73257	14.6437	55.2215	50.7963	71.4143	46.3258	26.3901	26.6407	43.839	0.558162	1.47197	3.74305	1.90269	1.20863	1.54192	2.35395	9.9399	0.981021	2.74216	1.00034	105.41	16.3686	59.2677	0.375042	2.83645	4.37172	4.25533	13.5444	6.76475	165.358	19.8301	211.878	159.728	1.35662	2.18002	826.269	726.053	2.45787	0.699601	211.33	232.434	346.783	2.4798	386.386	637.373	249.14	698.542	345.566	2.57676	0.871302	242.316	27.929	382.23	3157.02	60.8655	2.92291	2.38998	19.9929	0.192335	418.52	865.88	358.193	-1.483	0.859219	330.857	26.1644	409.31	192.048	1673.19	
3.595	1.20651	2.2117	9.54676	10.7906	8.53335	10.889	66.8213	26.3622	1.46632	0.664609	1.00751	1.71514	14.646	56.0692	50.4993	70.5614	45.4954	25.7436	25.6202	43.3031	0.567073	1.38265	3.53591	1.90713	1.31612	1.52824	2.33311	9.37879	1.04804	2.80778	1.19721	106.132	16.126	57.1523	0.480369	3.00454	4.32887	3.87544	12.4507	6.18478	108.685	15.1712	134.359	136.091	1.33833	2.19486	874.967	743.849	2.44339	0.677377	204.248	222.655	305.261	2.47694	354.825	599.868	247.649	704.08	336.902	2.57468	0.871147	237.806	27.6172	380.006	3310.9	58.5789	3.17158	2.28805	9.29823	0.177608	406.303	891.816	366.149	-1.34984	0.565602	235.936	25.7061	345.383	199.126	1496.14	
3.6	1.24501	2.31814	9.24941	10.5113	8.12211	10.8812	67.2026	26.9475	1.51789	0.690173	1.00131	1.69998	14.6442	56.8302	50.0562	69.4443	44.4046	25.7862	24.6276	42.719	0.587851	1.30662	3.3395	1.90522	1.44449	1.5162	2.31481	8.85043	1.13407	2.92778	1.39864	106.509	15.85	55.2399	0.630875	3.15958	4.29152	3.54807	11.4895	5.68654	68.3818	10.9152	79.6917	104.337	1.32791	2.20692	918.704	757.811	2.42128	0.65156	196.347	212.636	268.082	2.47408	323.811	562.432	245.182	708.233	325.838	2.5725	0.870995	232.626	19.3422	377.937	3416.64	57.051	3.56884	1.89127	5.82173	0.119196	390.382	910.716	371.778	-1.33896	3.08806	145.443	25.5657	286.889	201.627	1334.41	
3.605	1.27042	2.40681	8.89276	10.1632	7.63896	10.8733	67.482	27.0875	1.56394	0.713008	0.996001	1.68692	14.6396	57.6482	49.4743	68.0721	43.0302	25.8745	23.6796	42.0613	0.616062	1.23757	3.15144	1.89807	1.60508	1.50567	2.29899	8.3251	1.24144	3.34332	1.58529	106.188	15.5414	53.5491	0.810253	3.29904	4.25942	3.24919	10.595	5.2317	42.0076	7.83665	46.8789	70.2137	1.32199	2.21705	956.915	768.211	2.39234	0.623628	187.675	202.854	238.079	2.47123	293.848	525.911	242.107	710.087	312.819	2.57028	0.870844	226.681	17.3271	376.153	3439.42	57.1255	4.13721	1.53732	5.08514	0.0977575	380.623	923.483	375.508	-1.3181	5.48893	65.4902	25.7904	233.908	204.108	1183.16	
3.61	1.28314	2.48104	8.48053	9.74787	7.10771	10.8652	67.4115	26.8875	1.60397	0.73286	0.991526	1.67591	19.1034	58.4741	48.7743	66.4804	41.3884	26.1364	22.7987	41.3218	0.645712	1.16891	2.9675	1.8863	1.80862	1.49673	2.2855	7.83437	1.37173	4.50338	1.74282	105.212	15.2011	52.0877	0.990525	3.42097	4.23225	2.95893	9.70672	4.79067	25.6159	5.81029	27.7706	42.067	1.31862	2.22602	989.46	775.368	2.35422	0.594804	178.283	193.117	217.07	2.46838	265.612	491.085	238.739	708.196	298.524	2.56804	0.870693	219.951	21.0342	372.493	3320.55	57.6591	4.88269	1.20737	4.96012	0.0754086	372.871	931.315	377.841	-1.29677	12.4831	8.59431	26.5978	187.117	188.722	1044.93	
3.615	1.28563	2.54355	8.02955	9.28016	6.56248	10.857	67.0314	26.5172	1.63775	0.749621	0.98784	1.66676	25.8244	59.1559	47.9915	64.7311	39.5409	26.4405	22.1081	40.5117	0.670379	1.09528	2.77836	1.87015	2.06244	1.48929	2.27434	7.42846	1.52395	5.86715	1.86283	103.666	14.8287	50.8604	1.15564	3.52389	4.20979	2.66901	8.79157	4.34349	15.7707	4.5287	16.5285	23.9646	1.31665	2.23455	1016.67	779.632	2.30592	0.564776	168.229	183.382	204.842	2.46554	239.639	458.613	235.378	701.868	282.959	2.5658	0.870541	212.531	19.3931	365.044	3262.64	58.5155	5.81689	0.826384	4.9404	0.0650492	364.112	935.617	379.895	-1.26227	21.7445	0.0568488	28.0291	147.261	147.406	922.92	
3.62	1.28131	2.59652	7.57666	8.79103	6.04078	10.8487	66.3851	26.0575	1.66509	0.763176	0.984873	1.65943	26.7348	59.5075	47.1736	62.9166	37.6058	26.6709	21.423	39.6566	0.684457	1.0136	2.58864	1.84986	2.36253	1.4833	2.26531	7.08268	1.69202	7.38335	1.94282	101.487	14.4228	49.8652	1.30233	3.60725	4.19181	2.4175	7.96734	3.94815	9.99897	3.72477	10.0091	13.9906	1.31547	2.24328	1039.28	781.418	2.24886	0.533108	157.694	173.382	198.807	2.4627	216.227	428.94	232.334	690.724	265.958	2.56355	0.870388	204.553	17.2198	353.813	3145.15	59.7214	6.96143	0.539635	4.93437	0.0620687	354.558	937.877	381.788	-1.21732	33.913	0.0725589	30.2254	114.537	102.219	817.071	
3.625	1.27345	2.64167	7.15935	8.32705	5.57736	10.8403	65.463	25.4723	1.68594	0.773494	0.982613	1.65379	27.0636	59.3798	46.3791	61.1518	35.764	26.7541	20.7719	38.8427	0.684689	0.923458	2.40834	1.82566	2.69013	1.4788	2.25844	6.76049	1.86382	8.81314	1.98595	98.488	13.983	49.1003	1.42981	3.67041	4.17803	2.24465	7.37739	3.67521	6.67474	3.20404	6.28803	8.51374	1.31472	2.25276	1058.39	781.176	2.18516	0.499376	146.955	162.619	196.763	2.45988	195.445	402.325	229.897	674.671	247.425	2.56129	0.870235	196.21	5.66675	339.837	2975.3	61.3403	8.36403	0.33957	4.93238	0.0642044	345.153	939.558	383.613	-1.16246	48.5688	0.111826	33.3005	88.5597	18.0196	725.065	
3.63	1.26506	2.68037	6.80775	7.92723	5.20228	10.8317	64.2701	24.7304	1.70027	0.780545	0.98102	1.64982	27.2464	58.7416	45.6714	59.573	34.1701	26.6467	20.1737	38.2064	0.671169	0.826643	2.22976	1.79787	3.01075	1.47571	2.25354	6.45215	2.02439	10.104	1.99983	94.7608	13.5088	48.5582	1.53779	3.71314	4.16835	2.11986	6.98691	3.49844	4.7884	2.83968	4.18659	5.37503	1.3142	2.2626	1075.3	779.389	2.11646	0.46317	136.413	151.639	201.329	2.45705	177.25	378.944	228.333	654.002	227.326	2.55902	0.87008	187.654	1.41996	324.162	2728.05	63.3671	10.085	0.212694	4.93197	0.0709805	336.26	942.096	385.747	-1.09868	63.63	0.149311	37.311	68.7033	5.71001	643.866	
3.635	1.25851	2.7137	6.54497	7.61932	4.93754	10.823	62.7693	23.8225	1.70805	0.784357	0.980046	1.64736	27.4754	57.6025	45.1163	58.2882	32.936	26.3386	19.6039	37.5443	0.646421	0.72637	2.05402	1.76682	3.28211	1.47401	2.25063	6.16233	2.15643	11.2392	1.99153	90.6118	12.998	48.2309	1.62801	3.73551	4.16256	1.87518	6.485	3.1261	3.7318	2.57386	3.01481	3.61104	1.31381	2.27273	1091.54	776.55	2.04447	0.423945	126.472	141.464	211.634	2.45424	161.532	358.909	227.887	629.41	205.646	2.55674	0.869926	178.919	20.3021	307.509	2413.68	65.8149	12.1903	0.136066	4.93178	0.0814086	327.829	947.655	388.58	-1.02682	76.8017	0.169176	42.292	53.9992	4.76392	570.872	
3.64	1.25589	2.74255	6.38519	7.41978	4.79589	10.8142	60.9662	22.7416	1.70937	0.784908	0.979675	1.6464	27.6766	55.9014	44.7682	57.4101	32.1316	25.8466	19.0546	36.9959	0.613485	0.626466	1.882	1.73283	3.4621	1.47368	2.2496	5.90694	2.24328	12.2155	1.96618	86.2024	12.4444	48.1101	1.70313	3.7375	4.16043	1.67999	5.60225	2.76167	3.14734	2.36967	2.37293	4.81025	1.31348	2.28328	1108.69	773.09	1.97055	0.377345	117.538	132.802	210.323	2.45143	147.804	341.655	228.819	601.937	182.358	2.55444	0.86977	169.977	20.483	290.377	2457.47	68.6351	14.75	0.0911776	4.9319	0.103209	319.77	956.745	392.353	-0.94792	86.9699	0.614853	48.2798	45.0922	4.69173	504.023	
3.645	1.25901	2.76763	6.33646	7.33589	4.78478	10.8052	58.9605	21.5065	1.7043	0.78227	0.979862	1.64683	27.7494	53.7033	44.663	56.9724	31.7892	25.1853	18.5194	36.5471	0.575219	0.53068	1.71485	1.69624	3.51907	1.47471	2.25037	5.69011	2.2722	13.0365	1.92692	81.6058	11.8614	48.1827	1.76583	3.71933	4.16187	1.54187	5.02439	2.52148	2.82844	2.20308	2.03176	5.28471	1.3132	2.29398	1128.32	769.379	1.89495	0.318315	110.18	126.054	223.926	2.44862	136.013	327.555	231.413	572.732	157.784	2.55214	0.869613	160.868	17.152	273.142	2347.24	71.8069	17.8394	0.0654625	4.93262	0.115389	312.062	969.386	397.19	-0.863315	93.4888	0.00947161	55.4271	38.4935	4.6844	441.939	
