CEINMS output
datacolumns 81
datarows 92
endheader
time	addbrev_r	addlong_r	addmagDist_r	addmagIsch_r	addmagMid_r	addmagProx_r	bflh_r	bfsh_r	edl_r	ehl_r	fdl_r	fhl_r	gaslat_r	gasmed_r	glmax1_r	glmax2_r	glmax3_r	glmed1_r	glmed2_r	glmed3_r	glmin1_r	glmin2_r	glmin3_r	grac_r	iliacus_r	perbrev_r	perlong_r	piri_r	psoas_r	recfem_r	sart_r	semimem_r	semiten_r	soleus_r	tfl_r	tibant_r	tibpost_r	vasint_r	vaslat_r	vasmed_r	addbrev_l	addlong_l	addmagDist_l	addmagIsch_l	addmagMid_l	addmagProx_l	bflh_l	bfsh_l	edl_l	ehl_l	fdl_l	fhl_l	gaslat_l	gasmed_l	glmax1_l	glmax2_l	glmax3_l	glmed1_l	glmed2_l	glmed3_l	glmin1_l	glmin2_l	glmin3_l	grac_l	iliacus_l	perbrev_l	perlong_l	piri_l	psoas_l	recfem_l	sart_l	semimem_l	semiten_l	soleus_l	tfl_l	tibant_l	tibpost_l	vasint_l	vaslat_l	vasmed_l	
3.175	0.001	0.001	0.001	0.001	0.001	0.001	0.001	0.001	0.001	0.001	0.001	0.001	0.001	0.001	0.001	0.001	0.001	0.001	0.001	0.001	0.001	0.001	0.001	0.001	0.001	0.001	0.001	0.001	0.001	0.001	0.001	0.001	0.001	0.001	0.001	0.001	0.001	0.001	0.001	0.000997281	0.001	0.001	0.999	0.999	0.742087	0.001	0.528225	0.142454	0.001	0.001	0.526027	0.0282067	0.525507	0.001	0.341551	0.788954	0.215051	0.999	0.999	0.001	0.999	0.999	0.001	0.843516	0.001	0.0588514	0.0123976	0.001	0.001	0.315734	0.999	0.999	0.419035	0.178916	0.001	0.168232	0.30778	0.001	0.001	0.001	
3.18	0.001	0.001	0.001	0.001	0.001	0.001	0.001	0.001	0.001	0.001	0.001	0.001	0.001	0.001	0.001	0.001	0.001	0.001	0.001	0.001	0.001	0.001	0.001	0.001	0.001	0.001	0.001	0.001	0.001	0.001	0.001	0.001	0.001	0.001	0.001	0.001	0.001	0.001	0.001	0.000997281	0.001	0.001	0.999	0.999	0.999	0.133337	0.138901	0.0957032	0.001	0.001	0.368616	0.0797767	0.269061	0.001	0.216871	0.465284	0.0450872	0.62758	0.999	0.001	0.001	0.001	0.001	0.561609	0.001	0.151719	0.0455303	0.001	0.001	0.276485	0.999	0.461328	0.263577	0.143923	0.001	0.211988	0.430033	0.001	0.001	0.001	
3.185	0.001	0.001	0.001	0.001	0.001	0.001	0.001	0.001	0.001	0.001	0.001	0.001	0.001	0.001	0.001	0.001	0.001	0.001	0.001	0.001	0.001	0.001	0.001	0.001	0.001	0.001	0.001	0.001	0.001	0.001	0.001	0.001	0.001	0.001	0.001	0.001	0.001	0.001	0.001	0.000997281	0.001	0.001	0.555966	0.338223	0.33472	0.0948913	0.0820321	0.0820137	0.001	0.001	0.243218	0.0201838	0.147808	0.001	0.0958243	0.109958	0.0472215	0.463219	0.999	0.001	0.001	0.001	0.001	0.581634	0.001	0.0517169	0.0109199	0.001	0.001	0.307182	0.93574	0.176979	0.210685	0.113908	0.001	0.256144	0.001	0.001	0.001	0.001	
3.19	0.001	0.001	0.001	0.001	0.001	0.001	0.001	0.001	0.001	0.001	0.001	0.001	0.001	0.001	0.001	0.001	0.001	0.001	0.001	0.001	0.001	0.001	0.001	0.001	0.001	0.001	0.001	0.001	0.001	0.001	0.001	0.001	0.001	0.001	0.001	0.001	0.001	0.001	0.001	0.000997281	0.0251901	0.0282004	0.001	0.001	0.001	0.00295427	0.0779211	0.0782113	0.001	0.001	0.183549	0.0100259	0.123486	0.001	0.0460064	0.0453975	0.0492674	0.58914	0.001	0.001	0.944909	0.001	0.001	0.570034	0.718047	0.0265062	0.00474176	0.001	0.970676	0.338512	0.988707	0.167845	0.189185	0.0881642	0.001	0.287235	0.001	0.001	0.001	0.001	
3.195	0.001	0.001	0.001	0.001	0.001	0.001	0.001	0.001	0.001	0.001	0.001	0.001	0.001	0.001	0.001	0.001	0.001	0.001	0.001	0.001	0.001	0.001	0.001	0.001	0.001	0.001	0.001	0.001	0.001	0.001	0.001	0.001	0.001	0.001	0.001	0.001	0.001	0.001	0.001	0.000997281	0.137749	0.156053	0.001	0.001	0.001	0.0154808	0.0752533	0.0747279	0.001	0.001	0.185809	0.0284855	0.102684	0.001	0.0208088	0.00715926	0.0444985	0.359666	0.001	0.001	0.999	0.147691	0.001	0.551112	0.999	0.0518418	0.010633	0.001	0.999	0.358717	0.992846	0.160587	0.171826	0.0666008	0.001	0.32812	0.001	0.001	0.001	0.001	
3.2	0.001	0.001	0.001	0.001	0.001	0.001	0.001	0.001	0.001	0.001	0.001	0.001	0.001	0.001	0.001	0.001	0.001	0.001	0.001	0.001	0.001	0.001	0.001	0.001	0.001	0.001	0.001	0.001	0.001	0.001	0.001	0.001	0.001	0.001	0.001	0.001	0.001	0.001	0.001	0.000997281	0.148446	0.122384	0.001	0.001	0.0556797	0.0381079	0.0739065	0.0719249	0.001	0.001	0.236229	0.0252348	0.0868992	0.001	0.0363023	0.0293518	0.0526832	0.360578	0.001	0.00115214	0.469416	0.001	0.00108137	0.534545	0.999	0.0609076	0.0108531	0.001	0.999	0.374108	0.999	0.157684	0.160408	0.0493633	0.001	0.368141	0.014878	0.00182227	0.001	0.001	
3.205	0.001	0.001	0.001	0.001	0.001	0.001	0.001	0.001	0.001	0.001	0.001	0.001	0.001	0.001	0.001	0.001	0.001	0.001	0.001	0.001	0.001	0.001	0.001	0.001	0.001	0.001	0.001	0.001	0.001	0.001	0.001	0.001	0.001	0.001	0.001	0.001	0.001	0.001	0.001	0.000997281	0.152	0.102589	0.14095	0.123981	0.126245	0.04454	0.0722035	0.0697431	0.001	0.001	0.266254	0.0404185	0.0742084	0.001	0.0458961	0.0451101	0.0587388	0.355018	0.001	0.00406465	0.001	0.001	0.00320974	0.517471	0.764111	0.0934279	0.0197681	0.00536914	0.999	0.392041	0.999	0.157781	0.151761	0.0356425	0.001	0.403267	0.0474142	0.00238674	0.001	0.001	
3.21	0.001	0.001	0.001	0.001	0.001	0.001	0.001	0.001	0.001	0.001	0.001	0.001	0.001	0.001	0.001	0.001	0.001	0.001	0.001	0.001	0.001	0.001	0.001	0.001	0.001	0.001	0.001	0.001	0.001	0.001	0.001	0.001	0.001	0.001	0.001	0.001	0.001	0.001	0.001	0.000997281	0.176602	0.129739	0.0815493	0.0591453	0.114968	0.001	0.070583	0.0680588	0.001	0.001	0.292934	0.054469	0.0642903	0.001	0.0374657	0.0316123	0.0592944	0.310824	0.001	0.00657794	0.001	0.001	0.00196082	0.498971	0.999	0.12888	0.0245736	0.00376793	0.999	0.411234	0.999	0.159174	0.145193	0.0253292	0.001	0.43804	0.102766	0.00260695	0.001	0.001	
3.215	0.001	0.001	0.001	0.001	0.001	0.001	0.001	0.001	0.001	0.001	0.001	0.001	0.001	0.001	0.001	0.001	0.001	0.001	0.001	0.001	0.001	0.001	0.001	0.001	0.001	0.001	0.001	0.001	0.001	0.001	0.001	0.001	0.001	0.001	0.001	0.001	0.001	0.001	0.001	0.000997281	0.203796	0.15628	0.0150713	0.001	0.108395	0.001	0.0700929	0.0651587	0.001	0.001	0.327452	0.0724769	0.0580581	0.001	0.0248707	0.0105107	0.0591652	0.227225	0.001	0.00173964	0.221228	0.001	0.001	0.480739	0.999	0.157552	0.0365409	0.001	0.999	0.424323	0.999	0.16441	0.142031	0.0181755	0.001	0.466515	0.160155	0.00342808	0.001	0.001	
3.22	0.001	0.001	0.001	0.001	0.001	0.001	0.001	0.001	0.001	0.001	0.001	0.001	0.001	0.001	0.001	0.001	0.001	0.001	0.001	0.001	0.001	0.001	0.001	0.001	0.001	0.001	0.001	0.001	0.001	0.001	0.001	0.001	0.001	0.001	0.001	0.001	0.001	0.001	0.001	0.000997281	0.227885	0.171544	0.0214678	0.001	0.132971	0.001	0.0708296	0.0578175	0.001	0.001	0.353196	0.0867929	0.0550404	0.001	0.0152011	0.001	0.0596674	0.126315	0.001	0.001	0.4177	0.001	0.00660061	0.463373	0.999	0.184468	0.0372881	0.001	0.999	0.428739	0.999	0.173688	0.14259	0.0131772	0.001	0.489436	0.229183	0.00343947	0.001	0.001	
3.225	0.001	0.001	0.001	0.001	0.001	0.001	0.001	0.001	0.001	0.001	0.001	0.001	0.001	0.001	0.001	0.001	0.001	0.001	0.001	0.001	0.001	0.001	0.001	0.001	0.001	0.001	0.001	0.001	0.001	0.001	0.001	0.001	0.001	0.001	0.001	0.001	0.001	0.001	0.001	0.000997281	0.242788	0.179681	0.0524183	0.001	0.157929	0.001	0.0721696	0.0576853	0.001	0.001	0.377192	0.10029	0.0545821	0.001	0.00734054	0.001	0.0606592	0.0793082	0.001	0.001	0.113749	0.001	0.00372839	0.447719	0.999	0.206416	0.0443544	0.00951856	0.999	0.428266	0.999	0.18647	0.145943	0.0104345	0.001	0.504898	0.277271	0.00269905	0.001	0.001	
3.23	0.001	0.001	0.001	0.001	0.001	0.001	0.001	0.001	0.001	0.001	0.001	0.001	0.001	0.001	0.001	0.001	0.001	0.001	0.001	0.001	0.001	0.001	0.001	0.001	0.001	0.001	0.001	0.001	0.001	0.001	0.001	0.001	0.001	0.001	0.001	0.001	0.001	0.001	0.001	0.000997281	0.259643	0.189032	0.109552	0.0457982	0.193367	0.001	0.0729632	0.0575535	0.001	0.001	0.405264	0.117218	0.0546387	0.001	0.001	0.001	0.0615946	0.043247	0.001	0.001	0.001	0.001	0.001	0.432464	0.999	0.226407	0.0544238	0.00976621	0.999	0.428644	0.999	0.198844	0.150052	0.00939009	0.001	0.513508	0.299343	0.00299974	0.001	0.001	
3.235	0.001	0.001	0.001	0.001	0.001	0.001	0.001	0.001	0.001	0.001	0.001	0.001	0.001	0.001	0.001	0.001	0.001	0.001	0.001	0.001	0.001	0.001	0.001	0.001	0.001	0.001	0.001	0.001	0.001	0.001	0.001	0.001	0.001	0.001	0.001	0.001	0.001	0.001	0.001	0.000997281	0.263241	0.184908	0.193022	0.125669	0.232833	0.001	0.0734509	0.0573993	0.001	0.001	0.433336	0.134681	0.0545509	0.001	0.001	0.001	0.0648861	0.0100158	0.001	0.001	0.001	0.001	0.00640902	0.417746	0.999	0.244803	0.0635462	0.00266864	0.999	0.431244	0.999	0.208365	0.154296	0.00978548	0.001	0.515476	0.306328	0.00345015	0.001	0.001	
3.24	0.001	0.001	0.001	0.001	0.001	0.001	0.001	0.001	0.001	0.001	0.001	0.001	0.001	0.001	0.001	0.001	0.001	0.001	0.001	0.001	0.001	0.001	0.001	0.001	0.001	0.001	0.001	0.001	0.001	0.001	0.001	0.001	0.001	0.001	0.001	0.001	0.001	0.001	0.001	0.000997281	0.328116	0.215738	0.355235	0.211699	0.351525	0.001	0.0730051	0.0571964	0.001	0.001	0.453087	0.151806	0.0547308	0.001	0.001	0.001	0.0716854	0.001	0.001	0.001	0.001	0.001	0.00171935	0.404892	0.999	0.260201	0.0702912	0.001	0.999	0.435154	0.999	0.21528	0.158582	0.011341	0.001	0.511699	0.292888	0.00449972	0.001	0.001	
3.245	0.001	0.001	0.001	0.001	0.001	0.001	0.001	0.001	0.001	0.001	0.001	0.001	0.001	0.001	0.001	0.001	0.001	0.001	0.001	0.001	0.001	0.001	0.001	0.001	0.001	0.001	0.001	0.001	0.001	0.001	0.001	0.001	0.001	0.001	0.001	0.001	0.001	0.001	0.001	0.000997281	0.391253	0.243208	0.49192	0.294556	0.471458	0.001	0.0716458	0.0569204	0.001	0.001	0.481942	0.167685	0.0553498	0.001	0.001	0.001	0.081363	0.001	0.001	0.001	0.001	0.001	0.001	0.394057	0.999	0.272516	0.0790223	0.00400863	0.999	0.439698	0.999	0.2205	0.162601	0.0136577	0.001	0.5026	0.267931	0.00468384	0.001	0.001	
3.25	0.001	0.001	0.001	0.001	0.001	0.001	0.001	0.001	0.001	0.001	0.001	0.001	0.001	0.001	0.001	0.001	0.001	0.001	0.001	0.001	0.001	0.001	0.001	0.001	0.001	0.001	0.001	0.001	0.001	0.001	0.001	0.001	0.001	0.001	0.001	0.001	0.001	0.001	0.001	0.000997281	0.415614	0.24658	0.632884	0.34501	0.532724	0.001	0.0699139	0.0565127	0.001	0.001	0.503866	0.180489	0.0563155	0.001	0.001	0.001	0.0911012	0.001	0.001	0.001	0.001	0.001	0.00496858	0.384478	0.999	0.280576	0.0850449	0.00622118	0.999	0.445941	0.999	0.220908	0.165839	0.016631	0.001	0.496096	0.232603	0.00488965	0.001	0.001	
3.255	0.001	0.001	0.001	0.001	0.001	0.001	0.001	0.001	0.001	0.001	0.001	0.001	0.001	0.001	0.001	0.001	0.001	0.001	0.001	0.001	0.001	0.001	0.001	0.001	0.001	0.001	0.001	0.001	0.001	0.001	0.001	0.001	0.001	0.001	0.001	0.001	0.001	0.001	0.001	0.000997281	0.416089	0.239047	0.69462	0.413467	0.555789	0.001	0.0678568	0.0558553	0.001	0.001	0.520287	0.191305	0.0569226	0.001	0.001	0.001	0.0970302	0.001	0.001	0.001	0.001	0.001	0.001	0.374106	0.999	0.283775	0.0903006	0.00797513	0.999	0.454345	0.999	0.21244	0.167321	0.0197305	0.001	0.511006	0.199932	0.00513832	0.001	0.001	
3.26	0.001	0.001	0.001	0.001	0.001	0.001	0.001	0.001	0.001	0.001	0.001	0.001	0.001	0.001	0.001	0.001	0.001	0.001	0.001	0.001	0.001	0.001	0.001	0.001	0.001	0.001	0.001	0.001	0.001	0.001	0.001	0.001	0.001	0.001	0.001	0.001	0.001	0.001	0.001	0.000997281	0.437549	0.247832	0.750031	0.412195	0.614997	0.001	0.0653478	0.0548317	0.001	0.001	0.536279	0.198612	0.0575099	0.001	0.001	0.001	0.0931674	0.001	0.001	0.001	0.001	0.001	0.001	0.36276	0.999	0.281684	0.0931773	0.00490549	0.999	0.462788	0.999	0.199683	0.165801	0.0231088	0.001	0.521963	0.175364	0.00621183	0.001	0.001	
3.265	0.001	0.001	0.001	0.001	0.001	0.001	0.001	0.001	0.001	0.001	0.001	0.001	0.001	0.001	0.001	0.001	0.001	0.001	0.001	0.001	0.001	0.001	0.001	0.001	0.001	0.001	0.001	0.001	0.001	0.001	0.001	0.001	0.001	0.001	0.001	0.001	0.001	0.001	0.001	0.000997281	0.407043	0.226568	0.638958	0.330506	0.573965	0.001	0.0616738	0.0533415	0.001	0.001	0.549858	0.200653	0.0574354	0.001	0.001	0.001	0.080112	0.001	0.001	0.001	0.001	0.001	0.001	0.347404	0.999	0.278622	0.0939415	0.001	0.999	0.466969	0.999	0.183225	0.160262	0.026356	0.001	0.533159	0.161076	0.00793066	0.001	0.001	
3.27	0.001	0.001	0.001	0.001	0.001	0.001	0.001	0.001	0.001	0.001	0.001	0.001	0.001	0.001	0.001	0.001	0.001	0.001	0.001	0.001	0.001	0.001	0.001	0.001	0.001	0.001	0.001	0.001	0.001	0.001	0.001	0.001	0.001	0.001	0.001	0.001	0.001	0.001	0.001	0.000997281	0.393884	0.221305	0.581254	0.212828	0.568367	0.001	0.0581373	0.0514413	0.001	0.001	0.560049	0.201021	0.058224	0.001	0.001	0.001	0.0709485	0.001	0.001	0.001	0.001	0.001	0.001	0.330729	0.999	0.272124	0.0918538	0.001	0.999	0.462666	0.999	0.16813	0.153269	0.029339	0.001	0.545995	0.157056	0.0100928	0.001	0.001	
3.275	0.001	0.001	0.001	0.001	0.001	0.001	0.001	0.001	0.001	0.001	0.001	0.001	0.001	0.001	0.001	0.001	0.001	0.001	0.001	0.001	0.001	0.001	0.001	0.001	0.001	0.001	0.001	0.001	0.001	0.001	0.001	0.001	0.001	0.001	0.001	0.001	0.001	0.001	0.001	0.000997281	0.402963	0.216892	0.627103	0.0107784	0.624509	0.001	0.0551107	0.0492321	0.001	0.001	0.567443	0.197414	0.0585392	0.001	0.001	0.001	0.0682008	0.001	0.001	0.001	0.001	0.001	0.001	0.311971	0.999	0.267134	0.0902095	0.0175788	0.999	0.451729	0.999	0.152888	0.143839	0.0320009	0.001	0.560844	0.154269	0.0132831	0.001	0.001	
3.28	0.001	0.001	0.001	0.001	0.001	0.001	0.001	0.001	0.001	0.001	0.001	0.001	0.001	0.001	0.001	0.001	0.001	0.001	0.001	0.001	0.001	0.001	0.001	0.001	0.001	0.001	0.001	0.001	0.001	0.001	0.001	0.001	0.001	0.001	0.001	0.001	0.001	0.001	0.001	0.000997281	0.413493	0.210894	0.424405	0.001	0.63983	0.001	0.046213	0.0466965	0.001	0.001	0.571872	0.191165	0.0571199	0.001	0.001	0.001	0.0571656	0.001	0.001	0.001	0.001	0.001	0.001	0.289318	0.999	0.258584	0.085219	0.001	0.999	0.435796	0.999	0.125557	0.126179	0.0338369	0.001	0.576918	0.153107	0.001	0.001	0.001	
3.285	0.001	0.001	0.001	0.001	0.001	0.001	0.001	0.001	0.001	0.001	0.001	0.001	0.001	0.001	0.001	0.001	0.001	0.001	0.001	0.001	0.001	0.001	0.001	0.001	0.001	0.001	0.001	0.001	0.001	0.001	0.001	0.001	0.001	0.001	0.001	0.001	0.001	0.001	0.001	0.000997281	0.431239	0.212453	0.1288	0.001	0.703146	0.001	0.0163813	0.0439655	0.001	0.001	0.573421	0.183128	0.0561444	0.001	0.001	0.001	0.0499079	0.001	0.001	0.001	0.001	0.001	0.001	0.266582	0.999	0.250182	0.0798478	0.001	0.999	0.415572	0.999	0.0782532	0.103447	0.0353688	0.001	0.593312	0.15276	0.00117211	0.001	0.001	
3.29	0.001	0.001	0.001	0.001	0.001	0.001	0.001	0.001	0.001	0.001	0.001	0.001	0.001	0.001	0.001	0.001	0.001	0.001	0.001	0.001	0.001	0.001	0.001	0.001	0.001	0.001	0.001	0.001	0.001	0.001	0.001	0.001	0.001	0.001	0.001	0.001	0.001	0.001	0.001	0.000997281	0.4108	0.18778	0.0245201	0.001	0.737839	0.001	0.00105981	0.0410873	0.001	0.001	0.572483	0.174167	0.0590893	0.001	0.001	0.001	0.0541112	0.001	0.001	0.001	0.001	0.001	0.001	0.247032	0.999	0.24345	0.0734773	0.00863778	0.999	0.391855	0.999	0.001	0.0889149	0.0366534	0.001	0.608591	0.150065	0.063259	0.30721	0.0843342	
3.295	0.001	0.001	0.001	0.001	0.001	0.001	0.001	0.001	0.001	0.001	0.001	0.001	0.001	0.001	0.001	0.001	0.001	0.001	0.001	0.001	0.001	0.001	0.001	0.001	0.001	0.001	0.001	0.001	0.001	0.001	0.001	0.001	0.001	0.001	0.001	0.001	0.001	0.001	0.001	0.000997281	0.277428	0.001	0.274594	0.001	0.650844	0.001	0.0208571	0.0381935	0.001	0.001	0.56923	0.163984	0.0669354	0.001	0.001	0.001	0.0763846	0.001	0.001	0.001	0.001	0.001	0.001	0.230462	0.999	0.235746	0.0671135	0.00337812	0.999	0.365944	0.975799	0.00691828	0.094715	0.037679	0.001	0.621275	0.145485	0.0387638	0.0385009	0.0306218	
3.3	0.001	0.001	0.001	0.001	0.001	0.001	0.001	0.001	0.001	0.001	0.001	0.001	0.001	0.001	0.001	0.001	0.001	0.001	0.001	0.001	0.001	0.001	0.001	0.001	0.001	0.001	0.001	0.001	0.001	0.001	0.001	0.001	0.001	0.001	0.001	0.001	0.001	0.001	0.001	0.000997281	0.100955	0.001	0.331133	0.101267	0.42816	0.001	0.0340163	0.0354857	0.001	0.001	0.564498	0.15365	0.0745666	0.001	0.0580132	0.0543512	0.0961761	0.001	0.001	0.001	0.001	0.001	0.001	0.213277	0.497762	0.231388	0.0589272	0.001	0.999	0.339546	0.141684	0.0893791	0.0991513	0.0384991	0.001	0.630037	0.143768	0.0494178	0.0162029	0.0397427	
3.305	0.001	0.001	0.001	0.001	0.001	0.001	0.001	0.001	0.001	0.001	0.001	0.001	0.001	0.001	0.001	0.001	0.001	0.001	0.001	0.001	0.001	0.001	0.001	0.001	0.001	0.001	0.001	0.001	0.001	0.001	0.001	0.001	0.001	0.001	0.001	0.001	0.001	0.001	0.001	0.000997281	0.0294298	0.001	0.26201	0.157844	0.275398	0.001	0.0357128	0.0331939	0.001	0.001	0.557472	0.145654	0.0834388	0.001	0.0966503	0.100453	0.104419	0.001	0.001	0.001	0.001	0.001	0.001	0.198689	0.001	0.22607	0.0535037	0.001	0.507767	0.313366	0.001	0.106858	0.0988683	0.0390312	0.001	0.635355	0.138143	0.0620356	0.0211968	0.0508703	
3.31	0.001	0.001	0.001	0.001	0.001	0.001	0.001	0.001	0.001	0.001	0.001	0.001	0.001	0.001	0.001	0.001	0.001	0.001	0.001	0.001	0.001	0.001	0.001	0.001	0.001	0.001	0.001	0.001	0.001	0.001	0.001	0.001	0.001	0.001	0.001	0.001	0.001	0.001	0.001	0.000997281	0.001	0.001	0.221848	0.124557	0.23411	0.001	0.0342317	0.0315989	0.001	0.001	0.5516	0.139287	0.0941518	0.001	0.105098	0.109957	0.110007	0.001	0.001	0.001	0.001	0.001	0.001	0.186745	0.001	0.222089	0.0494067	0.001	0.214137	0.286501	0.001	0.106211	0.0985084	0.0391002	0.001	0.638531	0.135617	0.0766563	0.0196962	0.0638891	
3.315	0.001	0.001	0.001	0.001	0.001	0.001	0.001	0.001	0.001	0.001	0.001	0.001	0.001	0.001	0.001	0.001	0.001	0.001	0.001	0.001	0.001	0.001	0.001	0.001	0.001	0.001	0.001	0.001	0.001	0.001	0.001	0.001	0.001	0.001	0.001	0.001	0.001	0.001	0.001	0.000997281	0.001	0.001	0.21519	0.124531	0.206705	0.001	0.0343917	0.0311527	0.001	0.001	0.54415	0.13449	0.107477	0.001	0.115077	0.121198	0.117041	0.001	0.001	0.0193939	0.00147119	0.001	0.001	0.17763	0.001	0.22446	0.0454996	0.001	0.001	0.259711	0.001	0.110301	0.101046	0.0387783	0.001	0.643121	0.135813	0.0927941	0.0575787	0.0783714	
3.32	0.001	0.001	0.001	0.001	0.001	0.001	0.001	0.001	0.001	0.001	0.001	0.001	0.001	0.001	0.001	0.001	0.001	0.001	0.001	0.001	0.001	0.001	0.001	0.001	0.001	0.001	0.001	0.001	0.001	0.001	0.001	0.001	0.001	0.001	0.001	0.001	0.001	0.001	0.001	0.000997281	0.001	0.001	0.195104	0.113579	0.188504	0.001	0.0351226	0.0321413	0.001	0.001	0.537398	0.131541	0.124817	0.001	0.122599	0.128877	0.124294	0.001	0.001	0.0585006	0.00115904	0.001	0.001	0.171588	0.001	0.221645	0.0435302	0.001	0.001	0.232845	0.001	0.113495	0.10601	0.0379375	0.001	0.65901	0.134128	0.111306	0.114489	0.0967922	
3.325	0.001	0.001	0.001	0.001	0.001	0.001	0.001	0.001	0.001	0.001	0.001	0.001	0.001	0.001	0.001	0.001	0.001	0.001	0.001	0.001	0.001	0.001	0.001	0.001	0.001	0.001	0.001	0.001	0.001	0.001	0.001	0.001	0.001	0.001	0.001	0.001	0.001	0.001	0.001	0.000997281	0.001	0.001	0.152392	0.0668475	0.155618	0.001	0.0357184	0.0348571	0.001	0.001	0.531448	0.124121	0.143629	0.001	0.129933	0.136782	0.132201	0.001	0.001	0.0781631	0.001	0.001	0.001	0.167448	0.001	0.2235	0.0354635	0.001	0.001	0.205827	0.001	0.111496	0.11274	0.0368289	0.001	0.715539	0.13398	0.134429	0.250753	0.125234	
3.33	0.001	0.001	0.001	0.001	0.001	0.001	0.001	0.001	0.001	0.001	0.001	0.001	0.001	0.001	0.001	0.001	0.001	0.001	0.001	0.001	0.001	0.001	0.001	0.001	0.001	0.001	0.001	0.001	0.001	0.001	0.001	0.001	0.001	0.001	0.001	0.001	0.001	0.001	0.001	0.000997281	0.001	0.001	0.12142	0.0237724	0.130236	0.001	0.0366931	0.0394018	0.001	0.001	0.519518	0.119806	0.158755	0.001	0.138511	0.146903	0.14135	0.001	0.001	0.092173	0.001	0.001	0.001	0.164453	0.001	0.229337	0.0338562	0.001	0.001	0.179141	0.001	0.107092	0.121421	0.0357051	0.001	0.827713	0.130138	0.159536	0.418303	0.159517	
3.335	0.001	0.001	0.001	0.001	0.001	0.001	0.001	0.001	0.001	0.001	0.001	0.001	0.001	0.001	0.001	0.001	0.001	0.001	0.001	0.001	0.001	0.001	0.001	0.001	0.001	0.001	0.001	0.001	0.001	0.001	0.001	0.001	0.001	0.001	0.001	0.001	0.001	0.001	0.001	0.000997281	0.001	0.001	0.0854583	0.001	0.097948	0.001	0.035364	0.0451284	0.001	0.001	0.515381	0.114631	0.160503	0.001	0.148871	0.159581	0.152105	0.001	0.001	0.0900357	0.00227263	0.001	0.001	0.157804	0.001	0.21771	0.0292924	0.001	0.001	0.153935	0.001	0.0908863	0.130362	0.0347148	0.001	0.986887	0.129918	0.188524	0.671482	0.205015	
3.34	0.001	0.001	0.001	0.001	0.001	0.001	0.001	0.001	0.001	0.001	0.001	0.001	0.001	0.001	0.001	0.001	0.001	0.001	0.001	0.001	0.001	0.001	0.001	0.001	0.001	0.001	0.001	0.001	0.001	0.001	0.001	0.001	0.001	0.001	0.001	0.001	0.001	0.001	0.001	0.000997281	0.001	0.001	0.0352919	0.001	0.0481365	0.001	0.0335475	0.0509645	0.001	0.001	0.503781	0.109067	0.149442	0.001	0.161222	0.17466	0.16435	0.001	0.001	0.0755349	0.00226481	0.001	0.001	0.148538	0.001	0.209098	0.0270708	0.001	0.001	0.130476	0.001	0.0742528	0.140729	0.033972	0.001	0.999	0.125827	0.214502	0.940005	0.246174	
3.345	0.001	0.001	0.001	0.001	0.001	0.001	0.001	0.001	0.001	0.001	0.001	0.001	0.001	0.001	0.001	0.001	0.001	0.001	0.001	0.001	0.001	0.001	0.001	0.001	0.001	0.001	0.001	0.001	0.001	0.001	0.001	0.001	0.001	0.001	0.001	0.001	0.001	0.001	0.001	0.000997281	0.001	0.001	0.001	0.001	0.001	0.001	0.0296025	0.0585504	0.001	0.001	0.493216	0.106361	0.125505	0.001	0.173867	0.188114	0.176384	0.001	0.001	0.0479641	0.00199629	0.001	0.001	0.133496	0.001	0.204673	0.0261608	0.001	0.001	0.109258	0.001	0.0557723	0.151809	0.0334395	0.001	0.994089	0.123457	0.237524	0.999	0.282445	
3.35	0.001	0.001	0.001	0.001	0.001	0.001	0.001	0.001	0.001	0.001	0.001	0.001	0.001	0.001	0.001	0.001	0.001	0.001	0.001	0.001	0.001	0.001	0.001	0.001	0.001	0.001	0.001	0.001	0.001	0.001	0.001	0.001	0.001	0.001	0.001	0.001	0.001	0.001	0.001	0.000997281	0.001	0.001	0.001	0.001	0.001	0.001	0.0177775	0.0670434	0.001	0.001	0.483216	0.100497	0.0810548	0.001	0.18185	0.190959	0.184807	0.001	0.001	0.0262839	0.001	0.001	0.001	0.102271	0.001	0.199505	0.0231152	0.001	0.001	0.0907363	0.001	0.0234452	0.160575	0.0330865	0.001	0.999	0.123998	0.260444	0.999	0.320045	
3.355	0.001	0.001	0.001	0.001	0.001	0.001	0.001	0.001	0.001	0.001	0.001	0.001	0.001	0.001	0.001	0.001	0.001	0.001	0.001	0.001	0.001	0.001	0.001	0.001	0.001	0.001	0.001	0.001	0.001	0.001	0.001	0.001	0.001	0.001	0.001	0.001	0.001	0.001	0.001	0.000997281	0.001	0.001	0.001	0.001	0.001	0.001	0.001	0.0740462	0.001	0.001	0.473347	0.0978449	0.0148261	0.001	0.186292	0.185919	0.19034	0.001	0.001	0.0151713	0.001	0.001	0.001	0.0540077	0.001	0.195378	0.022288	0.001	0.001	0.0750514	0.001	0.001	0.167658	0.0329968	0.001	0.999	0.121596	0.282425	0.999	0.355956	
3.36	0.001	0.001	0.001	0.001	0.001	0.001	0.001	0.001	0.001	0.001	0.001	0.001	0.001	0.001	0.001	0.001	0.001	0.001	0.001	0.001	0.001	0.001	0.001	0.001	0.001	0.001	0.001	0.001	0.001	0.001	0.001	0.001	0.001	0.001	0.001	0.001	0.001	0.001	0.001	0.000997281	0.001	0.001	0.001	0.001	0.001	0.001	0.001	0.0808854	0.001	0.001	0.467311	0.0959316	0.001	0.001	0.190488	0.180335	0.19576	0.001	0.001	0.0211897	0.00751928	0.001	0.001	0.001	0.001	0.193356	0.0215563	0.001	0.001	0.0621834	0.001	0.001	0.175524	0.0333609	0.001	0.999	0.124757	0.3028	0.999	0.388019	
3.365	0.001	0.001	0.001	0.001	0.001	0.001	0.001	0.001	0.001	0.001	0.001	0.001	0.001	0.001	0.001	0.001	0.001	0.001	0.001	0.001	0.001	0.001	0.001	0.001	0.001	0.001	0.001	0.001	0.001	0.001	0.001	0.001	0.001	0.001	0.001	0.001	0.001	0.001	0.001	0.000997281	0.001	0.001	0.001	0.001	0.001	0.001	0.001	0.0895191	0.001	0.001	0.460727	0.0940768	0.001	0.00112451	0.197604	0.181288	0.203223	0.001	0.001	0.051833	0.00626926	0.001	0.001	0.001	0.001	0.191134	0.0209253	0.001	0.001	0.0522619	0.001	0.001	0.185996	0.0344951	0.001	0.999	0.123128	0.320765	0.999	0.415307	
3.37	0.001	0.001	0.001	0.001	0.001	0.001	0.001	0.001	0.001	0.001	0.001	0.001	0.001	0.001	0.001	0.001	0.001	0.001	0.001	0.001	0.001	0.001	0.001	0.001	0.001	0.001	0.001	0.001	0.001	0.001	0.001	0.001	0.001	0.001	0.001	0.001	0.001	0.001	0.001	0.000997281	0.001	0.001	0.001	0.001	0.001	0.001	0.001	0.0991257	0.001	0.001	0.451614	0.091236	0.001	0.00295292	0.208556	0.191475	0.212938	0.001	0.001	0.120602	0.00534694	0.001	0.001	0.001	0.001	0.191662	0.0199671	0.001	0.001	0.0447477	0.001	0.001	0.19834	0.0360072	0.001	0.999	0.120944	0.338147	0.999	0.441719	
3.375	0.001	0.001	0.001	0.001	0.001	0.001	0.001	0.001	0.001	0.001	0.001	0.001	0.001	0.001	0.001	0.001	0.001	0.001	0.001	0.001	0.001	0.001	0.001	0.001	0.001	0.001	0.001	0.001	0.001	0.001	0.001	0.001	0.001	0.001	0.001	0.001	0.001	0.001	0.001	0.000997281	0.001	0.001	0.001	0.001	0.001	0.001	0.001	0.111127	0.001	0.001	0.446728	0.0844745	0.001	0.00389075	0.222441	0.209183	0.22389	0.001	0.001	0.248242	0.0017735	0.001	0.001	0.001	0.001	0.188827	0.0169497	0.001	0.001	0.0398794	0.001	0.001	0.21581	0.0390106	0.001	0.999	0.124122	0.351924	0.999	0.461942	
3.38	0.001	0.001	0.001	0.001	0.001	0.001	0.001	0.001	0.001	0.001	0.001	0.001	0.001	0.001	0.001	0.001	0.001	0.001	0.001	0.001	0.001	0.001	0.001	0.001	0.001	0.001	0.001	0.001	0.001	0.001	0.001	0.001	0.001	0.001	0.001	0.001	0.001	0.001	0.001	0.000997281	0.001	0.001	0.001	0.001	0.001	0.001	0.001	0.131417	0.001	0.001	0.431674	0.0809315	0.001	0.00157104	0.235756	0.228216	0.23364	0.001	0.001	0.451501	0.00155817	0.001	0.001	0.001	0.001	0.18176	0.0161661	0.001	0.001	0.0367484	0.001	0.001	0.244718	0.0423702	0.001	0.999	0.119338	0.354109	0.999	0.462679	
3.385	0.001	0.001	0.001	0.001	0.001	0.001	0.001	0.001	0.001	0.001	0.001	0.001	0.001	0.001	0.001	0.001	0.001	0.001	0.001	0.001	0.001	0.001	0.001	0.001	0.001	0.001	0.001	0.001	0.001	0.001	0.001	0.001	0.001	0.001	0.001	0.001	0.001	0.001	0.001	0.000997281	0.001	0.001	0.001	0.001	0.001	0.001	0.001	0.157829	0.001	0.001	0.432559	0.0784049	0.001	0.001	0.252974	0.254983	0.243729	0.001	0.001	0.776139	0.0036202	0.001	0.001	0.001	0.001	0.18708	0.0148896	0.001	0.001	0.0352429	0.001	0.001	0.282049	0.0467772	0.001	0.999	0.1215	0.358812	0.999	0.463922	
3.39	0.001	0.001	0.001	0.001	0.001	0.001	0.001	0.001	0.001	0.001	0.001	0.001	0.001	0.001	0.001	0.001	0.001	0.001	0.001	0.001	0.001	0.001	0.001	0.001	0.001	0.001	0.001	0.001	0.001	0.001	0.001	0.001	0.001	0.001	0.001	0.001	0.001	0.001	0.001	0.000997281	0.001	0.001	0.001	0.001	0.001	0.001	0.0670224	0.196512	0.001	0.001	0.42538	0.0753914	0.001	0.001	0.285515	0.301894	0.256145	0.001	0.001	0.999	0.00511322	0.001	0.001	0.001	0.001	0.179963	0.0142551	0.001	0.001	0.0346992	0.001	0.001	0.333411	0.0518359	0.001	0.999	0.119254	0.352938	0.999	0.457837	
3.395	0.001	0.001	0.001	0.001	0.001	0.001	0.001	0.001	0.001	0.001	0.001	0.001	0.001	0.001	0.001	0.001	0.001	0.001	0.001	0.001	0.001	0.001	0.001	0.001	0.001	0.001	0.001	0.001	0.001	0.001	0.001	0.001	0.001	0.001	0.001	0.001	0.001	0.001	0.001	0.000997281	0.001	0.001	0.385725	0.218154	0.001	0.001	0.17106	0.24675	0.001	0.001	0.415952	0.0726125	0.001	0.00412548	0.329572	0.35519	0.265271	0.001	0.001	0.999	0.00710605	0.001	0.001	0.128088	0.001	0.175332	0.0137751	0.001	0.001	0.034841	0.001	0.00768725	0.38945	0.0574349	0.001	0.999	0.119224	0.337359	0.999	0.438365	
3.4	0.001	0.001	0.001	0.001	0.001	0.001	0.001	0.001	0.001	0.001	0.001	0.001	0.001	0.001	0.001	0.001	0.001	0.001	0.001	0.001	0.001	0.001	0.001	0.001	0.001	0.001	0.001	0.001	0.001	0.001	0.001	0.001	0.001	0.001	0.001	0.001	0.001	0.001	0.001	0.000997281	0.001	0.001	0.600758	0.375691	0.001	0.001	0.273484	0.300695	0.001	0.001	0.408191	0.0686362	0.001	0.00267497	0.367807	0.393918	0.268686	0.001	0.001	0.999	0.001	0.001	0.001	0.259404	0.001	0.167643	0.01316	0.001	0.001	0.0356055	0.001	0.206157	0.44022	0.0638932	0.001	0.999	0.116245	0.318812	0.999	0.414316	
3.405	0.001	0.001	0.001	0.001	0.001	0.001	0.001	0.001	0.001	0.001	0.001	0.001	0.001	0.001	0.001	0.001	0.001	0.001	0.001	0.001	0.001	0.001	0.001	0.001	0.001	0.001	0.001	0.001	0.001	0.001	0.001	0.001	0.001	0.001	0.001	0.001	0.001	0.001	0.001	0.000997281	0.001	0.001	0.720844	0.431251	0.001	0.001	0.366421	0.355781	0.001	0.001	0.398866	0.0652335	0.001	0.001	0.383232	0.41258	0.270041	0.001	0.366441	0.999	0.001	0.001	0.001	0.3724	0.001	0.161767	0.0126819	0.001	0.0022803	0.0364622	0.001	0.349687	0.485557	0.0705467	0.001	0.999	0.114728	0.301741	0.999	0.391882	
3.41	0.001	0.001	0.001	0.001	0.001	0.001	0.001	0.001	0.001	0.001	0.001	0.001	0.001	0.001	0.001	0.001	0.001	0.001	0.001	0.001	0.001	0.001	0.001	0.001	0.001	0.001	0.001	0.001	0.001	0.001	0.001	0.001	0.001	0.001	0.001	0.001	0.001	0.001	0.001	0.000997281	0.001	0.001	0.814809	0.469865	0.001	0.001	0.449185	0.41182	0.001	0.001	0.390178	0.0606533	0.001	0.001	0.387154	0.419983	0.271558	0.001	0.313126	0.999	0.0075316	0.001	0.001	0.466807	0.001	0.152987	0.0120004	0.001	0.042275	0.0375064	0.001	0.456455	0.527603	0.0772725	0.001	0.999	0.111169	0.288749	0.999	0.372314	
3.415	0.001	0.001	0.001	0.001	0.001	0.001	0.001	0.001	0.001	0.001	0.001	0.001	0.001	0.001	0.001	0.001	0.001	0.001	0.001	0.001	0.001	0.001	0.001	0.001	0.001	0.001	0.001	0.001	0.001	0.001	0.001	0.001	0.001	0.001	0.001	0.001	0.001	0.001	0.001	0.000997281	0.001	0.001	0.868874	0.51705	0.001	0.001	0.520383	0.466618	0.001	0.001	0.373738	0.0579683	0.001	0.00221156	0.387492	0.422925	0.274502	0.001	0.409101	0.999	0.001	0.001	0.001	0.538832	0.001	0.146711	0.0115296	0.001	0.001	0.0387062	0.001	0.534238	0.566646	0.0837019	0.001	0.999	0.107146	0.283444	0.999	0.36133	
3.42	0.001	0.001	0.001	0.001	0.001	0.001	0.001	0.001	0.001	0.001	0.001	0.001	0.001	0.001	0.001	0.001	0.001	0.001	0.001	0.001	0.001	0.001	0.001	0.001	0.001	0.001	0.001	0.001	0.001	0.001	0.001	0.001	0.001	0.001	0.001	0.001	0.001	0.001	0.001	0.000997281	0.001	0.001	0.912776	0.561603	0.001	0.001	0.5816	0.520254	0.001	0.001	0.357363	0.0550977	0.001	0.00179335	0.386438	0.423975	0.278705	0.001	0.501216	0.999	0.001	0.001	0.001	0.591934	0.001	0.139806	0.0110153	0.001	0.001	0.039626	0.001	0.592601	0.603515	0.0894171	0.001	0.999	0.102573	0.285851	0.999	0.358058	
3.425	0.001	0.001	0.001	0.001	0.001	0.001	0.001	0.001	0.001	0.001	0.001	0.001	0.001	0.001	0.001	0.001	0.001	0.001	0.001	0.001	0.001	0.001	0.001	0.001	0.001	0.001	0.001	0.001	0.001	0.001	0.001	0.001	0.001	0.001	0.001	0.001	0.001	0.001	0.001	0.000997281	0.001	0.001	0.948877	0.596617	0.001	0.001	0.634722	0.572852	0.001	0.001	0.329485	0.0458669	0.001	0.001	0.385147	0.423596	0.283814	0.001	0.607491	0.999	0.0234158	0.001	0.001	0.631935	0.001	0.121243	0.00945493	0.001	0.001	0.0403545	0.001	0.636698	0.638469	0.0949931	0.001	0.999	0.0945454	0.293031	0.999	0.358727	
3.43	0.001	0.001	0.001	0.001	0.001	0.001	0.001	0.001	0.001	0.001	0.001	0.001	0.001	0.001	0.001	0.001	0.001	0.001	0.001	0.001	0.001	0.001	0.001	0.001	0.001	0.001	0.001	0.001	0.001	0.001	0.001	0.001	0.001	0.001	0.001	0.001	0.001	0.001	0.001	0.000997281	0.001	0.001	0.977655	0.622048	0.001	0.001	0.682537	0.625615	0.001	0.001	0.314146	0.0421542	0.001	0.001	0.382866	0.421258	0.289338	0.001	0.554526	0.999	0.001	0.001	0.001	0.664891	0.001	0.112931	0.008765	0.001	0.001	0.040636	0.001	0.671084	0.671935	0.101022	0.00110112	0.999	0.0895393	0.300943	0.999	0.357588	
3.435	0.001	0.001	0.001	0.001	0.001	0.001	0.001	0.001	0.001	0.001	0.001	0.001	0.001	0.001	0.001	0.001	0.001	0.001	0.001	0.001	0.001	0.001	0.001	0.001	0.001	0.001	0.001	0.001	0.001	0.001	0.001	0.001	0.001	0.001	0.001	0.001	0.001	0.001	0.001	0.000997281	0.001	0.001	0.996415	0.637802	0.001	0.001	0.725531	0.677501	0.001	0.001	0.274862	0.0338446	0.0346994	0.00121695	0.379717	0.417376	0.294772	0.001	0.53819	0.999	0.001	0.001	0.001	0.692011	0.001	0.0938905	0.00714158	0.001	0.0334217	0.0404613	0.001	0.699073	0.70401	0.107901	0.00157468	0.999	0.07766	0.307995	0.999	0.352058	
3.44	0.001	0.001	0.001	0.001	0.001	0.001	0.001	0.001	0.001	0.001	0.001	0.001	0.001	0.001	0.001	0.001	0.001	0.001	0.001	0.001	0.001	0.001	0.001	0.001	0.001	0.001	0.001	0.001	0.001	0.001	0.001	0.001	0.001	0.001	0.001	0.001	0.001	0.001	0.001	0.000997281	0.001	0.001	0.999	0.645225	0.001	0.001	0.764777	0.726992	0.001	0.001	0.228245	0.0242711	0.0708987	0.001	0.376705	0.412946	0.300263	0.001	0.488117	0.999	0.001	0.001	0.001	0.712499	0.0105925	0.0701866	0.00518002	0.001	0.001	0.0398952	0.001	0.724983	0.735255	0.11593	0.00142523	0.999	0.0607782	0.316271	0.999	0.345506	
3.445	0.001	0.001	0.001	0.001	0.001	0.001	0.001	0.001	0.001	0.001	0.001	0.001	0.001	0.001	0.001	0.001	0.001	0.001	0.001	0.001	0.001	0.001	0.001	0.001	0.001	0.001	0.001	0.001	0.001	0.001	0.001	0.001	0.001	0.001	0.001	0.001	0.001	0.001	0.001	0.000997281	0.001	0.001	0.999	0.645345	0.001	0.001	0.801306	0.77283	0.001	0.001	0.163484	0.0146666	0.107308	0.001	0.373659	0.408244	0.30627	0.001	0.425155	0.999	0.001	0.001	0.001	0.725614	0.00518932	0.0440182	0.00315371	0.001	0.001	0.0394931	0.001	0.750523	0.764799	0.125625	0.001	0.943074	0.0396457	0.327031	0.999	0.340022	
3.45	0.001	0.001	0.001	0.001	0.001	0.001	0.001	0.001	0.001	0.001	0.001	0.001	0.001	0.001	0.001	0.001	0.001	0.001	0.001	0.001	0.001	0.001	0.001	0.001	0.001	0.001	0.001	0.001	0.001	0.001	0.001	0.001	0.001	0.001	0.001	0.001	0.001	0.001	0.001	0.000997281	0.001	0.001	0.984821	0.637727	0.001	0.001	0.833597	0.811691	0.058927	0.0249627	0.00115159	0.001	0.135009	0.001	0.372035	0.404322	0.31286	0.001	0.297904	0.999	0.001	0.001	0.001	0.726958	0.001	0.001	0.001	0.001	0.001	0.0404578	0.001	0.773978	0.789511	0.137435	0.001	0.89542	0.001	0.347366	0.50616	0.348793	
3.455	0.001	0.001	0.001	0.001	0.001	0.001	0.001	0.001	0.001	0.001	0.001	0.001	0.001	0.001	0.001	0.001	0.001	0.001	0.001	0.001	0.001	0.001	0.001	0.001	0.001	0.001	0.001	0.001	0.001	0.001	0.001	0.001	0.001	0.001	0.001	0.001	0.001	0.001	0.001	0.000997281	0.001	0.001	0.942504	0.614356	0.001	0.001	0.86063	0.842273	0.55753	0.337274	0.001	0.001	0.148447	0.001	0.370004	0.399246	0.31956	0.001	0.280584	0.999	0.001	0.001	0.001	0.713909	0.001	0.001	0.001	0.001	0.001	0.0441057	0.001	0.793113	0.807038	0.151751	0.00125856	0.880064	0.001	0.383896	0.203033	0.384751	
3.46	0.001	0.001	0.001	0.001	0.001	0.001	0.001	0.001	0.001	0.001	0.001	0.001	0.001	0.001	0.001	0.001	0.001	0.001	0.001	0.001	0.001	0.001	0.001	0.001	0.001	0.001	0.001	0.001	0.001	0.001	0.001	0.001	0.001	0.001	0.001	0.001	0.001	0.001	0.001	0.000997281	0.001	0.001	0.884261	0.577509	0.001	0.001	0.883638	0.867968	0.741555	0.445527	0.001	0.001	0.161776	0.001	0.368289	0.394312	0.326799	0.001	0.116024	0.999	0.001	0.001	0.001	0.693578	0.0402622	0.001	0.001	0.001	0.0258487	0.0492223	0.001	0.806085	0.818131	0.16899	0.00108333	0.856309	0.001	0.42257	0.283319	0.424521	
3.465	0.001	0.001	0.001	0.001	0.001	0.001	0.001	0.001	0.001	0.001	0.001	0.001	0.001	0.001	0.001	0.001	0.001	0.001	0.001	0.001	0.001	0.001	0.001	0.001	0.001	0.001	0.001	0.001	0.001	0.001	0.001	0.001	0.001	0.001	0.001	0.001	0.001	0.001	0.001	0.000997281	0.001	0.001	0.51643	0.333697	0.001	0.001	0.899797	0.891152	0.567133	0.34255	0.001	0.001	0.179743	0.001	0.352188	0.366025	0.327222	0.001	0.958083	0.999	0.001	0.001	0.001	0.654668	0.001	0.001	0.001	0.001	0.001	0.0593391	0.001	0.814924	0.820634	0.189425	0.001	0.896012	0.001	0.467515	0.806	0.474908	
3.47	0.001	0.001	0.001	0.001	0.001	0.001	0.001	0.001	0.001	0.001	0.001	0.001	0.001	0.001	0.001	0.001	0.001	0.001	0.001	0.001	0.001	0.001	0.001	0.001	0.001	0.001	0.001	0.001	0.001	0.001	0.001	0.001	0.001	0.001	0.001	0.001	0.001	0.001	0.001	0.000997281	0.001	0.001	0.490809	0.321074	0.001	0.001	0.920465	0.913308	0.246875	0.135705	0.001	0.001	0.213952	0.001	0.358787	0.371373	0.337298	0.001	0.751722	0.999	0.001	0.001	0.001	0.628318	0.001	0.001	0.001	0.001	0.001	0.0638453	0.001	0.815048	0.820639	0.213324	0.001	0.919852	0.001	0.497028	0.2041	0.499806	
3.475	0.001	0.001	0.001	0.001	0.001	0.001	0.001	0.001	0.001	0.001	0.001	0.001	0.001	0.001	0.001	0.001	0.001	0.001	0.001	0.001	0.001	0.001	0.001	0.001	0.001	0.001	0.001	0.001	0.001	0.001	0.001	0.001	0.001	0.001	0.001	0.001	0.001	0.001	0.001	0.000997281	0.001	0.001	0.470923	0.319117	0.001	0.001	0.938966	0.932222	0.0446137	0.00522462	0.001	0.001	0.242102	0.001	0.373825	0.38522	0.349443	0.001	0.999	0.999	0.001	0.001	0.001	0.595678	0.001	0.001	0.001	0.001	0.001	0.0693789	0.001	0.808256	0.813498	0.240757	0.001	0.89836	0.001	0.528807	0.286377	0.53133	
3.48	0.001	0.001	0.001	0.001	0.001	0.001	0.001	0.001	0.001	0.001	0.001	0.001	0.001	0.001	0.001	0.001	0.001	0.001	0.001	0.001	0.001	0.001	0.001	0.001	0.001	0.001	0.001	0.001	0.001	0.001	0.001	0.001	0.001	0.001	0.001	0.001	0.001	0.001	0.001	0.000997281	0.001	0.001	0.420265	0.292687	0.001	0.001	0.953794	0.947878	0.001	0.001	0.0866696	0.00727724	0.276178	0.001	0.390027	0.399273	0.362524	0.0155761	0.999	0.999	0.001	0.001	0.001	0.558551	0.001	0.0334962	0.00125438	0.001	0.001	0.0762856	0.001	0.79412	0.798708	0.271598	0.001	0.888018	0.0417205	0.55661	0.265379	0.558286	
3.485	0.001	0.001	0.001	0.001	0.001	0.001	0.001	0.001	0.001	0.001	0.001	0.001	0.001	0.001	0.001	0.001	0.001	0.001	0.001	0.001	0.001	0.001	0.001	0.001	0.001	0.001	0.001	0.001	0.001	0.001	0.001	0.001	0.001	0.001	0.001	0.001	0.001	0.001	0.001	0.000997281	0.001	0.001	0.433423	0.29842	0.001	0.001	0.963947	0.958081	0.001	0.001	0.193584	0.0291457	0.319544	0.001	0.409623	0.419376	0.378569	0.242267	0.999	0.999	0.001	0.001	0.001	0.520519	0.001	0.133463	0.00515117	0.001	0.001	0.0836117	0.001	0.77237	0.776823	0.305465	0.001	0.928163	0.156553	0.580206	0.316755	0.580074	
3.49	0.001	0.001	0.001	0.001	0.001	0.001	0.001	0.001	0.001	0.001	0.001	0.001	0.001	0.001	0.001	0.001	0.001	0.001	0.001	0.001	0.001	0.001	0.001	0.001	0.001	0.001	0.001	0.001	0.001	0.001	0.001	0.001	0.001	0.001	0.001	0.001	0.001	0.001	0.001	0.000997281	0.001	0.001	0.495614	0.340868	0.001	0.001	0.968399	0.961686	0.001	0.001	0.26863	0.0585648	0.36727	0.001	0.43626	0.448	0.397506	0.425931	0.999	0.999	0.00252444	0.001	0.00477929	0.48166	0.001	0.242082	0.00988789	0.001	0.001	0.0915122	0.001	0.7443	0.749015	0.342005	0.001	0.999	0.245043	0.600511	0.211963	0.598003	
3.495	0.001	0.001	0.001	0.001	0.001	0.001	0.001	0.001	0.001	0.001	0.001	0.001	0.001	0.001	0.001	0.001	0.001	0.001	0.001	0.001	0.001	0.001	0.001	0.001	0.001	0.001	0.001	0.001	0.001	0.001	0.001	0.001	0.001	0.001	0.001	0.001	0.001	0.001	0.001	0.000997281	0.001	0.001	0.647483	0.449338	0.001	0.001	0.967574	0.958514	0.001	0.001	0.329782	0.0895506	0.41646	0.001	0.472608	0.489208	0.420199	0.85845	0.999	0.999	0.001	0.001	0.009943	0.445386	0.001	0.317753	0.0130402	0.001	0.001	0.098778	0.001	0.71228	0.7183	0.380799	0.001	0.999	0.257031	0.616352	0.158976	0.609899	
3.5	0.001	0.001	0.001	0.001	0.001	0.001	0.001	0.001	0.001	0.001	0.001	0.001	0.001	0.001	0.001	0.001	0.001	0.001	0.001	0.001	0.001	0.001	0.001	0.001	0.001	0.001	0.001	0.001	0.001	0.001	0.001	0.001	0.001	0.001	0.001	0.001	0.001	0.001	0.001	0.000997281	0.001	0.001	0.823814	0.580063	0.001	0.001	0.960099	0.947911	0.001	0.001	0.368665	0.117705	0.46572	0.001	0.51421	0.537261	0.44527	0.999	0.999	0.999	0.00346788	0.269596	0.001	0.412484	0.001	0.345159	0.016562	0.001	0.001	0.106405	0.001	0.678221	0.68624	0.421854	0.001	0.999	0.210511	0.627179	0.112832	0.614873	
3.505	0.001	0.001	0.001	0.001	0.001	0.001	0.001	0.001	0.001	0.001	0.001	0.001	0.001	0.001	0.001	0.001	0.001	0.001	0.001	0.001	0.001	0.001	0.001	0.001	0.001	0.001	0.001	0.001	0.001	0.001	0.001	0.001	0.001	0.001	0.001	0.001	0.001	0.001	0.001	0.000997281	0.001	0.001	0.980918	0.664037	0.001	0.001	0.943112	0.928672	0.001	0.001	0.396869	0.140864	0.515074	0.001	0.549496	0.57778	0.468965	0.999	0.999	0.999	0.001	0.999	0.001	0.382684	0.001	0.341524	0.0172974	0.001	0.001	0.116398	0.001	0.64342	0.653118	0.464995	0.001	0.999	0.143523	0.632878	0.0949288	0.612929	
3.51	0.001	0.001	0.001	0.001	0.001	0.001	0.001	0.001	0.001	0.001	0.001	0.001	0.001	0.001	0.001	0.001	0.001	0.001	0.001	0.001	0.001	0.001	0.001	0.001	0.001	0.001	0.001	0.001	0.001	0.001	0.001	0.001	0.001	0.001	0.001	0.001	0.001	0.001	0.001	0.000997281	0.001	0.001	0.982754	0.656775	0.001	0.001	0.915796	0.901042	0.001	0.001	0.416338	0.15998	0.56348	0.001	0.574646	0.60425	0.48788	0.999	0.999	0.999	0.001	0.999	0.0203662	0.353349	0.001	0.318371	0.018977	0.001	0.001	0.130251	0.001	0.608746	0.618955	0.509806	0.001	0.999	0.0956389	0.634454	0.0798911	0.605586	
3.515	0.001	0.001	0.001	0.001	0.001	0.001	0.001	0.001	0.001	0.001	0.001	0.001	0.001	0.001	0.001	0.001	0.001	0.001	0.001	0.001	0.001	0.001	0.001	0.001	0.001	0.001	0.001	0.001	0.001	0.001	0.001	0.001	0.001	0.001	0.001	0.001	0.001	0.001	0.001	0.000997281	0.001	0.001	0.881371	0.581417	0.001	0.001	0.880463	0.867256	0.001	0.001	0.431963	0.172444	0.610696	0.001	0.581645	0.609336	0.50043	0.999	0.999	0.999	0.001	0.999	0.0357422	0.328258	0.001	0.287477	0.0185857	0.001	0.001	0.14782	0.001	0.575915	0.585392	0.555159	0.001	0.999	0.0653972	0.632349	0.0794314	0.593723	
3.52	0.001	0.001	0.001	0.001	0.001	0.001	0.001	0.001	0.001	0.001	0.001	0.001	0.001	0.001	0.001	0.001	0.001	0.001	0.001	0.001	0.001	0.001	0.001	0.001	0.001	0.001	0.001	0.001	0.001	0.001	0.001	0.001	0.001	0.001	0.001	0.001	0.001	0.001	0.001	0.000997281	0.001	0.001	0.736687	0.481025	0.001	0.001	0.839276	0.828512	0.001	0.001	0.443086	0.180743	0.656039	0.001	0.57832	0.602127	0.506984	0.999	0.999	0.999	0.001	0.999	0.00261838	0.306736	0.001	0.260306	0.0187578	0.00100421	0.001	0.167534	0.001	0.546074	0.554072	0.600777	0.001	0.999	0.0617564	0.626196	0.0735424	0.577384	
3.525	0.001	0.001	0.001	0.001	0.001	0.001	0.001	0.001	0.001	0.001	0.001	0.001	0.001	0.001	0.001	0.001	0.001	0.001	0.001	0.001	0.001	0.001	0.001	0.001	0.001	0.001	0.001	0.001	0.001	0.001	0.001	0.001	0.001	0.001	0.001	0.001	0.001	0.001	0.001	0.000997281	0.001	0.001	0.582491	0.385471	0.001	0.001	0.794566	0.786499	0.001	0.001	0.451807	0.187934	0.701689	0.001	0.56523	0.58434	0.506634	0.999	0.999	0.999	0.001	0.999	0.001	0.290051	0.001	0.240414	0.0186475	0.00109915	0.001	0.187659	0.001	0.520674	0.526884	0.647489	0.001	0.999	0.0689077	0.615212	0.0795828	0.555823	
3.53	0.001	0.001	0.001	0.001	0.001	0.001	0.001	0.001	0.001	0.001	0.001	0.001	0.001	0.001	0.001	0.001	0.001	0.001	0.001	0.001	0.001	0.001	0.001	0.001	0.001	0.001	0.001	0.001	0.001	0.001	0.001	0.001	0.001	0.001	0.001	0.001	0.001	0.001	0.001	0.000997281	0.001	0.001	0.449205	0.292599	0.001	0.001	0.747261	0.742087	0.001	0.001	0.45935	0.189034	0.747675	0.001	0.535211	0.548	0.497445	0.999	0.999	0.999	0.001	0.999	0.0333134	0.281751	0.001	0.226993	0.0185721	0.00106381	0.001	0.207537	0.001	0.500523	0.504703	0.696031	0.001	0.999	0.0855273	0.599048	0.0775538	0.5298	
3.535	0.001	0.001	0.001	0.001	0.001	0.001	0.001	0.001	0.001	0.001	0.001	0.001	0.001	0.001	0.001	0.001	0.001	0.001	0.001	0.001	0.001	0.001	0.001	0.001	0.001	0.001	0.001	0.001	0.001	0.001	0.001	0.001	0.001	0.001	0.001	0.001	0.001	0.001	0.001	0.000997281	0.001	0.001	0.315949	0.197481	0.001	0.001	0.698159	0.695639	0.001	0.001	0.465164	0.18844	0.794778	0.001	0.493763	0.500541	0.479382	0.999	0.999	0.999	0.001	0.999	0.0258602	0.280108	0.001	0.220316	0.018689	0.001	0.001	0.2253	0.001	0.486427	0.488715	0.746113	0.001	0.999	0.0976466	0.576101	0.0883634	0.49828	
3.54	0.001	0.001	0.001	0.001	0.001	0.001	0.001	0.001	0.001	0.001	0.001	0.001	0.001	0.001	0.001	0.001	0.001	0.001	0.001	0.001	0.001	0.001	0.001	0.001	0.001	0.001	0.001	0.001	0.001	0.001	0.001	0.001	0.001	0.001	0.001	0.001	0.001	0.001	0.001	0.000997281	0.001	0.001	0.117084	0.0889023	0.001	0.001	0.648451	0.647825	0.001	0.001	0.471016	0.186776	0.841455	0.001	0.456035	0.45765	0.453623	0.999	0.999	0.001	0.001	0.999	0.001	0.277857	0.001	0.219596	0.0188399	0.001	0.001	0.239014	0.001	0.479149	0.47994	0.796484	0.001	0.999	0.106152	0.546268	0.081625	0.463443	
3.545	0.001	0.001	0.001	0.001	0.001	0.001	0.001	0.001	0.001	0.001	0.001	0.001	0.001	0.001	0.001	0.001	0.001	0.001	0.001	0.001	0.001	0.001	0.001	0.001	0.001	0.001	0.001	0.001	0.001	0.001	0.001	0.001	0.001	0.001	0.001	0.001	0.001	0.001	0.001	0.000997281	0.0214352	0.001	0.025063	0.0346602	0.001	0.001	0.601155	0.601223	0.001	0.001	0.476215	0.183283	0.885958	0.001	0.420292	0.420057	0.42256	0.999	0.715214	0.001	0.001	0.999	0.001	0.280572	0.703589	0.22296	0.0193436	0.001	0.001	0.24625	0.001	0.479188	0.479434	0.845642	0.001	0.999	0.110758	0.509048	0.0866337	0.425289	
3.55	0.001	0.001	0.001	0.001	0.001	0.001	0.001	0.001	0.001	0.001	0.001	0.001	0.001	0.001	0.001	0.001	0.001	0.001	0.001	0.001	0.001	0.001	0.001	0.001	0.001	0.001	0.001	0.001	0.001	0.001	0.001	0.001	0.001	0.001	0.001	0.001	0.001	0.001	0.001	0.000997281	0.0872603	0.0533456	0.0545943	0.0508905	0.001	0.001	0.5583	0.558305	0.001	0.001	0.484046	0.176423	0.925637	0.001	0.384646	0.384707	0.386944	0.999	0.233539	0.001	0.001	0.999	0.001	0.285837	0.533212	0.228482	0.0199806	0.001	0.001	0.24696	0.001	0.485899	0.486149	0.890305	0.001	0.999	0.125439	0.46615	0.067378	0.386098	
3.555	0.001	0.001	0.001	0.001	0.001	0.001	0.001	0.001	0.001	0.001	0.001	0.001	0.001	0.001	0.001	0.001	0.001	0.001	0.001	0.001	0.001	0.001	0.001	0.001	0.001	0.001	0.001	0.001	0.001	0.001	0.001	0.001	0.001	0.001	0.001	0.001	0.001	0.001	0.001	0.000997281	0.049592	0.001	0.0611035	0.0543474	0.001	0.001	0.51976	0.51974	0.001	0.001	0.483256	0.171382	0.95789	0.001	0.344687	0.344885	0.346404	0.999	0.18331	0.001	0.001	0.999	0.00208319	0.292313	0.36468	0.223135	0.0196659	0.001	0.001	0.24182	0.001	0.497111	0.497332	0.927738	0.001	0.999	0.115309	0.418189	0.0527069	0.345118	
3.56	0.001	0.001	0.001	0.001	0.001	0.001	0.001	0.001	0.001	0.001	0.001	0.001	0.001	0.001	0.001	0.001	0.001	0.001	0.001	0.001	0.001	0.001	0.001	0.001	0.001	0.001	0.001	0.001	0.001	0.001	0.001	0.001	0.001	0.001	0.001	0.001	0.001	0.001	0.001	0.000997281	0.0481389	0.0294756	0.0253084	0.0328091	0.001	0.001	0.485862	0.485929	0.001	0.001	0.488554	0.162544	0.977551	0.001	0.301775	0.301635	0.303547	0.999	0.001	0.001	0.001	0.999	0.001	0.299247	0.874107	0.226806	0.0214964	0.001	0.001	0.231137	0.001	0.509727	0.509831	0.952497	0.001	0.999	0.11489	0.368112	0.0136067	0.3046	
3.565	0.001	0.001	0.001	0.001	0.001	0.001	0.001	0.001	0.001	0.001	0.001	0.001	0.001	0.001	0.001	0.001	0.001	0.001	0.001	0.001	0.001	0.001	0.001	0.001	0.001	0.001	0.001	0.001	0.001	0.001	0.001	0.001	0.001	0.001	0.001	0.001	0.001	0.001	0.001	0.000997281	0.0465491	0.00895956	0.0489865	0.0458548	0.001	0.001	0.455583	0.455795	0.001	0.001	0.490257	0.152989	0.98259	0.001	0.259631	0.259732	0.261233	0.999	0.001	0.001	0.001	0.829416	0.001	0.309372	0.576913	0.223044	0.0207142	0.001	0.001	0.214879	0.299838	0.520497	0.520739	0.961548	0.001	0.999	0.120696	0.314455	0.0473876	0.259099	
3.57	0.001	0.001	0.001	0.001	0.001	0.001	0.001	0.001	0.001	0.001	0.001	0.001	0.001	0.001	0.001	0.001	0.001	0.001	0.001	0.001	0.001	0.001	0.001	0.001	0.001	0.001	0.001	0.001	0.001	0.001	0.001	0.001	0.001	0.001	0.001	0.001	0.001	0.001	0.001	0.000997281	0.001	0.001	0.0801052	0.0668583	0.001	0.001	0.42389	0.424604	0.001	0.001	0.502161	0.146842	0.979326	0.001	0.212023	0.212371	0.213485	0.999	0.0340584	0.001	0.001	0.895786	0.001	0.315805	0.68056	0.232378	0.0261603	0.001	0.001	0.192918	0.776785	0.521745	0.522224	0.961942	0.001	0.999	0.149769	0.24935	0.0657537	0.200978	
3.575	0.001	0.001	0.001	0.001	0.001	0.001	0.001	0.001	0.001	0.001	0.001	0.001	0.001	0.001	0.001	0.001	0.001	0.001	0.001	0.001	0.001	0.001	0.001	0.001	0.001	0.001	0.001	0.001	0.001	0.001	0.001	0.001	0.001	0.001	0.001	0.001	0.001	0.001	0.001	0.000997281	0.001	0.001	0.001	0.0194021	0.001	0.001	0.395508	0.39704	0.001	0.001	0.495734	0.138728	0.94624	0.001	0.183277	0.182927	0.183164	0.999	0.0268517	0.001	0.001	0.999	0.001	0.32714	0.739646	0.22292	0.0236578	0.001	0.001	0.17563	0.999	0.522588	0.523064	0.930347	0.001	0.999	0.132973	0.205593	0.0742571	0.15874	
3.58	0.001	0.001	0.001	0.001	0.001	0.001	0.001	0.001	0.001	0.001	0.001	0.001	0.001	0.001	0.001	0.001	0.001	0.001	0.001	0.001	0.001	0.001	0.001	0.001	0.001	0.001	0.001	0.001	0.001	0.001	0.001	0.001	0.001	0.001	0.001	0.001	0.001	0.001	0.001	0.000997281	0.001	0.001	0.001	0.001	0.001	0.001	0.36079	0.363783	0.001	0.001	0.498461	0.133157	0.907975	0.001	0.154421	0.152778	0.1486	0.999	0.0167471	0.001	0.001	0.999	0.001	0.326419	0.76186	0.242082	0.0245976	0.001	0.001	0.156645	0.999	0.512523	0.512824	0.893309	0.001	0.999	0.152585	0.152043	0.0620935	0.101838	
3.585	0.001	0.001	0.001	0.001	0.001	0.001	0.001	0.001	0.001	0.001	0.001	0.001	0.001	0.001	0.001	0.001	0.001	0.001	0.001	0.001	0.001	0.001	0.001	0.001	0.001	0.001	0.001	0.001	0.001	0.001	0.001	0.001	0.001	0.001	0.001	0.001	0.001	0.001	0.001	0.000997281	0.001	0.001	0.001	0.001	0.001	0.001	0.323376	0.328091	0.001	0.001	0.500238	0.126483	0.858029	0.001	0.133663	0.130266	0.118162	0.999	0.00868532	0.001	0.001	0.999	0.001	0.314889	0.708668	0.226318	0.028483	0.001	0.001	0.140623	0.969018	0.496443	0.49626	0.844244	0.001	0.999	0.144698	0.102269	0.0889	0.0395253	
3.59	0.001	0.001	0.001	0.001	0.001	0.001	0.001	0.001	0.001	0.001	0.001	0.001	0.001	0.001	0.001	0.001	0.001	0.001	0.001	0.001	0.001	0.001	0.001	0.001	0.001	0.001	0.001	0.001	0.001	0.001	0.001	0.001	0.001	0.001	0.001	0.001	0.001	0.001	0.001	0.000997281	0.001	0.001	0.001	0.001	0.00133396	0.001	0.286426	0.292733	0.001	0.001	0.50813	0.119974	0.798659	0.001	0.119527	0.114281	0.0931385	0.999	0.00679188	0.001	0.001	0.999	0.001	0.294194	0.704977	0.217854	0.0270402	0.001	0.001	0.128663	0.951476	0.476374	0.475456	0.785523	0.001	0.999	0.178602	0.0615408	0.0829195	0.001	
3.595	0.001	0.001	0.001	0.001	0.001	0.001	0.001	0.001	0.001	0.001	0.001	0.001	0.001	0.001	0.001	0.001	0.001	0.001	0.001	0.001	0.001	0.001	0.001	0.001	0.001	0.001	0.001	0.001	0.001	0.001	0.001	0.001	0.001	0.001	0.001	0.001	0.001	0.001	0.001	0.000997281	0.001	0.001	0.001	0.001	0.00157864	0.001	0.248117	0.256344	0.001	0.001	0.486263	0.107658	0.735469	0.001	0.110743	0.103458	0.0685579	0.999	0.0277954	0.001	0.001	0.999	0.001	0.265501	0.707122	0.2019	0.0254606	0.001	0.001	0.121438	0.950418	0.455163	0.453096	0.723131	0.001	0.999	0.156208	0.020131	0.0781977	0.001	
3.6	0.001	0.001	0.001	0.001	0.001	0.001	0.001	0.001	0.001	0.001	0.001	0.001	0.001	0.001	0.001	0.001	0.001	0.001	0.001	0.001	0.001	0.001	0.001	0.001	0.001	0.001	0.001	0.001	0.001	0.001	0.001	0.001	0.001	0.001	0.001	0.001	0.001	0.001	0.001	0.000997281	0.001	0.001	0.001	0.001	0.00290822	0.001	0.213284	0.223172	0.001	0.001	0.466528	0.0845342	0.667395	0.001	0.108516	0.0996989	0.0491349	0.999	0.0452363	0.001	0.001	0.999	0.001	0.224701	0.6499	0.171306	0.022666	0.001	0.001	0.11974	0.940959	0.431868	0.428563	0.655914	0.001	0.779816	0.14286	0.001	0.0561218	0.001	
3.605	0.001	0.001	0.001	0.001	0.001	0.001	0.001	0.001	0.001	0.001	0.001	0.001	0.001	0.001	0.001	0.001	0.001	0.001	0.001	0.001	0.001	0.001	0.001	0.001	0.001	0.001	0.001	0.001	0.001	0.001	0.001	0.001	0.001	0.001	0.001	0.001	0.001	0.001	0.001	0.000997281	0.001	0.001	0.001	0.001	0.00240407	0.001	0.181486	0.192893	0.001	0.001	0.439004	0.0663613	0.597347	0.001	0.109088	0.0998971	0.0333411	0.999	0.001	0.001	0.001	0.999	0.001	0.181832	0.640644	0.14596	0.0198646	0.001	0.001	0.123489	0.932317	0.407641	0.403017	0.586534	0.001	0.634119	0.138537	0.001	0.029197	0.001	
3.61	0.001	0.001	0.001	0.001	0.001	0.001	0.001	0.001	0.001	0.001	0.001	0.001	0.001	0.001	0.001	0.001	0.001	0.001	0.001	0.001	0.001	0.001	0.001	0.001	0.001	0.001	0.001	0.001	0.001	0.001	0.001	0.001	0.001	0.001	0.001	0.001	0.001	0.001	0.001	0.000997281	0.001	0.001	0.001	0.001	0.001	0.001	0.153022	0.165872	0.001	0.001	0.414046	0.0617078	0.527162	0.001	0.112545	0.103685	0.0203309	0.999	0.001	0.001	0.001	0.999	0.001	0.132419	0.539371	0.136549	0.0186649	0.001	0.001	0.132613	0.923697	0.382489	0.376429	0.516661	0.001	0.511753	0.131205	0.001	0.0259964	0.001	
3.615	0.001	0.001	0.001	0.001	0.001	0.001	0.001	0.001	0.001	0.001	0.001	0.001	0.001	0.001	0.001	0.001	0.001	0.001	0.001	0.001	0.001	0.001	0.001	0.001	0.001	0.001	0.001	0.001	0.001	0.001	0.001	0.001	0.001	0.001	0.001	0.001	0.001	0.001	0.001	0.000997281	0.001	0.001	0.001	0.001	0.001	0.001	0.127653	0.141984	0.001	0.001	0.373945	0.04408	0.458452	0.001	0.117645	0.112551	0.00935157	0.999	0.0709585	0.001	0.001	0.999	0.001	0.0725024	0.451326	0.10851	0.0152683	0.001	0.001	0.14681	0.916242	0.355947	0.348346	0.448189	0.001	0.384809	0.12533	0.001	0.001	0.001	
3.62	0.001	0.001	0.001	0.001	0.001	0.001	0.001	0.001	0.001	0.001	0.001	0.001	0.001	0.001	0.001	0.001	0.001	0.001	0.001	0.001	0.001	0.001	0.001	0.001	0.001	0.001	0.001	0.001	0.001	0.001	0.001	0.001	0.001	0.001	0.001	0.001	0.001	0.001	0.001	0.000997281	0.001	0.001	0.001	0.00217136	0.00522815	0.001	0.105419	0.121214	0.001	0.001	0.354375	0.0406957	0.393101	0.001	0.1234	0.12362	0.001	0.999	0.0574767	0.001	0.001	0.999	0.001	0.001	0.341932	0.10145	0.0143342	0.001	0.001	0.165872	0.908881	0.327704	0.318471	0.382883	0.001	0.273434	0.119474	0.001	0.001	0.001	
3.625	0.001	0.001	0.001	0.001	0.001	0.001	0.001	0.001	0.001	0.001	0.001	0.001	0.001	0.001	0.001	0.001	0.001	0.001	0.001	0.001	0.001	0.001	0.001	0.001	0.001	0.001	0.001	0.001	0.001	0.001	0.001	0.001	0.001	0.001	0.001	0.001	0.001	0.001	0.001	0.000997281	0.001	0.001	0.001	0.00271903	0.00196142	0.001	0.0834924	0.101764	0.001	0.001	0.148505	0.00703827	0.330185	0.001	0.11985	0.119885	0.001	0.999	0.001	0.001	0.001	0.999	0.001	0.001	0.999	0.0208593	0.00298014	0.001	0.001	0.191119	0.902119	0.291792	0.28317	0.321929	0.001	0.161129	0.0309778	0.00312848	0.001	0.001	
3.63	0.001	0.001	0.001	0.001	0.001	0.001	0.001	0.001	0.001	0.001	0.001	0.001	0.001	0.001	0.001	0.001	0.001	0.001	0.001	0.001	0.001	0.001	0.001	0.001	0.001	0.001	0.001	0.001	0.001	0.001	0.001	0.001	0.001	0.001	0.001	0.001	0.001	0.001	0.001	0.000997281	0.001	0.001	0.001	0.001	0.001	0.001	0.0688389	0.0874088	0.001	0.001	0.150891	0.00624825	0.275177	0.001	0.12921	0.147867	0.001	0.999	0.001	0.001	0.001	0.999	0.001	0.001	0.0284589	0.0198464	0.002821	0.001	0.001	0.21476	0.89523	0.264489	0.253171	0.265544	0.001	0.166408	0.0465016	0.001	0.001	0.001	
