CEINMS output
datacolumns 81
datarows 92
endheader
time	addbrev_r	addlong_r	addmagDist_r	addmagIsch_r	addmagMid_r	addmagProx_r	bflh_r	bfsh_r	edl_r	ehl_r	fdl_r	fhl_r	gaslat_r	gasmed_r	glmax1_r	glmax2_r	glmax3_r	glmed1_r	glmed2_r	glmed3_r	glmin1_r	glmin2_r	glmin3_r	grac_r	iliacus_r	perbrev_r	perlong_r	piri_r	psoas_r	recfem_r	sart_r	semimem_r	semiten_r	soleus_r	tfl_r	tibant_r	tibpost_r	vasint_r	vaslat_r	vasmed_r	addbrev_l	addlong_l	addmagDist_l	addmagIsch_l	addmagMid_l	addmagProx_l	bflh_l	bfsh_l	edl_l	ehl_l	fdl_l	fhl_l	gaslat_l	gasmed_l	glmax1_l	glmax2_l	glmax3_l	glmed1_l	glmed2_l	glmed3_l	glmin1_l	glmin2_l	glmin3_l	grac_l	iliacus_l	perbrev_l	perlong_l	piri_l	psoas_l	recfem_l	sart_l	semimem_l	semiten_l	soleus_l	tfl_l	tibant_l	tibpost_l	vasint_l	vaslat_l	vasmed_l	
3.19	0.0129968	0.000592877	0.0230361	0.0232967	0.0284493	0	0.0241391	0.0374142	0.0221239	0.0222317	0.0385102	0.0496496	0.00964731	0.0229832	0.00815624	0.0137444	0.0188356	0.0833961	0.0777083	0.0235867	0.0844028	0.0847468	0.0846967	0.0270969	0.0106325	0.0157891	0.0399591	0.0528093	0.0086565	5.56437e-05	0.0352597	0.0354926	0.0418818	0.0361552	0.000195299	0.0185356	0.0383767	0.00900172	0.00944193	0.0089739	0.00364802	0.0505597	0.0182458	0.0178508	0.0144225	0.00298217	0.00454752	0.00866398	0.0320082	0.084131	0.0417019	0.0456045	0.0258201	0	0.000991908	0.0019792	0.000294217	0.0407759	0.0232669	4.3606e-13	0.022465	0.0390867	0	0.00238824	0.000235311	0.0751692	0.0839078	0	0.00061383	0.084822	0.0411594	0.0555829	0.0363918	0	1.02921e-17	0.0843698	0.0842243	0	0.000191685	1.30939e-06	
3.195	0.0116408	1.49402e-10	0.0210246	0.0214904	0.0256116	0	0.0236454	0.0399366	0.0227039	0.0228703	0.038396	0.0493799	0.0106273	0.0241584	0.00701431	0.0125686	0.0169808	0.083932	0.0770538	0.0221223	0.0853427	0.0854004	0.0848618	0.0270817	0.0129093	0.0156471	0.0397821	0.0501339	0.0102966	0.00100603	0.0376253	0.0356819	0.0419385	0.035287	0.00378558	0.0193567	0.0382027	0.00749173	0.00809599	0.007597	0.00252243	0.0494417	0.0190708	0.0182502	0.0149675	0.00283679	0.00152326	0.00641612	0.0321543	0.0841988	0.0415706	0.0454701	0.0238589	0	0.0010511	0.00201073	1.23294e-12	0.046747	0.0279561	3.78461e-10	0.0242933	0.0178645	0	0	0.00202129	0.0751952	0.0838765	0	0.00145285	0.0871181	0.0404054	0.0504406	0.0337237	6.82409e-10	0	0.0844733	0.0844732	1.43635e-14	0.00385788	0.00398116	
3.2	0.0113357	8.22671e-11	0.0198432	0.0202863	0.0239303	0	0.0232112	0.0419488	0.0231296	0.0233353	0.0382969	0.0491374	0.0112973	0.0250768	0.00656162	0.0120655	0.0160077	0.0839005	0.0763017	0.0211975	0.0853159	0.0853481	0.0847987	0.027107	0.0139959	0.0155685	0.0396352	0.0475456	0.0110859	0.00181289	0.0395021	0.0357738	0.0419248	0.0345797	0.00567312	0.0198976	0.0380555	0.00661484	0.00729972	0.00680437	0.00217365	0.0484205	0.0234201	0.020305	0.0187812	0.0038289	0.00159145	0.00683106	0.032253	0.084202	0.041325	0.0455517	0.0238169	2.70404e-11	0.00691373	0.0131744	2.10526e-09	0.0419785	0.0309516	3.10903e-10	0.0243436	0.01203	2.92436e-14	0.00634069	0.00201865	0.0759725	0.084048	8.56556e-12	0.00163579	0.0870615	0.0396984	0.0464942	0.0333708	3.04433e-14	8.05975e-12	0.0844376	0.0851426	0	0.00498064	0.00519475	
3.205	0.0110419	3.57962e-11	0.0187628	0.0192212	0.0223853	0	0.0227464	0.0439605	0.0234426	0.0236743	0.0382071	0.0489187	0.0117739	0.0258874	0.00614805	0.0116054	0.0151094	0.0838177	0.0753414	0.0202855	0.0852102	0.085245	0.0847126	0.0270705	0.0148105	0.0155135	0.0395044	0.0449819	0.0116383	0.00202136	0.0414048	0.0357704	0.0418275	0.0339859	0.00664448	0.020256	0.0379257	0.00603634	0.00675223	0.00627114	0.00225729	0.0474146	0.0255581	0.0217829	0.0199077	0.00371642	0.00202288	0.00675576	0.032313	0.0841791	0.0408842	0.0456159	0.0237184	3.07176e-12	0.0100176	0.0223498	0.00260528	0.0425836	0.0104669	4.13671e-10	0.0373006	0.00525231	2.49495e-13	0.0130487	0.00746872	0.0762173	0.0841715	0	0.0113418	0.0870275	0.0389872	0.042748	0.0320384	0	5.44296e-12	0.0843776	0.0857538	3.44572e-11	0.00508008	0.00528081	
3.21	0.0107753	1.23982e-11	0.0176718	0.0181321	0.0209314	0	0.0222098	0.0460459	0.0236932	0.0239464	0.0381285	0.0487299	0.0122024	0.0267024	0.00570104	0.0111206	0.0142292	0.0837348	0.0741232	0.0193446	0.0851053	0.085142	0.0846283	0.0269983	0.0156951	0.0154666	0.0393911	0.0424449	0.0122249	0.00200138	0.0434699	0.0356669	0.0416384	0.0334876	0.00724059	0.0205381	0.0378136	0.00551986	0.00625077	0.0057871	0.00372311	0.0465218	0.0232468	0.0213937	0.0168143	0.0025443	0.00233953	0.00578308	0.0323362	0.0841524	0.0404104	0.0456151	0.0230004	3.35511e-12	0.0100525	0.0255321	0.00626229	0.0362114	0.000674879	4.21107e-10	0.049667	0.0137189	1.17618e-14	0.0153515	0.0157875	0.076092	0.0842058	9.25292e-09	0.0235135	0.0869839	0.0382253	0.0391235	0.0301765	2.20043e-10	4.77819e-12	0.0843225	0.0861269	7.58276e-11	0.00499386	0.00519047	
3.215	0.0105824	2.05486e-07	0.0166078	0.0170356	0.0195821	1.96317e-06	0.0215977	0.0481515	0.0238824	0.0241517	0.038067	0.0485827	0.012653	0.0275469	0.00523868	0.0106307	0.0133982	0.0836322	0.0726055	0.0183925	0.0849724	0.0850185	0.0845348	0.026895	0.0166258	0.0154337	0.0393035	0.0399896	0.0128376	0.00209777	0.0456976	0.0354442	0.0413414	0.0331082	0.00785023	0.0207471	0.0377269	0.00502372	0.00577851	0.00532937	0.0050985	0.0455162	0.0179274	0.0188824	0.0118808	0.00201959	0.00227017	0.00459334	0.0323128	0.0841208	0.0401633	0.0456212	0.0219586	1.85003e-07	0.00965642	0.0256561	0.00594605	0.0336615	0.00198795	0	0.0460616	0.0069605	0	0.0150125	0.0237754	0.0760111	0.0842152	1.7348e-07	0.0322217	0.0869225	0.0373852	0.0358525	0.0284417	1.03721e-06	1.90563e-07	0.0842688	0.086316	7.66379e-07	0.00497998	0.00522557	
3.22	0.0104597	1.9726e-07	0.0155866	0.0159518	0.0183224	1.88714e-06	0.0209126	0.0502331	0.023991	0.0242685	0.0380275	0.0484865	0.0131346	0.0284181	0.00474987	0.0101314	0.0126086	0.0835148	0.0707746	0.0174369	0.0848185	0.084881	0.0844356	0.0267546	0.0175792	0.0154208	0.0392479	0.0376725	0.0134645	0.00232232	0.0480896	0.0350871	0.0409267	0.0328751	0.00855958	0.0208546	0.037672	0.00457947	0.00536179	0.00492017	0.00598352	0.0442507	0.0129779	0.0153728	0.00823092	0.0015582	0.00211787	0.00357946	0.0322331	0.0840826	0.0401529	0.045688	0.0208879	1.77739e-07	0.00970033	0.02547	0.00569718	0.0338015	0.00242138	0	0.0313981	0.00364733	0	0.0138197	0.0301006	0.0760532	0.0842354	4.75977e-08	0.0379039	0.0868391	0.0364645	0.0329397	0.0268516	1.12297e-06	1.82956e-07	0.0842198	0.086407	8.09604e-07	0.0049749	0.00543974	
3.225	0.0104102	7.06494e-08	0.0146311	0.0148997	0.0171463	6.75939e-07	0.0201559	0.0522515	0.0240063	0.0242831	0.038013	0.0484484	0.0136471	0.0293204	0.00425772	0.00962084	0.0118512	0.0833866	0.0686225	0.0164962	0.0846491	0.084734	0.0843349	0.0265771	0.0185501	0.0154301	0.0392282	0.0355318	0.0141183	0.0026455	0.0506419	0.0345894	0.0403933	0.0328059	0.00931924	0.0208455	0.0376532	0.00422217	0.00500277	0.00457244	0.00644501	0.0427791	0.00999938	0.0120818	0.00656366	0	0.00208579	0.00227223	0.0320905	0.0840391	0.0403196	0.0458404	0.0199331	6.36581e-08	0.00995721	0.0258879	0.00624848	0.0320848	0.00243601	1.2545e-06	0.0195141	0.00358283	1.15822e-06	0.0128408	0.0342851	0.0761957	0.0842669	1.92269e-06	0.0403851	0.0867329	0.0354749	0.0302234	0.0253667	4.47996e-07	6.5533e-08	0.0841696	0.0864559	3.21468e-07	0.00492203	0.00582001	
3.23	0.010437	1.06322e-08	0.0137563	0.0139027	0.0160665	9.87866e-08	0.0193319	0.0541666	0.0239213	0.0241882	0.0380259	0.0484736	0.0141955	0.0302627	0.00381387	0.00910184	0.0111177	0.0832509	0.0661734	0.0156004	0.0844683	0.0845812	0.0842352	0.0263665	0.0195382	0.0154614	0.0392471	0.0335663	0.0148079	0.00299483	0.0533466	0.0339519	0.0397478	0.0329119	0.0100656	0.0207119	0.0376734	0.00394953	0.004694	0.00428961	0.00670404	0.0411614	0.00805103	0.00928153	0.00592766	0	0.00217873	0.00154008	0.0318803	0.0839917	0.0406256	0.0460801	0.0190856	9.53474e-09	0.0102051	0.0266367	0.00716418	0.027362	0.00241023	0	0.0192074	0.00364363	0	0.0121321	0.0369227	0.0764308	0.0843011	0	0.0413863	0.0866387	0.0344295	0.027639	0.0240038	8.79183e-08	9.81114e-09	0.0841147	0.0864864	4.20764e-08	0.00485954	0.0063764	
3.235	0.0105415	0	0.0129598	0.0129693	0.0151092	0	0.0184471	0.0559482	0.0237329	0.0239803	0.0380672	0.0485651	0.0147887	0.0312519	0.00335834	0.00857891	0.0104024	0.0831109	0.0634668	0.0147811	0.0842802	0.084426	0.0841387	0.0261296	0.0205505	0.0155146	0.0393063	0.0317481	0.0155368	0.00328421	0.0561876	0.0331797	0.0390038	0.0331986	0.0107725	0.0204498	0.0377341	0.00373749	0.00443678	0.00406594	0.00683948	0.0394082	0.00639918	0.00693345	0.0057287	0	0.00245988	0	0.031599	0.0839414	0.041006	0.0464065	0.0183097	0	0.0104531	0.0273636	0.00808111	0.0202491	0.00266916	0	0.0263178	0.00369993	2.35158e-07	0.0115277	0.0383069	0.0767635	0.0843347	0	0.0414756	0.0865553	0.0333396	0.0252506	0.0227942	0	0	0.0840563	0.0865168	1.1849e-08	0.00483195	0.00710768	
3.24	0.0107244	0	0.0122323	0.0120936	0.0142906	0	0.0175102	0.0575625	0.0234412	0.0236596	0.0381367	0.0487235	0.0154335	0.0322904	0.00274082	0.00805779	0.00969983	0.0829694	0.060573	0.0140354	0.0840889	0.0842716	0.0840469	0.0258754	0.0215927	0.0155891	0.0394064	0.0300708	0.0163014	0.00350782	0.0591287	0.0322825	0.0381806	0.033666	0.0114333	0.0200597	0.0378354	0.00355963	0.00423266	0.00389552	0.00680787	0.0375165	0.00546035	0.00510196	0.00587566	9.34827e-06	0.00294879	0	0.031245	0.0838892	0.0414392	0.0468207	0.0175885	0	0.0107333	0.0279568	0.00900598	0.0149923	0.00299099	0	0.0233668	0.0037861	4.002e-06	0.0109486	0.0386713	0.0771873	0.0843678	3.1584e-07	0.0409587	0.0864722	0.0322148	0.0231413	0.0217577	0	0.00202037	0.0839958	0.0865649	0	0.00483791	0.00796926	
3.245	0.0109853	0.00192027	0.0115642	0.0112637	0.0136055	0	0.0165352	0.0589981	0.0230504	0.0232311	0.0382329	0.0489467	0.0161315	0.0333775	0.00215061	0.00754414	0.00900824	0.0828285	0.0575725	0.0133244	0.0838976	0.0841205	0.083961	0.0256152	0.022665	0.0156831	0.0395462	0.0285595	0.0170925	0.00368255	0.0620843	0.0312742	0.0373013	0.0343084	0.0120443	0.0195476	0.0379756	0.00340698	0.00407595	0.00376346	0.00661492	0.0355036	0.00586961	0.00439117	0.00640796	4.78624e-06	0.00346909	1.06814e-05	0.0308184	0.0838361	0.0419219	0.0473234	0.0169245	0	0.0110288	0.0284083	0.00997729	0.0108747	0.00327164	0.00233414	0.0159844	0.00389068	0	0.010412	0.0380987	0.0776886	0.0844006	4.28259e-06	0.0399442	0.0863333	0.0310649	0.0213645	0.0209145	0	0.00298188	0.0839344	0.0866364	0	0.00479777	0.00885658	
3.25	0.0113242	0.00222997	0.0109492	0.0104708	0.0130417	0	0.0155465	0.0602491	0.0225695	0.0227049	0.0383531	0.0492298	0.0168786	0.0345133	0.00201506	0.00704254	0.00833537	0.0826899	0.0545668	0.0126934	0.0837097	0.0839747	0.0838811	0.0253614	0.0237623	0.0157942	0.0397232	0.027237	0.0179008	0.00382068	0.0649772	0.0301762	0.0363907	0.0351158	0.0125995	0.0189241	0.0381512	0.00327661	0.00395665	0.0036566	0.00627647	0.0333529	0.00784118	0.00546248	0.00730311	1.8785e-06	0.00396644	1.45945e-05	0.0303213	0.0837833	0.0424482	0.0479128	0.0163287	0	0.0113111	0.0286768	0.0109552	0.00655536	0.00352749	0.00232469	0.0102048	0.00400418	3.69481e-07	0.00995467	0.0366864	0.0782532	0.0844324	0	0.0385193	0.0861474	0.0299055	0.019946	0.0202881	0	0.00306479	0.0838732	0.0867204	0	0.00466898	0.00970232	
3.255	0.0117403	0.00241301	0.0103834	0.00970821	0.0125885	1.68866e-09	0.0145783	0.0613338	0.0220113	0.0220954	0.0384933	0.0495655	0.0176668	0.0357034	0.0016789	0.00655757	0.00769218	0.0825546	0.0516033	0.01211	0.0835278	0.0838356	0.083807	0.025127	0.0248773	0.015919	0.0399334	0.026105	0.018721	0.00392723	0.0677466	0.0290185	0.0354701	0.0360773	0.0130938	0.0182036	0.0383573	0.00316449	0.00386302	0.00356673	0.00607175	0.0310146	0.0115357	0.00809378	0.00883328	2.3733e-07	0.00464058	5.18049e-06	0.0297578	0.0837318	0.0430065	0.0485839	0.0158139	1.94114e-10	0.0115661	0.0287216	0.0118638	0.00454033	0.00377008	0.00260265	0.00679805	0.00412797	5.23518e-06	0.00959605	0.0345518	0.0788666	0.0844623	0	0.0367676	0.0859243	0.0287572	0.0189004	0.0199127	0	0.00268831	0.0838133	0.0867954	1.89892e-08	0.00446421	0.0104846	
3.26	0.0122338	0.00258202	0.00986426	0.00897387	0.0122385	1.60507e-09	0.0136636	0.0622699	0.0213927	0.0214215	0.0386484	0.0499444	0.0184872	0.0369585	0	0.00609588	0.00708694	0.0824233	0.0487282	0.0115661	0.0833542	0.0837042	0.0837379	0.0249253	0.0260014	0.0160537	0.0401713	0.025148	0.0195531	0.00400081	0.0703495	0.0278353	0.0345559	0.0371816	0.0135246	0.0174044	0.0385874	0.00306367	0.00378397	0.00348677	0.00612929	0.0284657	0.0166258	0.0118129	0.0111076	0	0.00553425	0	0.029134	0.083623	0.0435896	0.0493296	0.0153939	1.59013e-10	0.0117911	0.0285601	0.0126365	0.00447708	0.00401667	0.00313313	0.00507555	0.00425668	0	0.00934245	0.0318225	0.0795119	0.0844895	0	0.034771	0.085693	0.0276396	0.0182424	0.0198349	0	0.00224317	0.083756	0.0868397	8.4429e-08	0.00423909	0.011221	
3.265	0.0128065	0.00289271	0.00939317	0.00827522	0.0119865	6.08798e-10	0.0128209	0.063091	0.0207327	0.0207041	0.0388128	0.0503552	0.0193328	0.0382854	1.57913e-07	0.00566197	0.00652628	0.0822964	0.0459792	0.0110513	0.0831904	0.083581	0.0836725	0.0247692	0.0271255	0.0161941	0.0404304	0.0243382	0.0204008	0.00403693	0.0727503	0.0266614	0.033661	0.0384139	0.0138911	0.0165524	0.0388343	0.00296443	0.00371052	0.00340921	0.00624448	0.0257414	0.0225023	0.0161373	0.0138072	0	0.00666443	0	0.0284575	0.0832602	0.0441885	0.0501407	0.0150834	6.05568e-11	0.0119836	0.0282397	0.0132661	0.00486662	0.00429031	0.00353182	0.00427699	0.00438193	2.57826e-06	0.00919997	0.0286336	0.0801722	0.0845135	2.66351e-06	0.0325952	0.0854415	0.0265695	0.0179962	0.0201114	0	0.0020067	0.0837023	0.0868402	3.02419e-09	0.00401465	0.0119011	
3.27	0.0134654	0.00319501	0.00897686	0.00762365	0.0118293	0	0.0120564	0.0638312	0.0200526	0.0199663	0.0389807	0.0507847	0.0201991	0.0396797	0	0.00524931	0.00601958	0.0821737	0.04337	0.0105529	0.0830376	0.0834658	0.0836092	0.0246707	0.0282402	0.0163356	0.040703	0.023641	0.0212678	0.00403182	0.0749337	0.0255292	0.0327984	0.0397495	0.0141921	0.0156833	0.0390896	0.00285567	0.00363429	0.00332544	0.00619415	0.022908	0.0285594	0.020768	0.016621	0	0.0081475	0	0.0277376	0.0826028	0.044787	0.0510068	0.0148981	9.53109e-12	0.0121394	0.0278032	0.0137848	0.00536817	0.0045817	0.00385556	0.00396345	0.00449426	0.00024562	0.00917895	0.0251676	0.0808331	0.0845337	1.33797e-06	0.0302912	0.0851802	0.0255584	0.0182176	0.0208036	0	0.00200061	0.0836568	0.0867953	0	0.00379843	0.0125175	
3.275	0.0142224	0.00342633	0.00861736	0.00702661	0.0117642	0	0.0113701	0.0645212	0.0193749	0.0192325	0.039146	0.0512185	0.0210817	0.0411271	7.92063e-06	0.00485002	0.00557035	0.0807764	0.0409113	0.0100566	0.0828965	0.0833584	0.0835465	0.0246409	0.0293368	0.0164737	0.0409807	0.0230159	0.0221547	0.00398471	0.0768876	0.0244668	0.0319828	0.0411537	0.0144248	0.014842	0.039345	0.00272763	0.00354658	0.0032257	0.00601747	0.0200312	0.0344142	0.0253319	0.019473	0	0.0100525	0	0.0269849	0.0816942	0.045376	0.0519155	0.0148529	0	0.0122534	0.0272853	0.0142268	0.00597385	0.00487015	0.00420147	0.00382897	0.00458299	0.00769471	0.00929453	0.0216771	0.0814822	0.0845495	4.01185e-12	0.0279192	0.0849138	0.0246138	0.0189931	0.02197	0	0.00119549	0.0836216	0.0867123	0	0.00360312	0.0130811	
3.28	0.0150999	0.00362082	0.00831732	0.00648933	0.0117883	0	0.0107614	0.0651976	0.0187225	0.0185272	0.0393032	0.0516422	0.0219725	0.0426066	2.9276e-06	0.00446986	0.00516994	0.0771729	0.0386044	0.00954828	0.0827674	0.0832582	0.0834827	0.0246896	0.030407	0.016604	0.0412545	0.0224192	0.0230609	0.00389778	0.0786099	0.0234971	0.0312307	0.0425825	0.0145862	0.014071	0.039592	0.00257334	0.00343769	0.00309836	0.00567976	0.0170877	0.039232	0.0290865	0.0221675	0	0.0124327	5.75775e-08	0.0262104	0.0805693	0.0459452	0.0528544	0.01496	0	0.0123189	0.0267126	0.0146227	0.00667408	0.00513455	0.00459079	0.00374319	0.00463793	0.0079353	0.00956749	0.0184473	0.0821075	0.0845605	0	0.0255608	0.0846427	0.0237406	0.0204077	0.0236419	0	0	0.0835967	0.0866023	3.96031e-08	0.00350716	0.0136964	
3.285	0.0161077	0.00380067	0.00807687	0.0060187	0.0118983	0	0.0102306	0.0658956	0.0181182	0.017875	0.0394474	0.0520425	0.0228589	0.0440924	6.64036e-07	0.00412633	0.00481232	0.0717892	0.0364413	0.00901631	0.0826503	0.0831646	0.0828169	0.0248253	0.0314446	0.0167224	0.0415154	0.0218067	0.0239844	0.00377282	0.0801041	0.0226375	0.0305598	0.0439845	0.0146737	0.0133996	0.0398226	0.0023938	0.00329523	0.00292884	0.00521441	0.0140844	0.0423718	0.0300425	0.0246792	0	0.0153062	9.12006e-08	0.0254253	0.0792637	0.0464854	0.0538103	0.0152281	1.05421e-12	0.0123304	0.0261027	0.0149994	0.00743132	0.00536114	0.00498579	0.00365376	0.00464962	0.00750402	0.0100258	0.015688	0.0826984	0.0845664	0	0.0233114	0.0843905	0.022941	0.0225223	0.0257505	0	0	0.0835827	0.0864757	9.88672e-08	0.00340745	0.0142959	
3.29	0.0172396	0.00397783	0.00789437	0.00561535	0.0120901	0	0.00977804	0.0666416	0.0175849	0.0173011	0.0395746	0.0524065	0.0237242	0.0455539	0	0.00382667	0.00450307	0.0651935	0.0343823	0.00844944	0.0825454	0.0830775	0.0799882	0.0250552	0.0324455	0.0168251	0.0417544	0.021136	0.0249238	0.00361526	0.0813793	0.0218995	0.0299847	0.0453032	0.0146863	0.0128458	0.0400295	0.0022058	0.00310231	0.00270796	0.00476453	0.0112143	0.0442546	0.0261663	0.0273273	0	0.0185965	3.16017e-08	0.0246405	0.0778075	0.0469898	0.0547702	0.0156608	2.51778e-12	0.0122849	0.0254628	0.0153569	0.00820413	0.00554148	0.00535181	0.00353334	0.0046171	0.00772581	0.0107035	0.0135055	0.0832493	0.0845671	6.99149e-07	0.0212597	0.0841897	0.0222147	0.0253583	0.0280967	0	0	0.08358	0.0863405	1.13609e-07	0.00325781	0.0148478	
3.295	0.0184869	0.00416204	0.00776691	0.00527088	0.0123594	0	0.00940521	0.0674614	0.0171449	0.0168305	0.0396815	0.052722	0.0245495	0.0469576	0	0.00353383	0.00424683	0.058042	0.032331	0.00783863	0.0824528	0.0829966	0.0753117	0.0253853	0.0334104	0.0169087	0.0419628	0.0203674	0.0258775	0.00343231	0.0824455	0.0212897	0.0295152	0.0464805	0.0146246	0.0124224	0.0402065	0.00205102	0.00283663	0.00244862	0.00444591	0.00850409	0.0437974	0.0206805	0.0303131	0	0.0220078	0	0.0238661	0.0762388	0.0474528	0.0557226	0.0162546	2.81816e-12	0.0121796	0.0247891	0.0156749	0.00895828	0.0056673	0.0056759	0.0033593	0.00465329	0.00807055	0.0116372	0.0118344	0.0837567	0.0845626	7.4158e-06	0.0194617	0.0839427	0.0215614	0.0288445	0.0303674	4.01433e-09	7.01087e-06	0.0835893	0.086202	0.00200381	0.00305941	0.0153605	
3.3	0.0198597	0.00436242	0.00769009	0.00497891	0.0127055	0	0.00911294	0.0683782	0.0168183	0.016485	0.0397657	0.0529779	0.0253143	0.0482677	0	0.00318833	0.00403896	0.0511482	0.0302146	0.00717564	0.0823725	0.082922	0.0693548	0.02582	0.0343485	0.0169703	0.0421325	0.0194663	0.026844	0.00322017	0.0833109	0.0208099	0.0291555	0.0474592	0.0144909	0.0121407	0.0403479	0.00200312	0.00250726	0.00219273	0.00430228	0.00584316	0.0384891	0.0158546	0.0337452	0	0.024729	0	0.0231111	0.0745945	0.0478704	0.0566567	0.0169938	2.69742e-12	0.0120116	0.0240779	0.0159363	0.00965766	0.00573089	0.00594937	0.00310078	0.00478332	0.00815458	0.0128616	0.0105073	0.0842162	0.0845532	0	0.01786	0.0837201	0.0209811	0.0327384	0.0321993	1.1348e-09	2.33629e-06	0.0836109	0.0860641	0.00344877	0.0028291	0.0158366	
3.305	0.0214009	0.00466152	0.00765902	0.0047369	0.0131219	9.606e-10	0.00889902	0.0694026	0.0166214	0.0162819	0.0398254	0.0531647	0.0259971	0.0494469	0	0.00274256	0.00386973	0.0451723	0.0280432	0.00645457	0.082305	0.0828544	0.0625892	0.0263625	0.0352768	0.0170072	0.0422561	0.0184017	0.0278216	0.00295948	0.083988	0.0204572	0.028906	0.0481859	0.0142895	0.0120111	0.0404491	0.00199948	0.00218722	0.00202041	0.00423297	0.00322913	0.0310819	0.0121355	0.0374661	0	0.0257878	0	0.0223832	0.0729047	0.0482406	0.0575624	0.0178475	2.53104e-12	0.0117797	0.0233302	0.0161341	0.0102714	0.00572631	0.00616184	0.0027176	0.00496161	0.00804651	0.0144093	0.00939058	0.0846252	0.0845394	9.09011e-08	0.0163837	0.0835154	0.0204813	0.0362862	0.0333529	0	8.54786e-07	0.0836462	0.0859295	0.00364874	0.00647012	0.0163906	
3.31	0.0231644	0.00511477	0.00766788	0.00454444	0.0135999	0	0.00875754	0.0705374	0.016566	0.0162329	0.0398589	0.0532739	0.0265763	0.0504588	0	0.00227965	0.00372147	0.0401776	0.0258692	0.00568318	0.0822505	0.0827945	0.0555919	0.0270136	0.0362152	0.0170169	0.0423268	0.0171463	0.0288086	0.0026359	0.0844816	0.0202252	0.028763	0.0486129	0.0140263	0.012042	0.0405059	0.00155328	0.00200534	0.00201964	0.00391321	4.82505e-06	0.027857	0.00953866	0.0408081	0	0.0260007	0	0.0216887	0.0712047	0.0485635	0.0584319	0.0187712	2.41029e-12	0.0114872	0.0225502	0.016271	0.0107746	0.00565035	0.00630314	0.00227423	0.00513989	0.00783472	0.0163012	0.00841662	0.0849836	0.0845217	4.13212e-06	0.0151043	0.0833259	0.0200428	0.0376504	0.033985	0	0	0.0836966	0.0858003	0.00354495	0.00928065	0.0169411	
3.315	0.0251901	0.00570475	0.0077106	0.00439571	0.0141511	0	0.00867869	0.0717763	0.01666	0.0163454	0.0398646	0.0532979	0.0270294	0.0512656	0	0.00201384	0.00357919	0.0360515	0.0237315	0.00484317	0.0811487	0.0827433	0.0490736	0.0277715	0.0371854	0.0169971	0.0423388	0.0156866	0.0298022	0.00229855	0.0847992	0.0201031	0.0287191	0.0486995	0.0137095	0.0122385	0.0405145	0.000317589	0.00201382	0.00183965	0.00295755	0	0.0282085	0.00986127	0.0418624	0	0.0261259	0	0.0210323	0.0695195	0.0488406	0.0592585	0.0197141	2.3239e-12	0.0112753	0.0217876	0.0163556	0.0111485	0.00550252	0.00636618	0.00200445	0.00527684	0.00752516	0.0184795	0.00686297	0.0852931	0.084501	0	0.0140689	0.0831558	0.0172317	0.0376851	0.0344067	0	0	0.0837646	0.0856777	0.00354831	0.0074022	0.0174132	
3.32	0.0274948	0.0064304	0.00778079	0.0042822	0.0147604	0	0.00865103	0.0731022	0.0169079	0.0166233	0.0398403	0.0532296	0.0273351	0.0518304	0	0.00201317	0.00343136	0.0325044	0.0216498	0.00396883	0.0749896	0.0824081	0.0433969	0.028632	0.0382013	0.0169454	0.0422871	0.0140531	0.0307987	0.00205005	0.0849468	0.0200777	0.0287646	0.0484134	0.0133482	0.0126021	0.0404708	0	0.00151007	0.000861671	0.00197115	0	0.0284169	0.0127701	0.0391186	0	0.0262652	0	0.0204172	0.0678754	0.0490747	0.0600365	0.0206223	2.24937e-12	0.0111109	0.0210915	0.0163976	0.0113787	0.00528495	0.00634818	0.00194251	0.00534029	0.00710618	0.0207582	0.00412306	0.0855559	0.0844778	0	0.0111927	0.0830092	0.011688	0.0376672	0.0347824	0	0	0.0838525	0.0855625	0.00366429	0.00525045	0.0178004	
3.325	0.0300607	0.00728912	0.00787171	0.00419499	0.0154327	0	0.00866095	0.0744931	0.0173113	0.0170677	0.0397831	0.053062	0.027472	0.0521185	0	0.00137174	0.00326741	0.0291468	0.0196197	0.00303192	0.0657464	0.0776525	0.0385696	0.0295854	0.0392762	0.0168596	0.0421674	0.0123083	0.031793	0.00201384	0.0849535	0.0201323	0.0288864	0.0477316	0.0129531	0.013133	0.0403705	0	8.0028e-05	0	5.92107e-06	6.28027e-05	0.027713	0.0153013	0.0348115	0	0.0263301	0	0.0198457	0.0662968	0.04927	0.0607625	0.0214522	2.17584e-12	0.0109755	0.0204313	0.0164087	0.0114563	0.00500078	0.00625068	0.000202937	0.00530575	0.00658464	0.0229128	0	0.0857749	0.084453	6.12936e-07	0.00614209	0.082888	0.00709669	0.037993	0.0351812	0	0	0.0839614	0.0854552	0.00378789	0.00423466	0.018105	
3.33	0.0328041	0.00825099	0.00797696	0.00412572	0.0161576	0	0.00869433	0.0759072	0.0178687	0.017676	0.0396892	0.0527886	0.0274207	0.0520976	0	6.47428e-08	0.00307575	0.0259822	0.0176071	0.00200056	0.0559593	0.0691128	0.0344852	0.0306174	0.0404211	0.0167372	0.0419765	0.010481	0.0327797	0.00190621	0.0849444	0.0202488	0.0290694	0.0466428	0.0125353	0.0138327	0.040209	3.20831e-06	0	0	0	2.46246e-05	0.0268455	0.0167483	0.0309083	0	0.0262756	0	0.0193193	0.0647971	0.0494313	0.0614338	0.0221731	2.10044e-12	0.0108935	0.0198272	0.0165125	0.0113805	0.00465734	0.00845017	3.66048e-08	0.00515827	0.00598459	0.0247445	2.05327e-05	0.0859544	0.0844271	6.23553e-07	5.19127e-05	0.0827956	0.00490132	0.0386756	0.0356457	0	1.9846e-09	0.0840907	0.085356	0.00388494	0.0047865	0.0183232	
3.335	0.0356334	0.0092911	0.00809	0.00406691	0.0169209	0.00364021	0.0087365	0.0773093	0.0185762	0.0184432	0.039554	0.052403	0.0271632	0.0517397	0	0	0.00284446	0.0231207	0.0156121	0	0.0475932	0.0592507	0.0307254	0.0317116	0.0416473	0.0165761	0.0417122	0.0085498	0.0337561	0.00119988	0.0849367	0.0204071	0.0292959	0.0451492	0.0121065	0.0147086	0.0399816	2.88424e-06	0	0	6.09997e-06	4.7796e-06	0.0259128	0.017461	0.02768	0	0.0261429	0	0.0188382	0.0633923	0.0495631	0.0620491	0.0227713	2.02413e-12	0.0108603	0.019283	0.0167572	0.0111725	0.00428494	0.0133671	0	0.00489263	0.00533104	0.0261157	0	0.0860985	0.0844009	2.39458e-07	0	0.0827327	0.00389651	0.039699	0.0362058	0	5.04051e-09	0.0842329	0.0852651	0.00395635	0.00652041	0.0184478	
3.34	0.0387347	0.0103758	0.00820423	0.0040125	0.0177054	0.00433371	0.00877427	0.0786499	0.0194296	0.0193642	0.0393723	0.0519005	0.0266866	0.0510255	0	0	0.00258312	0.0205713	0.0137703	0	0.0412118	0.0502054	0.0270529	0.0328417	0.0429647	0.0163746	0.0413737	0.00648921	0.0347261	0.000129337	0.0849284	0.0205874	0.0295477	0.0432704	0.0116781	0.0157711	0.0396835	1.10254e-06	5.63693e-06	5.74046e-06	1.81432e-05	0	0.0245174	0.0171182	0.0248697	0	0.0259804	3.32074e-10	0.0184028	0.0620931	0.0496701	0.0626079	0.0232513	1.94752e-12	0.0108718	0.0187953	0.0170977	0.0109105	0.00398259	0.0165925	5.85551e-06	0.00451869	0.0046229	0.0269623	5.39809e-05	0.0862113	0.0843748	0	0	0.0827032	0.00329636	0.0410966	0.0368749	0	2.55239e-09	0.0843601	0.0851821	0.00400693	0.00883941	0.0184794	
3.345	0.0423865	0.0114822	0.0083137	0.00395688	0.0184987	0.00346421	0.00879274	0.0798828	0.0204294	0.020441	0.0391389	0.0512778	0.0259823	0.0499431	0	6.08112e-06	0.00232238	0.0182669	0.0121473	0	0.0364071	0.0431317	0.0236296	0.033984	0.0443833	0.0161318	0.0409617	0.00430244	0.0357007	0	0.0849194	0.0207668	0.0298034	0.0410457	0.0112625	0.0170183	0.0393108	5.0027e-09	2.7682e-06	1.54725e-06	5.2417e-06	0	0.022785	0.0156033	0.0223782	0	0.0259123	7.61318e-09	0.0180121	0.0609063	0.0497539	0.063111	0.023646	1.87132e-12	0.010929	0.0183965	0.0174912	0.0105293	0.00376992	0.0181574	4.15107e-06	0.00408354	0.00400656	0.0273369	2.63935e-05	0.086298	0.084349	0	4.31376e-05	0.0827039	0.00275684	0.042882	0.0376618	0	6.13811e-10	0.0843662	0.0851068	0.00403657	0.0115453	0.018424	
3.35	0.0467323	0.0125951	0.00841217	0.00389581	0.0192897	0.00373825	0.00877953	0.0809684	0.0215807	0.0216823	0.0388491	0.0505331	0.0250513	0.0481384	0	2.44488e-06	0.00210921	0.0161565	0.0106854	2.15487e-05	0.0326181	0.0377805	0.0205419	0.0351271	0.0459106	0.0158478	0.040479	0.00200304	0.0366895	0	0.0849098	0.020924	0.0300429	0.0385376	0.0108723	0.0184257	0.038861	0	8.91727e-07	2.59763e-07	4.05941e-07	0	0.0207535	0.0135104	0.0199577	0	0.0260024	0.0068253	0.0176658	0.0598341	0.0498186	0.0635593	0.0240044	1.79566e-12	0.0110277	0.0181214	0.0179032	0.0100784	0.00366791	0.018093	2.40123e-06	0.00364297	0.00353191	0.0273956	4.97165e-06	0.0863607	0.084324	0	1.22489e-05	0.0827364	0.00243571	0.0450351	0.0385688	6.79243e-10	0	0.0839858	0.0850385	0.00404564	0.0143979	0.0182929	
3.355	0.0518504	0.0137104	0.00849426	0.00382508	0.0200716	0.00367492	0.00872165	0.08188	0.0228897	0.0230993	0.0384992	0.0496687	0.0239027	0.0459209	0	5.44368e-07	0.0020026	0.0143302	0.00932202	8.15458e-06	0.0292674	0.0336527	0.0177119	0.0362701	0.0475534	0.0155248	0.0399303	5.0371e-07	0.0377004	2.25908e-06	0.0848992	0.0210363	0.0302447	0.035828	0.0105206	0.0199809	0.0383338	0	0	0	0	0	0.0180931	0.0117621	0.0170094	4.59992e-12	0.0262251	0.0103804	0.0173633	0.0588807	0.0498664	0.0639542	0.0243686	1.72085e-12	0.0111644	0.0179514	0.0183127	0.00958316	0.00361064	0.0164375	2.69234e-06	0.00308175	0.00298729	0.0272847	0	0.0864006	0.0842999	0	0	0.0827948	0.00233664	0.0476169	0.0395984	1.66123e-09	0	0.0833767	0.0849768	0.00403665	0.0173542	0.0180948	
3.36	0.0577418	0.0148264	0.0085546	0.00374077	0.0208358	0.00357134	0.00860693	0.0825947	0.0243571	0.0246956	0.038088	0.0486921	0.0225557	0.0434779	0	0	0.0020215	0.0128553	0.00802433	1.52404e-06	0.0263176	0.030072	0.0151006	0.0374079	0.0493154	0.0151668	0.0393229	0	0.0387384	3.31946e-06	0.0848878	0.0210813	0.030388	0.0329667	0.0102217	0.021713	0.037732	0	0	0	0	0	0.0148275	0.0106424	0.013251	2.91946e-11	0.0265281	0.011002	0.0171034	0.0580436	0.0498966	0.0642972	0.0247565	1.64686e-12	0.01133	0.0178523	0.0186967	0.00906758	0.00352076	0.0129815	0	0.00235202	0.00234904	0.0270694	0	0.0864206	0.0842768	0	0	0.0828755	0.00239835	0.0507489	0.0407504	2.2308e-09	0	0.0827789	0.0849211	0.00401384	0.0198804	0.0178347	
3.365	0.0641043	0.0159511	0.00858868	0.00363828	0.0215684	0.00345016	0.0084242	0.0831138	0.0259741	0.0264634	0.0376166	0.047614	0.021037	0.0408595	0	0	0.0018493	0.0116629	0.00680109	0	0.0238449	0.0268663	0.0129252	0.0385215	0.0512001	0.0147801	0.0386663	1.44109e-05	0.0397983	6.95523e-07	0.0848755	0.0210379	0.0304535	0.0299282	0.0099899	0.0236654	0.0370616	0	0	0	0	0	0.0120721	0.0100077	0.00990333	4.51355e-11	0.0268722	0.0113247	0.0168849	0.057323	0.0499121	0.06459	0.0251614	1.57386e-12	0.011507	0.0177853	0.0190184	0.00856086	0.00342704	0.0094867	0	0.00200033	0.0020086	0.026755	0	0.0864241	0.0842547	0	0	0.0829721	0.00261062	0.0544743	0.0420244	2.09838e-09	9.5995e-11	0.0822387	0.0848709	0.00398267	0.0216903	0.0175173	
3.37	0.0702237	0.0170767	0.00859248	0.00351141	0.0222529	0.00330148	0.00816317	0.0834531	0.0277206	0.0283792	0.0370895	0.0464511	0.0193736	0.0381642	0	0	0.00104131	0.0106779	0.00569151	0	0.0218271	0.0241476	0.0111863	0.0395787	0.0532055	0.0143728	0.0379722	3.44776e-05	0.0408756	0	0.0848622	0.0208867	0.030423	0.0267364	0.00983933	0.0258502	0.0363323	0	0	0	0	0	0.0101596	0.00968321	0.00727962	5.6654e-11	0.0272348	0.0118757	0.0167063	0.0567161	0.0499137	0.0648349	0.0255638	1.50185e-12	0.0116727	0.0177104	0.0192421	0.00809255	0.00333794	0.00715548	0	0.00192632	0.00200293	0.0263216	0	0.0864143	0.0842339	0	0	0.0830778	0.00295114	0.0587468	0.0434209	1.56627e-09	1.63034e-11	0.0817535	0.0848256	0.0039447	0.0228251	0.0171441	
3.375	0.0755488	0.018178	0.00856273	0.00335104	0.0228713	0.00311497	0.00781502	0.0836402	0.0295619	0.0304001	0.0365141	0.0452251	0.0175846	0.0354837	0	0	0	0.00985948	0.00469744	0	0.0202109	0.0219185	0.00974207	0.0405408	0.0553254	0.0139542	0.0372538	9.64136e-06	0.0419639	0	0.0848479	0.0206103	0.0302809	0.0235125	0.00978218	0.0282386	0.035556	0	0	0	0	0	0.00889437	0.0095429	0.00534687	6.60188e-11	0.0276005	0.0123546	0.0165658	0.0562176	0.0499043	0.0650339	0.0259644	1.4311e-12	0.0118041	0.0175867	0.0193407	0.0076885	0.00325456	0.00731208	1.11618e-06	0.00109662	0.00155015	0.0257458	0	0.0863943	0.0842141	0	5.48461e-08	0.0831859	0.00331961	0.0634791	0.0449709	1.18809e-09	5.46801e-10	0.0813347	0.084785	0.00389498	0.0233665	0.0167101	
3.38	0.0797528	0.0192369	0.00849715	0.00314459	0.0234054	0.00288384	0.00737234	0.0837117	0.0314478	0.0324609	0.0359011	0.0439617	0.0156954	0.0328504	0	0	0	0.00918485	0.00388806	0	0.0189485	0.0201242	0.00850791	0.0413672	0.0575476	0.0135336	0.0365256	0	0.0430552	0	0.0848324	0.0201949	0.0300146	0.0203767	0.00982787	0.0307608	0.034746	0	0	0	0	0	0.00809435	0.00949353	0.00398441	7.44452e-11	0.0279596	0.0127182	0.0164614	0.055823	0.0498858	0.0651894	0.0263875	0	0.0118826	0.0173849	0.0192945	0.00736887	0.00318404	0.0104246	1.2548e-05	9.19099e-05	0.000764264	0.0250464	0	0.0863669	0.0841954	0	2.38193e-07	0.08329	0.00365722	0.0684747	0.0467248	1.25773e-09	2.0516e-11	0.0809957	0.0847487	0.00382417	0.0234561	0.016205	
3.385	0.0826933	0.0202461	0.00839445	0.00287625	0.0238391	0.00261821	0.00682912	0.0837053	0.0333169	0.0344929	0.0352626	0.0426891	0.0137911	0.0302358	0	0	0	0.00865012	0.00322858	0	0.0180081	0.0187099	0.00746651	0.0420174	0.0598344	0.0131208	0.0358017	0	0.0441408	0	0.0848156	0.0196296	0.0296111	0.0173656	0.00998215	0.0333036	0.0339159	0	0	0	0	0	0.00760327	0.00946627	0.00303074	8.25674e-11	0.0283219	0.0130496	0.016391	0.0555275	0.0498571	0.0653035	0.0268605	2.50501e-11	0.0118941	0.0170845	0.0190974	0.00714711	0.00313576	0.0157702	0	0	0.000227437	0.024253	0	0.0863346	0.0841779	0	1.30642e-07	0.0833972	0.00398855	0.0734777	0.0487195	2.00788e-09	7.90944e-10	0.0807428	0.0847162	0.00374064	0.0232071	0.0156408	
3.39	0.084408	0.0211979	0.00825449	0.00255924	0.0241597	0.00235484	0.00618463	0.0836484	0.0351258	0.0364869	0.0346124	0.0414366	0.0119733	0.0276632	0	0	4.13983e-06	0.00825969	0.00248874	0	0.0173699	0.0176403	0.00663373	0.0424549	0.0621422	0.0127245	0.0350948	0	0.045211	6.65352e-05	0.0847971	0.0189059	0.0290622	0.0145132	0.0102466	0.0357819	0.0330802	0	0	0	0	0	0.00728253	0.00941725	0.00212256	9.07139e-11	0.0287192	0.013366	0.0163521	0.055326	0.0498197	0.0653784	0.0274041	6.64049e-07	0.0118336	0.0166766	0.0187532	0.00702998	0.0031155	0.022329	0	0.000221255	0.000149799	0.0233865	0	0.0862991	0.0841616	0	3.49084e-08	0.0835128	0.00437919	0.0782591	0.0509722	1.27928e-09	7.05095e-10	0.0805766	0.0846873	0.00367595	0.0227265	0.0150599	
3.395	0.0850584	0.0220758	0.00807846	0.00225702	0.0243584	0.00213842	0.00544599	0.0835488	0.0368836	0.0384863	0.0339648	0.0402328	0.0102689	0.0252141	0	0	1.76482e-06	0.00801372	0.00207354	0	0.0170151	0.0168971	0.00602378	0.0426503	0.0644319	0.0123529	0.0344165	0	0.0462563	0.00201506	0.0847764	0.0180161	0.0283639	0.0119946	0.010619	0.0382647	0.0322546	0	0	0	0	0	0.00703188	0.00932196	0.00201499	9.90487e-11	0.0291785	0.0136445	0.016342	0.0552122	0.0497703	0.0654167	0.0280336	0	0.0117042	0.0161685	0.0182375	0.00701727	0.00312352	0.0292209	0	0.00140049	0.000626346	0.0224605	0	0.0862607	0.0841465	1.64191e-09	0	0.0835528	0.00483044	0.0825644	0.053478	3.23519e-09	6.23632e-10	0.0804946	0.0846619	0.00366002	0.0221133	0.0145015	
3.4	0.0850109	0.0228595	0.00786878	0.00204886	0.0244304	0.00201459	0.00458252	0.0833859	0.0386092	0.0404908	0.0333343	0.0391032	0.00864726	0.0229589	0	0	4.77111e-07	0.00790711	0.0020008	0	0.0169205	0.0164602	0.00563068	0.0425839	0.066666	0.0120125	0.0337773	0	0.047266	0.00346753	0.0847531	0.016953	0.0275176	0.00989281	0.0110933	0.0408148	0.0314566	0	0	0	0	0	0.00678985	0.00916732	0.0010929	1.07647e-10	0.0297055	0.0138692	0.0163576	0.0551788	0.049713	0.0654214	0.0287599	0	0.0115125	0.0155779	0.0175723	0.0071027	0.00315503	0.0359218	4.7193e-06	0.00198141	0.00156957	0.0214845	0	0.0862217	0.0841327	0	0	0.0836038	0.00530845	0.0859852	0.0562055	1.90616e-09	5.03602e-10	0.0804912	0.0846398	0.00364296	0.0214454	0.0139599	
3.405	0.0848946	0.0235295	0.00762925	0.00200672	0.0243766	0.00201316	0.00370189	0.083107	0.0402815	0.0424519	0.0327356	0.0380698	0.00707724	0.0209275	0	0	0	0.00793136	0.00201457	0	0.0170593	0.0163005	0.00543185	0.0422475	0.0688082	0.0117093	0.033187	0	0.0482297	0.00439828	0.0847267	0.0157184	0.0265301	0.00815657	0.0116615	0.0433848	0.0307049	0	0	0	0	0	0.00652247	0.00894679	1.0398e-07	1.16536e-10	0.0302912	0.0140373	0.0163952	0.0552169	0.0496516	0.0653961	0.0295857	0	0.0112719	0.0149317	0.0167799	0.00727558	0.00320164	0.0413623	6.58957e-06	0.00200013	0.00201789	0.020461	0	0.0861825	0.0841204	0	0	0.0836606	0.00580082	0.0875462	0.0590973	2.27835e-09	3.77865e-10	0.0805573	0.0846212	0.00347977	0.0205644	0.0132311	
3.41	0.0847859	0.0240711	0.00736472	0.0019922	0.0242019	0.00198938	0.00245884	0.0826288	0.0418556	0.0443092	0.0321826	0.0371494	0.0055658	0.0191162	0	0	0	0.00807338	0.00201146	0	0.0174053	0.0163822	0.00540668	0.0416453	0.0708284	0.0114478	0.0326546	0	0.0491361	0.00528221	0.0846965	0.0143409	0.0254124	0.00671953	0.0123142	0.0458805	0.0300185	0	0	0	0	0	0.00970675	0.0100771	0	1.25713e-10	0.0309066	0.014117	0.0164503	0.0553165	0.0495822	0.0653452	0.0304989	3.96958e-07	0.0109997	0.0142591	0.0158819	0.00752252	0.00325327	0.0445416	1.32477e-07	0.00217879	0.00201844	0.0194849	0	0.0861432	0.0841099	0	0	0.0837155	0.00632024	0.0873046	0.0620687	1.86628e-09	2.4812e-10	0.0806808	0.0846062	0.00321234	0.0194475	0.0123699	
3.415	0.0846788	0.0244749	0.00708117	0.00164665	0.0239159	0.00169572	0.00180616	0.0818418	0.0432866	0.0460056	0.0316881	0.0363537	0.00411404	0.0175037	1.28405e-09	0	0	0.00831875	0.0020003	0	0.0179346	0.0166672	0.00552964	0.0407938	0.0726953	0.0112317	0.0321881	0	0.0499739	0.00616247	0.0846624	0.0128691	0.0241766	0.00556601	0.013043	0.048206	0.0294131	0	0	0	0	0	0.0144244	0.0121405	0	1.35161e-10	0.0314932	0.0141278	0.0165181	0.0554653	0.049508	0.0652737	0.0314732	1.6055e-06	0.0107074	0.0135797	0.0149131	0.00782919	0.00329984	0.0455479	0	0.0026362	0.00227597	0.0186699	0	0.0861036	0.0841014	0	0	0.0837829	0.00686994	0.0866658	0.0649746	1.28236e-09	1.29169e-10	0.0808469	0.0845949	0.00288275	0.0182132	0.0114705	
3.42	0.084576	0.0247362	0.00678538	0.000859604	0.0235315	0.000968049	0	0.0806199	0.0445355	0.0474915	0.0312632	0.0356891	0.00268188	0.0160795	8.5967e-10	0	0	0.00865404	0.00206499	0	0.0186272	0.0171229	0.00576857	0.0397211	0.0743917	0.0110631	0.031794	0	0.0507351	0.00718095	0.0846241	0.0113308	0.0228428	0.00467933	0.0138415	0.050273	0.0289006	0	0	0	0	0	0.0184886	0.0141369	4.84797e-06	1.44847e-10	0.0319845	0.014157	0.0165926	0.0556488	0.0494297	0.0651876	0.0324764	0	0.0103949	0.0129021	0.0139239	0.00818071	0.0108537	0.0449616	0	0.00314143	0.00268702	0.0180855	0	0.0860641	0.0840952	0	0	0.0838696	0.00744193	0.086225	0.0676369	1.97428e-09	4.21632e-11	0.0810385	0.0845875	0.00258464	0.0169974	0.0105962	
3.425	0.084479	0.0248552	0.00648577	0	0.0230646	0	0	0.0788472	0.0455713	0.0487273	0.0309165	0.0351583	0.00187147	0.0146058	1.84872e-10	0	0	0.00906711	0.00227759	0	0.0194693	0.0177227	0.00609525	0.0384633	0.0758924	0.010943	0.0314769	0	0.0514054	0.00835486	0.0845815	0.00971541	0.0214292	0.00410576	0.0147068	0.0520115	0.0284888	0	0.00369611	0.00296049	0	0	0.0212562	0.0156518	2.07789e-06	1.54733e-10	0.0323199	0.0142037	0.0166673	0.0558501	0.0493502	0.065094	0.0334796	0	0.0100568	0.0122295	0.0129595	0.00856237	0.0192275	0.0433839	4.55395e-06	0.00353044	0.00308424	0.0177492	0	0.0860251	0.0840916	1.90966e-10	0	0.0839771	0.00803127	0.0859013	0.0699198	8.85826e-10	4.15008e-11	0.0812368	0.0845844	0.00239834	0.0159237	0.00978187	
3.43	0.0843883	0.0248356	0.00619111	0	0.0225322	3.51075e-08	6.23499e-06	0.0764112	0.0463723	0.0496839	0.0306537	0.0347616	0	0.0127959	0	0	0	0.00954707	0.00262742	0	0.0204586	0.0184459	0.00649055	0.037062	0.0771929	0.0108711	0.0312394	0	0.0519741	0.0096673	0.0845351	0.00799347	0.0199497	0.00384714	0.0156355	0.0533706	0.0281818	0.00399607	0.00476652	0.00453051	0	0	0.0227174	0.0165522	5.40608e-07	1.64773e-10	0.0324463	0.0142816	0.0167349	0.0560499	0.0492693	0.0650009	0.0344619	2.37528e-07	0.00969301	0.0115667	0.0120432	0.00895902	0.0247322	0.0412481	1.45698e-05	0.00384515	0.00337721	0.017627	0	0.0859878	0.084091	0	5.69423e-05	0.0841202	0.0086342	0.0855944	0.0717352	0	4.04941e-11	0.0814221	0.0845857	0.00236383	0.0151177	0.00908794	
3.435	0.0843046	0.0246844	0.00591007	0	0.0219525	0	1.5815e-05	0.0732465	0.0469256	0.0503471	0.0304771	0.0344975	0	0.0113988	0	0	0	0.0100846	0.0030302	0	0.0216023	0.019281	0.00693979	0.0355554	0.078282	0.010846	0.031082	0	0.0524328	0.0110775	0.0844853	0.00615327	0.0184094	0.00382169	0.0166171	0.0543159	0.0279805	0.00515725	0.00504372	0.00477563	0	0	0.0233151	0.0169702	0	1.74915e-10	0.0323198	0.0144332	0.0167876	0.0562268	0.0491875	0.064917	0.0354126	8.56883e-07	0.00931227	0.0109236	0.0111379	0.00935582	0.0286855	0.0387845	0	0.00415274	0.00358667	0.0176553	0	0.0859538	0.0840937	0	0	0.0842985	0.00924458	0.0852907	0.073032	0	3.48739e-11	0.0815741	0.0845914	0.00252844	0.0146781	0.0085878	
3.44	0.084228	0.0244105	0.00564929	3.67358e-06	0.0213429	4.47439e-06	5.2128e-06	0.0693378	0.0472273	0.0507113	0.0303867	0.0343629	7.88478e-06	0.0101662	0	0	0	0.0106728	0.00338157	0	0.0229107	0.0202264	0.00743078	0.0339434	0.0791641	0.0108653	0.0310033	0	0.0527701	0.0125452	0.0844328	0.0042098	0.0168084	0.00399653	0.0176307	0.0548369	0.0278829	0.00535912	0.00554445	0.00519602	0	0	0.0233767	0.0170421	0	1.85103e-10	0.0319185	0.0147116	0.0168171	0.056358	0.0491014	0.0648519	0.0363291	0	0.00893204	0.0103144	0.0102347	0.00973875	0.0311989	0.036135	1.44644e-06	0.00447686	0.00373461	0.0177701	0	0.0859218	0.0840997	2.54094e-11	3.93304e-05	0.084492	0.00985609	0.0849911	0.0738037	0	0	0.0816729	0.0846015	0.00291568	0.0146197	0.00831025	
3.445	0.0841583	0.0240242	0.00541316	1.25304e-06	0.0207188	1.36888e-06	0	0.0647428	0.0472813	0.05078	0.0303797	0.0343524	1.56333e-05	0.00898201	0	0	0	0.0113078	0.00368094	0	0.0243919	0.0212897	0.0079585	0.0322013	0.0798406	0.0109254	0.0310002	0	0.0529752	0.0140419	0.0843785	0.00206104	0.0151881	0.00437264	0.0186534	0.0549375	0.0278847	0.0058445	0.00626702	0.00587067	0	0	0.0231334	0.0168675	0	1.95279e-10	0.0312427	0.0150874	0.0168147	0.0564196	0.0490179	0.0648154	0.0372137	0	0.0085721	0.00974707	0.00933896	0.0100945	0.0324306	0.0334106	3.73165e-05	0.00479471	0.00382853	0.0179209	0	0.0858922	0.0841092	0	1.69691e-05	0.0846919	0.0104634	0.0846847	0.0740631	0	0	0.081699	0.0846155	0.00337937	0.0148957	0.00825101	
3.45	0.0840951	0.0235363	0.00520669	2.98496e-07	0.0200944	6.15219e-07	0	0.0596263	0.0470984	0.0505658	0.0304514	0.0344586	3.59451e-06	0.0078117	0	0	0	0.0119874	0.00396961	0	0.0260493	0.0224809	0.00852191	0.0303243	0.080322	0.0110225	0.0310685	0	0.0530391	0.0155482	0.0843233	0	0.0136477	0.00493868	0.0196687	0.0546344	0.0279797	0.00659082	0.00702941	0.00660055	0	0	0.0227329	0.0165099	0	2.05384e-10	0.0303093	0.0155052	0.0167722	0.0563875	0.0489291	0.0648172	0.038079	7.60985e-08	0.0082457	0.00922568	0.00844939	0.0104111	0.0322987	0.0306988	0	0.00508307	0.00386434	0.0180751	0	0.0858638	0.0841222	0	0	0.0848793	0.011063	0.0843679	0.0738352	0	3.58226e-08	0.0816323	0.0846327	0.00378291	0.0154157	0.00836817	
3.455	0.0840387	0.0229573	0.00503546	0	0.0194823	0	0	0.0542829	0.0466947	0.0500883	0.0305957	0.0346725	0	0.00666474	0	0	0	0.0127115	0.00430477	0	0.0278766	0.0238098	0.00912052	0.0283486	0.0806184	0.011152	0.0312027	0	0.0529535	0.0170817	0.0842681	0	0.0122396	0.00561253	0.0206669	0.0539568	0.0281606	0.00741828	0.00781803	0.00736569	0	0	0.0222663	0.0160169	0	2.15345e-10	0.0291537	0.0159204	0.0166816	0.0562386	0.0488096	0.0648667	0.0389427	2.18851e-07	0.00796021	0.00875462	0.0075726	0.0106777	0.03099	0.0280984	7.93383e-06	0.00532712	0.0038337	0.0182178	0	0.0858325	0.0841383	2.57282e-08	4.83397e-05	0.085064	0.0116532	0.0840537	0.0731502	1.96131e-09	2.23532e-07	0.0814513	0.0846512	0.00420577	0.0161226	0.00864966	
3.46	0.0837695	0.0222965	0.00490504	0	0.0188925	0	0	0.0491359	0.046091	0.0493738	0.0308051	0.0349842	0	0.0055619	0	0	0	0.0134849	0.00470152	0	0.0298529	0.0252829	0.00975466	0.0263406	0.0807353	0.0113093	0.0313968	0	0.052711	0.0186615	0.0842138	0	0.0109454	0.0063666	0.0216364	0.0529425	0.0284188	0.00830479	0.0086821	0.00821388	0	0	0.0217972	0.0154307	1.9636e-10	2.25087e-10	0.0278338	0.0163	0.0165358	0.0559519	0.0486149	0.0649722	0.0398217	0	0.00772075	0.00834045	0.00671899	0.010885	0.0285666	0.0257326	7.78151e-06	0.0055201	0.00372859	0.0183511	5.44515e-06	0.085792	0.0841571	0	0	0.0852424	0.0122318	0.0837628	0.0720436	5.61261e-09	0	0.0812083	0.0846684	0.00473607	0.0169947	0.00910471	
3.465	0.0830374	0.0215625	0.00482095	0	0.0183334	0	0	0.0444251	0.0453119	0.0484516	0.0310711	0.0353831	0	0.00447683	0	0	0	0.014322	0.00514706	0	0.0319338	0.0269037	0.0104261	0.0243586	0.0806707	0.0114897	0.0316441	0	0.0523058	0.0202856	0.084161	3.45235e-05	0.00973605	0.00720662	0.0225589	0.0516354	0.0287452	0.00926183	0.00960429	0.00913476	0	0	0.0213609	0.01479	0	2.34523e-10	0.0264235	0.0166223	0.0171364	0.0556568	0.0477778	0.0651403	0.0407292	3.99041e-09	0.00753153	0.00798821	0.00590762	0.011025	0.0246467	0.0237174	0.0037907	0.00565576	0.00353452	0.0184891	0	0.085729	0.084178	4.7508e-10	3.42465e-05	0.085411	0.0127977	0.0835137	0.0705486	9.3444e-09	0	0.0808617	0.0846797	0.00534784	0.0170447	0.00974265	
3.47	0.0817935	0.0207609	0.00478699	0	0.0178128	0	0	0.0402304	0.0443846	0.0473534	0.0313846	0.0358585	0	0.00353965	0	0	0	0.0152399	0.00563037	0	0.0340607	0.02867	0.0111396	0.0224435	0.0804119	0.0116885	0.0319372	0	0.0517355	0.0218985	0.0841105	1.06687e-05	0.00859667	0.00811736	0.0234099	0.0500884	0.0291298	0.0101884	0.0104743	0.0100145	0	0	0.0209415	0.0141194	5.64972e-10	2.43559e-10	0.0249833	0.0168746	0.0195574	0.0560812	0.0471967	0.0653759	0.0416757	0	0.00739553	0.00771191	0.00515051	0.0110915	0.0205272	0.0221248	0.0020466	0.00572762	0.00320643	0.0186524	0	0.0856435	0.0842002	0	1.36309e-05	0.0855665	0.013352	0.0833086	0.0687013	1.29468e-08	8.79897e-08	0.0802928	0.0846819	0.00602542	0.0153445	0.0105663	
3.475	0.0800117	0.0198945	0.00480576	0	0.0173385	3.1156e-10	0	0.0365718	0.0433378	0.046115	0.0317366	0.0364002	0	0.00232565	4.59603e-09	0	0	0.0162489	0.00616848	0	0.0362519	0.0305681	0.0119032	0.0206183	0.0799326	0.0119012	0.0322688	0	0.0509991	0.023443	0.0839999	0	0.00754038	0.00909555	0.024163	0.0483582	0.0295624	0.0110284	0.0112444	0.0108023	0	0	0.0204986	0.0134248	0	2.52079e-10	0.0235479	0.0170575	0.0223154	0.0563371	0.0472035	0.0656819	0.0426706	0	0.00731445	0.00751677	0.00443784	0.0110804	0.0146566	0.020963	0.00215307	0.00573065	0.00265078	0.0188635	5.25751e-07	0.0855429	0.0842229	1.32118e-08	0	0.0857064	0.0138987	0.0831417	0.066548	1.61772e-08	2.72761e-07	0.0794506	0.0846746	0.00680112	0.0136363	0.0115716	
3.48	0.0776907	0.0189636	0.00487951	0	0.0169176	2.89984e-09	0	0.0333393	0.0422009	0.0447722	0.0321175	0.0369982	0	0.00195778	4.18999e-09	7.27934e-10	0	0.017341	0.00678119	0	0.0386557	0.0325661	0.0127268	0.0188839	0.0791906	0.0121239	0.0326313	0	0.0500948	0.0248656	0.0833274	0	0.00659936	0.0101295	0.024794	0.0464991	0.0300329	0.0117941	0.0119311	0.0115145	0	0	0.0195146	0.0124628	0	2.59946e-10	0.0221361	0.0171869	0.0240369	0.0557306	0.0474015	0.0660579	0.0437231	0	0.00728593	0.00740408	0.00386707	0.010989	0.0158058	0.0201162	0.00203897	0.00566167	0.00207639	0.0191415	2.25765e-05	0.0854316	0.0842449	0	3.85119e-05	0.0858264	0.0144409	0.0830084	0.0641442	1.93191e-08	0	0.0782576	0.0846587	0.00766878	0.0142501	0.0127454	
3.485	0.0748494	0.0179634	0.00500974	0.00134266	0.016557	1.59488e-09	0	0.0302499	0.0410031	0.0433608	0.0325185	0.0376428	0	0	0	1.09396e-09	0	0.0185067	0.00747074	0	0.0413894	0.0346334	0.0136251	0.0172319	0.078128	0.0123526	0.0330174	0	0.0490324	0.0261123	0.0819618	0	0.00581312	0.0112048	0.0252812	0.0445671	0.030531	0.0125056	0.012554	0.0121715	7.0703e-09	0	0.0179717	0.0111988	0	8.71806e-12	0.0207646	0.0172877	0.0241505	0.0540853	0.0476201	0.0665003	0.0448418	0	0.00730944	0.00737818	0.00340297	0.0108167	0.0193785	0.0193589	0.00200873	0.00551954	0.00197441	0.0195027	0	0.0853093	0.0842654	1.51021e-10	0.00316627	0.0859236	0.0149798	0.0829073	0.0615626	2.1522e-08	0	0.0767198	0.0846357	0.00861245	0.014457	0.0140654	
3.49	0.0715262	0.016889	0.00519633	0.00218187	0.0162621	4.30287e-10	0	0.0272917	0.0397722	0.0419144	0.0329311	0.0383239	0	0	0	4.23271e-10	0	0.0197532	0.00823983	0	0.044525	0.0368349	0.0146208	0.0156875	0.0766866	0.0125844	0.0334201	0	0.0478177	0.0271228	0.0799152	0	0.00519736	0.0123107	0.0256063	0.042615	0.0310466	0.0131511	0.0131034	0.0127614	0	0	0.0163178	0.00986889	0	8.52785e-12	0.0194512	0.0173869	0.0207659	0.0515674	0.0478448	0.0670024	0.0460325	0	0.0073875	0.00744423	0.00293858	0.0105645	0.0218516	0.018741	0.00197367	0.0053041	0.000106967	0.0199599	0.00436352	0.0851726	0.0842833	0	0.00406021	0.0859966	0.0155147	0.0828386	0.0588925	2.21461e-08	2.60163e-08	0.074915	0.0846073	0.00961149	0.0142453	0.0155029	
3.495	0.0677788	0.0157472	0.00543942	0.00267719	0.0160379	1.17888e-09	0	0.0246859	0.0385334	0.0404642	0.0333477	0.0390312	0	0	0	1.13059e-10	0	0.0211085	0.00909152	0	0.0481233	0.0393398	0.0157431	0.0143241	0.0747994	0.0128163	0.0338331	0	0.046464	0.0278591	0.0772336	0	0.00475001	0.0134423	0.0257544	0.0406891	0.0315704	0.0137341	0.0136143	0.0132897	6.06383e-09	0	0.0148895	0.00869108	0	3.46047e-12	0.0182117	0.0175111	0.0157117	0.0495275	0.0483376	0.0675544	0.0472966	0	0.00752202	0.00758242	0.00258908	0.0108806	0.0232835	0.0182921	0.00144236	0.00501511	0	0.020521	0.00496322	0.0850538	0.0842976	8.32934e-12	0.0033873	0.0860448	0.0160423	0.0828041	0.0562399	1.8043e-08	2.90069e-08	0.072864	0.0845824	0.0106354	0.0143101	0.0170182	
3.5	0.0637072	0.0145683	0.00574039	0.00306501	0.0158884	3.57022e-09	0	0.0224189	0.0373088	0.0390373	0.0337617	0.0397543	0	1.44443e-05	0	0	0	0.0226027	0.0100212	0	0.0522309	0.0422819	0.0170009	0.0131785	0.0724099	0.0130459	0.0342507	0	0.0449884	0.0282982	0.0739921	0	0.00449608	0.0146025	0.0257138	0.0388279	0.0320937	0.0143145	0.0142065	0.0138568	6.46992e-10	0	0.0139434	0.00783577	2.26683e-11	3.51096e-12	0.0170607	0.0176858	0.0131004	0.0480035	0.0490267	0.068145	0.0486314	0	0.00771327	0.00776984	0.00247438	0.0162246	0.0231349	0.0180043	0	0.00465417	0	0.0211892	0.00411989	0.0850339	0.0843077	0	0.00333812	0.0860681	0.0165581	0.0828056	0.0537119	2.16341e-08	1.06961e-08	0.0705426	0.0845847	0.0116505	0.0144703	0.0185552	
3.505	0.0594363	0.0133878	0.00610396	0.00350581	0.0158176	5.83818e-09	0	0.020501	0.0361159	0.0376559	0.0341678	0.0404835	0	4.13694e-06	0	0	0	0.024254	0.0110233	1.08268e-09	0.0568761	0.0457775	0.0183809	0.0122283	0.0694861	0.0132712	0.034668	0	0.0434118	0.02846	0.0702917	0	0.00443548	0.0158036	0.0254762	0.0370599	0.0326088	0.0149498	0.0147692	0.0144483	3.75544e-10	0	0.013694	0.00742479	6.1828e-11	2.05789e-12	0.0160196	0.0179341	0.0124896	0.0465343	0.0497083	0.0687605	0.0500276	0	0.00796048	0.00799968	0.00259718	0.0212764	0.0223559	0.0178477	4.47147e-08	0.00424409	1.19662e-05	0.0219627	0.00400029	0.0851627	0.0843128	0	0.00343196	0.0860676	0.0170594	0.082839	0.0513805	1.12444e-08	0	0.0679679	0.0846228	0.0126256	0.0143968	0.020051	
3.51	0.055147	0.0122162	0.00653618	0.003934	0.0158289	0	0	0.0188906	0.0349631	0.0363363	0.0345614	0.0412094	0	0	0	0	0	0.0260663	0.012098	7.94695e-10	0.0619519	0.0499409	0.019891	0.011441	0.0660279	0.0134904	0.0350805	0	0.0417571	0.0284047	0.0662658	0	0.00455546	0.017047	0.0250369	0.0353989	0.0331094	0.0155326	0.0152876	0.0149913	2.42112e-10	0	0.0144153	0.0076006	1.02054e-10	1.19718e-12	0.0151163	0.0182763	0.0121897	0.0450519	0.0503514	0.0693855	0.0514724	0	0.008263	0.00827282	0.00293453	0.0253974	0.0213703	0.0177903	0	0.00382805	1.56064e-05	0.0228365	0.00402576	0.0854129	0.0843127	0	0.00339658	0.0860449	0.0175445	0.0819761	0.0492841	0	0	0.0652905	0.0846727	0.0135338	0.0133921	0.0214495	
3.515	0.0510641	0.011039	0.00703743	0.00443522	0.0159263	0	0	0.0175497	0.0338506	0.0350843	0.034939	0.0419236	0	0	0	3.15214e-09	0.00515269	0.028028	0.0132506	0	0.0671199	0.0548772	0.0215828	0.0107976	0.0620835	0.0137018	0.0354847	0	0.04005	0.0280872	0.0620615	0	0.00484302	0.0183137	0.0243946	0.0338305	0.0335909	0.0160726	0.0157757	0.0155023	2.48217e-10	0	0.0162539	0.00844546	1.45061e-10	5.76111e-13	0.0143728	0.0187281	0.0117023	0.0436204	0.050886	0.0700032	0.052945	0	0.00861894	0.00859077	0.00331425	0.0271891	0.0204547	0.0178021	3.70809e-07	0.00968656	1.51431e-06	0.0238014	0.00394307	0.0857068	0.0843069	0	0.00330954	0.0860021	0.0180134	0.079953	0.0474457	0	0	0.0626458	0.0847018	0.0143529	0.0115348	0.0227055	
3.52	0.0472925	0.00983459	0.00760453	0.00504384	0.0161129	0	0	0.016463	0.0327753	0.0338946	0.0352978	0.0426183	0	0	0	0.00397832	0.00415764	0.0301049	0.0144944	0	0.0720406	0.0606226	0.0235213	0.0102881	0.0577761	0.013904	0.0358771	0	0.0383162	0.027514	0.0578565	0	0.00526643	0.0195843	0.0235524	0.0323276	0.0340497	0.0165888	0.0162423	0.0159965	2.0209e-10	0	0.0190016	0.00982413	1.90561e-10	2.46501e-13	0.0137953	0.0192996	0.0111525	0.0422838	0.0513244	0.0705971	0.0544174	0	0.00902245	0.00895009	0.00364883	0.0265094	0.0196581	0.0178544	7.622e-06	0.0209485	0	0.0248432	0.00382571	0.0859706	0.0842955	0	0.0032347	0.0859418	0.0184673	0.0773653	0.0458761	0	0	0.0601354	0.084697	0.015062	0.00958844	0.023785	
3.525	0.0438601	0.00858251	0.00823615	0.0057164	0.0163913	0	0	0.0156209	0.0317378	0.0327585	0.0356357	0.043287	0	0	0	0.0047346	0.0046943	0.0322313	0.0158562	0	0.0764166	0.0668153	0.0257454	0.00990746	0.0533216	0.0140961	0.036255	0	0.0365787	0.0267079	0.0538489	0	0.00578935	0.020855	0.0225176	0.0308783	0.0344836	0.0170832	0.0166878	0.0164734	0.00446539	0	0.0220132	0.0113993	2.37887e-10	7.60119e-14	0.0133774	0.0199952	0.0106927	0.0410746	0.0516813	0.0711501	0.0558606	0	0.00946243	0.0093408	0.00397291	0.0249862	0.0189673	0.0179187	0	0.0264267	2.95158e-05	0.0259414	0.003729	0.0861624	0.0842784	0	0.00316473	0.0858666	0.0189082	0.0746832	0.0445772	0	0	0.0578609	0.0846664	0.0156406	0.00801724	0.0246615	
3.53	0.0407756	0.00728554	0.00892853	0.00646875	0.0167653	0	0	0.0149981	0.0307433	0.0316729	0.0359512	0.0439244	0	0	0	0.00413429	0.0054013	0.0343327	0.0173321	0.00550841	0.0800078	0.0728834	0.028257	0.00965551	0.0489843	0.014277	0.036616	0	0.0348445	0.0256845	0.0501941	0	0.0064047	0.022127	0.021301	0.0294957	0.034891	0.0175405	0.0171006	0.0169181	0.00373868	0	0.0246614	0.0128255	2.86678e-10	0	0.0131127	0.0208135	0.010336	0.0400238	0.0519663	0.0716458	0.0572398	0	0.00992159	0.00974831	0.00435412	0.0235201	0.0183548	0.0179668	2.01058e-06	0.0259336	5.92919e-05	0.0270674	0.00364463	0.0862724	0.0842559	0	0.0030906	0.0857797	0.0193387	0.0720975	0.043543	0	0	0.0559307	0.0846231	0.0160694	0.00698833	0.0253148	
3.535	0.0380327	0.00597224	0.00967281	0.00730878	0.0172192	0	0	0.0145564	0.0298015	0.0306419	0.0362437	0.044526	0	0	0	0.00471615	0.0060594	0.0364276	0.0188915	0.00584367	0.0826423	0.0782741	0.031006	0.00953178	0.044913	0.0144463	0.036958	0	0.0330759	0.02446	0.0469234	0	0.0071057	0.0233918	0.019915	0.0282013	0.035271	0.0179518	0.0174728	0.0173204	0.00371429	0.00313824	0.0265614	0.0138859	3.20697e-09	0	0.0130005	0.0217481	0.0100666	0.0391584	0.0521854	0.0720694	0.0585189	0	0.0103791	0.0101539	0.00479277	0.0223621	0.0177991	0.0179722	1.23642e-06	0.0239045	0	0.028185	0.0035626	0.0863115	0.0842282	2.69803e-08	0.00301485	0.0856838	0.0197618	0.0696813	0.0427614	0	0	0.054438	0.0845756	0.0163317	0.00630565	0.0257307	
3.54	0.0356033	0.00466626	0.0104583	0.00821671	0.0177675	0	0	0.0142565	0.0289214	0.0296753	0.0365125	0.045089	0	0	0.000606178	0.0051717	0.00682412	0.0386114	0.0205471	0.00558397	0.0842463	0.0824741	0.0338677	0.00953095	0.0411802	0.0146033	0.0372794	0.00670312	0.0311989	0.0230561	0.044023	0	0.00787643	0.0246318	0.0183692	0.0270092	0.035623	0.0183104	0.0177975	0.0176723	0.0039415	0.00634487	0.0275152	0.0144941	0	4.5914e-09	0.0130419	0.022788	0.00989145	0.0384999	0.0523428	0.0724078	0.0596601	0	0.0108132	0.0105369	0.0052465	0.0214439	0.0172844	0.0179124	5.00172e-07	0.0224826	0	0.0292511	0.00348382	0.086299	0.0841957	2.64076e-08	0.00294134	0.085582	0.0201805	0.0674815	0.0422155	0	0	0.0534554	0.0845266	0.0164157	0.00586687	0.0259011	
3.545	0.0333882	0.00348674	0.0112751	0.00917862	0.01839	0	0	0.0140672	0.0281085	0.0287811	0.0367579	0.0456114	0	0	0.0060105	0.00563971	0.00768491	0.0409042	0.0223465	0.00660197	0.0848482	0.0850462	0.0368011	0.00964299	0.0378252	0.014748	0.0375792	0.00934631	0.0292311	0.0214956	0.0414757	0	0.0087098	0.0258292	0.016669	0.0259251	0.0359469	0.0186048	0.018064	0.0179619	0.00403814	0.00668105	0.0274623	0.0146287	1.28727e-10	1.44717e-09	0.0132356	0.0239173	0.00982866	0.0380663	0.0524425	0.0726489	0.0606242	0	0.0111109	0.0108558	0.00568901	0.0206688	0.0167988	0.0177688	0	0.0216909	7.21564e-05	0.0302213	0.00341577	0.0862523	0.0841587	5.84846e-08	0.00287224	0.0854771	0.0205974	0.0655383	0.041884	0	5.0782e-09	0.0530333	0.084477	0.0163148	0.00550319	0.0258246	
3.55	0.0312673	0.00205048	0.0121153	0.0101717	0.0190829	0	0	0.0139652	0.0273654	0.0279634	0.0369802	0.046092	0	0	0.0036201	0.00618196	0.00860105	0.043264	0.0243117	0.00747809	0.0847912	0.0856974	0.0400554	0.00985571	0.0348315	0.0148802	0.0378565	0.0104394	0.0272227	0.0197996	0.0392583	0	0.0095946	0.0269685	0.0148477	0.0249496	0.0362429	0.0188227	0.0182609	0.0181766	0.00409114	0.00705693	0.0263735	0.0142668	4.46673e-11	4.76569e-10	0.0135755	0.0251152	0.00989126	0.0378741	0.0524871	0.0727818	0.0613731	0	0.0112203	0.0110825	0.00611629	0.0200125	0.0163342	0.0175286	0	0.0210395	0.000115626	0.0310557	0.00336779	0.0861843	0.0841174	0	0.00280896	0.0853716	0.0210143	0.0638724	0.0417389	0	0	0.0531983	0.0844267	0.0160276	0.00521887	0.0255066	
3.555	0.0292231	0.000311545	0.0129713	0.0111743	0.0198378	0	0	0.0139353	0.0266926	0.0272234	0.0371802	0.0465307	0	0	0.00408821	0.00678052	0.00954467	0.0456252	0.0264199	0.00842307	0.0846902	0.0856089	0.0438043	0.0101561	0.0319763	0.0150002	0.0381109	0.0117627	0.0252318	0.0179813	0.0373432	0	0.0105167	0.0280376	0.0129946	0.0240799	0.0365115	0.0189535	0.0183783	0.0183061	0.00415424	0.00805472	0.023963	0.0133209	1.53743e-10	0	0.0140497	0.0263558	0.0100848	0.0379393	0.0524777	0.0727957	0.061869	0	0.0112434	0.0112322	0.00652053	0.0194756	0.0158866	0.0100197	0	0.0204312	0	0.0317246	0.00332707	0.0861033	0.0840721	0	0.00275216	0.0852679	0.0214326	0.062484	0.0417468	1.01389e-09	0	0.0539426	0.0843759	0.0155579	0.00485722	0.0249595	
3.56	0.0273096	0	0.0138396	0.0121729	0.0206515	0	0	0.0139707	0.0260886	0.0265596	0.0373589	0.046928	0	0	0.00426353	0.00742918	0.0104874	0.0479128	0.0286232	0.00945308	0.0845993	0.0855192	0.048092	0.0105326	0.0291297	0.0151083	0.0383426	0.0136858	0.0233032	0.0160517	0.0356983	0	0.0114682	0.0290276	0.0111814	0.0233105	0.0367536	0.0189882	0.0184085	0.0183419	0.00477652	0.009348	0.0201427	0.0117285	1.49725e-10	0	0.0146398	0.0276076	0.0104102	0.0382798	0.0524139	0.0726801	0.0620761	0	0.0111848	0.0112956	0.00688336	0.0190481	0.0143672	0	0	0.0199269	0	0.0322129	0.0100935	0.0860147	0.0840229	2.69282e-08	0.00270282	0.0851688	0.0218535	0.0613569	0.041868	0	0	0.0552105	0.0843239	0.0149157	0.0044357	0.0242034	
3.565	0.0255614	0	0.0147221	0.0131568	0.0215132	0	0	0.0140712	0.0255512	0.0259695	0.0375176	0.0472851	0	0	0.00436635	0.0080954	0.0114064	0.0500516	0.0308467	0.0105065	0.0845096	0.0854347	0.0528904	0.0109739	0.0263716	0.0152047	0.0385518	0.0159161	0.0214662	0.0140702	0.0342771	0	0.0124448	0.029932	0.00941582	0.0226352	0.0369703	0.0189219	0.0183469	0.0182789	0.00721243	0.0115506	0.0157371	0.00971373	1.75528e-10	0	0.0153246	0.0288383	0.0108652	0.0389165	0.0522931	0.0724236	0.0619606	0	0.0110309	0.0112671	0.00719252	0.0187253	0.00968298	0.000123227	0	0.0195582	4.45983e-05	0.0325283	0.020075	0.0859215	0.0839699	2.80182e-08	0.00265939	0.085075	0.0222777	0.0604647	0.0420676	0	0	0.0568972	0.08427	0.0141173	0.00385399	0.0232644	
3.57	0.0239828	2.28667e-05	0.0156204	0.0141204	0.0224103	0	0	0.0142439	0.0250766	0.0254492	0.0376575	0.0476035	0	0	0.00455567	0.00875197	0.0122903	0.0519883	0.0330008	0.0115527	0.0844293	0.0853505	0.058113	0.0114724	0.0238072	0.0152902	0.0387393	0.0181879	0.0197298	0.0121335	0.0330418	0.00359135	0.0134509	0.0307483	0.00767625	0.0220464	0.0371628	0.0187524	0.0181921	0.0181155	0.00877576	0.0133946	0.0119704	0.00771017	1.94876e-10	1.97242e-12	0.0160774	0.0300136	0.0114459	0.0398757	0.0521083	0.0720143	0.0614898	0	0.0107748	0.0111439	0.00743784	0.0184954	0.00487836	0	0	0.0192804	9.96568e-06	0.0326874	0.0278861	0.0858238	0.0839132	1.98338e-08	0.00262357	0.0849894	0.0227052	0.0597729	0.0423098	0	0	0.0588655	0.0842129	0.0131871	0.00296749	0.0221761	
3.575	0.0225626	9.01595e-06	0.016519	0.0150646	0.0233237	0	0.00233672	0.0145011	0.0246607	0.0249939	0.03778	0.0478855	0	0	0.0048189	0.00939208	0.013129	0.0536907	0.0350353	0.0125765	0.0843631	0.0852747	0.0635006	0.0120219	0.0214811	0.0153654	0.038906	0.0204726	0.0180879	0.0102894	0.0319843	0.00696805	0.014497	0.0314765	0.00596584	0.0215367	0.0373327	0.0184826	0.0179468	0.017854	0.00943303	0.0150859	0.0091541	0.00599592	2.14235e-10	2.82016e-11	0.0168681	0.0311028	0.0121472	0.0411899	0.0518518	0.0714393	0.0606353	0	0.0104232	0.0109309	0.00761521	0.0183514	0.000101627	3.35991e-05	4.8109e-09	0.0190421	0	0.0327157	0.0343985	0.0857218	0.0838528	1.19879e-08	0.00260263	0.0849126	0.0231351	0.0592446	0.042565	0	1.75822e-11	0.0610974	0.0841513	0.0121554	0.00197639	0.0209768	
3.58	0.0212796	1.08918e-06	0.0173927	0.015991	0.0242289	0	0.00677492	0.0148604	0.024299	0.0245984	0.0378866	0.0481333	0	0.00203882	0.00511525	0.0100011	0.0139199	0.055153	0.0370224	0.0135718	0.0843146	0.0852114	0.068651	0.0126187	0.0193834	0.015431	0.039053	0.0229443	0.0165406	0.00852579	0.0311173	0.00797427	0.015607	0.0321191	0.00430852	0.0210982	0.0374816	0.0181185	0.017617	0.0175009	0.00974177	0.0166257	0.00735993	0.00477463	2.297e-10	1.08198e-10	0.0176651	0.032081	0.0129657	0.0428996	0.0515151	0.0706848	0.0593766	0	0.00998646	0.0106368	0.00772535	0.0182838	0	0	2.8889e-10	0.0173499	0	0.0326458	0.0391277	0.0856152	0.0837889	8.10276e-09	0.00258436	0.0848459	0.0305607	0.0588413	0.0428096	6.65723e-20	1.91841e-09	0.0638266	0.0840841	0.0110548	0.000243853	0.0197068	
3.585	0.0201091	0	0.0182211	0.016884	0.025099	0	0.00773185	0.0153434	0.0239866	0.0242574	0.0379788	0.0483494	0	0.00418893	0.00542789	0.0105697	0.0146707	0.0564047	0.0390442	0.0145393	0.0842866	0.0851637	0.0733034	0.0132635	0.017477	0.0154877	0.0391817	0.025729	0.0151318	0.00682037	0.0304593	0.00862281	0.016792	0.0326809	0.00271721	0.0207232	0.037611	0.017669	0.0172113	0.0170654	0.00878991	0.0179227	0.00674188	0.00419236	2.41279e-10	2.41645e-10	0.0184384	0.0329335	0.0139042	0.0450506	0.0510891	0.0697369	0.0577064	0	0.00947378	0.0102719	0.00777294	0.0182801	3.7397e-05	0	9.11519e-11	0.0166281	2.13939e-06	0.0325106	0.042376	0.085505	0.0837219	6.60154e-09	0.00256773	0.0847894	0.0406846	0.0585261	0.0430264	0	0	0.0672737	0.0840114	0.00991507	2.6478e-08	0.0184024	
3.59	0.0190236	0	0.0189907	0.0177212	0.0259048	5.53265e-09	0.00804517	0.0159717	0.0237187	0.0239652	0.038058	0.0485366	0	0.00541255	0.00574611	0.0110939	0.0153827	0.0574852	0.0411123	0.0154978	0.0842802	0.0851336	0.0773207	0.0139629	0.0157705	0.0155365	0.0392935	0.0287682	0.0139187	0.00518376	0.0300207	0.00969321	0.0180417	0.0331684	0.00173789	0.0204043	0.0377228	0.0171435	0.016739	0.0165583	0.00747921	0.0192622	0.00591611	0.00386467	2.48483e-10	4.1297e-10	0.0191624	0.0336565	0.0149742	0.0476924	0.0505611	0.0685828	0.0556402	0	0.00889726	0.00984859	0.00776659	0.0183261	0.000167853	0	0	0.0175311	0	0.0323385	0.0449515	0.0853913	0.0836523	5.9951e-09	0.00255333	0.084743	0.0472358	0.0582659	0.0432045	1.09878e-19	1.97978e-11	0.0714269	0.0839328	0.00876237	0	0.0170927	
3.595	0.017996	0	0.0196928	0.0184863	0.0266193	6.06269e-09	0.00881801	0.0167625	0.0234904	0.0237164	0.0381256	0.0486977	0	0.00629938	0.00606381	0.0115715	0.0160456	0.0584773	0.0432165	0.0164501	0.0842955	0.0851216	0.0806191	0.0147262	0.0143369	0.0155782	0.0393899	0.0318976	0.0129015	0.0036736	0.0298029	0.0111088	0.0193548	0.0335891	0	0.0201345	0.0378188	0.0165503	0.0162086	0.0159905	0.00641264	0.0208698	0.00461043	0.00333121	2.51196e-10	6.08507e-10	0.0198182	0.0342552	0.0161872	0.0508704	0.0499191	0.067211	0.0532185	0	0.00827197	0.00938043	0.00771755	0.0184039	0	0	7.33478e-11	0.0180372	9.67809e-08	0.0321479	0.0472051	0.0852769	0.0835806	5.51018e-09	0.00254031	0.0847063	0.0492732	0.0580332	0.0433386	0	0	0.0760719	0.0838495	0.00762226	0	0.0158	
3.6	0.0170056	0	0.0203197	0.0191709	0.0272188	0	0.0100216	0.0177258	0.0232965	0.0235055	0.0381832	0.0488355	6.71115e-09	0.00728665	0.00637619	0.012002	0.0166447	0.0595079	0.0453468	0.0173806	0.0843307	0.0851269	0.0831398	0.0155629	0.0131912	0.0156136	0.0394727	0.0349499	0.0120451	0.00203183	0.0298005	0.0126373	0.0207583	0.0339505	0	0.0199073	0.0379008	0.015895	0.0156255	0.0153703	0.00565907	0.0228172	0.00351734	0.00232342	2.49372e-10	8.26499e-10	0.0203941	0.0347395	0.0175335	0.0546165	0.0491565	0.0656127	0.0505022	2.78724e-16	0.00761476	0.00888082	0.00763817	0.0184785	0	2.13611e-08	1.72125e-10	0.0178014	0	0.0319439	0.0488558	0.0851304	0.0835077	4.96054e-09	0.00252744	0.0846782	0.0490263	0.0578063	0.0434279	0	1.4268e-11	0.0807869	0.0837626	0.00651691	0	0.014544	
3.605	0.0160451	0	0.020864	0.0197704	0.0276863	2.33882e-11	0.0113396	0.0188685	0.0231324	0.0233271	0.038232	0.0489528	0	0.00851419	0.00667755	0.0123864	0.01717	0.0606261	0.0474978	0.0182772	0.0843829	0.0851473	0.0848005	0.016474	0.0122775	0.0156437	0.0395433	0.037931	0.0113149	0.00011033	0.0300029	0.0142404	0.0222937	0.03426	1.49552e-05	0.0197161	0.0379705	0.0151835	0.0149941	0.0147056	0.00514696	0.0251031	0.00250894	0.00202141	0	1.14546e-10	0.0208857	0.0351208	0.0189904	0.0589373	0.0482669	0.0637832	0.0475738	2.85863e-15	0.0069406	0.00836269	0.00754103	0.0185041	5.33287e-06	1.72e-07	2.41077e-10	0.0173318	0	0.031722	0.0497036	0.0848377	0.0834347	4.36773e-09	0.00251433	0.0846575	0.0485244	0.0575702	0.0434757	0	5.68201e-11	0.0847443	0.0836741	0.0054805	0	0.0133447	
3.61	0.0151204	0	0.0213198	0.0202829	0.0280129	0	0.0126769	0.0202109	0.0229934	0.0231759	0.0382733	0.0490527	0.00200962	0.00995297	0.00696438	0.0127284	0.0176173	0.0618924	0.0496715	0.0191376	0.0844478	0.0851796	0.0854608	0.0174506	0.0115383	0.0156694	0.0396036	0.0409892	0.0106859	0	0.0303959	0.0159702	0.0239942	0.0345249	1.5633e-05	0.0195548	0.0380298	0.0144204	0.0143157	0.0139988	0.00480347	0.0276924	0.00202156	0.00126188	2.76661e-07	1.56562e-11	0.0212944	0.0354104	0.0205585	0.0637196	0.0472431	0.0617225	0.0445316	2.9003e-15	0.00626432	0.00783783	0.00743809	0.0184502	2.47081e-05	8.5996e-08	2.78858e-10	0.0168556	0	0.0314714	0.0500246	0.0843147	0.0833627	3.7851e-09	0.00250063	0.0846424	0.0482694	0.057316	0.0434895	0	4.30231e-11	0.0861508	0.0835858	0.00449625	0	0.0122199	
3.615	0.0142417	0	0.0216857	0.0207089	0.0281982	0	0.0140736	0.0218001	0.0228747	0.0230471	0.0383085	0.049138	0.00505577	0.0115353	0.00723561	0.013034	0.0179882	0.0633435	0.051941	0.019966	0.0845205	0.0852197	0.0854617	0.0184845	0.0109333	0.0156914	0.0396552	0.0441697	0.0101379	0	0.030961	0.0178526	0.0258778	0.0347526	2.83298e-06	0.0194173	0.0380804	0.0136026	0.0135839	0.0132431	0.00458153	0.0305213	0.0020215	0	0	0.00441413	0.0216276	0.035619	0.0222702	0.0687651	0.046081	0.0594373	0.0414794	0	0.00560536	0.00731581	0.00734012	0.0183012	6.24809e-05	2.32762e-08	3.02672e-10	0.0163506	1.01371e-09	0.0311768	0.0497377	0.0835293	0.0832928	3.24438e-09	0.00248647	0.0846312	0.0481045	0.0570408	0.0434966	0	7.30499e-12	0.086147	0.0834997	0.00369027	6.81497e-06	0.0111793	
3.62	0.0134073	0	0.0219658	0.0210526	0.0282504	0	0.0155673	0.0236936	0.0227719	0.0229354	0.0383388	0.0492116	0.00639126	0.0132279	0.00749282	0.0133093	0.0182885	0.0649972	0.0543076	0.0207699	0.084595	0.0852629	0.0854444	0.0195779	0.0104302	0.0157108	0.0396998	0.0474269	0.00965252	2.61376e-05	0.0316744	0.0198942	0.0279518	0.0349505	0	0.019298	0.0381241	0.0127434	0.0128088	0.0124482	0.00444195	0.033482	0.00194556	0	9.11944e-07	0.00425329	0.0218981	0.0357581	0.0241541	0.0738403	0.0447848	0.056942	0.0385089	0	0.00495416	0.00680298	0.00725673	0.018046	0	0	3.19089e-10	0.0157774	3.34296e-09	0.0308213	0.0490633	0.0824736	0.0832263	2.75706e-09	0.00247184	0.0846217	0.0478886	0.0567467	0.0434998	1.98082e-22	1.65149e-11	0.086158	0.0834178	0.00282067	0	0.0102213	
3.625	0.0126092	0	0.0221701	0.0213227	0.0281853	0	0.0171644	0.0259343	0.0226805	0.0228362	0.0383654	0.0492763	0.00708803	0.0150359	0.00773956	0.0135607	0.0185282	0.0668466	0.0567861	0.0215658	0.0846656	0.0853046	0.0854498	0.0207458	0.0100007	0.0157284	0.0397392	0.0507148	0.00921629	8.36749e-06	0.0325073	0.022163	0.0302046	0.0351262	0	0.0191912	0.0381626	0.0118721	0.0120178	0.0116409	0.00443934	0.0365101	0.00182644	0	0	0.00378357	0.0221229	0.0358398	0.0262086	0.0786555	0.0433638	0.0542615	0.0356889	0	0.00431762	0.00630681	0.00719656	0.0176767	0	0	3.30234e-10	0.0151521	2.12742e-09	0.0303877	0.0474938	0.0811474	0.0831644	2.32459e-09	0.00245706	0.0846121	0.0476278	0.0564409	0.0435022	1.32114e-22	1.44681e-11	0.0862441	0.0833422	0.00204656	0	0.00933525	
3.63	0.0118372	0	0.0223126	0.021533	0.0280257	0	0.0188554	0.0285342	0.0225962	0.0227445	0.0383895	0.0493349	0.00790862	0.0169548	0.00798076	0.0137955	0.0187202	0.0688561	0.0593558	0.0223847	0.0847261	0.0853401	0.0854507	0.0220055	0.00961939	0.015745	0.039775	0.0540097	0.00881573	0	0.0334279	0.0247685	0.0325905	0.0352872	0	0.0190916	0.0381977	0.0109828	0.01122	0.010829	0.00460058	0.0397975	0.00177826	4.57326e-06	0	0.00394809	0.0223224	0.0358771	0.0284065	0.0827897	0.041831	0.0514306	0.0330214	0	0.00377934	0.00583539	0.00716758	0.0171916	0.00011959	0	3.35888e-10	0.0145	6.87568e-10	0.0298555	0.044747	0.0795591	0.0831082	1.94477e-09	0.00244245	0.0846014	0.0473644	0.0561349	0.0435157	5.1786e-23	8.18278e-12	0.0862815	0.0832742	0.00195623	1.71953e-05	0.00850844	
3.635	0.0110814	0	0.0224117	0.0217004	0.0277998	0	0.020657	0.0314373	0.0225146	0.0226557	0.0384123	0.0493903	0.00904335	0.0189584	0.00822259	0.0140217	0.0188797	0.0709682	0.0619835	0.0232041	0.0847714	0.0853653	0.0854491	0.0233677	0.00926311	0.0157617	0.0398091	0.057307	0.00843506	0	0.0344051	0.0277555	0.0350543	0.0354413	0	0.0189937	0.0382309	0.00989492	0.0103472	0.0098571	0.00490315	0.0435418	0.00180663	1.32027e-06	3.58538e-07	0.00415599	0.0225193	0.0358834	0.0306997	0.0854363	0.0402124	0.0484898	0.0303791	0	0.00323769	0.00538793	0.00717725	0.0165963	0.000170661	0	3.3567e-10	0.0138277	1.19443e-10	0.0291968	0.0409223	0.0777243	0.0830587	1.61426e-09	0.00242828	0.0845873	0.047115	0.0558517	0.0435535	5.3778e-24	1.08951e-12	0.0862671	0.083215	0.000780427	0	0.00772794	
3.64	0.0103351	0	0.0224882	0.0218444	0.0275393	0	0.0226257	0.0344568	0.0224314	0.0225651	0.038435	0.0494453	0.0103495	0.0210611	0.00847186	0.0142499	0.0190236	0.0730994	0.0646385	0.0240508	0.0847966	0.0853766	0.0854441	0.0248327	0.0089072	0.0157792	0.0398431	0.0606011	0.00805717	0	0.0354171	0.031073	0.0376896	0.0355963	0	0.0188922	0.0382641	0.00866081	0.00923546	0.00871976	0.00531097	0.0478034	0.00187471	1.00063e-06	4.5501e-06	0.00437957	0.0227369	0.0358709	0.0330172	0.0858735	0.0384177	0.0454831	0.0274916	8.63841e-09	0.00252531	0.00495358	0.0072334	0.0159083	0	2.28109e-10	3.29501e-10	0.0131326	4.64732e-11	0.0284184	0.0417401	0.0756624	0.0830168	1.32931e-09	0.00241488	0.0845678	0.0468763	0.0556072	0.0436274	0	2.89325e-10	0.0862241	0.0831617	0	2.55265e-05	0.00697849	
3.645	0.0095922	0	0.022565	0.0219859	0.0272784	1.93646e-09	0.0248096	0.0375496	0.0223424	0.0224682	0.0384587	0.0495026	0.0116981	0.0233303	0.00873569	0.0144896	0.0191699	0.0751616	0.0672897	0.0249366	0.0847975	0.0853708	0.0854337	0.0263946	0.0085265	0.0157984	0.0398787	0.0638873	0.00766429	0	0.0364465	0.0345817	0.0406904	0.0357598	0	0.0187821	0.0382989	0.0073231	0.00800924	0.00749074	0.00579753	0.0525761	0.00194634	0	0	0.00471396	0.0229982	0.0358504	0.0353014	0.0857048	0.0365358	0.04246	0.0249991	7.23399e-09	0.0020349	0.00453626	0.00734423	0.0151552	0	3.5542e-10	3.17641e-10	0.0124152	1.10575e-10	0.0275537	0.0404912	0.0734107	0.0829836	1.08599e-09	0.00240229	0.0845417	0.0466424	0.0554154	0.0437465	0	0	0.0861398	0.0831142	0	0	0.00624844	
