CEINMS output
datacolumns 81
datarows 92
endheader
time	addbrev_r	addlong_r	addmagDist_r	addmagIsch_r	addmagMid_r	addmagProx_r	bflh_r	bfsh_r	edl_r	ehl_r	fdl_r	fhl_r	gaslat_r	gasmed_r	glmax1_r	glmax2_r	glmax3_r	glmed1_r	glmed2_r	glmed3_r	glmin1_r	glmin2_r	glmin3_r	grac_r	iliacus_r	perbrev_r	perlong_r	piri_r	psoas_r	recfem_r	sart_r	semimem_r	semiten_r	soleus_r	tfl_r	tibant_r	tibpost_r	vasint_r	vaslat_r	vasmed_r	addbrev_l	addlong_l	addmagDist_l	addmagIsch_l	addmagMid_l	addmagProx_l	bflh_l	bfsh_l	edl_l	ehl_l	fdl_l	fhl_l	gaslat_l	gasmed_l	glmax1_l	glmax2_l	glmax3_l	glmed1_l	glmed2_l	glmed3_l	glmin1_l	glmin2_l	glmin3_l	grac_l	iliacus_l	perbrev_l	perlong_l	piri_l	psoas_l	recfem_l	sart_l	semimem_l	semiten_l	soleus_l	tfl_l	tibant_l	tibpost_l	vasint_l	vaslat_l	vasmed_l	
3.19	0.0129968	0.000592877	0.0230361	0.0232967	0.0284493	0	0.0241391	0.0374142	0.0221239	0.0222317	0.0385102	0.0496496	0.00964731	0.0229832	0.00815624	0.0137444	0.0188356	0.0833961	0.0777083	0.0235867	0.0844028	0.0847468	0.0846967	0.0270969	0.0106325	0.0157891	0.0399591	0.0528093	0.0086565	5.56437e-05	0.0352597	0.0354926	0.0418818	0.0361552	0.000195299	0.0185356	0.0383767	0.00900172	0.00944193	0.0089739	0.00364802	0.0505597	0.0182458	0.0178508	0.0151267	0.00298217	0.00456709	0.00866104	0.0320082	0.084131	0.0385446	0.045602	0.0258242	0	0.00115231	0.00202145	0.000335427	0.0407759	0.0232669	4.3606e-13	0.022465	0.0390867	0	0.00208561	0.000235311	0.0751275	0.0839072	0	0.00061383	0.084821	0.039716	0.0555829	0.0363882	0	1.02921e-17	0.0843212	0.0839964	0	0.000191685	1.30939e-06	
3.195	0.0116408	1.49402e-10	0.0210246	0.0214904	0.0256116	0	0.0236454	0.0399366	0.0227039	0.0228703	0.038396	0.0493799	0.0106273	0.0241584	0.00701431	0.0125686	0.0169808	0.083932	0.0770538	0.0221223	0.0853427	0.0854004	0.0848618	0.0270817	0.0129093	0.0156471	0.0397821	0.0501339	0.0102966	0.00100603	0.0376253	0.0356819	0.0419385	0.035287	0.00378558	0.0193567	0.0382027	0.00749173	0.00809599	0.007597	0.00252243	0.0494417	0.0190708	0.0182502	0.015459	0.00308656	0.00155693	0.00641295	0.0321543	0.0841988	0.038544	0.0454605	0.0238603	0	0.00133073	0.00200295	8.34769e-13	0.0468226	0.0279561	3.78461e-10	0.0242933	0.0178645	0	0	0.00202129	0.075039	0.0838737	0	0.00145285	0.0871157	0.0394081	0.0504399	0.0337203	0	0	0.0844103	0.0840285	1.43635e-14	0.00385788	0.00398116	
3.2	0.0113357	8.22671e-11	0.0198432	0.0202863	0.0239303	0	0.0232112	0.0419488	0.0231296	0.0233353	0.0382969	0.0491374	0.0112973	0.0250768	0.00656162	0.0120655	0.0160077	0.0839005	0.0763017	0.0211975	0.0853159	0.0853481	0.0847987	0.027107	0.0139959	0.0155685	0.0396352	0.0475456	0.0110859	0.00181289	0.0395021	0.0357738	0.0419248	0.0345797	0.00567312	0.0198976	0.0380555	0.00661484	0.00729972	0.00680437	0.00217365	0.0484205	0.0235651	0.0203538	0.019259	0.0040788	0.00186711	0.00651584	0.032253	0.084202	0.0384712	0.0453745	0.0238094	2.70404e-11	0.0077355	0.0148651	2.47926e-10	0.0427877	0.0274308	3.10903e-10	0.0243436	0.01203	2.92436e-14	0.00374844	0.00201865	0.0751266	0.0838882	8.56556e-12	0.00163579	0.0870587	0.0391886	0.0464954	0.033117	0	8.05975e-12	0.0844424	0.0844921	0	0.00498064	0.00519475	
3.205	0.0110419	3.57962e-11	0.0187628	0.0192212	0.0223853	0	0.0227464	0.0439605	0.0234426	0.0236743	0.0382071	0.0489187	0.0117739	0.0258874	0.00614805	0.0116054	0.0151094	0.0838177	0.0753414	0.0202855	0.0852102	0.085245	0.0847126	0.0270705	0.0148105	0.0155135	0.0395044	0.0449819	0.0116383	0.00202136	0.0414048	0.0357704	0.0418275	0.0339859	0.00664448	0.020256	0.0379257	0.00603634	0.00675223	0.00627114	0.00398889	0.047671	0.0258909	0.0219036	0.0204544	0.00402912	0.00229767	0.00624305	0.032313	0.0841791	0.0383305	0.0453029	0.0237016	3.07176e-12	0.0114149	0.0254846	0.00286277	0.0402572	0.0087442	4.13671e-10	0.0361773	0.0172201	2.49495e-13	0.00965891	0.00721324	0.0750987	0.0839096	0	0.0107916	0.0870245	0.0387754	0.0427487	0.0316639	0	5.44296e-12	0.0844326	0.0848441	3.44572e-11	0.00508008	0.00528081	
3.21	0.0107753	1.23982e-11	0.0176718	0.0181321	0.0209314	0	0.0222098	0.0460459	0.0236932	0.0239464	0.0381285	0.0487299	0.0122024	0.0267024	0.00570104	0.0111206	0.0142292	0.0837348	0.0741232	0.0193446	0.0851053	0.085142	0.0846283	0.0269983	0.0156951	0.0154666	0.0393911	0.0424449	0.0122249	0.00200138	0.0434699	0.0356669	0.0416384	0.0334876	0.00724059	0.0205381	0.0378136	0.00551986	0.00625077	0.0057871	0.00684617	0.0470342	0.0237139	0.0215911	0.0174071	0.00321468	0.00297614	0.00525455	0.0323362	0.0841524	0.0382245	0.0452585	0.0229761	3.35511e-12	0.0115567	0.02963	0.00634059	0.0329811	0.000657772	4.21107e-10	0.0486926	0.0237064	1.17618e-14	0.0113151	0.0152724	0.0750557	0.0839259	9.25292e-09	0.0227234	0.0869807	0.0381082	0.039121	0.0297881	0	4.77819e-12	0.0844004	0.0849467	7.58276e-11	0.00499386	0.00519047	
3.215	0.0105824	2.05486e-07	0.0166078	0.0170356	0.0195821	1.96317e-06	0.0215977	0.0481515	0.0238824	0.0241517	0.038067	0.0485827	0.012653	0.0275469	0.00523868	0.0106307	0.0133982	0.0836322	0.0726055	0.0183925	0.0849724	0.0850185	0.0845348	0.026895	0.0166258	0.0154337	0.0393035	0.0399896	0.0128376	0.00209777	0.0456976	0.0354442	0.0413414	0.0331082	0.00785023	0.0207471	0.0377269	0.00502372	0.00577851	0.00532937	0.00929827	0.0461748	0.0184236	0.0191463	0.0121231	0.00228795	0.00296226	0.00410234	0.0323128	0.0841208	0.0382364	0.0452688	0.0219285	1.85003e-07	0.0110393	0.0301482	0.00601233	0.0281848	0.00202137	1.67597e-09	0.0561972	0.00941128	2.66915e-09	0.0106228	0.0228783	0.075068	0.0839432	1.7348e-07	0.0315561	0.086919	0.0372647	0.0358455	0.0280358	5.68661e-07	1.90563e-07	0.0843507	0.0849359	7.6722e-07	0.00497998	0.00522557	
3.22	0.0104597	1.9726e-07	0.0155866	0.0159518	0.0183224	1.88714e-06	0.0209126	0.0502331	0.023991	0.0242685	0.0380275	0.0484865	0.0131346	0.0284181	0.00474987	0.0101314	0.0126086	0.0835148	0.0707746	0.0174369	0.0848185	0.084881	0.0844356	0.0267546	0.0175792	0.0154208	0.0392479	0.0376725	0.0134645	0.00232232	0.0480896	0.0350871	0.0409267	0.0328751	0.00855958	0.0208546	0.037672	0.00457947	0.00536179	0.00492017	0.0106926	0.0449605	0.0125021	0.0149791	0.00777178	0.00206213	0.00275719	0.00304423	0.0322331	0.0840826	0.0383609	0.0453475	0.0208529	1.77739e-07	0.0109761	0.0299764	0.00576492	0.0254641	0.00241353	1.62804e-09	0.0504856	0.00383966	2.56363e-09	0.00944692	0.0286439	0.0751379	0.0839651	1.66183e-07	0.0373946	0.0868355	0.0363222	0.0329267	0.0264126	6.23433e-07	1.82956e-07	0.0842879	0.0849325	7.95895e-07	0.0049749	0.00543974	
3.225	0.0104102	7.06494e-08	0.0146311	0.0148997	0.0171463	6.75939e-07	0.0201559	0.0522515	0.0240063	0.0242831	0.038013	0.0484484	0.0136471	0.0293204	0.00425772	0.00962084	0.0118512	0.0833866	0.0686225	0.0164962	0.0846491	0.084734	0.0843349	0.0265771	0.0185501	0.0154301	0.0392282	0.0355318	0.0141183	0.0026455	0.0506419	0.0345894	0.0403933	0.0328059	0.00931924	0.0208455	0.0376532	0.00422217	0.00500277	0.00457244	0.0113008	0.0434552	0.00794092	0.0103769	0.00568601	0.00203581	0.00269747	0.00200568	0.0320905	0.0840391	0.0385703	0.0455023	0.0198935	6.36581e-08	0.0111746	0.0303362	0.00631056	0.0216751	0.00239928	8.57945e-10	0.0447913	0.00364204	9.18087e-10	0.00864924	0.0322061	0.0752712	0.0839911	5.67328e-08	0.0400787	0.0867291	0.0353214	0.0302019	0.0248931	2.55458e-07	6.5533e-08	0.0842194	0.0849744	2.96692e-07	0.00492203	0.00582001	
3.23	0.010437	1.06322e-08	0.0137563	0.0139027	0.0160665	9.87866e-08	0.0193319	0.0541666	0.0239213	0.0241882	0.0380259	0.0484736	0.0141955	0.0302627	0.00381387	0.00910184	0.0111177	0.0832509	0.0661734	0.0156004	0.0844683	0.0845812	0.0842352	0.0263665	0.0195382	0.0154614	0.0392471	0.0335663	0.0148079	0.00299483	0.0533466	0.0339519	0.0397478	0.0329119	0.0100656	0.0207119	0.0376734	0.00394953	0.004694	0.00428961	0.0115068	0.0417592	0.00512549	0.00664512	0.00501019	0.00201635	0.00285896	0	0.0318803	0.0839917	0.0388389	0.0457381	0.0190411	9.53474e-09	0.0113668	0.0310811	0.0072097	0.0143426	0.00241008	4.93699e-10	0.0460211	0.00366649	1.37481e-10	0.00811708	0.0343692	0.0754685	0.0840194	4.66178e-08	0.041193	0.0866348	0.0342766	0.0276064	0.023496	5.80997e-08	9.81114e-09	0.0841514	0.0850509	4.27376e-08	0.00485954	0.0063764	
3.235	0.0105415	0	0.0129598	0.0129693	0.0151092	0	0.0184471	0.0559482	0.0237329	0.0239803	0.0380672	0.0485651	0.0147887	0.0312519	0.00335834	0.00857891	0.0104024	0.0831109	0.0634668	0.0147811	0.0842802	0.084426	0.0841387	0.0261296	0.0205505	0.0155146	0.0393063	0.0317481	0.0155368	0.00328421	0.0561876	0.0331797	0.0390038	0.0331986	0.0107725	0.0204498	0.0377341	0.00373749	0.00443678	0.00406594	0.01153	0.0399297	0.0035649	0.00429998	0.00489838	0.00200748	0.00317035	0	0.031599	0.0839414	0.0391499	0.046059	0.0182602	0	0.0115482	0.0318408	0.00810387	0.00583542	0.00267449	0	0.0471403	0.0037015	0	0.00763433	0.0356525	0.075733	0.0840492	0	0.0413488	0.0865513	0.0331944	0.0252049	0.0222466	0	0	0.0840859	0.0851488	0	0.00483195	0.00710768	
3.24	0.0107244	0	0.0122323	0.0120936	0.0142906	0	0.0175102	0.0575625	0.0234412	0.0236596	0.0381367	0.0487235	0.0154335	0.0322904	0.00274082	0.00805779	0.00969983	0.0829694	0.060573	0.0140354	0.0840889	0.0842716	0.0840469	0.0258754	0.0215927	0.0155891	0.0394064	0.0300708	0.0163014	0.00350782	0.0591287	0.0322825	0.0381806	0.033666	0.0114333	0.0200597	0.0378354	0.00355963	0.00423266	0.00389552	0.011466	0.037991	0.00235887	0.00318245	0.00525182	0.00205037	0.00352712	0	0.031245	0.0838892	0.039503	0.046467	0.0175341	0	0.0117636	0.0324475	0.00899809	0.00386406	0.00299109	7.04289e-08	0.0376997	0.00378571	0	0.00714384	0.0362129	0.0760629	0.0840799	0	0.04087	0.0864681	0.0320833	0.0230804	0.0211614	0	0.00202037	0.0840226	0.0852628	0	0.00483791	0.00796926	
3.245	0.0109853	0.00192027	0.0115642	0.0112637	0.0136055	0	0.0165352	0.0589981	0.0230504	0.0232311	0.0382329	0.0489467	0.0161315	0.0333775	0.00215061	0.00754414	0.00900824	0.0828285	0.0575725	0.0133244	0.0838976	0.0841205	0.083961	0.0256152	0.022665	0.0156831	0.0395462	0.0285595	0.0170925	0.00368255	0.0620843	0.0312742	0.0373013	0.0343084	0.0120443	0.0195476	0.0379756	0.00340698	0.00407595	0.00376346	0.0113519	0.0359606	0.00200397	0.0024459	0.00623204	0.00230533	0.00391158	2.72413e-05	0.0308184	0.0838361	0.039901	0.0469613	0.0168658	0	0.012003	0.0328708	0.0099281	0.003988	0.00327101	0.00210809	0.0250711	0.00389089	0	0.00668761	0.0360156	0.076455	0.0841106	6.22697e-11	0.0398815	0.0863292	0.0309468	0.0212853	0.0202571	0	0.00298188	0.0839615	0.0853891	0	0.00479777	0.00885658	
3.25	0.0113242	0.00222997	0.0109492	0.0104708	0.0130417	0	0.0155465	0.0602491	0.0225695	0.0227049	0.0383531	0.0492298	0.0168786	0.0345133	0.00201506	0.00704254	0.00833537	0.0826899	0.0545668	0.0126934	0.0837097	0.0839747	0.0838811	0.0253614	0.0237623	0.0157942	0.0397232	0.027237	0.0179008	0.00382068	0.0649772	0.0301762	0.0363907	0.0351158	0.0125995	0.0189241	0.0381512	0.00327661	0.00395665	0.0036566	0.0112994	0.0338337	0.0020117	0.00218058	0.00819039	0.00303312	0.00443109	9.17475e-06	0.0303213	0.0837833	0.04034	0.0475392	0.0162665	0	0.0122348	0.0330752	0.0108525	0.00409402	0.00352748	0.00243506	0.0155486	0.00400422	0	0.00630766	0.0349357	0.0769051	0.0841408	1.81695e-07	0.0384756	0.0861433	0.029793	0.0198439	0.0195551	0	0.00306479	0.0839034	0.0855217	8.23735e-09	0.00466898	0.00970232	
3.255	0.0117403	0.00241301	0.0103834	0.00970821	0.0125885	1.68866e-09	0.0145783	0.0613338	0.0220113	0.0220954	0.0384933	0.0495655	0.0176668	0.0357034	0.0016789	0.00655757	0.00769218	0.0825546	0.0516033	0.01211	0.0835278	0.0838356	0.083807	0.025127	0.0248773	0.015919	0.0399334	0.026105	0.018721	0.00392723	0.0677466	0.0290185	0.0354701	0.0360773	0.0130938	0.0182036	0.0383573	0.00316449	0.00386302	0.00356673	0.0113319	0.0315311	0.00615505	0.00213891	0.0110032	0.00375082	0.00514413	1.80721e-06	0.0297578	0.0837318	0.040816	0.0481961	0.0157492	1.94114e-10	0.012442	0.0330295	0.0116946	0.00421087	0.00377014	0.0026102	0.00956172	0.00412795	2.76321e-12	0.00601693	0.0328365	0.0774054	0.0841697	1.35959e-08	0.0367379	0.0859202	0.028638	0.0187695	0.0190867	0	0.00268831	0.083849	0.0856525	1.18974e-07	0.00446421	0.0104846	
3.26	0.0122338	0.00258202	0.00986426	0.00897387	0.0122385	1.60507e-09	0.0136636	0.0622699	0.0213927	0.0214215	0.0386484	0.0499444	0.0184872	0.0369585	0	0.00609588	0.00708694	0.0824233	0.0487282	0.0115661	0.0833542	0.0837042	0.0837379	0.0249253	0.0260014	0.0160537	0.0401713	0.025148	0.0195531	0.00400081	0.0703495	0.0278353	0.0345559	0.0371816	0.0135246	0.0174044	0.0385874	0.00306367	0.00378397	0.00348677	0.0112968	0.0289855	0.0127717	0.00476482	0.0141405	0.00433074	0.00602444	0	0.029134	0.083623	0.0413218	0.048925	0.0153276	1.59013e-10	0.0126216	0.0327573	0.0123891	0.00445309	0.00401668	0.00311716	0.00634471	0.00425668	2.25855e-12	0.00581453	0.0296717	0.0779482	0.0841966	0	0.0347512	0.085689	0.0275032	0.0180762	0.0188949	0	0.00224317	0.0837998	0.0857724	2.65442e-08	0.00423909	0.011221	
3.265	0.0128065	0.00289271	0.00939317	0.00827522	0.0119865	6.08798e-10	0.0128209	0.063091	0.0207327	0.0207041	0.0388128	0.0503552	0.0193328	0.0382854	1.57913e-07	0.00566197	0.00652628	0.0822964	0.0459792	0.0110513	0.0831904	0.083581	0.0836725	0.0247692	0.0271255	0.0161941	0.0404304	0.0243382	0.0204008	0.00403693	0.0727503	0.0266614	0.033661	0.0384139	0.0138911	0.0165524	0.0388343	0.00296443	0.00371052	0.00340921	0.0110611	0.0262306	0.0200106	0.00921816	0.0172796	0.00478174	0.00717665	0	0.0284575	0.0832602	0.0418486	0.0497173	0.0150164	6.05568e-11	0.0127711	0.0323113	0.0129314	0.00484769	0.0042903	0.00352997	0.00483399	0.00438193	8.40238e-13	0.00570218	0.0255754	0.0785239	0.084221	0	0.0325822	0.0854377	0.0264047	0.0177886	0.0190322	0	0.0020067	0.0837569	0.085873	0	0.00401465	0.0119011	
3.27	0.0134654	0.00319501	0.00897686	0.00762365	0.0118293	0	0.0120564	0.0638312	0.0200526	0.0199663	0.0389807	0.0507847	0.0201991	0.0396797	0	0.00524931	0.00601958	0.0821737	0.04337	0.0105529	0.0830376	0.0834658	0.0836092	0.0246707	0.0282402	0.0163356	0.040703	0.023641	0.0212678	0.00403182	0.0749337	0.0255292	0.0327984	0.0397495	0.0141921	0.0156833	0.0390896	0.00285567	0.00363429	0.00332544	0.0105867	0.0233586	0.0268418	0.0141883	0.0202577	0.00499538	0.00868118	0	0.0277376	0.0826028	0.0423862	0.0505637	0.0148308	9.53109e-12	0.0128858	0.031738	0.0133561	0.00536401	0.0045817	0.00385697	0.00416978	0.00449426	1.06125e-08	0.00568788	0.0209286	0.0791214	0.0842425	1.06241e-07	0.0302828	0.0851768	0.0253513	0.0179641	0.0195526	0	0.00200061	0.0837221	0.0859475	0	0.00379843	0.0125175	
3.275	0.0142224	0.00342633	0.00861736	0.00702661	0.0117642	0	0.0113701	0.0645212	0.0193749	0.0192325	0.039146	0.0512185	0.0210817	0.0411271	7.92063e-06	0.00485002	0.00557035	0.0807764	0.0409113	0.0100566	0.0828965	0.0833584	0.0835465	0.0246409	0.0293368	0.0164737	0.0409807	0.0230159	0.0221547	0.00398471	0.0768876	0.0244668	0.0319828	0.0411537	0.0144248	0.014842	0.039345	0.00272763	0.00354658	0.0032257	0.01001	0.0204578	0.0330119	0.0190148	0.0231227	0.00507925	0.0106142	0	0.0269849	0.0816942	0.0429247	0.0514529	0.0147855	0	0.0129602	0.0310746	0.013699	0.00597414	0.00487015	0.00420156	0.00390671	0.00458299	0.00739677	0.00578348	0.0162135	0.0797277	0.0842606	3.46971e-07	0.0279138	0.0849112	0.0243429	0.0186891	0.0205035	0	0.00119549	0.0836967	0.0859919	0	0.00360312	0.0130811	
3.28	0.0150999	0.00362082	0.00831732	0.00648933	0.0117883	0	0.0107614	0.0651976	0.0187225	0.0185272	0.0393032	0.0516422	0.0219725	0.0426066	2.9276e-06	0.00446986	0.00516994	0.0771729	0.0386044	0.00954828	0.0827674	0.0832582	0.0834827	0.0246896	0.030407	0.016604	0.0412545	0.0224192	0.0230609	0.00389778	0.0786099	0.0234971	0.0312307	0.0425825	0.0145862	0.014071	0.039592	0.00257334	0.00343769	0.00309836	0.0093163	0.0175233	0.0380974	0.0222917	0.025878	0.0050536	0.0130291	0	0.0262104	0.0805693	0.0434558	0.0523729	0.0148924	0	0.0129871	0.0303513	0.0139922	0.0066741	0.00513455	0.00459058	0.0037738	0.00463793	0.00797092	0.00600512	0.0120689	0.0803309	0.0842751	0	0.0255575	0.084641	0.0233725	0.0200455	0.021897	0	0	0.0836821	0.0860044	3.05992e-08	0.00350716	0.0136964	
3.285	0.0161077	0.00380067	0.00807687	0.0060187	0.0118983	0	0.0102306	0.0658956	0.0181182	0.017875	0.0394474	0.0520425	0.0228589	0.0440924	6.64036e-07	0.00412633	0.00481232	0.0717892	0.0364413	0.00901631	0.0826503	0.0831646	0.0828169	0.0248253	0.0314446	0.0167224	0.0415154	0.0218067	0.0239844	0.00377282	0.0801041	0.0226375	0.0305598	0.0439845	0.0146737	0.0133996	0.0398226	0.0023938	0.00329523	0.00292884	0.00849241	0.0145262	0.0419493	0.021734	0.0286106	0.00494243	0.0159524	1.04827e-07	0.0254253	0.0792637	0.0439708	0.0533122	0.0151599	1.05421e-12	0.012961	0.0295892	0.0142628	0.00743125	0.00536114	0.00498578	0.00366597	0.00464962	0.00754229	0.00637766	0.00905941	0.0809207	0.0842859	0	0.0233095	0.0843894	0.0224349	0.0220893	0.0236502	0	0	0.0836797	0.0859864	8.4957e-08	0.00340745	0.0142959	
3.29	0.0172396	0.00397783	0.00789437	0.00561535	0.0120901	0	0.00977804	0.0666416	0.0175849	0.0173011	0.0395746	0.0524065	0.0237242	0.0455539	0	0.00382667	0.00450307	0.0651935	0.0343823	0.00844944	0.0825454	0.0830775	0.0799882	0.0250552	0.0324455	0.0168251	0.0417544	0.021136	0.0249238	0.00361526	0.0813793	0.0218995	0.0299847	0.0453032	0.0146863	0.0128458	0.0400295	0.0022058	0.00310231	0.00270796	0.00764804	0.0116285	0.0444647	0.0182345	0.0315041	0.00482782	0.0193016	5.34657e-08	0.0246405	0.0778075	0.0444625	0.0542581	0.0155917	2.51778e-12	0.0128789	0.0287968	0.0145098	0.00820414	0.00554148	0.00535184	0.00353832	0.0046171	0.0077218	0.00693188	0.00715889	0.0814877	0.084293	4.31385e-08	0.0212587	0.084189	0.0215017	0.0248324	0.0255763	0	0	0.0836913	0.0859416	7.39124e-08	0.00325781	0.0148478	
3.295	0.0184869	0.00416204	0.00776691	0.00527088	0.0123594	0	0.00940521	0.0674614	0.0171449	0.0168305	0.0396815	0.052722	0.0245495	0.0469576	0	0.00353383	0.00424683	0.058042	0.032331	0.00783863	0.0824528	0.0829966	0.0753117	0.0253853	0.0334104	0.0169087	0.0419628	0.0203674	0.0258775	0.00343231	0.0824455	0.0212897	0.0295152	0.0464805	0.0146246	0.0124224	0.0402065	0.00205102	0.00283663	0.00244862	0.00694043	0.00888917	0.0430263	0.0141952	0.0346387	0.00481068	0.0227861	9.46792e-09	0.0238661	0.0762388	0.044926	0.0551996	0.0161838	2.81816e-12	0.0127378	0.0279705	0.0147149	0.00895829	0.0056673	0.0056759	0.00336142	0.00465329	0.00805895	0.00769504	0.00598401	0.0820221	0.0842964	1.48268e-07	0.0194612	0.0839422	0.0204845	0.0281861	0.0274208	0	7.01087e-06	0.0837197	0.0858751	0	0.00305941	0.0153605	
3.3	0.0198597	0.00436242	0.00769009	0.00497891	0.0127055	0	0.00911294	0.0683782	0.0168183	0.016485	0.0397657	0.0529779	0.0253143	0.0482677	0	0.00318833	0.00403896	0.0511482	0.0302146	0.00717564	0.0823725	0.082922	0.0693548	0.02582	0.0343485	0.0169703	0.0421325	0.0194663	0.026844	0.00322017	0.0833109	0.0208099	0.0291555	0.0474592	0.0144909	0.0121407	0.0403479	0.00200312	0.00250726	0.00219273	0.00647215	0.00620753	0.0366087	0.0110435	0.0381302	0.00498088	0.0256346	0	0.0231111	0.0745945	0.0453564	0.0561267	0.0169208	2.69742e-12	0.012535	0.0271076	0.0148641	0.00965766	0.00573089	0.00594937	0.00310173	0.00478332	0.00815286	0.00869182	0.00513359	0.0825156	0.0842963	0	0.0178598	0.0837197	0.0191885	0.0318752	0.0289223	0	2.33629e-06	0.083771	0.0857926	0.00276213	0.0028291	0.0158366	
3.305	0.0214009	0.00466152	0.00765902	0.0047369	0.0131219	9.606e-10	0.00889902	0.0694026	0.0166214	0.0162819	0.0398254	0.0531647	0.0259971	0.0494469	0	0.00274256	0.00386973	0.0451723	0.0280432	0.00645457	0.082305	0.0828544	0.0625892	0.0263625	0.0352768	0.0170072	0.0422561	0.0184017	0.0278216	0.00295948	0.083988	0.0204572	0.028906	0.0481859	0.0142895	0.0120111	0.0404491	0.00199948	0.00218722	0.00202041	0.00611254	0.00359621	0.0296233	0.00886459	0.0418572	0.00524368	0.0267529	0	0.0223832	0.0729047	0.0457507	0.0570283	0.0177717	2.53104e-12	0.0122691	0.0262102	0.0149505	0.0102714	0.00572631	0.00616184	0.00271801	0.00496161	0.0080483	0.00993232	0.00422995	0.0829638	0.0842931	0	0.0163836	0.0835151	0.0173465	0.0349537	0.0299315	0	8.54786e-07	0.0838201	0.0856994	0.00335791	0.00331257	0.0162888	
3.31	0.0231644	0.00511477	0.00766788	0.00454444	0.0135999	0	0.00875754	0.0705374	0.016566	0.0162329	0.0398589	0.0532739	0.0265763	0.0504588	0	0.00227965	0.00372147	0.0401776	0.0258692	0.00568318	0.0822505	0.0827945	0.0555919	0.0270136	0.0362152	0.0170169	0.0423268	0.0171463	0.0288086	0.0026359	0.0844816	0.0202252	0.028763	0.0486129	0.0140263	0.012042	0.0405059	0.00155328	0.00200534	0.00201964	0.00546067	0	0.0275708	0.00738624	0.0450617	0.00524656	0.0269405	0	0.0216887	0.0712047	0.046107	0.0578961	0.0186916	2.41029e-12	0.0119439	0.0252852	0.0149773	0.0107746	0.00565035	0.00630314	0.00227435	0.00513989	0.00783538	0.0114014	0.0029301	0.0833641	0.084287	1.24136e-08	0.0151042	0.0833257	0.0147051	0.0359281	0.0305751	0	0	0.0837629	0.0856003	0.00313177	0.00347068	0.0167088	
3.315	0.0251901	0.00570475	0.0077106	0.00439571	0.0141511	0	0.00867869	0.0717763	0.01666	0.0163454	0.0398646	0.0532979	0.0270294	0.0512656	0	0.00201384	0.00357919	0.0360515	0.0237315	0.00484317	0.0811487	0.0827433	0.0490736	0.0277715	0.0371854	0.0169971	0.0423388	0.0156866	0.0298022	0.00229855	0.0847992	0.0201031	0.0287191	0.0486995	0.0137095	0.0122385	0.0405145	0.000317589	0.00201382	0.00183965	0.00424955	0	0.0284526	0.00864802	0.0459096	0.00473757	0.0270123	0	0.0210323	0.0695195	0.046424	0.0587235	0.0196295	2.3239e-12	0.0116458	0.0243548	0.014952	0.0111485	0.00550252	0.00636618	0.00200446	0.00527684	0.0075249	0.013044	0	0.0837147	0.0842785	2.19796e-08	0.0118916	0.0831556	0.0120535	0.0358837	0.0310762	0	0	0.0836642	0.0854991	0.00283126	0.00283098	0.0170562	
3.32	0.0274948	0.0064304	0.00778079	0.0042822	0.0147604	0	0.00865103	0.0731022	0.0169079	0.0166233	0.0398403	0.0532296	0.0273351	0.0518304	0	0.00201317	0.00343136	0.0325044	0.0216498	0.00396883	0.0749896	0.0824081	0.0433969	0.028632	0.0382013	0.0169454	0.0422871	0.0140531	0.0307987	0.00205005	0.0849468	0.0200777	0.0287646	0.0484134	0.0133482	0.0126021	0.0404708	0	0.00151007	0.000861671	0.0027439	0	0.0293915	0.0127588	0.0433521	0.00396896	0.0270995	0	0.0204172	0.0678754	0.046704	0.0595044	0.0205315	2.24937e-12	0.0113346	0.0234617	0.0148833	0.0113787	0.00528495	0.00634818	0.00194252	0.00534029	0.00710599	0.014752	0	0.0840153	0.0842679	1.14774e-08	0.00635656	0.083009	0.0104343	0.0359686	0.0315612	0	0	0.0836038	0.0853986	0.00260733	0.00211715	0.0173121	
3.325	0.0300607	0.00728912	0.00787171	0.00419499	0.0154327	0	0.00866095	0.0744931	0.0173113	0.0170677	0.0397831	0.053062	0.027472	0.0521185	0	0.00137174	0.00326741	0.0291468	0.0196197	0.00303192	0.0657464	0.0776525	0.0385696	0.0295854	0.0392762	0.0168596	0.0421674	0.0123083	0.031793	0.00201384	0.0849535	0.0201323	0.0288864	0.0477316	0.0129531	0.013133	0.0403705	0	8.0028e-05	0	0.00160438	6.97157e-05	0.0298578	0.0174594	0.0388633	0.00327936	0.0271166	0	0.0198457	0.0662968	0.0469507	0.0602346	0.0213547	2.17584e-12	0.0110176	0.0225917	0.0147849	0.0114563	0.00500078	0.00625068	0.000202964	0.00530575	0.00658465	0.016381	0	0.0842678	0.0842557	0	5.158e-05	0.0828879	0.00932971	0.0364409	0.032091	0	0	0.083586	0.0853012	0.00236881	0.00200549	0.0174731	
3.33	0.0328041	0.00825099	0.00797696	0.00412572	0.0161576	0	0.00869433	0.0759072	0.0178687	0.017676	0.0396892	0.0527886	0.0274207	0.0520976	0	6.47428e-08	0.00307575	0.0259822	0.0176071	0.00200056	0.0559593	0.0691128	0.0344852	0.0306174	0.0404211	0.0167372	0.0419765	0.010481	0.0327797	0.00190621	0.0849444	0.0202488	0.0290694	0.0466428	0.0125353	0.0138327	0.040209	3.20831e-06	0	0	0	2.81588e-05	0.029865	0.0207457	0.0345818	0.00260219	0.0270129	0	0.0193193	0.0647971	0.0471683	0.0609117	0.0220694	2.10044e-12	0.0107271	0.0217684	0.0147906	0.0113805	0.00465734	0.0108411	8.93048e-08	0.00515827	0.00598463	0.0177515	4.19318e-05	0.0844758	0.0842422	0	4.51776e-06	0.0827955	0.00730492	0.0372663	0.0327006	0	1.9846e-09	0.0835926	0.0852085	0.00215241	0.00200739	0.0175443	
3.335	0.0356334	0.0092911	0.00809	0.00406691	0.0169209	0.00364021	0.0087365	0.0773093	0.0185762	0.0184432	0.039554	0.052403	0.0271632	0.0517397	0	0	0.00284446	0.0231207	0.0156121	0	0.0475932	0.0592507	0.0307254	0.0317116	0.0416473	0.0165761	0.0417122	0.0085498	0.0337561	0.00119988	0.0849367	0.0204071	0.0292959	0.0451492	0.0121065	0.0147086	0.0399816	2.88424e-06	0	0	0	7.85832e-06	0.0291314	0.021945	0.0309529	0.00231218	0.0268284	3.7523e-10	0.0188382	0.0633923	0.0473614	0.061534	0.0226639	2.02413e-12	0.0104595	0.0209925	0.0149478	0.0111725	0.00428494	0.015018	0	0.00489263	0.00533105	0.0187224	2.40612e-05	0.0846439	0.0842278	0	0	0.0827326	0.00502412	0.0384278	0.0334107	0	5.04051e-09	0.0836123	0.0851216	0.00203888	0.00296064	0.0175612	
3.34	0.0387347	0.0103758	0.00820423	0.0040125	0.0177054	0.00433371	0.00877427	0.0786499	0.0194296	0.0193642	0.0393723	0.0519005	0.0266866	0.0510255	0	0	0.00258312	0.0205713	0.0137703	0	0.0412118	0.0502054	0.0270529	0.0328417	0.0429647	0.0163746	0.0413737	0.00648921	0.0347261	0.000129337	0.0849284	0.0205874	0.0295477	0.0432704	0.0116781	0.0157711	0.0396835	1.10254e-06	5.63693e-06	5.74046e-06	1.60605e-05	0	0.0280094	0.0216316	0.0279774	0.00239491	0.0266098	0	0.0184028	0.0620931	0.0475335	0.0621005	0.0231455	1.94752e-12	0.0102141	0.0202579	0.0152119	0.0109105	0.00398259	0.0183065	6.95412e-06	0.00451869	0.0046229	0.0192654	5.45494e-06	0.0847769	0.0842128	0	4.33863e-05	0.0827031	0.0036977	0.039957	0.034225	0	2.55239e-09	0.0836404	0.0850412	0.00200496	0.00581244	0.0175354	
3.345	0.0423865	0.0114822	0.0083137	0.00395688	0.0184987	0.00346421	0.00879274	0.0798828	0.0204294	0.020441	0.0391389	0.0512778	0.0259823	0.0499431	0	6.08112e-06	0.00232238	0.0182669	0.0121473	0	0.0364071	0.0431317	0.0236296	0.033984	0.0443833	0.0161318	0.0409617	0.00430244	0.0357007	0	0.0849194	0.0207668	0.0298034	0.0410457	0.0112625	0.0170183	0.0393108	5.0027e-09	2.7682e-06	1.54725e-06	1.33153e-05	0	0.0266092	0.0201722	0.0255468	0.002851	0.0264781	4.24733e-09	0.0180121	0.0609063	0.0476868	0.0626117	0.02355	1.87132e-12	0.00999562	0.0195911	0.0155416	0.0105293	0.00376992	0.0203166	4.29337e-06	0.00408354	0.00400655	0.0194805	0	0.0848795	0.0841974	0	1.22021e-05	0.0827039	0.00299944	0.0418605	0.0351446	0	6.13811e-10	0.0836422	0.0849674	0.00200001	0.00916333	0.0174598	
3.35	0.0467323	0.0125951	0.00841217	0.00389581	0.0192897	0.00373825	0.00877953	0.0809684	0.0215807	0.0216823	0.0388491	0.0505331	0.0250513	0.0481384	0	2.44488e-06	0.00210921	0.0161565	0.0106854	2.15487e-05	0.0326181	0.0377805	0.0205419	0.0351271	0.0459106	0.0158478	0.040479	0.00200304	0.0366895	0	0.0849098	0.020924	0.0300429	0.0385376	0.0108723	0.0184257	0.038861	0	8.91727e-07	2.59763e-07	3.62883e-06	0	0.0250693	0.0176709	0.0234719	0.00347386	0.0265019	4.22537e-09	0.0176658	0.0598341	0.0478206	0.0630688	0.023929	1.79566e-12	0.00980338	0.0190259	0.0159004	0.0100784	0.00366791	0.021186	2.09589e-06	0.00364297	0.00353191	0.0195015	0	0.0849558	0.084182	0	0	0.0827363	0.0025384	0.0441204	0.0361708	6.82433e-10	0	0.083405	0.0849002	0.0020006	0.012595	0.017328	
3.355	0.0518504	0.0137104	0.00849426	0.00382508	0.0200716	0.00367492	0.00872165	0.08188	0.0228897	0.0230993	0.0384992	0.0496687	0.0239027	0.0459209	0	5.44368e-07	0.0020026	0.0143302	0.00932202	8.15458e-06	0.0292674	0.0336527	0.0177119	0.0362701	0.0475534	0.0155248	0.0399303	5.0371e-07	0.0377004	2.25908e-06	0.0848992	0.0210363	0.0302447	0.035828	0.0105206	0.0199809	0.0383338	0	0	0	0	0	0.0231554	0.0148576	0.0212466	0.00399586	0.0266593	1.23101e-08	0.0173633	0.0588807	0.0479327	0.063473	0.0243253	1.72085e-12	0.00963829	0.0185462	0.0162631	0.00958316	0.00361064	0.0209022	2.84963e-07	0.00308175	0.00298729	0.0194039	0	0.085009	0.0841666	0	0	0.0827948	0.00237212	0.0468095	0.0373105	1.31097e-09	0	0.0829594	0.084839	0.00200141	0.0158264	0.017139	
3.36	0.0577418	0.0148264	0.0085546	0.00374077	0.0208358	0.00357134	0.00860693	0.0825947	0.0243571	0.0246956	0.038088	0.0486921	0.0225557	0.0434779	0	0	0.0020215	0.0128553	0.00802433	1.52404e-06	0.0263176	0.030072	0.0151006	0.0374079	0.0493154	0.0151668	0.0393229	0	0.0387384	3.31946e-06	0.0848878	0.0210813	0.030388	0.0329667	0.0102217	0.021713	0.037732	0	0	0	0	0	0.0206646	0.0126598	0.0183085	0.00445571	0.026898	0.00235325	0.0171034	0.0580436	0.0480225	0.0638257	0.0247543	1.64686e-12	0.00949898	0.0181264	0.0166031	0.00906758	0.00352076	0.0189748	0	0.00235202	0.00234904	0.0191991	0	0.0850422	0.0841513	0	0	0.0828755	0.0024114	0.0500479	0.0385686	2.07744e-09	0	0.0824296	0.0847832	0.00200192	0.0186121	0.0168968	
3.365	0.0641043	0.0159511	0.00858868	0.00363828	0.0215684	0.00345016	0.0084242	0.0831138	0.0259741	0.0264634	0.0376166	0.047614	0.021037	0.0408595	0	0	0.0018493	0.0116629	0.00680109	0	0.0238449	0.0268663	0.0129252	0.0385215	0.0512001	0.0147801	0.0386663	1.44109e-05	0.0397983	6.95523e-07	0.0848755	0.0210379	0.0304535	0.0299282	0.0099899	0.0236654	0.0370616	0	0	0	0	0	0.0174842	0.0112755	0.0142701	0.00465532	0.0271798	0.00943444	0.0168849	0.057323	0.048091	0.0641285	0.0252012	1.57386e-12	0.0093837	0.0177452	0.0168841	0.00856086	0.00342704	0.0161756	0	0.00200033	0.0020086	0.0188759	0	0.0850582	0.0841363	0	0	0.082972	0.00261616	0.0538738	0.0399441	2.01183e-09	9.5995e-11	0.0818864	0.0847322	0.00200179	0.0206684	0.0166095	
3.37	0.0702237	0.0170767	0.00859248	0.00351141	0.0222529	0.00330148	0.00816317	0.0834531	0.0277206	0.0283792	0.0370895	0.0464511	0.0193736	0.0381642	0	0	0.00104131	0.0106779	0.00569151	0	0.0218271	0.0241476	0.0111863	0.0395787	0.0532055	0.0143728	0.0379722	3.44776e-05	0.0408756	0	0.0848622	0.0208867	0.030423	0.0267364	0.00983933	0.0258502	0.0363323	0	0	0	0	0	0.014138	0.0104625	0.0105289	0.00415726	0.0274846	0.010075	0.0167063	0.0567161	0.0481407	0.0643834	0.0256363	1.50185e-12	0.00928462	0.0173796	0.0170727	0.00809255	0.00333794	0.0136187	0	0.00192632	0.00200293	0.0184466	0	0.0850599	0.0841216	0	5.25452e-08	0.0830778	0.0029532	0.0582333	0.0414378	1.51857e-09	1.63034e-11	0.0813697	0.0846854	0.00200122	0.0219986	0.0162786	
3.375	0.0755488	0.018178	0.00856273	0.00335104	0.0228713	0.00311497	0.00781502	0.0836402	0.0295619	0.0304001	0.0365141	0.0452251	0.0175846	0.0354837	0	0	0	0.00985948	0.00469744	0	0.0202109	0.0219185	0.00974207	0.0405408	0.0553254	0.0139542	0.0372538	9.64136e-06	0.0419639	0	0.0848479	0.0206103	0.0302809	0.0235125	0.00978218	0.0282386	0.035556	0	0	0	0	0	0.0115339	0.00999928	0.0075854	0.003361	0.0277985	0.00998993	0.0165658	0.0562176	0.048174	0.0645924	0.0260597	1.4311e-12	0.00918737	0.0169966	0.0171446	0.0076885	0.00325456	0.0129001	0	0.00109662	0.00155015	0.0179296	0	0.0850507	0.0841073	0	2.28451e-07	0.0831858	0.00332016	0.0630368	0.0430833	1.10938e-09	5.46801e-10	0.0809093	0.0846427	0.00200097	0.0227148	0.0158963	
3.38	0.0797528	0.0192369	0.00849715	0.00314459	0.0234054	0.00288384	0.00737234	0.0837117	0.0314478	0.0324609	0.0359011	0.0439617	0.0156954	0.0328504	0	0	0	0.00918485	0.00388806	0	0.0189485	0.0201242	0.00850791	0.0413672	0.0575476	0.0135336	0.0365256	0	0.0430552	0	0.0848324	0.0201949	0.0300146	0.0203767	0.00982787	0.0307608	0.034746	0	0	0	0	0	0.00976174	0.0097459	0.00540766	0.00231553	0.0281118	0.0103719	0.0164614	0.055823	0.0481934	0.0647577	0.0264992	0	0.00907415	0.016567	0.0170828	0.00736887	0.00318404	0.0148399	2.50536e-11	9.19099e-05	0.000764264	0.0173358	0	0.0850331	0.0840934	0	1.25462e-07	0.08329	0.00365736	0.0680796	0.044929	1.71722e-09	2.0516e-11	0.0805251	0.0846036	0.00200212	0.0229307	0.0154507	
3.385	0.0826933	0.0202461	0.00839445	0.00287625	0.0238391	0.00261821	0.00682912	0.0837053	0.0333169	0.0344929	0.0352626	0.0426891	0.0137911	0.0302358	0	0	0	0.00865012	0.00322858	0	0.0180081	0.0187099	0.00746651	0.0420174	0.0598344	0.0131208	0.0358017	0	0.0441408	0	0.0848156	0.0196296	0.0296111	0.0173656	0.00998215	0.0333036	0.0339159	0	0	0	0	0	0.00858599	0.00960047	0.00388952	0.00201454	0.0284333	0.0107457	0.016391	0.0555275	0.0482004	0.0648814	0.0269835	0	0.00893216	0.0160698	0.0168835	0.00714711	0.00313576	0.0191518	6.6366e-08	0	0.000227437	0.0166733	0	0.0850092	0.08408	1.24797e-08	3.35981e-08	0.0833972	0.0039886	0.0731116	0.0470107	1.07614e-09	7.90944e-10	0.0802274	0.084568	0.002005	0.0227811	0.0149535	
3.39	0.084408	0.0211979	0.00825449	0.00255924	0.0241597	0.00235484	0.00618463	0.0836484	0.0351258	0.0364869	0.0346124	0.0414366	0.0119733	0.0276632	0	0	4.13983e-06	0.00825969	0.00248874	0	0.0173699	0.0176403	0.00663373	0.0424549	0.0621422	0.0127245	0.0350948	0	0.045211	6.65352e-05	0.0847971	0.0189059	0.0290622	0.0145132	0.0102466	0.0357819	0.0330802	0	0	0	0	0	0.00782384	0.00948722	0.0027321	0.00160315	0.0287947	0.0109864	0.0163521	0.055326	0.0481954	0.0649659	0.0275339	0	0.00875879	0.0154976	0.0165522	0.00702998	0.0031155	0.0245892	1.4985e-07	0.000221255	0.000149799	0.0159522	0	0.084981	0.0840672	0	0	0.0835128	0.00437921	0.0779101	0.0493438	1.7306e-09	7.05095e-10	0.0800208	0.0845356	0.00200555	0.0223813	0.0144448	
3.395	0.0850584	0.0220758	0.00807846	0.00225702	0.0243584	0.00213842	0.00544599	0.0835488	0.0368836	0.0384863	0.0339648	0.0402328	0.0102689	0.0252141	0	0	1.76482e-06	0.00801372	0.00207354	0	0.0170151	0.0168971	0.00602378	0.0426503	0.0644319	0.0123529	0.0344165	0	0.0462563	0.00201506	0.0847764	0.0180161	0.0283639	0.0119946	0.010619	0.0382647	0.0322546	0	0	0	0	0	0.00731853	0.00935785	0.00200032	4.32884e-05	0.0292233	0.0111594	0.016342	0.0552122	0.0481785	0.0650138	0.0281662	1.27988e-07	0.00856132	0.0148644	0.0160689	0.00701727	0.00312352	0.0304958	4.32935e-08	0.00140049	0.000626346	0.0151866	0	0.0849496	0.084055	3.03717e-10	0	0.0835528	0.00483045	0.0822192	0.0519239	4.19045e-09	6.23632e-10	0.079905	0.0845064	0.00200078	0.0218362	0.0139586	
3.4	0.0850109	0.0228595	0.00786878	0.00204886	0.0244304	0.00201459	0.00458252	0.0833859	0.0386092	0.0404908	0.0333343	0.0391032	0.00864726	0.0229589	0	0	4.77111e-07	0.00790711	0.0020008	0	0.0169205	0.0164602	0.00563068	0.0425839	0.066666	0.0120125	0.0337773	0	0.047266	0.00346753	0.0847531	0.016953	0.0275176	0.00989281	0.0110933	0.0408148	0.0314566	0	0	0	0	0	0.0069384	0.00918535	0.00162739	0	0.0297249	0.0112764	0.0163576	0.0551788	0.0481496	0.0650279	0.0288915	1.64144e-06	0.00835254	0.0141972	0.0154613	0.0071027	0.00315503	0.0360832	0	0.00198141	0.00156957	0.0143943	0	0.0849163	0.0840438	0	0	0.0836038	0.00530846	0.0856193	0.0547198	0	5.03602e-10	0.0798759	0.0844803	0.00200055	0.0212253	0.0134848	
3.405	0.0848946	0.0235295	0.00762925	0.00200672	0.0243766	0.00201316	0.00370189	0.083107	0.0402815	0.0424519	0.0327356	0.0380698	0.00707724	0.0209275	0	0	0	0.00793136	0.00201457	0	0.0170593	0.0163005	0.00543185	0.0422475	0.0688082	0.0117093	0.033187	0	0.0482297	0.00439828	0.0847267	0.0157184	0.0265301	0.00815657	0.0116615	0.0433848	0.0307049	0	0	0	0	0	0.00983817	0.00995759	1.63383e-08	0	0.030284	0.0113231	0.0163952	0.0552169	0.0481089	0.0650119	0.0297136	0	0.00815098	0.0135247	0.0147604	0.00727558	0.00320164	0.0407682	0	0.00200013	0.00201789	0.0135872	0	0.0848812	0.0840336	1.14009e-11	0	0.0836605	0.00580082	0.0871084	0.0576748	1.34361e-09	3.77865e-10	0.079925	0.0844572	0.00200807	0.020392	0.0128221	
3.41	0.0847859	0.0240711	0.00736472	0.0019922	0.0242019	0.00198938	0.00245884	0.0826288	0.0418556	0.0443092	0.0321826	0.0371494	0.0055658	0.0191162	0	0	0	0.00807338	0.00201146	0	0.0174053	0.0163822	0.00540668	0.0416453	0.0708284	0.0114478	0.0326546	0	0.0491361	0.00528221	0.0846965	0.0143409	0.0254124	0.00671953	0.0123142	0.0458805	0.0300185	0	0	0	0	0	0.0148935	0.012012	0	4.7328e-06	0.0308608	0.0112632	0.0164503	0.0553165	0.0480568	0.0649698	0.0306211	0	0.00797409	0.012868	0.0139948	0.00752252	0.00325327	0.0438579	4.0072e-07	0.00217879	0.00201844	0.0127689	0	0.0848451	0.0840248	0	0	0.0837155	0.00632024	0.0869012	0.0607064	1.31297e-09	2.4812e-10	0.0800405	0.0844371	0.00201565	0.0193147	0.0120238	
3.415	0.0846788	0.0244749	0.00708117	0.00164665	0.0239159	0.00169572	0.00180616	0.0818418	0.0432866	0.0460056	0.0316881	0.0363537	0.00411404	0.0175037	1.28405e-09	0	0	0.00831875	0.0020003	0	0.0179346	0.0166672	0.00552964	0.0407938	0.0726953	0.0112317	0.0321881	0	0.0499739	0.00616247	0.0846624	0.0128691	0.0241766	0.00556601	0.013043	0.048206	0.0294131	0	0	0	0	0	0.0198056	0.0144357	0	1.99121e-06	0.0313959	0.0111167	0.0165181	0.0554653	0.0479942	0.064907	0.0315883	5.38248e-07	0.00782488	0.0122337	0.0131924	0.00782919	0.00404055	0.0450285	2.40908e-06	0.0026362	0.00227597	0.0119362	0	0.0848083	0.0840176	5.49601e-12	0	0.0837829	0.00686994	0.0863442	0.0636609	0	1.29169e-10	0.0802072	0.0844202	0.0018625	0.0181131	0.0111775	
3.42	0.084576	0.0247362	0.00678538	0.000859604	0.0235315	0.000968049	0	0.0806199	0.0445355	0.0474915	0.0312632	0.0356891	0.00268188	0.0160795	8.5967e-10	0	0	0.00865404	0.00206499	0	0.0186272	0.0171229	0.00576857	0.0397211	0.0743917	0.0110631	0.031794	0	0.0507351	0.00718095	0.0846241	0.0113308	0.0228428	0.00467933	0.0138415	0.050273	0.0289006	0	0	0	0	0	0.023397	0.0165027	6.60199e-06	6.12702e-07	0.031827	0.0109674	0.0165926	0.0556488	0.0479226	0.0648292	0.0325837	2.03067e-06	0.00768664	0.0116167	0.0123767	0.00818071	0.0113613	0.0446618	0	0.00314143	0.00268702	0.0111134	0	0.084771	0.0840123	1.77917e-12	2.81535e-11	0.0838696	0.00744193	0.0859525	0.0663659	4.00491e-09	4.21632e-11	0.0804071	0.0844065	0.00147518	0.0169237	0.0103407	
3.425	0.084479	0.0248552	0.00648577	0	0.0230646	0	0	0.0788472	0.0455713	0.0487273	0.0309165	0.0351583	0.00187147	0.0146058	1.84872e-10	0	0	0.00906711	0.00227759	0	0.0194693	0.0177227	0.00609525	0.0384633	0.0758924	0.010943	0.0314769	0	0.0514054	0.00835486	0.0845815	0.00971541	0.0214292	0.00410576	0.0147068	0.0520115	0.0284888	0	0.00369611	0.00296049	0	0	0.0254455	0.0179704	2.72635e-06	0	0.0320983	0.0108107	0.0166673	0.0558501	0.0478446	0.0647434	0.0335788	0	0.00753666	0.0110093	0.0115632	0.00856237	0.0194554	0.0432311	0	0.00353044	0.00308424	0.0104006	0	0.0847337	0.0840095	1.0978e-12	1.31144e-05	0.083977	0.00803127	0.0856511	0.0686886	0	4.15008e-11	0.0806202	0.0843961	0.000988379	0.0158711	0.00954689	
3.43	0.0843883	0.0248356	0.00619111	0	0.0225322	3.51075e-08	6.23499e-06	0.0764112	0.0463723	0.0496839	0.0306537	0.0347616	0	0.0127959	0	0	0	0.00954707	0.00262742	0	0.0204586	0.0184459	0.00649055	0.037062	0.0771929	0.0108711	0.0312394	0	0.0519741	0.0096673	0.0845351	0.00799347	0.0199497	0.00384714	0.0156355	0.0533706	0.0281818	0.00399607	0.00476652	0.00453051	0	0	0.0263062	0.0188558	8.46371e-07	0	0.0321608	0.010657	0.0167349	0.0560499	0.0477626	0.0646576	0.0345536	0	0.00736169	0.01041	0.0107585	0.00895902	0.0246535	0.041165	6.61365e-07	0.00384515	0.00337721	0.0098812	0	0.084697	0.0840093	9.32837e-14	0	0.0841202	0.0086342	0.0853624	0.070548	1.55098e-09	4.04941e-11	0.0808252	0.084389	0.000684665	0.0150814	0.00885791	
3.435	0.0843046	0.0246844	0.00591007	0	0.0219525	0	1.5815e-05	0.0732465	0.0469256	0.0503471	0.0304771	0.0344975	0	0.0113988	0	0	0	0.0100846	0.0030302	0	0.0216023	0.019281	0.00693979	0.0355554	0.078282	0.010846	0.031082	0	0.0524328	0.0110775	0.0844853	0.00615327	0.0184094	0.00382169	0.0166171	0.0543159	0.0279805	0.00515725	0.00504372	0.00477563	0	0	0.026316	0.0193025	0	0	0.0319744	0.0105699	0.0167876	0.0562268	0.0476795	0.0645805	0.0354976	2.04344e-07	0.00716149	0.00982422	0.00993171	0.00935582	0.0280309	0.0387325	3.52007e-06	0.00415274	0.00358667	0.00957478	0	0.0846619	0.084012	2.21929e-12	1.43463e-05	0.0842985	0.00924458	0.085082	0.0719004	0	0	0.0810004	0.0843854	0.000815765	0.0146538	0.00834845	
3.44	0.084228	0.0244105	0.00564929	3.67358e-06	0.0213429	4.47439e-06	5.2128e-06	0.0693378	0.0472273	0.0507113	0.0303867	0.0343629	7.88478e-06	0.0101662	0	0	0	0.0106728	0.00338157	0	0.0229107	0.0202264	0.00743078	0.0339434	0.0791641	0.0108653	0.0310033	0	0.0527701	0.0125452	0.0844328	0.0042098	0.0168084	0.00399653	0.0176307	0.0548369	0.0278829	0.00535912	0.00554445	0.00519602	0	0	0.0257731	0.0194243	0	0	0.0315202	0.0106021	0.0168171	0.056358	0.0475977	0.0645218	0.0364083	8.67684e-07	0.00694681	0.00926283	0.00908257	0.00973875	0.0299838	0.0360998	0	0.00447686	0.00373461	0.00945796	0	0.0846295	0.084018	2.26774e-11	2.27961e-06	0.0844919	0.00985609	0.0848122	0.0727353	0	8.0212e-10	0.0811238	0.0843851	0.00142839	0.0146037	0.00804702	
3.445	0.0841583	0.0240242	0.00541316	1.25304e-06	0.0207188	1.36888e-06	0	0.0647428	0.0472813	0.05078	0.0303797	0.0343524	1.56333e-05	0.00898201	0	0	0	0.0113078	0.00368094	0	0.0243919	0.0212897	0.0079585	0.0322013	0.0798406	0.0109254	0.0310002	0	0.0529752	0.0140419	0.0843785	0.00206104	0.0151881	0.00437264	0.0186534	0.0549375	0.0278847	0.0058445	0.00626702	0.00587067	0	0	0.0249234	0.0193026	0	0	0.0308027	0.0107249	0.0168147	0.0564196	0.047518	0.0644914	0.0372877	0	0.00673162	0.0087328	0.00822258	0.0100945	0.0309957	0.0333873	0	0.00479471	0.00382853	0.00948783	0	0.0846003	0.0840275	0	3.42506e-05	0.0846918	0.0104634	0.0845421	0.0730678	0	0	0.0811738	0.0843875	0.00198715	0.0148851	0.00794774	
3.45	0.0840951	0.0235363	0.00520669	2.98496e-07	0.0200944	6.15219e-07	0	0.0596263	0.0470984	0.0505658	0.0304514	0.0344586	3.59451e-06	0.0078117	0	0	0	0.0119874	0.00396961	0	0.0260493	0.0224809	0.00852191	0.0303243	0.080322	0.0110225	0.0310685	0	0.0530391	0.0155482	0.0843233	0	0.0136477	0.00493868	0.0196687	0.0546344	0.0279797	0.00659082	0.00702941	0.00660055	0	0	0.023971	0.018998	0	0	0.0298429	0.0108925	0.0167722	0.0563875	0.0474388	0.0644992	0.0381439	0	0.00652579	0.00823873	0.00735691	0.0104111	0.0308885	0.0306843	1.06086e-06	0.00508307	0.00386434	0.00961959	0	0.0845744	0.0840403	0	0	0.0848792	0.011063	0.0842651	0.07292	0	4.39641e-09	0.0811289	0.084392	0.00201062	0.0154084	0.00800621	
3.455	0.0840387	0.0229573	0.00503546	0	0.0194823	0	0	0.0542829	0.0466947	0.0500883	0.0305957	0.0346725	0	0.00666474	0	0	0	0.0127115	0.00430477	0	0.0278766	0.0238098	0.00912052	0.0283486	0.0806184	0.011152	0.0312027	0	0.0529535	0.0170817	0.0842681	0	0.0122396	0.00561253	0.0206669	0.0539568	0.0281606	0.00741828	0.00781803	0.00736569	0	0	0.0230622	0.0185598	0	0	0.0286793	0.0110726	0.0166816	0.0562386	0.0473527	0.0645548	0.0389912	9.21379e-08	0.00633603	0.00778572	0.00649154	0.0106777	0.0296226	0.0280901	4.15039e-06	0.00532712	0.0038337	0.00981568	3.55576e-07	0.0845516	0.0840564	0	2.60699e-05	0.0850639	0.0116532	0.0839874	0.0723177	3.32661e-10	5.36687e-07	0.080966	0.0843972	0.00240122	0.0161174	0.00820673	
3.46	0.0837695	0.0222965	0.00490504	0	0.0188925	0	0	0.0491359	0.046091	0.0493738	0.0308051	0.0349842	0	0.0055619	0	0	0	0.0134849	0.00470152	0	0.0298529	0.0252829	0.00975466	0.0263406	0.0807353	0.0113093	0.0313968	0	0.052711	0.0186615	0.0842138	0	0.0109454	0.0063666	0.0216364	0.0529425	0.0284188	0.00830479	0.0086821	0.00821388	0	0	0.0222818	0.0180259	0	0	0.0273695	0.0112428	0.0165358	0.0559519	0.0472805	0.064667	0.039848	1.55584e-07	0.00616841	0.00737957	0.00564852	0.010885	0.0273082	0.0257282	0	0.0055201	0.00372859	0.0100518	2.99836e-06	0.0845325	0.0840755	0	8.17709e-06	0.0852423	0.0122318	0.0837235	0.0712891	4.72117e-09	0	0.0812817	0.0844021	0.00307521	0.016991	0.00855351	
3.465	0.0830374	0.0215625	0.00482095	0	0.0183334	0	0	0.0444251	0.0453119	0.0484516	0.0310711	0.0353831	0	0.00447683	0	0	0	0.014322	0.00514706	0	0.0319338	0.0269037	0.0104261	0.0243586	0.0806707	0.0114897	0.0316441	0	0.0523058	0.0202856	0.084161	3.45235e-05	0.00973605	0.00720662	0.0225589	0.0516354	0.0287452	0.00926183	0.00960429	0.00913476	0	0	0.0216673	0.0174192	0	0	0.0259799	0.0113873	0.016329	0.0555096	0.0472285	0.0648428	0.0407297	8.23154e-08	0.00602828	0.00702422	0.00481814	0.011025	0.0240876	0.0237152	0	0.00565576	0.00353452	0.0103155	0	0.0845169	0.0840971	2.22323e-10	0	0.0854108	0.0127977	0.0834897	0.0698587	6.39395e-09	0	0.0815724	0.0844058	0.00361882	0.016528	0.00905129	
3.47	0.0817935	0.0207609	0.00478699	0	0.0178128	0	0	0.0402304	0.0443846	0.0473534	0.0313846	0.0358585	0	0.00353965	0	0	0	0.0152399	0.00563037	0	0.0340607	0.02867	0.0111396	0.0224435	0.0804119	0.0116885	0.0319372	0	0.0517355	0.0218985	0.0841105	1.06687e-05	0.00859667	0.00811736	0.0234099	0.0500884	0.0291298	0.0101884	0.0104743	0.0100145	0	0	0.0212298	0.0167485	0	0	0.024557	0.0114956	0.0169719	0.0551412	0.0471727	0.0650874	0.0416468	3.51176e-09	0.0059195	0.00673327	0.00403915	0.0110915	0.0199983	0.0221238	1.51272e-06	0.00572762	0.00320643	0.010603	0	0.0845033	0.0841206	1.23785e-11	1.57708e-05	0.0855663	0.013352	0.0832911	0.0680621	7.52033e-09	1.50707e-07	0.0812995	0.0844074	0.00410388	0.0147466	0.00969888	
3.475	0.0800117	0.0198945	0.00480576	0	0.0173385	3.1156e-10	0	0.0365718	0.0433378	0.046115	0.0317366	0.0364002	0	0.00232565	4.59603e-09	0	0	0.0162489	0.00616848	0	0.0362519	0.0305681	0.0119032	0.0206183	0.0799326	0.0119012	0.0322688	0	0.0509991	0.023443	0.0839999	0	0.00754038	0.00909555	0.024163	0.0483582	0.0295624	0.0110284	0.0112444	0.0108023	0	0	0.0209704	0.0160133	0	0	0.023123	0.0115657	0.018423	0.0549205	0.0472337	0.0654036	0.0426083	0	0.00584452	0.00651272	0.00337129	0.0110804	0.0145795	0.0209626	3.78716e-06	0.00573065	0.00265078	0.0109179	1.15589e-06	0.0844907	0.0841452	0	0	0.0857062	0.0138987	0.0831256	0.0659454	9.4306e-09	6.62863e-07	0.0804208	0.0844068	0.00470349	0.0132065	0.0104887	
3.48	0.0776907	0.0189636	0.00487951	0	0.0169176	2.89984e-09	0	0.0333393	0.0422009	0.0447722	0.0321175	0.0369982	0	0.00195778	4.18999e-09	7.27934e-10	0	0.017341	0.00678119	0	0.0386557	0.0325661	0.0127268	0.0188839	0.0791906	0.0121239	0.0326313	0	0.0500948	0.0248656	0.0833274	0	0.00659936	0.0101295	0.024794	0.0464991	0.0300329	0.0117941	0.0119311	0.0115145	0	0	0.0204892	0.0149896	0	0	0.0216915	0.0116065	0.0195123	0.0542755	0.047401	0.065791	0.0436231	0	0.00580079	0.00636281	0.00248778	0.010989	0.0134445	0.020116	0.00229206	0.00566167	0.00207639	0.0112642	3.32864e-06	0.0844762	0.08417	0	1.61245e-05	0.0858262	0.0144409	0.0829908	0.0635604	1.05417e-08	0	0.0791027	0.0844046	0.00537135	0.0139657	0.0114034	
3.485	0.0748494	0.0179634	0.00500974	0.00134266	0.016557	1.59488e-09	0	0.0302499	0.0410031	0.0433608	0.0325185	0.0376428	0	0	0	1.09396e-09	0	0.0185067	0.00747074	0	0.0413894	0.0346334	0.0136251	0.0172319	0.078128	0.0123526	0.0330174	0	0.0490324	0.0261123	0.0819618	0	0.00581312	0.0112048	0.0252812	0.0445671	0.030531	0.0125056	0.012554	0.0121715	1.57326e-11	0	0.019646	0.0136419	0	0	0.0202786	0.0116337	0.0195972	0.0529786	0.0476101	0.0662458	0.0447007	0	0.00578879	0.00628753	0.00200075	0.0108167	0.0150488	0.0193542	0.00200215	0.00551954	0.00197441	0.0116504	0	0.0844539	0.0841939	0	4.08132e-06	0.0859233	0.0149798	0.0828855	0.060984	1.0975e-08	0	0.0774873	0.0844011	0.00605746	0.0144679	0.012414	
3.49	0.0715262	0.016889	0.00519633	0.00218187	0.0162621	4.30287e-10	0	0.0272917	0.0397722	0.0419144	0.0329311	0.0383239	0	0	0	4.23271e-10	0	0.0197532	0.00823983	0	0.044525	0.0368349	0.0146208	0.0156875	0.0766866	0.0125844	0.0334201	0	0.0478177	0.0271228	0.0799152	0	0.00519736	0.0123107	0.0256063	0.042615	0.0310466	0.0131511	0.0131034	0.0127614	9.6544e-12	0	0.0186038	0.0121881	0	0	0.0189019	0.0116643	0.0171947	0.0511327	0.0478427	0.0667609	0.0458478	0	0.00581222	0.00629261	0.00186556	0.0105645	0.0172103	0.0187354	0.00179765	0.0053041	0.00200943	0.0120879	0	0.0844223	0.0842159	7.91213e-11	3.91717e-06	0.0859963	0.0155147	0.0828097	0.058305	1.10098e-08	8.74385e-08	0.0756067	0.0843961	0.00676946	0.0144663	0.0134851	
3.495	0.0677788	0.0157472	0.00543942	0.00267719	0.0160379	1.17888e-09	0	0.0246859	0.0385334	0.0404642	0.0333477	0.0390312	0	0	0	1.13059e-10	0	0.0211085	0.00909152	0	0.0481233	0.0393398	0.0157431	0.0143241	0.0747994	0.0128163	0.0338331	0	0.046464	0.0278591	0.0772336	0	0.00475001	0.0134423	0.0257544	0.0406891	0.0315704	0.0137341	0.0136143	0.0132897	1.04137e-11	0	0.0175932	0.0108835	0	0	0.017574	0.0117152	0.0143999	0.0494759	0.0482061	0.0673262	0.0470672	0	0.00587432	0.00635874	0.000801846	0.0121396	0.0192794	0.0182891	0.00144506	0.00501511	0.00349724	0.0125868	3.52555e-07	0.0843987	0.084235	0	0.00135451	0.0860444	0.0160423	0.0827646	0.0556328	1.01627e-08	1.18813e-07	0.0734586	0.0843923	0.00747843	0.0148589	0.0145781	
3.5	0.0637072	0.0145683	0.00574039	0.00306501	0.0158884	3.57022e-09	0	0.0224189	0.0373088	0.0390373	0.0337617	0.0397543	0	1.44443e-05	0	0	0	0.0226027	0.0100212	0	0.0522309	0.0422819	0.0170009	0.0131785	0.0724099	0.0130459	0.0342507	0	0.0449884	0.0282982	0.0739921	0	0.00449608	0.0146025	0.0257138	0.0388279	0.0320937	0.0143145	0.0142065	0.0138568	0	0	0.0169651	0.00998322	4.08934e-11	0	0.0163119	0.011803	0.0130964	0.0480046	0.0486651	0.0679294	0.0483566	0	0.00597793	0.00646378	0	0.0164174	0.0205464	0.0180033	1.58218e-06	0.00465417	0.00502109	0.0131546	1.14562e-06	0.0843961	0.0842501	0	0.00419253	0.0860677	0.0165581	0.0827513	0.0530749	7.93268e-09	6.05899e-08	0.0710369	0.0843946	0.00815545	0.0153311	0.0156504	
3.505	0.0594363	0.0133878	0.00610396	0.00350581	0.0158176	5.83818e-09	0	0.020501	0.0361159	0.0376559	0.0341678	0.0404835	0	4.13694e-06	0	0	0	0.024254	0.0110233	1.08268e-09	0.0568761	0.0457775	0.0183809	0.0122283	0.0694861	0.0132712	0.034668	0	0.0434118	0.02846	0.0702917	0	0.00443548	0.0158036	0.0254762	0.0370599	0.0326088	0.0149498	0.0147692	0.0144483	0	0	0.0170406	0.00963998	1.05828e-10	0	0.015148	0.0119432	0.0126191	0.0465277	0.0491288	0.0685556	0.0497079	0	0.00612513	0.00660284	0	0.0203734	0.021012	0.0178478	4.56817e-06	0.00424409	0.00612214	0.0137961	0.00356489	0.0844193	0.0842606	0	0.00344594	0.0860672	0.0170594	0.0827664	0.0507	2.46752e-09	4.04002e-09	0.0681876	0.0844054	0.0087787	0.015815	0.0166567	
3.51	0.055147	0.0122162	0.00653618	0.003934	0.0158289	0	0	0.0188906	0.0349631	0.0363363	0.0345614	0.0412094	0	0	0	0	0	0.0260663	0.012098	7.94695e-10	0.0619519	0.0499409	0.019891	0.011441	0.0660279	0.0134904	0.0350805	0	0.0417571	0.0284047	0.0662658	0	0.00455546	0.017047	0.0250369	0.0353989	0.0331094	0.0155326	0.0152876	0.0149913	2.4575e-11	0	0.0181503	0.00996827	1.61486e-10	0	0.0141214	0.01215	0.0121883	0.0450489	0.0495655	0.0691881	0.0511093	0	0.00631864	0.00677942	0	0.0234223	0.0208139	0.0177904	0	0.00564618	0.00693312	0.0145127	0.0045228	0.0844671	0.0842657	0	0.00315009	0.0860444	0.0175445	0.0818831	0.0485475	0	0	0.0650665	0.0844228	0.00932779	0.0153489	0.017552	
3.515	0.0510641	0.011039	0.00703743	0.00443522	0.0159263	0	0	0.0175497	0.0338506	0.0350843	0.034939	0.0419236	0	0	0	3.15214e-09	0.00515269	0.028028	0.0132506	0	0.0671199	0.0548772	0.0215828	0.0107976	0.0620835	0.0137018	0.0354847	0	0.04005	0.0280872	0.0620615	0	0.00484302	0.0183137	0.0243946	0.0338305	0.0335909	0.0160726	0.0157757	0.0155023	8.64027e-10	0	0.0201494	0.0109958	2.14153e-10	0	0.0132528	0.0124357	0.0116585	0.0436205	0.0499531	0.0698091	0.0525393	0	0.00656022	0.00699769	0.00133287	0.0253801	0.0202554	0.0178021	5.044e-06	0.00943637	0.00762036	0.0153019	0.0038231	0.0845336	0.084265	2.38445e-13	0.00325982	0.0860015	0.0180134	0.0798334	0.0466385	0	0	0.0620389	0.0844413	0.00978683	0.0139994	0.0182971	
3.52	0.0472925	0.00983459	0.00760453	0.00504384	0.0161129	0	0	0.016463	0.0327753	0.0338946	0.0352978	0.0426183	0	0	0	0.00397832	0.00415764	0.0301049	0.0144944	0	0.0720406	0.0606226	0.0235213	0.0102881	0.0577761	0.013904	0.0358771	0	0.0383162	0.027514	0.0578565	0	0.00526643	0.0195843	0.0235524	0.0323276	0.0340497	0.0165888	0.0162423	0.0159965	0.00376955	0	0.022498	0.0125389	2.65871e-10	0	0.0125391	0.0128097	0.0111382	0.042284	0.0502926	0.0704017	0.0539723	0	0.00684788	0.00725662	0.00201707	0.0257822	0.0195798	0.0178544	2.22135e-06	0.0156596	0.0083333	0.0161527	0.00368352	0.0846107	0.0842582	5.76521e-13	0.00326807	0.0859411	0.0184673	0.0772256	0.044983	0	0	0.0592578	0.0844554	0.0101436	0.0125977	0.018864	
3.525	0.0438601	0.00858251	0.00823615	0.0057164	0.0163913	0	0	0.0156209	0.0317378	0.0327585	0.0356357	0.043287	0	0	0	0.0047346	0.0046943	0.0322313	0.0158562	0	0.0764166	0.0668153	0.0257454	0.00990746	0.0533216	0.0140961	0.036255	0	0.0365787	0.0267079	0.0538489	0	0.00578935	0.020855	0.0225176	0.0308783	0.0344836	0.0170832	0.0166878	0.0164734	0.00390847	0	0.0248061	0.0142586	1.46449e-09	0.00337992	0.0119653	0.0132786	0.0106974	0.0410745	0.0505855	0.0709495	0.0553784	0	0.00717251	0.00754818	0.00200942	0.0249279	0.0189226	0.0179187	1.09108e-06	0.021249	0.00895035	0.0170415	0.00371768	0.0846894	0.0842455	5.07675e-13	0.00317311	0.0858658	0.0189082	0.0745278	0.0435817	0	0	0.0567485	0.084461	0.0103885	0.0116028	0.0192365	
3.53	0.0407756	0.00728554	0.00892853	0.00646875	0.0167653	0	0	0.0149981	0.0307433	0.0316729	0.0359512	0.0439244	0	0	0	0.00413429	0.0054013	0.0343327	0.0173321	0.00550841	0.0800078	0.0728834	0.028257	0.00965551	0.0489843	0.014277	0.036616	0	0.0348445	0.0256845	0.0501941	0	0.0064047	0.022127	0.021301	0.0294957	0.034891	0.0175405	0.0171006	0.0169181	0.00361597	0	0.0269463	0.015847	2.69774e-09	0.00380418	0.0115213	0.0138453	0.0103401	0.0400238	0.0508314	0.0714367	0.0567245	0	0.00751728	0.00785881	0.00221667	0.0235933	0.018326	0.0179668	8.40975e-08	0.0236899	0.00916813	0.0179323	0.00366616	0.0847625	0.0842267	4.17476e-13	0.0030847	0.0857787	0.0193387	0.0719202	0.0424265	0	0	0.0545607	0.0844563	0.0105139	0.0110277	0.0194086	
3.535	0.0380327	0.00597224	0.00967281	0.00730878	0.0172192	0	0	0.0145564	0.0298015	0.0306419	0.0362437	0.044526	0	0	0	0.00471615	0.0060594	0.0364276	0.0188915	0.00584367	0.0826423	0.0782741	0.031006	0.00953178	0.044913	0.0144463	0.036958	0	0.0330759	0.02446	0.0469234	0	0.0071057	0.0233918	0.019915	0.0282013	0.035271	0.0179518	0.0174728	0.0173204	0.00383554	0.00347925	0.028933	0.0171233	7.4536e-11	0.00353212	0.011207	0.0145095	0.0100665	0.0391584	0.0510289	0.0718494	0.0579737	0	0.00786198	0.00817028	0.00264155	0.0223721	0.0177835	0.0179722	0	0.0236377	0.00895392	0.018784	0.00356586	0.084824	0.0842024	3.50184e-13	0.0030128	0.0856828	0.0197618	0.0694743	0.0415045	0	0	0.0527592	0.0844414	0.0105145	0.0106923	0.0193813	
3.54	0.0356033	0.00466626	0.0104583	0.00821671	0.0177675	0	0	0.0142565	0.0289214	0.0296753	0.0365125	0.045089	0	0	0.000606178	0.0051717	0.00682412	0.0386114	0.0205471	0.00558397	0.0842463	0.0824741	0.0338677	0.00953095	0.0411802	0.0146033	0.0372794	0.00670312	0.0311989	0.0230561	0.044023	0	0.00787643	0.0246318	0.0183692	0.0270092	0.035623	0.0183104	0.0177975	0.0176723	0.0039642	0.00636827	0.0307081	0.0180068	1.1347e-10	0.00373251	0.0110256	0.0152655	0.00989047	0.0384999	0.0511778	0.0721754	0.059089	0	0.00818484	0.00846174	0.00311375	0.0214237	0.0172781	0.0179124	0	0.0226556	0.0083982	0.0195585	0.00348002	0.0848708	0.0841726	3.10075e-13	0.00294227	0.0855809	0.0201805	0.0672405	0.0407988	0	0	0.0513805	0.0844175	0.0103871	0.0104334	0.0191598	
3.545	0.0333882	0.00348674	0.0112751	0.00917862	0.01839	0	0	0.0140672	0.0281085	0.0287811	0.0367579	0.0456114	0	0	0.0060105	0.00563971	0.00768491	0.0409042	0.0223465	0.00660197	0.0848482	0.0850462	0.0368011	0.00964299	0.0378252	0.014748	0.0375792	0.00934631	0.0292311	0.0214956	0.0414757	0	0.0087098	0.0258292	0.016669	0.0259251	0.0359469	0.0186048	0.018064	0.0179619	0.00402581	0.00665431	0.0319674	0.0184636	9.96074e-11	0.003894	0.0109779	0.0161	0.00982842	0.0380663	0.0512781	0.072404	0.0600305	0	0.00838032	0.0086919	0.0034764	0.0206597	0.0167971	0.0177688	0	0.0217075	0.00722588	0.0202288	0.00341485	0.0849013	0.0841379	2.80348e-13	0.00287266	0.0854759	0.0205974	0.0652599	0.0402889	0	3.67079e-09	0.050453	0.0843864	0.0101314	0.0101511	0.0187527	
3.55	0.0312673	0.00205048	0.0121153	0.0101717	0.0190829	0	0	0.0139652	0.0273654	0.0279634	0.0369802	0.046092	0	0	0.0036201	0.00618196	0.00860105	0.043264	0.0243117	0.00747809	0.0847912	0.0856974	0.0400554	0.00985571	0.0348315	0.0148802	0.0378565	0.0104394	0.0272227	0.0197996	0.0392583	0	0.0095946	0.0269685	0.0148477	0.0249496	0.0362429	0.0188227	0.0182609	0.0181766	0.00409033	0.00705392	0.0323319	0.0184589	1.45088e-10	0.00397444	0.0110586	0.0169879	0.00989141	0.0378741	0.0513299	0.0725251	0.0607615	0	0.0084055	0.00883386	0.00375604	0.020014	0.0163338	0.0175286	0	0.0196116	0.00519819	0.0207803	0.00336856	0.0849154	0.0840985	2.53407e-13	0.00280882	0.0853704	0.0210143	0.0635524	0.0399495	0	0	0.0500038	0.0843496	0.00975042	0.00977936	0.0181706	
3.555	0.0292231	0.000311545	0.0129713	0.0111743	0.0198378	0	0	0.0139353	0.0266926	0.0272234	0.0371802	0.0465307	0	0	0.00408821	0.00678052	0.00954467	0.0456252	0.0264199	0.00842307	0.0846902	0.0856089	0.0438043	0.0101561	0.0319763	0.0150002	0.0381109	0.0117627	0.0252318	0.0179813	0.0373432	0	0.0105167	0.0280376	0.0129946	0.0240799	0.0365115	0.0189535	0.0183783	0.0183061	0.00415578	0.00806436	0.0314077	0.0179242	1.67597e-10	0.00404163	0.0112565	0.0178945	0.0100849	0.0379393	0.0513324	0.0725287	0.061246	0	0.00835652	0.00890138	0.00399771	0.0194777	0.0149972	0.015508	3.32748e-09	0.0161002	0.00228506	0.0212068	0.00332741	0.0849137	0.0840546	2.26984e-13	0.00275208	0.0852666	0.0214326	0.0621175	0.0397522	0	0	0.0500633	0.0843078	0.00925119	0.00926505	0.0174262	
3.56	0.0273096	0	0.0138396	0.0121729	0.0206515	0	0	0.0139707	0.0260886	0.0265596	0.0373589	0.046928	0	0	0.00426353	0.00742918	0.0104874	0.0479128	0.0286232	0.00945308	0.0845993	0.0855192	0.048092	0.0105326	0.0291297	0.0151083	0.0383426	0.0136858	0.0233032	0.0160517	0.0356983	0	0.0114682	0.0290276	0.0111814	0.0233105	0.0367536	0.0189882	0.0184085	0.0183419	0.00421422	0.00935234	0.0287156	0.0167437	1.90027e-10	0.00410676	0.0115534	0.0187837	0.0104102	0.0382798	0.0512838	0.0724048	0.0614485	0	0.00823176	0.00888487	0.004222	0.0190482	0.0126153	0.0095904	2.5127e-09	0.0133579	2.56259e-05	0.0215078	0.00329645	0.0848975	0.0840064	2.01156e-13	0.00270283	0.0851675	0.0218535	0.0609384	0.0396653	0	0	0.050669	0.0842617	0.00864559	0.0085399	0.0165361	
3.565	0.0255614	0	0.0147221	0.0131568	0.0215132	0	0	0.0140712	0.0255512	0.0259695	0.0375176	0.0472851	0	0	0.00436635	0.0080954	0.0114064	0.0500516	0.0308467	0.0105065	0.0845096	0.0854347	0.0528904	0.0109739	0.0263716	0.0152047	0.0385518	0.0159161	0.0214662	0.0140702	0.0342771	0	0.0124448	0.029932	0.00941582	0.0226352	0.0369703	0.0189219	0.0183469	0.0182789	0.0042643	0.0106842	0.0240048	0.0147724	2.08772e-10	0.00415829	0.0119288	0.0196296	0.0108652	0.0389165	0.0511799	0.0721428	0.061336	0	0.00801954	0.0087808	0.00441776	0.0187248	0.00936947	0.00108271	9.67746e-10	0.0109696	0	0.0216945	0.00488047	0.0848681	0.0839542	1.76695e-13	0.00265941	0.0850738	0.0222777	0.0599894	0.0396617	0	0	0.0518673	0.084211	0.00795026	0.00754848	0.0155215	
3.57	0.0239828	2.28667e-05	0.0156204	0.0141204	0.0224103	0	0	0.0142439	0.0250766	0.0254492	0.0376575	0.0476035	0	0	0.00455567	0.00875197	0.0122903	0.0519883	0.0330008	0.0115527	0.0844293	0.0853505	0.058113	0.0114724	0.0238072	0.0152902	0.0387393	0.0181879	0.0197298	0.0121335	0.0330418	0.00359135	0.0134509	0.0307483	0.00767625	0.0220464	0.0371628	0.0187524	0.0181921	0.0181155	0.00575373	0.0128456	0.0181847	0.0121345	2.25054e-10	0.00419614	0.0123581	0.0204172	0.0114459	0.0398757	0.0510146	0.0717309	0.0608764	0	0.00772023	0.00859	0.00457016	0.0184527	0.00408439	3.61502e-05	2.37632e-10	0.00753566	6.1027e-05	0.02178	0.0099684	0.0848265	0.0838979	1.53559e-13	0.00262356	0.0849883	0.0227052	0.0592384	0.0397131	0	0	0.0537243	0.0841554	0.00718753	0.0062311	0.0144137	
3.575	0.0225626	9.01595e-06	0.016519	0.0150646	0.0233237	0	0.00233672	0.0145011	0.0246607	0.0249939	0.03778	0.0478855	0	0	0.0048189	0.00939208	0.013129	0.0536907	0.0350353	0.0125765	0.0843631	0.0852747	0.0635006	0.0120219	0.0214811	0.0153654	0.038906	0.0204726	0.0180879	0.0102894	0.0319843	0.00696805	0.014497	0.0314765	0.00596584	0.0215367	0.0373327	0.0184826	0.0179468	0.017854	0.00772444	0.0153467	0.0127237	0.0093846	2.37795e-10	0.00422087	0.0128161	0.0211405	0.0121472	0.0411899	0.0507802	0.0711562	0.0600415	0	0.00734691	0.00832176	0.00467316	0.0181683	0	0	1.0885e-10	0.00514993	3.25427e-05	0.0217819	0.0158576	0.0847738	0.0838377	1.31872e-13	0.00260263	0.0849117	0.0231351	0.0586499	0.0397968	0	0	0.0563172	0.0840941	0.00638262	0.00454306	0.0132541	
3.58	0.0212796	1.08918e-06	0.0173927	0.015991	0.0242289	0	0.00677492	0.0148604	0.024299	0.0245984	0.0378866	0.0481333	0	0.00203882	0.00511525	0.0100011	0.0139199	0.055153	0.0370224	0.0135718	0.0843146	0.0852114	0.068651	0.0126187	0.0193834	0.015431	0.039053	0.0229443	0.0165406	0.00852579	0.0311173	0.00797427	0.015607	0.0321191	0.00430852	0.0210982	0.0374816	0.0181185	0.017617	0.0175009	0.0089942	0.0176624	0.00858752	0.00702036	2.4649e-10	0.00423304	0.0132785	0.0217968	0.0129657	0.0428996	0.0504672	0.0704046	0.0588117	0	0.00691374	0.00798825	0.00472705	0.0180012	0	4.33421e-05	1.91752e-10	0.00435362	0	0.0217198	0.0209328	0.0847111	0.0837739	1.11669e-13	0.00258436	0.084845	0.023566	0.0581874	0.0398938	9.11912e-20	0	0.0597114	0.0840267	0.00557637	0.00214297	0.0120902	
3.585	0.0201091	0	0.0182211	0.016884	0.025099	0	0.00773185	0.0153434	0.0239866	0.0242574	0.0379788	0.0483494	0	0.00418893	0.00542789	0.0105697	0.0146707	0.0564047	0.0390442	0.0145393	0.0842866	0.0851637	0.0733034	0.0132635	0.017477	0.0154877	0.0391817	0.025729	0.0151318	0.00682037	0.0304593	0.00862281	0.016792	0.0326809	0.00271721	0.0207232	0.037611	0.017669	0.0172113	0.0170654	0.00901566	0.019055	0.00606801	0.00541159	2.50762e-10	0.00423326	0.0137234	0.0223857	0.0139042	0.0450506	0.0500652	0.0694626	0.0571782	0	0.00643483	0.00760278	0.00473627	0.0180963	2.03986e-05	0	2.94649e-10	0.0039565	0	0.0216176	0.024513	0.08464	0.0837067	9.32176e-14	0.00256773	0.0847887	0.0300948	0.0578167	0.0399895	0	0	0.0639048	0.0839527	0.00477243	0	0.0109631	
3.59	0.0190236	0	0.0189907	0.0177212	0.0259048	5.53265e-09	0.00804517	0.0159717	0.0237187	0.0239652	0.038058	0.0485366	0	0.00541255	0.00574611	0.0110939	0.0153827	0.0574852	0.0411123	0.0154978	0.0842802	0.0851336	0.0773207	0.0139629	0.0157705	0.0155365	0.0392935	0.0287682	0.0139187	0.00518376	0.0300207	0.00969321	0.0180417	0.0331684	0.00173789	0.0204043	0.0377228	0.0171435	0.016739	0.0165583	0.00802069	0.0200351	0.0045981	0.00456655	2.50489e-10	0.00422252	0.0141323	0.0229076	0.0149742	0.0476924	0.0495642	0.0683165	0.0551534	0	0.0059278	0.00717867	0.00470808	0.0182797	2.58096e-05	0	1.45237e-09	0.00437364	0	0.0215029	0.0264801	0.084562	0.0836366	7.60808e-14	0.00255333	0.0847424	0.0389045	0.0575071	0.0400733	1.4909e-19	0	0.0687925	0.0838724	0.00402901	0	0.00989671	
3.595	0.017996	0	0.0196928	0.0184863	0.0266193	6.06269e-09	0.00881801	0.0167625	0.0234904	0.0237164	0.0381256	0.0486977	0	0.00629938	0.00606381	0.0115715	0.0160456	0.0584773	0.0432165	0.0164501	0.0842955	0.0851216	0.0806191	0.0147262	0.0143369	0.0155782	0.0393899	0.0318976	0.0129015	0.0036736	0.0298029	0.0111088	0.0193548	0.0335891	0	0.0201345	0.0378188	0.0165503	0.0162086	0.0159905	0.0068941	0.0213106	0.00359459	0.0039435	2.45725e-10	0.00420241	0.0144908	0.0233641	0.0161872	0.0508704	0.0489533	0.0669543	0.0527751	0	0.00540526	0.00672902	0.00465148	0.0184108	0	0	2.65096e-09	0.00817832	0	0.0213978	0.0275913	0.0844793	0.0835643	6.06374e-14	0.00254031	0.0847058	0.0449178	0.0572325	0.0401384	0	0	0.074141	0.0837867	0.00340054	0	0.00890046	
3.6	0.0170056	0	0.0203197	0.0191709	0.0272188	0	0.0100216	0.0177258	0.0232965	0.0235055	0.0381832	0.0488355	6.71115e-09	0.00728665	0.00637619	0.012002	0.0166447	0.0595079	0.0453468	0.0173806	0.0843307	0.0851269	0.0831398	0.0155629	0.0131912	0.0156136	0.0394727	0.0349499	0.0120451	0.00203183	0.0298005	0.0126373	0.0207583	0.0339505	0	0.0199073	0.0379008	0.015895	0.0156255	0.0153703	0.00600955	0.0230642	0.00258103	0.00316688	2.36685e-10	0.00417458	0.0147892	0.0237573	0.0175335	0.0546165	0.0482216	0.0653666	0.0500989	0	0.00486254	0.00626839	0.00457619	0.0184843	0	0	1.07033e-10	0.0145993	5.64105e-08	0.0213134	0.0283603	0.0843749	0.0834906	4.66507e-14	0.00252744	0.0846778	0.0474246	0.0569716	0.0401813	0	1.28957e-09	0.0795136	0.0836967	0.00257835	0	0.00798074	
3.605	0.0160451	0	0.020864	0.0197704	0.0276863	2.33882e-11	0.0113396	0.0188685	0.0231324	0.0233271	0.038232	0.0489528	0	0.00851419	0.00667755	0.0123864	0.01717	0.0606261	0.0474978	0.0182772	0.0843829	0.0851473	0.0848005	0.016474	0.0122775	0.0156437	0.0395433	0.037931	0.0113149	0.00011033	0.0300029	0.0142404	0.0222937	0.03426	1.49552e-05	0.0197161	0.0379705	0.0151835	0.0149941	0.0147056	0.00538931	0.0252438	0.00202165	0.00210184	2.23729e-10	0.00414101	0.0150235	0.0240906	0.0189904	0.0589373	0.0473595	0.0635477	0.0472022	0	0.00432105	0.0058115	0.00449186	0.0185021	0	0	1.52335e-10	0.0173534	4.2741e-07	0.0212431	0.0288695	0.084121	0.0834164	3.44427e-14	0.00251433	0.0846571	0.0479041	0.0567091	0.0402013	0	6.92372e-11	0.0840799	0.0836039	0.00201891	0	0.00714433	
3.61	0.0151204	0	0.0213198	0.0202829	0.0280129	0	0.0126769	0.0202109	0.0229934	0.0231759	0.0382733	0.0490527	0.00200962	0.00995297	0.00696438	0.0127284	0.0176173	0.0618924	0.0496715	0.0191376	0.0844478	0.0851796	0.0854608	0.0174506	0.0115383	0.0156694	0.0396036	0.0409892	0.0106859	0	0.0303959	0.0159702	0.0239942	0.0345249	1.5633e-05	0.0195548	0.0380298	0.0144204	0.0143157	0.0139988	0.00496294	0.0277688	0.00202099	0.00194637	0	0.00410384	0.015195	0.0243684	0.0205585	0.0637196	0.046355	0.0614975	0.0441783	0	0.00384558	0.00536364	0.00440746	0.0184478	0	2.31549e-07	1.47466e-10	0.0170609	2.42606e-07	0.0211623	0.0290893	0.0836253	0.0833429	2.3319e-14	0.00250063	0.084642	0.0478453	0.0564351	0.0402015	0	1.36819e-11	0.0860241	0.0835097	0.00196121	0	0.00639366	
3.615	0.0142417	0	0.0216857	0.0207089	0.0281982	0	0.0140736	0.0218001	0.0228747	0.0230471	0.0383085	0.049138	0.00505577	0.0115353	0.00723561	0.013034	0.0179882	0.0633435	0.051941	0.019966	0.0845205	0.0852197	0.0854617	0.0184845	0.0109333	0.0156914	0.0396552	0.0441697	0.0101379	0	0.030961	0.0178526	0.0258778	0.0347526	2.83298e-06	0.0194173	0.0380804	0.0136026	0.0135839	0.0132431	0.00467863	0.0305601	0.00191193	0.000826903	0	0.00406529	0.0153107	0.0245957	0.0222702	0.0687651	0.0452002	0.0592221	0.0411284	8.70977e-09	0.00338439	0.00492118	0.00433056	0.0183009	1.91136e-07	1.48755e-07	2.00518e-10	0.0162789	6.72387e-08	0.0210359	0.0289764	0.0828626	0.0832713	1.39694e-14	0.00248647	0.0846308	0.047757	0.0561453	0.0402007	0	0	0.0861533	0.0834157	0.000987458	9.55723e-06	0.00573641	
3.62	0.0134073	0	0.0219658	0.0210526	0.0282504	0	0.0155673	0.0236936	0.0227719	0.0229354	0.0383388	0.0492116	0.00639126	0.0132279	0.00749282	0.0133093	0.0182885	0.0649972	0.0543076	0.0207699	0.084595	0.0852629	0.0854444	0.0195779	0.0104302	0.0157108	0.0396998	0.0474269	0.00965252	2.61376e-05	0.0316744	0.0198942	0.0279518	0.0349505	0	0.019298	0.0381241	0.0127434	0.0128088	0.0124482	0.0044987	0.0335009	0.00174681	0	1.60671e-07	0.00402746	0.0153827	0.0247794	0.0241541	0.0738403	0.0439004	0.0567357	0.0381475	7.29689e-09	0.0027781	0.00449317	0.00426742	0.0180464	2.7782e-07	4.88907e-08	2.3089e-10	0.0156984	0	0.0208249	0.0282585	0.0818271	0.0832026	6.27139e-15	0.00247184	0.0846214	0.0476498	0.0558403	0.0401972	2.64986e-22	1.70012e-11	0.0861351	0.0833233	0	8.85492e-06	0.0051553	
3.625	0.0126092	0	0.0221701	0.0213227	0.0281853	0	0.0171644	0.0259343	0.0226805	0.0228362	0.0383654	0.0492763	0.00708803	0.0150359	0.00773956	0.0135607	0.0185282	0.0668466	0.0567861	0.0215658	0.0846656	0.0853046	0.0854498	0.0207458	0.0100007	0.0157284	0.0397392	0.0507148	0.00921629	8.36749e-06	0.0325073	0.022163	0.0302046	0.0351262	0	0.0191912	0.0381626	0.0118721	0.0120178	0.0116409	0.0044721	0.0365193	0.00166387	0	1.53787e-06	0.00399256	0.015427	0.0249272	0.0262086	0.0786555	0.0424735	0.0540629	0.0353072	6.33673e-09	0.00218553	0.00411064	0.00422351	0.0176769	1.25607e-07	2.40457e-09	2.6035e-10	0.0151483	0	0.0204945	0.0265078	0.0805146	0.0831381	0	0.00245706	0.0846117	0.04748	0.0555255	0.0401928	1.77972e-22	1.69543e-11	0.0862002	0.0832341	0	0	0.00462325	
3.63	0.0118372	0	0.0223126	0.021533	0.0280257	0	0.0188554	0.0285342	0.0225962	0.0227445	0.0383895	0.0493349	0.00790862	0.0169548	0.00798076	0.0137955	0.0187202	0.0688561	0.0593558	0.0223847	0.0847261	0.0853401	0.0854507	0.0220055	0.00961939	0.015745	0.039775	0.0540097	0.00881573	0	0.0334279	0.0247685	0.0325905	0.0352872	0	0.0190916	0.0381977	0.0109828	0.01122	0.010829	0.0046194	0.0398021	0.00167975	0	0	0.0040117	0.0154624	0.0250477	0.0284065	0.0827897	0.0409457	0.0512398	0.0325965	5.17519e-09	0.0020065	0.00378848	0.00420384	0.0171915	2.64177e-08	0	2.85057e-10	0.0145107	0	0.0200523	0.0233419	0.0789378	0.0830788	1.40132e-08	0.00244245	0.084601	0.0472647	0.0552111	0.0401974	7.0163e-23	9.92272e-12	0.086228	0.0831496	0	4.22303e-05	0.00416175	
3.635	0.0110814	0	0.0224117	0.0217004	0.0277998	0	0.020657	0.0314373	0.0225146	0.0226557	0.0384123	0.0493903	0.00904335	0.0189584	0.00822259	0.0140217	0.0188797	0.0709682	0.0619835	0.0232041	0.0847714	0.0853653	0.0854491	0.0233677	0.00926311	0.0157617	0.0398091	0.057307	0.00843506	0	0.0344051	0.0277555	0.0350543	0.0354413	0	0.0189937	0.0382309	0.00989492	0.0103472	0.0098571	0.00491364	0.043544	0.00175697	4.63133e-06	0	0.00413579	0.0155094	0.0251499	0.0306997	0.0854363	0.0393407	0.0483062	0.0298861	4.30226e-09	0.00183063	0.00348135	0.00421318	0.0165963	0	0	3.05968e-10	0.0138287	0	0.0195289	0.0186228	0.0771131	0.0830259	0	0.00242828	0.0845869	0.0470365	0.0549186	0.0402209	7.46181e-24	1.66448e-12	0.0862156	0.083071	5.37152e-06	0	0.00378419	
3.64	0.0103351	0	0.0224882	0.0218444	0.0275393	0	0.0226257	0.0344568	0.0224314	0.0225651	0.038435	0.0494453	0.0103495	0.0210611	0.00847186	0.0142499	0.0190236	0.0730994	0.0646385	0.0240508	0.0847966	0.0853766	0.0854441	0.0248327	0.0089072	0.0157792	0.0398431	0.0606011	0.00805717	0	0.0354171	0.031073	0.0376896	0.0355963	0	0.0188922	0.0382641	0.00866081	0.00923546	0.00871976	0.00531655	0.0478045	0.00185319	6.5025e-07	3.16289e-07	0.00437301	0.015589	0.0252421	0.0330172	0.0858735	0.037623	0.0453057	0.0269404	3.53972e-09	0.000510572	0.00313511	0.00425689	0.0159083	0	0	3.2187e-10	0.0131308	2.18438e-08	0.0189497	0.0210336	0.075067	0.0829803	0	0.00241488	0.0845674	0.0468115	0.0546621	0.0402717	0	1.53808e-10	0.0861819	0.0829981	1.52052e-06	5.51171e-06	0.00341391	
3.645	0.0095922	0	0.022565	0.0219859	0.0272784	1.93646e-09	0.0248096	0.0375496	0.0223424	0.0224682	0.0384587	0.0495026	0.0116981	0.0233303	0.00873569	0.0144896	0.0191699	0.0751616	0.0672897	0.0249366	0.0847975	0.0853708	0.0854337	0.0263946	0.0085265	0.0157984	0.0398787	0.0638873	0.00766429	0	0.0364465	0.0345817	0.0406904	0.0357598	0	0.0187821	0.0382989	0.0073231	0.00800924	0.00749074	0.00580051	0.0525766	0.00193848	1.8213e-06	5.6445e-06	0.00471754	0.0157208	0.0253315	0.0353014	0.0857048	0.0359011	0.042287	0.0243779	2.89192e-09	0	0.00273952	0.00434133	0.0151552	0	0	3.32182e-10	0.0124149	3.06598e-10	0.01833	0.0250457	0.072839	0.082943	3.35704e-09	0.00240229	0.0845412	0.0465862	0.0544552	0.0403576	0	0	0.0861468	0.0829323	4.2272e-07	0	0.00294788	
