CEINMS output
datacolumns 81
datarows 92
endheader
time	addbrev_r	addlong_r	addmagDist_r	addmagIsch_r	addmagMid_r	addmagProx_r	bflh_r	bfsh_r	edl_r	ehl_r	fdl_r	fhl_r	gaslat_r	gasmed_r	glmax1_r	glmax2_r	glmax3_r	glmed1_r	glmed2_r	glmed3_r	glmin1_r	glmin2_r	glmin3_r	grac_r	iliacus_r	perbrev_r	perlong_r	piri_r	psoas_r	recfem_r	sart_r	semimem_r	semiten_r	soleus_r	tfl_r	tibant_r	tibpost_r	vasint_r	vaslat_r	vasmed_r	addbrev_l	addlong_l	addmagDist_l	addmagIsch_l	addmagMid_l	addmagProx_l	bflh_l	bfsh_l	edl_l	ehl_l	fdl_l	fhl_l	gaslat_l	gasmed_l	glmax1_l	glmax2_l	glmax3_l	glmed1_l	glmed2_l	glmed3_l	glmin1_l	glmin2_l	glmin3_l	grac_l	iliacus_l	perbrev_l	perlong_l	piri_l	psoas_l	recfem_l	sart_l	semimem_l	semiten_l	soleus_l	tfl_l	tibant_l	tibpost_l	vasint_l	vaslat_l	vasmed_l	
3.19	0	0	0	0	0	0	0	0	0	0	0	0	0	0	0	0	0	0	0	0	0	0	0	0	0	0	0	0	0	0	0	0	0	0	0	0	0	0	0	0	0	0	0	0	0	0	0	0	0	0	0	0	0	0	0	0	0	0	0	0	0	0	0	0	0	0	0	0	0	0	0	0	0	0	0	0	0	0	0	0	
3.195	-20.1649	-2.29146	-86.793	-77.697	-113.589	-0.394517	-70.7189	125.399	7.9507	4.19296	-0.998369	-3.31478	73.4629	180.038	-109.893	-179.854	-182.819	177.528	-31.6901	-134.261	40.6852	29.8862	8.32337	-0.147088	55.6232	-1.87057	-3.70725	-34.0861	52.5772	8.03655	12.3725	34.115	1.34305	-235.641	22.5406	23.6816	-6.11898	-73.9053	-206.87	-115.438	-11.3411	-13.3603	-14.5377	-14.3191	-16.9276	-17.8914	-74.3098	-26.6505	1.82614	1.2446	-0.419654	-6.30533	-67.8826	-0.803391	-4.00938	-13.2463	-1.28135	36.3327	5.29104	-16.3811	16.0347	25.9262	-0.0234941	-8.57748	12.9927	-2.8387	-3.69604	-0.263962	4.15006	342.27	-1.90769	-133.17	-33.2402	-3.6398	-0.106039	6.42906	-17.7595	-0.164347	329.607	195.202	
3.2	-18.6422	-2.79352	-93.0941	-90.7636	-115.23	-10.2995	-99.9735	123.022	9.16426	4.68936	-1.25499	-3.79822	104.466	230.957	-122.422	-195.321	-194.509	161.706	-44.5413	-150.071	39.1123	27.3403	5.00298	-0.225227	59.5548	-2.35754	-4.50624	-44.8886	59.8428	6.50084	12.3159	26.8314	-1.01379	-277.882	37.0263	26.1763	-7.26615	-95.8224	-270.891	-149.288	-12.8376	-15.9171	-20.6287	-22.6645	-22.5454	-20.8636	-141.422	-38.0384	1.92584	1.27438	-0.488386	-35.5977	-121.317	-2.43939	-15.3713	-46.4597	-50.6275	54.068	11.185	-10.3569	16.2811	17.2331	-0.0267726	-28.5628	18.0855	-2.10456	-0.491982	-0.771158	5.60388	332.869	-2.49103	-193.152	-39.1106	-25.9167	-0.321967	6.87498	37.3685	-3.6912	494.808	282.281	
3.205	-16.2799	-2.79236	-91.2105	-89.1436	-112.639	-10.2854	-112.129	114.127	8.27887	4.21495	-1.02402	-3.19151	111.817	223.499	-127.194	-198.211	-195.73	129.693	-56.0461	-157.306	34.1258	22.4753	0.574086	-0.340887	58.6799	-1.97574	-3.62213	-48.7824	59.5226	21.8357	12.0071	-0.196437	-4.72534	-242.579	42.1273	23.3398	-6.14273	-94.297	-267.558	-146.334	-13.048	-16.979	-11.5221	-13.5319	-14.6023	-18.104	-126.797	-32.3288	1.25137	0.819013	-0.53859	-21.9403	-90.0357	-2.43467	-0.293383	-14.2363	-50.095	30.3502	69.8662	-8.63395	18.3682	22.524	-0.026734	-16.2083	16.8688	-1.16262	-2.44008	-0.769687	4.59539	326.953	-2.9521	-176.368	-34.3721	-20.787	-0.321344	4.0639	-14.8422	-3.69	505.398	287.819	
3.21	-14.3947	-2.79117	-92.0376	-90.6898	-111.321	-10.2703	-129.298	106.667	6.67858	3.39823	-0.863171	-2.68247	110.942	213.648	-134.752	-205.155	-200.39	98.448	-68.0095	-165.594	29.2185	17.6343	-3.74631	-0.659578	58.5336	-1.63679	-3.03659	-53.0371	60.3341	36.3318	11.7461	-31.2037	-9.0712	-200.885	40.1148	18.8246	-5.14985	-90.3989	-257.809	-140.485	-14.0872	-19.4686	-5.46981	-4.86503	-11.0754	-18.4552	-118.539	-33.9191	0.455647	0.293488	-0.303326	-15.086	-83.5668	-2.42973	-0.272325	-5.27074	-20.2812	60.9234	51.7558	5.74221	9.89913	15.2103	-0.0266951	-13.5019	-43.4078	-1.06398	-1.28504	-0.768007	-102.056	319.665	-3.44245	-190.304	-36.2245	-15.5054	-0.320691	1.51778	-15.7076	-3.68873	488.972	278.916	
3.215	-12.1146	-2.78954	-92.2494	-92.8947	-108.91	-10.2462	-150.169	98.158	5.04034	2.56014	-0.681455	-2.06823	112.03	213.025	-141.985	-211.098	-203.906	61.352	-80.166	-171.936	23.1438	11.8833	-8.52205	-0.988933	58.3957	-1.2797	-2.36814	-57.2706	61.7448	50.2807	11.4434	-65.6072	-14.0332	-154.753	36.7295	14.1781	-4.00221	-86.9768	-249.12	-135.324	-15.9504	-22.6805	-3.63376	2.52469	-12.0111	-19.5316	-115.366	-36.9476	-0.456031	-0.316291	-0.448651	-10.9497	-85.1038	-2.42336	-0.487507	-4.4831	-18.6099	46.0579	4.25147	6.05093	21.6812	20.5764	-9.48989	-13.7241	-33.6858	-0.696489	0.545749	-13.7686	5.66195	309.791	-3.98231	-206.488	-36.9379	-10.8347	-0.319852	-1.67676	-10.0731	-3.72689	483.605	274.493	
3.22	-9.61114	-2.78837	-91.9871	-94.6066	-105.803	-10.2315	-172.215	88.9977	3.15836	1.589	-0.434785	-1.27093	115.463	215.459	-148.952	-216.411	-206.769	20.1872	-92.2165	-176.175	16.2198	5.51905	-13.5614	-1.35349	57.8694	-0.826099	-1.47664	-60.5283	62.7551	64.9658	11.1016	-104.548	-19.5762	-97.5213	34.0061	8.72087	-2.5104	-82.297	-236.555	-127.98	-17.6642	-26.5271	-4.90389	5.51653	-14.533	-15.5814	-114.01	-39.222	-1.54106	-1.04354	-0.359096	-8.07031	-87.4061	-2.4186	2.01086	-2.5131	-20.0249	55.2795	18.4919	5.01175	17.026	18.0892	-9.69296	-14.8301	-25.6559	-0.0241833	2.25549	-20.9032	-7.63124	296.73	-4.57591	-213.098	-36.8645	-7.10439	-0.319222	-5.48066	-7.13134	-3.84441	479.916	264.957	
3.225	-6.90683	-2.78745	-91.4736	-96.3463	-101.989	-10.2218	-194.494	79.6512	0.990393	0.473041	-0.139409	-0.348774	119.788	218.762	-155.518	-221.125	-209.004	-23.5829	-103.443	-177.942	8.69144	-1.24983	-18.6586	-1.72691	57.1218	-0.283827	-0.43578	-62.3924	63.5663	81.1271	10.7348	-146.486	-25.4421	-30.5429	31.8436	2.46637	-0.754421	-76.1368	-219.547	-118.29	-18.99	-30.58	-7.24742	2.64864	-16.0813	-11.7108	-113.195	-41.0552	-2.76681	-1.86256	-0.161411	-5.59584	-87.8902	-2.41471	5.42066	2.5681	-16.6117	56.6393	26.7458	7.28376	17.4737	19.0864	-9.18454	-15.7817	-19.6159	0.772503	4.01093	-24.4067	-30.3307	280.325	-5.21754	-210.726	-36.6928	-4.30682	-0.31871	-9.58607	-4.77064	-4.05861	469.745	253.109	
3.23	-4.00965	-2.78639	-90.5295	-98.1149	-97.4642	-10.2091	-216.479	70.4523	-1.37116	-0.737497	0.180822	0.645455	124.431	223.936	-161.344	-225.045	-210.415	-68.8552	-113.747	-176.961	0.742781	-8.24832	-23.682	-2.07433	56.1519	0.30711	0.682656	-61.8477	64.251	98.2716	10.3458	-189.15	-31.3781	42.5819	29.6973	-4.29128	1.14467	-69.3803	-200.654	-107.747	-20.4982	-35.3169	-7.95044	-0.713802	-16.3687	-8.56856	-112.321	-42.1366	-4.08781	-2.74509	0.110063	-3.19243	-87.038	-2.41037	8.90287	9.17608	-10.851	59.8483	26.5814	10.4936	17.5856	19.8429	-7.13407	-16.4413	-16.0706	1.35432	5.96031	-23.5203	-37.8099	265.792	-5.89905	-208.959	-36.3717	-2.28274	-0.318137	-14.0594	-0.991826	-4.36125	458.611	243.543	
3.235	-0.934525	-2.78523	-89.0018	-99.3721	-92.2013	-10.1945	-236.996	61.58	-3.8333	-1.99898	0.510284	1.67255	129.486	231.574	-166.102	-227.947	-210.821	-114.611	-122.768	-173.129	-7.43798	-15.3153	-28.5178	-2.36551	54.9388	0.919921	1.83845	-58.9108	64.7498	115.29	9.94062	-230.406	-37.1381	118.809	27.429	-11.3146	3.10524	-62.6322	-181.607	-97.2634	-22.3428	-40.987	-7.51439	-2.14712	-16.4267	-6.27402	-111.408	-38.2948	-5.47053	-3.67015	0.473517	-0.733844	-85.6255	-2.40573	12.7503	16.1916	-5.09227	64.515	28.5307	13.7885	17.8651	20.6742	-6.61553	-16.9968	-14.0639	1.71051	8.03645	-21.7478	-14.0846	252.948	-6.61245	-208.29	-35.7189	-0.865051	-0.457753	-18.759	4.48253	-4.69974	452.742	238.686	
3.24	2.29666	-2.78401	-86.8723	-99.9095	-86.1583	-10.1788	-255.009	53.3799	-6.33163	-3.27906	0.834795	2.68763	134.912	241.37	-169.515	-229.641	-210.039	-159.923	-130.667	-168.823	-15.6763	-22.3089	-33.0844	-2.57521	53.5002	1.53179	2.99369	-54.9533	65.0492	131.343	9.52809	-268.407	-42.4777	195.38	25.109	-18.4226	5.04312	-55.9453	-162.562	-86.8681	-24.5055	-47.6284	-6.75467	-2.09599	-16.5166	-4.69735	-110.439	-35.3618	-6.88765	-4.61734	0.905878	1.82913	-83.9245	-2.40097	17.1303	23.6211	0.820323	70.0615	32.7767	17.8048	18.2148	21.6983	-6.18031	-17.5524	-13.5921	2.16045	10.1331	-21.064	-9.59978	240.209	-7.34895	-205.939	-34.6706	0.102801	7.82121	-23.5741	11.3062	-5.07001	451.828	237.338	
3.245	5.66233	5.35013	-84.1075	-99.6554	-79.2972	-10.1629	-270.271	45.8384	-8.79865	-4.54239	1.13712	3.64485	140.589	252.287	-171.316	-230.033	-207.938	-204.056	-137.417	-167.917	-23.8186	-29.1077	-37.3273	-2.68084	51.8622	2.11739	4.09657	-50.8135	65.1285	145.793	9.12535	-301.501	-47.1589	268.905	22.8078	-25.4007	6.86448	-49.4264	-143.851	-76.7147	-26.9076	-55.0032	-5.82797	-1.29806	-16.4712	-3.66654	-109.394	-33.584	-8.31072	-5.56658	1.3905	4.48605	-81.8848	-2.3962	21.96	31.7449	7.42043	76.1277	37.4198	22.7977	18.6767	22.8888	-6.35972	-18.0647	-14.4531	2.66924	12.1861	-19.7843	-2.57531	219.222	-8.10261	-200.342	-33.1821	0.746336	15.6059	-28.4091	18.8382	-5.47874	444.644	232.462	
3.25	9.14347	20.3668	-80.7104	-98.6065	-71.6548	-10.1469	-283.196	39.2418	-11.1543	-5.74803	1.4015	4.49826	146.324	262.566	-171.296	-229.044	-204.455	-246.386	-143.47	-162.892	-31.7232	-35.6213	-41.2355	-2.66489	50.0538	2.65155	5.0992	-46.2869	64.9512	158.074	8.72281	-329.367	-50.9585	335.122	20.529	-31.9946	8.47792	-43.2825	-126.135	-67.1568	-29.5132	-62.2662	-4.62755	-0.0784954	-16.2206	-3.00774	-106.246	-32.7681	-9.7124	-6.49766	1.93186	7.18704	-79.3953	-2.39145	27.1401	40.5499	14.802	81.8787	42.3353	28.6892	19.1679	24.1881	-7.06723	-18.4498	-16.5788	3.15019	14.1501	-18.1952	2.89668	191.252	-8.86969	-191.095	-31.2054	1.16052	16.1696	-33.1622	25.0171	-5.94329	425.326	221.195	
3.255	12.7166	23.4444	-76.6863	-96.7038	-63.2849	-10.1308	-293.974	33.5215	-13.317	-6.85334	1.61408	5.20327	151.67	269.232	-169.346	-226.682	-199.488	-286.49	-152.828	-157.728	-39.2863	-41.7851	-44.8215	-2.51483	48.1011	3.10896	5.95814	-41.4443	64.4801	167.673	8.32499	-351.705	-53.6415	389.157	18.2524	-37.9378	9.80525	-37.7447	-110.112	-58.5548	-32.7936	-69.4666	-4.33482	0.235961	-16.5718	-2.58684	-92.4568	-32.5648	-11.0689	-7.39044	2.51629	9.85961	-76.3497	-2.38671	32.5751	49.6785	22.8321	74.4587	47.7208	35.4385	19.6514	25.5573	-10.2564	-18.6524	-9.31634	3.58476	15.9785	-16.3915	-52.2969	157.748	-9.64432	-178.028	-28.718	1.41127	13.5284	-37.7423	29.7093	-6.49852	395.585	205.131	
3.26	16.3663	25.9691	-72.0631	-94.016	-54.239	-10.1145	-301.03	28.9409	-15.1997	-7.8147	1.76472	5.72558	155.939	270.669	-164.443	-223.084	-193.032	-324.056	-162.502	-152.477	-46.4117	-47.5604	-48.1304	-2.22389	46.0512	3.47043	6.63503	-36.6553	63.7065	174.133	7.93325	-367.431	-55.0402	426.916	15.9636	-42.9997	10.7852	-33.0144	-96.4072	-51.2228	-35.8708	-77.2279	-3.83724	0.819241	-16.4834	-2.312	-76.203	-32.3957	-12.3564	-7.93064	3.12143	12.4036	-72.6497	-2.38199	38.1624	58.8496	31.3595	79.184	53.474	43.0054	20.0732	26.9337	-9.88302	-18.6448	-1.89115	3.96232	17.6254	-14.7979	-47.3077	123.026	-10.4181	-161.296	-25.7148	1.54332	10.335	-42.0517	33.5152	-7.11211	362.578	188.466	
3.265	20.0706	30.4989	-66.9544	-90.7094	-44.6076	-10.0981	-302.313	25.4012	-16.7045	-8.58127	1.84748	6.04381	158.407	267.21	-135.918	-218.413	-185.15	-358.881	-170.66	-147.566	-53.0364	-52.932	-51.2293	-1.78979	43.9459	3.71947	7.1005	-32.3255	62.6465	177.106	7.55376	-375.817	-55.0763	446.833	13.6673	-47.0043	11.3803	-29.2575	-85.5283	-45.42	-38.6493	-85.9367	-1.93122	2.20793	-15.6081	-2.1253	-62.2878	-32.2272	-13.5515	-7.61183	3.74691	14.4594	-68.2788	-2.37729	43.8023	67.97	40.0981	83.3948	59.4091	51.2976	20.3792	28.2407	15.6273	-18.407	-1.59557	4.23473	19.058	-23.1735	-51.466	85.288	-11.1817	-141.409	-22.2061	1.58543	7.23411	-46.0051	36.7021	-7.76176	328.372	171.51	
3.27	23.8144	35.4969	-61.3191	-86.7778	-34.4797	-10.0815	-297.225	23.0355	-17.7506	-9.11161	1.86151	6.16842	158.462	260.195	-114.585	-212.991	-175.971	-390.812	-179.352	-143.629	-59.1162	-57.9065	-54.1945	-1.21638	41.8412	3.84581	7.33744	-28.822	61.3584	176.372	7.18531	-376.104	-53.7668	450.136	11.3976	-49.844	11.5755	-26.6112	-77.8784	-41.3584	-41.3792	-95.1503	0.482854	4.77963	-14.2207	-1.99175	-49.4827	-32.0555	-14.6376	-7.59504	4.37586	16.0006	-63.277	-2.37259	49.3603	76.8666	48.9096	85.3475	65.3399	60.1662	20.5067	29.3934	73.9009	-17.9214	-11.1359	4.56845	20.2425	-20.3664	-50.4883	46.1643	-11.9253	-120.006	-18.2194	1.55709	4.11308	-49.5557	39.2793	-8.46875	293.748	154.312	
3.275	27.576	40.1619	-55.3219	-82.2485	-23.9673	-10.0647	-286.032	21.865	-18.2705	-9.3713	1.80942	6.10386	155.886	249.741	-98.1978	-207.141	-165.709	-401.719	-188.248	-141.218	-64.624	-62.5023	-57.1168	-0.511726	39.7868	3.84481	7.33599	-26.4706	59.9168	171.852	6.83666	-367.97	-51.1864	437.833	9.18038	-51.383	11.3741	-25.1616	-73.7493	-39.1772	-43.8406	-103.995	3.41756	8.30108	-12.3467	-1.8908	-36.663	-31.8823	-15.595	-7.60197	4.99174	17.0594	-57.6879	-2.36789	54.6912	85.32	57.6598	86.7723	71.0531	69.3852	20.3952	30.2936	70.445	-17.1781	-32.7852	4.82486	21.1627	-15.5516	-51.6218	6.40914	-12.6388	-98.0048	-13.8045	1.47228	1.0955	-52.6533	41.1648	-9.28893	263.511	138.049	
3.28	31.449	44.7601	-49.0115	-77.1937	-13.1933	-10.0478	-269.552	21.7789	-18.1955	-9.32396	1.69852	5.83595	150.918	235.95	-85.6958	-201.305	-154.634	-411.729	-197.533	-140.846	-69.544	-66.7419	-60.0665	0.311535	37.8378	3.71902	7.0976	-25.5501	58.3703	163.616	6.50877	-351.389	-47.4461	411.581	7.02468	-51.3599	10.8062	-24.9519	-73.2702	-38.9431	-46.1474	-111.408	7.44412	12.7743	-10.0071	-1.81051	-23.1992	-31.7045	-16.4018	-7.51008	5.57506	17.6911	-51.569	-2.36321	59.6613	93.164	66.142	87.2468	76.3054	78.6834	19.9819	30.8443	67.686	-16.1799	-42.3299	5.00627	21.8087	-12.4801	-54.8344	-33.9731	-13.3096	-75.3481	-8.98005	1.34171	-0.691569	-55.1474	42.3253	-10.2765	249.624	130.726	
3.285	35.3056	49.4821	-42.4885	-71.7008	-2.29304	-10.0307	-248.544	22.7626	-17.4908	-8.95515	1.53827	5.37087	143.692	219.347	-75.7353	-195.874	-143.078	-427.785	-207.335	-142.894	-73.8708	-70.6548	-61.1695	1.23627	36.0392	3.47369	6.63121	-26.2735	56.7954	151.876	6.20578	-326.718	-42.7167	373.697	4.93252	-49.4785	9.91143	-25.9724	-76.4544	-40.6553	-48.3369	-119.487	12.5805	19.8208	-7.04602	-1.74396	-7.83296	-31.5187	-17.0485	-7.40128	6.11043	17.9761	-44.9942	-2.35854	64.1532	100.272	74.16	86.3528	80.841	87.7356	19.2113	30.9511	72.7884	-14.9422	-31.5282	5.1132	22.1776	-8.88455	-59.7899	-71.5221	-13.9235	-51.9995	-3.65445	1.17717	-0.466435	-57.0439	42.8014	-11.5054	236.203	122.915	
3.29	39.0907	54.2746	-35.8643	-65.8815	8.58897	-10.0134	-223.96	24.7469	-16.1538	-8.26387	1.33902	4.74862	134.459	200.507	-67.6522	-191.296	-131.403	-442.611	-217.465	-147.592	-77.5988	-74.2527	-58.6695	2.24163	34.4333	3.11799	5.95365	-28.7472	55.2374	135.362	5.9297	-294.8	-37.1317	326.603	2.90872	-45.6641	8.73852	-28.1515	-83.1454	-44.2189	-50.2634	-129.427	19.2144	35.4226	-3.73821	-1.68712	10.3873	-31.3219	-17.5196	-7.23898	6.57688	18.0158	-38.0506	-2.35388	68.0238	106.443	81.5767	83.934	84.4052	96.1877	18.0393	30.5275	77.9876	-13.4885	-22.9645	5.17137	22.2761	-9.7341	-65.7696	-101.399	-14.464	-27.5836	2.18939	0.990947	-0.466558	-58.321	42.6572	-13.072	218.061	111.697	
3.295	42.792	59.0467	-29.2425	-59.8528	19.2972	-9.99601	-197.111	27.5431	-14.1951	-7.25346	1.11037	4.0047	123.307	179.687	-60.9972	-187.895	-119.984	-459.949	-227.544	-154.975	-80.7269	-77.5463	-60.2778	3.30332	33.0416	2.6645	5.08232	-32.9584	53.7599	114.375	5.68243	-256.909	-30.8754	271.895	0.958718	-39.9644	7.33583	-31.3602	-93.065	-49.4542	-51.4723	-135.452	24.8785	61.248	-0.638674	-1.63761	35.2855	-31.1108	-17.8074	-7.0791	6.95876	17.867	-30.8005	-2.34922	71.1039	111.405	88.1778	79.8771	86.7684	103.673	16.438	29.4375	79.887	-11.849	-33.5886	5.17859	22.12	-7.70094	-72.217	-138.132	-14.913	0.513131	8.48469	0.796283	-0.453162	-58.9671	41.9671	-0.439887	197.116	99.5197	
3.3	46.3223	63.64	-22.7515	-53.7497	29.8693	-9.97841	-168.958	30.98	-11.6297	-5.92901	0.861329	3.14749	110.396	157.33	-55.4716	-185.968	-109.201	-481.091	-238.04	-164.968	-83.2505	-80.5245	-62.0005	4.39387	31.8741	2.12444	4.03691	-38.8244	52.3897	91.9305	5.46467	-214.424	-24.1726	211.374	-0.910499	-32.4762	5.7447	-35.4027	-105.772	-56.1159	-45.1517	-138.341	28.4606	67.1852	2.46823	-1.59396	81.5863	-30.8829	-17.9112	-6.88395	7.24135	17.414	-23.1842	-2.34458	73.2584	115.063	93.7367	74.1254	87.7388	109.845	14.4004	27.7546	79.752	-10.0601	-45.7741	5.13382	21.7273	-5.42415	-79.0029	-171.155	-15.2508	37.3433	15.0386	0.605219	-0.457002	-59.0029	40.8041	56.2503	176.145	87.9836	
3.305	49.6051	67.3176	-16.5002	-47.7102	39.9111	-9.96064	-140.322	34.9316	-8.48417	-4.30367	0.59693	2.18467	95.8498	133.627	-50.8493	-186.058	-99.3811	-502.552	-249.31	-177.276	-85.155	-83.1646	-64.4637	5.48346	30.9318	1.50916	2.83662	-46.0811	51.1646	69.5173	5.27297	-169.193	-17.2648	145.6	-2.69084	-23.3529	3.99564	-39.9695	-120.611	-63.8479	-36.5447	-139.335	31.9278	64.6509	6.16816	-1.55525	118.856	-30.6354	-17.8254	-6.6438	7.41215	16.6616	-15.1379	-2.33994	74.3922	117.274	98.0743	66.7175	87.1837	114.391	11.9448	25.46	78.3902	-8.17229	-51.5224	5.03408	21.1265	-5.86062	-86.2252	-201.464	-15.4614	108.438	21.3717	0.42626	-0.457657	-58.461	39.2469	61.5933	156.586	77.4725	
3.31	52.5734	70.7264	-10.6103	-41.8637	48.9293	-9.94272	-112.069	39.1507	-4.80437	-2.40069	0.318019	1.12748	79.682	108.196	-46.9574	-188.705	-90.8316	-517.43	-261.011	-191.481	-86.4374	-85.4348	-68.0996	6.54142	30.2446	0.826798	1.49759	-54.3596	50.0877	47.6839	5.10884	-123.019	-10.4041	75.0323	-4.37097	-12.765	2.10398	-44.522	-136.74	-72.1623	-28.8584	-117.801	34.0543	41.3243	11.4063	-1.52083	131.236	-30.3659	-17.5645	-6.4079	7.4644	15.6848	-6.60233	-2.33531	74.3992	117.791	101.045	57.7746	85.0472	117.077	9.11788	22.5774	75.6685	-6.2269	-47.8006	4.89104	20.3432	-15.9172	-93.4353	-229.457	-15.5288	225.738	26.6061	0.263486	-0.457777	-57.3943	37.3736	47.8059	137.408	66.9974	
3.315	55.1719	73.9367	-5.18707	-36.3444	57.5962	-9.92463	-85.17	43.3757	-0.653711	-0.256043	0.0223076	-0.0188952	61.8528	81.3062	-43.6621	-192.378	-83.7658	-528.385	-272.543	-207.05	-85.4516	-87.283	-72.9938	7.53292	29.8896	0.0821233	0.0332712	-63.6528	49.1651	26.7557	4.96305	-77.9319	-3.87649	-0.59854	-5.93291	-0.902798	0.0685766	-47.6299	-152.818	-80.2441	-22.3129	-84.887	38.2157	37.5031	18.3287	-1.4903	143.966	-30.0724	-17.1329	-6.11426	7.40143	14.5462	2.46229	-2.3307	76.0798	117.392	102.551	47.5257	81.3509	117.762	5.99433	19.1763	71.4274	-4.13521	-42.2724	4.70882	19.4107	-21.8764	-77.2226	-254.536	-15.4302	243.945	30.8234	0.120062	-0.456988	-55.8476	35.2584	36.6433	117.373	55.9666	
3.32	57.3355	76.7635	-0.330923	-31.2711	64.8233	-9.90637	-60.4782	47.494	3.88593	2.08476	-0.295949	-1.25571	42.3405	52.909	-40.8596	-197.405	-78.3478	-532.439	-283.491	-223.316	-78.7687	-88.2319	-77.6779	8.43224	29.6826	-0.722156	-1.54869	-74.7048	48.3743	7.15579	4.83598	-35.6107	2.12032	-82.106	-7.35525	11.995	-2.12932	-42.5801	-166.765	-86.5543	-16.7391	-61.6217	41.4242	49.8409	23.3374	-1.4633	157.523	-29.7529	-16.5407	-5.8208	7.22151	13.3696	11.9638	-2.32609	76.7779	116.946	102.556	36.2892	76.2093	110.05	2.67602	15.3652	65.7796	-1.80783	-37.2954	4.49378	18.3545	-24.8185	-55.6637	-276.074	-15.1543	252.372	34.3023	-0.00191165	-0.456078	-53.7944	32.9702	28.8009	96.05	44.1673	
3.325	59.0186	79.1216	3.86172	-26.7477	70.9665	-9.88797	-38.9164	51.134	8.72217	4.57083	-0.64776	-2.58898	20.9953	21.9946	-38.4692	-203.096	-74.638	-529.464	-293.283	-239.544	-78.2321	-82.9206	-81.7467	9.20634	29.6717	-1.58412	-3.23893	-87.1707	47.6898	-10.4409	4.70955	1.95278	7.3118	-170.644	-8.60819	25.6291	-4.52022	-36.9209	-172.281	-83.8915	-12.0951	-45.7051	41.191	50.8063	25.3814	-1.43957	168.325	-29.4061	-15.8167	-5.51377	6.94786	12.2402	21.6703	-2.32149	75.7762	114.52	101.055	24.4513	69.8105	91.8913	-0.671928	11.2741	58.9714	0.661884	-33.7912	4.25198	17.2077	-25.735	-45.6279	-293.775	-14.6862	264.946	37.0021	-0.0992036	-0.455164	-50.3633	30.5732	20.2248	73.4043	30.0343	
3.33	60.1989	80.9861	7.32575	-22.8605	75.7724	-9.86937	-21.2743	54.261	13.7462	7.14597	-1.04334	-4.02696	-2.23534	-11.2118	-36.4269	-195.813	-72.6358	-525.466	-301.292	-254.715	-77.4629	-81.9121	-85.1927	9.83244	29.8063	-2.50595	-5.03181	-98.8301	47.0637	-25.2119	4.55017	33.0626	11.5078	-268.039	-9.65698	39.6237	-7.13705	-32.3125	-147.226	-69.931	-8.39214	-34.7752	43.0452	54.1366	28.1343	-1.41893	174.952	-29.0312	-14.9786	-5.15999	6.59467	11.096	31.3025	-2.3169	73.9609	110.979	97.632	12.4537	62.4159	96.7849	-1.96709	7.06026	51.2886	3.16239	-37.6478	3.98955	15.995	-21.4124	-16.4479	-307.133	-11.2371	273.168	38.9183	-0.166511	-0.454294	-45.4407	28.1209	10.1875	49.7664	14.7352	
3.335	60.8254	82.3235	10.0035	-19.6789	79.1705	91.6013	-8.2501	56.4693	18.8272	9.74181	-1.49406	-5.58104	-27.4023	-47.3572	-34.6822	-165.154	-72.2764	-518.054	-307.735	-252.79	-77.3441	-81.8208	-86.9331	10.3251	30.0458	-3.48585	-6.92187	-108.437	46.4323	-36.1389	4.41339	56.2132	14.529	-376.191	-10.4622	53.5282	-10.0195	-28.633	-126.177	-60.4384	-5.66813	-26.7657	43.5387	57.1112	30.5923	-1.40119	178.093	-28.628	-14.044	-4.82188	6.18226	9.94625	40.6322	-2.31232	71.2614	106.432	93.1376	1.15417	54.3453	96.7027	-2.65139	2.89454	43.0606	5.58724	-41.364	3.71192	14.7433	-16.5417	-5.70019	-316.009	-9.73677	272.464	40.1643	-0.199785	-0.453445	-42.4946	25.6586	-0.211524	-84.8467	-0.486781	
3.34	60.5614	82.9981	11.8478	-17.233	81.0399	130.55	-0.18222	57.8587	23.7649	12.2574	-2.00917	-7.2722	-54.3868	-86.6906	-33.1946	-141.393	-73.3721	-505.632	-313.044	-195.654	-76.1251	-82.0884	-87.9802	10.6327	30.326	-4.52069	-8.89295	-116.18	45.6682	-41.8276	4.26691	70.6879	16.3114	-497.421	-10.9867	66.8805	-13.1926	-25.6185	-109.362	-52.8508	-3.83815	-20.8455	42.1602	55.7759	31.3229	-1.38622	177.281	-28.1974	-13.0285	-4.45732	5.7283	8.83579	49.3999	-2.30775	67.6705	100.867	87.6794	-7.27994	45.5692	88.3218	-5.17898	-1.05842	34.6036	7.83521	-43.5877	3.42252	13.4643	-12.4451	-3.10574	-319.833	-10.5063	266.056	40.8241	-0.198515	-0.452603	-40.1211	23.2203	-10.1037	-245.952	-14.9965	
3.345	59.5546	82.9454	12.8541	-15.5575	81.4253	81.3555	2.42231	58.0151	28.3217	14.5724	-2.59552	-9.1021	-83.2022	-129.322	-31.9317	-122.834	-75.8087	-489.05	-315.705	-155.438	-73.7568	-82.0275	-88.9991	10.7269	30.6313	-5.60228	-10.9305	-123.065	44.7507	-39.5904	4.10942	75.3396	16.6757	-633.781	-11.1986	79.5777	-16.6674	-23.1001	-96.1665	-46.8304	-2.69746	-16.5295	40.5533	53.9543	31.6507	-1.37391	171.906	-27.7413	-11.9642	-4.08874	5.25098	7.81092	57.3615	-2.30318	63.4246	94.3652	81.4012	-15.7914	36.9889	83.1932	-3.90913	-4.63169	25.9069	9.74374	-44.4191	3.12555	12.1702	-9.46607	-11.233	-319.077	-10.1328	257.205	41.0542	-0.167669	-0.451762	-36.4967	20.837	-19.3531	-245.691	-28.9148	
3.35	57.8484	82.0084	13.0093	-14.6328	80.2344	95.617	-0.429472	57.0248	32.2622	16.5666	-3.25151	-10.9908	-113.484	-229.766	-30.8673	-108.373	-79.3007	-468.359	-314.6	-126.832	-70.4067	-80.3035	-88.8432	10.5924	30.8888	-6.71649	-13.0038	-127.14	43.6142	-35.0487	3.94162	70.273	15.693	-786.644	-11.0727	91.3554	-20.4278	-20.9703	-85.4152	-41.85	-2.02272	-13.4386	38.3301	52.3938	31.4249	-1.3642	166.086	-27.2618	-10.862	-3.69902	4.76484	6.88543	64.7067	-2.29863	58.6198	87.1095	74.441	-22.957	30.5496	77.7814	-2.57624	-7.68491	17.9382	11.2091	-44.3855	2.8252	10.8825	-7.55747	-13.4606	-313.523	-8.34805	246.695	40.9283	-0.1169	-0.45092	-29.863	18.5259	-28.0293	-252.844	-42.1699	
3.355	55.487	80.1821	12.3462	-14.4423	77.5703	91.6138	-8.7766	54.6287	35.4456	18.1728	-3.97185	-13.0059	-144.826	-291.039	-29.9806	-96.6869	-83.6706	-445.922	-310.399	-106.565	-66.0278	-77.6764	-87.4451	10.2148	31.0853	-7.84205	-15.0779	-104.298	42.3146	-32.0903	3.75958	55.4004	13.3181	-954.154	-10.5887	101.317	-24.4277	-19.1555	-76.5043	-37.6838	-1.63664	-11.2358	35.9019	49.6746	30.777	-1.35698	160.423	1.60408	-9.73974	-3.32658	4.28207	6.06043	71.947	-2.29409	53.4553	79.5713	67.0481	-28.4721	25.1852	71.5104	-1.67091	-10.107	11.1168	12.3467	-47.7454	2.52413	9.61654	-5.64184	-5.95387	-304.045	-6.7259	230.534	40.592	-0.0565004	-0.450078	-25.5481	16.3016	-36.234	-265.936	-54.7447	
3.36	52.5348	77.48	10.8913	-14.9421	73.4817	85.6486	-22.4902	50.8944	37.8043	19.3622	-4.74198	-15.1168	-176.631	-337.451	-29.2549	-87.0908	-88.6604	-420.065	-302.949	-91.2339	-61.4219	-73.6376	-85.1177	9.6112	31.1889	-8.95328	-17.1009	-75.357	41.0423	-29.6483	3.56272	31.032	9.60885	-1107.52	-9.74027	108.457	-28.5828	-17.5996	-69.0222	-34.1617	-1.42012	-9.64338	33.7673	41.732	30.3619	-1.35223	154.634	20.3966	-8.60896	-2.92714	3.81194	5.29662	79.4745	-2.28955	48.0608	71.7099	59.4123	-32.2758	19.5838	70.3492	-1.2148	-11.8168	5.4366	13.2666	-50.2853	2.22383	8.37829	-4.16718	-3.40989	-291.228	-5.07634	209.609	40.1221	0.00502466	-0.449237	-21.9917	14.1705	-44.0458	-279.881	-66.5781	
3.365	49.2966	73.8395	8.70839	-16.0737	68.1015	79.2775	-41.2851	45.6544	39.3084	20.1217	-5.53907	-17.1614	-207.871	-398.599	-28.6773	-79.1152	-94.0162	-389.799	-292.465	-79.2606	-56.2451	-69.0917	-82.4917	8.80573	31.1677	-10.0149	-19.0096	-56.486	39.5535	-27.6105	3.35147	-2.21577	4.66329	-1212.39	-8.52887	112.662	-32.7666	-16.2579	-62.6915	-31.1652	-1.30013	-8.4586	30.9462	33.8244	28.0735	-1.34991	148.671	23.0787	-7.47781	-2.54817	3.36701	4.57894	87.3229	-2.28503	42.571	63.6873	51.7533	-34.272	14.6555	62.6637	-7.14639	-12.7696	0.95658	13.9874	-51.5602	1.9276	7.17337	-3.14879	-33.7572	-276.029	-3.27568	189.571	39.581	0.0617352	-0.448397	-18.4396	12.1386	-51.5121	-264.822	-77.7591	
3.37	46.0433	69.5602	5.86695	-17.7596	61.5548	72.3334	-64.8184	38.9432	39.9979	20.476	-6.33328	-19.1914	-236.822	-462.381	-28.2376	-72.4386	-99.3548	-356.543	-279.077	-69.6889	-50.4677	-63.92	-78.3706	7.82091	31.0309	-10.9815	-20.7344	-44.2723	37.9135	-25.8604	3.12453	-43.6568	-1.422	-1310.76	-6.95679	114.38	-36.805	-15.0944	-57.2979	-28.5991	-1.23408	-7.5462	25.648	27.8795	23.5896	-1.34955	142.771	25.7168	-6.35509	-2.16044	2.93493	3.90522	95.2301	-2.28051	37.1011	55.6944	44.1801	-34.4448	10.6246	49.0469	-9.42869	-12.9648	-2.25837	14.5144	-51.8278	1.63615	6.0084	-2.51641	-48.9842	-259.48	-1.43446	172.076	38.9874	0.108636	-0.447558	-15.1648	10.2029	-58.6724	-239.705	-88.4593	
3.375	42.5056	64.7595	2.45404	-19.9166	54.0117	64.802	-92.6677	30.7895	39.9782	20.4891	-7.08661	-21.0749	-261.352	-520.875	-27.9287	-66.8139	-97.8597	-320.721	-262.762	-61.9406	-44.2155	-57.9239	-73.0125	6.67547	30.7642	-11.8028	-22.1965	-35.9923	36.1544	-24.3562	2.88166	-92.5597	-8.50362	-1420.79	-5.03402	113.877	-40.427	-14.0804	-52.6725	-26.3879	-1.19778	-6.81978	20.5976	22.3994	19.6591	-1.34982	137.044	32.1421	-5.2489	-1.77317	2.53207	3.27412	102.513	-2.276	31.7288	47.7428	36.7949	-32.8821	7.43435	34.6798	-10.4062	-12.4435	-4.239	14.8643	-51.4898	1.35174	4.88636	-2.13101	-51.7539	-242.609	0.370216	157.234	38.247	0.139112	-0.44672	-12.2093	8.36371	-65.6651	-224.338	-98.9887	
3.38	38.7407	59.4006	-1.42604	-22.4384	45.6489	56.8878	-124.368	21.2317	39.4055	20.247	-7.74646	-22.7347	-282.104	-557.868	-27.7455	-62.0495	-84.9611	-282.661	-243.752	-55.6	-37.5564	-51.2772	-66.8097	5.39368	30.3766	-12.4335	-23.3093	-29.9664	34.2803	-23.062	2.62046	-148.12	-16.392	-1510.05	-2.77945	111.62	-43.3465	-13.1927	-48.6809	-24.4712	-1.17774	-6.22468	16.266	17.2273	15.341	-1.34973	131.246	38.0342	-4.16649	-1.3946	2.16028	2.68292	108.381	-2.2715	26.5042	39.8999	29.6711	-29.7438	5.05861	18.6219	-10.7164	-11.2774	-5.12384	15.0421	-50.8007	1.07589	3.80796	-1.89608	-51.4721	-226.344	2.10128	149.848	37.3297	0.144245	-0.445883	-9.46134	6.62103	-72.6908	-217.339	-109.731	
3.385	34.7561	53.5638	-5.65528	-25.2155	36.6685	48.7152	-159.423	10.3976	38.3913	19.7313	-8.26212	-24.0507	-305.529	-566.501	-27.6845	-57.9951	-74.5751	-242.947	-222.39	-50.3598	-30.5791	-44.0907	-59.8921	3.9976	29.9413	-12.8302	-23.9668	-25.4015	32.3126	-21.9501	2.33749	-209.552	-25.1416	-1541.72	-0.224472	108.251	-45.3146	-12.4124	-45.2166	-22.8011	-1.16651	-5.72586	11.9844	12.5339	11.051	-1.34935	124.524	42.4783	-3.11751	-1.02817	1.81357	2.12894	112.665	-2.26701	21.4564	32.2123	22.9431	-25.2639	3.46059	7.4863	-12.0438	-9.63969	-5.16753	15.0453	-49.8618	0.809257	2.7822	-1.74666	-50.2889	-209.661	3.72453	149.348	36.2225	0.113236	-0.445047	-6.88105	4.97236	-79.6785	-216.284	-120.514	
3.39	30.5444	47.4281	-10.1062	-28.1142	27.2647	40.4115	-197.268	-1.55478	36.6556	18.6052	-8.58477	-24.9483	-328.503	-570.657	-27.678	-54.5335	-66.1873	-202.015	-199.112	-45.9895	-23.3777	-36.5032	-52.4406	2.50785	29.4132	-12.9617	-24.0857	-21.861	30.2661	-20.5332	2.02701	-275.817	-34.5692	-1542.68	2.58508	103.02	-46.1654	-11.7243	-42.1947	-21.3391	-1.16005	-5.30032	7.91338	8.28404	6.9065	-1.3489	116.678	46.409	-2.11233	-0.677047	1.49979	1.61004	115.197	-2.26285	16.5751	24.6887	16.6447	-19.7225	2.54523	-0.629224	-13.0583	-7.76308	-4.67638	14.8586	-48.6891	0.554979	1.81267	-1.64292	-48.9503	-191.761	5.21134	152.827	34.8742	0.0367912	-0.444212	-4.48165	3.42465	-86.1489	-219.091	-130.484	
3.395	26.1477	41.1698	-14.6385	-30.9821	17.6617	32.1005	-237.213	-14.4068	33.6596	16.8449	-8.68184	-25.3208	-341.805	-576.079	-27.663	-51.5716	-59.4719	-160.213	-174.324	-42.316	-16.0455	-28.6548	-44.5554	0.942737	28.7783	-12.8066	-23.6343	-19.0694	28.1473	34.1971	1.68219	-345.42	-44.5102	-1580.19	5.58483	93.6305	-45.8806	-11.1157	-39.5471	-20.054	-1.15613	-4.93241	4.13996	4.36137	2.94967	-1.34846	107.916	49.738	-1.16464	-0.346049	1.20325	1.12582	115.787	-2.26831	11.849	17.3141	10.376	-13.4303	2.17252	-4.95239	-13.4814	-5.14069	-3.63233	14.4461	-47.3106	0.315601	0.907067	-1.56177	-47.4614	-185.162	6.54342	162.411	33.2366	-0.0979456	-0.443378	-2.26792	1.9833	-91.5489	-224.291	-138.702	
3.4	21.4964	34.8915	-19.1112	-33.6677	8.05415	23.898	-278.471	-27.9358	29.9044	14.9467	-8.53807	-25.0963	-345.136	-573.46	-27.6479	-49.0361	-53.9276	-118.057	-148.663	-39.2082	-8.68946	-20.6834	-36.4212	-0.681562	28.0333	-12.3636	-22.6258	-16.8356	25.9767	117.122	1.2948	-417.362	-54.8355	-1559.83	8.69092	82.5623	-44.4864	-10.5762	-37.2184	-18.9205	-1.15357	-4.61107	0.602451	0.69413	-0.744715	-1.34803	98.3278	52.1287	-0.290745	-0.0420567	0.946114	0.677444	114.416	-2.40338	7.277	10.1169	4.25151	-6.71537	2.1807	-9.81669	-13.4972	-2.39978	-1.60125	13.7972	-45.7824	0.0954587	0.0789919	-1.48723	-45.6716	-176.935	7.71022	184.071	31.2954	-0.296306	-0.442545	-0.257851	0.662791	-96.6075	-230.846	-145.435	
3.405	16.5236	28.6818	-23.3761	-36.0118	-1.33253	15.9074	-319.799	-41.8941	26.1032	13.0361	-8.16323	-24.2253	-342.061	-559.51	-27.6325	-46.8682	-49.2944	-76.0034	-122.643	-36.5656	-1.42678	-12.742	-28.2272	-2.35015	27.1604	-11.6435	-21.116	-15.0237	23.7482	184.983	0.856457	-492.884	-65.3896	-1467.83	11.8039	71.6606	-42.134	-10.0972	-35.1634	-17.9176	-1.15173	-4.32827	-2.74452	-2.75615	-2.57147	-1.34759	87.9236	53.4524	0.489978	0.226951	0.692235	0.268854	111.287	-3.9793	2.84146	3.10431	-1.65527	0.0978696	2.40047	-7.30944	-13.3023	0.328608	1.25776	12.8856	-45.6603	-0.102234	-0.657794	-1.41342	-43.9301	-167.857	8.7079	241.882	29.0214	-0.569927	-0.441713	1.52016	-0.517608	-103.551	-241.26	-156.027	
3.41	11.925	22.6059	-27.2932	-37.8499	-10.3201	8.23036	-358.92	-56.0792	22.3348	11.1195	-7.57429	-22.7007	-336.934	-534.692	-27.6174	-45.0206	-45.3871	-34.5393	-96.6452	-34.3101	5.62138	-4.98003	-20.1556	-4.04893	26.1255	-10.6725	-19.1827	-13.5356	21.4756	231.451	0.359646	-576.762	-76.0979	-1333.99	14.8052	60.8502	-38.9001	-9.67129	-33.3448	-17.028	-1.15028	-4.0779	-12.2517	-13.1493	-2.01548	-1.34716	77.1128	53.028	1.15494	0.452999	0.475755	-0.0961042	106.901	-4.84665	-1.46946	-3.71227	-7.35109	6.70069	2.66547	-3.66237	-18.4652	3.02727	4.18429	11.7417	-50.3059	-0.271399	-1.28467	-1.32309	-71.639	-159.065	9.54029	272.03	26.4402	-0.924925	-0.440882	3.02006	-1.5325	-111.141	-256.465	-168.65	
3.415	7.43649	16.7265	-30.7295	-39.0002	-18.714	0.955293	-384.108	-70.3046	18.6243	9.25056	-6.80061	-20.5458	-330.479	-501.763	-27.6024	-43.4554	-42.0756	5.79455	-71.0339	-32.3801	12.3272	2.4476	-12.377	-5.76368	24.9309	-9.48558	-16.8996	-12.3008	19.1439	264.466	-0.201103	-668.717	-87.0148	-1183.48	17.5648	50.3586	-34.8327	-9.29239	-31.7317	-16.2375	-1.14904	-3.85519	-14.3074	-17.232	-1.69363	-1.34673	66.1209	50.9992	1.68035	0.62684	0.285966	-0.409015	101.613	-4.44369	-5.6525	-10.3073	-12.876	12.8183	2.82402	-2.3808	-24.8431	5.55445	6.74228	10.4367	-58.2579	-0.406841	-1.77956	-1.22002	-101.635	-148.433	10.2136	229.582	23.6841	-1.36922	-0.440052	4.19182	-2.35041	-118.003	-275.127	-180.272	
3.42	3.17098	11.0934	-33.5715	-39.2123	-26.3653	-5.81807	-333.985	-84.448	15.0572	7.46698	-5.87976	-17.8082	-320.94	-466.407	-27.5877	-42.1418	-39.257	44.5127	-46.2318	-30.7267	18.5817	9.40153	-5.03307	-7.47858	23.5008	-8.12352	-14.3524	-11.2671	16.725	291.25	-0.828747	-758.372	-97.7861	-1023.04	19.943	40.4643	-30.0249	-8.95534	-30.2983	-15.5338	-1.14789	-3.65634	-15.4996	-18.6903	-1.5001	-1.34629	54.8823	48.6331	2.04005	0.740246	0.122039	-0.65908	95.6982	-3.79597	-9.70075	-16.6442	-18.2226	18.2052	-18.672	-3.14624	-1.42684	7.80435	8.85408	9.03295	-65.5679	-0.500981	-2.12012	-1.12095	-103.027	-134.948	10.7373	199.037	20.7687	-1.90687	-0.439224	4.97585	-2.93475	-123.112	-295.182	-188.953	
3.425	-0.825842	5.73749	-35.7124	-37.8881	-33.1342	-11.7433	-261.778	-98.5467	11.675	5.78105	-4.84119	-14.6217	-302.118	-479.613	-27.573	-41.0554	-36.8499	81.1563	-22.6698	-29.311	24.2746	15.7707	1.7496	-9.17552	21.8828	-6.63212	-11.6279	-10.3956	14.2854	314.554	-1.5223	-837.666	-108.217	-851.036	21.819	31.1679	-24.6351	-8.65575	344.86	132.297	-1.14681	-3.47825	-16.9694	-19.7229	-1.40603	-1.34586	43.4699	45.6751	2.20945	0.784381	-0.00507504	-0.833786	89.4378	-3.763	-13.6085	-22.688	-23.3265	22.6726	-27.2685	-5.16554	21.0009	9.70131	10.4672	7.58488	-68.3821	-0.549293	-2.28062	-1.02145	-97.9309	-118.4	11.1246	175.119	17.6063	-2.53179	-0.438396	5.3052	-3.25042	-126.079	-314.372	-194.15	
3.43	-4.52834	0.684073	-37.0843	-32.5297	-38.9229	-10.9751	-210.602	-112.451	8.48345	4.19932	-3.71788	-11.1425	-246.982	-578.756	-27.5584	-40.1767	-34.7891	115.352	-0.643438	-28.1016	29.3161	21.4691	7.87216	-10.834	19.955	-5.05834	-8.7948	-9.65652	11.7343	334.94	-2.27675	-904.791	-118.011	-669.394	23.1385	22.4884	-18.8356	131.579	520.07	277.857	-1.14575	-3.31834	-18.5791	-20.935	-1.35431	-1.34543	32.0445	42.1663	2.16425	0.752301	-0.0365876	-0.919101	83.0005	-3.59212	-17.3752	-28.4084	-28.1179	26.0715	-13.1731	-7.90067	5.7286	11.1868	11.48	6.14335	-65.0121	-0.544426	-2.23916	-0.877252	-167.268	-96.5668	11.3878	145.981	14.2301	-3.22625	-0.437569	5.11751	-3.25412	-126.468	-329.547	-195.204	
3.435	-7.92156	-4.05928	-37.6317	-28.4172	-43.6597	-10.9938	-174.393	-126.395	5.48068	2.69651	-2.54484	-7.51503	-186.904	-579.432	-27.544	-39.4907	-33.0227	146.836	19.7137	-27.0732	33.6538	26.4447	13.3006	-12.4234	17.7884	-3.44742	-5.91975	-9.02696	9.08389	351.659	-3.08348	-964.424	-126.795	-482.148	23.9689	14.445	-12.8077	190.374	503.723	270.132	-1.14471	-3.17447	-20.2371	-22.3506	-1.32604	-1.345	20.7009	38.21	1.88545	0.636531	-0.199769	-0.902249	76.5387	-3.21264	-20.9991	-33.791	-32.7507	28.3062	-5.16927	-11.1047	12.1348	12.218	11.824	4.7328	-59.3037	-0.481183	-1.97296	-0.737696	-85.1047	-69.5451	11.5398	112.401	10.6851	-3.96596	-0.436743	4.35287	-2.893	-123.778	-337.008	-191.465	
3.44	-11.0033	-8.4958	-37.3243	-25.0735	-47.3089	-10.9419	-147.901	-140.355	2.65137	1.29155	-1.36001	-3.86164	-146.046	-557.898	-27.5297	-38.986	-31.5092	175.452	38.3976	-26.2053	37.2612	30.6795	18.0324	-13.9834	15.2737	-1.84098	-3.07011	-8.48882	6.34479	361.973	-3.93083	-1020.61	-134.295	-292.537	24.3698	6.81691	-6.73196	178.633	504.969	266.006	-1.14367	-3.04481	-22.0446	-24.1354	-1.30996	-1.34457	9.26718	33.96	1.35741	0.432962	-0.224907	-0.772387	70.1411	-2.86347	-24.4753	-38.8215	-37.1893	29.3326	-17.1384	-14.6788	13.2887	12.7756	11.4812	3.36488	-57.0109	-0.355821	-1.4652	-0.60595	119.28	-40.335	11.5934	78.1842	6.98892	-4.73218	-0.435918	2.96741	-2.21041	-118.029	-335.094	-183.674	
3.445	-13.7819	-12.6438	-36.1615	-22.3788	-49.8647	-10.9489	-127.53	-154.511	-0.0159418	-0.0298017	-0.198464	-0.291188	-117.928	-540.161	-27.5154	-38.6546	-30.2155	201.195	55.5467	-25.4817	40.1519	34.1991	22.1252	-15.45	12.4667	-0.277591	-0.306811	-8.02806	3.48326	362.881	-4.80421	-1058.1	-140.988	-102.998	24.2783	-0.323295	-0.786724	175.415	528.729	278.766	-1.14263	-2.9278	-23.4821	-25.6833	-1.30094	-1.34414	-2.16561	29.9101	0.572327	0.138935	-0.207026	-0.517095	64.0578	-2.60563	-27.7659	-43.4319	-41.2929	29.1513	3.72932	-18.5028	13.6077	12.8576	10.4767	2.0629	-60.3796	-0.165111	-0.706217	-0.398939	77.4975	-10.2474	11.5595	44.088	3.25295	-5.51985	-0.435091	-15.3037	-1.13336	-109.919	-324.872	-173.266	
3.45	-16.2777	-16.5301	-34.1559	-20.1388	-51.3546	-10.9455	-111.416	-169.155	-2.53385	-1.28063	0.907968	3.10323	-97.79	-527.658	-27.5013	-38.4917	-29.1147	224.196	71.4037	-24.8894	42.3693	37.0628	25.6622	-16.7075	9.29917	1.20937	2.31632	-7.63313	0.480975	354.336	-5.68842	-913.923	-147.128	84.5172	23.6057	-7.06089	4.86621	181.102	537.807	285.867	-1.1416	-2.82216	-24.7548	-27.1462	-1.29586	-1.34372	-13.4861	26.0199	-0.468317	-0.245078	-0.13939	-0.13689	58.3974	-2.43435	-30.8189	-47.5981	-45.0517	27.8069	-8.3402	-22.3851	13.628	12.4812	8.86175	0.844532	-67.365	0.0881224	0.304322	-0.226231	48.1946	17.8459	11.4469	10.0656	-0.448456	-6.34454	-0.434271	-7.1104	0.398585	-100.971	-309.397	-162.09	
3.455	-18.5205	-20.1955	-31.3327	-18.256	-51.8252	-10.9416	-98.443	-184.578	-4.91319	-2.46275	1.93221	6.24295	-82.6153	-518.046	-27.4872	-38.469	-28.1853	244.722	86.2813	-24.4179	43.9813	39.3583	28.7597	-17.8631	5.79834	2.59133	4.75469	-7.29507	-2.67396	341.042	-6.57036	-664.671	-151.131	265.047	22.3481	-13.4707	10.0959	184.778	535.11	286.231	-1.14056	-2.72671	-25.9277	-28.6163	-1.29298	-1.34329	-24.7544	22.3195	-1.75657	-0.716508	-0.0368946	0.365678	53.4013	-2.32598	-33.6014	-51.3183	-48.4599	25.3826	-2.72718	-26.3367	13.2742	11.6797	6.71127	-0.27545	-71.1339	0.405274	1.55576	-0.104817	64.0848	45.4335	11.2655	-23.5406	-4.02036	-7.24101	-0.433449	2.15749	2.32102	-92.0012	-290.975	-150.726	
3.46	-20.3436	-23.6846	-27.731	-16.6578	-51.3414	-10.935	-87.8797	-200.935	-7.16191	-3.58869	2.85279	9.05941	-70.8386	-509.908	-27.4733	-38.4523	-27.4098	263.03	100.571	-24.0596	45.0856	41.1947	31.5562	-18.873	1.97125	3.84515	6.97392	-7.00651	-5.99799	327.367	-7.43459	-500.468	-152.31	432.691	20.6326	-19.5415	14.7913	186.421	535.03	288.05	-1.13952	-2.6405	-27.061	-30.2099	-1.29126	-1.34287	-36.1138	18.8536	-3.27212	-1.26874	0.19628	0.989923	49.2525	-2.25905	-36.086	-54.5877	-51.4777	21.9975	-10.0822	-30.3152	12.5332	10.496	4.11584	-1.28587	-6.59964	0.782391	3.02551	-0.0277212	74.3175	71.9653	11.024	-55.7861	-7.39255	-8.25528	-0.432629	-0.0932512	4.5699	-83.1014	-270.736	-139.14	
3.465	-21.8998	-27.0558	-23.3859	-15.2928	-49.9646	-10.9279	-79.1894	-215.783	-9.2841	-4.64507	3.65485	11.4978	-61.5144	-502.298	-27.4594	-38.4319	-26.7743	279.478	114.683	-23.8087	45.7991	42.6866	34.1914	-19.6853	-2.16297	4.95385	8.94658	-6.76161	-9.51061	311.208	-8.26841	-392.805	-150.908	582.302	18.5942	-25.2962	18.8831	187.952	537.245	291.422	-1.13848	-2.56265	-27.9363	-31.6516	-1.29016	-1.34244	-47.4369	15.6509	-9.58779	-3.29822	0.608759	1.72492	45.9649	-2.21792	-38.2417	-57.4134	-54.0634	17.7869	-5.48639	-34.1353	11.4665	8.9872	1.17729	-2.17667	122.564	1.21107	4.67806	0.0189311	74.5801	96.9061	10.7294	-85.8216	-10.4776	-9.45386	-0.431809	-12.3925	7.08627	-74.2837	-169.546	-127.341	
3.47	-23.3921	-30.3503	-18.3367	-14.1199	-47.7872	-10.9207	-71.9717	-228.578	-11.2818	-5.63664	4.32888	13.515	-54.0272	-493.723	-27.4456	-38.4108	-26.2678	294.454	129.023	-23.6613	46.2143	43.9525	36.7972	-20.2706	-6.57072	5.90512	10.6544	-6.55562	-13.2364	283.182	-9.0614	-319.946	-146.903	711.79	16.3367	-30.8106	22.3247	184.27	522.492	285.436	-1.13744	-2.49245	-28.1879	-32.3793	-1.28938	-1.34202	-58.0064	12.7216	-52.9247	-8.4875	31.9721	2.61083	43.4876	-2.19236	-40.037	-59.7313	-56.1857	12.9066	-2.12481	-37.536	10.1139	7.21326	-1.99605	-2.93593	90.1165	1.72047	6.46318	0.0462288	74.442	119.789	10.3882	-112.633	-13.2299	-10.9178	-0.430991	-17.8509	9.94546	-65.6742	-34.9637	-115.497	
3.475	-24.7594	-33.6159	-12.62	-13.1065	-44.855	-10.9136	-65.9253	-238.999	-13.1419	-6.57084	4.87217	15.0846	-47.9376	-481.947	-27.4317	-38.39	-25.8822	308.457	143.941	-23.614	46.3014	45.1098	39.4948	-20.601	-11.209	6.69193	12.0914	-6.38471	-17.1794	243.872	-9.78232	-266.868	-140.524	821.739	13.9057	-36.0242	25.1024	173.79	486.725	267.973	-1.1364	-2.42924	-28.0419	-32.5919	-1.28878	-1.3416	-67.3238	10.0556	-33.9796	-4.55028	28.7587	3.59339	41.7291	-2.17598	-41.4534	-61.5517	-57.8265	7.52184	-5.11522	-40.2811	8.53256	5.23885	-5.29154	-3.55403	76.9738	2.32122	8.31739	0.0618458	75.0857	140.227	10.0065	-136.036	-15.624	-12.7437	-0.430173	-21.0519	12.977	-57.4204	-21.6389	-103.78	
3.48	-26.096	-36.8981	-6.26201	-12.2264	-41.2473	-10.9064	-60.8232	-245.691	-14.859	-7.43302	5.28513	16.2037	-42.9258	-458.471	-27.418	-38.3695	-25.6111	321.918	159.724	-23.6089	46.0203	46.2609	42.3819	-20.6484	-16.0237	7.31388	13.2485	-6.24587	-21.3199	202.099	-10.282	-226.618	-131.9	913.353	11.3356	-40.8438	27.2218	159.814	441.08	245.179	-1.13535	-2.3725	-26.7414	-31.3048	-1.28826	-1.34117	-75.222	7.63722	-26.9662	-3.818	-2.64805	4.62462	40.5427	-2.16492	-42.4761	-62.8824	-58.9736	1.78898	-41.5424	-42.3954	6.77327	3.12754	-8.55787	-4.022	83.2484	2.98194	10.1681	0.0705948	75.1252	157.608	9.59415	-155.908	-17.6354	-15.0397	-0.429357	-24.6905	15.9987	-49.6864	-218.079	-92.4876	
3.485	-27.4417	-40.2004	0.713439	-3.62085	-36.9715	-10.8992	-56.4922	-247.625	-16.4191	-8.21922	5.57234	16.8924	-38.7565	-406.106	-27.4045	-38.3491	-25.4506	334.834	176.524	-23.5965	45.5782	47.4457	45.511	-20.4101	-20.9595	7.77045	14.1318	-6.13673	-25.7595	162.929	-10.7953	-195.321	-120.902	986.498	8.66364	-45.3241	28.7131	145.579	395.244	222.378	-1.1343	-2.32173	-26.0043	-30.5258	-1.28779	-1.34075	-81.7011	5.47962	-0.39529	-2.36415	-5.03919	5.65842	39.7361	-2.15688	-43.1147	-63.7511	-59.6327	-4.13264	-34.9693	-44.3623	4.89595	0.941216	-11.5358	-4.33786	84.5129	3.64597	11.9354	0.0754821	74.3858	171.522	9.15998	-172.044	-19.2788	-17.9204	-0.428541	-29.1791	18.7879	-42.558	-72.5948	-81.8776	
3.49	-28.8286	-43.5734	8.27919	32.3385	-32.0725	-10.8918	-52.7986	-245.417	-17.8005	-8.91729	5.73977	17.2029	-35.2551	-314.499	-27.3909	-38.329	-25.3973	346.963	194.38	-23.5838	45.0023	48.5627	48.8955	-19.9466	-26.002	8.07057	14.7415	-6.0555	-30.3835	125.458	-11.2439	-170.589	-107.574	1039.08	5.90417	-49.3427	29.6265	130.944	348.846	199.134	-1.13325	-2.2765	-25.6834	-30.4102	-1.28734	-1.34033	-86.7144	3.5979	31.9354	-3.18619	-1.73704	6.63475	39.1489	-2.15055	-43.3816	-64.1741	-59.8217	-10.1001	-30.6374	-45.9885	2.95204	-1.26551	-13.4028	-4.50056	80.9459	4.2184	13.5367	0.077972	73.1658	181.781	8.71339	-184.389	-20.5657	-21.4935	-0.427727	-33.4522	21.0057	-36.105	-8.14581	-72.36	
3.495	-30.2824	-47.1321	16.4127	45.6022	-26.5393	-10.8844	-49.6378	-233.129	-18.9813	-9.52067	5.79605	17.1826	-32.2907	-251	-27.3774	-38.309	-25.3921	357.946	213.18	-23.571	44.2814	49.5432	52.5024	-19.3027	-31.0633	8.22252	15.086	-6.00091	-35.2726	89.2704	-11.6439	-150.76	-92.0834	1070.2	3.06394	-52.8279	30.0171	116.455	309.234	176.049	-1.1322	-2.23647	-25.1673	-30.6612	-1.28691	-1.33992	-90.1827	2.00259	22.8732	-3.01853	-12.7364	7.46992	38.6196	-2.14517	-43.3001	-64.0702	-59.5663	-15.9867	-29.1346	-47.1304	0.996455	-3.44281	-11.2279	-4.51187	77.4047	4.31004	14.8925	0.0793389	71.5923	188.296	8.2649	-192.97	-21.5238	-25.8399	-0.426914	-36.6275	21.1264	-30.3108	-39.3785	-63.9609	
3.5	-31.8282	-51.0058	25.0711	52.8108	-20.3719	-10.8769	-46.9271	-220.304	-19.9384	-10.015	5.74955	16.8807	-29.7633	-205.683	-27.3639	-38.2891	-25.3789	367.48	232.643	-23.5584	43.4121	50.4676	56.35	-18.3859	-36.1512	8.24124	15.1841	-5.97222	-40.3841	54.1802	-12.003	-134.652	-74.6696	1078.67	0.143111	-55.6989	29.9424	105.842	297.875	164.045	-1.13114	-2.20132	-24.545	-31.2006	-1.28648	-1.3395	-92.1905	0.701479	-23.7026	-7.1906	-7.02501	7.99932	37.9734	-2.14032	-42.9039	-63.5637	-58.8914	-35.4893	-30.0698	-47.7723	-0.887891	-5.54972	-9.42498	-4.37664	74.3832	3.43236	15.9259	0.0800239	69.7171	191.109	7.82281	-197.86	-22.1487	-30.9771	-0.426101	-38.7963	21.1527	-25.2318	-36.6323	-56.2129	
3.505	-33.4504	-55.0732	34.2024	63.6231	-13.5583	-10.8693	-44.6001	-203.759	-20.6406	-10.3895	5.61323	16.3492	-27.5953	-172.797	-27.3505	-38.2694	-25.3654	375.142	252.313	-23.546	42.3649	51.224	60.3491	-17.171	-41.2556	8.14245	15.0565	-5.96664	-45.7046	22.8203	-12.3276	-121.409	-55.6354	1063.06	-2.86274	-57.8654	29.4585	101.342	280.755	157.014	-1.13008	-2.17079	-23.9705	-31.7801	-1.28605	-1.33908	-93.0441	-0.300605	-25.4599	-7.81803	-3.9096	7.87206	37.1176	-2.13577	-42.2396	-62.7674	-57.8232	-31.9144	-32.0194	-47.9894	-1.53435	-7.55588	-16.0761	-4.1022	71.2763	3.66951	16.5788	0.0803429	67.6089	190.38	7.3952	-198.939	-22.3717	-36.8469	-0.42529	-40.3427	24.2285	-21.005	12.7357	-48.8575	
3.51	-35.1563	-59.0177	43.7163	76.2536	-6.11739	-10.8617	-42.6043	-184.471	-21.001	-10.6328	5.40309	15.6402	-25.7259	-147.661	-27.3371	-38.2498	-25.3517	380.337	271.529	-23.5336	41.2606	51.707	64.2532	-15.7107	-46.3712	7.94339	14.7259	-5.96453	-51.1965	-1.58181	-12.6243	-110.408	-35.3558	1033.44	-5.96209	-59.1722	28.6155	93.4298	255.902	144.321	-1.12902	-2.14465	-23.6927	-32.5305	-1.28563	-1.33867	-92.9238	-1.00148	-19.014	-7.6741	-1.77103	7.44321	35.8519	-2.13137	-41.3626	-61.745	-56.2874	-37.7011	-34.1864	-47.8813	-1.70699	-9.43715	-21.5859	-3.69794	68.0232	4.51152	16.804	0.0804624	65.3497	186.358	6.98981	-146.248	-22.1963	-43.3052	-0.42448	-41.4154	24.5692	-17.7337	119.633	-42.2598	
3.515	-36.911	-62.6664	53.5008	88.1124	1.9385	-10.8539	-40.8965	-163.622	-20.9834	-10.7073	5.13293	14.8024	-24.107	-127.917	-27.3237	-38.2303	404.556	382.448	289.602	-23.5214	40.2427	51.8255	67.8112	-14.0417	-51.5351	7.66067	14.2289	-5.96139	-56.8219	-28.2522	-12.8893	-101.191	-14.2302	997.661	-9.16867	-59.2564	27.4611	84.1957	230.569	130.235	-1.12796	-2.12271	-23.2732	-33.0822	-1.28521	-1.33825	-91.7801	-1.40182	-18.4121	-7.9773	-0.527154	6.95621	34.2554	-2.12707	-40.3334	-60.5546	-54.2459	-37.7294	-36.1964	-47.5496	-10.3807	-13.531	-19.6262	-3.1739	64.7774	4.62941	16.5741	0.0804757	63.0094	179.364	6.61262	-110.542	-21.6636	-50.1517	-0.423671	-41.6911	23.3476	-15.4329	124.377	-36.803	
3.52	-38.5236	-65.9337	63.385	99.1177	10.5327	-10.8461	-39.4426	-142.187	-20.6418	-10.5909	4.82013	13.8757	-22.6998	-112.102	-27.3103	379.24	266.762	381.007	305.696	-23.5092	39.043	51.5429	70.8627	-12.1924	-56.8369	7.31116	13.5958	-5.95817	-62.507	-55.7901	-13.1288	-93.4142	7.24737	952.439	-12.4947	-58.2685	26.0496	76.186	208.905	118.252	-1.1269	-2.10482	-22.2413	-32.7188	-1.28478	-1.33784	-89.4917	-1.50843	-19.8023	-8.00202	0.28999	6.51226	32.2868	-2.12283	-39.2105	-59.2651	-52.0489	-39.7607	-37.976	-47.0933	-8.36572	-19.883	-17.6783	-2.54013	61.6224	4.27856	15.8759	0.0805793	60.655	169.784	6.26945	-101.514	-20.7982	-57.1563	-0.422864	-41.1084	21.7541	-14.0172	107.318	-32.6403	
3.525	-39.94	-68.6874	73.1768	109.597	19.5623	-10.8381	-38.2146	-120.893	-20.0639	-10.3172	4.47943	12.8951	-21.4733	-99.273	-27.297	518.765	302.906	375.63	318.97	-23.4971	37.6027	51.2627	73.3023	-10.1995	-62.3688	6.91173	12.8606	-5.95496	-68.1664	-82.0445	-13.3369	-86.8151	28.4775	893.916	-15.9286	-56.6414	24.4469	69.6409	190.917	108.477	-1.12583	-2.09085	-20.6485	-31.2126	-1.28436	-1.33742	-86.162	-1.3349	-19.4557	-7.63602	0.811842	6.07803	29.791	-2.11862	-38.0501	-57.9499	-49.7626	-43.8242	-39.5502	-46.6086	-5.69528	-14.1112	-15.4214	-1.80641	58.602	3.89074	14.7181	0.0805047	58.3408	158.03	5.9636	-93.6135	-19.6461	-64.0678	-0.422057	-39.4505	19.9476	-13.3691	59.928	-29.7605	
3.53	-41.0929	-70.9979	82.6312	119.384	29.0314	-10.8301	-37.1899	-100.348	-19.3276	-9.93666	4.12405	11.8942	-20.4021	-88.7477	-27.2837	388.367	341.477	365.803	329.116	405.148	35.8273	50.8318	75.01	-8.10782	-68.048	6.4768	12.0531	-5.95181	-73.5763	-107.554	-13.4849	-81.1903	48.8673	827.161	-19.4454	-54.7364	22.7172	63.2475	173.495	98.8522	-1.12477	-2.10978	-18.4544	-28.8335	-1.28393	-1.33701	-82.1697	-0.901737	-17.5595	-6.96235	1.12538	5.59667	26.9773	-2.11442	-36.9077	-56.674	-47.4295	-48.0485	-40.9583	-46.1858	-3.39842	-14.368	-14.6147	-0.982242	55.7619	3.48143	13.1157	0.0804164	56.1167	144.548	5.69726	-83.7012	-18.257	-70.6073	-0.421251	-36.6373	17.6855	-13.3828	35.8963	-28.1093	
3.535	-41.9032	-72.8575	91.4704	128.12	37.9192	-10.8219	-36.3507	-81.0814	-18.5039	-9.49049	3.76495	10.8949	-19.4655	-80.0213	-27.2704	451.808	357.69	349.967	335.569	432.181	33.6448	50.0906	75.9494	-5.95502	-73.3144	6.02013	11.2018	-6.28055	-78.6073	-133.177	-13.5275	-76.3801	67.8817	759.212	-22.9566	-52.5507	20.9197	56.4652	155.212	88.5667	-1.12369	26.4925	-15.9367	-26.0523	-1.28351	-1.3366	-77.8203	-0.237771	-14.9831	-5.98816	1.2526	5.03768	23.715	-2.11025	-35.8329	-55.5034	-45.1226	-51.5355	-42.2363	-45.9064	-10.6995	-16.2555	-14.6233	-0.0781943	53.1532	2.91375	11.0978	0.0803168	54.0208	129.778	5.47064	-74.5405	-16.6854	-76.4995	-0.420447	-31.9828	14.7308	-13.992	-0.115296	-27.6094	
3.54	-42.3052	-74.0773	99.4029	135.528	47.2408	-10.8137	-35.6828	-63.484	-17.5864	-9.00985	3.41113	9.91105	-18.6464	-72.7168	-19.9256	467.167	368.624	328.055	337.379	358.533	30.985	49.0466	76.1805	-3.77937	-78.1134	5.55196	10.3271	133.931	-84.5009	-159.012	-13.4605	-72.2586	85.0644	693.012	-26.3121	-50.0274	19.106	49.1933	135.576	77.3834	-1.12262	111.578	-13.3414	-23.1827	-1.28308	-1.33619	-73.3028	0.623492	-11.9526	-4.707	1.24488	4.35375	20.1238	-2.10609	-34.8699	-54.5016	-42.9224	-54.2966	-43.4183	-45.8369	-17.6447	-17.7745	-4.89483	0.892095	50.8156	2.293	8.69541	0.0802138	52.0835	114.157	5.2821	-66.7697	-14.9916	-81.6062	-0.419643	-25.8411	11.4218	-15.1452	-6.46911	-28.1852	
3.545	-42.2157	-74.4524	106.1	141.365	55.6723	-10.8053	-35.1754	-47.7297	-16.578	-8.48886	3.06893	8.95935	-17.9308	-66.5506	532.257	465.972	375.866	302.065	334.352	409.577	27.8466	47.6493	75.2651	-1.62233	-82.2976	5.0838	9.45346	204.517	-89.4779	-184.812	-13.2665	-68.7252	100.129	628.781	-29.3548	-47.2144	17.3181	41.1089	113.625	64.8034	-1.12154	110.31	-10.8361	-20.3003	-1.28265	-1.33578	-68.7478	1.64667	-8.37081	-3.1373	1.12576	3.47039	16.169	-2.10193	-34.4025	-53.8386	-40.8903	-56.5778	-44.5376	-46.0251	-15.8119	-18.5506	-1.62271	1.9069	48.8829	1.57363	5.94343	0.0801082	50.3247	98.1117	5.12875	-59.8235	-13.2311	-85.906	-0.418835	-19.0091	7.79357	-16.7758	-52.7905	-29.7469	
3.55	-41.6501	-73.6873	111.267	145.411	63.1663	-10.7969	-34.8207	-33.7413	-15.5059	-7.93277	2.74316	8.05251	-17.307	-61.3076	212.154	461.459	377.806	272.713	326.938	418.263	23.9416	45.8472	72.5423	0.475453	-85.6772	4.62188	8.59517	201.773	-94.025	-209.661	-12.9239	-65.6992	112.915	567.271	-32.4651	-44.1876	15.5857	32.0096	88.7443	50.5345	15.2081	98.6828	-8.37221	-17.3402	-1.28222	-1.33537	-64.2602	2.79422	-4.20717	-1.31569	0.920852	2.31889	11.8427	-2.09779	-34.5461	-53.5907	-39.0774	-58.4186	-45.6239	-46.5037	-13.3227	-19.1767	-18.3679	2.93752	47.5406	0.778327	2.87049	-0.983325	48.7535	82.0357	5.00599	-53.1958	-11.4531	-89.4221	-0.41804	-10.9225	3.86083	-18.8056	-26.9362	-32.2085	
3.555	-40.7249	-69.4986	114.664	147.378	69.2798	-10.7884	-34.6135	-21.2503	-14.3824	-7.35445	2.43716	7.19579	-16.7654	-56.822	276.73	452.143	374.52	241.142	315.614	415.392	19.3	41.7507	68.8948	2.47557	-89.1277	4.17321	7.7597	187.54	-97.8675	-231.622	-12.415	-63.1158	123.345	509.307	-36.1246	-40.989	13.9356	21.9558	61.0827	34.6963	60.4039	98.6202	-5.4326	-14.0503	-1.28179	-1.33496	-59.9219	4.02788	0.472157	0.711331	0.648256	0.955752	7.11053	-2.09366	-34.8505	-53.6075	-37.5183	-59.785	-46.6985	-11.3969	-11.3822	-19.8184	-19.1653	3.95075	46.4282	-0.0860141	-0.495966	-2.5097	47.3635	66.2721	4.90781	-46.8093	-9.70166	-92.1389	-0.41724	-1.2401	-0.391158	-21.1421	-118.61	-35.4649	
3.56	-39.517	-52.7937	116.126	147.059	73.8919	-10.7797	-34.5483	-9.76419	-13.2313	-6.76242	2.15287	6.39582	-16.2979	-52.964	290.887	441.792	366.371	208.851	301.09	409.245	15.1586	37.6026	64.5586	4.35274	-91.1437	3.74377	6.96232	184.653	-100.743	-250.319	-11.7253	-60.9226	131.48	455.235	-39.3767	-37.7024	12.3816	11.1224	31.1531	17.5866	33.9906	98.5906	-2.44509	-10.6071	-1.28136	-1.33455	-55.8	5.30706	5.57114	2.88544	0.319785	-0.547826	1.89679	-2.08953	-35.274	-53.9032	-36.2484	-60.7088	-47.7832	-19.2985	-11.7095	-20.3935	-18.838	4.9115	-3.17956	-1.01944	-4.13668	-3.59087	46.1612	51.2597	4.82777	-40.7943	-8.0308	-93.9528	-0.416441	10.2022	-4.99461	-23.7148	0.43069	-39.4353	
3.565	-38.0333	-40.7691	115.447	144.351	76.6035	-10.7709	-34.5414	1.28972	-12.0674	-6.16444	1.89086	5.64952	-15.8979	-49.6317	281.249	428.204	353.324	177.144	284.003	398.253	11.1271	33.7047	59.7054	6.07767	-92.2024	3.33538	6.20246	184.326	-102.391	-272.089	-10.8352	-59.0774	137.375	405.063	-41.3797	-34.3572	10.9328	-0.174439	-0.123529	-0.265336	38.6214	90.7517	-0.502527	-8.13143	-1.28093	-1.33414	-51.9243	6.59326	10.9884	5.13736	-0.0603983	-2.15615	-3.81302	-2.08542	-35.861	-54.4915	-35.2694	-61.2242	-28.1102	-4.27578	-11.1142	-20.8438	-26.0719	5.79406	-14.6236	-2.02546	-8.03516	-4.06098	45.1028	37.0909	3.66999	-35.0535	-6.47527	-94.6798	-0.415643	23.4333	-10.0021	-26.484	-194.11	-44.0102	
3.57	-36.4128	-32.4267	112.739	139.369	77.3251	-10.7621	-34.5236	12.6512	-10.9114	-5.5722	1.65195	4.96219	-15.5599	-46.7431	270.513	409.371	336.106	147.445	265.512	382.908	7.55627	29.8252	54.7499	7.64526	-92.2449	2.95196	5.49119	181.907	-102.711	-297.301	-9.75088	400.852	141.402	358.648	-42.1938	-31.037	9.59371	-11.6193	-31.8185	-18.351	44.7668	110.233	-1.0105	-7.73807	-1.2805	-1.33374	-48.2921	7.84266	16.6098	7.3889	-0.493753	-3.87939	-10.0632	-2.08131	-36.6343	-55.3816	-34.5856	-61.4069	-43.7716	-2.75367	-10.202	-21.1912	-25.0925	6.57612	7.29191	-3.11175	-12.1791	-4.02717	44.2234	24.2047	5.82334	-29.7682	-5.07625	-94.0203	-0.414847	38.2335	-15.4825	-29.4389	43.3032	-49.0955	
3.575	-34.7681	-26.6129	108.179	132.133	75.9578	-10.7531	124.493	25.0355	-9.77943	-4.99267	1.43479	4.33228	-15.2795	-44.2326	259.19	387.809	315.202	121.002	245.919	364.088	4.63227	26.3352	50.3642	9.05177	-90.9645	2.59539	4.82737	174.06	-101.597	-314.919	-8.48208	1235.51	143.85	315.942	-42.2925	-27.7941	8.37065	-22.838	-62.8325	-36.0681	45.6642	113.841	-1.61573	-8.46607	-1.28006	-1.33333	-44.89	9.0102	22.296	9.55277	-0.98651	-5.73751	-16.891	-2.07721	-37.5689	-56.5448	-34.1816	-61.3146	-27.4802	-2.35901	-9.33652	-21.4733	-23.7751	7.23949	12.7239	-4.28033	-16.5554	-3.77115	43.6924	12.6794	4.56735	-25.0245	-3.86128	-1503.03	-0.414051	52.4083	-21.5107	-32.5269	-202.996	-54.5348	
3.58	-33.2101	-22.297	101.939	123.018	72.5588	-10.744	798.734	39.124	-8.68996	-4.43473	1.23939	3.76022	-15.0531	89.9881	245.38	363.761	291.311	98.8076	225.218	342.722	2.50501	23.4248	46.9259	10.3047	-88.3813	2.26708	4.21763	159.339	-99.2153	-321.672	-7.0454	1329.09	145.019	276.751	-41.948	-24.6685	7.25999	-33.4961	-92.1931	-52.8589	42.8976	101.513	-2.1004	-9.61883	-1.27963	-1.33292	-41.7225	10.0457	27.8787	11.54	-1.54801	-7.78986	-24.4156	-2.07312	-38.6306	-57.9394	-34.0278	-61.0112	-6.47117	-2.4384	-6.55667	-21.7264	-31.5834	7.77583	30.6969	-5.53593	-21.147	-3.50577	43.2247	2.68347	-1.01524	-20.8627	-2.84837	20.7493	-0.413257	63.2608	-28.1491	-35.6305	-44.3081	-60.1244	
3.585	-31.795	-18.978	94.2226	112.736	67.265	-10.7348	888.778	55.4711	-7.65612	-3.90563	1.06473	3.24461	-14.8779	402.991	230.167	337.761	265.16	81.4917	204.865	319.7	1.27632	21.2262	43.9839	11.4152	-84.58	1.96679	3.65823	142.802	-96.0026	-320.558	-5.46701	1207.29	145.722	240.855	-40.8502	-21.703	6.25868	-43.3337	-119.194	-68.3211	46.9977	111.759	-1.89455	-10.2658	-1.27919	-1.33252	-38.8184	10.9014	33.1311	13.2687	-2.18817	-9.97754	-32.7715	-2.06904	-39.7893	-59.5168	-34.0837	-60.5723	-42.2801	-2.42578	-4.05538	-21.9726	-31.4511	8.19017	34.0176	-6.87809	-25.9206	-6.0751	42.7961	-5.73855	0.0843254	-17.3576	-2.04396	-34.1269	-0.412457	72.6049	-35.4355	-38.5884	-212.445	-65.5827	
3.59	-30.6242	-16.3609	85.3174	101.587	60.3263	-10.7255	781.234	74.4402	-6.69	-3.41171	0.909899	2.78471	-14.7517	577.968	214.107	310.561	237.638	69.7082	186.06	295.809	0.991229	19.8275	41.698	12.3982	-79.8891	1.69601	3.15474	129.055	-91.9815	-316.447	-3.78062	1149.19	146.557	208.047	-37.9607	-18.9408	5.36482	-52.2793	-143.614	-82.2932	46.8185	113.146	-0.283621	-9.09202	-1.27875	-1.33212	-36.2132	11.548	37.8501	14.6703	-2.91421	-12.3091	-42.2802	-2.06497	-41.0185	-61.2225	-34.2996	-60.0738	-42.4052	-2.42138	-3.67415	-22.2366	-30.8102	8.49668	28.5466	-8.30465	-30.84	-8.19226	42.4209	-12.6368	3.76949	-14.5684	-1.44363	31.7971	-0.411676	82.4454	-43.3951	-41.2682	-153.616	-70.564	
3.595	-29.7343	-14.2666	75.5789	89.8278	52.0516	-10.716	713.905	96.1162	-5.80037	-2.95769	0.773945	2.37684	-14.6732	651.976	197.696	282.825	209.581	64.2312	169.046	272.06	1.63411	19.25	40.1444	13.2735	-74.6063	1.45302	2.70331	118.486	-86.8549	-310.37	-2.03141	1166.48	147.513	178.367	-30.0957	-16.4061	4.57541	-60.4889	-165.963	-95.022	46.1092	109.171	-0.0680721	-7.79374	-1.27832	-1.33171	-33.9305	11.981	41.9731	15.7066	-3.72517	-14.7174	-53.0407	-2.0609	-42.2883	-62.9992	-34.619	-59.5971	-41.2661	-2.41269	-12.2101	-22.5449	-29.4694	8.71333	33.0686	-9.80743	-35.8526	-9.30432	42.0786	-18.0794	4.89763	-12.5091	-1.03222	2.06194	-0.410879	93.2339	-51.9961	-43.6396	-250.487	-74.855	
3.6	-29.1478	-12.5693	65.3753	77.8395	42.8222	-10.7065	708.331	120.253	-4.9971	-2.54725	0.655308	2.02053	-14.6413	697.66	181.375	255.216	181.729	68.8581	154.162	249.129	3.12031	19.457	39.3231	14.0603	-68.6383	1.23952	2.30512	110.458	-80.9039	-299.309	-0.270605	1188.91	148.513	152.072	-22.6719	-14.121	3.88484	-68.4205	-187.56	-107.205	45.7063	105.46	-0.255674	-7.37017	-1.27788	-1.33131	-31.9663	12.2169	45.691	16.3775	-4.66931	-17.2726	-64.9549	-2.05685	-43.5668	-64.7876	-34.9824	-59.1818	-35.2018	-2.40834	-17.1487	-22.923	-27.7562	8.85903	39.7537	-11.1575	-40.8962	-9.57106	41.7401	-22.2183	4.4409	-11.1444	-0.786069	4.02491	-0.410091	106.412	-61.1418	-45.7469	-145.824	-78.4857	
3.605	-28.8575	-11.1771	55.0934	66.0386	33.0459	-10.6969	711.165	146.179	-4.28439	-2.1837	0.553792	1.71246	-14.64	749.673	165.564	228.337	154.763	74.688	141.507	227.497	5.3214	20.3477	39.3123	14.7846	-62.1763	1.05304	1.95969	99.6253	-74.4935	-266.419	1.44661	1194.2	149.727	129.191	-17.682	-12.0997	3.29004	-76.5385	-209.75	-119.585	45.2402	102.444	-0.096775	-7.19515	-1.27744	-1.33091	-30.2936	12.2835	48.9052	16.7279	-5.71364	-19.9398	-78.0001	-2.0528	-44.8208	-66.5301	-35.3298	-58.9062	-33.1525	-2.40522	-19.0576	-23.3929	-26.3775	8.94953	43.8874	-12.028	-45.894	-9.32369	41.3961	-25.2505	4.01258	-10.3929	-0.673875	2.92002	-0.409304	126.126	-70.7037	-47.6332	-229.503	-81.5399	
3.61	-28.8327	-10.0223	45.0948	54.7827	23.1534	-10.6871	702.641	172.803	-3.66856	-1.86983	0.468195	1.45306	37.3567	808.111	150.617	202.777	129.313	84.2068	131.339	207.531	8.04748	21.7778	40.1675	15.4588	-55.5983	0.89492	1.66539	85.3417	-67.9248	-197.927	3.06556	1197.07	151.354	109.679	-14.2839	-10.3544	2.78704	-85.4411	-234.22	-133.014	44.6814	99.5695	0.247052	-6.58896	-1.277	-1.33049	-28.8718	12.2122	51.1344	17.2587	-6.87487	-22.808	-91.8873	-2.04876	-46.018	-68.174	-35.6031	-58.8909	-31.2727	-2.40262	-19.4413	-23.9742	-30.4134	9.00221	46.2982	-12.8111	-50.7676	-8.80331	41.0376	-27.4306	3.86848	-10.1392	-0.657194	3.97232	-0.408515	162.731	-80.5174	-49.3085	-50.8725	-83.906	
3.615	-29.0121	-9.05458	35.7025	44.4056	13.5731	-10.6772	690.464	198.711	-3.15193	-1.60673	0.398053	1.23854	303.17	863.843	136.858	179.055	105.958	96.0557	127.715	189.535	11.077	23.5628	40.1203	16.0725	-49.1822	0.7638	1.423	73.6305	-61.467	-151.459	4.53421	1209.85	153.407	93.5322	-11.8526	-8.89658	2.37334	-95.6828	-262.699	-148.493	44.1042	97.0668	0.58505	-4.59804	-1.31691	-1.3301	-27.652	12.0347	52.1417	17.9992	-8.15954	-25.955	-106.059	-2.04473	-47.1284	-69.6715	-35.7485	-59.201	-27.7858	-2.39996	-19.0263	-24.6794	-29.5485	9.03424	48.255	-13.5557	-55.4265	-8.13754	40.6677	-29.0363	3.76939	-10.2418	-0.648231	4.2129	-0.407728	165.548	-90.3902	-50.7224	-138.784	-85.549	
3.62	-29.3217	-8.23636	27.2192	35.1724	4.72088	-10.6671	682.101	222.541	-2.7378	-1.39614	0.34224	1.06957	410.634	906.944	124.581	157.744	85.2119	108.836	123.756	173.713	14.162	25.49	39.1638	16.6051	-43.1963	0.658665	1.2294	64.456	-55.4102	-120.083	5.8057	1225.94	155.732	80.6915	-10.0244	-7.72871	2.04645	-106.204	-292.456	-164.467	43.5187	95.7184	0.96601	-3.24327	-1.49858	54.5816	-26.5778	11.7841	52.2114	18.9797	-9.58726	-29.489	-119.556	-2.04071	-48.1258	-70.9873	-35.7177	-59.8902	-24.7535	-2.39721	-14.2882	-25.5196	-26.8579	9.06621	55.6793	-14.2178	-59.7858	-5.87115	40.2851	-30.3749	3.59205	-10.5436	-0.635609	4.28974	-0.406943	163.789	-100.106	-51.794	-24.1034	-86.431	
3.625	-29.6924	-7.53911	19.9233	27.2952	-3.02599	-10.657	676.958	243.026	-2.42743	-1.23876	0.30088	0.943839	418.878	931.857	114.066	139.327	67.5269	121.443	120.566	161.749	17.0494	27.3451	39.3829	17.0337	-37.891	0.580623	1.08657	56.7944	-50.051	-98.5041	6.83933	1222.33	158.318	71.1507	-8.60879	-6.85836	1.80278	-114.835	-317.421	-177.462	42.752	94.4	1.4367	-2.37736	-1.77636	37.8784	-25.5867	11.4914	51.6855	20.4477	-11.1664	-33.6149	-131.424	-2.03669	-48.992	-72.0898	-35.468	-61.0081	-6.12327	-2.39439	-9.64389	-26.4977	-25.5906	9.11136	56.9469	-14.779	-63.7589	-3.78048	39.8975	-31.7417	3.36331	-10.8836	-0.610333	4.22041	-0.406159	167.352	-109.424	-52.4798	-52.2126	-86.6476	
3.63	-30.0577	-6.9408	14.0397	20.9528	-9.32331	-10.6467	673.569	259.066	-2.22237	-1.13557	0.273531	0.862345	408.383	944.773	105.567	124.268	53.2834	132.76	118.859	155.996	19.4801	28.9156	39.365	17.3502	-33.5136	0.528264	0.991549	50.5524	-45.607	-82.629	7.60432	1197.4	161.298	64.84	-7.49081	-6.28911	1.64273	-122.067	-336.453	-187.171	42.0281	89.269	2.00409	-1.86891	-2.04163	33.407	-24.611	11.1871	50.6985	22.9244	-12.9084	-38.3971	-139.284	-2.03269	-49.7104	-72.9577	-34.9621	-62.5953	-2.11362	-2.39156	-11.3175	-27.6078	-24.2083	9.18646	66.1363	-15.2442	-67.2648	-2.24583	39.5122	-33.2619	3.12869	-11.0951	-0.540632	4.13834	-0.405376	167.501	-118.12	-52.4179	-8.30589	-86.3609	
3.635	-30.3601	-6.42423	9.76621	16.2897	-13.8798	-10.6363	665.572	270.154	-2.1244	-1.08667	0.259467	0.822621	409.545	946.942	99.3276	112.872	42.7952	141.732	117.937	149.92	21.2291	30.0058	39.2184	17.5481	-30.2587	0.501584	0.945709	45.7497	-42.2734	-70.5175	8.07566	1171.46	164.202	61.7144	-6.59497	-6.02179	1.56378	-138.554	-363.409	-209.989	41.3863	83.1388	2.66759	-1.80047	-1.92679	36.055	-23.5799	10.8992	49.4657	27.977	-14.8002	-43.8165	-143.484	-2.02869	-50.2641	-73.5759	-34.1695	-64.6797	-36.3635	-2.38871	-15.5872	-28.8346	-22.8117	9.30891	70.292	-15.6132	-70.2298	-1.25197	39.1357	-35.2948	2.90162	-10.9229	-0.392666	4.05618	-0.404595	164.837	-125.966	-51.2525	-4.59512	-85.8408	
3.64	-30.5466	-5.97582	7.23384	13.3945	-16.4711	-10.6258	648.731	273.164	-2.13342	-1.09307	0.258782	0.825364	415.053	922.204	95.5465	105.706	36.2715	147.585	117.648	147.058	22.0875	30.451	38.8983	17.6265	-28.2828	0.500093	0.94819	42.8497	-40.2132	-61.0418	8.23932	1155.44	164.138	61.7414	-5.86771	-6.05889	1.5636	-155.847	-421.877	-239.122	40.7838	77.4739	3.42312	-1.89292	-1.74165	36.5008	-22.4217	10.6512	48.2527	34.0613	-16.6675	-49.9123	-154.412	-2.0247	-50.638	-73.9287	-33.0632	-67.2698	-35.5699	-2.38585	-17.0693	-30.1589	-8.33137	9.49942	21.8946	-15.901	-72.5805	-0.642672	38.7761	-38.1378	2.67787	-10.2702	-0.140241	3.97547	-0.403814	160.194	-132.758	-47.8562	-3.44366	-85.4116	
3.645	-30.5703	-5.5847	6.53931	12.3089	-16.9326	-10.6151	627.643	263.329	-2.24918	-1.15413	0.270808	0.869157	414.491	864.5	94.3675	102.794	33.8137	149.388	117.907	146.949	21.8891	30.1128	38.2918	17.5809	-27.6968	0.523983	0.998178	41.7592	-39.5499	-53.5083	8.09305	1159.13	160.938	64.84	-5.27019	-6.39919	1.64261	-170.676	-473.666	-263.716	40.234	71.9866	4.26904	-1.7511	-2.38337	35.7173	-21.0672	10.4612	46.7516	30.3269	-18.7771	-56.7348	-155.728	-2.02072	-50.7919	-74.0197	-31.6225	-70.3603	-33.7447	-2.38298	-17.1539	-31.5622	-2.09841	9.75622	70.801	-16.1027	-74.2518	-0.282475	38.4342	-41.9582	2.45335	-9.09068	0.234337	3.89185	-0.403035	154.101	-138.359	-40.3987	-3.70487	-85.402	
