CEINMS output
datacolumns 7
datarows 217
endheader
time	addbrev_r	addlong_r	addmagDist_r	addmagIsch_r	addmagMid_r	addmagProx_r	bflh_r	bfsh_r	edl_r	ehl_r	fdl_r	fhl_r	gaslat_r	gasmed_r	glmax1_r	glmax2_r	glmax3_r	glmed1_r	glmed2_r	glmed3_r	glmin1_r	glmin2_r	glmin3_r	grac_r	iliacus_r	perbrev_r	perlong_r	piri_r	psoas_r	recfem_r	sart_r	semimem_r	semiten_r	soleus_r	tfl_r	tibant_r	tibpost_r	vasint_r	vaslat_r	vasmed_r	addbrev_l	addlong_l	addmagDist_l	addmagIsch_l	addmagMid_l	addmagProx_l	bflh_l	bfsh_l	edl_l	ehl_l	fdl_l	fhl_l	gaslat_l	gasmed_l	glmax1_l	glmax2_l	glmax3_l	glmed1_l	glmed2_l	glmed3_l	glmin1_l	glmin2_l	glmin3_l	grac_l	iliacus_l	perbrev_l	perlong_l	piri_l	psoas_l	recfem_l	sart_l	semimem_l	semiten_l	soleus_l	tfl_l	tibant_l	tibpost_l	vasint_l	vaslat_l	vasmed_l	
0.175	223.786	14.0353	2.11491	10	1	1000	
0.18	512.256	15.0366	1.34218	10	1	1000	
0.185	1041.59	14.9326	0.64319	10	1	1000	
0.19	1096.17	12.286	0.52103	10	1	1000	
0.195	766.19	11.8474	0.35655	10	1	1000	
0.2	450	5.05699	0.310921	10	1	1000	
0.205	209.247	8.61692	0.187257	10	1	1000	
0.21	71.9467	7.10576	0.0668267	10	1	1000	
0.215	15.0674	4.53512	0.0129504	10	1	1000	
0.22	1.53066	4.46741	0.0195704	10	1	1000	
0.225	1.59172	3.30816	0.0241213	10	1	1000	
0.23	2.36691	3.898	0.033145	10	1	1000	
0.235	4.96912	5.13673	0.0614865	10	1	1000	
0.24	9.05236	4.88894	0.0962467	10	1	1000	
0.245	12.2904	5.04171	0.116517	10	1	1000	
0.25	14.172	5.20408	0.126803	10	1	1000	
0.255	8.49739	6.29395	0.084352	10	1	1000	
0.26	3.36211	6.39213	0.0414381	10	1	1000	
0.265	2.67754	4.99848	0.0390447	10	1	1000	
0.27	3.20373	5.22556	0.046733	10	1	1000	
0.275	3.34356	5.13962	0.045539	10	1	1000	
0.28	2.91037	4.96735	0.0377029	10	1	1000	
0.285	2.57449	5.14817	0.0318676	10	1	1000	
0.29	2.48044	5.62276	0.0288739	10	1	1000	
0.295	2.40847	6.17373	0.0261112	10	1	1000	
0.3	2.17838	6.27995	0.0224219	10	1	1000	
0.305	2.07099	6.91899	0.0194607	10	1	1000	
0.31	3.19304	8.44075	0.0180826	10	1	1000	
0.315	7.38251	8.39688	0.01838	10	1	1000	
0.32	16.6687	8.61093	0.0190155	10	1	1000	
0.325	20.0577	9.73629	0.0257523	10	1	1000	
0.33	7.09929	7.48126	0.0474084	10	1	1000	
0.335	8.96997	8.294	0.0496062	10	1	1000	
0.34	9.37178	8.2205	0.0407068	10	1	1000	
0.345	9.45321	5.90902	0.0327324	10	1	1000	
0.35	12.9437	5.51568	0.0290214	10	1	1000	
0.355	16.1674	5.64191	0.0279285	10	1	1000	
0.36	18.2654	5.42686	0.0297973	10	1	1000	
0.365	2.38723	9.5505	0.0235631	10	1	1000	
0.37	0.109909	7.1051	0.00512293	10	1	1000	
0.375	0.0659303	6.38629	0.00250352	10	1	1000	
0.38	0.0400011	6.77357	0.00116392	10	1	1000	
0.385	0.0229039	4.76366	0.000553699	10	1	1000	
0.39	0.0196311	4.56624	0.000396358	10	1	1000	
0.395	0.0179212	4.63924	0.0002743	10	1	1000	
0.4	0.0156282	4.05084	0.000205933	10	1	1000	
0.405	0.0135018	3.73705	0.000147276	10	1	1000	
0.41	0.0132323	3.6231	0.000128271	10	1	1000	
0.415	0.0144542	4.31414	0.00010482	10	1	1000	
0.42	0.00903076	2.31433	9.10377e-05	10	1	1000	
0.425	0.0126143	3.89558	8.65222e-05	10	1	1000	
0.43	0.00968527	2.69645	7.72394e-05	10	1	1000	
0.435	0.00868628	2.76348	8.38476e-05	10	1	1000	
0.44	0.00853183	2.75794	7.87883e-05	10	1	1000	
0.445	0.0135136	2.98882	0.000282545	10	1	1000	
0.45	0.0110184	2.81324	0.000206675	10	1	1000	
0.455	0.00470366	1.68201	5.35153e-05	10	1	1000	
0.46	0.0100676	2.54918	0.000205492	10	1	1000	
0.465	0.163278	4.01494	0.000177032	10	1	1000	
0.47	0.00785217	1.99166	0.000183629	10	1	1000	
0.475	0.00576617	1.67001	0.000129932	10	1	1000	
0.48	0.00996348	2.18162	0.000234371	10	1	1000	
0.485	0.00829449	1.93087	0.000228273	10	1	1000	
0.49	0.00970882	2.0306	0.000287117	10	1	1000	
0.495	0.0107489	2.12109	0.000331816	10	1	1000	
0.5	0.0127162	2.26601	0.000421164	10	1	1000	
0.505	0.0145403	2.40921	0.000516039	10	1	1000	
0.51	0.0172821	2.58506	0.000659219	10	1	1000	
0.515	0.0199528	2.80263	0.000829483	10	1	1000	
0.52	0.0235772	3.02849	0.00106722	10	1	1000	
0.525	0.0277088	3.32057	0.00138766	10	1	1000	
0.53	0.032468	3.58823	0.00180105	10	1	1000	
0.535	0.0394598	3.80422	0.00243002	10	1	1000	
0.54	0.0503337	3.87065	0.00339168	10	1	1000	
0.545	0.0647525	3.98775	0.00468384	10	1	1000	
0.55	0.0794839	4.0884	0.00615732	10	1	1000	
0.555	0.0952611	4.20406	0.00771707	10	1	1000	
0.56	0.110845	4.29626	0.00918673	10	1	1000	
0.565	0.125263	4.43717	0.0104266	10	1	1000	
0.57	0.137959	4.53781	0.0113247	10	1	1000	
0.575	0.150079	4.72736	0.011869	10	1	1000	
0.58	0.156927	4.89224	0.0119645	10	1	1000	
0.585	0.160802	5.21672	0.0118707	10	1	1000	
0.59	0.166585	5.39292	0.0116097	10	1	1000	
0.595	0.175976	5.78039	0.0117097	10	1	1000	
0.6	0.191979	6.08044	0.0121528	10	1	1000	
0.605	0.2226	6.6498	0.0134078	10	1	1000	
0.61	0.284906	7.15753	0.0151921	10	1	1000	
0.615	0.423895	7.83034	0.0178999	10	1	1000	
0.62	0.779928	8.45903	0.0239654	10	1	1000	
0.625	1.4281	9.24652	0.0327869	10	1	1000	
0.63	2.57691	10.0886	0.0436489	10	1	1000	
0.635	4.46053	10.7624	0.0591728	10	1	1000	
0.64	7.38372	10.9113	0.0794798	10	1	1000	
0.645	12.0732	11.4399	0.100984	10	1	1000	
0.65	20.0389	11.1629	0.127943	10	1	1000	
0.655	33.4307	11.739	0.158637	10	1	1000	
0.66	54.1832	11.394	0.195724	10	1	1000	
0.665	83.2857	11.5911	0.238488	10	1	1000	
0.67	119.939	11.3046	0.278943	10	1	1000	
0.675	160.875	12.1646	0.317032	10	1	1000	
0.68	199.308	11.7591	0.319069	10	1	1000	
0.685	252.214	11.8142	0.33184	10	1	1000	
0.69	298.112	11.8128	0.332744	10	1	1000	
0.695	325.409	13.1895	0.345621	10	1	1000	
0.7	311.573	13.1083	0.341656	10	1	1000	
0.705	268.915	13.2888	0.312079	10	1	1000	
0.71	207.294	13.0353	0.237868	10	1	1000	
0.715	147.654	12.7064	0.175454	10	1	1000	
0.72	96.3463	11.3903	0.126161	10	1	1000	
0.725	56.4139	13.8528	0.0748318	10	1	1000	
0.73	33.7005	13.0354	0.0371938	10	1	1000	
0.735	23.9483	12.826	0.0368069	10	1	1000	
0.74	22.8193	12.31	0.00847997	10	1	1000	
0.745	36.7504	11.992	0.00573116	10	1	1000	
0.75	47.4009	12.2873	0.00568239	10	1	1000	
0.755	34.9622	11.7185	0.00549964	10	1	1000	
0.76	14.6316	11.4322	0.00604654	10	1	1000	
0.765	5.94658	6.07656	0.00700887	10	1	1000	
0.77	7.73158	4.03501	0.0085408	10	1	1000	
0.775	9.99063	7.73727	0.0104482	10	1	1000	
0.78	12.1579	4.56773	0.0115922	10	1	1000	
0.785	13.7808	5.00014	0.0126112	10	1	1000	
0.79	14.1729	4.27807	0.0128379	10	1	1000	
0.795	13.0235	4.30384	0.0119991	10	1	1000	
0.8	10.4371	3.65627	0.0100041	10	1	1000	
0.805	7.08555	4.05414	0.00739825	10	1	1000	
0.81	170.438	8.64995	0.121451	10	1	1000	
0.815	102.541	11.8609	0.0277962	10	1	1000	
0.82	73.2109	8.73812	0.041713	10	1	1000	
0.825	86.3638	7.04986	0.121123	10	1	1000	
0.83	47.213	7.53404	0.0423059	10	1	1000	
0.835	14.6785	5.73554	0.0442031	10	1	1000	
0.84	0.699442	6.79069	0.00107072	10	1	1000	
0.845	0.0212447	2.25139	0.000547681	10	1	1000	
0.85	0.163968	4.62313	0.000940535	10	1	1000	
0.855	0.0296764	3.11259	0.000876504	10	1	1000	
0.86	0.0269672	3.03934	0.00128567	10	1	1000	
0.865	0.0311874	3.5936	0.00179045	10	1	1000	
0.87	0.0423494	3.65703	0.00252614	10	1	1000	
0.875	0.0614806	4.0887	0.00362169	10	1	1000	
0.88	0.0838946	4.14464	0.00495587	10	1	1000	
0.885	0.137096	4.65585	0.00781955	10	1	1000	
0.89	0.130074	4.25385	0.00594743	10	1	1000	
0.895	0.222076	4.44476	0.00825012	10	1	1000	
0.9	0.3315	4.30844	0.00863265	10	1	1000	
0.905	0.467534	4.13845	0.00846408	10	1	1000	
0.91	0.584199	4.16312	0.00720085	10	1	1000	
0.915	0.649793	3.89111	0.00654367	10	1	1000	
0.92	0.688243	3.62521	0.00561552	10	1	1000	
0.925	0.720475	2.8476	0.00528132	10	1	1000	
0.93	0.731025	2.50881	0.00510648	10	1	1000	
0.935	0.714979	2.63814	0.00507573	10	1	1000	
0.94	0.6703	1.62949	0.00451694	10	1	1000	
0.945	0.628548	1.40558	0.00425046	10	1	1000	
0.95	0.130506	1.00861	0.00196321	10	1	1000	
0.955	0.0330846	1.05068	0.000392033	10	1	1000	
0.96	0.044077	0.709803	0.000707037	10	1	1000	
0.965	0.118651	0.609006	0.00172199	10	1	1000	
0.97	0.13789	0.599185	0.00183796	10	1	1000	
0.975	2.52256	3.94518	0.00187075	10	1	1000	
0.98	3.0895	3.3941	0.00239667	10	1	1000	
0.985	0.327526	1.24697	0.00298222	10	1	1000	
0.99	0.235639	0.351433	0.00309811	10	1	1000	
0.995	0.361448	1.84238	0.00340055	10	1	1000	
1	0.280217	0.37291	0.00370852	10	1	1000	
1.005	0.302946	0.436124	0.00400802	10	1	1000	
1.01	0.320704	0.619913	0.00421071	10	1	1000	
1.015	0.373727	2.60716	0.00464703	10	1	1000	
1.02	0.394627	0.847507	0.00455332	10	1	1000	
1.025	0.400805	1.33518	0.00461686	10	1	1000	
1.03	0.422138	1.43049	0.00466266	10	1	1000	
1.035	0.441829	1.72729	0.00475217	10	1	1000	
1.04	0.459494	1.79078	0.0047799	10	1	1000	
1.045	0.492791	2.28632	0.00502353	10	1	1000	
1.05	0.534811	2.32401	0.00533497	10	1	1000	
1.055	0.584939	2.63472	0.00580055	10	1	1000	
1.06	0.646704	2.95331	0.00642271	10	1	1000	
1.065	0.720711	2.89438	0.00708139	10	1	1000	
1.07	0.801056	3.10736	0.00806071	10	1	1000	
1.075	0.891248	3.11573	0.00922416	10	1	1000	
1.08	1.00305	3.19182	0.010774	10	1	1000	
1.085	1.1487	3.20473	0.0127531	10	1	1000	
1.09	1.34316	3.23462	0.0152079	10	1	1000	
1.095	1.5876	3.20524	0.0181	10	1	1000	
1.1	1.87026	3.43367	0.0213529	10	1	1000	
1.105	2.17687	3.41446	0.0245404	10	1	1000	
1.11	2.48706	3.4591	0.0275173	10	1	1000	
1.115	2.75836	3.36921	0.0300075	10	1	1000	
1.12	2.96123	3.32326	0.0317941	10	1	1000	
1.125	3.07806	3.01038	0.0329952	10	1	1000	
1.13	3.11555	2.70981	0.0334482	10	1	1000	
1.135	3.07955	2.59894	0.0333737	10	1	1000	
1.14	2.98826	2.10628	0.0329223	10	1	1000	
1.145	2.85255	2.00804	0.0320829	10	1	1000	
1.15	2.68654	1.99741	0.0310113	10	1	1000	
1.155	2.48671	2.24998	0.0296895	10	1	1000	
1.16	2.23514	2.23646	0.0278349	10	1	1000	
1.165	1.9094	1.77737	0.0251884	10	1	1000	
1.17	1.5623	1.76271	0.0219871	10	1	1000	
1.175	1.21095	1.84374	0.0183109	10	1	1000	
1.18	0.906964	1.79989	0.0143636	10	1	1000	
1.185	0.783064	1.74466	0.0114145	10	1	1000	
1.19	1.00018	1.8047	0.0109457	10	1	1000	
1.195	1.53662	1.99435	0.0131452	10	1	1000	
1.2	2.42327	2.3131	0.0165678	10	1	1000	
1.205	4.07243	2.90305	0.022698	10	1	1000	
1.21	7.09204	2.73354	0.0346134	10	1	1000	
1.215	12.7786	2.82723	0.0535269	10	1	1000	
1.22	23.5503	3.24068	0.0814254	10	1	1000	
1.225	41.9601	3.74298	0.120891	10	1	1000	
1.23	68.007	4.03689	0.181703	10	1	1000	
1.235	98.2489	4.02308	0.246738	10	1	1000	
1.24	131.01	4.24848	0.29467	10	1	1000	
1.245	164.802	3.86113	0.382628	10	1	1000	
1.25	117.349	5.34117	0.405774	10	1	1000	
1.255	126.697	5.14869	0.468318	10	1	1000	
