CEINMS output
datacolumns 81
datarows 92
endheader
time	addbrev_r	addlong_r	addmagDist_r	addmagIsch_r	addmagMid_r	addmagProx_r	bflh_r	bfsh_r	edl_r	ehl_r	fdl_r	fhl_r	gaslat_r	gasmed_r	glmax1_r	glmax2_r	glmax3_r	glmed1_r	glmed2_r	glmed3_r	glmin1_r	glmin2_r	glmin3_r	grac_r	iliacus_r	perbrev_r	perlong_r	piri_r	psoas_r	recfem_r	sart_r	semimem_r	semiten_r	soleus_r	tfl_r	tibant_r	tibpost_r	vasint_r	vaslat_r	vasmed_r	addbrev_l	addlong_l	addmagDist_l	addmagIsch_l	addmagMid_l	addmagProx_l	bflh_l	bfsh_l	edl_l	ehl_l	fdl_l	fhl_l	gaslat_l	gasmed_l	glmax1_l	glmax2_l	glmax3_l	glmed1_l	glmed2_l	glmed3_l	glmin1_l	glmin2_l	glmin3_l	grac_l	iliacus_l	perbrev_l	perlong_l	piri_l	psoas_l	recfem_l	sart_l	semimem_l	semiten_l	soleus_l	tfl_l	tibant_l	tibpost_l	vasint_l	vaslat_l	vasmed_l	
3.175	0.001	0.001	0.001	0.001	0.001	0.001	0.001	0.001	0.001	0.001	0.001	0.001	0.001	0.001	0.001	0.001	0.001	0.001	0.001	0.001	0.001	0.001	0.001	0.001	0.001	0.001	0.001	0.001	0.001	0.001	0.001	0.001	0.001	0.001	0.001	0.001	0.001	0.001	0.001	0.000997281	0.001	0.001	0.999	0.999	0.318642	0.001	0.184029	0.0989901	0.001	0.001	0.548888	0.0350138	0.259286	0.001	0.107231	0.2037	0.0835263	0.999	0.999	0.001	0.999	0.999	0.001	0.654515	0.001	0.0639657	0.0152879	0.001	0.001	0.368463	0.999	0.450143	0.280991	0.184525	0.001	0.180979	0.307944	0.001	0.001	0.001	
3.18	0.001	0.001	0.001	0.001	0.001	0.001	0.001	0.001	0.001	0.001	0.001	0.001	0.001	0.001	0.001	0.001	0.001	0.001	0.001	0.001	0.001	0.001	0.001	0.001	0.001	0.001	0.001	0.001	0.001	0.001	0.001	0.001	0.001	0.001	0.001	0.001	0.001	0.001	0.001	0.000997281	0.001	0.001	0.544	0.424729	0.312741	0.0410074	0.0921623	0.0829458	0.001	0.001	0.359273	0.0743758	0.175739	0.001	0.0463847	0.0463996	0.046381	0.556931	0.999	0.001	0.001	0.001	0.001	0.579648	0.001	0.160553	0.0308648	0.001	0.001	0.37282	0.999	0.272466	0.227937	0.148588	0.001	0.215353	0.460308	0.001	0.001	0.001	
3.185	0.001	0.001	0.001	0.001	0.001	0.001	0.001	0.001	0.001	0.001	0.001	0.001	0.001	0.001	0.001	0.001	0.001	0.001	0.001	0.001	0.001	0.001	0.001	0.001	0.001	0.001	0.001	0.001	0.001	0.001	0.001	0.001	0.001	0.001	0.001	0.001	0.001	0.001	0.001	0.000997281	0.001	0.001	0.228379	0.144557	0.152007	0.0302554	0.0728209	0.0754494	0.001	0.001	0.279867	0.0277611	0.128416	0.001	0.0697941	0.0846247	0.0486644	0.457035	0.999	0.001	0.001	0.001	0.001	0.572174	0.001	0.0688677	0.0155676	0.001	0.001	0.391086	0.920383	0.21082	0.20022	0.117446	0.001	0.254347	0.001	0.001	0.001	0.001	
3.19	0.001	0.001	0.001	0.001	0.001	0.001	0.001	0.001	0.001	0.001	0.001	0.001	0.001	0.001	0.001	0.001	0.001	0.001	0.001	0.001	0.001	0.001	0.001	0.001	0.001	0.001	0.001	0.001	0.001	0.001	0.001	0.001	0.001	0.001	0.001	0.001	0.001	0.001	0.001	0.000997281	0.00172386	0.001	0.158001	0.0958097	0.107521	0.023152	0.0683544	0.0710927	0.001	0.001	0.265037	0.0263371	0.102312	0.001	0.06557	0.0807447	0.0514063	0.5173	0.794592	0.001	0.001	0.001	0.001	0.556896	0.001	0.0656737	0.01461	0.001	0.001	0.410158	0.984072	0.191978	0.180138	0.0909035	0.001	0.293547	0.001	0.001	0.001	0.001	
3.195	0.001	0.001	0.001	0.001	0.001	0.001	0.001	0.001	0.001	0.001	0.001	0.001	0.001	0.001	0.001	0.001	0.001	0.001	0.001	0.001	0.001	0.001	0.001	0.001	0.001	0.001	0.001	0.001	0.001	0.001	0.001	0.001	0.001	0.001	0.001	0.001	0.001	0.001	0.001	0.000997281	0.0029092	0.001	0.115544	0.0802598	0.0684026	0.0122234	0.0650444	0.0677136	0.001	0.001	0.283121	0.0338263	0.0804998	0.001	0.0621403	0.0715089	0.0543688	0.497063	0.418084	0.001	0.001	0.001	0.001	0.538425	0.001	0.0792427	0.0162112	0.001	0.001	0.428493	0.990948	0.175234	0.162724	0.0687039	0.001	0.335828	0.001	0.001	0.001	0.001	
3.2	0.001	0.001	0.001	0.001	0.001	0.001	0.001	0.001	0.001	0.001	0.001	0.001	0.001	0.001	0.001	0.001	0.001	0.001	0.001	0.001	0.001	0.001	0.001	0.001	0.001	0.001	0.001	0.001	0.001	0.001	0.001	0.001	0.001	0.001	0.001	0.001	0.001	0.001	0.001	0.000997281	0.00162602	0.001	0.0493247	0.0439031	0.0275144	0.001	0.0627032	0.0652395	0.001	0.001	0.30168	0.0411742	0.0628166	0.001	0.0603607	0.0637098	0.0588582	0.473541	0.0665318	0.00343707	0.001	0.001	0.00236451	0.519692	0.001	0.0945801	0.0193759	0.00185073	0.001	0.447136	0.999	0.16167	0.148864	0.0507701	0.001	0.376965	0.0103032	0.00117444	0.001	0.001	
3.205	0.001	0.001	0.001	0.001	0.001	0.001	0.001	0.001	0.001	0.001	0.001	0.001	0.001	0.001	0.001	0.001	0.001	0.001	0.001	0.001	0.001	0.001	0.001	0.001	0.001	0.001	0.001	0.001	0.001	0.001	0.001	0.001	0.001	0.001	0.001	0.001	0.001	0.001	0.001	0.000997281	0.015171	0.0120215	0.0170487	0.0161696	0.0146325	0.001	0.0611759	0.0635485	0.001	0.001	0.33892	0.0625772	0.048787	0.001	0.0596552	0.0595458	0.0605901	0.378863	0.001	0.00357813	0.001	0.001	0.00223977	0.50085	0.304647	0.141637	0.0296039	0.001	0.0613502	0.464863	0.999	0.151649	0.138606	0.0367242	0.001	0.415933	0.065924	0.00162484	0.001	0.001	
3.21	0.001	0.001	0.001	0.001	0.001	0.001	0.001	0.001	0.001	0.001	0.001	0.001	0.001	0.001	0.001	0.001	0.001	0.001	0.001	0.001	0.001	0.001	0.001	0.001	0.001	0.001	0.001	0.001	0.001	0.001	0.001	0.001	0.001	0.001	0.001	0.001	0.001	0.001	0.001	0.000997281	0.0226407	0.0204845	0.0262502	0.025559	0.0240107	0.001	0.060283	0.0623338	0.001	0.001	0.348491	0.0757885	0.0380826	0.001	0.0616323	0.0610012	0.0636714	0.307755	0.001	0.001	0.001	0.001	0.001	0.481578	0.663153	0.167222	0.0362563	0.001	0.622486	0.479885	0.999	0.145804	0.131805	0.0261542	0.001	0.451724	0.127124	0.00213198	0.001	0.001	
3.215	0.001	0.001	0.001	0.001	0.001	0.001	0.001	0.001	0.001	0.001	0.001	0.001	0.001	0.001	0.001	0.001	0.001	0.001	0.001	0.001	0.001	0.001	0.001	0.001	0.001	0.001	0.001	0.001	0.001	0.001	0.001	0.001	0.001	0.001	0.001	0.001	0.001	0.001	0.001	0.000997281	0.001	0.0234227	0.0444977	0.0417948	0.0350021	0.001	0.0598395	0.0598348	0.001	0.001	0.364251	0.0808372	0.0306291	0.001	0.0644741	0.0641128	0.0670631	0.241157	0.001	0.001	0.001	0.001	0.001	0.46209	0.434548	0.175096	0.0386426	0.00167829	0.13788	0.489955	0.999	0.143727	0.128242	0.0185811	0.001	0.481623	0.148638	0.00260447	0.001	0.001	
3.22	0.001	0.001	0.001	0.001	0.001	0.001	0.001	0.001	0.001	0.001	0.001	0.001	0.001	0.001	0.001	0.001	0.001	0.001	0.001	0.001	0.001	0.001	0.001	0.001	0.001	0.001	0.001	0.001	0.001	0.001	0.001	0.001	0.001	0.001	0.001	0.001	0.001	0.001	0.001	0.000997281	0.001	0.0259464	0.0568001	0.0497258	0.0425204	0.001	0.0596365	0.0596365	0.001	0.001	0.399815	0.107112	0.0261634	0.001	0.0666294	0.0661936	0.0700148	0.175172	0.001	0.00418201	0.001	0.001	0.00245683	0.443066	0.549012	0.212588	0.0511717	0.00216996	0.184905	0.494303	0.999	0.144967	0.127603	0.0135908	0.001	0.504704	0.261941	0.00282247	0.001	0.001	
3.225	0.001	0.001	0.001	0.001	0.001	0.001	0.001	0.001	0.001	0.001	0.001	0.001	0.001	0.001	0.001	0.001	0.001	0.001	0.001	0.001	0.001	0.001	0.001	0.001	0.001	0.001	0.001	0.001	0.001	0.001	0.001	0.001	0.001	0.001	0.001	0.001	0.001	0.001	0.001	0.000997281	0.001	0.0286627	0.0719958	0.0607796	0.0517674	0.001	0.0595024	0.0595024	0.001	0.001	0.421218	0.121011	0.02412	0.001	0.0684833	0.0680094	0.0728847	0.102221	0.001	0.001	0.001	0.001	0.00255463	0.425192	0.603467	0.228178	0.0581003	0.00200147	0.0599956	0.494576	0.999	0.148839	0.129276	0.0107395	0.001	0.520701	0.302433	0.00277781	0.001	0.001	
3.23	0.001	0.001	0.001	0.001	0.001	0.001	0.001	0.001	0.001	0.001	0.001	0.001	0.001	0.001	0.001	0.001	0.001	0.001	0.001	0.001	0.001	0.001	0.001	0.001	0.001	0.001	0.001	0.001	0.001	0.001	0.001	0.001	0.001	0.001	0.001	0.001	0.001	0.001	0.001	0.000997281	0.001	0.0321495	0.0986296	0.0825662	0.0682446	0.001	0.0593667	0.0593647	0.001	0.001	0.446632	0.129581	0.0236899	0.001	0.0702823	0.070484	0.0758633	0.0327578	0.001	0.001	0.001	0.001	0.00117172	0.409125	0.387843	0.236957	0.0624708	0.001	0.001	0.492998	0.999	0.153788	0.132519	0.00968571	0.001	0.529492	0.309387	0.00310947	0.001	0.001	
3.235	0.001	0.001	0.001	0.001	0.001	0.001	0.001	0.001	0.001	0.001	0.001	0.001	0.001	0.001	0.001	0.001	0.001	0.001	0.001	0.001	0.001	0.001	0.001	0.001	0.001	0.001	0.001	0.001	0.001	0.001	0.001	0.001	0.001	0.001	0.001	0.001	0.001	0.001	0.001	0.000997281	0.001	0.0398034	0.158487	0.125333	0.107375	0.001	0.0592038	0.0592068	0.001	0.001	0.468178	0.148384	0.0243428	0.001	0.0735172	0.0770833	0.0801489	0.001	0.001	0.001	0.001	0.001	0.001	0.395149	0.001	0.255119	0.0721079	0.001	0.001	0.490817	0.999	0.159033	0.13677	0.0100997	0.001	0.531538	0.30831	0.0035662	0.001	0.001	
3.24	0.001	0.001	0.001	0.001	0.001	0.001	0.001	0.001	0.001	0.001	0.001	0.001	0.001	0.001	0.001	0.001	0.001	0.001	0.001	0.001	0.001	0.001	0.001	0.001	0.001	0.001	0.001	0.001	0.001	0.001	0.001	0.001	0.001	0.001	0.001	0.001	0.001	0.001	0.001	0.000997281	0.001	0.0609156	0.249042	0.179234	0.174831	0.001	0.0589941	0.0589976	0.001	0.001	0.490427	0.170697	0.0258574	0.001	0.0755271	0.0830023	0.0858901	0.001	0.001	0.001	0.001	0.001	0.0033016	0.383612	0.001	0.273171	0.0839331	0.00522864	0.001	0.488793	0.999	0.164261	0.141489	0.0116797	0.001	0.527598	0.284957	0.00408248	0.001	0.001	
3.245	0.001	0.001	0.001	0.001	0.001	0.001	0.001	0.001	0.001	0.001	0.001	0.001	0.001	0.001	0.001	0.001	0.001	0.001	0.001	0.001	0.001	0.001	0.001	0.001	0.001	0.001	0.001	0.001	0.001	0.001	0.001	0.001	0.001	0.001	0.001	0.001	0.001	0.001	0.001	0.000997281	0.001	0.0758501	0.334095	0.236066	0.235231	0.001	0.0587045	0.0587088	0.001	0.001	0.510984	0.185788	0.0281041	0.001	0.0789729	0.0920254	0.092681	0.001	0.001	0.001	0.001	0.001	0.00569214	0.374436	0.001	0.282953	0.0919298	0.00778539	0.001	0.487404	0.999	0.169711	0.146214	0.0141194	0.001	0.51835	0.254492	0.00441101	0.001	0.001	
3.25	0.001	0.001	0.001	0.001	0.001	0.001	0.001	0.001	0.001	0.001	0.001	0.001	0.001	0.001	0.001	0.001	0.001	0.001	0.001	0.001	0.001	0.001	0.001	0.001	0.001	0.001	0.001	0.001	0.001	0.001	0.001	0.001	0.001	0.001	0.001	0.001	0.001	0.001	0.001	0.000997281	0.001	0.0799344	0.432533	0.288865	0.287056	0.001	0.0582842	0.0582842	0.001	0.001	0.530858	0.197421	0.0307576	0.001	0.0865917	0.108681	0.100828	0.001	0.001	0.001	0.001	0.001	0.001	0.366857	0.001	0.288534	0.0986373	0.0119498	0.001	0.486892	0.999	0.173853	0.150625	0.0171122	0.001	0.504204	0.220298	0.00472817	0.001	0.001	
3.255	0.001	0.001	0.001	0.001	0.001	0.001	0.001	0.001	0.001	0.001	0.001	0.001	0.001	0.001	0.001	0.001	0.001	0.001	0.001	0.001	0.001	0.001	0.001	0.001	0.001	0.001	0.001	0.001	0.001	0.001	0.001	0.001	0.001	0.001	0.001	0.001	0.001	0.001	0.001	0.000997281	0.001	0.0745725	0.544455	0.376834	0.333094	0.001	0.0576096	0.0576096	0.001	0.001	0.55247	0.206065	0.0336714	0.001	0.098518	0.131691	0.109434	0.001	0.001	0.001	0.001	0.001	0.001	0.359826	0.001	0.289749	0.10309	0.0124948	0.001	0.487036	0.999	0.175802	0.15413	0.0204185	0.001	0.495666	0.19541	0.00539373	0.001	0.001	
3.26	0.001	0.001	0.001	0.001	0.001	0.001	0.001	0.001	0.001	0.001	0.001	0.001	0.001	0.001	0.001	0.001	0.001	0.001	0.001	0.001	0.001	0.001	0.001	0.001	0.001	0.001	0.001	0.001	0.001	0.001	0.001	0.001	0.001	0.001	0.001	0.001	0.001	0.001	0.001	0.000997281	0.001	0.0693155	0.640941	0.456922	0.38009	0.001	0.0565488	0.0565487	0.001	0.001	0.562183	0.212805	0.0366615	0.001	0.110243	0.152532	0.117147	0.001	0.001	0.001	0.001	0.001	0.001	0.35185	0.001	0.288432	0.106298	0.00262415	0.0202206	0.486824	0.999	0.176103	0.155975	0.0238195	0.001	0.485689	0.16984	0.00646315	0.001	0.001	
3.265	0.001	0.001	0.001	0.001	0.001	0.001	0.001	0.001	0.001	0.001	0.001	0.001	0.001	0.001	0.001	0.001	0.001	0.001	0.001	0.001	0.001	0.001	0.001	0.001	0.001	0.001	0.001	0.001	0.001	0.001	0.001	0.001	0.001	0.001	0.001	0.001	0.001	0.001	0.001	0.000997281	0.001	0.0555831	0.73562	0.512376	0.387347	0.001	0.0586378	0.0550198	0.001	0.001	0.572933	0.21412	0.0395135	0.001	0.120811	0.167272	0.121043	0.001	0.001	0.001	0.001	0.001	0.001	0.341223	0.001	0.286943	0.106703	0.00199345	0.001	0.484533	0.999	0.174684	0.155537	0.0271307	0.001	0.474047	0.16578	0.00796527	0.001	0.001	
3.27	0.001	0.001	0.001	0.001	0.001	0.001	0.001	0.001	0.001	0.001	0.001	0.001	0.001	0.001	0.001	0.001	0.001	0.001	0.001	0.001	0.001	0.001	0.001	0.001	0.001	0.001	0.001	0.001	0.001	0.001	0.001	0.001	0.001	0.001	0.001	0.001	0.001	0.001	0.001	0.000997281	0.001	0.0479822	0.726482	0.558537	0.380925	0.001	0.0590777	0.0530618	0.001	0.001	0.585336	0.215067	0.0423585	0.001	0.117189	0.155135	0.117193	0.001	0.001	0.001	0.001	0.001	0.001	0.32737	0.001	0.28335	0.106093	0.00296052	0.001	0.47785	0.999	0.169991	0.151916	0.0302706	0.001	0.461376	0.161337	0.0103065	0.001	0.001	
3.275	0.001	0.001	0.001	0.001	0.001	0.001	0.001	0.001	0.001	0.001	0.001	0.001	0.001	0.001	0.001	0.001	0.001	0.001	0.001	0.001	0.001	0.001	0.001	0.001	0.001	0.001	0.001	0.001	0.001	0.001	0.001	0.001	0.001	0.001	0.001	0.001	0.001	0.001	0.001	0.000997281	0.001	0.0416855	0.688432	0.582783	0.366079	0.001	0.0588562	0.0507517	0.001	0.001	0.592597	0.213994	0.0447023	0.001	0.104447	0.128702	0.109712	0.001	0.001	0.001	0.001	0.001	0.001	0.310546	0.001	0.279159	0.104474	0.00326794	0.001	0.465787	0.999	0.163964	0.145459	0.0328857	0.001	0.447463	0.159187	0.0135137	0.001	0.001	
3.28	0.001	0.001	0.001	0.001	0.001	0.001	0.001	0.001	0.001	0.001	0.001	0.001	0.001	0.001	0.001	0.001	0.001	0.001	0.001	0.001	0.001	0.001	0.001	0.001	0.001	0.001	0.001	0.001	0.001	0.001	0.001	0.001	0.001	0.001	0.001	0.001	0.001	0.001	0.001	0.000997281	0.001	0.0390892	0.611827	0.557702	0.332793	0.001	0.0592904	0.0481628	0.001	0.001	0.594862	0.20784	0.0464423	0.001	0.0874474	0.0978243	0.101483	0.001	0.001	0.001	0.001	0.001	0.001	0.291615	0.001	0.26864	0.0994562	0.00443031	0.00439429	0.448859	0.999	0.155783	0.136437	0.0349413	0.001	0.431166	0.156734	0.001	0.001	0.001	
3.285	0.001	0.001	0.001	0.001	0.001	0.001	0.001	0.001	0.001	0.001	0.001	0.001	0.001	0.001	0.001	0.001	0.001	0.001	0.001	0.001	0.001	0.001	0.001	0.001	0.001	0.001	0.001	0.001	0.001	0.001	0.001	0.001	0.001	0.001	0.001	0.001	0.001	0.001	0.001	0.000997281	0.001	0.0375506	0.558312	0.411072	0.329572	0.001	0.0603843	0.0453452	0.001	0.001	0.597837	0.200194	0.0481583	0.001	0.0789217	0.0828718	0.0982263	0.001	0.001	0.001	0.001	0.001	0.001	0.272499	0.00161413	0.261044	0.0910423	0.00531867	0.0104776	0.427638	0.999	0.155311	0.127797	0.0365053	0.001	0.410626	0.155625	0.001	0.001	0.001	
3.29	0.001	0.001	0.001	0.001	0.001	0.001	0.001	0.001	0.001	0.001	0.001	0.001	0.001	0.001	0.001	0.001	0.001	0.001	0.001	0.001	0.001	0.001	0.001	0.001	0.001	0.001	0.001	0.001	0.001	0.001	0.001	0.001	0.001	0.001	0.001	0.001	0.001	0.001	0.001	0.000997281	0.001	0.0285691	0.565043	0.397101	0.35006	0.001	0.0554014	0.0423795	0.001	0.001	0.597671	0.192693	0.0503017	0.001	0.0841017	0.0890486	0.100415	0.001	0.001	0.001	0.001	0.001	0.001	0.254159	0.001	0.256521	0.0840116	0.001	0.00181959	0.403285	0.999	0.197672	0.121385	0.0378005	0.001	0.383253	0.15264	0.001	0.001	0.001	
3.295	0.001	0.001	0.001	0.001	0.001	0.001	0.001	0.001	0.001	0.001	0.001	0.001	0.001	0.001	0.001	0.001	0.001	0.001	0.001	0.001	0.001	0.001	0.001	0.001	0.001	0.001	0.001	0.001	0.001	0.001	0.001	0.001	0.001	0.001	0.001	0.001	0.001	0.001	0.001	0.000997281	0.001	0.001	0.580799	0.470728	0.33794	0.001	0.0537795	0.0393972	0.001	0.001	0.595193	0.182606	0.053173	0.001	0.101539	0.110869	0.105346	0.001	0.001	0.001	0.001	0.001	0.001	0.236924	0.001	0.252046	0.0754646	0.001	0.001	0.377022	0.999	0.194884	0.117418	0.0388543	0.001	0.346222	0.149389	0.001	0.001	0.001	
3.3	0.001	0.001	0.001	0.001	0.001	0.001	0.001	0.001	0.001	0.001	0.001	0.001	0.001	0.001	0.001	0.001	0.001	0.001	0.001	0.001	0.001	0.001	0.001	0.001	0.001	0.001	0.001	0.001	0.001	0.001	0.001	0.001	0.001	0.001	0.001	0.001	0.001	0.001	0.001	0.000997281	0.001	0.001	0.551815	0.445994	0.325669	0.001	0.0510571	0.0365997	0.001	0.001	0.589082	0.179312	0.0566273	0.001	0.111112	0.121229	0.109001	0.001	0.001	0.0437507	0.001	0.001	0.001	0.221538	0.001	0.250484	0.0736785	0.001	0.001	0.350013	0.999	0.187496	0.113625	0.0397188	0.001	0.295742	0.147421	0.00559934	0.001	0.001	
3.305	0.001	0.001	0.001	0.001	0.001	0.001	0.001	0.001	0.001	0.001	0.001	0.001	0.001	0.001	0.001	0.001	0.001	0.001	0.001	0.001	0.001	0.001	0.001	0.001	0.001	0.001	0.001	0.001	0.001	0.001	0.001	0.001	0.001	0.001	0.001	0.001	0.001	0.001	0.001	0.000997281	0.001	0.001	0.491883	0.38729	0.321017	0.001	0.0474247	0.034207	0.001	0.001	0.587093	0.167003	0.0602505	0.001	0.114491	0.123378	0.112392	0.001	0.001	0.0933585	0.001	0.001	0.001	0.20802	0.001	0.245614	0.0613867	0.001	0.001	0.322755	0.999	0.174426	0.110366	0.040202	0.001	0.228479	0.142388	0.0243402	0.001	0.001	
3.31	0.001	0.001	0.001	0.001	0.001	0.001	0.001	0.001	0.001	0.001	0.001	0.001	0.001	0.001	0.001	0.001	0.001	0.001	0.001	0.001	0.001	0.001	0.001	0.001	0.001	0.001	0.001	0.001	0.001	0.001	0.001	0.001	0.001	0.001	0.001	0.001	0.001	0.001	0.001	0.000997281	0.001	0.001	0.434292	0.347167	0.309371	0.00100486	0.0443761	0.032586	0.001	0.001	0.575099	0.163388	0.0639548	0.001	0.119079	0.126974	0.117091	0.001	0.001	0.136141	0.001	0.001	0.001	0.196417	0.001	0.244448	0.0598247	0.001	0.0108083	0.295327	0.999	0.162437	0.10885	0.0403463	0.001	0.138192	0.141173	0.0478214	0.001	0.001	
3.315	0.001	0.001	0.001	0.001	0.001	0.001	0.001	0.001	0.001	0.001	0.001	0.001	0.001	0.001	0.001	0.001	0.001	0.001	0.001	0.001	0.001	0.001	0.001	0.001	0.001	0.001	0.001	0.001	0.001	0.001	0.001	0.001	0.001	0.001	0.001	0.001	0.001	0.001	0.001	0.000997281	0.001	0.001	0.379386	0.307469	0.290406	0.001	0.0420923	0.0321312	0.001	0.001	0.573012	0.153505	0.0673529	0.001	0.124582	0.131667	0.122898	0.001	0.001	0.176286	0.00203966	0.001	0.001	0.187136	0.001	0.239471	0.0526477	0.001	0.001	0.267863	0.828283	0.151161	0.10957	0.0399957	0.001	0.00424593	0.136863	0.0749583	0.001	0.0339358	
3.32	0.001	0.001	0.001	0.001	0.001	0.001	0.001	0.001	0.001	0.001	0.001	0.001	0.001	0.001	0.001	0.001	0.001	0.001	0.001	0.001	0.001	0.001	0.001	0.001	0.001	0.001	0.001	0.001	0.001	0.001	0.001	0.001	0.001	0.001	0.001	0.001	0.001	0.001	0.001	0.000997281	0.001	0.001	0.31568	0.251484	0.257122	0.001	0.0407858	0.0331611	0.001	0.001	0.564915	0.141471	0.0703532	0.001	0.130707	0.137083	0.129622	0.001	0.001	0.200285	0.001	0.001	0.001	0.180474	0.001	0.234266	0.0439124	0.001	0.001	0.240104	0.266301	0.14136	0.112983	0.0391281	0.001	0.001	0.136025	0.103151	0.001	0.071917	
3.325	0.001	0.001	0.001	0.001	0.001	0.001	0.001	0.001	0.001	0.001	0.001	0.001	0.001	0.001	0.001	0.001	0.001	0.001	0.001	0.001	0.001	0.001	0.001	0.001	0.001	0.001	0.001	0.001	0.001	0.001	0.001	0.001	0.001	0.001	0.001	0.001	0.001	0.001	0.001	0.000997281	0.001	0.001	0.248606	0.185792	0.212934	0.001	0.0407545	0.0359495	0.001	0.001	0.556725	0.13983	0.0722695	0.001	0.137572	0.14351	0.137242	0.001	0.001	0.205795	0.00225608	0.001	0.001	0.176746	0.001	0.234601	0.0411772	0.001	0.001	0.212274	0.001	0.134567	0.119382	0.0379861	0.001	0.001	0.135399	0.130429	0.001	0.109765	
3.33	0.001	0.001	0.001	0.001	0.001	0.001	0.001	0.001	0.001	0.001	0.001	0.001	0.001	0.001	0.001	0.001	0.001	0.001	0.001	0.001	0.001	0.001	0.001	0.001	0.001	0.001	0.001	0.001	0.001	0.001	0.001	0.001	0.001	0.001	0.001	0.001	0.001	0.001	0.001	0.000997281	0.001	0.001	0.196729	0.136155	0.174588	0.001	0.0432119	0.0407438	0.001	0.001	0.549192	0.134257	0.0734452	0.001	0.146004	0.151938	0.146193	0.001	0.001	0.197358	0.00113619	0.001	0.001	0.176718	0.001	0.233474	0.0380589	0.001	0.001	0.184858	0.001	0.134772	0.129388	0.0368282	0.001	0.001	0.134167	0.154202	0.201559	0.14115	
3.335	0.001	0.001	0.001	0.001	0.001	0.001	0.001	0.001	0.001	0.001	0.001	0.001	0.001	0.001	0.001	0.001	0.001	0.001	0.001	0.001	0.001	0.001	0.001	0.001	0.001	0.001	0.001	0.001	0.001	0.001	0.001	0.001	0.001	0.001	0.001	0.001	0.001	0.001	0.001	0.000997281	0.001	0.001	0.163026	0.104053	0.146568	0.001	0.0483413	0.04787	0.001	0.001	0.540919	0.129449	0.0734183	0.001	0.1565	0.162783	0.156878	0.001	0.001	0.177877	0.001	0.001	0.001	0.180862	0.001	0.230701	0.0332694	0.001	0.00551636	0.158819	0.001	0.141094	0.142865	0.03582	0.001	0.001	0.132708	0.174551	0.306318	0.16698	
3.34	0.001	0.001	0.001	0.001	0.001	0.001	0.001	0.001	0.001	0.001	0.001	0.001	0.001	0.001	0.001	0.001	0.001	0.001	0.001	0.001	0.001	0.001	0.001	0.001	0.001	0.001	0.001	0.001	0.001	0.001	0.001	0.001	0.001	0.001	0.001	0.001	0.001	0.001	0.001	0.000997281	0.001	0.001	0.124843	0.0670519	0.112393	0.001	0.0549367	0.0574148	0.001	0.001	0.530717	0.124615	0.0704253	0.001	0.168734	0.175289	0.169104	0.001	0.001	0.149036	0.00452167	0.001	0.001	0.187575	0.001	0.226459	0.0306627	0.001	0.001	0.134396	0.001	0.149038	0.158956	0.0350508	0.001	0.001	0.130565	0.192767	0.424194	0.191345	
3.345	0.001	0.001	0.001	0.001	0.001	0.001	0.001	0.001	0.001	0.001	0.001	0.001	0.001	0.001	0.001	0.001	0.001	0.001	0.001	0.001	0.001	0.001	0.001	0.001	0.001	0.001	0.001	0.001	0.001	0.001	0.001	0.001	0.001	0.001	0.001	0.001	0.001	0.001	0.001	0.000997281	0.001	0.001	0.0822801	0.0246192	0.0716953	0.001	0.0629056	0.0687943	0.001	0.001	0.516526	0.121092	0.0630126	0.001	0.182771	0.189412	0.182836	0.001	0.001	0.106772	0.00428246	0.001	0.001	0.195984	0.001	0.222076	0.0297195	0.001	0.001	0.112464	0.001	0.158186	0.177379	0.0345015	0.001	0.001	0.128699	0.208833	0.553117	0.214285	
3.35	0.001	0.001	0.001	0.001	0.001	0.001	0.001	0.001	0.001	0.001	0.001	0.001	0.001	0.001	0.001	0.001	0.001	0.001	0.001	0.001	0.001	0.001	0.001	0.001	0.001	0.001	0.001	0.001	0.001	0.001	0.001	0.001	0.001	0.001	0.001	0.001	0.001	0.001	0.001	0.000997281	0.001	0.001	0.0369841	0.001	0.0279602	0.001	0.0725286	0.0811895	0.001	0.001	0.511213	0.112419	0.0509859	0.001	0.198053	0.20452	0.197634	0.001	0.001	0.0694029	0.001	0.001	0.001	0.205979	0.00100747	0.214811	0.0237894	0.001	0.001	0.0932186	0.001	0.169654	0.198089	0.0341379	0.001	0.001	0.126752	0.222319	0.678011	0.23442	
3.355	0.001	0.001	0.001	0.001	0.001	0.001	0.001	0.001	0.001	0.001	0.001	0.001	0.001	0.001	0.001	0.001	0.001	0.001	0.001	0.001	0.001	0.001	0.001	0.001	0.001	0.001	0.001	0.001	0.001	0.001	0.001	0.001	0.001	0.001	0.001	0.001	0.001	0.001	0.001	0.000997281	0.001	0.001	0.001	0.001	0.001	0.001	0.0844107	0.0976385	0.001	0.001	0.499059	0.109603	0.0361268	0.001	0.213334	0.219156	0.212456	0.001	0.001	0.0417412	0.001	0.001	0.001	0.218053	0.00234311	0.212183	0.0231581	0.001	0.00108157	0.0768086	0.001	0.185136	0.221008	0.0340446	0.001	0.001	0.126239	0.232654	0.799135	0.249806	
3.36	0.001	0.001	0.001	0.001	0.001	0.001	0.001	0.001	0.001	0.001	0.001	0.001	0.001	0.001	0.001	0.001	0.001	0.001	0.001	0.001	0.001	0.001	0.001	0.001	0.001	0.001	0.001	0.001	0.001	0.001	0.001	0.001	0.001	0.001	0.001	0.001	0.001	0.001	0.001	0.000997281	0.001	0.001	0.001	0.001	0.001	0.001	0.0982347	0.116962	0.001	0.001	0.489662	0.107254	0.0195518	0.001	0.227037	0.231314	0.225959	0.001	0.001	0.033971	0.00236938	0.001	0.001	0.230895	0.00259943	0.209507	0.0226177	0.001	0.00153677	0.0633284	0.001	0.202565	0.245354	0.0344251	0.001	0.001	0.125841	0.240294	0.949051	0.261123	
3.365	0.001	0.001	0.001	0.001	0.001	0.001	0.001	0.001	0.001	0.001	0.001	0.001	0.001	0.001	0.001	0.001	0.001	0.001	0.001	0.001	0.001	0.001	0.001	0.001	0.001	0.001	0.001	0.001	0.001	0.001	0.001	0.001	0.001	0.001	0.001	0.001	0.001	0.001	0.001	0.000997281	0.001	0.001	0.001	0.001	0.001	0.001	0.114615	0.138753	0.001	0.001	0.483315	0.105301	0.00281232	0.001	0.238861	0.241319	0.237731	0.001	0.001	0.0522167	0.00232386	0.001	0.001	0.244618	0.00251582	0.207072	0.0221556	0.001	0.00142779	0.0526994	0.001	0.220628	0.270579	0.0355004	0.001	0.001	0.125547	0.245372	0.999	0.268666	
3.37	0.001	0.001	0.001	0.001	0.001	0.001	0.001	0.001	0.001	0.001	0.001	0.001	0.001	0.001	0.001	0.001	0.001	0.001	0.001	0.001	0.001	0.001	0.001	0.001	0.001	0.001	0.001	0.001	0.001	0.001	0.001	0.001	0.001	0.001	0.001	0.001	0.001	0.001	0.001	0.000997281	0.001	0.001	0.001	0.001	0.001	0.001	0.133565	0.163296	0.001	0.001	0.473404	0.102931	0.001	0.001	0.248866	0.25003	0.247606	0.001	0.001	0.110964	0.0022528	0.001	0.001	0.258757	0.0024372	0.203734	0.0216161	0.001	0.00139206	0.0447732	0.001	0.237454	0.295982	0.037399	0.001	0.001	0.125172	0.248449	0.999	0.273586	
3.375	0.001	0.001	0.001	0.001	0.001	0.001	0.001	0.001	0.001	0.001	0.001	0.001	0.001	0.001	0.001	0.001	0.001	0.001	0.001	0.001	0.001	0.001	0.001	0.001	0.001	0.001	0.001	0.001	0.001	0.001	0.001	0.001	0.001	0.001	0.001	0.001	0.001	0.001	0.001	0.000997281	0.001	0.001	0.001	0.001	0.001	0.001	0.156285	0.190484	0.001	0.001	0.463963	0.0996579	0.001	0.001	0.256681	0.257352	0.25518	0.001	0.001	0.230921	0.00213646	0.001	0.001	0.276548	0.0023091	0.199306	0.0208399	0.001	0.001	0.0392871	0.001	0.255065	0.322631	0.0401798	0.001	0.001	0.12463	0.249113	0.999	0.274791	
3.38	0.001	0.001	0.001	0.001	0.001	0.001	0.001	0.001	0.001	0.001	0.001	0.001	0.001	0.001	0.001	0.001	0.001	0.001	0.001	0.001	0.001	0.001	0.001	0.001	0.001	0.001	0.001	0.001	0.001	0.001	0.001	0.001	0.001	0.001	0.001	0.001	0.001	0.001	0.001	0.000997281	0.001	0.001	0.001	0.001	0.001	0.001	0.185548	0.221404	0.001	0.001	0.454985	0.0950245	0.001	0.001	0.261741	0.262386	0.259956	0.001	0.001	0.419352	0.00200362	0.001	0.001	0.304932	0.00216215	0.193698	0.0197842	0.001	0.001	0.035866	0.001	0.278332	0.352475	0.0438223	0.001	0.001	0.123768	0.245975	0.999	0.26904	
3.385	0.001	0.001	0.001	0.001	0.001	0.001	0.001	0.001	0.001	0.001	0.001	0.001	0.001	0.001	0.001	0.001	0.001	0.001	0.001	0.001	0.001	0.001	0.001	0.001	0.001	0.001	0.001	0.001	0.001	0.001	0.001	0.001	0.001	0.001	0.001	0.001	0.001	0.001	0.001	0.000997281	0.001	0.001	0.001	0.001	0.001	0.001	0.220447	0.255353	0.001	0.001	0.446957	0.0891315	0.001	0.001	0.265064	0.2667	0.262329	0.001	0.001	0.759886	0.00183147	0.001	0.001	0.342664	0.00515799	0.18868	0.0184385	0.001	0.00692139	0.0341716	0.001	0.304548	0.385027	0.0482036	0.001	0.001	0.122739	0.242688	0.999	0.263034	
3.39	0.001	0.001	0.001	0.001	0.001	0.001	0.001	0.001	0.001	0.001	0.001	0.001	0.001	0.001	0.001	0.001	0.001	0.001	0.001	0.001	0.001	0.001	0.001	0.001	0.001	0.001	0.001	0.001	0.001	0.001	0.001	0.001	0.001	0.001	0.001	0.001	0.001	0.001	0.001	0.000997281	0.001	0.001	0.001	0.001	0.001	0.001	0.265857	0.29351	0.001	0.001	0.445906	0.0807564	0.001	0.001	0.269148	0.272992	0.263203	0.001	0.001	0.999	0.00295216	0.001	0.001	0.394797	0.00566739	0.185523	0.0147011	0.001	0.001	0.0337886	0.001	0.331655	0.42114	0.0533719	0.001	0.001	0.122012	0.23643	0.999	0.255286	
3.395	0.001	0.001	0.001	0.001	0.001	0.001	0.001	0.001	0.001	0.001	0.001	0.001	0.001	0.001	0.001	0.001	0.001	0.001	0.001	0.001	0.001	0.001	0.001	0.001	0.001	0.001	0.001	0.001	0.001	0.001	0.001	0.001	0.001	0.001	0.001	0.001	0.001	0.001	0.001	0.000997281	0.001	0.001	0.127348	0.0753519	0.001	0.001	0.320262	0.336383	0.001	0.001	0.434031	0.0761599	0.001	0.001	0.275678	0.28154	0.262873	0.001	0.001	0.999	0.0138314	0.001	0.001	0.454711	0.00301948	0.179399	0.0137611	0.001	0.001	0.0343	0.001	0.405475	0.458947	0.0593095	0.001	0.001	0.120129	0.227277	0.999	0.244489	
3.4	0.001	0.001	0.001	0.001	0.001	0.001	0.001	0.001	0.001	0.001	0.001	0.001	0.001	0.001	0.001	0.001	0.001	0.001	0.001	0.001	0.001	0.001	0.001	0.001	0.001	0.001	0.001	0.001	0.001	0.001	0.001	0.001	0.001	0.001	0.001	0.001	0.001	0.001	0.001	0.000997281	0.001	0.001	0.2284	0.151456	0.001	0.001	0.377259	0.382179	0.001	0.001	0.424057	0.0724067	0.00321164	0.001	0.281661	0.288249	0.261329	0.001	0.001	0.999	0.001	0.001	0.001	0.509961	0.00181067	0.173756	0.0131113	0.001	0.001	0.0353161	0.001	0.470681	0.495324	0.0658556	0.001	0.001	0.118411	0.217555	0.999	0.234534	
3.405	0.001	0.001	0.001	0.001	0.001	0.001	0.001	0.001	0.001	0.001	0.001	0.001	0.001	0.001	0.001	0.001	0.001	0.001	0.001	0.001	0.001	0.001	0.001	0.001	0.001	0.001	0.001	0.001	0.001	0.001	0.001	0.001	0.001	0.001	0.001	0.001	0.001	0.001	0.001	0.000997281	0.001	0.001	0.282828	0.187113	0.001	0.001	0.434498	0.430495	0.001	0.001	0.408038	0.0685121	0.0198857	0.001	0.284278	0.291621	0.259868	0.001	0.170038	0.999	0.001	0.001	0.001	0.556699	0.00141422	0.165768	0.0124803	0.001	0.0407336	0.036154	0.001	0.521811	0.529831	0.0724982	0.001	0.001	0.115639	0.209697	0.999	0.228072	
3.41	0.001	0.001	0.001	0.001	0.001	0.001	0.001	0.001	0.001	0.001	0.001	0.001	0.001	0.001	0.001	0.001	0.001	0.001	0.001	0.001	0.001	0.001	0.001	0.001	0.001	0.001	0.001	0.001	0.001	0.001	0.001	0.001	0.001	0.001	0.001	0.001	0.001	0.001	0.001	0.000997281	0.001	0.001	0.317743	0.21179	0.001	0.001	0.489556	0.479281	0.001	0.001	0.400476	0.0642586	0.0355489	0.001	0.285315	0.293961	0.259417	0.001	0.360553	0.999	0.001	0.001	0.001	0.59447	0.0261628	0.158252	0.0118729	0.001	0.001	0.0380385	0.001	0.562116	0.562494	0.0798656	0.001	0.001	0.112935	0.205418	0.999	0.225948	
3.415	0.001	0.001	0.001	0.001	0.001	0.001	0.001	0.001	0.001	0.001	0.001	0.001	0.001	0.001	0.001	0.001	0.001	0.001	0.001	0.001	0.001	0.001	0.001	0.001	0.001	0.001	0.001	0.001	0.001	0.001	0.001	0.001	0.001	0.001	0.001	0.001	0.001	0.001	0.001	0.000997281	0.001	0.001	0.344074	0.229891	0.001	0.001	0.54419	0.530051	0.001	0.001	0.399615	0.061954	0.049932	0.001	0.286905	0.296158	0.260956	0.001	0.333391	0.999	0.001	0.001	0.001	0.624092	0.001	0.15632	0.0116813	0.00489833	0.001	0.0391856	0.001	0.597116	0.595257	0.0862411	0.001	0.295472	0.113842	0.206618	0.999	0.229491	
3.42	0.001	0.001	0.001	0.001	0.001	0.001	0.001	0.001	0.001	0.001	0.001	0.001	0.001	0.001	0.001	0.001	0.001	0.001	0.001	0.001	0.001	0.001	0.001	0.001	0.001	0.001	0.001	0.001	0.001	0.001	0.001	0.001	0.001	0.001	0.001	0.001	0.001	0.001	0.001	0.000997281	0.001	0.001	0.363016	0.244336	0.001	0.001	0.595996	0.580181	0.001	0.001	0.388528	0.0632947	0.0627014	0.001	0.289508	0.299366	0.264378	0.001	0.46119	0.999	0.0113275	0.001	0.001	0.647245	0.001	0.16488	0.0122988	0.00416588	0.001	0.0405966	0.001	0.628558	0.627506	0.0922955	0.001	0.4699	0.122914	0.214751	0.999	0.238068	
3.425	0.001	0.001	0.001	0.001	0.001	0.001	0.001	0.001	0.001	0.001	0.001	0.001	0.001	0.001	0.001	0.001	0.001	0.001	0.001	0.001	0.001	0.001	0.001	0.001	0.001	0.001	0.001	0.001	0.001	0.001	0.001	0.001	0.001	0.001	0.001	0.001	0.001	0.001	0.001	0.000997281	0.001	0.001	0.378952	0.255451	0.001	0.001	0.644445	0.628645	0.001	0.001	0.390931	0.0629544	0.0733759	0.001	0.293139	0.303287	0.269166	0.001	0.537029	0.999	0.0070595	0.001	0.001	0.666256	0.0451556	0.16535	0.0124886	0.0030972	0.001	0.0419283	0.001	0.658131	0.659196	0.0980531	0.001	0.636976	0.122893	0.229346	0.999	0.250839	
3.43	0.001	0.001	0.001	0.001	0.001	0.001	0.001	0.001	0.001	0.001	0.001	0.001	0.001	0.001	0.001	0.001	0.001	0.001	0.001	0.001	0.001	0.001	0.001	0.001	0.001	0.001	0.001	0.001	0.001	0.001	0.001	0.001	0.001	0.001	0.001	0.001	0.001	0.001	0.001	0.000997281	0.001	0.001	0.390084	0.263763	0.001	0.001	0.689452	0.6749	0.001	0.001	0.373851	0.0595544	0.0836603	0.001	0.297251	0.307367	0.274771	0.001	0.532079	0.999	0.00459191	0.001	0.001	0.682664	0.001	0.156888	0.0119262	0.00202487	0.0428811	0.0433632	0.001	0.686219	0.689693	0.104233	0.001	0.780099	0.116658	0.248419	0.999	0.266485	
3.435	0.001	0.001	0.001	0.001	0.001	0.001	0.001	0.001	0.001	0.001	0.001	0.001	0.001	0.001	0.001	0.001	0.001	0.001	0.001	0.001	0.001	0.001	0.001	0.001	0.001	0.001	0.001	0.001	0.001	0.001	0.001	0.001	0.001	0.001	0.001	0.001	0.001	0.001	0.001	0.000997281	0.001	0.001	0.394684	0.266088	0.001	0.001	0.732469	0.720106	0.001	0.001	0.338408	0.0450107	0.0957686	0.001	0.30149	0.311425	0.280727	0.001	0.495067	0.999	0.001	0.001	0.001	0.697063	0.001	0.121363	0.00930924	0.001	0.001	0.0449604	0.001	0.714774	0.720307	0.11132	0.001	0.868522	0.0918184	0.270845	0.999	0.284663	
3.44	0.001	0.001	0.001	0.001	0.001	0.001	0.001	0.001	0.001	0.001	0.001	0.001	0.001	0.001	0.001	0.001	0.001	0.001	0.001	0.001	0.001	0.001	0.001	0.001	0.001	0.001	0.001	0.001	0.001	0.001	0.001	0.001	0.001	0.001	0.001	0.001	0.001	0.001	0.001	0.000997281	0.001	0.001	0.393567	0.264974	0.001	0.001	0.772323	0.762372	0.001	0.001	0.286191	0.0364338	0.109004	0.001	0.306086	0.315729	0.287178	0.001	0.457764	0.999	0.001	0.001	0.001	0.708283	0.03208	0.0998096	0.0075777	0.001	0.001	0.0468456	0.001	0.744137	0.750637	0.11972	0.001	0.904713	0.0772428	0.296486	0.979269	0.306165	
3.445	0.001	0.001	0.001	0.001	0.001	0.001	0.001	0.001	0.001	0.001	0.001	0.001	0.001	0.001	0.001	0.001	0.001	0.001	0.001	0.001	0.001	0.001	0.001	0.001	0.001	0.001	0.001	0.001	0.001	0.001	0.001	0.001	0.001	0.001	0.001	0.001	0.001	0.001	0.001	0.000997281	0.001	0.001	0.386954	0.260339	0.001	0.001	0.809146	0.801241	0.001	0.001	0.231459	0.0166943	0.122819	0.001	0.311381	0.320646	0.294338	0.001	0.395233	0.999	0.001	0.001	0.001	0.714722	0.001	0.0494908	0.00349215	0.001	0.001	0.0491374	0.001	0.773097	0.779575	0.129618	0.001	0.921847	0.0422151	0.326051	0.794424	0.332313	
3.45	0.001	0.001	0.001	0.001	0.001	0.001	0.001	0.001	0.001	0.001	0.001	0.001	0.001	0.001	0.001	0.001	0.001	0.001	0.001	0.001	0.001	0.001	0.001	0.001	0.001	0.001	0.001	0.001	0.001	0.001	0.001	0.001	0.001	0.001	0.001	0.001	0.001	0.001	0.001	0.000997281	0.001	0.001	0.374043	0.251991	0.001	0.001	0.843001	0.836712	0.001	0.001	0.105409	0.0072892	0.137567	0.001	0.317665	0.326404	0.302453	0.001	0.29978	0.999	0.001	0.001	0.001	0.714808	0.001	0.0220009	0.00153812	0.001	0.001	0.0520248	0.001	0.798951	0.80502	0.141743	0.001	0.931307	0.0192008	0.360114	0.633564	0.363868	
3.455	0.001	0.001	0.001	0.001	0.001	0.001	0.001	0.001	0.001	0.001	0.001	0.001	0.001	0.001	0.001	0.001	0.001	0.001	0.001	0.001	0.001	0.001	0.001	0.001	0.001	0.001	0.001	0.001	0.001	0.001	0.001	0.001	0.001	0.001	0.001	0.001	0.001	0.001	0.001	0.000997281	0.001	0.001	0.35525	0.240144	0.001	0.001	0.873482	0.868378	0.528109	0.327539	0.001	0.001	0.154569	0.001	0.324718	0.332838	0.311312	0.001	0.210492	0.999	0.001	0.001	0.001	0.707057	0.0384957	0.001	0.001	0.001	0.0503003	0.0555419	0.001	0.81908	0.824686	0.156514	0.001	0.944806	0.001	0.397556	0.477683	0.399876	
3.46	0.001	0.001	0.001	0.001	0.001	0.001	0.001	0.001	0.001	0.001	0.001	0.001	0.001	0.001	0.001	0.001	0.001	0.001	0.001	0.001	0.001	0.001	0.001	0.001	0.001	0.001	0.001	0.001	0.001	0.001	0.001	0.001	0.001	0.001	0.001	0.001	0.001	0.001	0.001	0.000997281	0.001	0.001	0.330292	0.224265	0.001	0.001	0.900288	0.896014	0.774336	0.45408	0.001	0.001	0.173132	0.001	0.332281	0.339645	0.320711	0.001	0.117727	0.999	0.001	0.001	0.001	0.691389	0.001	0.001	0.001	0.001	0.001	0.0597025	0.001	0.832738	0.837826	0.174286	0.001	0.9498	0.001	0.436887	0.341516	0.43892	
3.465	0.001	0.001	0.001	0.001	0.001	0.001	0.001	0.001	0.001	0.001	0.001	0.001	0.001	0.001	0.001	0.001	0.001	0.001	0.001	0.001	0.001	0.001	0.001	0.001	0.001	0.001	0.001	0.001	0.001	0.001	0.001	0.001	0.001	0.001	0.001	0.001	0.001	0.001	0.001	0.000997281	0.001	0.001	0.217644	0.148368	0.001	0.001	0.922546	0.919779	0.604365	0.358383	0.001	0.001	0.19274	0.001	0.336915	0.341552	0.329272	0.001	0.897804	0.999	0.001	0.001	0.001	0.665819	0.001	0.001	0.001	0.001	0.001	0.0657672	0.001	0.84085	0.843672	0.195375	0.001	0.95954	0.001	0.478691	0.591461	0.483714	
3.47	0.001	0.001	0.001	0.001	0.001	0.001	0.001	0.001	0.001	0.001	0.001	0.001	0.001	0.001	0.001	0.001	0.001	0.001	0.001	0.001	0.001	0.001	0.001	0.001	0.001	0.001	0.001	0.001	0.001	0.001	0.001	0.001	0.001	0.001	0.001	0.001	0.001	0.001	0.001	0.000997281	0.001	0.001	0.199833	0.136392	0.001	0.001	0.944099	0.941858	0.258745	0.146054	0.001	0.001	0.220467	0.001	0.346949	0.35108	0.340462	0.001	0.608898	0.999	0.001	0.001	0.001	0.638599	0.0125686	0.001	0.001	0.001	0.001	0.0708436	0.001	0.840989	0.843731	0.22003	0.001	0.954587	0.001	0.513451	0.444393	0.51678	
3.475	0.001	0.001	0.001	0.001	0.001	0.001	0.001	0.001	0.001	0.001	0.001	0.001	0.001	0.001	0.001	0.001	0.001	0.001	0.001	0.001	0.001	0.001	0.001	0.001	0.001	0.001	0.001	0.001	0.001	0.001	0.001	0.001	0.001	0.001	0.001	0.001	0.001	0.001	0.001	0.000997281	0.001	0.001	0.178985	0.122615	0.001	0.001	0.963316	0.961439	0.0428457	0.00587494	0.001	0.001	0.249588	0.001	0.35922	0.36273	0.352985	0.001	0.999	0.999	0.001	0.001	0.001	0.60654	0.001	0.001	0.001	0.001	0.001	0.0768362	0.001	0.833917	0.83642	0.248307	0.001	0.926784	0.001	0.545519	0.341577	0.547874	
3.48	0.001	0.001	0.001	0.001	0.001	0.001	0.001	0.001	0.001	0.001	0.001	0.001	0.001	0.001	0.001	0.001	0.001	0.001	0.001	0.001	0.001	0.001	0.001	0.001	0.001	0.001	0.001	0.001	0.001	0.001	0.001	0.001	0.001	0.001	0.001	0.001	0.001	0.001	0.001	0.000997281	0.001	0.001	0.157991	0.109676	0.001	0.001	0.979249	0.977634	0.001	0.001	0.0874854	0.00693207	0.282115	0.001	0.374088	0.376945	0.367163	0.001	0.999	0.999	0.001	0.001	0.001	0.570634	0.001	0.0332928	0.00114783	0.001	0.046109	0.0837672	0.001	0.819206	0.821456	0.280122	0.001	0.890999	0.0397316	0.574157	0.327185	0.575732	
3.485	0.001	0.001	0.001	0.001	0.001	0.001	0.001	0.001	0.001	0.001	0.001	0.001	0.001	0.001	0.001	0.001	0.001	0.001	0.001	0.001	0.001	0.001	0.001	0.001	0.001	0.001	0.001	0.001	0.001	0.001	0.001	0.001	0.001	0.001	0.001	0.001	0.001	0.001	0.001	0.000997281	0.001	0.001	0.158074	0.107496	0.001	0.001	0.989675	0.988107	0.001	0.001	0.196997	0.0289719	0.319086	0.001	0.391226	0.394102	0.383323	0.182717	0.999	0.999	0.001	0.001	0.001	0.532127	0.0246057	0.129738	0.00445177	0.001	0.001	0.0918165	0.001	0.796565	0.798793	0.315012	0.001	0.856923	0.147635	0.598694	0.364086	0.598782	
3.49	0.001	0.001	0.001	0.001	0.001	0.001	0.001	0.001	0.001	0.001	0.001	0.001	0.001	0.001	0.001	0.001	0.001	0.001	0.001	0.001	0.001	0.001	0.001	0.001	0.001	0.001	0.001	0.001	0.001	0.001	0.001	0.001	0.001	0.001	0.001	0.001	0.001	0.001	0.001	0.000997281	0.001	0.001	0.176403	0.116587	0.001	0.001	0.993618	0.991892	0.001	0.001	0.272303	0.0588401	0.359359	0.001	0.410788	0.414139	0.40125	0.389673	0.999	0.999	0.001	0.001	0.00618165	0.492088	0.001	0.242305	0.00841736	0.001	0.001	0.101074	0.001	0.767312	0.769675	0.352745	0.001	0.816729	0.240623	0.619282	0.287661	0.616698	
3.495	0.001	0.001	0.001	0.001	0.001	0.001	0.001	0.001	0.001	0.001	0.001	0.001	0.001	0.001	0.001	0.001	0.001	0.001	0.001	0.001	0.001	0.001	0.001	0.001	0.001	0.001	0.001	0.001	0.001	0.001	0.001	0.001	0.001	0.001	0.001	0.001	0.001	0.001	0.001	0.000997281	0.001	0.001	0.227558	0.150482	0.001	0.001	0.990775	0.988523	0.001	0.001	0.333685	0.0898888	0.401221	0.001	0.433645	0.438144	0.421031	0.726421	0.999	0.999	0.001	0.001	0.0098634	0.453062	0.001	0.319082	0.0119226	0.001	0.001	0.111645	0.001	0.733781	0.736698	0.392753	0.001	0.762615	0.254287	0.635975	0.174306	0.629542	
3.5	0.001	0.001	0.001	0.001	0.001	0.001	0.001	0.001	0.001	0.001	0.001	0.001	0.001	0.001	0.001	0.001	0.001	0.001	0.001	0.001	0.001	0.001	0.001	0.001	0.001	0.001	0.001	0.001	0.001	0.001	0.001	0.001	0.001	0.001	0.001	0.001	0.001	0.001	0.001	0.000997281	0.001	0.001	0.290681	0.19724	0.001	0.001	0.980632	0.977675	0.001	0.001	0.379281	0.115884	0.445546	0.001	0.458555	0.464616	0.441965	0.999	0.999	0.999	0.00103428	0.001	0.00284931	0.417034	0.01522	0.348852	0.0143958	0.001	0.001	0.123275	0.001	0.698028	0.70196	0.435086	0.001	0.690824	0.212443	0.646542	0.168512	0.633685	
3.505	0.001	0.001	0.001	0.001	0.001	0.001	0.001	0.001	0.001	0.001	0.001	0.001	0.001	0.001	0.001	0.001	0.001	0.001	0.001	0.001	0.001	0.001	0.001	0.001	0.001	0.001	0.001	0.001	0.001	0.001	0.001	0.001	0.001	0.001	0.001	0.001	0.001	0.001	0.001	0.000997281	0.001	0.001	0.341049	0.232604	0.001	0.001	0.961345	0.957816	0.001	0.001	0.403405	0.145202	0.49122	0.001	0.482081	0.489589	0.462588	0.999	0.999	0.999	0.00423716	0.538296	0.001	0.384855	0.001	0.342153	0.0166759	0.001	0.0578631	0.136721	0.001	0.661706	0.666304	0.479606	0.001	0.597708	0.148855	0.652983	0.115084	0.632603	
3.51	0.001	0.001	0.001	0.001	0.001	0.001	0.001	0.001	0.001	0.001	0.001	0.001	0.001	0.001	0.001	0.001	0.001	0.001	0.001	0.001	0.001	0.001	0.001	0.001	0.001	0.001	0.001	0.001	0.001	0.001	0.001	0.001	0.001	0.001	0.001	0.001	0.001	0.001	0.001	0.000997281	0.001	0.001	0.368449	0.245253	0.001	0.001	0.933325	0.929622	0.001	0.001	0.422082	0.15952	0.53916	0.001	0.501396	0.50976	0.481134	0.999	0.999	0.999	0.001	0.900539	0.0119285	0.357929	0.001	0.31872	0.0173173	0.001	0.001	0.151602	0.001	0.625568	0.630733	0.525786	0.001	0.477436	0.0904914	0.652772	0.26824	0.621458	
3.515	0.001	0.001	0.001	0.001	0.001	0.001	0.001	0.001	0.001	0.001	0.001	0.001	0.001	0.001	0.001	0.001	0.001	0.001	0.001	0.001	0.001	0.001	0.001	0.001	0.001	0.001	0.001	0.001	0.001	0.001	0.001	0.001	0.001	0.001	0.001	0.001	0.001	0.001	0.001	0.000997281	0.001	0.001	0.363645	0.236354	0.001	0.001	0.897947	0.894419	0.001	0.001	0.428294	0.170786	0.585114	0.001	0.515055	0.52347	0.496052	0.999	0.999	0.999	0.001	0.999	0.0292018	0.334498	0.0241042	0.296073	0.0176448	0.001	0.001	0.168974	0.001	0.591529	0.596258	0.572617	0.001	0.312274	0.072663	0.65333	0.0375282	0.614395	
3.52	0.001	0.001	0.001	0.001	0.001	0.001	0.001	0.001	0.001	0.001	0.001	0.001	0.001	0.001	0.001	0.001	0.001	0.001	0.001	0.001	0.001	0.001	0.001	0.001	0.001	0.001	0.001	0.001	0.001	0.001	0.001	0.001	0.001	0.001	0.001	0.001	0.001	0.001	0.001	0.000997281	0.001	0.001	0.333313	0.215269	0.001	0.001	0.857614	0.854585	0.001	0.001	0.444824	0.177326	0.63244	0.001	0.522815	0.530578	0.506214	0.999	0.999	0.999	0.0026465	0.999	0.001	0.31723	0.001	0.25365	0.017413	0.001	0.001	0.186571	0.001	0.5606	0.565055	0.619633	0.001	0.001	0.0551653	0.645366	0.509295	0.594555	
3.525	0.001	0.001	0.001	0.001	0.001	0.001	0.001	0.001	0.001	0.001	0.001	0.001	0.001	0.001	0.001	0.001	0.001	0.001	0.001	0.001	0.001	0.001	0.001	0.001	0.001	0.001	0.001	0.001	0.001	0.001	0.001	0.001	0.001	0.001	0.001	0.001	0.001	0.001	0.001	0.000997281	0.001	0.001	0.291025	0.189237	0.001	0.001	0.81355	0.811071	0.001	0.001	0.448277	0.175805	0.679282	0.001	0.523774	0.530559	0.509951	0.999	0.999	0.999	0.001	0.999	0.001	0.303445	0.001	0.228215	0.0166421	0.001	0.001	0.204676	0.001	0.534569	0.538159	0.667779	0.001	0.001	0.0672493	0.635862	0.001	0.575851	
3.53	0.001	0.001	0.001	0.001	0.001	0.001	0.001	0.001	0.001	0.001	0.001	0.001	0.001	0.001	0.001	0.001	0.001	0.001	0.001	0.001	0.001	0.001	0.001	0.001	0.001	0.001	0.001	0.001	0.001	0.001	0.001	0.001	0.001	0.001	0.001	0.001	0.001	0.001	0.001	0.000997281	0.001	0.001	0.252216	0.15917	0.001	0.001	0.767174	0.765402	0.001	0.001	0.451612	0.17211	0.728907	0.001	0.51448	0.519812	0.505169	0.999	0.999	0.999	0.001	0.919769	0.0257094	0.29591	0.0251339	0.211294	0.0160422	0.001	0.001	0.221083	0.001	0.514151	0.517068	0.717882	0.001	0.001	0.0811162	0.617814	0.499727	0.546379	
3.535	0.001	0.001	0.001	0.001	0.001	0.001	0.001	0.001	0.001	0.001	0.001	0.001	0.001	0.001	0.001	0.001	0.001	0.001	0.001	0.001	0.001	0.001	0.001	0.001	0.001	0.001	0.001	0.001	0.001	0.001	0.001	0.001	0.001	0.001	0.001	0.001	0.001	0.001	0.001	0.000997281	0.001	0.001	0.198677	0.122711	0.001	0.001	0.718495	0.717362	0.001	0.001	0.453728	0.167802	0.77932	0.001	0.496128	0.499787	0.491169	0.999	0.999	0.999	0.001	0.24527	0.00791163	0.290631	0.001	0.20327	0.0156106	0.001	0.001	0.235939	0.001	0.500305	0.502201	0.769546	0.001	0.001	0.0920004	0.595441	0.001	0.516373	
3.54	0.001	0.001	0.001	0.001	0.001	0.001	0.001	0.001	0.001	0.001	0.001	0.001	0.001	0.001	0.001	0.001	0.001	0.001	0.001	0.001	0.001	0.001	0.001	0.001	0.001	0.001	0.001	0.001	0.001	0.001	0.001	0.001	0.001	0.001	0.001	0.001	0.001	0.001	0.001	0.000997281	0.001	0.001	0.139283	0.0848477	0.001	0.001	0.66874	0.66817	0.001	0.001	0.457073	0.164045	0.83073	0.001	0.470456	0.472609	0.468223	0.999	0.999	0.0625971	0.001	0.39556	0.001	0.28945	0.001	0.204695	0.0155687	0.001	0.001	0.247	0.001	0.493501	0.494781	0.821643	0.001	0.001	0.102611	0.563539	0.449482	0.478273	
3.545	0.001	0.001	0.001	0.001	0.001	0.001	0.001	0.001	0.001	0.001	0.001	0.001	0.001	0.001	0.001	0.001	0.001	0.001	0.001	0.001	0.001	0.001	0.001	0.001	0.001	0.001	0.001	0.001	0.001	0.001	0.001	0.001	0.001	0.001	0.001	0.001	0.001	0.001	0.001	0.000997281	0.001	0.001	0.0655313	0.04041	0.001	0.001	0.620139	0.619979	0.001	0.001	0.460621	0.15829	0.879991	0.001	0.43672	0.43742	0.43672	0.999	0.5086	0.001	0.001	0.62507	0.001	0.290182	0.001	0.207788	0.015669	0.001	0.001	0.254089	0.001	0.493985	0.49448	0.872183	0.001	0.001	0.110825	0.526176	0.001	0.440923	
3.55	0.001	0.001	0.001	0.001	0.001	0.001	0.001	0.001	0.001	0.001	0.001	0.001	0.001	0.001	0.001	0.001	0.001	0.001	0.001	0.001	0.001	0.001	0.001	0.001	0.001	0.001	0.001	0.001	0.001	0.001	0.001	0.001	0.001	0.001	0.001	0.001	0.001	0.001	0.001	0.000997281	0.001	0.0792432	0.026446	0.0188091	0.001	0.001	0.575567	0.575624	0.001	0.001	0.463635	0.15294	0.925315	0.001	0.397996	0.398044	0.39902	0.999	0.001	0.001	0.001	0.853674	0.001	0.295065	0.767926	0.211543	0.0160422	0.001	0.001	0.255045	0.147484	0.500906	0.501189	0.918482	0.001	0.001	0.110301	0.480868	0.400049	0.398617	
3.555	0.001	0.001	0.001	0.001	0.001	0.001	0.001	0.001	0.001	0.001	0.001	0.001	0.001	0.001	0.001	0.001	0.001	0.001	0.001	0.001	0.001	0.001	0.001	0.001	0.001	0.001	0.001	0.001	0.001	0.001	0.001	0.001	0.001	0.001	0.001	0.001	0.001	0.001	0.001	0.000997281	0.001	0.0668584	0.0195704	0.0156379	0.001	0.001	0.535942	0.535998	0.001	0.001	0.469398	0.150385	0.962603	0.001	0.356282	0.356266	0.357194	0.999	0.001	0.001	0.001	0.775891	0.00173384	0.301432	0.812406	0.212838	0.0162718	0.001	0.0192255	0.249877	0.0354402	0.512455	0.512635	0.956855	0.001	0.001	0.113358	0.431902	0.001	0.35711	
3.56	0.001	0.001	0.001	0.001	0.001	0.001	0.001	0.001	0.001	0.001	0.001	0.001	0.001	0.001	0.001	0.001	0.001	0.001	0.001	0.001	0.001	0.001	0.001	0.001	0.001	0.001	0.001	0.001	0.001	0.001	0.001	0.001	0.001	0.001	0.001	0.001	0.001	0.001	0.001	0.000997281	0.001	0.0332418	0.0282158	0.0213381	0.001	0.001	0.501146	0.501211	0.001	0.001	0.469993	0.142722	0.987305	0.001	0.312733	0.312835	0.313366	0.999	0.001	0.001	0.001	0.506082	0.001	0.309809	0.269168	0.216936	0.0171404	0.001	0.001	0.238422	0.308774	0.5256	0.525851	0.982408	0.001	0.001	0.117835	0.379405	0.263857	0.313684	
3.565	0.001	0.001	0.001	0.001	0.001	0.001	0.001	0.001	0.001	0.001	0.001	0.001	0.001	0.001	0.001	0.001	0.001	0.001	0.001	0.001	0.001	0.001	0.001	0.001	0.001	0.001	0.001	0.001	0.001	0.001	0.001	0.001	0.001	0.001	0.001	0.001	0.001	0.001	0.001	0.000997281	0.001	0.0263513	0.0234643	0.0182173	0.001	0.001	0.469675	0.46974	0.001	0.001	0.476494	0.138283	0.995839	0.001	0.268942	0.269005	0.269529	0.999	0.001	0.001	0.001	0.506843	0.001	0.316879	0.665481	0.220022	0.0179391	0.001	0.001	0.222298	0.314618	0.536359	0.536551	0.991737	0.001	0.001	0.123774	0.327003	0.001	0.272566	
3.57	0.001	0.001	0.001	0.001	0.001	0.001	0.001	0.001	0.001	0.001	0.001	0.001	0.001	0.001	0.001	0.001	0.001	0.001	0.001	0.001	0.001	0.001	0.001	0.001	0.001	0.001	0.001	0.001	0.001	0.001	0.001	0.001	0.001	0.001	0.001	0.001	0.001	0.001	0.001	0.000997281	0.001	0.0144449	0.0181157	0.0151425	0.001	0.001	0.439217	0.439322	0.001	0.001	0.480772	0.134252	0.98735	0.001	0.227231	0.227254	0.227761	0.999	0.001	0.001	0.001	0.659576	0.00128378	0.322322	0.802748	0.223985	0.0193428	0.001	0.001	0.203298	0.742963	0.54076	0.540952	0.983853	0.001	0.001	0.130237	0.275535	0.0552027	0.232459	
3.575	0.001	0.001	0.001	0.001	0.001	0.001	0.001	0.001	0.001	0.001	0.001	0.001	0.001	0.001	0.001	0.001	0.001	0.001	0.001	0.001	0.001	0.001	0.001	0.001	0.001	0.001	0.001	0.001	0.001	0.001	0.001	0.001	0.001	0.001	0.001	0.001	0.001	0.001	0.001	0.000997281	0.001	0.001	0.00257242	0.009892	0.001	0.001	0.406874	0.407149	0.001	0.001	0.485952	0.130373	0.962796	0.001	0.189125	0.1891	0.189359	0.999	0.001	0.001	0.001	0.999	0.001	0.325905	0.701421	0.227685	0.0209049	0.001	0.001	0.183563	0.999	0.536844	0.537155	0.959624	0.001	0.001	0.138526	0.225842	0.0393223	0.192425	
3.58	0.001	0.001	0.001	0.001	0.001	0.001	0.001	0.001	0.001	0.001	0.001	0.001	0.001	0.001	0.001	0.001	0.001	0.001	0.001	0.001	0.001	0.001	0.001	0.001	0.001	0.001	0.001	0.001	0.001	0.001	0.001	0.001	0.001	0.001	0.001	0.001	0.001	0.001	0.001	0.000997281	0.001	0.001	0.001	0.001	0.001	0.001	0.370633	0.371225	0.001	0.001	0.508109	0.129197	0.924194	0.001	0.155903	0.155569	0.154943	0.999	0.001	0.001	0.001	0.999	0.001	0.325235	0.742809	0.231009	0.022505	0.001	0.001	0.165172	0.999	0.524979	0.525363	0.921198	0.001	0.001	0.146809	0.179671	0.127959	0.153844	
3.585	0.001	0.001	0.001	0.001	0.001	0.001	0.001	0.001	0.001	0.001	0.001	0.001	0.001	0.001	0.001	0.001	0.001	0.001	0.001	0.001	0.001	0.001	0.001	0.001	0.001	0.001	0.001	0.001	0.001	0.001	0.001	0.001	0.001	0.001	0.001	0.001	0.001	0.001	0.001	0.000997281	0.001	0.001	0.001	0.001	0.001	0.001	0.331301	0.33225	0.001	0.001	0.489863	0.125588	0.873425	0.001	0.127972	0.127306	0.124849	0.999	0.001	0.001	0.001	0.999	0.001	0.321115	0.724287	0.228462	0.024202	0.001	0.001	0.149499	0.965679	0.507066	0.507465	0.870554	0.001	0.001	0.154586	0.137703	0.0422333	0.116759	
3.59	0.001	0.001	0.001	0.001	0.001	0.001	0.001	0.001	0.001	0.001	0.001	0.001	0.001	0.001	0.001	0.001	0.001	0.001	0.001	0.001	0.001	0.001	0.001	0.001	0.001	0.001	0.001	0.001	0.001	0.001	0.001	0.001	0.001	0.001	0.001	0.001	0.001	0.001	0.001	0.000997281	0.001	0.001	0.001	0.001	0.001	0.001	0.29175	0.293084	0.001	0.001	0.498448	0.119881	0.814096	0.001	0.105401	0.104291	0.0995404	0.999	0.001	0.001	0.001	0.999	0.001	0.314847	0.726188	0.224994	0.0257907	0.00120198	0.001	0.138033	0.955885	0.485567	0.485868	0.811302	0.001	0.001	0.162346	0.101131	0.115336	0.081902	
3.595	0.001	0.001	0.001	0.001	0.001	0.001	0.001	0.001	0.001	0.001	0.001	0.001	0.001	0.001	0.001	0.001	0.001	0.001	0.001	0.001	0.001	0.001	0.001	0.001	0.001	0.001	0.001	0.001	0.001	0.001	0.001	0.001	0.001	0.001	0.001	0.001	0.001	0.001	0.001	0.000997281	0.001	0.001	0.001	0.001	0.001	0.001	0.253367	0.255067	0.001	0.001	0.488704	0.109738	0.748429	0.001	0.0875904	0.0860915	0.0786035	0.999	0.001	0.001	0.001	0.999	0.001	0.307903	0.71459	0.209189	0.0251054	0.00346843	0.001	0.131355	0.948717	0.461908	0.462031	0.745784	0.001	0.001	0.159124	0.0697462	0.0674912	0.0497451	
3.6	0.001	0.001	0.001	0.001	0.001	0.001	0.001	0.001	0.001	0.001	0.001	0.001	0.001	0.001	0.001	0.001	0.001	0.001	0.001	0.001	0.001	0.001	0.001	0.001	0.001	0.001	0.001	0.001	0.001	0.001	0.001	0.001	0.001	0.001	0.001	0.001	0.001	0.001	0.001	0.000997281	0.001	0.001	0.001	0.001	0.001	0.001	0.217562	0.219618	0.001	0.001	0.464496	0.0863134	0.678958	0.001	0.0745539	0.0727539	0.0618539	0.999	0.001	0.001	0.001	0.999	0.001	0.299968	0.644505	0.174668	0.0226361	0.001	0.001	0.130077	0.940998	0.43698	0.436853	0.67649	0.001	0.001	0.150843	0.0439391	0.0523971	0.0206402	
3.605	0.001	0.001	0.001	0.001	0.001	0.001	0.001	0.001	0.001	0.001	0.001	0.001	0.001	0.001	0.001	0.001	0.001	0.001	0.001	0.001	0.001	0.001	0.001	0.001	0.001	0.001	0.001	0.001	0.001	0.001	0.001	0.001	0.001	0.001	0.001	0.001	0.001	0.001	0.001	0.000997281	0.001	0.001	0.001	0.001	0.001	0.001	0.184918	0.187322	0.001	0.001	0.442207	0.0813061	0.607236	0.001	0.0655268	0.0636371	0.0488407	0.999	0.001	0.001	0.001	0.999	0.001	0.291879	0.62464	0.165172	0.0215002	0.001	0.001	0.13445	0.932675	0.41116	0.410728	0.604916	0.001	0.001	0.143768	0.0233628	0.0161519	0.001	
3.61	0.001	0.001	0.001	0.001	0.001	0.001	0.001	0.001	0.001	0.001	0.001	0.001	0.001	0.001	0.001	0.001	0.001	0.001	0.001	0.001	0.001	0.001	0.001	0.001	0.001	0.001	0.001	0.001	0.001	0.001	0.001	0.001	0.001	0.001	0.001	0.001	0.001	0.001	0.001	0.000997281	0.001	0.001	0.001	0.001	0.001	0.001	0.155784	0.158495	0.001	0.001	0.403766	0.0553057	0.534955	0.001	0.0592792	0.0577167	0.0392081	0.999	0.001	0.001	0.001	0.999	0.001	0.285978	0.575336	0.125551	0.0175175	0.00140454	0.001	0.144147	0.9241	0.384474	0.383724	0.532704	0.001	0.001	0.135554	0.0079208	0.0131395	0.001	
3.615	0.001	0.001	0.001	0.001	0.001	0.001	0.001	0.001	0.001	0.001	0.001	0.001	0.001	0.001	0.001	0.001	0.001	0.001	0.001	0.001	0.001	0.001	0.001	0.001	0.001	0.001	0.001	0.001	0.001	0.001	0.001	0.001	0.001	0.001	0.001	0.001	0.001	0.001	0.001	0.000997281	0.001	0.001	0.001	0.001	0.001	0.001	0.130269	0.133285	0.001	0.001	0.37614	0.0508291	0.464452	0.001	0.0557161	0.0548971	0.0322615	0.999	0.001	0.001	0.001	0.999	0.001	0.279247	0.443219	0.115949	0.0162506	0.00142627	0.001	0.159085	0.916261	0.356638	0.35553	0.462257	0.001	0.001	0.126151	0.001	0.001	0.001	
3.62	0.001	0.001	0.001	0.001	0.001	0.001	0.001	0.001	0.001	0.001	0.001	0.001	0.001	0.001	0.001	0.001	0.001	0.001	0.001	0.001	0.001	0.001	0.001	0.001	0.001	0.001	0.001	0.001	0.001	0.001	0.001	0.001	0.001	0.001	0.001	0.001	0.001	0.001	0.001	0.000997281	0.001	0.001	0.001	0.001	0.001	0.001	0.108075	0.111399	0.001	0.001	0.331439	0.0331798	0.397125	0.001	0.0539746	0.054317	0.0273614	0.999	0.001	0.001	0.001	0.999	0.001	0.271449	0.351461	0.0867519	0.0124876	0.00148835	0.001	0.17827	0.908352	0.327329	0.325835	0.39494	0.001	0.0246831	0.113704	0.001	0.001	0.001	
3.625	0.001	0.001	0.001	0.001	0.001	0.001	0.001	0.001	0.001	0.001	0.001	0.001	0.001	0.001	0.001	0.001	0.001	0.001	0.001	0.001	0.001	0.001	0.001	0.001	0.001	0.001	0.001	0.001	0.001	0.001	0.001	0.001	0.001	0.001	0.001	0.001	0.001	0.001	0.001	0.000997281	0.001	0.001	0.001	0.001	0.001	0.001	0.0885759	0.0924352	0.001	0.001	0.154075	0.0110995	0.333776	0.001	0.0514544	0.0520167	0.0230676	0.999	0.001	0.001	0.001	0.999	0.001	0.260375	0.999	0.0308485	0.00445742	0.001	0.001	0.202018	0.902548	0.295363	0.293782	0.332014	0.001	0.138315	0.0436093	0.00322732	0.001	0.001	
3.63	0.001	0.001	0.001	0.001	0.001	0.001	0.001	0.001	0.001	0.001	0.001	0.001	0.001	0.001	0.001	0.001	0.001	0.001	0.001	0.001	0.001	0.001	0.001	0.001	0.001	0.001	0.001	0.001	0.001	0.001	0.001	0.001	0.001	0.001	0.001	0.001	0.001	0.001	0.001	0.000997281	0.001	0.001	0.001	0.001	0.001	0.001	0.0730771	0.0770018	0.001	0.001	0.159887	0.00737283	0.276114	0.001	0.0524069	0.0573805	0.0215906	0.999	0.001	0.001	0.001	0.999	0.001	0.253576	0.0446906	0.0222677	0.00322789	0.001	0.001	0.227197	0.895247	0.264468	0.262395	0.274067	0.001	0.166407	0.0352246	0.001	0.001	0.001	
