CEINMS output
datacolumns 7
datarows 92
endheader
time	addbrev_r	addlong_r	addmagDist_r	addmagIsch_r	addmagMid_r	addmagProx_r	bflh_r	bfsh_r	edl_r	ehl_r	fdl_r	fhl_r	gaslat_r	gasmed_r	glmax1_r	glmax2_r	glmax3_r	glmed1_r	glmed2_r	glmed3_r	glmin1_r	glmin2_r	glmin3_r	grac_r	iliacus_r	perbrev_r	perlong_r	piri_r	psoas_r	recfem_r	sart_r	semimem_r	semiten_r	soleus_r	tfl_r	tibant_r	tibpost_r	vasint_r	vaslat_r	vasmed_r	addbrev_l	addlong_l	addmagDist_l	addmagIsch_l	addmagMid_l	addmagProx_l	bflh_l	bfsh_l	edl_l	ehl_l	fdl_l	fhl_l	gaslat_l	gasmed_l	glmax1_l	glmax2_l	glmax3_l	glmed1_l	glmed2_l	glmed3_l	glmin1_l	glmin2_l	glmin3_l	grac_l	iliacus_l	perbrev_l	perlong_l	piri_l	psoas_l	recfem_l	sart_l	semimem_l	semiten_l	soleus_l	tfl_l	tibant_l	tibpost_l	vasint_l	vaslat_l	vasmed_l	
3.19	77390.1	8.57266	2.19136	1	10	1200	
3.195	98397.9	3.97762	0.580609	1	10	1200	
3.2	87662.3	2.92044	0.0999025	1	10	1200	
3.205	77501.5	2.66489	0.0483546	1	10	1200	
3.21	73687.6	2.19179	0.0260021	1	10	1200	
3.215	70865.6	2.02029	0.00615853	1	10	1200	
3.22	66823.2	2.08783	0.00211799	1	10	1200	
3.225	62095.1	2.82163	0.00384668	1	10	1200	
3.23	60603.7	2.20688	0.00656436	1	10	1200	
3.235	63114	2.41468	0.00940251	1	10	1200	
3.24	67257.6	2.48544	0.0138053	1	10	1200	
3.245	67656.7	2.29921	0.0237963	1	10	1200	
3.25	63045	2.20761	0.0555202	1	10	1200	
3.255	56344.1	2.29823	0.130056	1	10	1200	
3.26	49831.6	2.40331	0.23028	1	10	1200	
3.265	43788.6	2.53613	0.361916	1	10	1200	
3.27	38456.5	2.74788	0.559598	1	10	1200	
3.275	33968.9	2.96152	0.776746	1	10	1200	
3.28	28491.6	3.14684	0.967892	1	10	1200	
3.285	21938.3	3.15267	0.99615	1	10	1200	
3.29	15793.4	3.06902	0.954809	1	10	1200	
3.295	10727.8	2.85145	0.801711	1	10	1200	
3.3	8322.59	2.58535	0.59601	1	10	1200	
3.305	7373	2.55072	0.61211	1	10	1200	
3.31	7044.94	2.56271	0.686886	1	10	1200	
3.315	6973.9	2.43332	0.62523	1	10	1200	
3.32	6818.95	2.25118	0.512973	1	10	1200	
3.325	6554.58	2.10043	0.432979	1	10	1200	
3.33	6166.51	1.67607	0.381794	1	10	1200	
3.335	5781.32	0.955254	0.281062	1	10	1200	
3.34	5555.96	0.794335	0.190583	1	10	1200	
3.345	5579.6	0.781012	0.110453	1	10	1200	
3.35	5663.91	0.809242	0.0927326	1	10	1200	
3.355	5969.21	0.876197	0.102217	1	10	1200	
3.36	7049.77	0.991792	0.151164	1	10	1200	
3.365	9506.16	1.16272	0.239568	1	10	1200	
3.37	13397.9	1.37389	0.364847	1	10	1200	
3.375	18951.3	1.67892	0.565842	1	10	1200	
3.38	26240.1	1.82697	0.652003	1	10	1200	
3.385	36420.5	1.88392	0.668178	1	10	1200	
3.39	48475.8	1.97657	0.688124	1	10	1200	
3.395	56065	2.16236	0.708118	1	10	1200	
3.4	60917.5	2.64828	0.729785	1	10	1200	
3.405	57915.2	3.19233	0.751746	1	10	1200	
3.41	49891.7	3.39716	0.79035	1	10	1200	
3.415	42693.9	3.6546	0.871991	1	10	1200	
3.42	37931.4	3.9272	0.948543	1	10	1200	
3.425	34724.2	4.2676	1.02355	1	10	1200	
3.43	33638.8	4.58924	0.863561	1	10	1200	
3.435	33337.2	5.07841	0.829113	1	10	1200	
3.44	32741.2	5.60526	0.813284	1	10	1200	
3.445	30789.3	6.04723	0.804214	1	10	1200	
3.45	27358.5	6.37722	0.779551	1	10	1200	
3.455	23576.7	6.59288	0.706466	1	10	1200	
3.46	20297.5	6.46118	0.442677	1	10	1200	
3.465	17618.8	6.38289	0.280046	1	10	1200	
3.47	15217.5	6.78781	0.19165	1	10	1200	
3.475	12738.3	7.25869	0.170604	1	10	1200	
3.48	5274.35	8.0783	0.0832354	1	10	1200	
3.485	4047.25	7.22216	0.0639791	1	10	1200	
3.49	3177.2	7.74868	0.0901312	1	10	1200	
3.495	2699.26	7.77574	0.100225	1	10	1200	
3.5	2985.78	7.90508	0.0950813	1	10	1200	
3.505	4262.72	8.06005	0.162545	1	10	1200	
3.51	7619.1	8.42728	0.302757	1	10	1200	
3.515	13325.8	8.8631	0.374595	1	10	1200	
3.52	19275.7	9.02562	0.491749	1	10	1200	
3.525	23065	9.4124	0.37627	1	10	1200	
3.53	23401.5	9.29847	0.63901	1	10	1200	
3.535	21863	9.30572	0.330908	1	10	1200	
3.54	19446.3	8.88952	0.714015	1	10	1200	
3.545	16550.4	8.82458	0.205156	1	10	1200	
3.55	14692.9	7.62426	0.576669	1	10	1200	
3.555	14070.9	6.77583	0.117709	1	10	1200	
3.56	13914.9	5.93169	0.426186	1	10	1200	
3.565	14379.3	6.684	0.0717218	1	10	1200	
3.57	14545.8	6.35908	0.297895	1	10	1200	
3.575	14587.6	5.48052	0.0667742	1	10	1200	
3.58	14460.7	5.64904	0.176705	1	10	1200	
3.585	14320.6	6.2941	0.0971932	1	10	1200	
3.59	14385.1	6.90355	0.0725591	1	10	1200	
3.595	14951.1	6.70354	0.026875	1	10	1200	
3.6	16345.6	6.24914	0.0319113	1	10	1200	
3.605	18530.3	5.92173	0.0168041	1	10	1200	
3.61	20727.8	5.545	0.0160342	1	10	1200	
3.615	25067.6	5.09656	0.0158136	1	10	1200	
3.62	33459.2	4.76319	0.0164945	1	10	1200	
3.625	44411.2	4.40715	0.0164337	1	10	1200	
3.63	59122.4	4.0339	0.0184448	1	10	1200	
3.635	77301	3.74003	0.0171481	1	10	1200	
3.64	93214	4.3806	0.0089546	1	10	1200	
3.645	116813	3.27842	0.0124939	1	10	1200	
