CEINMS output
datacolumns 81
datarows 92
endheader
time	addbrev_r	addlong_r	addmagDist_r	addmagIsch_r	addmagMid_r	addmagProx_r	bflh_r	bfsh_r	edl_r	ehl_r	fdl_r	fhl_r	gaslat_r	gasmed_r	glmax1_r	glmax2_r	glmax3_r	glmed1_r	glmed2_r	glmed3_r	glmin1_r	glmin2_r	glmin3_r	grac_r	iliacus_r	perbrev_r	perlong_r	piri_r	psoas_r	recfem_r	sart_r	semimem_r	semiten_r	soleus_r	tfl_r	tibant_r	tibpost_r	vasint_r	vaslat_r	vasmed_r	addbrev_l	addlong_l	addmagDist_l	addmagIsch_l	addmagMid_l	addmagProx_l	bflh_l	bfsh_l	edl_l	ehl_l	fdl_l	fhl_l	gaslat_l	gasmed_l	glmax1_l	glmax2_l	glmax3_l	glmed1_l	glmed2_l	glmed3_l	glmin1_l	glmin2_l	glmin3_l	grac_l	iliacus_l	perbrev_l	perlong_l	piri_l	psoas_l	recfem_l	sart_l	semimem_l	semiten_l	soleus_l	tfl_l	tibant_l	tibpost_l	vasint_l	vaslat_l	vasmed_l	
3.19	5.25622e-05	0.000773534	0.00016652	8.78867e-05	4.43359e-05	5.80862e-05	0.000914131	0.000462873	0.000262921	0.000135634	0.000424936	0.000438306	0.000917762	0.00140491	0.00213725	0.00204146	0.00195583	0.00213877	0.00212431	0.00190726	0.000448302	0.00213027	0.00188348	0.000181635	0.000348778	0.00041468	0.000219886	0.00202193	0.000132482	0.000116513	6.46323e-05	0.00216718	0.0011681	0.000901844	5.62209e-05	8.96996e-05	0.000568391	0.000261346	0.000128386	0.000122691	0.000248659	0.000248659	0.247057	0.247057	0.202355	0.000248659	0.00183918	0.000230648	0.000968885	0.000739262	0.0966314	6.80156e-05	0.00367802	0.000248659	0.00551938	0.00921544	0.000611908	0.872914	0.924278	0.00133329	0.445186	0.821272	0.000862863	0.00953738	0.000284681	0.000655595	1.54145e-05	0.000267727	0.000776532	0.07741	0.55985	0.0101508	0.0010162	0.0181109	0.000248659	0.0166432	0.00390105	2.55801e-05	0.000998959	3.03582e-05	
3.195	0.000143169	0.00119938	0.0003875	0.000222473	0.000117934	0.000157914	0.00168795	0.00101731	0.000562033	0.000321892	0.000796865	0.000787985	0.0014989	0.00191979	0.0027885	0.00268745	0.00260659	0.00285819	0.00272277	0.00259835	0.000793858	0.00286018	0.00258216	0.000430155	0.000799858	0.00075472	0.000470716	0.0026465	0.000313226	0.000301267	0.000174491	0.00269349	0.00182472	0.0014769	0.000151563	0.000225198	0.000976726	0.000559261	0.000307226	0.000294488	0.000500749	0.000500749	0.494782	0.494782	0.449962	0.0420243	0.00382869	0.000559297	0.00106577	0.0009611	0.118774	0.00026037	0.00832949	0.000500749	0.0131478	0.0224195	0.00121152	0.714191	0.993503	0.00149903	0.312617	0.15406	0.0010073	0.020582	0.00055606	0.00252657	5.84493e-05	0.000532862	0.000993041	0.0614755	0.754408	0.0229257	0.00240079	0.0363566	0.000500749	0.0125845	0.0128911	6.86385e-05	0.00109884	8.10598e-05	
3.2	0.00280274	0.00147286	0.00147114	0.00160169	0.00154203	0.00297016	0.00274905	0.00287831	0.00141435	0.00138138	0.00134373	0.00121313	0.00196544	0.00210627	0.00297486	0.0028816	0.0028146	0.00309139	0.00287842	0.00284492	0.0011869	0.00310268	0.00283922	0.00182083	0.00279444	0.00119134	0.00119131	0.00282847	0.00131167	0.00271723	0.0029309	0.00280785	0.00226037	0.00194393	0.00244934	0.00149871	0.00138435	0.00141335	0.00139406	0.00136473	0.00102267	0.00102267	0.921486	0.859568	0.78922	0.0907281	0.400487	0.093508	0.00107355	0.00102332	0.0999076	0.00790122	0.416993	0.00102267	0.358704	0.80509	0.142048	0.587178	0.784649	0.00151596	0.303626	0.0898526	0.0010277	0.452099	0.00103947	0.019896	0.00450513	0.00105049	0.0010485	0.0799415	0.874876	0.722753	0.274788	0.0982826	0.00102267	0.0358944	0.103761	0.00103384	0.00110687	0.00113001	
3.205	0.00280274	0.00147286	0.00147114	0.00160169	0.00154203	0.00297016	0.00274905	0.00287831	0.00141435	0.00138138	0.00134373	0.00121313	0.00196544	0.00210627	0.00297486	0.0028816	0.0028146	0.00309139	0.00287842	0.00284492	0.0011869	0.00310268	0.00283922	0.00182083	0.00279444	0.00119134	0.00119131	0.00282847	0.00131167	0.00271723	0.0029309	0.00280785	0.00226037	0.00194393	0.00244934	0.00149871	0.00138435	0.00141335	0.00139406	0.00136473	0.057108	0.0635663	0.681005	0.617537	0.568698	0.0755514	0.398667	0.0933502	0.00107355	0.00102332	0.0795952	0.00784738	0.41327	0.00102267	0.351623	0.79227	0.141497	0.52903	0.101791	0.00151596	0.584373	0.185124	0.0010277	0.448319	0.208467	0.0195044	0.0044928	0.00105049	0.749243	0.0995243	0.902151	0.710813	0.273972	0.0902176	0.00102267	0.0677447	0.0985644	0.00103384	0.00110687	0.00113001	
3.21	0.00280274	0.00147286	0.00147114	0.00160169	0.00154203	0.00297016	0.00274905	0.00287831	0.00141435	0.00138138	0.00134373	0.00121313	0.00196544	0.00210627	0.00297486	0.0028816	0.0028146	0.00309139	0.00287842	0.00284492	0.0011869	0.00310268	0.00283922	0.00182083	0.00279444	0.00119134	0.00119131	0.00282847	0.00131167	0.00271723	0.0029309	0.00280785	0.00226037	0.00194393	0.00244934	0.00149871	0.00138435	0.00141335	0.00139406	0.00136473	0.148826	0.153155	0.454888	0.406151	0.374618	0.0649554	0.396068	0.0931188	0.00107355	0.00102332	0.0785273	0.00779314	0.408046	0.00102267	0.341744	0.774502	0.140674	0.365452	0.00958478	0.00151596	0.796648	0.271192	0.0010277	0.443269	0.475762	0.0191377	0.00448	0.00105049	0.948608	0.116398	0.913361	0.694785	0.272766	0.079994	0.00102267	0.101926	0.0929303	0.00103384	0.00110687	0.00113001	
3.215	0.00280274	0.00147286	0.00147114	0.00160169	0.00154203	0.00297016	0.00274905	0.00287831	0.00141435	0.00138138	0.00134373	0.00121313	0.00196544	0.00210627	0.00297486	0.0028816	0.0028146	0.00309139	0.00287842	0.00284492	0.0011869	0.00310268	0.00283922	0.00182083	0.00279444	0.00119134	0.00119131	0.00282847	0.00131167	0.00271723	0.0029309	0.00280785	0.00226037	0.00194393	0.00244934	0.00149871	0.00138435	0.00141335	0.00139406	0.00136473	0.221645	0.207744	0.286613	0.253435	0.234004	0.062572	0.392779	0.0928169	0.00107355	0.00102332	0.0888867	0.00775396	0.401544	0.00102267	0.329774	0.752852	0.139613	0.303463	0.00197506	0.00151596	0.908481	0.0498299	0.0010277	0.437205	0.64257	0.0190801	0.00446884	0.00105049	0.989809	0.125681	0.914847	0.675695	0.271203	0.0688291	0.00102267	0.136058	0.0882358	0.00105283	0.00110687	0.00113001	
3.22	0.00280274	0.00147286	0.00147114	0.00160169	0.00154203	0.00297016	0.00274905	0.00287831	0.00141435	0.00138138	0.00134373	0.00121313	0.00196544	0.00210627	0.00297486	0.0028816	0.0028146	0.00309139	0.00287842	0.00284492	0.0011869	0.00310268	0.00283922	0.00182083	0.00279444	0.00119134	0.00119131	0.00282847	0.00131167	0.00271723	0.0029309	0.00280785	0.00226037	0.00194393	0.00244934	0.00149871	0.00138435	0.00141335	0.00139406	0.00136473	0.272092	0.230866	0.173928	0.152806	0.154071	0.069154	0.388877	0.0924477	0.00107355	0.00102332	0.102178	0.0077893	0.393972	0.00102267	0.316299	0.728231	0.13836	0.234725	0.00142786	0.00276372	0.840095	0.00779979	0.0010277	0.430314	0.699426	0.0196937	0.00448183	0.00105049	0.99745	0.133754	0.914502	0.654418	0.269319	0.0576707	0.00102267	0.170328	0.0854769	0.00108087	0.00110687	0.00113001	
3.225	0.00280274	0.00147286	0.00147114	0.00160169	0.00154203	0.00297016	0.00274905	0.00287831	0.00141435	0.00138138	0.00134373	0.00121313	0.00196544	0.00210627	0.00297486	0.0028816	0.0028146	0.00309139	0.00287842	0.00284492	0.0011869	0.00310268	0.00283922	0.00182083	0.00279444	0.00119134	0.00119131	0.00282847	0.00131167	0.00271723	0.0029309	0.00280785	0.00226037	0.00194393	0.00244934	0.00149871	0.00138435	0.00141335	0.00139406	0.00136473	0.311659	0.244088	0.102909	0.0900224	0.11973	0.0795537	0.384434	0.0920132	0.00107355	0.00102332	0.115927	0.00790574	0.385514	0.00102267	0.301798	0.701408	0.136934	0.162977	0.00139096	0.00202566	0.758831	0.00185154	0.0010277	0.422749	0.75495	0.0209825	0.00450802	0.00106394	0.998781	0.145168	0.916837	0.631684	0.267143	0.0472122	0.00102267	0.203085	0.0850589	0.00113085	0.00110687	0.00113001	
3.23	0.00280274	0.00147286	0.00147114	0.00160169	0.00154203	0.00297016	0.00274905	0.00287831	0.00141435	0.00138138	0.00134373	0.00121313	0.00196544	0.00210627	0.00297486	0.0028816	0.0028146	0.00309139	0.00287842	0.00284492	0.0011869	0.00310268	0.00283922	0.00182083	0.00279444	0.00119134	0.00119131	0.00282847	0.00131167	0.00271723	0.0029309	0.00280785	0.00226037	0.00194393	0.00244934	0.00149871	0.00138435	0.00141335	0.00139406	0.00136473	0.34684	0.257701	0.0598734	0.0522389	0.104465	0.090025	0.379515	0.0914943	0.00107355	0.00102332	0.129432	0.0080997	0.376345	0.00102267	0.286665	0.673034	0.135344	0.062742	0.00138857	0.00157458	0.786615	0.00110115	0.0010277	0.414651	0.833021	0.0228563	0.00455149	0.00109625	0.999004	0.155063	0.923101	0.608107	0.264708	0.03788	0.00102267	0.231744	0.0870278	0.0011988	0.00110687	0.00113001	
3.235	0.00280274	0.00147286	0.00147114	0.00160169	0.00154203	0.00297016	0.00274905	0.00287831	0.00141435	0.00138138	0.00134373	0.00121313	0.00196544	0.00210627	0.00297486	0.0028816	0.0028146	0.00309139	0.00287842	0.00284492	0.0011869	0.00310268	0.00283922	0.00182083	0.00279444	0.00119134	0.00119131	0.00282847	0.00131167	0.00271723	0.0029309	0.00280785	0.00226037	0.00194393	0.00244934	0.00149871	0.00138435	0.00141335	0.00139406	0.00136473	0.388102	0.278096	0.0345	0.0300726	0.105457	0.107836	0.374182	0.090899	0.00107355	0.00102332	0.142602	0.00838909	0.366635	0.00102267	0.271217	0.643652	0.133596	0.00997995	0.00138841	0.00252045	0.705347	0.001012	0.0010277	0.406176	0.89631	0.025341	0.00461856	0.00115612	0.99904	0.160341	0.933072	0.584219	0.26205	0.0299163	0.00102267	0.255288	0.0913467	0.00124713	0.00110687	0.00113001	
3.24	0.00280274	0.00147286	0.00147114	0.00160169	0.00154203	0.00297016	0.00274905	0.00287831	0.00141435	0.00138138	0.00134373	0.00121313	0.00196544	0.00210627	0.00297486	0.0028816	0.0028146	0.00309139	0.00287842	0.00284492	0.0011869	0.00310268	0.00283922	0.00182083	0.00279444	0.00119134	0.00119131	0.00282847	0.00131167	0.00271723	0.0029309	0.00280785	0.00226037	0.00194393	0.00244934	0.00149871	0.00138435	0.00141335	0.00139406	0.00136473	0.431768	0.301886	0.0198381	0.0173118	0.117782	0.131506	0.368495	0.090235	0.00107355	0.00102332	0.155776	0.00879472	0.356538	0.00102267	0.25571	0.613718	0.13171	0.00221999	0.0013884	0.00256995	0.488025	0.00100179	0.0010277	0.397466	0.938828	0.0284481	0.00471816	0.00114388	0.999046	0.161741	0.944699	0.560473	0.259207	0.0234072	0.00102267	0.27414	0.0977565	0.00128115	0.00110687	0.00113001	
3.245	0.00280274	0.00147286	0.00147114	0.00160169	0.00154203	0.00297016	0.00274905	0.00287831	0.00141435	0.00138138	0.00134373	0.00121313	0.00196544	0.00210627	0.00297486	0.0028816	0.0028146	0.00309139	0.00287842	0.00284492	0.0011869	0.00310268	0.00283922	0.00182083	0.00279444	0.00119134	0.00119131	0.00282847	0.00131167	0.00271723	0.0029309	0.00280785	0.00226037	0.00194393	0.00244934	0.00149871	0.00138435	0.00141335	0.00139406	0.00136473	0.476665	0.326544	0.011495	0.0100716	0.148044	0.160719	0.362507	0.0895091	0.00107355	0.00102332	0.169299	0.00931794	0.346183	0.00102267	0.240344	0.583609	0.129703	0.00132271	0.0013884	0.00164323	0.257317	0.00100064	0.0010277	0.388619	0.964971	0.032122	0.00484975	0.00111708	0.999047	0.163613	0.953852	0.537221	0.256214	0.0183359	0.00102267	0.289485	0.105926	0.00130811	0.00110687	0.00113001	
3.25	0.00280274	0.00147286	0.00147114	0.00160169	0.00154203	0.00297016	0.00274905	0.00287831	0.00141435	0.00138138	0.00134373	0.00121313	0.00196544	0.00210627	0.00297486	0.0028816	0.0028146	0.00309139	0.00287842	0.00284492	0.0011869	0.00310268	0.00283922	0.00182083	0.00279444	0.00119134	0.00119131	0.00282847	0.00131167	0.00271723	0.0029309	0.00280785	0.00226037	0.00194393	0.00244934	0.00149871	0.00138435	0.00141335	0.00139406	0.00136473	0.532053	0.352721	0.00680466	0.00601083	0.218548	0.205385	0.356266	0.0887278	0.00107355	0.00102332	0.182778	0.00997191	0.335672	0.00102267	0.225278	0.553634	0.127591	0.00122893	0.0013884	0.00152775	0.120492	0.00100051	0.0010277	0.379701	0.980237	0.0363626	0.00502001	0.00117559	0.999047	0.167921	0.958131	0.5147	0.253102	0.0146128	0.00102267	0.302434	0.115469	0.00136491	0.00110687	0.00113001	
3.255	0.00280274	0.00147286	0.00147114	0.00160169	0.00154203	0.00297016	0.00274905	0.00287831	0.00141435	0.00138138	0.00134373	0.00121313	0.00196544	0.00210627	0.00297486	0.0028816	0.0028146	0.00309139	0.00287842	0.00284492	0.0011869	0.00310268	0.00283922	0.00182083	0.00279444	0.00119134	0.00119131	0.00282847	0.00131167	0.00271723	0.0029309	0.00280785	0.00226037	0.00194393	0.00244934	0.00149871	0.00138435	0.00141335	0.00139406	0.00136473	0.593627	0.374797	0.063994	0.00375449	0.323794	0.262034	0.349814	0.0878973	0.00107355	0.00102332	0.196479	0.0107621	0.325084	0.00102267	0.210633	0.524044	0.12539	0.00121965	0.0013884	0.00151694	0.0530612	0.0010005	0.0010277	0.370756	0.957188	0.0411534	0.00523216	0.00128071	0.999047	0.174004	0.958287	0.493061	0.249897	0.0121133	0.00102267	0.31396	0.125976	0.0014415	0.00110687	0.00113001	
3.26	0.00280274	0.00147286	0.00147114	0.00160169	0.00154203	0.00297016	0.00274905	0.00287831	0.00141435	0.00138138	0.00134373	0.00121313	0.00196544	0.00210627	0.00297486	0.0028816	0.0028146	0.00309139	0.00287842	0.00284492	0.0011869	0.00310268	0.00283922	0.00182083	0.00279444	0.00119134	0.00119131	0.00282847	0.00131167	0.00271723	0.0029309	0.00280785	0.00226037	0.00194393	0.00244934	0.00149871	0.00138435	0.00141335	0.00139406	0.00136473	0.648497	0.388764	0.17907	0.0262824	0.433808	0.31787	0.343186	0.0870229	0.00107355	0.00102332	0.210207	0.011696	0.31449	0.00102267	0.196501	0.495043	0.123113	0.00121877	0.0013884	0.00151603	0.022763	0.0010005	0.0010277	0.361806	0.887717	0.0464566	0.00549194	0.00139509	0.999047	0.181055	0.955759	0.472394	0.246622	0.0106547	0.00102267	0.324641	0.136998	0.00153027	0.00110687	0.00113001	
3.265	0.00280274	0.00147286	0.00147114	0.00160169	0.00154203	0.00297016	0.00274905	0.00287831	0.00141435	0.00138138	0.00134373	0.00121313	0.00196544	0.00210627	0.00297486	0.0028816	0.0028146	0.00309139	0.00287842	0.00284492	0.0011869	0.00310268	0.00283922	0.00182083	0.00279444	0.00119134	0.00119131	0.00282847	0.00131167	0.00271723	0.0029309	0.00280785	0.00226037	0.00194393	0.00244934	0.00149871	0.00138435	0.00141335	0.00139406	0.00136473	0.688632	0.394613	0.312573	0.0825999	0.533472	0.363718	0.336413	0.0861098	0.00107355	0.00102332	0.22288	0.0127563	0.303946	0.00102267	0.182945	0.46679	0.120794	0.00121868	0.0013884	0.00151596	0.00986775	0.0010005	0.0010277	0.352864	0.798834	0.0521298	0.00579266	0.00133531	0.999047	0.190087	0.949948	0.452686	0.243297	0.0101421	0.00102267	0.334663	0.147999	0.00160908	0.00110687	0.00113001	
3.27	0.00280274	0.00147286	0.00147114	0.00160169	0.00154203	0.00297016	0.00274905	0.00287831	0.00141435	0.00138138	0.00134373	0.00121313	0.00196544	0.00210627	0.00297486	0.0028816	0.0028146	0.00309139	0.00287842	0.00284492	0.0011869	0.00310268	0.00283922	0.00182083	0.00279444	0.00119134	0.00119131	0.00282847	0.00131167	0.00271723	0.0029309	0.00280785	0.00226037	0.00194393	0.00244934	0.00149871	0.00138435	0.00141335	0.00139406	0.00136473	0.708943	0.393066	0.433053	0.138136	0.613864	0.393915	0.329522	0.0851623	0.00107355	0.00102332	0.234612	0.0139274	0.293499	0.00102267	0.170011	0.439407	0.118448	0.00121868	0.0013884	0.00151596	0.00456877	0.0010005	0.0010277	0.343919	0.718692	0.0580535	0.00613338	0.00124807	0.999047	0.201693	0.941966	0.433803	0.239935	0.0103832	0.00102267	0.343882	0.158447	0.00168632	0.00110687	0.00113001	
3.275	0.00280274	0.00147286	0.00147114	0.00160169	0.00154203	0.00297016	0.00274905	0.00287831	0.00141435	0.00138138	0.00134373	0.00121313	0.00196544	0.00210627	0.00297486	0.0028816	0.0028146	0.00309139	0.00287842	0.00284492	0.0011869	0.00310268	0.00283922	0.00182083	0.00279444	0.00119134	0.00119131	0.00282847	0.00131167	0.00271723	0.0029309	0.00280785	0.00226037	0.00194393	0.00244934	0.00149871	0.00138435	0.00141335	0.00139406	0.00136473	0.722917	0.391333	0.532142	0.174925	0.678394	0.417904	0.322538	0.0841843	0.00107355	0.00102332	0.245064	0.0151926	0.283184	0.00102267	0.157726	0.41299	0.116077	0.00121868	0.0013884	0.00151596	0.00244391	0.0010005	0.0010277	0.334958	0.655652	0.0640905	0.00651026	0.00128924	0.999047	0.214311	0.930292	0.415597	0.236542	0.0112221	0.00102267	0.352116	0.167854	0.00177484	0.00110687	0.00113001	
3.28	0.00280274	0.00147286	0.00147114	0.00160169	0.00154203	0.00297016	0.00274905	0.00287831	0.00141435	0.00138138	0.00134373	0.00121313	0.00196544	0.00210627	0.00297486	0.0028816	0.0028146	0.00309139	0.00287842	0.00284492	0.0011869	0.00310268	0.00283922	0.00182083	0.00279444	0.00119134	0.00119131	0.00282847	0.00131167	0.00271723	0.0029309	0.00280785	0.00226037	0.00194393	0.00244934	0.00149871	0.00138435	0.00141335	0.00139406	0.00136473	0.719177	0.382122	0.588974	0.167287	0.714	0.429423	0.315479	0.083179	0.00107355	0.00102332	0.254105	0.0165294	0.273026	0.00102267	0.146104	0.387604	0.113672	0.00121868	0.0013884	0.00151596	0.00160708	0.0010005	0.0010277	0.325923	0.619075	0.0700825	0.00692021	0.00132948	0.999047	0.224259	0.911757	0.397931	0.233115	0.0124546	0.00102267	0.358846	0.175819	0.00189304	0.00110687	0.00113001	
3.285	0.00280274	0.00147286	0.00147114	0.00160169	0.00154203	0.00297016	0.00274905	0.00287831	0.00141435	0.00138138	0.00134373	0.00121313	0.00196544	0.00210627	0.00297486	0.0028816	0.0028146	0.00309139	0.00287842	0.00284492	0.0011869	0.00310268	0.00283922	0.00182083	0.00279444	0.00119134	0.00119131	0.00282847	0.00131167	0.00271723	0.0029309	0.00280785	0.00226037	0.00194393	0.00244934	0.00149871	0.00138435	0.00141335	0.00139406	0.00136473	0.699658	0.367594	0.625049	0.125006	0.737674	0.431986	0.308366	0.0821488	0.00107355	0.00102332	0.261446	0.017911	0.263057	0.00102267	0.135148	0.363295	0.111242	0.00121868	0.0013884	0.00151596	0.00128204	0.0010005	0.0010277	0.316788	0.596118	0.0758607	0.00735637	0.00126824	0.999047	0.227748	0.888597	0.380747	0.229656	0.0139375	0.00102267	0.362923	0.182042	0.00205326	0.00110687	0.00113001	
3.29	0.00280274	0.00147286	0.00147114	0.00160169	0.00154203	0.00297016	0.00274905	0.00287831	0.00141435	0.00138138	0.00134373	0.00121313	0.00196544	0.00210627	0.00297486	0.0028816	0.0028146	0.00309139	0.00287842	0.00284492	0.0011869	0.00310268	0.00283922	0.00182083	0.00279444	0.00119134	0.00119131	0.00282847	0.00131167	0.00271723	0.0029309	0.00280785	0.00226037	0.00194393	0.00244934	0.00149871	0.00138435	0.00141335	0.00139406	0.00136473	0.672561	0.351787	0.614628	0.0840318	0.755543	0.429869	0.301218	0.0810959	0.00107355	0.00102332	0.267034	0.01931	0.253298	0.00102267	0.124852	0.340091	0.108792	0.00121868	0.0013884	0.00151596	0.00115716	0.0010005	0.0010277	0.307504	0.584312	0.081278	0.00781143	0.00119774	0.999047	0.226099	0.860233	0.363947	0.22615	0.0155439	0.00102267	0.36053	0.186348	0.00227525	0.00110687	0.00113001	
3.295	0.00280274	0.00147286	0.00147114	0.00160169	0.00154203	0.00297016	0.00274905	0.00287831	0.00141435	0.00138138	0.00134373	0.00121313	0.00196544	0.00210627	0.00297486	0.0028816	0.0028146	0.00309139	0.00287842	0.00284492	0.0011869	0.00310268	0.00283922	0.00182083	0.00279444	0.00119134	0.00119131	0.00282847	0.00131167	0.00271723	0.0029309	0.00280785	0.00226037	0.00194393	0.00244934	0.00149871	0.00138435	0.00141335	0.00139406	0.00136473	0.651715	0.336878	0.512559	0.0533268	0.77736	0.432087	0.29403	0.0800221	0.00107355	0.00102332	0.270605	0.0206941	0.243758	0.00102267	0.115204	0.318003	0.106329	0.00121868	0.0013884	0.00151596	0.00110961	0.0010005	0.0010277	0.298004	0.586985	0.0862143	0.00827727	0.00120463	0.999047	0.220813	0.807747	0.34728	0.222558	0.0171471	0.00102267	0.334379	0.188698	0.00258077	0.00110687	0.00113001	
3.3	0.00280274	0.00147286	0.00147114	0.00160169	0.00154203	0.00297016	0.00274905	0.00287831	0.00141435	0.00138138	0.00134373	0.00121313	0.00196544	0.00210627	0.00297486	0.0028816	0.0028146	0.00309139	0.00287842	0.00284492	0.0011869	0.00310268	0.00283922	0.00182083	0.00279444	0.00119134	0.00119131	0.00282847	0.00131167	0.00271723	0.0029309	0.00280785	0.00226037	0.00194393	0.00244934	0.00149871	0.00138435	0.00141335	0.00139406	0.00136473	0.641028	0.324901	0.362804	0.0327196	0.807616	0.442005	0.286776	0.0789288	0.00107355	0.00102332	0.272163	0.022035	0.234451	0.00102267	0.106185	0.29703	0.103859	0.00121868	0.0013884	0.00151596	0.00109164	0.0010005	0.0010277	0.288252	0.592484	0.0905612	0.00874508	0.00122297	0.999047	0.212527	0.718065	0.330286	0.218828	0.0186616	0.00102267	0.196946	0.18915	0.00275881	0.00110687	0.00113001	
3.305	0.00280274	0.00147286	0.00147114	0.00160169	0.00154203	0.00297016	0.00274905	0.00287831	0.00141435	0.00138138	0.00134373	0.00121313	0.00196544	0.00210627	0.00297486	0.0028816	0.0028146	0.00309139	0.00287842	0.00284492	0.0011869	0.00310268	0.00283922	0.00182083	0.00279444	0.00119134	0.00119131	0.00282847	0.00131167	0.00271723	0.0029309	0.00280785	0.00226037	0.00194393	0.00244934	0.00149871	0.00138435	0.00141335	0.00139406	0.00136473	0.619875	0.305834	0.236579	0.0197169	0.823257	0.442857	0.279483	0.0778172	0.00107355	0.00102332	0.271345	0.023305	0.225415	0.00102267	0.0977733	0.277163	0.10139	0.00121868	0.0013884	0.00151596	0.00108489	0.0010005	0.0010277	0.278264	0.576948	0.0941834	0.00920563	0.00118351	0.999047	0.201849	0.621605	0.313201	0.214945	0.0200263	0.00102267	0.099784	0.187845	0.00320776	0.0554262	0.00150755	
3.31	0.00280274	0.00147286	0.00147114	0.00160169	0.00154203	0.00297016	0.00274905	0.00287831	0.00141435	0.00138138	0.00134373	0.00121313	0.00196544	0.00210627	0.00297486	0.0028816	0.0028146	0.00309139	0.00287842	0.00284492	0.0011869	0.00310268	0.00283922	0.00182083	0.00279444	0.00119134	0.00119131	0.00282847	0.00131167	0.00271723	0.0029309	0.00280785	0.00226037	0.00194393	0.00244934	0.00149871	0.00138435	0.00141335	0.00139406	0.00136473	0.556579	0.24531	0.195001	0.01183	0.811317	0.408053	0.272175	0.0766885	0.00107355	0.00102332	0.268443	0.0244767	0.216714	0.00102267	0.0899445	0.258382	0.0989585	0.00121868	0.0013884	0.00151596	0.00108237	0.0010005	0.0010277	0.268105	0.499499	0.0969944	0.00965007	0.00113993	0.999047	0.189436	0.472603	0.296217	0.210965	0.0212282	0.00102267	0.0470623	0.184991	0.00390288	0.0116886	0.00215628	
3.315	0.00280274	0.00147286	0.00147114	0.00160169	0.00154203	0.00297016	0.00274905	0.00287831	0.00141435	0.00138138	0.00134373	0.00121313	0.00196544	0.00210627	0.00297486	0.0028816	0.0028146	0.00309139	0.00287842	0.00284492	0.0011869	0.00310268	0.00283922	0.00182083	0.00279444	0.00119134	0.00119131	0.00282847	0.00131167	0.00271723	0.0029309	0.00280785	0.00226037	0.00194393	0.00244934	0.00149871	0.00138435	0.00141335	0.00139406	0.00136473	0.447062	0.170537	0.211287	0.0180969	0.743283	0.331989	0.264901	0.0755438	0.00107355	0.00102332	0.264183	0.0255306	0.208417	0.00102267	0.082672	0.240661	0.0966195	0.00121868	0.0013884	0.00151596	0.00108143	0.0010005	0.0010277	0.25783	0.370243	0.0989904	0.0100709	0.00110646	0.681041	0.17637	0.304943	0.27977	0.206941	0.0222634	0.00102267	0.0214859	0.180879	0.00445649	0.00202952	0.00258082	
3.32	0.00280274	0.00147286	0.00147114	0.00160169	0.00154203	0.00297016	0.00274905	0.00287831	0.00141435	0.00138138	0.00134373	0.00121313	0.00196544	0.00210627	0.00297486	0.0028816	0.0028146	0.00309139	0.00287842	0.00284492	0.0011869	0.00310268	0.00283922	0.00182083	0.00279444	0.00119134	0.00119131	0.00282847	0.00131167	0.00271723	0.0029309	0.00280785	0.00226037	0.00194393	0.00244934	0.00149871	0.00138435	0.00141335	0.00139406	0.00136473	0.330176	0.110149	0.232556	0.0567049	0.645055	0.247452	0.257699	0.0743848	0.00107355	0.00102332	0.258779	0.0264573	0.200596	0.00102267	0.0761372	0.224108	0.0943902	0.00121868	0.0013884	0.00151596	0.00108109	0.0010005	0.0010277	0.247517	0.240391	0.100225	0.0104623	0.00108398	0.350196	0.163198	0.20904	0.264362	0.202899	0.0231258	0.00102267	0.0098268	0.175832	0.00478867	0.00117266	0.00283774	
3.325	0.00280274	0.00147286	0.00147114	0.00160169	0.00154203	0.00297016	0.00274905	0.00287831	0.00141435	0.00138138	0.00134373	0.00121313	0.00196544	0.00210627	0.00297486	0.0028816	0.0028146	0.00309139	0.00287842	0.00284492	0.0011869	0.00310268	0.00283922	0.00182083	0.00279444	0.00119134	0.00119131	0.00282847	0.00131167	0.00271723	0.0029309	0.00280785	0.00226037	0.00194393	0.00244934	0.00149871	0.00138435	0.00141335	0.00139406	0.00136473	0.230847	0.0681032	0.246353	0.0987352	0.54168	0.176549	0.250584	0.0732133	0.00107355	0.00102332	0.252986	0.0272507	0.193315	0.00102267	0.0705182	0.208893	0.0922772	0.00121868	0.0013884	0.00151596	0.00108096	0.0010005	0.0010277	0.237246	0.145447	0.1008	0.0108203	0.00106994	0.144078	0.150025	0.154272	0.250009	0.198852	0.0238064	0.00102267	0.00471852	0.170176	0.00521136	0.00111114	0.00297094	
3.33	0.00280274	0.00147286	0.00147114	0.00160169	0.00154203	0.00297016	0.00274905	0.00287831	0.00141435	0.00138138	0.00134373	0.00121313	0.00196544	0.00210627	0.00297486	0.0028816	0.0028146	0.00309139	0.00287842	0.00284492	0.0011869	0.00310268	0.00283922	0.00182083	0.00279444	0.00119134	0.00119131	0.00282847	0.00131167	0.00271723	0.0029309	0.00280785	0.00226037	0.00194393	0.00244934	0.00149871	0.00138435	0.00141335	0.00139406	0.00136473	0.149525	0.040987	0.25557	0.1399	0.440058	0.121501	0.243564	0.0720323	0.00107355	0.00102332	0.247043	0.0279117	0.18664	0.00102267	0.0659229	0.195117	0.0902861	0.00121868	0.0013884	0.0319814	0.00108091	0.0010005	0.0010277	0.227066	0.0843279	0.100837	0.011142	0.00106154	0.0342463	0.136742	0.0664596	0.236556	0.194811	0.0242775	0.00102267	0.00254103	0.164207	0.00634401	0.00110713	0.00374696	
3.335	0.00280274	0.00147286	0.00147114	0.00160169	0.00154203	0.00297016	0.00274905	0.00287831	0.00141435	0.00138138	0.00134373	0.00121313	0.00196544	0.00210627	0.00297486	0.0028816	0.0028146	0.00309139	0.00287842	0.00284492	0.0011869	0.00310268	0.00283922	0.00182083	0.00279444	0.00119134	0.00119131	0.00282847	0.00131167	0.00271723	0.0029309	0.00280785	0.00226037	0.00194393	0.00244934	0.00149871	0.00138435	0.00141335	0.00139406	0.00136473	0.0925301	0.0243007	0.25067	0.155647	0.357148	0.0852881	0.236643	0.0708458	0.00107355	0.00102332	0.241396	0.0284492	0.18066	0.00102267	0.0622126	0.182663	0.0884164	0.00121868	0.0013884	0.0738139	0.00108089	0.0010005	0.0010277	0.217045	0.0476233	0.100474	0.0114269	0.00105666	0.00751949	0.123397	0.0248467	0.223848	0.190787	0.0245141	0.00102267	0.00163137	0.158198	0.00837582	0.116292	0.00573037	
3.34	0.00280274	0.00147286	0.00147114	0.00160169	0.00154203	0.00297016	0.00274905	0.00287831	0.00141435	0.00138138	0.00134373	0.00121313	0.00196544	0.00210627	0.00297486	0.0028816	0.0028146	0.00309139	0.00287842	0.00284492	0.0011869	0.00310268	0.00283922	0.00182083	0.00279444	0.00119134	0.00119131	0.00282847	0.00131167	0.00271723	0.0029309	0.00280785	0.00226037	0.00194393	0.00244934	0.00149871	0.00138435	0.00141335	0.00139406	0.00136473	0.0556322	0.0143523	0.2388	0.150978	0.297269	0.0650873	0.22983	0.0696587	0.00107355	0.00102332	0.236343	0.0288731	0.175475	0.00102267	0.0592811	0.171448	0.0866699	0.00121868	0.0013884	0.110858	0.00108089	0.0010005	0.0010277	0.207255	0.0265222	0.0998424	0.011675	0.00105389	0.00220719	0.109964	0.00926437	0.211822	0.186796	0.0245172	0.00102267	0.00125717	0.152354	0.011319	0.217833	0.00905908	
3.345	0.00280274	0.00147286	0.00147114	0.00160169	0.00154203	0.00297016	0.00274905	0.00287831	0.00141435	0.00138138	0.00134373	0.00121313	0.00196544	0.00210627	0.00297486	0.0028816	0.0028146	0.00309139	0.00287842	0.00284492	0.0011869	0.00310268	0.00283922	0.00182083	0.00279444	0.00119134	0.00119131	0.00282847	0.00131167	0.00271723	0.0029309	0.00280785	0.00226037	0.00194393	0.00244934	0.00149871	0.00138435	0.00141335	0.00139406	0.00136473	0.0328701	0.00855471	0.220863	0.128372	0.252881	0.0564399	0.223125	0.0684774	0.00107355	0.00102332	0.23176	0.0291927	0.171136	0.00102267	0.0570423	0.161401	0.0850488	0.00121868	0.0013884	0.139455	0.00108088	0.0010005	0.0010277	0.197704	0.0147478	0.0990412	0.0118866	0.00105235	0.00124581	0.0965904	0.00395881	0.200308	0.182849	0.024321	0.00102267	0.0011051	0.146809	0.0153172	0.413646	0.0142774	
3.35	0.00280274	0.00147286	0.00147114	0.00160169	0.00154203	0.00297016	0.00274905	0.00287831	0.00141435	0.00138138	0.00134373	0.00121313	0.00196544	0.00210627	0.00297486	0.0028816	0.0028146	0.00309139	0.00287842	0.00284492	0.0011869	0.00310268	0.00283922	0.00182083	0.00279444	0.00119134	0.00119131	0.00282847	0.00131167	0.00271723	0.0029309	0.00280785	0.00226037	0.00194393	0.00244934	0.00149871	0.00138435	0.00141335	0.00139406	0.00136473	0.0192762	0.00523351	0.200207	0.0930775	0.218498	0.0555302	0.216525	0.0673094	0.00107355	0.00102332	0.226473	0.029413	0.167612	0.00102267	0.0554367	0.152483	0.0835572	0.00121868	0.0013884	0.154661	0.00108088	0.0010005	0.0010277	0.188345	0.00831821	0.0980899	0.0120622	0.0010515	0.001081	0.0836596	0.0022326	0.18911	0.178958	0.0239701	0.00102267	0.00104391	0.141591	0.0204485	0.630786	0.0217817	
3.355	0.00280274	0.00147286	0.00147114	0.00160169	0.00154203	0.00297016	0.00274905	0.00287831	0.00141435	0.00138138	0.00134373	0.00121313	0.00196544	0.00210627	0.00297486	0.0028816	0.0028146	0.00309139	0.00287842	0.00284492	0.0011869	0.00310268	0.00283922	0.00182083	0.00279444	0.00119134	0.00119131	0.00282847	0.00131167	0.00271723	0.0029309	0.00280785	0.00226037	0.00194393	0.00244934	0.00149871	0.00138435	0.00141335	0.00139406	0.00136473	0.0113444	0.00335624	0.172734	0.0616425	0.183995	0.0580173	0.210017	0.0661637	0.00107355	0.00102332	0.22037	0.0295354	0.164756	0.00102267	0.0544252	0.144665	0.0822001	0.00121868	0.0013884	0.154101	0.00108088	0.0010005	0.0010277	0.179003	0.00486406	0.0969442	0.0122014	0.00105103	0.00105373	0.0714722	0.00168413	0.178146	0.175125	0.0235422	0.00102267	0.00101949	0.13664	0.0268068	0.899171	0.0320146	
3.36	0.00280274	0.00147286	0.00147114	0.00160169	0.00154203	0.00297016	0.00274905	0.00287831	0.00141435	0.00138138	0.00134373	0.00121313	0.00196544	0.00210627	0.00297486	0.0028816	0.0028146	0.00309139	0.00287842	0.00284492	0.0011869	0.00310268	0.00283922	0.00182083	0.00279444	0.00119134	0.00119131	0.00282847	0.00131167	0.00271723	0.0029309	0.00280785	0.00226037	0.00194393	0.00244934	0.00149871	0.00138435	0.00141335	0.00139406	0.00136473	0.0067964	0.00230646	0.137774	0.0388285	0.143039	0.0600287	0.203601	0.0650453	0.00107355	0.00102332	0.21366	0.0295642	0.162292	0.00102267	0.0539982	0.137946	0.0809839	0.00121868	0.0013884	0.130684	0.00108088	0.0010005	0.0010277	0.169359	0.00303194	0.0955725	0.0123056	0.00105078	0.00104932	0.0604282	0.00151214	0.167481	0.171344	0.0230998	0.00102267	0.00100981	0.131904	0.0344707	0.990094	0.0453371	
3.365	0.00280274	0.00147286	0.00147114	0.00160169	0.00154203	0.00297016	0.00274905	0.00287831	0.00141435	0.00138138	0.00134373	0.00121313	0.00196544	0.00210627	0.00297486	0.0028816	0.0028146	0.00309139	0.00287842	0.00284492	0.0011869	0.00310268	0.00283922	0.00182083	0.00279444	0.00119134	0.00119131	0.00282847	0.00131167	0.00271723	0.0029309	0.00280785	0.00226037	0.00194393	0.00244934	0.00149871	0.00138435	0.00141335	0.00139406	0.00136473	0.00422385	0.00172457	0.0966709	0.0237739	0.0980393	0.0580526	0.197288	0.0639302	0.00107355	0.00102332	0.2069	0.0295006	0.159737	0.00102267	0.0541682	0.132331	0.0799151	0.00121868	0.0013884	0.101935	0.00108088	0.0010005	0.0010277	0.159438	0.00207008	0.0939386	0.0123749	0.00105064	0.00104863	0.0505731	0.00145862	0.157167	0.167596	0.0226855	0.00102267	0.00100599	0.127318	0.0436104	0.998447	0.0622347	
3.37	0.00280274	0.00147286	0.00147114	0.00160169	0.00154203	0.00297016	0.00274905	0.00287831	0.00141435	0.00138138	0.00134373	0.00121313	0.00196544	0.00210627	0.00297486	0.0028816	0.0028146	0.00309139	0.00287842	0.00284492	0.0011869	0.00310268	0.00283922	0.00182083	0.00279444	0.00119134	0.00119131	0.00282847	0.00131167	0.00271723	0.0029309	0.00280785	0.00226037	0.00194393	0.00244934	0.00149871	0.00138435	0.00141335	0.00139406	0.00136473	0.00278446	0.00140439	0.0628673	0.0143733	0.0628992	0.0436912	0.191082	0.0628055	0.00107355	0.00102332	0.200472	0.0293518	0.156579	0.00102267	0.0548897	0.127732	0.0789911	0.00121868	0.0013884	0.0799891	0.00108088	0.0010005	0.0010277	0.149448	0.00156934	0.0920864	0.012411	0.00105057	0.00104852	0.042156	0.00144203	0.147242	0.163855	0.022337	0.00102267	0.0010045	0.122896	0.0541706	0.999057	0.0824919	
3.375	0.00280274	0.00147286	0.00147114	0.00160169	0.00154203	0.00297016	0.00274905	0.00287831	0.00141435	0.00138138	0.00134373	0.00121313	0.00196544	0.00210627	0.00297486	0.0028816	0.0028146	0.00309139	0.00287842	0.00284492	0.0011869	0.00310268	0.00283922	0.00182083	0.00279444	0.00119134	0.00119131	0.00282847	0.00131167	0.00271723	0.0029309	0.00280785	0.00226037	0.00194393	0.00244934	0.00149871	0.00138435	0.00141335	0.00139406	0.00136473	0.00198623	0.0012293	0.0391458	0.00871145	0.0388257	0.0296307	0.184991	0.0616621	0.00107355	0.00102332	0.194586	0.0291255	0.15293	0.00102267	0.056062	0.123976	0.0782001	0.00121868	0.0013884	0.0807915	0.00108088	0.0010005	0.0010277	0.139553	0.00131048	0.0900749	0.012416	0.00105053	0.0010485	0.035242	0.00143691	0.137731	0.160094	0.0221031	0.00102267	0.00100391	0.118668	0.0660411	0.999097	0.105703	
3.38	0.00280274	0.00147286	0.00147114	0.00160169	0.00154203	0.00297016	0.00274905	0.00287831	0.00141435	0.00138138	0.00134373	0.00121313	0.00196544	0.00210627	0.00297486	0.0028816	0.0028146	0.00309139	0.00287842	0.00284492	0.0011869	0.00310268	0.00283922	0.00182083	0.00279444	0.00119134	0.00119131	0.00282847	0.00131167	0.00271723	0.0029309	0.00280785	0.00226037	0.00194393	0.00244934	0.00149871	0.00138435	0.00141335	0.00139406	0.00136473	0.00154683	0.00113407	0.0237806	0.00538704	0.0234476	0.0190628	0.179019	0.0605033	0.00107355	0.00102332	0.189178	0.0288327	0.148886	0.00102277	0.0576057	0.120918	0.0775309	0.00121868	0.0013884	0.118957	0.00109133	0.0010005	0.0010277	0.129875	0.00117746	0.0879843	0.0123925	0.00105051	0.0010485	0.0298733	0.00143532	0.128652	0.156286	0.0220874	0.00102267	0.00100368	0.11468	0.0790679	0.9991	0.131407	
3.385	0.00280274	0.00147286	0.00147114	0.00160169	0.00154203	0.00297016	0.00274905	0.00287831	0.00141435	0.00138138	0.00134373	0.00121313	0.00196544	0.00210627	0.00297486	0.0028816	0.0028146	0.00309139	0.00287842	0.00284492	0.0011869	0.00310268	0.00283922	0.00182083	0.00279444	0.00119134	0.00119131	0.00282847	0.00131167	0.00271723	0.0029309	0.00280785	0.00226037	0.00194393	0.00244934	0.00149871	0.00138435	0.00141335	0.00139406	0.00136473	0.00130648	0.00108252	0.0142985	0.00347162	0.0140431	0.011961	0.173171	0.0593326	0.00107355	0.00102332	0.184532	0.0284817	0.144533	0.00102623	0.0595139	0.118511	0.0769798	0.00121868	0.0013884	0.208958	0.00121648	0.0010005	0.0010277	0.120508	0.00110945	0.0858532	0.0123428	0.0010505	0.0010485	0.0258676	0.00143484	0.120015	0.152444	0.0223455	0.00102267	0.0010036	0.110944	0.0931157	0.9991	0.159244	
3.39	0.00280274	0.00147286	0.00147114	0.00160169	0.00154203	0.00297016	0.00274905	0.00287831	0.00141435	0.00138138	0.00134373	0.00121313	0.00196544	0.00210627	0.00297486	0.0028816	0.0028146	0.00309139	0.00287842	0.00284492	0.0011869	0.00310268	0.00283922	0.00182083	0.00279444	0.00119134	0.00119131	0.00282847	0.00131167	0.00271723	0.0029309	0.00280785	0.00226037	0.00194393	0.00244934	0.00149871	0.00138435	0.00141335	0.00139406	0.00136473	0.00117572	0.00105472	0.00863383	0.00238398	0.00846048	0.00747652	0.167449	0.0581532	0.00107355	0.00102332	0.180221	0.0280803	0.139944	0.00108907	0.0618548	0.116803	0.0765503	0.00121868	0.0013884	0.345391	0.001298	0.0010005	0.0010277	0.111519	0.00107484	0.0837103	0.0122694	0.0010505	0.00264527	0.0231758	0.00143469	0.111823	0.148582	0.0230409	0.00102267	0.00100356	0.107462	0.108012	0.9991	0.188689	
3.395	0.00280274	0.00147286	0.00147114	0.00160169	0.00154203	0.00297016	0.00274905	0.00287831	0.00141435	0.00138138	0.00134373	0.00121313	0.00196544	0.00210627	0.00297486	0.0028816	0.0028146	0.00309139	0.00287842	0.00284492	0.0011869	0.00310268	0.00283922	0.00182083	0.00279444	0.00119134	0.00119131	0.00282847	0.00131167	0.00271723	0.0029309	0.00280785	0.00226037	0.00194393	0.00244934	0.00149871	0.00138435	0.00141335	0.00139406	0.00136473	0.0011049	0.00103978	0.00532758	0.00177352	0.00521745	0.00475496	0.161856	0.056968	0.00107355	0.00102332	0.176125	0.0276351	0.135185	0.00199651	0.0647555	0.115888	0.0762463	0.00121868	0.0013884	0.546434	0.00121526	0.0010005	0.0010277	0.102953	0.00105729	0.0815704	0.0121744	0.00105049	0.00149375	0.0214244	0.00143464	0.104073	0.144712	0.0240787	0.00102267	0.00100355	0.104226	0.123317	0.9991	0.218479	
3.4	0.00280274	0.00147286	0.00147114	0.00160169	0.00154203	0.00297016	0.00274905	0.00287831	0.00141435	0.00138138	0.00134373	0.00121313	0.00196544	0.00210627	0.00297486	0.0028816	0.0028146	0.00309139	0.00287842	0.00284492	0.0011869	0.00310268	0.00283922	0.00182083	0.00279444	0.00119134	0.00119131	0.00282847	0.00131167	0.00271723	0.0029309	0.00280785	0.00226037	0.00194393	0.00244934	0.00149871	0.00138435	0.00141335	0.00139406	0.00136473	0.00106671	0.00103178	0.00343128	0.00143409	0.00336418	0.00314814	0.156394	0.0557798	0.00107355	0.00102332	0.171953	0.0271525	0.130311	0.00316682	0.0684443	0.115986	0.0760798	0.00121868	0.0013884	0.747033	0.00114802	0.0010005	0.0010277	0.0948401	0.00104843	0.0794379	0.01206	0.00105049	0.00114162	0.020443	0.00143463	0.09676	0.140879	0.0254374	0.00102267	0.00100354	0.101213	0.1388	0.9991	0.247769	
3.405	0.00280274	0.00147286	0.00147114	0.00160169	0.00154203	0.00297016	0.00274905	0.00287831	0.00141435	0.00138138	0.00134373	0.00121313	0.00196544	0.00210627	0.00297486	0.0028816	0.0028146	0.00309139	0.00287842	0.00284492	0.0011869	0.00310268	0.00283922	0.00182083	0.00279444	0.00119134	0.00119131	0.00282847	0.00131167	0.00271723	0.0029309	0.00280785	0.00226037	0.00194393	0.00244934	0.00149871	0.00138435	0.00141335	0.00139406	0.00136473	0.00104619	0.00102751	0.0840394	0.0329561	0.00231864	0.00221846	0.151066	0.054591	0.00107355	0.00102332	0.167495	0.0266358	0.12537	0.00294621	0.073326	0.117451	0.0760669	0.00121868	0.0013884	0.938607	0.0017062	0.0010005	0.0010277	0.0871964	0.00104396	0.0772876	0.011928	0.00105049	0.00106581	0.0199002	0.00143462	0.0898744	0.137198	0.027124	0.00102267	0.00100354	0.0983796	0.153731	0.9991	0.275625	
3.41	0.00280274	0.00147286	0.00147114	0.00160169	0.00154203	0.00297016	0.00274905	0.00287831	0.00141435	0.00138138	0.00134373	0.00121313	0.00196544	0.00210627	0.00297486	0.0028816	0.0028146	0.00309139	0.00287842	0.00284492	0.0011869	0.00310268	0.00283922	0.00182083	0.00279444	0.00119134	0.00119131	0.00282847	0.00131167	0.00271723	0.0029309	0.00280785	0.00226037	0.00194393	0.00244934	0.00149871	0.00138435	0.00141335	0.00139406	0.00136473	0.0010352	0.00102524	0.248733	0.133428	0.00173487	0.00168883	0.145871	0.0534402	0.00107355	0.00102332	0.162655	0.0260879	0.120402	0.00242184	0.0798287	0.120608	0.0762194	0.00121868	0.0013884	0.992933	0.00161893	0.0010005	0.0010277	0.0800273	0.00104172	0.0750887	0.0117799	0.00105049	0.00713397	0.019589	0.00143462	0.0834043	0.133797	0.0293315	0.00102267	0.00100354	0.0956654	0.167188	0.9991	0.300889	
3.415	0.00280274	0.00147286	0.00147114	0.00160169	0.00154203	0.00297016	0.00274905	0.00287831	0.00141435	0.00138138	0.00134373	0.00121313	0.00196544	0.00210627	0.00297486	0.0028816	0.0028146	0.00309139	0.00287842	0.00284492	0.0011869	0.00310268	0.00283922	0.00182083	0.00279444	0.00119134	0.00119131	0.00282847	0.00131167	0.00271723	0.0029309	0.00280785	0.00226037	0.00194393	0.00244934	0.00149871	0.00138435	0.00141335	0.00139406	0.00136473	0.00102933	0.00102403	0.439809	0.246993	0.0014117	0.00139076	0.140902	0.0523949	0.00107355	0.00102332	0.157112	0.0255113	0.115444	0.00294845	0.0881264	0.12554	0.0765347	0.00121868	0.0234861	0.998807	0.00137908	0.0010005	0.0010277	0.0733299	0.00104059	0.0728152	0.0116176	0.00105049	0.0027453	0.0195125	0.00143462	0.0773359	0.130775	0.032002	0.00102267	0.00100354	0.0930091	0.178428	0.9991	0.322663	
3.42	0.00280274	0.00147286	0.00147114	0.00160169	0.00154203	0.00297016	0.00274905	0.00287831	0.00141435	0.00138138	0.00134373	0.00121313	0.00196544	0.00210627	0.00297486	0.0028816	0.0028146	0.00309139	0.00287842	0.00284492	0.0011869	0.00310268	0.00283922	0.00182083	0.00279444	0.00119134	0.00119131	0.00282847	0.00131167	0.00271723	0.0029309	0.00280785	0.00226037	0.00194393	0.00244934	0.00149871	0.00138435	0.00141335	0.00139406	0.00136473	0.0010262	0.00102339	0.612742	0.350668	0.00123407	0.00122467	0.136382	0.0515163	0.00107355	0.00102332	0.150824	0.0249056	0.110524	0.00297633	0.0979522	0.132057	0.0770028	0.00121868	0.375143	0.999336	0.00155073	0.0010005	0.0010277	0.0670953	0.00104003	0.0704188	0.0114421	0.00105049	0.00140336	0.0193917	0.00143462	0.0716538	0.128206	0.035	0.00102267	0.00100354	0.0903409	0.187011	0.9991	0.340431	
3.425	0.00280274	0.00147286	0.00147114	0.00160169	0.00154203	0.00297016	0.00274905	0.00287831	0.00141435	0.00138138	0.00134373	0.00121313	0.00196544	0.00210627	0.00297486	0.0028816	0.0028146	0.00309139	0.00287842	0.00284492	0.0011869	0.00310268	0.00283922	0.00182083	0.00279444	0.00119134	0.00119131	0.00282847	0.00131167	0.00271723	0.0029309	0.00280785	0.00226037	0.00194393	0.00244934	0.00149871	0.00138435	0.00141335	0.00139406	0.00136473	0.00102454	0.00102305	0.75132	0.446622	0.00113703	0.00113288	0.132475	0.0508596	0.00107355	0.00102332	0.143759	0.0242706	0.105667	0.00250849	0.108881	0.139867	0.0776159	0.00121868	0.419174	0.999379	0.00232077	0.0010005	0.0010277	0.0624705	0.00103975	0.0678689	0.0112545	0.00105049	0.00111447	0.0196289	0.00143462	0.0674421	0.126149	0.0384242	0.00102267	0.00100354	0.0875973	0.192829	0.9991	0.354	
3.43	0.00280274	0.00147286	0.00147114	0.00160169	0.00154203	0.00297016	0.00274905	0.00287831	0.00141435	0.00138138	0.00134373	0.00121313	0.00196544	0.00210627	0.00297486	0.0028816	0.0028146	0.00309139	0.00287842	0.00284492	0.0011869	0.00310268	0.00283922	0.00182083	0.00279444	0.00119134	0.00119131	0.00282847	0.00131167	0.00271723	0.0029309	0.00280785	0.00226037	0.00194393	0.00244934	0.00149871	0.00138435	0.00141335	0.00139406	0.00136473	0.00102365	0.00102287	0.847176	0.534692	0.00108429	0.0010825	0.12928	0.0504692	0.00107355	0.00102332	0.13571	0.0236042	0.100894	0.00202702	0.120501	0.148656	0.0783651	0.00121868	0.460701	0.999383	0.00238486	0.0010005	0.0010277	0.0605509	0.00103961	0.0651185	0.0110556	0.00105049	0.00754727	0.0196831	0.00143462	0.0654059	0.12464	0.042017	0.00102267	0.00100354	0.0847057	0.196165	0.9991	0.363601	
3.435	0.00280274	0.00147286	0.00147114	0.00160169	0.00154203	0.00297016	0.00274905	0.00287831	0.00141435	0.00138138	0.00134373	0.00121313	0.00196544	0.00210627	0.00297486	0.0028816	0.0028146	0.00309139	0.00287842	0.00284492	0.0011869	0.00310268	0.00283922	0.00182083	0.00279444	0.00119134	0.00119131	0.00282847	0.00131167	0.00271723	0.0029309	0.00280785	0.00226037	0.00194393	0.00244934	0.00149871	0.00138435	0.00141335	0.00139406	0.00136473	0.00102319	0.00102277	0.908715	0.613413	0.00105575	0.001055	0.126844	0.0503819	0.00107355	0.00102332	0.126526	0.0229067	0.0962222	0.00208752	0.132447	0.158134	0.079244	0.00121868	0.537565	0.999383	0.00183678	0.0010005	0.0010277	0.061788	0.00103954	0.0621677	0.0108462	0.00105049	0.00285964	0.019747	0.00143462	0.0657976	0.123702	0.0458091	0.00102319	0.00100354	0.0816272	0.197715	0.9991	0.369728	
3.44	0.00280274	0.00147286	0.00147114	0.00160169	0.00154203	0.00297016	0.00274905	0.00287831	0.00141435	0.00138138	0.00134373	0.00121313	0.00196544	0.00210627	0.00297486	0.0028816	0.0028146	0.00309139	0.00287842	0.00284492	0.0011869	0.00310268	0.00283922	0.00182083	0.00279444	0.00119134	0.00119131	0.00282847	0.00131167	0.00271723	0.0029309	0.00280785	0.00226037	0.00194393	0.00244934	0.00149871	0.00138435	0.00141335	0.00139406	0.00136473	0.00102294	0.00102272	0.946476	0.681539	0.00104038	0.00104008	0.12518	0.0506281	0.00107355	0.00102332	0.115911	0.0221755	0.0916654	0.00208374	0.144408	0.16803	0.0802438	0.00121868	0.599072	0.999383	0.0014486	0.0010005	0.0010277	0.0662261	0.00103951	0.0589736	0.0106267	0.00105049	0.00142721	0.0192522	0.00143462	0.0686028	0.123344	0.049594	0.0010232	0.00100354	0.0782825	0.19831	0.9991	0.372879	
3.445	0.00280274	0.00147286	0.00147114	0.00160169	0.00154203	0.00297016	0.00274905	0.00287831	0.00141435	0.00138138	0.00134373	0.00121313	0.00196544	0.00210627	0.00297486	0.0028816	0.0028146	0.00309139	0.00287842	0.00284492	0.0011869	0.00310268	0.00283922	0.00182083	0.00279444	0.00119134	0.00119131	0.00282847	0.00131167	0.00271723	0.0029309	0.00280785	0.00226037	0.00194393	0.00244934	0.00149871	0.00138435	0.00141335	0.00139406	0.00136473	0.00102281	0.0010227	0.96895	0.739091	0.00103212	0.00103201	0.124283	0.0512377	0.00107355	0.00102332	0.103418	0.0214059	0.0872344	0.00182478	0.156101	0.178082	0.0813569	0.00121868	0.608117	0.999383	0.00200684	0.0010005	0.0010277	0.0736959	0.00103949	0.0554768	0.0103972	0.00105049	0.0011189	0.0178366	0.00143462	0.0736463	0.123565	0.0534095	0.00102307	0.00100354	0.0745653	0.19853	0.9991	0.3733	
3.45	0.00280274	0.00147286	0.00147114	0.00160169	0.00154203	0.00297016	0.00274905	0.00287831	0.00141435	0.00138138	0.00134373	0.00121313	0.00196544	0.00210627	0.00297486	0.0028816	0.0028146	0.00309139	0.00287842	0.00284492	0.0011869	0.00310268	0.00283922	0.00182083	0.00279444	0.00119134	0.00119131	0.00282847	0.00131167	0.00271723	0.0029309	0.00280785	0.00226037	0.00194393	0.00244934	0.00149871	0.00138435	0.00141335	0.00139406	0.00136473	0.00102274	0.00102268	0.982035	0.785654	0.0010277	0.00102766	0.124136	0.0522403	0.00107355	0.00102332	0.0880689	0.0205935	0.0829379	0.00156322	0.167281	0.188053	0.0825742	0.00121868	0.58398	0.999383	0.00167937	0.0010005	0.0010277	0.0839003	0.00106824	0.0516222	0.0101574	0.00105049	0.00761512	0.0153713	0.00143462	0.0806526	0.124362	0.0573274	0.00102294	0.00100354	0.0703585	0.19849	0.9991	0.370943	
3.455	0.00280274	0.00147286	0.00147114	0.00160169	0.00154203	0.00297016	0.00274905	0.00287831	0.00141435	0.00138138	0.00134373	0.00121313	0.00196544	0.00210627	0.00297486	0.0028816	0.0028146	0.00309139	0.00287842	0.00284492	0.0011869	0.00310268	0.00283922	0.00182083	0.00279444	0.00119134	0.00119131	0.00282847	0.00131167	0.00271723	0.0029309	0.00280785	0.00226037	0.00194393	0.00244934	0.00149871	0.00138435	0.00141335	0.00139406	0.00136473	0.00102271	0.00102268	0.989527	0.820885	0.00102534	0.00102533	0.124712	0.0536619	0.00107355	0.00102332	0.0685448	0.0197376	0.0787905	0.00136457	0.177751	0.197731	0.0838854	0.00121868	0.541928	0.999383	0.00138484	0.0010005	0.0010277	0.0964183	0.00151517	0.0474232	0.00990993	0.00105049	0.00287848	0.0120863	0.00143462	0.0892888	0.125723	0.0614017	0.00102612	0.00100354	0.0656147	0.198021	0.9991	0.365672	
3.46	0.00280274	0.00147286	0.00147114	0.00160169	0.00154203	0.00297016	0.00274905	0.00287831	0.00141435	0.00138138	0.00134373	0.00121313	0.00196544	0.00210627	0.00297486	0.0028816	0.0028146	0.00309139	0.00287842	0.00284492	0.0011869	0.00310268	0.00283922	0.00182083	0.00279444	0.00119134	0.00119131	0.00282847	0.00131167	0.00271723	0.0029309	0.00280785	0.00226037	0.00194393	0.00244934	0.00149871	0.00138435	0.00141335	0.00139406	0.00136473	0.00102269	0.00102267	0.99376	0.843659	0.00102408	0.00102409	0.125982	0.0555213	0.00107355	0.00102332	0.048124	0.0188372	0.0750755	0.0012304	0.187366	0.20694	0.085281	0.00121868	0.486559	0.999383	0.00205375	0.0010005	0.0010277	0.110746	0.00284624	0.0428794	0.00965715	0.00105049	0.00143114	0.00864494	0.00143462	0.0992307	0.12763	0.0658547	0.00107651	0.0687799	0.0602825	0.196865	0.9991	0.35738	
3.465	0.00280274	0.00147286	0.00147114	0.00160169	0.00154203	0.00297016	0.00274905	0.00287831	0.00141435	0.00138138	0.00134373	0.00121313	0.00196544	0.00210627	0.00297486	0.0028816	0.0028146	0.00309139	0.00287842	0.00284492	0.0011869	0.00310268	0.00283922	0.00182083	0.00279444	0.00119134	0.00119131	0.00282847	0.00131167	0.00271723	0.0029309	0.00280785	0.00226037	0.00194393	0.00244934	0.00149871	0.00138435	0.00141335	0.00139406	0.00136473	0.00102268	0.00102267	0.996128	0.85304	0.00102342	0.00102342	0.127904	0.0578177	0.00107355	0.00102332	0.025354	0.0179027	0.0718718	0.00114542	0.196022	0.215527	0.0867516	0.00121868	0.412853	0.999383	0.0017196	0.0010005	0.0010277	0.126189	0.00360191	0.0380831	0.00940108	0.00105049	0.00111963	0.00699057	0.00143462	0.110174	0.130048	0.0709258	0.00137698	0.198826	0.0544316	0.195268	0.383336	0.346887	
3.47	0.00280274	0.00147286	0.00147114	0.00160169	0.00154203	0.00297016	0.00274905	0.00287831	0.00141435	0.00138138	0.00134373	0.00121313	0.00196544	0.00210627	0.00297486	0.0028816	0.0028146	0.00309139	0.00287842	0.00284492	0.0011869	0.00310268	0.00283922	0.00182083	0.00279444	0.00119134	0.00119131	0.00282847	0.00131167	0.00271723	0.0029309	0.00280785	0.00226037	0.00194393	0.00244934	0.00149871	0.00138435	0.00141335	0.00139406	0.00136473	0.00102267	0.00102267	0.99744	0.847573	0.00102306	0.00102307	0.130431	0.0605358	0.0936889	0.0442396	0.00665638	0.0169538	0.0691181	0.00109373	0.203647	0.223367	0.088287	0.00121868	0.316222	0.999383	0.00140712	0.0010005	0.0010277	0.142005	0.00307186	0.0332785	0.00914346	0.00105049	0.00562238	0.00784434	0.00143462	0.121852	0.132932	0.0768085	0.0015718	0.317873	0.0483399	0.193837	0.274926	0.335618	
3.475	0.00280274	0.00147286	0.00147114	0.00160169	0.00154203	0.00297016	0.00274905	0.00287831	0.00141435	0.00138138	0.00134373	0.00121313	0.00196544	0.00210627	0.00297486	0.0028816	0.0028146	0.00309139	0.00287842	0.00284492	0.0011869	0.00310268	0.00283922	0.00182083	0.00279444	0.00119134	0.00119131	0.00282847	0.00131167	0.00271723	0.0029309	0.00280785	0.00226037	0.00194393	0.00244934	0.00149871	0.00138435	0.00141335	0.00139406	0.00136473	0.00102267	0.00102267	0.998162	0.826332	0.00102288	0.00102288	0.133514	0.0636571	0.233438	0.126392	0.00221666	0.0160061	0.0667487	0.00106317	0.210204	0.230361	0.0898775	0.00121868	0.190429	0.999383	0.010372	0.0010005	0.0010277	0.157585	0.00239489	0.0287259	0.00888581	0.00105049	0.00232263	0.0103403	0.00143462	0.134036	0.136233	0.0837591	0.00148834	0.39852	0.0423875	0.193022	0.285394	0.324635	
3.48	0.00280274	0.00147286	0.00147114	0.00160169	0.00154203	0.00297016	0.00274905	0.00287831	0.00141435	0.00138138	0.00134373	0.00121313	0.00196544	0.00210627	0.00297486	0.0028816	0.0028146	0.00309139	0.00287842	0.00284492	0.0011869	0.00310268	0.00283922	0.00182083	0.00279444	0.00119134	0.00119131	0.00282847	0.00131167	0.00271723	0.0029309	0.00280785	0.00226037	0.00194393	0.00244934	0.00149871	0.00138435	0.00141335	0.00139406	0.00136473	0.00102267	0.00102267	0.95119	0.734067	0.00102278	0.00102278	0.137082	0.0671579	0.228763	0.137193	0.00136689	0.0150715	0.0647385	0.00104547	0.215425	0.236123	0.0914903	0.00121868	0.477455	0.999383	0.00749222	0.0010005	0.0010277	0.172076	0.00222752	0.0245661	0.00862943	0.00105049	0.00131488	0.0187326	0.00143462	0.146458	0.13988	0.0919945	0.00135367	0.433509	0.036802	0.193379	0.821094	0.315168	
3.485	0.00280274	0.00147286	0.00147114	0.00160169	0.00154203	0.00297016	0.00274905	0.00287831	0.00141435	0.00138138	0.00134373	0.00121313	0.00196544	0.00210627	0.00297486	0.0028816	0.0028146	0.00309139	0.00287842	0.00284492	0.0011869	0.00310268	0.00283922	0.00182083	0.00279444	0.00119134	0.00119131	0.00282847	0.00131167	0.00271723	0.0029309	0.00280785	0.00226037	0.00194393	0.00244934	0.00149871	0.00138435	0.00141335	0.00139406	0.00136473	0.00102267	0.00102267	0.883076	0.638738	0.00102273	0.00102273	0.141099	0.0710213	0.165815	0.0984997	0.00121723	0.0141596	0.0632133	0.00103538	0.219496	0.240768	0.0931233	0.00121868	0.583714	0.999383	0.00441317	0.0010005	0.0010277	0.185284	0.00200544	0.0208616	0.00837541	0.00105049	0.00109801	0.0231705	0.00143462	0.158949	0.143826	0.101704	0.00123859	0.440783	0.0317062	0.194692	0.27848	0.306939	
3.49	0.00280274	0.00147286	0.00147114	0.00160169	0.00154203	0.00297016	0.00274905	0.00287831	0.00141435	0.00138138	0.00134373	0.00121313	0.00196544	0.00210627	0.00297486	0.0028816	0.0028146	0.00309139	0.00287842	0.00284492	0.0011869	0.00310268	0.00283922	0.00182083	0.00279444	0.00119134	0.00119131	0.00282847	0.00131167	0.00271723	0.0029309	0.00280785	0.00226037	0.00194393	0.00244934	0.00149871	0.00138435	0.00141335	0.00139406	0.00136473	0.00102267	0.00102267	0.807816	0.561412	0.0010227	0.0010227	0.145525	0.0752254	0.0290775	0.0278776	0.0011919	0.0132772	0.0622161	0.0010297	0.222656	0.244463	0.0947759	0.00121868	0.736141	0.999383	0.00262212	0.0010005	0.0589323	0.197007	0.00169046	0.0176252	0.00812468	0.00105049	0.00354415	0.0269717	0.00143462	0.171335	0.148018	0.113049	0.00115652	0.431962	0.0271529	0.197046	0.338334	0.300254	
3.495	0.00280274	0.00147286	0.00147114	0.00160169	0.00154203	0.00297016	0.00274905	0.00287831	0.00141435	0.00138138	0.00134373	0.00121313	0.00196544	0.00210627	0.00297486	0.0028816	0.0028146	0.00309139	0.00287842	0.00284492	0.0011869	0.00310268	0.00283922	0.00182083	0.00279444	0.00119134	0.00119131	0.00282847	0.00131167	0.00271723	0.0029309	0.00280785	0.00226037	0.00194393	0.00244934	0.00149871	0.00138435	0.00141335	0.00139406	0.00136473	0.00102267	0.00102267	0.746005	0.510583	0.00102268	0.00102268	0.150327	0.0797467	0.00346236	0.00688857	0.0272056	0.0124443	0.0618267	0.00102653	0.225222	0.247465	0.096446	0.0568955	0.880774	0.999383	0.00174953	0.0010005	0.197048	0.207131	0.00144063	0.0153931	0.00787801	0.00105049	0.00174345	0.0299894	0.00143462	0.183457	0.152402	0.126116	0.00110288	0.401452	0.024015	0.200393	0.326556	0.295163	
3.5	0.00280274	0.00147286	0.00147114	0.00160169	0.00154203	0.00297016	0.00274905	0.00287831	0.00141435	0.00138138	0.00134373	0.00121313	0.00196544	0.00210627	0.00297486	0.0028816	0.0028146	0.00309139	0.00287842	0.00284492	0.0011869	0.00310268	0.00283922	0.00182083	0.00279444	0.00119134	0.00119131	0.00282847	0.00131167	0.00271723	0.0029309	0.00280785	0.00226037	0.00194393	0.00244934	0.00149871	0.00138435	0.00141335	0.00139406	0.00136473	0.00102267	0.00102834	0.707747	0.483834	0.00102268	0.00102268	0.155467	0.0845583	0.00124233	0.00217918	0.0618535	0.0117121	0.0621463	0.00102477	0.227468	0.250018	0.0981269	0.212771	0.952313	0.999383	0.00135946	0.0010005	0.270406	0.215593	0.00127402	0.0148908	0.00763606	0.00105049	0.00119377	0.0329643	0.00143462	0.195161	0.156921	0.140922	0.0010696	0.308626	0.0233601	0.204667	0.401663	0.291669	
3.505	0.00280274	0.00147286	0.00147114	0.00160169	0.00154203	0.00297016	0.00274905	0.00287831	0.00141435	0.00138138	0.00134373	0.00121313	0.00196544	0.00210627	0.00297486	0.0028816	0.0028146	0.00309139	0.00287842	0.00284492	0.0011869	0.00310268	0.00283922	0.00182083	0.00279444	0.00119134	0.00119131	0.00282847	0.00131167	0.00271723	0.0029309	0.00280785	0.00226037	0.00194393	0.00244934	0.00149871	0.00138435	0.00141335	0.00139406	0.00136473	0.00102267	0.00111827	0.713306	0.489708	0.00102267	0.00102267	0.160909	0.0896297	0.00108445	0.00123824	0.0932234	0.0111275	0.0632786	0.00102381	0.229772	0.252473	0.0998317	0.405493	0.994683	0.999383	0.00119376	0.0010005	0.358366	0.222399	0.00117194	0.0165366	0.0074057	0.00105049	0.0010755	0.0348675	0.00143462	0.206328	0.161518	0.157412	0.00104964	0.172592	0.0256872	0.209691	0.321262	0.289549	
3.51	0.00280274	0.00147286	0.00147114	0.00160169	0.00154203	0.00297016	0.00274905	0.00287831	0.00141435	0.00138138	0.00134373	0.00121313	0.00196544	0.00210627	0.00297486	0.0028816	0.0028146	0.00309139	0.00287842	0.00284492	0.0011869	0.00310268	0.00283922	0.00182083	0.00279444	0.00119134	0.00119131	0.00282847	0.00131167	0.00271723	0.0029309	0.00280785	0.00226037	0.00194393	0.00244934	0.00149871	0.00138435	0.00141335	0.00139406	0.00136473	0.00102267	0.00148999	0.777931	0.535066	0.00102267	0.00102267	0.166614	0.0949269	0.00107422	0.00106182	0.119733	0.0107224	0.0653012	0.00102329	0.232531	0.255216	0.101574	0.646373	0.998944	0.999383	0.00112569	0.0640477	0.446292	0.227613	0.00111247	0.0203691	0.00718936	0.00105049	0.0010532	0.035702	0.00143462	0.216894	0.166143	0.175477	0.00103795	0.0854022	0.030821	0.215287	0.239311	0.288567	
3.515	0.00280274	0.00147286	0.00147114	0.00160169	0.00154203	0.00297016	0.00274905	0.00287831	0.00141435	0.00138138	0.00134373	0.00121313	0.00196544	0.00210627	0.00297486	0.0028816	0.0028146	0.00309139	0.00287842	0.00284492	0.0011869	0.00310268	0.00283922	0.00182083	0.00279444	0.00119134	0.00119131	0.00282847	0.00131167	0.00271723	0.0029309	0.00280785	0.00226037	0.00194393	0.00244934	0.00149871	0.00138435	0.00141335	0.00139406	0.00136473	0.00102267	0.00192664	0.848428	0.621796	0.00102267	0.00102267	0.172543	0.100411	0.00107359	0.00103004	0.140865	0.0105201	0.0682668	0.001023	0.236173	0.258678	0.103365	0.875327	0.999282	0.999383	0.0010984	0.207303	0.536305	0.231351	0.00107897	0.0261398	0.00699045	0.00105049	0.00104929	0.035308	0.00143462	0.226861	0.170753	0.194968	0.00103123	0.0397971	0.0380985	0.22127	0.188398	0.28846	
3.52	0.00280274	0.00147286	0.00147114	0.00160169	0.00154203	0.00297016	0.00274905	0.00287831	0.00141435	0.00138138	0.00134373	0.00121313	0.00196544	0.00210627	0.00297486	0.0028816	0.0028146	0.00309139	0.00287842	0.00284492	0.0011869	0.00310268	0.00283922	0.00182083	0.00279444	0.00119134	0.00119131	0.00282847	0.00131167	0.00271723	0.0029309	0.00280785	0.00226037	0.00194393	0.00244934	0.00149871	0.00138435	0.00141335	0.00139406	0.00136473	0.00102267	0.00181905	0.903187	0.720726	0.00102267	0.00102267	0.178647	0.106041	0.00107355	0.00102447	0.157303	0.0105292	0.0722052	0.00102285	0.240966	0.263149	0.105218	0.982183	0.999307	0.999383	0.00108765	0.503055	0.639509	0.233704	0.00106055	0.0333916	0.00680957	0.00105049	0.00104863	0.0357506	0.00143462	0.236185	0.175307	0.215749	0.00102742	0.0180944	0.0465972	0.227443	0.184068	0.288936	
3.525	0.00280274	0.00147286	0.00147114	0.00160169	0.00154203	0.00297016	0.00274905	0.00287831	0.00141435	0.00138138	0.00134373	0.00121313	0.00196544	0.00210627	0.00297486	0.0028816	0.0028146	0.00309139	0.00287842	0.00284492	0.0011869	0.00310268	0.00283922	0.00182083	0.00279444	0.00119134	0.00119131	0.00282847	0.00131167	0.00271723	0.0029309	0.00280785	0.00226037	0.00194393	0.00244934	0.00149871	0.00138435	0.00141335	0.00139406	0.00136473	0.00102267	0.00159777	0.940561	0.79186	0.00102267	0.00102267	0.184861	0.111768	0.00107355	0.00102352	0.17001	0.0107441	0.0771167	0.00102276	0.246832	0.268609	0.107237	0.997258	0.999308	0.999383	0.00108347	0.767687	0.698339	0.23476	0.00105059	0.0415649	0.00664598	0.00105049	0.00104852	0.039428	0.00143462	0.24479	0.179764	0.237644	0.00102529	0.00831749	0.0553788	0.233616	0.183486	0.289707	
3.53	0.00280274	0.00147286	0.00147114	0.00160169	0.00154203	0.00297016	0.00274905	0.00287831	0.00141435	0.00138138	0.00134373	0.00121313	0.00196544	0.00210627	0.00297486	0.0028816	0.0028146	0.00309139	0.00287842	0.00284492	0.0011869	0.00310268	0.00283922	0.00182083	0.00279444	0.00119134	0.00119131	0.00282847	0.00131167	0.00271723	0.0029309	0.00280785	0.00226037	0.00194393	0.00244934	0.00149871	0.00138435	0.00141335	0.00139406	0.00136473	0.00102267	0.00218616	0.964376	0.821444	0.00102267	0.00102267	0.191108	0.117545	0.00107355	0.00102336	0.179872	0.0111533	0.0829818	0.00102272	0.253443	0.274803	0.109431	0.99899	0.999308	0.999383	0.00108186	0.936994	0.713605	0.234598	0.00104528	0.0500985	0.00649872	0.00105049	0.0010485	0.0469689	0.00143462	0.252586	0.184081	0.260404	0.0010241	0.00406801	0.0636633	0.239612	0.192544	0.290505	
3.535	0.00280274	0.00147286	0.00147114	0.00160169	0.00154203	0.00297016	0.00274905	0.00287831	0.00141435	0.00138138	0.00134373	0.00121313	0.00196544	0.00210627	0.00297486	0.0028816	0.0028146	0.00309139	0.00287842	0.00284492	0.0011869	0.00310268	0.00283922	0.00182083	0.00279444	0.00119134	0.00119131	0.00282847	0.00131167	0.00271723	0.0029309	0.00280785	0.00226037	0.00194393	0.00244934	0.00149871	0.00138435	0.00141335	0.00139406	0.00136473	0.00102267	0.00205446	0.978918	0.814121	0.00102267	0.00102267	0.197311	0.123324	0.00107355	0.00102333	0.187544	0.0117377	0.08976	0.00102269	0.26042	0.281399	0.111782	0.999171	0.999308	0.999383	0.00108125	0.989411	0.724786	0.233278	0.00104249	0.0585101	0.00636633	0.00105049	0.0010485	0.0573845	0.00143462	0.259487	0.188218	0.28376	0.00102345	0.00226703	0.070927	0.245263	0.19532	0.291087	
3.54	0.00280274	0.00147286	0.00147114	0.00160169	0.00154203	0.00297016	0.00274905	0.00287831	0.00141435	0.00138138	0.00134373	0.00121313	0.00196544	0.00210627	0.00297486	0.0028816	0.0028146	0.00309139	0.00287842	0.00284492	0.0011869	0.00310268	0.00283922	0.00182083	0.00279444	0.00119134	0.00119131	0.00282847	0.00131167	0.00271723	0.0029309	0.00280785	0.00226037	0.00194393	0.00244934	0.00149871	0.00138435	0.00141335	0.00139406	0.00136473	0.00102267	0.00176975	0.987542	0.77265	0.00102267	0.00102267	0.20339	0.129057	0.00107355	0.00102333	0.193479	0.0124735	0.0974017	0.00102268	0.267277	0.287962	0.114257	0.999189	0.999308	0.999383	0.00108102	0.997742	0.68787	0.230887	0.00104103	0.0664364	0.00624715	0.00105049	0.0010485	0.0699864	0.00143462	0.265403	0.192143	0.307537	0.00102309	0.00151794	0.076901	0.250405	0.205498	0.291227	
3.545	0.00280274	0.00147286	0.00147114	0.00160169	0.00154203	0.00297016	0.00274905	0.00287831	0.00141435	0.00138138	0.00134373	0.00121313	0.00196544	0.00210627	0.00297486	0.0028816	0.0028146	0.00309139	0.00287842	0.00284492	0.0011869	0.00310268	0.00283922	0.00182083	0.00279444	0.00119134	0.00119131	0.00282847	0.00131167	0.00271723	0.0029309	0.00280785	0.00226037	0.00194393	0.00244934	0.00149871	0.00138435	0.00141335	0.00139406	0.00136473	0.00102267	0.00151495	0.951738	0.700921	0.00102267	0.00102267	0.209271	0.134699	0.00107355	0.00102332	0.198134	0.0133308	0.105854	0.00102268	0.273454	0.29397	0.116816	0.999191	0.999308	0.999383	0.00108093	0.998848	0.563248	0.227607	0.00104027	0.0736286	0.00613951	0.00105049	0.0010485	0.0840784	0.00143462	0.270257	0.195827	0.331721	0.0010229	0.00121084	0.0815207	0.254872	0.209446	0.290717	
3.55	0.00280274	0.00147286	0.00147114	0.00160169	0.00154203	0.00297016	0.00274905	0.00287831	0.00141435	0.00138138	0.00134373	0.00121313	0.00196544	0.00210627	0.00297486	0.0028816	0.0028146	0.00309139	0.00287842	0.00284492	0.0011869	0.00310268	0.00283922	0.00182083	0.00279444	0.00119134	0.00119131	0.00282847	0.00131167	0.00271723	0.0029309	0.00280785	0.00226037	0.00194393	0.00244934	0.00149871	0.00138435	0.00141335	0.00139406	0.00136473	0.00102267	0.00132978	0.863906	0.605862	0.00102267	0.00102267	0.214885	0.140207	0.00107355	0.00102332	0.202023	0.0142823	0.11506	0.00102267	0.27844	0.298945	0.119407	0.999191	0.999308	0.999383	0.0010809	0.868002	0.398398	0.223643	0.00103988	0.0799385	0.00604184	0.00105049	0.0010485	0.0979382	0.00143462	0.274007	0.199252	0.35629	0.00102279	0.00108638	0.0848773	0.258488	0.212749	0.289363	
3.555	0.00280274	0.00147286	0.00147114	0.00160169	0.00154203	0.00297016	0.00274905	0.00287831	0.00141435	0.00138138	0.00134373	0.00121313	0.00196544	0.00210627	0.00297486	0.0028816	0.0028146	0.00309139	0.00287842	0.00284492	0.0011869	0.00310268	0.00283922	0.00182083	0.00279444	0.00119134	0.00119131	0.00282847	0.00131167	0.00271723	0.0029309	0.00280785	0.00226037	0.00194393	0.00244934	0.00149871	0.00138435	0.00141335	0.00139406	0.00136473	0.00102267	0.00120753	0.728437	0.49465	0.00102267	0.00102267	0.220172	0.145542	0.00107355	0.00102332	0.205375	0.0153053	0.124962	0.00102267	0.281898	0.302548	0.121978	0.999191	0.850273	0.741621	0.00108089	0.691091	0.242311	0.219168	0.00103968	0.0852908	0.00595275	0.00105049	0.0010485	0.109928	0.00143462	0.276674	0.20241	0.381141	0.00102273	0.00103641	0.0871444	0.261064	0.206661	0.287	
3.56	0.00280274	0.00147286	0.00147114	0.00160169	0.00154203	0.00297016	0.00274905	0.00287831	0.00141435	0.00138138	0.00134373	0.00121313	0.00196544	0.00210627	0.00297486	0.0028816	0.0028146	0.00309139	0.00287842	0.00284492	0.0011869	0.00310268	0.00283922	0.00182083	0.00279444	0.00119134	0.00119131	0.00282847	0.00131167	0.00271723	0.0029309	0.00280785	0.00226037	0.00194393	0.00244934	0.00149871	0.00138435	0.00141335	0.00139406	0.00136473	0.00102267	0.00113117	0.556522	0.376797	0.00102267	0.00102267	0.225082	0.150668	0.00107355	0.00102332	0.208627	0.0163605	0.135493	0.00102267	0.2837	0.304631	0.124478	0.999191	0.672958	0.318876	0.00108089	0.596653	0.0388314	0.214322	0.00103958	0.0896969	0.00587115	0.00105049	0.0010485	0.118495	0.00143462	0.278344	0.205309	0.405983	0.0010227	0.00101651	0.0885483	0.262411	0.193184	0.283497	
3.565	0.00280274	0.00147286	0.00147114	0.00160169	0.00154203	0.00297016	0.00274905	0.00287831	0.00141435	0.00138138	0.00134373	0.00121313	0.00196544	0.00210627	0.00297486	0.0028816	0.0028146	0.00309139	0.00287842	0.00284492	0.0011869	0.00310268	0.00283922	0.00182083	0.00279444	0.00119134	0.00119131	0.00282847	0.00131167	0.00271723	0.0029309	0.00280785	0.00226037	0.00194393	0.00244934	0.00149871	0.00138435	0.00141335	0.00139406	0.00136473	0.00102267	0.00108517	0.378061	0.264203	0.00102267	0.00102267	0.229584	0.155556	0.00107355	0.00102332	0.211883	0.017422	0.146578	0.00102267	0.283845	0.305171	0.126862	0.999191	0.47457	0.0410499	0.00108088	0.48061	0.00566255	0.20928	0.00904763	0.0931968	0.00579614	0.00105049	0.0010485	0.122856	0.00143462	0.279166	0.207967	0.430337	0.00102269	0.00100863	0.0893115	0.26235	0.168638	0.278766	
3.57	0.00280274	0.00147286	0.00147114	0.00160169	0.00154203	0.00297016	0.00274905	0.00287831	0.00141435	0.00138138	0.00134373	0.00121313	0.00196544	0.00210627	0.00297486	0.0028816	0.0028146	0.00309139	0.00287842	0.00284492	0.0011869	0.00310268	0.00283922	0.00182083	0.00279444	0.00119134	0.00119131	0.00282847	0.00131167	0.00271723	0.0029309	0.00280785	0.00226037	0.00194393	0.00244934	0.00149871	0.00138435	0.00141335	0.00139406	0.00136473	0.0148494	0.0111881	0.242084	0.181856	0.00102267	0.00102267	0.233657	0.160185	0.00107355	0.00102332	0.215095	0.018465	0.158123	0.00102267	0.282386	0.304222	0.12909	0.986506	0.154832	0.00514257	0.00108088	0.304116	0.00153888	0.204257	0.081527	0.0958531	0.00572704	0.00105049	0.0010485	0.122541	0.00143462	0.279337	0.210415	0.453436	0.00102268	0.00100553	0.0896333	0.260739	0.132687	0.272761	
3.575	0.00280274	0.00147286	0.00147114	0.00160169	0.00154203	0.00297016	0.00274905	0.00287831	0.00141435	0.00138138	0.00134373	0.00121313	0.00196544	0.00210627	0.00297486	0.0028816	0.0028146	0.00309139	0.00287842	0.00284492	0.0011869	0.00310268	0.00283922	0.00182083	0.00279444	0.00119134	0.00119131	0.00282847	0.00131167	0.00271723	0.0029309	0.00280785	0.00226037	0.00194393	0.00244934	0.00149871	0.00138435	0.00141335	0.00139406	0.00136473	0.0338545	0.0192928	0.160046	0.133718	0.00102267	0.00102267	0.237292	0.164539	0.00107355	0.00102332	0.218359	0.0194689	0.170015	0.00102267	0.279444	0.301891	0.131127	0.971369	0.0169398	0.00181445	0.00108088	0.223681	0.00108084	0.199385	0.138019	0.0977625	0.00566344	0.00105049	0.0010485	0.118459	0.00143462	0.279046	0.212685	0.474264	0.00102267	0.00100432	0.0896949	0.257483	0.08608	0.26548	
3.58	0.00280274	0.00147286	0.00147114	0.00160169	0.00154203	0.00297016	0.00274905	0.00287831	0.00141435	0.00138138	0.00134373	0.00121313	0.00196544	0.00210627	0.00297486	0.0028816	0.0028146	0.00309139	0.00287842	0.00284492	0.0011869	0.00310268	0.00283922	0.00182083	0.00279444	0.00119134	0.00119131	0.00282847	0.00131167	0.00271723	0.0029309	0.00280785	0.00226037	0.00194393	0.00244934	0.00149871	0.00138435	0.00141335	0.00139406	0.00136473	0.0470712	0.0272303	0.103751	0.101415	0.00102267	0.00102267	0.240484	0.168606	0.00107355	0.00102332	0.222041	0.020417	0.182112	0.00102267	0.275119	0.298263	0.132941	0.972294	0.00260729	0.0015392	0.00108088	0.202727	0.00103302	0.194735	0.197663	0.0990334	0.00560497	0.00105049	0.0010485	0.111798	0.00143462	0.278427	0.2148	0.491612	0.00102267	0.00100384	0.0896168	0.25255	0.0264699	0.25697	
3.585	0.00280274	0.00147286	0.00147114	0.00160169	0.00154203	0.00297016	0.00274905	0.00287831	0.00141435	0.00138138	0.00134373	0.00121313	0.00196544	0.00210627	0.00297486	0.0028816	0.0028146	0.00309139	0.00287842	0.00284492	0.0011869	0.00310268	0.00283922	0.00182083	0.00279444	0.00119134	0.00119131	0.00282847	0.00131167	0.00271723	0.0029309	0.00280785	0.00226037	0.00194393	0.00244934	0.00149871	0.00138435	0.00141335	0.00139406	0.00136473	0.0460317	0.0229006	0.0744533	0.0846894	0.00102267	0.00102267	0.243236	0.172383	0.00107355	0.00102332	0.226316	0.0213001	0.194262	0.00102267	0.269533	0.293445	0.134507	0.987753	0.00147459	0.0015177	0.00108088	0.185474	0.00102822	0.190522	0.236987	0.0997834	0.00555207	0.00105049	0.0010485	0.102235	0.169896	0.277639	0.216785	0.504366	0.00102267	0.00100366	0.0895507	0.245745	0.0228648	0.246601	
3.59	0.00280274	0.00147286	0.00147114	0.00160169	0.00154203	0.00297016	0.00274905	0.00287831	0.00141435	0.00138138	0.00134373	0.00121313	0.00196544	0.00210627	0.00297486	0.0028816	0.0028146	0.00309139	0.00287842	0.00284492	0.0011869	0.00310268	0.00283922	0.00182083	0.00279444	0.00119134	0.00119131	0.00282847	0.00131167	0.00271723	0.0029309	0.00280785	0.00226037	0.00194393	0.00244934	0.00149871	0.00138435	0.00141335	0.00139406	0.00136473	0.034829	0.0164701	0.0575916	0.0774727	0.00102267	0.00102267	0.245552	0.175866	0.00107355	0.00102332	0.230812	0.0221087	0.206303	0.00102267	0.262819	0.287547	0.135805	0.997557	0.00139416	0.00151608	0.00108088	0.214731	0.00102775	0.187039	0.255329	0.100125	0.00550457	0.00105049	0.0010485	0.090812	0.478098	0.276838	0.218656	0.511709	0.00102267	0.00100359	0.0895968	0.236818	0.116947	0.233253	
3.595	0.00280274	0.00147286	0.00147114	0.00160169	0.00154203	0.00297016	0.00274905	0.00287831	0.00141435	0.00138138	0.00134373	0.00121313	0.00196544	0.00210627	0.00297486	0.0028816	0.0028146	0.00309139	0.00287842	0.00284492	0.0011869	0.00310268	0.00283922	0.00182083	0.00279444	0.00119134	0.00119131	0.00282847	0.00131167	0.00271723	0.0029309	0.00280785	0.00226037	0.00194393	0.00244934	0.00149871	0.00138435	0.00141335	0.00139406	0.00136473	0.0237334	0.0110623	0.039513	0.0610739	0.00102267	0.00102267	0.247429	0.179053	0.00107355	0.00102332	0.235076	0.0228408	0.218067	0.00102267	0.255142	0.2807	0.13682	0.999003	0.00138878	0.00151597	0.00108088	0.435506	0.0010277	0.184413	0.266393	0.100158	0.0054624	0.00105049	0.0010485	0.0792842	0.683885	0.27613	0.220421	0.513202	0.00102267	0.00100356	0.0897949	0.225676	0.0908358	0.217836	
3.6	0.00280274	0.00147286	0.00147114	0.00160169	0.00154203	0.00297016	0.00274905	0.00287831	0.00141435	0.00138138	0.00134373	0.00121313	0.00196544	0.00210627	0.00297486	0.0028816	0.0028146	0.00309139	0.00287842	0.00284492	0.0011869	0.00310268	0.00283922	0.00182083	0.00279444	0.00119134	0.00119131	0.00282847	0.00131167	0.00271723	0.0029309	0.00280785	0.00226037	0.00194393	0.00244934	0.00149871	0.00138435	0.00141335	0.00139406	0.00136473	0.0153609	0.00723169	0.0255107	0.0422691	0.00102267	0.00102267	0.248865	0.181938	0.00107355	0.00102332	0.23854	0.0234872	0.229372	0.00102267	0.246707	0.273061	0.137542	0.999171	0.00138843	0.00151596	0.00108088	0.884226	0.0010277	0.182619	0.272525	0.0998197	0.00542247	0.00105049	0.0010485	0.0685428	0.789629	0.275606	0.222079	0.508516	0.00102267	0.00100355	0.0904048	0.212418	0.077432	0.201359	
3.605	0.00280274	0.00147286	0.00147114	0.00160169	0.00154203	0.00297016	0.00274905	0.00287831	0.00141435	0.00138138	0.00134373	0.00121313	0.00196544	0.00210627	0.00297486	0.0028816	0.0028146	0.00309139	0.00287842	0.00284492	0.0011869	0.00310268	0.00283922	0.00182083	0.00279444	0.00119134	0.00119131	0.00282847	0.00131167	0.00271723	0.0029309	0.00280785	0.00226037	0.00194393	0.00244934	0.00149871	0.00138435	0.00141335	0.00139406	0.00136473	0.00972334	0.00473773	0.0159588	0.0274106	0.00102267	0.00102267	0.249858	0.184521	0.00107355	0.00102332	0.239004	0.0240399	0.240054	0.00102267	0.237769	0.264822	0.137965	0.999189	0.00138841	0.00151596	0.00108088	0.982406	0.0010277	0.18134	0.274105	0.0990943	0.00539072	0.00105049	0.0010485	0.0597974	0.839633	0.275272	0.223624	0.498071	0.00102267	0.00100354	0.0911103	0.197826	0.0588795	0.184563	
3.61	0.00280274	0.00147286	0.00147114	0.00160169	0.00154203	0.00297016	0.00274905	0.00287831	0.00141435	0.00138138	0.00134373	0.00121313	0.00196544	0.00210627	0.00297486	0.0028816	0.0028146	0.00309139	0.00287842	0.00284492	0.0011869	0.00310268	0.00283922	0.00182083	0.00279444	0.00119134	0.00119131	0.00282847	0.00131167	0.00271723	0.0029309	0.00280785	0.00226037	0.00194393	0.00244934	0.00149871	0.00138435	0.00141335	0.00139406	0.00136473	0.00615919	0.00319359	0.00987267	0.0171768	0.00105254	0.00102267	0.250406	0.186797	0.00107355	0.00102332	0.230952	0.0244621	0.24995	0.00102267	0.228612	0.256205	0.138085	0.999191	0.0013884	0.00151596	0.00108088	0.996886	0.0010277	0.179978	0.272252	0.0975714	0.00536465	0.00105049	0.0010485	0.0535695	0.864916	0.275102	0.225041	0.482246	0.00102267	0.00100354	0.0915266	0.182644	0.00672041	0.167976	
3.615	0.00280274	0.00147286	0.00147114	0.00160169	0.00154203	0.00297016	0.00274905	0.00287831	0.00141435	0.00138138	0.00134373	0.00121313	0.00196544	0.00210627	0.00297486	0.0028816	0.0028146	0.00309139	0.00287842	0.00284492	0.0011869	0.00310268	0.00283922	0.00182083	0.00279444	0.00119134	0.00119131	0.00282847	0.00131167	0.00271723	0.0029309	0.00280785	0.00226037	0.00194393	0.00244934	0.00149871	0.00138435	0.00141335	0.00139406	0.00136473	0.00399443	0.00226897	0.00615691	0.0106193	0.00139658	0.00102267	0.25051	0.188766	0.00107355	0.00102332	0.214252	0.0247186	0.258906	0.00102267	0.2195	0.247434	0.1379	0.999191	0.0013884	0.00151596	0.00108088	0.998748	0.0010277	0.177831	0.265725	0.0949325	0.00534048	0.00105049	0.0010485	0.0501997	0.878898	0.275037	0.226314	0.461592	0.00102267	0.00100354	0.091244	0.167415	0.02394	0.151966	
3.62	0.00280274	0.00147286	0.00147114	0.00160169	0.00154203	0.00297016	0.00274905	0.00287831	0.00141435	0.00138138	0.00134373	0.00121313	0.00196544	0.00210627	0.00297486	0.0028816	0.0028146	0.00309139	0.00287842	0.00284492	0.0011869	0.00310268	0.00283922	0.00182083	0.00279444	0.00119134	0.00119131	0.00282847	0.00131167	0.00271723	0.0029309	0.00280785	0.00226037	0.00194393	0.00244934	0.00149871	0.00138435	0.00141335	0.00139406	0.00136473	0.00271562	0.00172835	0.00395374	0.00660089	0.00181522	0.00102267	0.250176	0.19043	0.00107355	0.00102332	0.194052	0.0247883	0.266797	0.00102267	0.210662	0.238729	0.137415	0.999191	0.0013884	0.00151596	0.00108088	0.998971	0.0010277	0.174171	0.249073	0.0910956	0.0053148	0.00105049	0.0010485	0.0497679	0.886891	0.275003	0.227423	0.43675	0.00102267	0.00100354	0.0900664	0.152935	0.00338054	0.136776	
3.625	0.00280274	0.00147286	0.00147114	0.00160169	0.00154203	0.00297016	0.00274905	0.00287831	0.00141435	0.00138138	0.00134373	0.00121313	0.00196544	0.00210627	0.00297486	0.0028816	0.0028146	0.00309139	0.00287842	0.00284492	0.0011869	0.00310268	0.00283922	0.00182083	0.00279444	0.00119134	0.00119131	0.00282847	0.00131167	0.00271723	0.0029309	0.00280785	0.00226037	0.00194393	0.00244934	0.00149871	0.00138435	0.00141335	0.00139406	0.00136473	0.00197539	0.00141786	0.00267494	0.00421199	0.00173008	0.00102267	0.249414	0.191792	0.00107355	0.00102332	0.173183	0.0246742	0.273523	0.00102267	0.202268	0.230294	0.136661	0.999191	0.0013884	0.00151596	0.00108088	0.998997	0.0010277	0.1688	0.216696	0.086288	0.00528547	0.00105049	0.0010485	0.0522241	0.891022	0.274915	0.228349	0.408379	0.00102267	0.00100354	0.0880421	0.139165	0.00608357	0.12256	
3.63	0.00280274	0.00147286	0.00147114	0.00160169	0.00154203	0.00297016	0.00274905	0.00287831	0.00141435	0.00138138	0.00134373	0.00121313	0.00196544	0.00210627	0.00297486	0.0028816	0.0028146	0.00309139	0.00287842	0.00284492	0.0011869	0.00310268	0.00283922	0.00182083	0.00279444	0.00119134	0.00119131	0.00282847	0.00131167	0.00271723	0.0029309	0.00280785	0.00226037	0.00194393	0.00244934	0.00149871	0.00138435	0.00141335	0.00139406	0.00136473	0.00155353	0.00124199	0.00194461	0.00282267	0.00153621	0.00102267	0.248235	0.192858	0.00107355	0.00102332	0.151988	0.0243826	0.279015	0.00102267	0.194421	0.222311	0.135666	0.999191	0.0013884	0.00151596	0.00108088	0.999	0.0010277	0.162186	0.165202	0.0807103	0.00525054	0.00105049	0.0010485	0.0576398	0.892531	0.274679	0.22907	0.377272	0.00102267	0.00100354	0.0852261	0.126104	0.00159906	0.109397	
3.635	0.00280274	0.00147286	0.00147114	0.00160169	0.00154203	0.00297016	0.00274905	0.00287831	0.00141435	0.00138138	0.00134373	0.00121313	0.00196544	0.00210627	0.00297486	0.0028816	0.0028146	0.00309139	0.00287842	0.00284492	0.0011869	0.00310268	0.00283922	0.00182083	0.00279444	0.00119134	0.00119131	0.00282847	0.00131167	0.00271723	0.0029309	0.00280785	0.00226037	0.00194393	0.00244934	0.00149871	0.00138435	0.00141335	0.00139406	0.00136473	0.00131606	0.00114347	0.00153278	0.00202802	0.00191463	0.00102267	0.246658	0.193637	0.00107355	0.00102332	0.132377	0.0239327	0.283249	0.00102267	0.187137	0.21495	0.134454	0.999191	0.0013884	0.00151596	0.00108088	0.999	0.00103248	0.15471	0.108681	0.0746606	0.00520892	0.00105049	0.0010485	0.0657349	0.891444	0.27422	0.229566	0.344705	0.00102267	0.00100354	0.0817616	0.11382	0.00114364	0.0973198	
3.64	0.00280274	0.00147286	0.00147114	0.00160169	0.00154203	0.00297016	0.00274905	0.00287831	0.00141435	0.00138138	0.00134373	0.00121313	0.00196544	0.00210627	0.00297486	0.0028816	0.0028146	0.00309139	0.00287842	0.00284492	0.0011869	0.00310268	0.00283922	0.00182083	0.00279444	0.00119134	0.00119131	0.00282847	0.00131167	0.00271723	0.0029309	0.00280785	0.00226037	0.00194393	0.00244934	0.00149871	0.00138435	0.00141335	0.00139406	0.00136473	0.0011837	0.00108878	0.00130293	0.00164202	0.0025498	0.00102267	0.244685	0.194132	0.00107355	0.00102332	0.0730286	0.0232946	0.286161	0.00102267	0.179272	0.20815	0.13305	0.999191	0.0013884	0.00151596	0.00108088	0.999	0.0010285	0.146678	0.257938	0.0675593	0.00515569	0.00105049	0.0010485	0.0790361	0.892254	0.273136	0.229779	0.310703	0.00102267	0.00100354	0.0765394	0.102349	0.00110932	0.0863207	
3.645	0.00280274	0.00147286	0.00147114	0.00160169	0.00154203	0.00297016	0.00274905	0.00287831	0.00141435	0.00138138	0.00134373	0.00121313	0.00196544	0.00210627	0.00297486	0.0028816	0.0028146	0.00309139	0.00287842	0.00284492	0.0011869	0.00310268	0.00283922	0.00182083	0.00279444	0.00119134	0.00119131	0.00282847	0.00131167	0.00271723	0.0029309	0.00280785	0.00226037	0.00194393	0.00244934	0.00149871	0.00138435	0.00141335	0.00139406	0.00136473	0.00111054	0.00105866	0.00117573	0.00192755	0.00340335	0.00102267	0.242351	0.194355	0.00107355	0.00102332	0.0568992	0.0225166	0.287789	0.00102267	0.171042	0.202354	0.131475	0.999191	0.0013884	0.0017731	0.00108088	0.999	0.0010278	0.138334	0.221928	0.0602101	0.00509278	0.00105049	0.0010485	0.0900106	0.888531	0.271652	0.229715	0.276138	0.00102267	0.00221222	0.0705447	0.0917214	0.00110702	0.076367	
