CEINMS output
datacolumns 81
datarows 92
endheader
time	addbrev_r	addlong_r	addmagDist_r	addmagIsch_r	addmagMid_r	addmagProx_r	bflh_r	bfsh_r	edl_r	ehl_r	fdl_r	fhl_r	gaslat_r	gasmed_r	glmax1_r	glmax2_r	glmax3_r	glmed1_r	glmed2_r	glmed3_r	glmin1_r	glmin2_r	glmin3_r	grac_r	iliacus_r	perbrev_r	perlong_r	piri_r	psoas_r	recfem_r	sart_r	semimem_r	semiten_r	soleus_r	tfl_r	tibant_r	tibpost_r	vasint_r	vaslat_r	vasmed_r	addbrev_l	addlong_l	addmagDist_l	addmagIsch_l	addmagMid_l	addmagProx_l	bflh_l	bfsh_l	edl_l	ehl_l	fdl_l	fhl_l	gaslat_l	gasmed_l	glmax1_l	glmax2_l	glmax3_l	glmed1_l	glmed2_l	glmed3_l	glmin1_l	glmin2_l	glmin3_l	grac_l	iliacus_l	perbrev_l	perlong_l	piri_l	psoas_l	recfem_l	sart_l	semimem_l	semiten_l	soleus_l	tfl_l	tibant_l	tibpost_l	vasint_l	vaslat_l	vasmed_l	
3.19	0.0129968	0.000592877	0.0230361	0.0232967	0.0284493	0	0.0241391	0.0374142	0.0221239	0.0222317	0.0385102	0.0496496	0.00964731	0.0229832	0.00815624	0.0137444	0.0188356	0.0833961	0.0777083	0.0235867	0.0844028	0.0847468	0.0846967	0.0270969	0.0106325	0.0157891	0.0399591	0.0528093	0.0086565	5.56437e-05	0.0352597	0.0354926	0.0418818	0.0361552	0.000195299	0.0185356	0.0383767	0.00900172	0.00944193	0.0089739	0.00364802	0.0505597	0.0182458	0.0178508	0.0174085	0.00298217	0.00464982	0.00867675	0.0320082	0.084131	0.0436937	0.0456906	0.025903	0	0.00180078	0.0020215	0.000666131	0.0407759	0.0232669	5.85062e-12	0.022465	0.0390867	0	0.00270105	0.000235311	0.075814	0.0839572	0	0.00061383	0.0848216	0.0411594	0.0555829	0.0364109	0	1.02921e-17	0.0843736	0.0847674	0	0.000191685	1.30939e-06	
3.195	0.0116408	1.49402e-10	0.0210246	0.0214904	0.0256116	0	0.0236454	0.0399366	0.0227039	0.0228703	0.038396	0.0493799	0.0106273	0.0241584	0.00701431	0.0125686	0.0169808	0.083932	0.0770538	0.0221223	0.0853427	0.0854004	0.0848618	0.0270817	0.0129093	0.0156471	0.0397821	0.0501339	0.0102966	0.00100603	0.0376253	0.0356819	0.0419385	0.035287	0.00378558	0.0193567	0.0382027	0.00749173	0.00809599	0.007597	0.00252243	0.0494417	0.0190708	0.0182502	0.0170849	0.00406385	0.00170337	0.00642609	0.0321543	0.0841988	0.0436016	0.0456564	0.0239282	0	0.00202044	0.00203858	0	0.0473044	0.0279561	0	0.0242933	0.0178645	0	0	0.00202129	0.0764075	0.0839885	0	0.00145285	0.0871166	0.0404054	0.05045	0.0337357	5.20603e-10	0	0.084472	0.0851581	1.43635e-14	0.00385788	0.00398116	
3.2	0.0113357	8.22671e-11	0.0198432	0.0202863	0.0239303	0	0.0232112	0.0419488	0.0231296	0.0233353	0.0382969	0.0491374	0.0112973	0.0250768	0.00656162	0.0120655	0.0160077	0.0839005	0.0763017	0.0211975	0.0853159	0.0853481	0.0847987	0.027107	0.0139959	0.0155685	0.0396352	0.0475456	0.0110859	0.00181289	0.0395021	0.0357738	0.0419248	0.0345797	0.00567312	0.0198976	0.0380555	0.00661484	0.00729972	0.00680437	0.00217365	0.0484205	0.0239366	0.020474	0.0208109	0.0058326	0.00223257	0.00753398	0.032253	0.084202	0.0434943	0.0460402	0.0243649	2.70404e-11	0.0124441	0.0170343	0.00160803	0.0439533	0.0236345	1.86157e-13	0.0243436	0.01203	2.92436e-14	0.00736812	0.00201865	0.0763058	0.0839078	8.56556e-12	0.00163579	0.08706	0.0397003	0.0464278	0.0338923	3.30159e-14	8.05975e-12	0.0844273	0.0843146	0	0.00498064	0.00519475	
3.205	0.0110419	3.57962e-11	0.0187628	0.0192212	0.0223853	0	0.0227464	0.0439605	0.0234426	0.0236743	0.0382071	0.0489187	0.0117739	0.0258874	0.00614805	0.0116054	0.0151094	0.0838177	0.0753414	0.0202855	0.0852102	0.085245	0.0847126	0.0270705	0.0148105	0.0155135	0.0395044	0.0449819	0.0116383	0.00202136	0.0414048	0.0357704	0.0418275	0.0339859	0.00664448	0.020256	0.0379257	0.00603634	0.00675223	0.00627114	0.00759226	0.0481809	0.0267402	0.0221989	0.0221958	0.00630187	0.00440986	0.00794404	0.0325427	0.084859	0.0433725	0.0464915	0.0248177	3.07176e-12	0.0202938	0.0296207	0.0100933	0.0347349	0.00718771	3.24888e-13	0.0382917	0.0396625	2.49495e-13	0.0142378	0.00825249	0.0763035	0.0838706	0	0.0114743	0.0870264	0.03899	0.0426594	0.0328413	0	5.44296e-12	0.0843688	0.0838956	3.44572e-11	0.00508008	0.00528081	
3.21	0.0107753	1.23982e-11	0.0176718	0.0181321	0.0209314	0	0.0222098	0.0460459	0.0236932	0.0239464	0.0381285	0.0487299	0.0122024	0.0267024	0.00570104	0.0111206	0.0142292	0.0837348	0.0741232	0.0193446	0.0851053	0.085142	0.0846283	0.0269983	0.0156951	0.0154666	0.0393911	0.0424449	0.0122249	0.00200138	0.0434699	0.0356669	0.0416384	0.0334876	0.00724059	0.0205381	0.0378136	0.00551986	0.00625077	0.0057871	0.0148565	0.0480274	0.024908	0.0220705	0.0192643	0.00604974	0.00561444	0.00705201	0.032577	0.0856709	0.0414454	0.0468666	0.0245085	3.35511e-12	0.0221204	0.035068	0.0112647	0.0206033	0.00120617	3.37857e-13	0.0505345	0.0602492	1.17618e-14	0.0167322	0.0172381	0.0765757	0.0838852	9.25292e-09	0.0237056	0.0869831	0.0382277	0.0390721	0.0310309	1.14661e-11	4.77819e-12	0.0843174	0.0840186	7.58276e-11	0.00499386	0.00519047	
3.215	0.0105824	2.05486e-07	0.0166078	0.0170356	0.0195821	1.96317e-06	0.0215977	0.0481515	0.0238824	0.0241517	0.038067	0.0485827	0.012653	0.0275469	0.00523868	0.0106307	0.0133982	0.0836322	0.0726055	0.0183925	0.0849724	0.0850185	0.0845348	0.026895	0.0166258	0.0154337	0.0393035	0.0399896	0.0128376	0.00209777	0.0456976	0.0354442	0.0413414	0.0331082	0.00785023	0.0207471	0.0377269	0.00502372	0.00577851	0.00532937	0.0204943	0.0473671	0.0196835	0.0197848	0.0137735	0.00566935	0.00599661	0.00579676	0.0323711	0.0851238	0.0402177	0.0471961	0.0237239	1.85003e-07	0.0214006	0.0361737	0.0101912	0.0202047	0.00200473	0	0.0571006	0.0408787	0	0.0165347	0.025376	0.0769808	0.0839107	0	0.0323849	0.0869217	0.0373867	0.0358526	0.0293403	1.08144e-06	1.90563e-07	0.0842667	0.0843162	7.5995e-07	0.00497998	0.00522557	
3.22	0.0104597	1.9726e-07	0.0155866	0.0159518	0.0183224	1.88714e-06	0.0209126	0.0502331	0.023991	0.0242685	0.0380275	0.0484865	0.0131346	0.0284181	0.00474987	0.0101314	0.0126086	0.0835148	0.0707746	0.0174369	0.0848185	0.084881	0.0844356	0.0267546	0.0175792	0.0154208	0.0392479	0.0376725	0.0134645	0.00232232	0.0480896	0.0350871	0.0409267	0.0328751	0.00855958	0.0208546	0.037672	0.00457947	0.00536179	0.00492017	0.023401	0.0461644	0.0135657	0.0157003	0.00850728	0.00508544	0.00602822	0.00464001	0.032221	0.0842881	0.0406301	0.0475078	0.0228041	1.77739e-07	0.0207951	0.0361264	0.00994436	0.0211802	0.00238079	0.00197205	0.0604358	0.0151479	4.39166e-05	0.0153733	0.0319086	0.0774151	0.0839337	4.84525e-05	0.0380292	0.0868384	0.0364653	0.032989	0.0278306	1.17937e-06	1.82956e-07	0.0842196	0.0846632	9.25965e-07	0.0049749	0.00543974	
3.225	0.0104102	7.06494e-08	0.0146311	0.0148997	0.0171463	6.75939e-07	0.0201559	0.0522515	0.0240063	0.0242831	0.038013	0.0484484	0.0136471	0.0293204	0.00425772	0.00962084	0.0118512	0.0833866	0.0686225	0.0164962	0.0846491	0.084734	0.0843349	0.0265771	0.0185501	0.0154301	0.0392282	0.0355318	0.0141183	0.0026455	0.0506419	0.0345894	0.0403933	0.0328059	0.00931924	0.0208455	0.0376532	0.00422217	0.00500277	0.00457244	0.0240926	0.0445474	0.00868373	0.0110135	0.00494651	0.00437603	0.00604859	0.00366619	0.0320859	0.0840172	0.0405035	0.0478622	0.021968	6.36581e-08	0.0207843	0.0364896	0.0108385	0.0145142	0.00236078	0.00200287	0.0622134	0.00530619	0	0.0143335	0.036186	0.0778338	0.0839571	0	0.040461	0.0867323	0.0354753	0.0303247	0.0264322	4.66863e-07	6.5533e-08	0.0841696	0.0850544	3.23326e-07	0.00492203	0.00582001	
3.23	0.010437	1.06322e-08	0.0137563	0.0139027	0.0160665	9.87866e-08	0.0193319	0.0541666	0.0239213	0.0241882	0.0380259	0.0484736	0.0141955	0.0302627	0.00381387	0.00910184	0.0111177	0.0832509	0.0661734	0.0156004	0.0844683	0.0845812	0.0842352	0.0263665	0.0195382	0.0154614	0.0392471	0.0335663	0.0148079	0.00299483	0.0533466	0.0339519	0.0397478	0.0329119	0.0100656	0.0207119	0.0376734	0.00394953	0.004694	0.00428961	0.0239593	0.0427192	0.00558173	0.0070977	0.00289158	0.00429266	0.00617974	0.00241103	0.031883	0.0839919	0.0413379	0.0482831	0.0212449	9.53474e-09	0.0209534	0.0372681	0.0120914	0.00573676	0.00241417	0.00188706	0.0632489	0.00386566	4.58175e-05	0.013533	0.0387698	0.0782177	0.0839836	0	0.0414342	0.0866382	0.0344297	0.0277981	0.0251509	9.32758e-08	9.81114e-09	0.0841147	0.0854913	9.69561e-08	0.00485954	0.0063764	
3.235	0.0105415	0	0.0129598	0.0129693	0.0151092	0	0.0184471	0.0559482	0.0237329	0.0239803	0.0380672	0.0485651	0.0147887	0.0312519	0.00335834	0.00857891	0.0104024	0.0831109	0.0634668	0.0147811	0.0842802	0.084426	0.0841387	0.0261296	0.0205505	0.0155146	0.0393063	0.0317481	0.0155368	0.00328421	0.0561876	0.0331797	0.0390038	0.0331986	0.0107725	0.0204498	0.0377341	0.00373749	0.00443678	0.00406594	0.0236874	0.0407948	0.0038083	0.00456932	0.00199487	0.00569858	0.00642563	0.00187415	0.0316004	0.083953	0.0418887	0.0487735	0.020608	0	0.0210698	0.0381066	0.0133564	0.00373413	0.00268072	0.00201452	0.0589286	0.00377905	6.62209e-06	0.0128485	0.0399988	0.078555	0.0840125	3.4286e-06	0.0415071	0.0865549	0.0333396	0.02547	0.0240283	0	0	0.0840563	0.0859407	0	0.00483195	0.00710768	
3.24	0.0107244	0	0.0122323	0.0120936	0.0142906	0	0.0175102	0.0575625	0.0234412	0.0236596	0.0381367	0.0487235	0.0154335	0.0322904	0.00274082	0.00805779	0.00969983	0.0829694	0.060573	0.0140354	0.0840889	0.0842716	0.0840469	0.0258754	0.0215927	0.0155891	0.0394064	0.0300708	0.0163014	0.00350782	0.0591287	0.0322825	0.0381806	0.033666	0.0114333	0.0200597	0.0378354	0.00355963	0.00423266	0.00389552	0.023265	0.0387861	0.00259459	0.00334744	0	0.00757079	0.00678137	9.30267e-07	0.0312447	0.0838918	0.0424673	0.0493284	0.020037	0	0.0211606	0.0387916	0.014659	0.00386411	0.00299057	0.0020008	0.0451929	0.00380083	0	0.0122124	0.04011	0.0788658	0.0840421	2.63121e-05	0.0409806	0.0864718	0.0322148	0.0234214	0.0230938	0	0.00245905	0.0839958	0.0863526	0	0.00483791	0.00796926	
3.245	0.0109853	0.00192027	0.0115642	0.0112637	0.0136055	0	0.0165352	0.0589981	0.0230504	0.0232311	0.0382329	0.0489467	0.0161315	0.0333775	0.00215061	0.00754414	0.00900824	0.0828285	0.0575725	0.0133244	0.0838976	0.0841205	0.083961	0.0256152	0.022665	0.0156831	0.0395462	0.0285595	0.0170925	0.00368255	0.0620843	0.0312742	0.0373013	0.0343084	0.0120443	0.0195476	0.0379756	0.00340698	0.00407595	0.00376346	0.0225253	0.0366863	0.00200506	0.00256226	0	0.00889744	0.00725776	0	0.0308181	0.083835	0.0430366	0.0499397	0.0195291	0	0.0212664	0.0392532	0.0160594	0.00396369	0.0032703	0.00206568	0.0309309	0.00389041	0	0.0116383	0.0392608	0.079202	0.0840717	0	0.0399597	0.0863331	0.0310649	0.0217081	0.0223712	0	0.00479877	0.0839344	0.0866789	0	0.00479777	0.00885658	
3.25	0.0113242	0.00222997	0.0109492	0.0104708	0.0130417	0	0.0155465	0.0602491	0.0225695	0.0227049	0.0383531	0.0492298	0.0168786	0.0345133	0.00201506	0.00704254	0.00833537	0.0826899	0.0545668	0.0126934	0.0837097	0.0839747	0.0838811	0.0253614	0.0237623	0.0157942	0.0397232	0.027237	0.0179008	0.00382068	0.0649772	0.0301762	0.0363907	0.0351158	0.0125995	0.0189241	0.0381512	0.00327661	0.00395665	0.0036566	0.0214557	0.0345092	0.00201323	0.00223477	0	0.009819	0.00787682	1.1662e-06	0.0303213	0.083783	0.0436201	0.0505981	0.0190909	0	0.0213597	0.0394328	0.0174796	0.0040694	0.00352753	0.0023004	0.0195386	0.00400446	0	0.0111579	0.0375892	0.0796311	0.0841005	2.32469e-06	0.0385301	0.0861473	0.0299055	0.02036	0.0218888	0	0.00660158	0.0838732	0.086883	1.83922e-08	0.00466898	0.00970232	
3.255	0.0117403	0.00241301	0.0103834	0.00970821	0.0125885	1.68866e-09	0.0145783	0.0613338	0.0220113	0.0220954	0.0384933	0.0495655	0.0176668	0.0357034	0.0016789	0.00655757	0.00769218	0.0825546	0.0516033	0.01211	0.0835278	0.0838356	0.083807	0.025127	0.0248773	0.015919	0.0399334	0.026105	0.018721	0.00392723	0.0677466	0.0290185	0.0354701	0.0360773	0.0130938	0.0182036	0.0383573	0.00316449	0.00386302	0.00356673	0.0201874	0.0322066	0.00193815	0.00216857	9.25103e-06	0.0109378	0.00866987	1.37674e-05	0.0297579	0.083732	0.0442218	0.0512932	0.0187328	1.94114e-10	0.0214068	0.0392883	0.0187433	0.00420891	0.00377022	0.0026989	0.0117664	0.00412818	0	0.0107881	0.035233	0.0801275	0.084128	7.26822e-05	0.0367749	0.0859243	0.0287572	0.0193941	0.0216864	0	0.00771517	0.0838133	0.0869674	1.87575e-07	0.00446421	0.0104846	
3.26	0.0122338	0.00258202	0.00986426	0.00897387	0.0122385	1.60507e-09	0.0136636	0.0622699	0.0213927	0.0214215	0.0386484	0.0499444	0.0184872	0.0369585	0	0.00609588	0.00708694	0.0824233	0.0487282	0.0115661	0.0833542	0.0837042	0.0837379	0.0249253	0.0260014	0.0160537	0.0401713	0.025148	0.0195531	0.00400081	0.0703495	0.0278353	0.0345559	0.0371816	0.0135246	0.0174044	0.0385874	0.00306367	0.00378397	0.00348677	0.0188675	0.0297061	0.00195625	0.00224259	3.64188e-06	0.0121096	0.00968732	4.42971e-07	0.029134	0.083623	0.0448201	0.0520161	0.0184683	1.59013e-10	0.021404	0.0388538	0.0196999	0.00445455	0.00401667	0.00314674	0.00747613	0.00425667	0	0.0105341	0.0323266	0.0806379	0.0841536	0	0.0347758	0.0856932	0.0276396	0.0188247	0.0218169	0	0.00777772	0.0837559	0.0869676	5.78189e-08	0.00423909	0.011221	
3.265	0.0128065	0.00289271	0.00939317	0.00827522	0.0119865	6.08798e-10	0.0128209	0.063091	0.0207327	0.0207041	0.0388128	0.0503552	0.0193328	0.0382854	1.57913e-07	0.00566197	0.00652628	0.0822964	0.0459792	0.0110513	0.0831904	0.083581	0.0836725	0.0247692	0.0271255	0.0161941	0.0404304	0.0243382	0.0204008	0.00403693	0.0727503	0.0266614	0.033661	0.0384139	0.0138911	0.0165524	0.0388343	0.00296443	0.00371052	0.00340921	0.0175845	0.0270168	0.00362127	0.00244823	6.92213e-07	0.0129183	0.0110041	0	0.0284575	0.0832601	0.0454113	0.0527607	0.0183137	6.05568e-11	0.0213557	0.0382114	0.0203477	0.00484741	0.00429029	0.00352491	0.00535462	0.00438192	5.36817e-05	0.010401	0.028998	0.081152	0.0841767	0	0.0325984	0.0854417	0.0265695	0.0186719	0.0223475	0	0.00680719	0.0837021	0.0869181	0	0.00401465	0.0119011	
3.27	0.0134654	0.00319501	0.00897686	0.00762365	0.0118293	0	0.0120564	0.0638312	0.0200526	0.0199663	0.0389807	0.0507847	0.0201991	0.0396797	0	0.00524931	0.00601958	0.0821737	0.04337	0.0105529	0.0830376	0.0834658	0.0836092	0.0246707	0.0282402	0.0163356	0.040703	0.023641	0.0212678	0.00403182	0.0749337	0.0255292	0.0327984	0.0397495	0.0141921	0.0156833	0.0390896	0.00285567	0.00363429	0.00332544	0.016377	0.0242217	0.0118574	0.00276416	0	0.0132453	0.0127096	0	0.0277376	0.0826028	0.0459882	0.0535245	0.018287	9.53109e-12	0.0212614	0.0374354	0.0207781	0.00536392	0.0045817	0.00385501	0.00438059	0.00449427	0.00358846	0.010398	0.0254188	0.0816757	0.0841969	5.73552e-06	0.0302933	0.0851804	0.0255584	0.0189855	0.0233547	0	0.00529511	0.083654	0.0868383	0	0.00379843	0.0125175	
3.275	0.0142224	0.00342633	0.00861736	0.00702661	0.0117642	0	0.0113701	0.0645212	0.0193749	0.0192325	0.039146	0.0512185	0.0210817	0.0411271	7.92063e-06	0.00485002	0.00557035	0.0807764	0.0409113	0.0100566	0.0828965	0.0833584	0.0835465	0.0246409	0.0293368	0.0164737	0.0409807	0.0230159	0.0221547	0.00398471	0.0768876	0.0244668	0.0319828	0.0411537	0.0144248	0.014842	0.039345	0.00272763	0.00354658	0.0032257	0.0152716	0.0214148	0.0231826	0.00310993	0	0.013224	0.0148993	0	0.0269849	0.0816942	0.0465432	0.054307	0.0184059	0	0.0211177	0.0365809	0.0210705	0.00597416	0.00487015	0.00420241	0.00398422	0.00458299	0.00792282	0.0105396	0.0218361	0.0822044	0.0842139	4.66937e-05	0.0279205	0.0849141	0.0246138	0.0198514	0.0249173	0	0.00374143	0.0836141	0.0867367	0	0.00360312	0.0130811	
3.28	0.0150999	0.00362082	0.00831732	0.00648933	0.0117883	0	0.0107614	0.0651976	0.0187225	0.0185272	0.0393032	0.0516422	0.0219725	0.0426066	2.9276e-06	0.00446986	0.00516994	0.0771729	0.0386044	0.00954828	0.0827674	0.0832582	0.0834827	0.0246896	0.030407	0.016604	0.0412545	0.0224192	0.0230609	0.00389778	0.0786099	0.0234971	0.0312307	0.0425825	0.0145862	0.014071	0.039592	0.00257334	0.00343769	0.00309836	0.0142917	0.0186404	0.0328469	0.00341071	0	0.0130503	0.0176541	0	0.0262104	0.0805693	0.0470691	0.0551058	0.0186846	0	0.0209217	0.0356851	0.0212859	0.00667411	0.00513455	0.00459086	0.0038042	0.00463793	0.00766038	0.0108457	0.0185356	0.0827268	0.0842275	0	0.0255616	0.0846429	0.0237406	0.0213596	0.0270905	0	0.00209286	0.0835819	0.0866181	6.96966e-08	0.00350716	0.0136964	
3.285	0.0161077	0.00380067	0.00807687	0.0060187	0.0118983	0	0.0102306	0.0658956	0.0181182	0.017875	0.0394474	0.0520425	0.0228589	0.0440924	6.64036e-07	0.00412633	0.00481232	0.0717892	0.0364413	0.00901631	0.0826503	0.0831646	0.0828169	0.0248253	0.0314446	0.0167224	0.0415154	0.0218067	0.0239844	0.00377282	0.0801041	0.0226375	0.0305598	0.0439845	0.0146737	0.0133996	0.0398226	0.0023938	0.00329523	0.00292884	0.013445	0.015872	0.0368821	0.00366603	0	0.0128657	0.0209889	0	0.0254253	0.0792637	0.0475593	0.0559165	0.0191325	1.05421e-12	0.0206716	0.034766	0.0214726	0.00743125	0.00536114	0.00498566	0.00367823	0.00464962	0.00746175	0.011345	0.015729	0.0832336	0.0842375	0	0.0233118	0.0843906	0.022941	0.0235777	0.0298126	0	0.0007549	0.0835574	0.0864875	1.35042e-07	0.00340745	0.0142959	
3.29	0.0172396	0.00397783	0.00789437	0.00561535	0.0120901	0	0.00977804	0.0666416	0.0175849	0.0173011	0.0395746	0.0524065	0.0237242	0.0455539	0	0.00382667	0.00450307	0.0651935	0.0343823	0.00844944	0.0825454	0.0830775	0.0799882	0.0250552	0.0324455	0.0168251	0.0417544	0.021136	0.0249238	0.00361526	0.0813793	0.0218995	0.0299847	0.0453032	0.0146863	0.0128458	0.0400295	0.0022058	0.00310231	0.00270796	0.0127376	0.0131794	0.0344705	0.00389496	0	0.0127549	0.0248412	0	0.0246405	0.0778075	0.0480086	0.0567311	0.019752	2.51778e-12	0.0203638	0.0338229	0.0216348	0.00820414	0.00554148	0.00535181	0.00354338	0.0046171	0.00779465	0.0120745	0.0135206	0.0837177	0.084244	0	0.0212599	0.0841898	0.0222147	0.0265339	0.0328261	0	0	0.0835409	0.0863501	1.29881e-07	0.00325781	0.0148478	
3.295	0.0184869	0.00416204	0.00776691	0.00527088	0.0123594	0	0.00940521	0.0674614	0.0171449	0.0168305	0.0396815	0.052722	0.0245495	0.0469576	0	0.00353383	0.00424683	0.058042	0.032331	0.00783863	0.0824528	0.0829966	0.0753117	0.0253853	0.0334104	0.0169087	0.0419628	0.0203674	0.0258775	0.00343231	0.0824455	0.0212897	0.0295152	0.0464805	0.0146246	0.0124224	0.0402065	0.00205102	0.00283663	0.00244862	0.012184	0.0106642	0.0279901	0.00411988	0	0.0127716	0.0290592	0	0.0238661	0.0762388	0.0484133	0.0575396	0.0205378	2.81816e-12	0.0199925	0.0328409	0.0217536	0.00895829	0.0056673	0.00567592	0.00336359	0.00465329	0.00809793	0.0130775	0.0118388	0.0841721	0.0842472	7.81734e-06	0.0194618	0.0839428	0.0215614	0.0301639	0.035681	0	0	0.0835325	0.0862104	0.00211361	0.00696443	0.0154823	
3.3	0.0198597	0.00436242	0.00769009	0.00497891	0.0127055	0	0.00911294	0.0683782	0.0168183	0.016485	0.0397657	0.0529779	0.0253143	0.0482677	0	0.00318833	0.00403896	0.0511482	0.0302146	0.00717564	0.0823725	0.082922	0.0693548	0.02582	0.0343485	0.0169703	0.0421325	0.0194663	0.026844	0.00322017	0.0833109	0.0208099	0.0291555	0.0474592	0.0144909	0.0121407	0.0403479	0.00200312	0.00250726	0.00219273	0.0118028	0.00828521	0.0214269	0.0043424	0	0.0129523	0.0332697	0	0.0231111	0.0745945	0.0487713	0.0583325	0.0214758	2.69742e-12	0.0195509	0.0318091	0.0218149	0.00965766	0.00573089	0.00594937	0.00310272	0.00478332	0.00814745	0.0144007	0.0105088	0.0845909	0.0842473	0	0.01786	0.0837202	0.0209811	0.034228	0.0379253	0	1.22078e-05	0.0835325	0.0860717	0.00402883	0.0138002	0.0164741	
3.305	0.0214009	0.00466152	0.00765902	0.0047369	0.0131219	9.606e-10	0.00889902	0.0694026	0.0166214	0.0162819	0.0398254	0.0531647	0.0259971	0.0494469	0	0.00274256	0.00386973	0.0451723	0.0280432	0.00645457	0.082305	0.0828544	0.0625892	0.0263625	0.0352768	0.0170072	0.0422561	0.0184017	0.0278216	0.00295948	0.083988	0.0204572	0.028906	0.0481859	0.0142895	0.0120111	0.0404491	0.00199948	0.00218722	0.00202041	0.0116132	0.00600747	0.0160155	0.00454706	0	0.0133228	0.0360023	0	0.0223832	0.0729047	0.0490825	0.0591018	0.0225396	2.53104e-12	0.0190329	0.0307269	0.0218125	0.0102714	0.00572631	0.00616183	0.00271843	0.00496161	0.00804012	0.0160833	0.00939144	0.0849704	0.0842444	1.0096e-11	0.0163837	0.0835154	0.0204813	0.0380581	0.0392522	2.85766e-09	8.8249e-06	0.0835413	0.0859367	0.00469064	0.0201223	0.0176489	
3.31	0.0231644	0.00511477	0.00766788	0.00454444	0.0135999	0	0.00875754	0.0705374	0.016566	0.0162329	0.0398589	0.0532739	0.0265763	0.0504588	0	0.00227965	0.00372147	0.0401776	0.0258692	0.00568318	0.0822505	0.0827945	0.0555919	0.0270136	0.0362152	0.0170169	0.0423268	0.0171463	0.0288086	0.0026359	0.0844816	0.0202252	0.028763	0.0486129	0.0140263	0.012042	0.0405059	0.00155328	0.00200534	0.00201964	0.0116256	0.00389062	0.0118305	0.0047202	0	0.0139071	0.0367937	0	0.0216887	0.0712047	0.0493483	0.0598418	0.0236909	2.41029e-12	0.0184373	0.0296037	0.0217477	0.0107746	0.00565035	0.00630314	0.00227447	0.00513989	0.00783512	0.0181175	0.0084172	0.0853087	0.084239	1.30421e-05	0.0151043	0.083326	0.0200809	0.0395957	0.0397845	2.94665e-09	3.40514e-06	0.083559	0.0858071	0.00508412	0.0223371	0.0186143	
3.315	0.0251901	0.00570475	0.0077106	0.00439571	0.0141511	0	0.00867869	0.0717763	0.01666	0.0163454	0.0398646	0.0532979	0.0270294	0.0512656	0	0.00201384	0.00357919	0.0360515	0.0237315	0.00484317	0.0811487	0.0827433	0.0490736	0.0277715	0.0371854	0.0169971	0.0423388	0.0156866	0.0298022	0.00229855	0.0847992	0.0201031	0.0287191	0.0486995	0.0137095	0.0122385	0.0405145	0.000317589	0.00201382	0.00183965	0.0118422	0.00201003	0.00896479	0.00485171	0	0.0147435	0.0367909	0	0.0210323	0.0695195	0.0495717	0.060549	0.0248844	2.3239e-12	0.0178454	0.0284691	0.0216275	0.0111485	0.00550252	0.00636618	0.00200446	0.00527684	0.0075266	0.020414	0.00743597	0.0856055	0.0842315	0	0.0140689	0.0831558	0.019811	0.0394692	0.0399396	2.30394e-09	6.59247e-08	0.0835859	0.0856842	0.00539094	0.0207371	0.0192572	
3.32	0.0274948	0.0064304	0.00778079	0.0042822	0.0147604	0	0.00865103	0.0731022	0.0169079	0.0166233	0.0398403	0.0532296	0.0273351	0.0518304	0	0.00201317	0.00343136	0.0325044	0.0216498	0.00396883	0.0749896	0.0824081	0.0433969	0.028632	0.0382013	0.0169454	0.0422871	0.0140531	0.0307987	0.00205005	0.0849468	0.0200777	0.0287646	0.0484134	0.0133482	0.0126021	0.0404708	0	0.00151007	0.000861671	0.0122591	0	0.00707926	0.00493531	0	0.0158929	0.0367139	0	0.0204172	0.0678754	0.0497564	0.0612207	0.026066	2.24937e-12	0.0171903	0.0273549	0.0214626	0.0113787	0.00528495	0.00634818	0.00194253	0.00534029	0.00710639	0.0228109	0.00650508	0.0858612	0.084222	0	0.0132717	0.0830092	0.019702	0.039084	0.0399897	1.93172e-09	0	0.0836215	0.0855689	0.00562621	0.0190627	0.01965	
3.325	0.0300607	0.00728912	0.00787171	0.00419499	0.0154327	0	0.00866095	0.0744931	0.0173113	0.0170677	0.0397831	0.053062	0.027472	0.0521185	0	0.00137174	0.00326741	0.0291468	0.0196197	0.00303192	0.0657464	0.0776525	0.0385696	0.0295854	0.0392762	0.0168596	0.0421674	0.0123083	0.031793	0.00201384	0.0849535	0.0201323	0.0288864	0.0477316	0.0129531	0.013133	0.0403705	0	8.0028e-05	0	0.0127095	0	0.00589894	0.0050321	0.0103838	0.0167698	0.0366269	0.00307598	0.0198457	0.0662968	0.0499071	0.0618535	0.0271819	2.17584e-12	0.0164576	0.0262364	0.0212563	0.0114563	0.00500078	0.00625068	0.000202996	0.00530575	0.00658438	0.0251161	0.00573052	0.0860774	0.0842112	0	0.0126753	0.0828881	0.0197973	0.0390159	0.0400417	1.193e-09	0	0.0836639	0.0854616	0.00575384	0.0182375	0.019873	
3.33	0.0328041	0.00825099	0.00797696	0.00412572	0.0161576	0	0.00869433	0.0759072	0.0178687	0.017676	0.0396892	0.0527886	0.0274207	0.0520976	0	6.47428e-08	0.00307575	0.0259822	0.0176071	0.00200056	0.0559593	0.0691128	0.0344852	0.0306174	0.0404211	0.0167372	0.0419765	0.010481	0.0327797	0.00190621	0.0849444	0.0202488	0.0290694	0.0466428	0.0125353	0.0138327	0.040209	3.20831e-06	0	0	0.0119112	1.13498e-05	0.00526071	0.00525482	0.0163553	0.0164571	0.0364397	0.00766309	0.0193193	0.0647971	0.0500283	0.0624443	0.0281807	2.10044e-12	0.0156843	0.0251404	0.0210947	0.0116568	0.00465734	0.00607938	8.89566e-08	0.00515827	0.00598449	0.0271213	0.00511593	0.0862563	0.0841991	6.03534e-06	0.0122492	0.0827956	0.0201457	0.0393485	0.0401528	4.05195e-10	0	0.0837094	0.0853626	0.00578647	0.0185243	0.0199699	
3.335	0.0356334	0.0092911	0.00809	0.00406691	0.0169209	0.00364021	0.0087365	0.0773093	0.0185762	0.0184432	0.039554	0.052403	0.0271632	0.0517397	0	0	0.00284446	0.0231207	0.0156121	0	0.0475932	0.0592507	0.0307254	0.0317116	0.0416473	0.0165761	0.0417122	0.0085498	0.0337561	0.00119988	0.0849367	0.0204071	0.0292959	0.0451492	0.0121065	0.0147086	0.0399816	2.88424e-06	0	0	0.00980363	3.86209e-05	0.00501346	0.00561375	0.0137559	0.0147923	0.0361463	0.00942594	0.0188382	0.0633923	0.0501244	0.0629906	0.0290151	2.02413e-12	0.0148884	0.024072	0.0210406	0.0130616	0.00428494	0.00584502	0	0.00489263	0.00533108	0.0286425	0.00462206	0.0864009	0.0841863	5.41525e-06	0.0119773	0.0827327	0.0208023	0.0400702	0.0403652	0	0	0.0837523	0.0852717	0.00574975	0.0195277	0.019955	
3.34	0.0387347	0.0103758	0.00820423	0.0040125	0.0177054	0.00433371	0.00877427	0.0786499	0.0194296	0.0193642	0.0393723	0.0519005	0.0266866	0.0510255	0	0	0.00258312	0.0205713	0.0137703	0	0.0412118	0.0502054	0.0270529	0.0328417	0.0429647	0.0163746	0.0413737	0.00648921	0.0347261	0.000129337	0.0849284	0.0205874	0.0295477	0.0432704	0.0116781	0.0157711	0.0396835	1.10254e-06	5.63693e-06	5.74046e-06	0.00721196	1.34982e-05	0.00503036	0.00606192	0.0107711	0.0122279	0.0357958	0.0102473	0.0184028	0.0620931	0.0501994	0.0634904	0.0296401	1.94752e-12	0.0141875	0.0230791	0.0210735	0.0119999	0.00398259	0.00555565	6.95462e-06	0.00813198	0.00462293	0.0295607	0.00425296	0.0865143	0.0841729	2.41813e-06	0.0118585	0.0827032	0.0202203	0.0412237	0.0407001	0	0	0.0837869	0.0851888	0.00566702	0.0208374	0.0198426	
3.345	0.0423865	0.0114822	0.0083137	0.00395688	0.0184987	0.00346421	0.00879274	0.0798828	0.0204294	0.020441	0.0391389	0.0512778	0.0259823	0.0499431	0	6.08112e-06	0.00232238	0.0182669	0.0121473	0	0.0364071	0.0431317	0.0236296	0.033984	0.0443833	0.0161318	0.0409617	0.00430244	0.0357007	0	0.0849194	0.0207668	0.0298034	0.0410457	0.0112625	0.0170183	0.0393108	5.0027e-09	2.7682e-06	1.54725e-06	0.00490519	5.65619e-06	0.00520918	0.00656372	0.00849921	0.00939811	0.0354262	0.0110481	0.0180121	0.0609063	0.0502567	0.0639433	0.0300352	1.87132e-12	0.0136154	0.0221966	0.0211637	0.0106444	0.00376992	0.00522373	4.29571e-06	0.00527515	0.0107293	0.0298994	0.00398567	0.0866003	0.0841591	0	0.0118849	0.0827039	0.0159329	0.0428246	0.041168	5.28557e-10	0	0.0837853	0.0851135	0.00555329	0.0224658	0.0196501	
3.35	0.0467323	0.0125951	0.00841217	0.00389581	0.0192897	0.00373825	0.00877953	0.0809684	0.0215807	0.0216823	0.0388491	0.0505331	0.0250513	0.0481384	0	2.44488e-06	0.00210921	0.0161565	0.0106854	2.15487e-05	0.0326181	0.0377805	0.0205419	0.0351271	0.0459106	0.0158478	0.040479	0.00200304	0.0366895	0	0.0849098	0.020924	0.0300429	0.0385376	0.0108723	0.0184257	0.038861	0	8.91727e-07	2.59763e-07	0.00330235	1.37311e-06	0.0054727	0.00708078	0.00668711	0.00683714	0.0351201	0.012007	0.0176658	0.0598341	0.050299	0.0643496	0.0302358	1.79566e-12	0.0131304	0.0214282	0.0212831	0.0100701	0.00366791	0.00513291	5.13217e-06	0.00363334	0.0123749	0.0298243	0.00378114	0.0866626	0.0841452	0	0.0120527	0.0827364	0.00995446	0.0448416	0.0417711	2.06701e-09	0	0.0835658	0.0850454	0.00542036	0.0242158	0.0193963	
3.355	0.0518504	0.0137104	0.00849426	0.00382508	0.0200716	0.00367492	0.00872165	0.08188	0.0228897	0.0230993	0.0384992	0.0496687	0.0239027	0.0459209	0	5.44368e-07	0.0020026	0.0143302	0.00932202	8.15458e-06	0.0292674	0.0336527	0.0177119	0.0362701	0.0475534	0.0155248	0.0399303	5.0371e-07	0.0377004	2.25908e-06	0.0848992	0.0210363	0.0302447	0.035828	0.0105206	0.0199809	0.0383338	0	0	0	0.00201712	0	0.00577161	0.00758103	0.00536205	0.00487399	0.0349144	0.012949	0.0173633	0.0588807	0.0503286	0.0647099	0.0303277	1.72085e-12	0.0126904	0.0207218	0.0214132	0.00959018	0.00361064	0.00585698	3.53319e-07	0.00308347	0.0120071	0.0294834	0.0035901	0.0867046	0.0841313	0	0.0123523	0.0827948	0.00556214	0.0473328	0.042512	4.03726e-09	0	0.0831557	0.0849839	0.00528226	0.0257778	0.0191021	
3.36	0.0577418	0.0148264	0.0085546	0.00374077	0.0208358	0.00357134	0.00860693	0.0825947	0.0243571	0.0246956	0.038088	0.0486921	0.0225557	0.0434779	0	0	0.0020215	0.0128553	0.00802433	1.52404e-06	0.0263176	0.030072	0.0151006	0.0374079	0.0493154	0.0151668	0.0393229	0	0.0387384	3.31946e-06	0.0848878	0.0210813	0.030388	0.0329667	0.0102217	0.021713	0.037732	0	0	0	0.00148146	0	0.00607285	0.00804145	0.00441909	0.00361179	0.0347835	0.0137601	0.0171034	0.0580436	0.050347	0.0650253	0.0303845	1.64686e-12	0.0122634	0.0200221	0.0215311	0.00906959	0.00352076	0.00686918	0	0.00236823	0.0117791	0.0289421	0.00340037	0.0867295	0.0841174	0	0.012781	0.0828755	0.00375659	0.0504179	0.0433898	5.2393e-09	0	0.0826716	0.0849286	0.00515601	0.0267982	0.0187877	
3.365	0.0641043	0.0159511	0.00858868	0.00363828	0.0215684	0.00345016	0.0084242	0.0831138	0.0259741	0.0264634	0.0376166	0.047614	0.021037	0.0408595	0	0	0.0018493	0.0116629	0.00680109	0	0.0238449	0.0268663	0.0129252	0.0385215	0.0512001	0.0147801	0.0386663	1.44109e-05	0.0397983	6.95523e-07	0.0848755	0.0210379	0.0304535	0.0299282	0.0099899	0.0236654	0.0370616	0	0	0	3.62489e-07	0	0.00635272	0.00844552	0.00381301	0.00256648	0.0346898	0.0144166	0.0168849	0.057323	0.0503554	0.0652968	0.0304241	1.57386e-12	0.0118261	0.0192964	0.0215943	0.00856059	0.00342704	0.009067	0	0.00200043	0.010891	0.0282433	0.0032364	0.0867408	0.0841037	0	0.0133585	0.0829721	0.0032621	0.0541324	0.0444027	5.6381e-09	2.41091e-10	0.082183	0.0848788	0.00505861	0.0273645	0.0184667	
3.37	0.0702237	0.0170767	0.00859248	0.00351141	0.0222529	0.00330148	0.00816317	0.0834531	0.0277206	0.0283792	0.0370895	0.0464511	0.0193736	0.0381642	0	0	0.00104131	0.0106779	0.00569151	0	0.0218271	0.0241476	0.0111863	0.0395787	0.0532055	0.0143728	0.0379722	3.44776e-05	0.0408756	0	0.0848622	0.0208867	0.030423	0.0267364	0.00983933	0.0258502	0.0363323	0	0	0	0	0	0.00659218	0.00878155	0.00334911	0.00201471	0.0346081	0.0149363	0.0167063	0.0567161	0.0503547	0.0655256	0.0304535	1.50185e-12	0.0113674	0.0185245	0.0215617	0.00809249	0.00333794	0.0132067	0	0.00192525	0.00756318	0.0274276	0.00314209	0.0867409	0.0840905	0	0.0141296	0.0830778	0.00319836	0.0584152	0.0455495	5.57584e-09	0	0.0817248	0.0848342	0.00499753	0.0274549	0.0181399	
3.375	0.0755488	0.018178	0.00856273	0.00335104	0.0228713	0.00311497	0.00781502	0.0836402	0.0295619	0.0304001	0.0365141	0.0452251	0.0175846	0.0354837	0	0	0	0.00985948	0.00469744	0	0.0202109	0.0219185	0.00974207	0.0405408	0.0553254	0.0139542	0.0372538	9.64136e-06	0.0419639	0	0.0848479	0.0206103	0.0302809	0.0235125	0.00978218	0.0282386	0.035556	0	0	0	0	0	0.00677772	0.00904203	0.00283618	0.0020071	0.0345257	0.0153436	0.0165658	0.0562176	0.0503455	0.0657127	0.0304908	0	0.0108905	0.0176844	0.0214043	0.00768855	0.00325456	0.0187254	2.96263e-07	0.0010968	0.00338503	0.0265262	0.00315772	0.0867325	0.0840789	0	0.0151532	0.0831859	0.0033895	0.0631663	0.0468585	5.54915e-09	0	0.0813213	0.0847942	0.00496556	0.0271959	0.0177928	
3.38	0.0797528	0.0192369	0.00849715	0.00314459	0.0234054	0.00288384	0.00737234	0.0837117	0.0314478	0.0324609	0.0359011	0.0439617	0.0156954	0.0328504	0	0	0	0.00918485	0.00388806	0	0.0189485	0.0201242	0.00850791	0.0413672	0.0575476	0.0135336	0.0365256	0	0.0430552	0	0.0848324	0.0201949	0.0300146	0.0203767	0.00982787	0.0307608	0.034746	0	0	0	4.78245e-06	0	0.0069007	0.00922315	0.00233533	0.00161816	0.0344379	0.0156707	0.0164614	0.055823	0.0503281	0.0658596	0.0305578	3.05478e-07	0.0104207	0.0167769	0.0211052	0.00736887	0.00318404	0.0243071	1.40744e-05	9.24925e-05	0.00120495	0.0255613	0.00333509	0.0867177	0.0840695	0	0.016482	0.0832901	0.0036765	0.0681751	0.048381	3.75823e-09	0	0.0809897	0.0847584	0.00494494	0.0266427	0.017402	
3.385	0.0826933	0.0202461	0.00839445	0.00287625	0.0238391	0.00261821	0.00682912	0.0837053	0.0333169	0.0344929	0.0352626	0.0426891	0.0137911	0.0302358	0	0	0	0.00865012	0.00322858	0	0.0180081	0.0187099	0.00746651	0.0420174	0.0598344	0.0131208	0.0358017	0	0.0441408	0	0.0848156	0.0196296	0.0296111	0.0173656	0.00998215	0.0333036	0.0339159	0	0	0	1.76459e-06	0	0.0069561	0.00932354	0.00203542	0.000748688	0.034346	0.0159508	0.016391	0.0555275	0.0503028	0.0659676	0.0306756	2.12697e-06	0.00999513	0.0158492	0.0206645	0.00714711	0.00313576	0.0307208	0	0	0	0.0245496	0.003686	0.0866981	0.0840621	0	0.0181351	0.0833973	0.00399535	0.0731844	0.0501552	8.13459e-09	0	0.0807401	0.0847265	0.004939	0.0258533	0.0169681	
3.39	0.084408	0.0211979	0.00825449	0.00255924	0.0241597	0.00235484	0.00618463	0.0836484	0.0351258	0.0364869	0.0346124	0.0414366	0.0119733	0.0276632	0	0	4.13983e-06	0.00825969	0.00248874	0	0.0173699	0.0176403	0.00663373	0.0424549	0.0621422	0.0127245	0.0350948	0	0.045211	6.65352e-05	0.0847971	0.0189059	0.0290622	0.0145132	0.0102466	0.0357819	0.0330802	0	0	0	0	0	0.0069414	0.00934355	0.00202103	0	0.0342706	0.0161891	0.0163521	0.055326	0.0502698	0.0660388	0.0308636	0	0.00965173	0.0149741	0.020092	0.00702998	0.0031155	0.0376932	0	0.000221211	0	0.0235042	0.00422321	0.0866751	0.0840567	0	0.020094	0.0835129	0.00438175	0.0779665	0.0522035	5.45212e-09	0	0.0805754	0.0846983	0.00498098	0.0249065	0.0165258	
3.395	0.0850584	0.0220758	0.00807846	0.00225702	0.0243584	0.00213842	0.00544599	0.0835488	0.0368836	0.0384863	0.0339648	0.0402328	0.0102689	0.0252141	0	0	1.76482e-06	0.00801372	0.00207354	0	0.0170151	0.0168971	0.00602378	0.0426503	0.0644319	0.0123529	0.0344165	0	0.0462563	0.00201506	0.0847764	0.0180161	0.0283639	0.0119946	0.010619	0.0382647	0.0322546	0	0	0	0	0	0.00685613	0.00928468	0.00173638	0	0.0342461	0.0163645	0.016342	0.0552122	0.0502294	0.0660751	0.0311408	0	0.00941411	0.0142117	0.0193682	0.00701727	0.00312352	0.0441881	0	0.00140047	0.00070048	0.0224333	0.00379816	0.0866501	0.084053	0	0.0215709	0.0835528	0.00483125	0.0822641	0.0545206	3.75078e-09	0	0.0804941	0.0846736	0.00509921	0.0238902	0.0161095	
3.4	0.0850109	0.0228595	0.00786878	0.00204886	0.0244304	0.00201459	0.00458252	0.0833859	0.0386092	0.0404908	0.0333343	0.0391032	0.00864726	0.0229589	0	0	4.77111e-07	0.00790711	0.0020008	0	0.0169205	0.0164602	0.00563068	0.0425839	0.066666	0.0120125	0.0337773	0	0.047266	0.00346753	0.0847531	0.016953	0.0275176	0.00989281	0.0110933	0.0408148	0.0314566	0	0	0	0	0	0.00670116	0.00914875	0.000396371	0	0.0342982	0.0164576	0.0163576	0.0551788	0.0501822	0.0660793	0.0315239	5.99148e-07	0.00924527	0.0135481	0.0185174	0.0071027	0.00315503	0.046875	1.53537e-05	0.00198141	0.00165641	0.0213405	0.0023019	0.0866241	0.0840511	0	0.0166852	0.0836038	0.0053087	0.0856568	0.0570782	1.84944e-09	0	0.080491	0.0846524	0.00522775	0.022876	0.0157094	
3.405	0.0848946	0.0235295	0.00762925	0.00200672	0.0243766	0.00201316	0.00370189	0.083107	0.0402815	0.0424519	0.0327356	0.0380698	0.00707724	0.0209275	0	0	0	0.00793136	0.00201457	0	0.0170593	0.0163005	0.00543185	0.0422475	0.0688082	0.0117093	0.033187	0	0.0482297	0.00439828	0.0847267	0.0157184	0.0265301	0.00815657	0.0116615	0.0433848	0.0307049	0	0	0	0	0	0.00647854	0.00893764	0	3.77672e-06	0.0344318	0.0164632	0.0163952	0.0552169	0.0501293	0.0660547	0.0320227	5.84119e-06	0.00910336	0.012948	0.0175604	0.00727558	0.00320164	0.0477918	0	0.00200013	0.00201959	0.020222	0.00201289	0.086598	0.084051	0	0.00668763	0.0836606	0.0058009	0.0871425	0.0598182	1.7382e-09	0	0.0805572	0.0846346	0.0051986	0.0216993	0.0151041	
3.41	0.0847859	0.0240711	0.00736472	0.0019922	0.0242019	0.00198938	0.00245884	0.0826288	0.0418556	0.0443092	0.0321826	0.0371494	0.0055658	0.0191162	0	0	0	0.00807338	0.00201146	0	0.0174053	0.0163822	0.00540668	0.0416453	0.0708284	0.0114478	0.0326546	0	0.0491361	0.00528221	0.0846965	0.0143409	0.0254124	0.00671953	0.0123142	0.0458805	0.0300185	0	0	0	0	0	0.00948024	0.00913715	0	7.23053e-07	0.0346293	0.0163534	0.0164503	0.0553165	0.0500723	0.0660057	0.0326336	0	0.00901942	0.0124269	0.016514	0.00752252	0.00325327	0.0481374	0	0.00217879	0.00201715	0.0190676	0.00200763	0.0865729	0.0840527	0	0.00201903	0.0837155	0.00632026	0.0869243	0.0626561	2.54335e-09	0	0.0806807	0.0846206	0.00507955	0.0203309	0.0143346	
3.415	0.0846788	0.0244749	0.00708117	0.00164665	0.0239159	0.00169572	0.00180616	0.0818418	0.0432866	0.0460056	0.0316881	0.0363537	0.00411404	0.0175037	1.28405e-09	0	0	0.00831875	0.0020003	0	0.0179346	0.0166672	0.00552964	0.0407938	0.0726953	0.0112317	0.0321881	0	0.0499739	0.00616247	0.0846624	0.0128691	0.0241766	0.00556601	0.013043	0.048206	0.0294131	0	0	0	0	0	0.0151602	0.0112546	3.02926e-06	2.22257e-07	0.0348367	0.0161555	0.0165181	0.0554653	0.0500127	0.0659373	0.0333362	3.3456e-08	0.00903346	0.0120042	0.0154086	0.00782919	0.00329984	0.0474239	0	0.0026362	0.00227184	0.0178586	0.00200001	0.0865499	0.0840564	0	0.00194949	0.0837829	0.00686995	0.0863553	0.0654503	1.88037e-09	0	0.0808468	0.0846106	0.00493512	0.0188853	0.0135034	
3.42	0.084576	0.0247362	0.00678538	0.000859604	0.0235315	0.000968049	0	0.0806199	0.0445355	0.0474915	0.0312632	0.0356891	0.00268188	0.0160795	8.5967e-10	0	0	0.00865404	0.00206499	0	0.0186272	0.0171229	0.00576857	0.0397211	0.0743917	0.0110631	0.031794	0	0.0507351	0.00718095	0.0846241	0.0113308	0.0228428	0.00467933	0.0138415	0.050273	0.0289006	0	0	0	0	0	0.0206546	0.0142483	3.22923e-06	0	0.0349843	0.0159651	0.0165926	0.0556488	0.0499529	0.0658558	0.0341016	4.53103e-06	0.00911845	0.0116591	0.0142977	0.00818071	0.0136169	0.0461349	0	0.00314143	0.00268711	0.0165782	0.00216434	0.0865304	0.0840622	0	0.00202238	0.0838696	0.00744193	0.0859536	0.0680171	8.51407e-10	0	0.0810385	0.0846048	0.00481571	0.0174954	0.0126971	
3.425	0.084479	0.0248552	0.00648577	0	0.0230646	0	0	0.0788472	0.0455713	0.0487273	0.0309165	0.0351583	0.00187147	0.0146058	1.84872e-10	0	0	0.00906711	0.00227759	0	0.0194693	0.0177227	0.00609525	0.0384633	0.0758924	0.010943	0.0314769	0	0.0514054	0.00835486	0.0845815	0.00971541	0.0214292	0.00410576	0.0147068	0.0520115	0.0284888	0	0.00369611	0.00296049	0	0	0.024315	0.0168868	1.49987e-06	0	0.0350053	0.0157879	0.0166673	0.0558501	0.0498957	0.0657681	0.0349012	0	0.00921445	0.0113508	0.0132362	0.00856237	0.0216042	0.04418	9.09749e-05	0.00353044	0.00308534	0.0153714	0.00251954	0.0865155	0.0840703	0	0.0022041	0.0839771	0.00803127	0.0856487	0.0702191	7.48758e-10	5.65092e-12	0.0812368	0.0846035	0.0047503	0.0162816	0.0119696	
3.43	0.0843883	0.0248356	0.00619111	0	0.0225322	3.51075e-08	6.23499e-06	0.0764112	0.0463723	0.0496839	0.0306537	0.0347616	0	0.0127959	0	0	0	0.00954707	0.00262742	0	0.0204586	0.0184459	0.00649055	0.037062	0.0771929	0.0108711	0.0312394	0	0.0519741	0.0096673	0.0845351	0.00799347	0.0199497	0.00384714	0.0156355	0.0533706	0.0281818	0.00399607	0.00476652	0.00453051	0	0	0.0259752	0.0188647	2.89872e-07	0	0.0348401	0.0156421	0.0167349	0.0560499	0.0498448	0.0656824	0.0357132	0	0.00927719	0.0110507	0.0122518	0.00895902	0.0268573	0.0417968	0	0.00384515	0.00337743	0.0144377	0.00292261	0.0865067	0.0840809	0	0.00237784	0.0841202	0.00863421	0.0853664	0.0719657	6.81141e-11	0	0.0814221	0.0846071	0.00478476	0.0153663	0.0113885	
3.435	0.0843046	0.0246844	0.00591007	0	0.0219525	0	1.5815e-05	0.0732465	0.0469256	0.0503471	0.0304771	0.0344975	0	0.0113988	0	0	0	0.0100846	0.0030302	0	0.0216023	0.019281	0.00693979	0.0355554	0.078282	0.010846	0.031082	0	0.0524328	0.0110775	0.0844853	0.00615327	0.0184094	0.00382169	0.0166171	0.0543159	0.0279805	0.00515725	0.00504372	0.00477563	0	0	0.0262402	0.0201132	0	0	0.0344382	0.0155691	0.0167876	0.0562268	0.0498042	0.0656075	0.0365226	6.77933e-07	0.00929356	0.0107537	0.0113016	0.00935582	0.0280989	0.0391451	0.0113909	0.00415274	0.00358656	0.0138717	0.00325762	0.0865059	0.0840941	9.76868e-12	0.00264771	0.0842985	0.00924458	0.0851	0.0732054	0	0	0.0815741	0.0846158	0.00496537	0.0148456	0.0110256	
3.44	0.084228	0.0244105	0.00564929	3.67358e-06	0.0213429	4.47439e-06	5.2128e-06	0.0693378	0.0472273	0.0507113	0.0303867	0.0343629	7.88478e-06	0.0101662	0	0	0	0.0106728	0.00338157	0	0.0229107	0.0202264	0.00743078	0.0339434	0.0791641	0.0108653	0.0310033	0	0.0527701	0.0125452	0.0844328	0.0042098	0.0168084	0.00399653	0.0176307	0.0548369	0.0278829	0.00535912	0.00554445	0.00519602	0	0	0.025739	0.0208349	0	0	0.03377	0.0156298	0.0168171	0.056358	0.0497777	0.0655531	0.0373202	1.97436e-06	0.00927103	0.010466	0.0103684	0.00973875	0.0303544	0.0363594	0.00442107	0.00447686	0.00373454	0.0136556	0.00350776	0.0865146	0.0841101	0	0.00292553	0.084492	0.00985609	0.0848462	0.07393	0	1.47616e-07	0.0816729	0.0846296	0.00528236	0.0147305	0.0109017	
3.445	0.0841583	0.0240242	0.00541316	1.25304e-06	0.0207188	1.36888e-06	0	0.0647428	0.0472813	0.05078	0.0303797	0.0343524	1.56333e-05	0.00898201	0	0	0	0.0113078	0.00368094	0	0.0243919	0.0212897	0.0079585	0.0322013	0.0798406	0.0109254	0.0310002	0	0.0529752	0.0140419	0.0843785	0.00206104	0.0151881	0.00437264	0.0186534	0.0549375	0.0278847	0.0058445	0.00626702	0.00587067	0	0	0.0248986	0.0211449	0	0	0.0328337	0.015801	0.0168147	0.0564196	0.0497692	0.065529	0.0381018	0	0.00922131	0.0101914	0.00945269	0.0100945	0.0329767	0.0335447	0.00425636	0.00479471	0.00382854	0.0137205	0.00370159	0.0865344	0.0841289	1.08029e-10	0.00313488	0.0846919	0.0104634	0.0845874	0.0741513	0	5.39085e-07	0.081699	0.0846484	0.00569559	0.0149694	0.0110014	
3.45	0.0840951	0.0235363	0.00520669	2.98496e-07	0.0200944	6.15219e-07	0	0.0596263	0.0470984	0.0505658	0.0304514	0.0344586	3.59451e-06	0.0078117	0	0	0	0.0119874	0.00396961	0	0.0260493	0.0224809	0.00852191	0.0303243	0.080322	0.0110225	0.0310685	0	0.0530391	0.0155482	0.0843233	0	0.0136477	0.00493868	0.0196687	0.0546344	0.0279797	0.00659082	0.00702941	0.00660055	0	0	0.0239609	0.0211209	0	0	0.031648	0.01603	0.0167722	0.0563875	0.0497836	0.065545	0.0388699	0	0.00915487	0.00993337	0.00854993	0.0104111	0.0326667	0.0307773	0.00364289	0.00508307	0.00386435	0.0139874	0.00386019	0.0865666	0.0841502	0	0.00328678	0.0848793	0.011063	0.084313	0.0738943	0	0	0.0816323	0.0846717	0.00615438	0.015466	0.0112696	
3.455	0.0840387	0.0229573	0.00503546	0	0.0194823	0	0	0.0542829	0.0466947	0.0500883	0.0305957	0.0346725	0	0.00666474	0	0	0	0.0127115	0.00430477	0	0.0278766	0.0238098	0.00912052	0.0283486	0.0806184	0.011152	0.0312027	0	0.0529535	0.0170817	0.0842681	0	0.0122396	0.00561253	0.0206669	0.0539568	0.0281606	0.00741828	0.00781803	0.00736569	0	0	0.0230645	0.0208352	2.15865e-09	0	0.0302487	0.0162758	0.0166816	0.0562386	0.0498245	0.0656103	0.0396386	1.9527e-07	0.00908226	0.00969787	0.00766477	0.0106777	0.0311354	0.0281435	0.0032371	0.00532712	0.00383371	0.0143866	0.00399491	0.0866118	0.0841738	0	0.00340057	0.085064	0.0116532	0.0840296	0.0731879	1.41885e-09	0	0.0814513	0.0846986	0.00664993	0.0161583	0.011683	
3.46	0.0837695	0.0222965	0.00490504	0	0.0188925	0	0	0.0491359	0.046091	0.0493738	0.0308051	0.0349842	0	0.0055619	0	0	0	0.0134849	0.00470152	0	0.0298529	0.0252829	0.00975466	0.0263406	0.0807353	0.0113093	0.0313968	0	0.052711	0.0186615	0.0842138	0	0.0109454	0.0063666	0.0216364	0.0529425	0.0284188	0.00830479	0.0086821	0.00821388	0	0	0.0222885	0.0203739	0	0	0.0286961	0.0165098	0.0165358	0.0559519	0.0498917	0.0657332	0.0404306	4.18373e-07	0.00901487	0.00949304	0.00680704	0.010885	0.0284855	0.0257576	0.00294325	0.0055201	0.00372858	0.0148691	0.00410863	0.0866695	0.084199	9.08779e-09	0.00348412	0.0852424	0.0122318	0.0837561	0.0720662	6.66792e-09	2.15405e-07	0.0812472	0.0847281	0.00719078	0.0170209	0.012243	
3.465	0.0830374	0.0215625	0.00482095	0	0.0183334	0	0	0.0444251	0.0453119	0.0484516	0.0310711	0.0353831	0	0.00447683	0	0	0	0.014322	0.00514706	0	0.0319338	0.0269037	0.0104261	0.0243586	0.0806707	0.0114897	0.0316441	0	0.0523058	0.0202856	0.084161	3.45235e-05	0.00973605	0.00720662	0.0225589	0.0516354	0.0287452	0.00926183	0.00960429	0.00913476	0	3.54047e-11	0.0216728	0.0198265	1.81955e-09	0	0.0270766	0.0167109	0.0195282	0.0569292	0.0499162	0.0659197	0.0412631	1.22613e-07	0.00896347	0.00932504	0.00599322	0.011025	0.0248386	0.0237303	0.00268954	0.00565576	0.00353452	0.0154041	0.00419827	0.0867348	0.084225	0	0.00354236	0.0854109	0.0127977	0.0835143	0.0705611	8.82455e-09	1.51419e-06	0.0808837	0.0847585	0.00779156	0.0154436	0.0129591	
3.47	0.0817935	0.0207609	0.00478699	0	0.0178128	0	0	0.0402304	0.0443846	0.0473534	0.0313846	0.0358585	0	0.00353965	0	0	0	0.0152399	0.00563037	0	0.0340607	0.02867	0.0111396	0.0224435	0.0804119	0.0116885	0.0319372	0	0.0517355	0.0218985	0.0841105	1.06687e-05	0.00859667	0.00811736	0.0234099	0.0500884	0.0291298	0.0101884	0.0104743	0.0100145	0	4.8686e-11	0.0212329	0.0192716	1.43189e-10	0	0.0254722	0.0168651	0.0232265	0.0576445	0.0487883	0.0661738	0.0421458	1.32032e-08	0.00893671	0.00920934	0.00523948	0.0110915	0.0202887	0.0221309	0.00243592	0.00572762	0.00320643	0.0159759	0.00426159	0.0867978	0.084251	0	0.00357944	0.0855664	0.013352	0.0833117	0.0687071	1.30752e-08	0	0.0802397	0.0847878	0.00846728	0.0131859	0.0138408	
3.475	0.0800117	0.0198945	0.00480576	0	0.0173385	3.1156e-10	0	0.0365718	0.0433378	0.046115	0.0317366	0.0364002	0	0.00232565	4.59603e-09	0	0	0.0162489	0.00616848	0	0.0362519	0.0305681	0.0119032	0.0206183	0.0799326	0.0119012	0.0322688	0	0.0509991	0.023443	0.0839999	0	0.00754038	0.00909555	0.024163	0.0483582	0.0295624	0.0110284	0.0112444	0.0108023	3.98212e-10	5.35006e-11	0.0209719	0.0187688	0	0	0.023929	0.0169703	0.02564	0.0573218	0.0476176	0.0664963	0.0430857	0	0.00894089	0.00915231	0.00453115	0.0110804	0.0142779	0.0209657	0.00220226	0.00573065	0.00265078	0.0165817	0.00429802	0.0868381	0.084276	0	0.0035983	0.0857063	0.0138987	0.0831456	0.0665496	1.6318e-08	0	0.079419	0.0848125	0.00922529	0.011312	0.0148927	
3.48	0.0776907	0.0189636	0.00487951	0	0.0169176	2.89984e-09	0	0.0333393	0.0422009	0.0447722	0.0321175	0.0369982	0	0.00195778	4.18999e-09	7.27934e-10	0	0.017341	0.00678119	0	0.0386557	0.0325661	0.0127268	0.0188839	0.0791906	0.0121239	0.0326313	0	0.0500948	0.0248656	0.0833274	0	0.00659936	0.0101295	0.024794	0.0464991	0.0300329	0.0117941	0.0119311	0.0115145	0	4.69392e-11	0.0207996	0.0179667	0	0	0.0224585	0.0170395	0.0274648	0.0563874	0.0473781	0.0668853	0.0440904	0	0.00897339	0.00915112	0.00395165	0.010989	0.0157539	0.0201173	0.00203628	0.00566167	0.00207639	0.017223	0.00430835	0.0868339	0.084299	1.26375e-07	0.00360118	0.0858263	0.0144409	0.0830128	0.064143	2.01731e-08	2.49671e-07	0.0782268	0.0848277	0.0100611	0.012279	0.0161074	
3.485	0.0748494	0.0179634	0.00500974	0.00134266	0.016557	1.59488e-09	0	0.0302499	0.0410031	0.0433608	0.0325185	0.0376428	0	0	0	1.09396e-09	0	0.0185067	0.00747074	0	0.0413894	0.0346334	0.0136251	0.0172319	0.078128	0.0123526	0.0330174	0	0.0490324	0.0261123	0.0819618	0	0.00581312	0.0112048	0.0252812	0.0445671	0.030531	0.0125056	0.012554	0.0121715	0	3.59399e-11	0.0204528	0.0166209	0	0	0.02106	0.017095	0.0266224	0.0545601	0.0476402	0.0673356	0.0451679	0	0.00903467	0.00920806	0.00350752	0.0108167	0.0194252	0.0193593	0.00200904	0.00551954	0.00197441	0.0179062	0.00429459	0.08677	0.084319	0	0.00358995	0.0859236	0.0149798	0.0829115	0.0615595	2.32089e-08	3.85429e-07	0.0766471	0.0848291	0.0109599	0.0119043	0.0174561	
3.49	0.0715262	0.016889	0.00519633	0.00218187	0.0162621	4.30287e-10	0	0.0272917	0.0397722	0.0419144	0.0329311	0.0383239	0	0	0	4.23271e-10	0	0.0197532	0.00823983	0	0.044525	0.0368349	0.0146208	0.0156875	0.0766866	0.0125844	0.0334201	0	0.0478177	0.0271228	0.0799152	0	0.00519736	0.0123107	0.0256063	0.042615	0.0310466	0.0131511	0.0131034	0.0127614	0	2.39697e-11	0.01972	0.0148207	0	0	0.0197374	0.0171616	0.0227782	0.0522455	0.0481656	0.0678395	0.0463231	0	0.00913122	0.00932943	0.00308949	0.0105645	0.0219008	0.0187412	0.00197457	0.0053041	0.000106967	0.0186411	0.00425944	0.0866587	0.0843352	5.10883e-09	0.00356629	0.0859966	0.0155147	0.0828424	0.0588882	2.39512e-08	1.47773e-07	0.0748203	0.0848195	0.0118994	0.0115964	0.0188915	
3.495	0.0677788	0.0157472	0.00543942	0.00267719	0.0160379	1.17888e-09	0	0.0246859	0.0385334	0.0404642	0.0333477	0.0390312	0	0	0	1.13059e-10	0	0.0211085	0.00909152	0	0.0481233	0.0393398	0.0157431	0.0143241	0.0747994	0.0128163	0.0338331	0	0.046464	0.0278591	0.0772336	0	0.00475001	0.0134423	0.0257544	0.0406891	0.0315704	0.0137341	0.0136143	0.0132897	0.00141683	1.3276e-11	0.0186535	0.0128722	4.69999e-11	0	0.0184999	0.0172638	0.016569	0.0498595	0.0490189	0.0683872	0.0475563	0	0.00927081	0.00950153	0.00276418	0.0122463	0.0233087	0.0182923	0.0014415	0.00501511	0	0.0194367	0.0042064	0.0866	0.0843468	3.3871e-08	0.00353164	0.0860448	0.0160423	0.0828072	0.0562348	1.96929e-08	2.8049e-08	0.0727728	0.0848199	0.0128525	0.0114902	0.0203595	
3.5	0.0637072	0.0145683	0.00574039	0.00306501	0.0158884	3.57022e-09	0	0.0224189	0.0373088	0.0390373	0.0337617	0.0397543	0	1.44443e-05	0	0	0	0.0226027	0.0100212	0	0.0522309	0.0422819	0.0170009	0.0131785	0.0724099	0.0130459	0.0342507	0	0.0449884	0.0282982	0.0739921	0	0.00449608	0.0146025	0.0257138	0.0388279	0.0320937	0.0143145	0.0142065	0.0138568	0.00381882	5.1489e-12	0.0176873	0.0112402	1.49367e-11	0	0.0173584	0.0174251	0.0131543	0.048041	0.049883	0.06897	0.0488647	0	0.00946048	0.00971024	0.00265667	0.0177673	0.0231309	0.0180044	0	0.0053457	0	0.0203003	0.00413932	0.0867459	0.0843532	2.981e-08	0.0034874	0.0860681	0.0165581	0.0828077	0.0537063	2.29804e-08	0	0.0704253	0.0848289	0.0137908	0.0115813	0.0218081	
3.505	0.0594363	0.0133878	0.00610396	0.00350581	0.0158176	5.83818e-09	0	0.020501	0.0361159	0.0376559	0.0341678	0.0404835	0	4.13694e-06	0	0	0	0.024254	0.0110233	1.08268e-09	0.0568761	0.0457775	0.0183809	0.0122283	0.0694861	0.0132712	0.034668	0	0.0434118	0.02846	0.0702917	0	0.00443548	0.0158036	0.0254762	0.0370599	0.0326088	0.0149498	0.0147692	0.0144483	0.00301868	0	0.0175317	0.0103598	3.40044e-11	0	0.0163302	0.017667	0.0124195	0.0465315	0.0505846	0.0695786	0.0502402	0	0.00970462	0.00995482	0.00279521	0.0199296	0.0223497	0.0178478	0	0.016901	1.22648e-05	0.0212368	0.0040623	0.0869678	0.0843541	9.42545e-09	0.00343477	0.0860676	0.0170594	0.0828401	0.0513746	1.10602e-08	0	0.0678704	0.0848202	0.0146875	0.0114878	0.0231896	
3.51	0.055147	0.0122162	0.00653618	0.003934	0.0158289	0	0	0.0188906	0.0349631	0.0363363	0.0345614	0.0412094	0	0	0	0	0	0.0260663	0.012098	7.94695e-10	0.0619519	0.0499409	0.019891	0.011441	0.0660279	0.0134904	0.0350805	0	0.0417571	0.0284047	0.0662658	0	0.00455546	0.017047	0.0250369	0.0353989	0.0331094	0.0155326	0.0152876	0.0149913	0.00323915	0	0.0187187	0.0105699	5.63111e-11	0	0.0154386	0.0180083	0.0121811	0.0450561	0.0511847	0.0702021	0.0516699	0	0.0100075	0.0102411	0.00312432	0.024526	0.0213671	0.0177903	0	0.0157825	0.000115349	0.0222482	0.00397967	0.0870488	0.0843494	0	0.00337497	0.0860449	0.0175445	0.0819763	0.0492781	0	0	0.0652378	0.0847926	0.0155173	0.0105171	0.0244622	
3.515	0.0510641	0.011039	0.00703743	0.00443522	0.0159263	0	0	0.0175497	0.0338506	0.0350843	0.034939	0.0419236	0	0	0	3.15214e-09	0.00515269	0.028028	0.0132506	0	0.0671199	0.0548772	0.0215828	0.0107976	0.0620835	0.0137018	0.0354847	0	0.04005	0.0280872	0.0620615	0	0.00484302	0.0183137	0.0243946	0.0338305	0.0335909	0.0160726	0.0157757	0.0155023	0.00349839	0.00131948	0.0208096	0.0119075	8.94709e-11	0	0.0147041	0.0184636	0.0117254	0.043623	0.0516262	0.0708253	0.0531335	0	0.0103723	0.0105763	0.003471	0.0273306	0.0204544	0.0178021	0	0.0190707	0	0.0233326	0.00389478	0.0869976	0.0843391	0	0.00330916	0.086002	0.0180134	0.0799529	0.0474399	0	0	0.0626223	0.0847565	0.0162556	0.00852768	0.0255887	
3.52	0.0472925	0.00983459	0.00760453	0.00504384	0.0161129	0	0	0.016463	0.0327753	0.0338946	0.0352978	0.0426183	0	0	0	0.00397832	0.00415764	0.0301049	0.0144944	0	0.0720406	0.0606226	0.0235213	0.0102881	0.0577761	0.013904	0.0358771	0	0.0383162	0.027514	0.0578565	0	0.00526643	0.0195843	0.0235524	0.0323276	0.0340497	0.0165888	0.0162423	0.0159965	0.00361323	0.00545197	0.0231165	0.0138764	1.2744e-10	7.39848e-09	0.014135	0.0190419	0.0111625	0.0422837	0.0519748	0.0714273	0.0546017	0	0.0107999	0.0109632	0.00378921	0.026773	0.0196587	0.0178544	8.89132e-07	0.0249457	9.29073e-06	0.0244817	0.0038093	0.0869072	0.0843233	0	0.00323875	0.0859416	0.0184673	0.0773651	0.0458709	0	0	0.0601246	0.0847162	0.0168781	0.0063811	0.0265372	
3.525	0.0438601	0.00858251	0.00823615	0.0057164	0.0163913	0	0	0.0156209	0.0317378	0.0327585	0.0356357	0.043287	0	0	0	0.0047346	0.0046943	0.0322313	0.0158562	0	0.0764166	0.0668153	0.0257454	0.00990746	0.0533216	0.0140961	0.036255	0	0.0365787	0.0267079	0.0538489	0	0.00578935	0.020855	0.0225176	0.0308783	0.0344836	0.0170832	0.0166878	0.0164734	0.00369979	0.00591905	0.0252999	0.015962	1.69553e-10	0.00242166	0.0137275	0.0197463	0.010691	0.0410744	0.0522526	0.0719863	0.0560447	0	0.0112817	0.0113944	0.0041301	0.0251009	0.0189676	0.0179187	2.47349e-05	0.0267214	0	0.0256779	0.00372427	0.0868187	0.0843023	0	0.00316511	0.0858664	0.0189082	0.0746829	0.044573	0	0	0.057855	0.0846725	0.017363	0.00470681	0.0272809	
3.53	0.0407756	0.00728554	0.00892853	0.00646875	0.0167653	0	0	0.0149981	0.0307433	0.0316729	0.0359512	0.0439244	0	0	0	0.00413429	0.0054013	0.0343327	0.0173321	0.00550841	0.0800078	0.0728834	0.028257	0.00965551	0.0489843	0.014277	0.036616	0	0.0348445	0.0256845	0.0501941	0	0.0064047	0.022127	0.021301	0.0294957	0.034891	0.0175405	0.0171006	0.0169181	0.00379021	0.00563016	0.0272998	0.0178597	2.1456e-10	0.00404718	0.0134767	0.0205744	0.0103336	0.0400239	0.0524703	0.0724819	0.0574255	0	0.0117976	0.0118527	0.00454321	0.0234936	0.0183549	0.0179668	5.68907e-05	0.0256648	6.89658e-05	0.0268935	0.00364054	0.0867316	0.0842764	0	0.0030899	0.0857795	0.0193387	0.0720972	0.0435402	0	0	0.0559276	0.0846259	0.0176925	0.00372143	0.0277996	
3.535	0.0380327	0.00597224	0.00967281	0.00730878	0.0172192	0	0	0.0145564	0.0298015	0.0306419	0.0362437	0.044526	0	0	0	0.00471615	0.0060594	0.0364276	0.0188915	0.00584367	0.0826423	0.0782741	0.031006	0.00953178	0.044913	0.0144463	0.036958	0	0.0330759	0.02446	0.0469234	0	0.0071057	0.0233918	0.019915	0.0282013	0.035271	0.0179518	0.0174728	0.0173204	0.00387362	0.00564482	0.0291749	0.019341	2.61782e-10	0.0035369	0.0133817	0.0215193	0.0100664	0.0391584	0.0526313	0.0728966	0.0587074	0	0.0123183	0.0123127	0.00500359	0.0223362	0.017799	0.0179722	0.0149597	0.0238513	0.000143625	0.0280925	0.00355932	0.0866388	0.0842459	0	0.00301475	0.0856837	0.0197618	0.0696809	0.0427605	0	0	0.0544365	0.0845776	0.017854	0.00309476	0.0280796	
3.54	0.0356033	0.00466626	0.0104583	0.00821671	0.0177675	0	0	0.0142565	0.0289214	0.0296753	0.0365125	0.045089	0	0	0.000606178	0.0051717	0.00682412	0.0386114	0.0205471	0.00558397	0.0842463	0.0824741	0.0338677	0.00953095	0.0411802	0.0146033	0.0372794	0.00670312	0.0311989	0.0230561	0.044023	0	0.00787643	0.0246318	0.0183692	0.0270092	0.035623	0.0183104	0.0177975	0.0176723	0.00395067	0.00594943	0.0307852	0.0202478	6.36804e-10	0.00369609	0.0134431	0.0225694	0.00989197	0.0384999	0.052739	0.073216	0.0598511	1.68033e-11	0.0128105	0.0127443	0.00546867	0.0214433	0.0172843	0.0179124	0.0230288	0.022582	0	0.0292329	0.00348217	0.0865415	0.0842111	0	0.00294147	0.085582	0.0201805	0.0674811	0.042217	0	0	0.0534547	0.0845285	0.0178394	0.00262829	0.0281141	
3.545	0.0333882	0.00348674	0.0112751	0.00917862	0.01839	0	0	0.0140672	0.0281085	0.0287811	0.0367579	0.0456114	0	0	0.0060105	0.00563971	0.00768491	0.0409042	0.0223465	0.00660197	0.0848482	0.0850462	0.0368011	0.00964299	0.0378252	0.014748	0.0375792	0.00934631	0.0292311	0.0214956	0.0414757	0	0.0087098	0.0258292	0.016669	0.0259251	0.0359469	0.0186048	0.018064	0.0179619	0.00402353	0.00645425	0.0313586	0.0204215	3.88518e-09	0.0038895	0.0136592	0.0237092	0.00982885	0.0380663	0.0527959	0.0734281	0.0608168	2.03521e-11	0.0131433	0.0130945	0.005927	0.0206745	0.0167988	0.0177688	0.0231568	0.0217355	2.30757e-05	0.0302706	0.00341507	0.0864429	0.0841724	0	0.00287227	0.0854771	0.0205974	0.065538	0.0418885	0	0	0.053033	0.0844789	0.0176452	0.00235946	0.0279029	
3.55	0.0312673	0.00205048	0.0121153	0.0101717	0.0190829	0	0	0.0139652	0.0273654	0.0279634	0.0369802	0.046092	0	0	0.0036201	0.00618196	0.00860105	0.043264	0.0243117	0.00747809	0.0847912	0.0856974	0.0400554	0.00985571	0.0348315	0.0148802	0.0378565	0.0104394	0.0272227	0.0197996	0.0392583	0	0.0095946	0.0269685	0.0148477	0.0249496	0.0362429	0.0188227	0.0182609	0.0181766	0.00409238	0.00719614	0.0298026	0.0196663	5.6824e-11	0.00397918	0.0140233	0.0249182	0.0098912	0.0378741	0.052804	0.073524	0.0615654	1.63803e-11	0.0132485	0.0133259	0.00637484	0.020014	0.0163342	0.0148195	0.023514	0.0210339	3.60364e-06	0.031166	0.00336741	0.0863446	0.0841298	0	0.00280894	0.0853717	0.0210143	0.0638723	0.0417471	0	0	0.0531981	0.0844291	0.017271	0.00221914	0.0274524	
3.555	0.0292231	0.000311545	0.0129713	0.0111743	0.0198378	0	0	0.0139353	0.0266926	0.0272234	0.0371802	0.0465307	0	0	0.00408821	0.00678052	0.00954467	0.0456252	0.0264199	0.00842307	0.0846902	0.0856089	0.0438043	0.0101561	0.0319763	0.0150002	0.0381109	0.0117627	0.0252318	0.0179813	0.0373432	0	0.0105167	0.0280376	0.0129946	0.0240799	0.0365115	0.0189535	0.0183783	0.0183061	0.00486429	0.00817844	0.025964	0.0179201	1.28915e-10	0.00404176	0.0145235	0.026171	0.0100848	0.0379393	0.0527637	0.0734968	0.0620585	1.0676e-11	0.0132322	0.0134537	0.00679802	0.0194748	0.0158866	0.00546499	0.0239307	0.0204218	1.98021e-05	0.0318903	0.0107803	0.0862466	0.0840837	0	0.00275216	0.085268	0.0214326	0.0624843	0.0417591	2.26043e-09	0	0.0539425	0.0843786	0.01672	0.00209267	0.0267754	
3.56	0.0273096	0	0.0138396	0.0121729	0.0206515	0	0	0.0139707	0.0260886	0.0265596	0.0373589	0.046928	0	0	0.00426353	0.00742918	0.0104874	0.0479128	0.0286232	0.00945308	0.0845993	0.0855192	0.048092	0.0105326	0.0291297	0.0151083	0.0383426	0.0136858	0.0233032	0.0160517	0.0356983	0	0.0114682	0.0290276	0.0111814	0.0233105	0.0367536	0.0189882	0.0184085	0.0183419	0.00771628	0.00935719	0.0215231	0.0154523	8.57079e-11	0.00424033	0.015141	0.0274366	0.0104102	0.0382798	0.0526732	0.0733387	0.06226	5.6926e-12	0.0131122	0.0134742	0.00717679	0.0190476	0.0108326	0	0.0239083	0.0199266	1.76983e-05	0.0324299	0.0195629	0.0861486	0.084034	0	0.00270282	0.0851689	0.0218535	0.0613578	0.0418852	0	0	0.0552105	0.0843268	0.0160001	0.00200017	0.0258923	
3.565	0.0255614	0	0.0147221	0.0131568	0.0215132	0	0	0.0140712	0.0255512	0.0259695	0.0375176	0.0472851	0	0	0.00436635	0.0080954	0.0114064	0.0500516	0.0308467	0.0105065	0.0845096	0.0854347	0.0528904	0.0109739	0.0263716	0.0152047	0.0385518	0.0159161	0.0214662	0.0140702	0.0342771	0	0.0124448	0.029932	0.00941582	0.0226352	0.0369703	0.0189219	0.0183469	0.0182789	0.0103756	0.0112701	0.0174883	0.0126583	1.41391e-10	0.00433499	0.015854	0.0286832	0.0108652	0.0389165	0.0525287	0.0730406	0.0621358	2.19449e-12	0.0128829	0.0133859	0.00749961	0.0187253	0.00357234	5.8051e-05	0.023756	0.0195601	0	0.0327932	0.0255305	0.0860502	0.0839809	0	0.00265939	0.0850751	0.0222777	0.0604665	0.0420903	0	0	0.0568972	0.0842728	0.0151238	0.00182886	0.024829	
3.57	0.0239828	2.28667e-05	0.0156204	0.0141204	0.0224103	0	0	0.0142439	0.0250766	0.0254492	0.0376575	0.0476035	0	0	0.00455567	0.00875197	0.0122903	0.0519883	0.0330008	0.0115527	0.0844293	0.0853505	0.058113	0.0114724	0.0238072	0.0152902	0.0387393	0.0181879	0.0197298	0.0121335	0.0330418	0.00359135	0.0134509	0.0307483	0.00767625	0.0220464	0.0371628	0.0187524	0.0181921	0.0181155	0.0126679	0.0142797	0.0140857	0.00999353	1.63131e-10	0.00433307	0.016634	0.0298765	0.0114459	0.0398757	0.0523242	0.0725915	0.0616532	1.60543e-13	0.0125405	0.013188	0.00775653	0.0184956	0.000161816	0	0.023709	0.0192808	8.90053e-06	0.0329955	0.0314433	0.0859504	0.0839245	0	0.00262356	0.0849895	0.0235615	0.0597758	0.0423382	0	0	0.0588655	0.0842156	0.0141125	6.52727e-08	0.0236184	
3.575	0.0225626	9.01595e-06	0.016519	0.0150646	0.0233237	0	0.00233672	0.0145011	0.0246607	0.0249939	0.03778	0.0478855	0	0	0.0048189	0.00939208	0.013129	0.0536907	0.0350353	0.0125765	0.0843631	0.0852747	0.0635006	0.0120219	0.0214811	0.0153654	0.038906	0.0204726	0.0180879	0.0102894	0.0319843	0.00696805	0.014497	0.0314765	0.00596584	0.0215367	0.0373327	0.0184826	0.0179468	0.017854	0.014887	0.0174532	0.0117689	0.00790934	1.86509e-10	0.00431321	0.0174495	0.0309856	0.0121472	0.0411899	0.0520518	0.0719787	0.060784	0	0.012095	0.0128887	0.00794321	0.0183514	0	1.0022e-05	0.0237692	0.0190418	0	0.0330642	0.034252	0.0858488	0.0838647	0	0.00260263	0.0849127	0.0339487	0.0592488	0.0425994	0	0	0.0610974	0.0841541	0.012996	0.00020295	0.0222987	
3.58	0.0212796	1.08918e-06	0.0173927	0.015991	0.0242289	0	0.00677492	0.0148604	0.024299	0.0245984	0.0378866	0.0481333	0	0.00203882	0.00511525	0.0100011	0.0139199	0.055153	0.0370224	0.0135718	0.0843146	0.0852114	0.068651	0.0126187	0.0193834	0.015431	0.039053	0.0229443	0.0165406	0.00852579	0.0311173	0.00797427	0.015607	0.0321191	0.00430852	0.0210982	0.0374816	0.0181185	0.017617	0.0175009	0.0162259	0.0193117	0.0106694	0.00664089	2.05452e-10	0.00429298	0.0182678	0.0319853	0.0129657	0.0428996	0.0517016	0.0711887	0.0595081	7.60642e-09	0.0115609	0.0125018	0.00806033	0.0182838	0	0.000238292	0.0238914	0.0188167	0	0.0330348	0.0368952	0.0857445	0.0838021	0	0.00258436	0.0848459	0.0446185	0.0588472	0.0428501	6.48621e-20	0	0.0638266	0.0840873	0.0118098	1.3642e-10	0.0209114	
3.585	0.0201091	0	0.0182211	0.016884	0.025099	0	0.00773185	0.0153434	0.0239866	0.0242574	0.0379788	0.0483494	0	0.00418893	0.00542789	0.0105697	0.0146707	0.0564047	0.0390442	0.0145393	0.0842866	0.0851637	0.0733034	0.0132635	0.017477	0.0154877	0.0391817	0.025729	0.0151318	0.00682037	0.0304593	0.00862281	0.016792	0.0326809	0.00271721	0.0207232	0.037611	0.017669	0.0172113	0.0170654	0.0159762	0.0199487	0.00979663	0.0059264	2.22294e-10	0.00427074	0.0190588	0.0328599	0.0139042	0.0450506	0.051263	0.0702076	0.0578197	0	0.0109511	0.012042	0.00811268	0.0182801	2.42227e-05	0	0.0240477	0.0185888	1.23918e-06	0.0329505	0.0412143	0.0856377	0.0837368	0	0.00256773	0.0847894	0.0493085	0.0585337	0.0430733	0	1.83271e-12	0.0672737	0.0840148	0.0105864	0	0.0194942	
3.59	0.0190236	0	0.0189907	0.0177212	0.0259048	5.53265e-09	0.00804517	0.0159717	0.0237187	0.0239652	0.038058	0.0485366	0	0.00541255	0.00574611	0.0110939	0.0153827	0.0574852	0.0411123	0.0154978	0.0842802	0.0851336	0.0773207	0.0139629	0.0157705	0.0155365	0.0392935	0.0287682	0.0139187	0.00518376	0.0300207	0.00969321	0.0180417	0.0331684	0.00173789	0.0204043	0.0377228	0.0171435	0.016739	0.0165583	0.0135756	0.0204886	0.00825834	0.0054341	2.35712e-10	0.00424492	0.0197978	0.0336048	0.0149742	0.0476924	0.0507247	0.0690231	0.0557357	0	0.0102795	0.0115253	0.00810905	0.0183261	1.50864e-05	0.00011598	0.0242112	0.0183417	2.16432e-06	0.0328491	0.0463222	0.0855287	0.0836695	0	0.00255333	0.084743	0.0498133	0.0582756	0.0432578	1.07168e-19	4.48064e-12	0.0714269	0.0839366	0.00935156	0.00010828	0.0180734	
3.595	0.017996	0	0.0196928	0.0184863	0.0266193	6.06269e-09	0.00881801	0.0167625	0.0234904	0.0237164	0.0381256	0.0486977	0	0.00629938	0.00606381	0.0115715	0.0160456	0.0584773	0.0432165	0.0164501	0.0842955	0.0851216	0.0806191	0.0147262	0.0143369	0.0155782	0.0393899	0.0318976	0.0129015	0.0036736	0.0298029	0.0111088	0.0193548	0.0335891	0	0.0201345	0.0378188	0.0165503	0.0162086	0.0159905	0.0109067	0.0215609	0.00626182	0.00469402	2.45202e-10	0.00421544	0.020467	0.0342249	0.0161872	0.0508704	0.0500762	0.0676247	0.0532978	7.23042e-09	0.00955987	0.0109675	0.00806099	0.0184039	0	5.66421e-05	0.0243464	0.0180591	0	0.0327542	0.0498139	0.0854193	0.0836011	0	0.00254031	0.0847063	0.0491212	0.0580449	0.0433981	0	5.37942e-12	0.0760719	0.0838538	0.00812601	0	0.0166619	
3.6	0.0170056	0	0.0203197	0.0191709	0.0272188	0	0.0100216	0.0177258	0.0232965	0.0235055	0.0381832	0.0488355	6.71115e-09	0.00728665	0.00637619	0.012002	0.0166447	0.0595079	0.0453468	0.0173806	0.0843307	0.0851269	0.0831398	0.0155629	0.0131912	0.0156136	0.0394727	0.0349499	0.0120451	0.00203183	0.0298005	0.0126373	0.0207583	0.0339505	0	0.0199073	0.0379008	0.015895	0.0156255	0.0153703	0.00873989	0.0232048	0.0045103	0.00372062	2.50311e-10	0.00418204	0.0210554	0.0347301	0.0175335	0.0546165	0.0493082	0.0660041	0.0505682	3.6258e-08	0.00880731	0.0103834	0.00798113	0.0184785	5.85659e-05	0	0.0244177	0.0177269	1.58633e-05	0.032669	0.0516077	0.0852759	0.0835324	0	0.00252744	0.0846782	0.0487221	0.0578202	0.0434933	0	5.11016e-12	0.0807869	0.0837678	0.00692972	0.000247416	0.0152716	
3.605	0.0160451	0	0.020864	0.0197704	0.0276863	2.33882e-11	0.0113396	0.0188685	0.0231324	0.0233271	0.038232	0.0489528	0	0.00851419	0.00667755	0.0123864	0.01717	0.0606261	0.0474978	0.0182772	0.0843829	0.0851473	0.0848005	0.016474	0.0122775	0.0156437	0.0395433	0.037931	0.0113149	0.00011033	0.0300029	0.0142404	0.0222937	0.03426	1.49552e-05	0.0197161	0.0379705	0.0151835	0.0149941	0.0147056	0.00712771	0.0253158	0.00340138	0.0024851	0	0.00414522	0.0215586	0.035132	0.0189904	0.0589373	0.0484144	0.0641566	0.0476299	2.19349e-08	0.00803958	0.00978524	0.00788226	0.0185041	9.48827e-05	1.65664e-05	0.0243892	0.017335	0.000155148	0.0325752	0.0523864	0.0849885	0.0834646	0	0.00251433	0.0846574	0.0485755	0.0575863	0.0435469	0	4.40207e-12	0.0847443	0.0836804	0.00578883	0	0.0139253	
3.61	0.0151204	0	0.0213198	0.0202829	0.0280129	0	0.0126769	0.0202109	0.0229934	0.0231759	0.0382733	0.0490527	0.00200962	0.00995297	0.00696438	0.0127284	0.0176173	0.0618924	0.0496715	0.0191376	0.0844478	0.0851796	0.0854608	0.0174506	0.0115383	0.0156694	0.0396036	0.0409892	0.0106859	0	0.0303959	0.0159702	0.0239942	0.0345249	1.5633e-05	0.0195548	0.0380298	0.0144204	0.0143157	0.0139988	0.00602694	0.0278039	0.00240615	0.00202062	1.36641e-07	0.00410618	0.0219782	0.035442	0.0205585	0.0637196	0.0473913	0.0620822	0.0445817	0	0.00727544	0.00918413	0.00777657	0.0184502	0	1.26264e-06	0.0242317	0.016877	0	0.0324365	0.0526419	0.0844761	0.0833992	0	0.00250063	0.0846424	0.0484109	0.0573345	0.0435664	0	0	0.0861508	0.0835937	0.00471416	0.000216231	0.0126512	
3.615	0.0142417	0	0.0216857	0.0207089	0.0281982	0	0.0140736	0.0218001	0.0228747	0.0230471	0.0383085	0.049138	0.00505577	0.0115353	0.00723561	0.013034	0.0179882	0.0633435	0.051941	0.019966	0.0845205	0.0852197	0.0854617	0.0184845	0.0109333	0.0156914	0.0396552	0.0441697	0.0101379	0	0.030961	0.0178526	0.0258778	0.0347526	2.83298e-06	0.0194173	0.0380804	0.0136026	0.0135839	0.0132431	0.00532587	0.0305775	0.00200673	0.0013574	0	0.00406658	0.0223218	0.0356709	0.0222702	0.0687651	0.0462398	0.0597881	0.041527	0	0.00652876	0.00859065	0.00767498	0.0183012	1.31121e-05	4.73655e-06	0.0239222	0.0163546	2.88263e-05	0.0322033	0.0525161	0.0837089	0.0833378	0	0.00248647	0.0846311	0.0481618	0.0570617	0.0435791	0	1.84912e-11	0.0861267	0.0835106	0.00379909	0	0.0114714	
3.62	0.0134073	0	0.0219658	0.0210526	0.0282504	0	0.0155673	0.0236936	0.0227719	0.0229354	0.0383388	0.0492116	0.00639126	0.0132279	0.00749282	0.0133093	0.0182885	0.0649972	0.0543076	0.0207699	0.084595	0.0852629	0.0854444	0.0195779	0.0104302	0.0157108	0.0396998	0.0474269	0.00965252	2.61376e-05	0.0316744	0.0198942	0.0279518	0.0349505	0	0.019298	0.0381241	0.0127434	0.0128088	0.0124482	0.00487788	0.0335093	0.00202078	6.14206e-05	6.8909e-10	0.00402816	0.0226019	0.0358303	0.0241541	0.0738403	0.0449654	0.0572892	0.038557	2.39208e-08	0.00581879	0.00801474	0.00758715	0.018046	0	0	0.0234475	0.0157745	0	0.0318143	0.0517753	0.0826793	0.0832819	0	0.00247184	0.0846217	0.0478835	0.0567703	0.0435879	1.93453e-22	3.69299e-12	0.0861256	0.0834338	0.00290662	0.000133789	0.0103928	
3.625	0.0126092	0	0.0221701	0.0213227	0.0281853	0	0.0171644	0.0259343	0.0226805	0.0228362	0.0383654	0.0492763	0.00708803	0.0150359	0.00773956	0.0135607	0.0185282	0.0668466	0.0567861	0.0215658	0.0846656	0.0853046	0.0854498	0.0207458	0.0100007	0.0157284	0.0397392	0.0507148	0.00921629	8.36749e-06	0.0325073	0.022163	0.0302046	0.0351262	0	0.0191912	0.0381626	0.0118721	0.0120178	0.0116409	0.0046861	0.0365233	0.0019505	0	6.16102e-09	0.00399294	0.0228354	0.0359323	0.0262086	0.0786555	0.0435792	0.0546104	0.0357394	3.42084e-08	0.00514706	0.00746509	0.00752198	0.0176767	8.33804e-05	0.000102641	0.0228037	0.0151512	4.81915e-05	0.031236	0.0501241	0.0813882	0.0832332	0	0.00245706	0.084612	0.0476161	0.0564675	0.0435959	1.28941e-22	1.90136e-10	0.0862017	0.0833661	0.00205585	0	0.00940781	
3.63	0.0118372	0	0.0223126	0.021533	0.0280257	0	0.0188554	0.0285342	0.0225962	0.0227445	0.0383895	0.0493349	0.00790862	0.0169548	0.00798076	0.0137955	0.0187202	0.0688561	0.0593558	0.0223847	0.0847261	0.0853401	0.0854507	0.0220055	0.00961939	0.015745	0.039775	0.0540097	0.00881573	0	0.0334279	0.0247685	0.0325905	0.0352872	0	0.0190916	0.0381977	0.0109828	0.01122	0.010829	0.00473926	0.0398041	0.00187143	0	7.65842e-07	0.00401191	0.0230429	0.0359897	0.0284065	0.0827897	0.042098	0.0517855	0.0330776	2.10035e-08	0.00449988	0.00694696	0.00748814	0.0171916	9.62315e-05	0.000149945	0.0220007	0.0145004	6.75753e-05	0.0304877	0.0473591	0.079844	0.0831934	0	0.00244245	0.0846014	0.0473634	0.0561649	0.043615	5.05158e-23	6.04626e-13	0.0862311	0.0833098	0.00195088	6.74424e-05	0.008503	
3.635	0.0110814	0	0.0224117	0.0217004	0.0277998	0	0.020657	0.0314373	0.0225146	0.0226557	0.0384123	0.0493903	0.00904335	0.0189584	0.00822259	0.0140217	0.0188797	0.0709682	0.0619835	0.0232041	0.0847714	0.0853653	0.0854491	0.0233677	0.00926311	0.0157617	0.0398091	0.057307	0.00843506	0	0.0344051	0.0277555	0.0350543	0.0354413	0	0.0189937	0.0382309	0.00989492	0.0103472	0.0098571	0.00497914	0.043545	0.00185822	4.04425e-06	4.51319e-06	0.00413591	0.023247	0.0360161	0.0306997	0.0854363	0.0405428	0.0488544	0.0304449	4.61526e-09	0.00394606	0.00646504	0.0074939	0.0165963	0	0	0.0210562	0.0138279	0	0.0296144	0.0435271	0.0780633	0.0831639	0	0.00242828	0.0845873	0.0471187	0.0558856	0.0436586	5.23266e-24	1.28526e-11	0.0862209	0.083267	0.000714878	0	0.00766335	
3.64	0.0103351	0	0.0224882	0.0218444	0.0275393	0	0.0226257	0.0344568	0.0224314	0.0225651	0.038435	0.0494453	0.0103495	0.0210611	0.00847186	0.0142499	0.0190236	0.0730994	0.0646385	0.0240508	0.0847966	0.0853766	0.0854441	0.0248327	0.0089072	0.0157792	0.0398431	0.0606011	0.00805717	0	0.0354171	0.031073	0.0376896	0.0355963	0	0.0188922	0.0382641	0.00866081	0.00923546	0.00871976	0.00535098	0.047805	0.00189812	2.21778e-06	0	0.00437307	0.0234713	0.0360237	0.0330172	0.0858735	0.0389347	0.0458632	0.0275667	0	0.00346864	0.00602063	0.00754755	0.0159083	5.69809e-06	0	0.019993	0.0131326	1.1923e-05	0.0286589	0.0440823	0.0760742	0.0831464	0	0.00241488	0.0845678	0.0468787	0.0556456	0.0437383	0	3.7013e-12	0.0861954	0.0832396	0	1.77514e-05	0.00687082	
3.645	0.0095922	0	0.022565	0.0219859	0.0272784	1.93646e-09	0.0248096	0.0375496	0.0223424	0.0224682	0.0384587	0.0495026	0.0116981	0.0233303	0.00873569	0.0144896	0.0191699	0.0751616	0.0672897	0.0249366	0.0847975	0.0853708	0.0854337	0.0263946	0.0085265	0.0157984	0.0398787	0.0638873	0.00766429	0	0.0364465	0.0345817	0.0406904	0.0357598	0	0.0187821	0.0382989	0.0073231	0.00800924	0.00749074	0.00581874	0.0525768	0.00195507	2.16047e-06	0	0.00471758	0.0237391	0.0360231	0.0353014	0.0857048	0.0373053	0.0428635	0.0250854	0	0.00288475	0.00561788	0.00765751	0.0151552	0	2.4539e-05	0.0188348	0.0124151	0	0.0276535	0.0431069	0.0739133	0.083142	0	0.00240229	0.0845417	0.046643	0.0554589	0.0438633	0	2.17285e-13	0.0861329	0.0832301	0	0	0.00611329	
