CEINMS output
datacolumns 6
datarows 92
endheader
time	hip_flexion_l	hip_adduction_l	hip_rotation_l	knee_angle_l	ankle_angle_l	
3.19	49.2819	-116.544	30.9498	-191.961	6.37136	
3.195	82.6308	-165.305	38.0108	-258.074	13.3555	
3.2	70.824	-150.465	17.5918	-276.275	12.828	
3.205	72.1893	-131.888	17.0509	-285.564	12.6483	
3.21	107.822	-134.21	8.24085	-296.898	14.9353	
3.215	164.925	-144.923	7.06819	-306.841	18.4102	
3.22	212.835	-151.943	4.54659	-311.105	21.9462	
3.225	247.106	-152.782	-0.0948366	-310.879	25.1364	
3.23	271.878	-149.803	-5.47272	-314.248	28.1127	
3.235	290.467	-144.816	-10.5634	-323.081	31.0444	
3.24	303.379	-137.685	-15.3386	-332.364	34.0217	
3.245	308.821	-128.415	-20.6309	-331.49	37.0786	
3.25	305.761	-118.858	-23.3727	-318.199	40.2338	
3.255	295.258	-108.528	-24.1122	-297.158	43.4962	
3.26	279.199	-96.0051	-24.1531	-272.558	46.8145	
3.265	257.718	-80.7266	-23.6806	-245.054	50.0212	
3.27	231.378	-63.229	-22.6249	-215.858	53.048	
3.275	198.564	-45.4622	-21.5595	-185.62	55.8672	
3.28	164.015	-23.8816	-19.3346	-154.077	58.4437	
3.285	129.803	-5.44587	-16.9681	-129.727	60.7376	
3.29	98.9463	6.15394	-15.1885	-105.878	62.7168	
3.295	69.59	14.0453	-13.85	-77.9525	64.3699	
3.3	44.3568	18.4968	-11.9603	-54.1279	65.7042	
3.305	28.2415	20.4197	-9.5165	-38.5544	66.749	
3.31	24.2471	23.7099	-7.41594	-37.1301	67.4088	
3.315	20.0332	25.1766	-4.41706	-41.4663	67.3671	
3.32	13.8848	19.8734	-0.870396	-44.1775	67.0296	
3.325	9.10326	11.2473	0.851122	-43.9039	66.8825	
3.33	5.48776	2.40239	2.37882	-40.5719	67.0643	
3.335	3.05627	-5.50536	3.9355	-34.135	67.5346	
3.34	0.998658	-11.7653	5.35066	-29.5977	68.2219	
3.345	-1.71786	-15.7256	6.23073	-25.0192	68.8622	
3.35	-5.98052	-17.134	6.4577	-15.7725	68.484	
3.355	-12.7915	-15.8682	5.9826	-1.60637	67.0555	
3.36	-22.9617	-12.0253	4.88604	20.1514	64.9921	
3.365	-37.1301	-6.14827	3.13247	51.4133	62.6062	
3.37	-56.5768	1.67893	1.07378	86.2559	60.1338	
3.375	-82.4627	11.3344	-0.749774	125.548	57.6914	
3.38	-113.684	21.6771	-1.63543	168.758	55.2728	
3.385	-148.147	31.3916	-1.05412	217.038	52.8263	
3.39	-183.976	39.4128	0.953443	265.451	50.2957	
3.395	-219.928	45.8011	3.4648	299.906	47.6262	
3.4	-251.713	49.4916	6.73969	326.619	44.7639	
3.405	-275.362	51.3532	9.77978	334.315	41.6619	
3.41	-291.523	54.1708	11.4906	329.254	38.3129	
3.415	-305.293	60.1893	11.4838	321.04	34.7464	
3.42	-318.923	64.0234	16.1053	312.921	31.0043	
3.425	-329.972	65.29	22.7439	304.034	27.1293	
3.43	-337.066	66.2422	27.2326	297.423	23.1651	
3.435	-340.384	67.0367	29.4662	291.335	19.1478	
3.44	-340.259	67.8355	29.7598	283.785	15.1005	
3.445	-337.114	68.0404	29.0503	270.676	11.0161	
3.45	-331.314	67.9599	27.1797	249.675	6.84263	
3.455	-323.051	67.9528	24.1967	223.1	3.17492	
3.46	-312.843	68.1882	20.4118	192.697	1.67886	
3.465	-301.363	68.6131	16.1756	169.871	-0.576818	
3.47	-289.091	69.1697	11.685	159.44	-4.89435	
3.475	-276.298	69.6369	7.15524	150.411	-9.79769	
3.48	-264.233	63.7043	6.36184	125.314	-15.9701	
3.485	-252.47	54.6865	6.1556	102.111	-24.3216	
3.49	-241.418	44.7347	6.01459	85.5337	-36.3451	
3.495	-232.219	32.2541	8.70907	68.3117	-49.222	
3.5	-224.816	17.1053	15.2645	52.4755	-61.3695	
3.505	-218.656	3.11976	22.0504	39.2377	-73.4043	
3.51	-210.818	-10.8604	26.606	29.6865	-86.4628	
3.515	-192.862	-23.7247	29.0578	21.1422	-100.606	
3.52	-176.624	-33.8803	27.2996	10.8604	-114.3	
3.525	-160.309	-39.6318	22.7828	-1.7564	-126.391	
3.53	-143.987	-40.5683	16.8683	-15.6176	-136.741	
3.535	-128.958	-40.9448	10.0203	-28.9147	-145.38	
3.54	-112.277	-35.4233	3.54195	-40.3442	-152.248	
3.545	-99.4919	-34.5621	-2.76326	-49.1575	-157.349	
3.55	-86.9827	-32.2559	-8.91147	-55.1354	-160.623	
3.555	-71.5468	-25.1097	-12.8391	-58.2517	-162.009	
3.56	-51.7383	-14.9033	-12.246	-58.6047	-161.344	
3.565	-28.8832	-8.49384	-11.5446	-56.3427	-158.356	
3.57	-3.02912	-3.97176	-12.2712	-51.7859	-152.665	
3.575	20.6058	-0.962172	-11.8977	-45.3912	-143.763	
3.58	40.193	-0.712194	-11.0026	-37.6061	-131.14	
3.585	55.9241	-4.21939	-10.582	-36.1371	-114.619	
3.59	68.0703	-10.3424	-10.4881	-39.3661	-94.4206	
3.595	76.9025	-16.2198	-10.0008	-46.3813	-71.4182	
3.6	83.4043	-20.8217	-9.19405	-57.1717	-47.3706	
3.605	89.264	-20.4556	-8.61586	-70.7396	-25.5658	
3.61	95.4824	-16.1815	-8.23113	-85.9656	-13.0511	
3.615	102.52	-7.98373	-8.2708	-102.1	-6.90238	
3.62	108.754	-0.527362	-8.31461	-119.015	-1.23296	
3.625	113.856	7.56236	-8.68092	-136.101	4.26912	
3.63	117.644	18.1873	-9.81753	-151.846	8.41941	
3.635	120.237	31.2824	-11.6427	-165.238	10.783	
3.64	135.229	43.4678	-10.3386	-177.72	12.2248	
3.645	152.677	56.7555	-8.59402	-188.292	11.8898	
