CEINMS output
datacolumns 81
datarows 92
endheader
time	addbrev_r	addlong_r	addmagDist_r	addmagIsch_r	addmagMid_r	addmagProx_r	bflh_r	bfsh_r	edl_r	ehl_r	fdl_r	fhl_r	gaslat_r	gasmed_r	glmax1_r	glmax2_r	glmax3_r	glmed1_r	glmed2_r	glmed3_r	glmin1_r	glmin2_r	glmin3_r	grac_r	iliacus_r	perbrev_r	perlong_r	piri_r	psoas_r	recfem_r	sart_r	semimem_r	semiten_r	soleus_r	tfl_r	tibant_r	tibpost_r	vasint_r	vaslat_r	vasmed_r	addbrev_l	addlong_l	addmagDist_l	addmagIsch_l	addmagMid_l	addmagProx_l	bflh_l	bfsh_l	edl_l	ehl_l	fdl_l	fhl_l	gaslat_l	gasmed_l	glmax1_l	glmax2_l	glmax3_l	glmed1_l	glmed2_l	glmed3_l	glmin1_l	glmin2_l	glmin3_l	grac_l	iliacus_l	perbrev_l	perlong_l	piri_l	psoas_l	recfem_l	sart_l	semimem_l	semiten_l	soleus_l	tfl_l	tibant_l	tibpost_l	vasint_l	vaslat_l	vasmed_l	
3.19	5.25622e-05	0.000773534	0.00016652	8.78867e-05	4.43359e-05	5.80862e-05	0.000914131	0.000462873	0.000262921	0.000135634	0.000424936	0.000438306	0.000917762	0.00140491	0.00213725	0.00204146	0.00195583	0.00213877	0.00212431	0.00190726	0.000448302	0.00213027	0.00188348	0.000181635	0.000348778	0.00041468	0.000219886	0.00202193	0.000132482	0.000116513	6.46323e-05	0.00216718	0.0011681	0.000901844	5.62209e-05	8.96996e-05	0.000568391	0.000261346	0.000128386	0.000122691	0.000248659	0.000248659	0.247057	0.247057	0.247057	0.000248659	0.00271504	0.00107353	0.000968885	0.000739262	0.707249	0.00156018	0.0062404	0.000248659	0.0122172	0.00921544	0.00231798	0.872914	0.924278	0.00133329	0.445186	0.821272	0.000862863	0.0146918	0.000284681	0.0138379	0.000375531	0.000267727	0.000776532	0.00911996	0.65495	0.0101508	0.00270619	0.0392395	0.000248659	0.0603201	0.0697229	2.55801e-05	0.000998959	3.03582e-05	
3.195	0.000143169	0.00119938	0.0003875	0.000222473	0.000117934	0.000157914	0.00168795	0.00101731	0.000562033	0.000321892	0.000796865	0.000787985	0.0014989	0.00191979	0.0027885	0.00268745	0.00260659	0.00285819	0.00272277	0.00259835	0.000793858	0.00286018	0.00258216	0.000430155	0.000799858	0.00075472	0.000470716	0.0026465	0.000313226	0.000301267	0.000174491	0.00269349	0.00182472	0.0014769	0.000151563	0.000225198	0.000976726	0.000559261	0.000307226	0.000294488	0.000500749	0.000500749	0.494782	0.494782	0.494782	0.172866	0.00680037	0.00249693	0.00106577	0.0009611	0.711285	0.0103105	0.0177345	0.000500749	0.0339374	0.0258762	0.0045104	0.736406	0.993503	0.00149903	0.312617	0.15406	0.0010073	0.0341037	0.00055606	0.0657781	0.00394157	0.000532862	0.000993041	0.00394176	0.887549	0.0284059	0.00691061	0.0781864	0.000500749	0.130619	0.179527	6.86385e-05	0.00109884	8.10598e-05	
3.2	0.00280274	0.00147286	0.00147114	0.00160169	0.00154203	0.00297016	0.00274905	0.00287831	0.00141435	0.00138138	0.00134373	0.00121313	0.00196544	0.00210627	0.00297486	0.0028816	0.0028146	0.00309139	0.00287842	0.00284492	0.0011869	0.00310268	0.00283922	0.00182083	0.00279444	0.00119134	0.00119131	0.00282847	0.00131167	0.00271723	0.0029309	0.00280785	0.00226037	0.00194393	0.00244934	0.00149871	0.00138435	0.00141335	0.00139406	0.00136473	0.00102267	0.00102267	0.999022	0.983521	0.985131	0.318301	0.801986	0.406515	0.00107355	0.00102332	0.517157	0.324064	0.993559	0.00102267	0.988777	0.99166	0.520992	0.651905	0.536325	0.0599837	0.303626	0.0898526	0.0010277	0.781709	0.00103947	0.463486	0.318811	0.00105049	0.0010485	0.003066	0.98906	0.98887	0.82642	0.207263	0.00102267	0.225208	0.941982	0.00103384	0.00110687	0.00113001	
3.205	0.00280274	0.00147286	0.00147114	0.00160169	0.00154203	0.00297016	0.00274905	0.00287831	0.00141435	0.00138138	0.00134373	0.00121313	0.00196544	0.00210627	0.00297486	0.0028816	0.0028146	0.00309139	0.00287842	0.00284492	0.0011869	0.00310268	0.00283922	0.00182083	0.00279444	0.00119134	0.00119131	0.00282847	0.00131167	0.00271723	0.0029309	0.00280785	0.00226037	0.00194393	0.00244934	0.00149871	0.00138435	0.00141335	0.00139406	0.00136473	0.247823	0.247823	0.760478	0.744589	0.74624	0.264842	0.798447	0.405555	0.320961	0.105777	0.240722	0.317784	0.983496	0.00102267	0.96863	0.976531	0.518854	0.432291	0.0633956	0.00890032	0.584373	0.833748	0.0010277	0.782441	0.282125	0.430775	0.316453	0.00105049	0.749243	0.0408811	0.994273	0.970651	0.823125	0.19097	0.00102267	0.248908	0.896399	0.00103384	0.00110687	0.00113001	
3.21	0.00280274	0.00147286	0.00147114	0.00160169	0.00154203	0.00297016	0.00274905	0.00287831	0.00141435	0.00138138	0.00134373	0.00121313	0.00196544	0.00210627	0.00297486	0.0028816	0.0028146	0.00309139	0.00287842	0.00284492	0.0011869	0.00310268	0.00283922	0.00182083	0.00279444	0.00119134	0.00119131	0.00282847	0.00131167	0.00271723	0.0029309	0.00280785	0.00226037	0.00194393	0.00244934	0.00149871	0.00138435	0.00141335	0.00139406	0.00136473	0.495293	0.495293	0.515962	0.503748	0.505017	0.277902	0.793307	0.40417	0.129445	0.0511921	0.11892	0.308944	0.969538	0.00102267	0.940891	0.955179	0.515723	0.174665	0.00636283	0.00345977	0.796648	0.975943	0.0010277	0.782921	0.544558	0.390145	0.313035	0.00105049	0.948608	0.114145	0.997426	0.946434	0.818379	0.170006	0.00102267	0.282983	0.838357	0.00103384	0.00110687	0.00113001	
3.215	0.00280274	0.00147286	0.00147114	0.00160169	0.00154203	0.00297016	0.00274905	0.00287831	0.00141435	0.00138138	0.00134373	0.00121313	0.00196544	0.00210627	0.00297486	0.0028816	0.0028146	0.00309139	0.00287842	0.00284492	0.0011869	0.00310268	0.00283922	0.00182083	0.00279444	0.00119134	0.00119131	0.00282847	0.00131167	0.00271723	0.0029309	0.00280785	0.00226037	0.00194393	0.00244934	0.00149871	0.00138435	0.00141335	0.00139406	0.00136473	0.681632	0.615159	0.328222	0.319897	0.320762	0.325591	0.786743	0.402393	0.100988	0.0287588	0.132419	0.298523	0.952352	0.00102267	0.90749	0.928936	0.511701	0.0485616	0.00174269	0.00172952	0.908481	0.996112	0.0474809	0.782999	0.728956	0.349735	0.308716	0.0154714	0.989809	0.146557	0.998683	0.917849	0.812324	0.1469	0.00102267	0.3209	0.772093	0.00117374	0.00110687	0.00113001	
3.22	0.00280274	0.00147286	0.00147114	0.00160169	0.00154203	0.00297016	0.00274905	0.00287831	0.00141435	0.00138138	0.00134373	0.00121313	0.00196544	0.00210627	0.00297486	0.0028816	0.0028146	0.00309139	0.00287842	0.00284492	0.0011869	0.00310268	0.00283922	0.00182083	0.00279444	0.00119134	0.00119131	0.00282847	0.00131167	0.00271723	0.0029309	0.00280785	0.00226037	0.00194393	0.00244934	0.00149871	0.00138435	0.00141335	0.00139406	0.00136473	0.806687	0.638077	0.200434	0.19513	0.195681	0.357325	0.778926	0.40025	0.0722062	0.0179632	0.161334	0.286889	0.932528	0.00102267	0.870024	0.898939	0.506884	0.0193734	0.00141217	0.114015	0.960505	0.760749	0.0088117	0.782485	0.844774	0.310452	0.30364	0.0153322	0.99745	0.17239	0.999123	0.886447	0.805099	0.123322	0.00102267	0.361458	0.701117	0.00138526	0.00110687	0.00113001	
3.225	0.00280274	0.00147286	0.00147114	0.00160169	0.00154203	0.00297016	0.00274905	0.00287831	0.00141435	0.00138138	0.00134373	0.00121313	0.00196544	0.00210627	0.00297486	0.0028816	0.0028146	0.00309139	0.00287842	0.00284492	0.0011869	0.00310268	0.00283922	0.00182083	0.00279444	0.00119134	0.00119131	0.00282847	0.00131167	0.00271723	0.0029309	0.00280785	0.00226037	0.00194393	0.00244934	0.00149871	0.00138435	0.00141335	0.00139406	0.00136473	0.885558	0.642206	0.119087	0.115849	0.116185	0.372445	0.769996	0.397767	0.0310352	0.0071826	0.0407968	0.274202	0.910615	0.00102267	0.829803	0.866151	0.50136	0.00379378	0.00138994	0.0159334	0.983192	0.450393	0.00200553	0.781168	0.913283	0.271407	0.297929	0.0116602	0.998781	0.218613	0.999269	0.853511	0.796832	0.101108	0.00102267	0.399556	0.628447	0.00170848	0.00110687	0.00113001	
3.23	0.00280274	0.00147286	0.00147114	0.00160169	0.00154203	0.00297016	0.00274905	0.00287831	0.00141435	0.00138138	0.00134373	0.00121313	0.00196544	0.00210627	0.00297486	0.0028816	0.0028146	0.00309139	0.00287842	0.00284492	0.0011869	0.00310268	0.00283922	0.00182083	0.00279444	0.00119134	0.00119131	0.00282847	0.00131167	0.00271723	0.0029309	0.00280785	0.00226037	0.00194393	0.00244934	0.00149871	0.00138435	0.00141335	0.00139406	0.00136473	0.933395	0.654323	0.0694605	0.0675414	0.0677407	0.393612	0.760075	0.394974	0.00389653	0.00249066	0.0701651	0.261785	0.887169	0.00102267	0.787897	0.831383	0.495209	0.00151297	0.0013885	0.0028709	0.99269	0.109778	0.00113692	0.779217	0.952308	0.238598	0.291693	0.0259348	0.999004	0.261237	0.999315	0.819944	0.787642	0.081984	0.00102267	0.430678	0.556606	0.0024086	0.00110687	0.00113001	
3.235	0.00280274	0.00147286	0.00147114	0.00160169	0.00154203	0.00297016	0.00274905	0.00287831	0.00141435	0.00138138	0.00134373	0.00121313	0.00196544	0.00210627	0.00297486	0.0028816	0.0028146	0.00309139	0.00287842	0.00284492	0.0011869	0.00310268	0.00283922	0.00182083	0.00279444	0.00119134	0.00119131	0.00282847	0.00131167	0.00271723	0.0029309	0.00280785	0.00226037	0.00194393	0.00244934	0.00149871	0.00138435	0.00141335	0.00139406	0.00136473	0.961636	0.685139	0.0400608	0.0389476	0.0390632	0.547749	0.749269	0.391902	0.00128084	0.0013251	0.3024	0.249431	0.862598	0.00102267	0.745172	0.795317	0.488508	0.00124926	0.00138841	0.00162916	0.996555	0.0174507	0.0760911	0.776957	0.973961	0.217016	0.285027	0.0230978	0.99904	0.306344	0.99933	0.786518	0.777654	0.065208	0.00102267	0.459972	0.487605	0.00304487	0.00110687	0.00113001	
3.24	0.00280274	0.00147286	0.00147114	0.00160169	0.00154203	0.00297016	0.00274905	0.00287831	0.00141435	0.00138138	0.00134373	0.00121313	0.00196544	0.00210627	0.00297486	0.0028816	0.0028146	0.00309139	0.00287842	0.00284492	0.0011869	0.00310268	0.00283922	0.00182083	0.00279444	0.00119134	0.00119131	0.00282847	0.00131167	0.00271723	0.0029309	0.00280785	0.00226037	0.00194393	0.00244934	0.00149871	0.00138435	0.00141335	0.00139406	0.00136473	0.97798	0.714336	0.0230115	0.0223762	0.0224421	0.697565	0.73769	0.38858	0.00108722	0.00108088	0.451579	0.239722	0.837331	0.00102267	0.70232	0.758524	0.481324	0.00122169	0.0013884	0.00152485	0.805685	0.00313946	0.0136131	0.774593	0.985745	0.214273	0.278016	0.0167873	0.999046	0.329636	0.999334	0.753772	0.766996	0.0514004	0.199207	0.483079	0.422929	0.00352503	0.00110687	0.00113001	
3.245	0.00280274	0.00147286	0.00147114	0.00160169	0.00154203	0.00297016	0.00274905	0.00287831	0.00141435	0.00138138	0.00134373	0.00121313	0.00196544	0.00210627	0.00297486	0.0028816	0.0028146	0.00309139	0.00287842	0.00284492	0.0011869	0.00310268	0.00283922	0.00182083	0.00279444	0.00119134	0.00119131	0.00282847	0.00131167	0.00271723	0.0029309	0.00280785	0.00226037	0.00194393	0.00244934	0.00149871	0.00138435	0.00141335	0.00139406	0.00136473	0.987295	0.739622	0.013283	0.0129251	0.0130688	0.809449	0.725436	0.38503	0.0010744	0.00103381	0.517285	0.231978	0.811766	0.00102267	0.659893	0.721475	0.473721	0.00121896	0.0013884	0.00151663	0.527048	0.00125892	0.00260883	0.772191	0.992061	0.226332	0.27077	0.0320284	0.999047	0.355649	0.999336	0.722112	0.755755	0.0406405	0.395948	0.501472	0.368252	0.00387217	0.00110687	0.00113001	
3.25	0.00280274	0.00147286	0.00147114	0.00160169	0.00154203	0.00297016	0.00274905	0.00287831	0.00141435	0.00138138	0.00134373	0.00121313	0.00196544	0.00210627	0.00297486	0.0028816	0.0028146	0.00309139	0.00287842	0.00284492	0.0011869	0.00310268	0.00283922	0.00182083	0.00279444	0.00119134	0.00119131	0.00282847	0.00131167	0.00271723	0.0029309	0.00280785	0.00226037	0.00194393	0.00244934	0.00149871	0.00138435	0.00141335	0.00139406	0.00136473	0.992539	0.768488	0.00780188	0.00760223	0.00773107	0.884291	0.712573	0.38127	0.0010736	0.00102518	0.600801	0.226391	0.786092	0.00102267	0.618318	0.684558	0.465757	0.0012187	0.0013884	0.00151601	0.272388	0.00103043	0.0012043	0.769154	0.995407	0.257628	0.263335	0.0278788	0.999047	0.414335	0.999336	0.691428	0.744021	0.0325404	0.558978	0.511379	0.344852	0.0041112	0.00110687	0.00113001	
3.255	0.00280274	0.00147286	0.00147114	0.00160169	0.00154203	0.00297016	0.00274905	0.00287831	0.00141435	0.00138138	0.00134373	0.00121313	0.00196544	0.00210627	0.00297486	0.0028816	0.0028146	0.00309139	0.00287842	0.00284492	0.0011869	0.00310268	0.00283922	0.00182083	0.00279444	0.00119134	0.00119131	0.00282847	0.00131167	0.00271723	0.0029309	0.00280785	0.00226037	0.00194393	0.00244934	0.00149871	0.00138435	0.00141335	0.00139406	0.00136473	0.995463	0.800682	0.00474504	0.00463462	0.00472829	0.931407	0.699174	0.377314	0.00107355	0.00102364	0.655174	0.223879	0.760478	0.00102267	0.577926	0.64809	0.457485	0.00121868	0.0013884	0.00151596	0.126196	0.00100387	0.0377158	0.765387	0.997161	0.300793	0.255846	0.0200297	0.999047	0.472964	0.999337	0.661522	0.731867	0.0270445	0.65137	0.514684	0.347865	0.00439412	0.00110687	0.00113001	
3.26	0.00280274	0.00147286	0.00147114	0.00160169	0.00154203	0.00297016	0.00274905	0.00287831	0.00141435	0.00138138	0.00134373	0.00121313	0.00196544	0.00210627	0.00297486	0.0028816	0.0028146	0.00309139	0.00287842	0.00284492	0.0011869	0.00310268	0.00283922	0.00182083	0.00279444	0.00119134	0.00119131	0.00282847	0.00131167	0.00271723	0.0029309	0.00280785	0.00226037	0.00194393	0.00244934	0.00149871	0.00138435	0.00141335	0.00139406	0.00136473	0.99708	0.837917	0.00305446	0.00299382	0.00305569	0.959948	0.685317	0.373172	0.00107355	0.00102338	0.689178	0.224574	0.735052	0.00102267	0.538962	0.612323	0.448955	0.00121868	0.0013884	0.00151596	0.0551887	0.00100087	0.00717281	0.760942	0.998074	0.345455	0.248335	0.0361736	0.999047	0.521428	0.999337	0.632158	0.71936	0.0230648	0.673299	0.512865	0.36321	0.00467632	0.00110687	0.00113001	
3.265	0.00280274	0.00147286	0.00147114	0.00160169	0.00154203	0.00297016	0.00274905	0.00287831	0.00141435	0.00138138	0.00134373	0.00121313	0.00196544	0.00210627	0.00297486	0.0028816	0.0028146	0.00309139	0.00287842	0.00284492	0.0011869	0.00310268	0.00283922	0.00182083	0.00279444	0.00119134	0.00119131	0.00282847	0.00131167	0.00271723	0.0029309	0.00280785	0.00226037	0.00194393	0.00244934	0.00149871	0.00138435	0.00141335	0.00139406	0.00136473	0.997967	0.878383	0.00212604	0.00209293	0.00213158	0.976779	0.67108	0.368856	0.00107355	0.00102333	0.720153	0.229439	0.709885	0.00102267	0.501601	0.577461	0.44021	0.00121868	0.0013884	0.00151596	0.0235496	0.00100054	0.00179957	0.755816	0.998545	0.384929	0.24088	0.0311915	0.999047	0.55755	0.999337	0.603094	0.706558	0.0217257	0.639013	0.508508	0.365686	0.00494881	0.00110687	0.00113001	
3.27	0.00280274	0.00147286	0.00147114	0.00160169	0.00154203	0.00297016	0.00274905	0.00287831	0.00141435	0.00138138	0.00134373	0.00121313	0.00196544	0.00210627	0.00297486	0.0028816	0.0028146	0.00309139	0.00287842	0.00284492	0.0011869	0.00310268	0.00283922	0.00182083	0.00279444	0.00119134	0.00119131	0.00282847	0.00131167	0.00271723	0.0029309	0.00280785	0.00226037	0.00194393	0.00244934	0.00149871	0.00138435	0.00141335	0.00139406	0.00136473	0.998452	0.918149	0.0016192	0.00160122	0.0016245	0.986511	0.656536	0.364375	0.00107355	0.00102333	0.739862	0.238284	0.685018	0.00102267	0.465964	0.543658	0.431293	0.00121868	0.0013884	0.00151596	0.010157	0.0010005	0.00111391	0.750011	0.998787	0.413541	0.233572	0.0222955	0.999047	0.577836	0.999337	0.574087	0.693508	0.0221917	0.542706	0.527628	0.359342	0.00515301	0.00110687	0.00113001	
3.275	0.00280274	0.00147286	0.00147114	0.00160169	0.00154203	0.00297016	0.00274905	0.00287831	0.00141435	0.00138138	0.00134373	0.00121313	0.00196544	0.00210627	0.00297486	0.0028816	0.0028146	0.00309139	0.00287842	0.00284492	0.0011869	0.00310268	0.00283922	0.00182083	0.00279444	0.00119134	0.00119131	0.00282847	0.00131167	0.00271723	0.0029309	0.00280785	0.00226037	0.00194393	0.00244934	0.00149871	0.00138435	0.00141335	0.00139406	0.00136473	0.998715	0.948038	0.00134392	0.0013342	0.00134787	0.992054	0.641738	0.35974	0.00107355	0.00102332	0.753297	0.250468	0.660464	0.00102267	0.432125	0.511032	0.42224	0.00121868	0.0013884	0.00151596	0.00467477	0.0010005	0.00103673	0.743415	0.998911	0.431927	0.226409	0.0426654	0.999047	0.582397	0.999337	0.544815	0.680235	0.0240843	0.38724	0.555622	0.350604	0.00534224	0.00110687	0.00113001	
3.28	0.00280274	0.00147286	0.00147114	0.00160169	0.00154203	0.00297016	0.00274905	0.00287831	0.00141435	0.00138138	0.00134373	0.00121313	0.00196544	0.00210627	0.00297486	0.0028816	0.0028146	0.00309139	0.00287842	0.00284492	0.0011869	0.00310268	0.00283922	0.00182083	0.00279444	0.00119134	0.00119131	0.00282847	0.00131167	0.00271723	0.0029309	0.00280785	0.00226037	0.00194393	0.00244934	0.00149871	0.00138435	0.00141335	0.00139406	0.00136473	0.998857	0.968114	0.00119508	0.00118984	0.00119772	0.995172	0.626704	0.354956	0.00107355	0.00102332	0.762593	0.264998	0.636195	0.00102267	0.40012	0.479669	0.413086	0.00121868	0.0013884	0.00151596	0.00248265	0.0010005	0.00102861	0.735574	0.998974	0.439603	0.219433	0.037069	0.999047	0.575033	0.999337	0.515623	0.666708	0.0267879	0.253652	0.587332	0.341483	0.00556101	0.00110687	0.00113001	
3.285	0.00280274	0.00147286	0.00147114	0.00160169	0.00154203	0.00297016	0.00274905	0.00287831	0.00141435	0.00138138	0.00134373	0.00121313	0.00196544	0.00210627	0.00297486	0.0028816	0.0028146	0.00309139	0.00287842	0.00284492	0.0011869	0.00310268	0.00283922	0.00182083	0.00279444	0.00119134	0.00119131	0.00282847	0.00131167	0.00271723	0.0029309	0.00280785	0.00226037	0.00194393	0.00244934	0.00149871	0.00138435	0.00141335	0.00139406	0.00136473	0.998934	0.980787	0.00111491	0.0011121	0.00111658	0.996909	0.611498	0.350027	0.00107355	0.00102332	0.766428	0.280915	0.612201	0.00102267	0.369954	0.449628	0.403861	0.00121868	0.0013884	0.00151596	0.0016212	0.0010005	0.00102779	0.726009	0.999006	0.440204	0.212647	0.0265275	0.999047	0.558641	0.999337	0.486794	0.65283	0.0300631	0.157938	0.621273	0.332732	0.00584412	0.00110687	0.00113001	
3.29	0.00280274	0.00147286	0.00147114	0.00160169	0.00154203	0.00297016	0.00274905	0.00287831	0.00141435	0.00138138	0.00134373	0.00121313	0.00196544	0.00210627	0.00297486	0.0028816	0.0028146	0.00309139	0.00287842	0.00284492	0.0011869	0.00310268	0.00283922	0.00182083	0.00279444	0.00119134	0.00119131	0.00282847	0.00131167	0.00271723	0.0029309	0.00280785	0.00226037	0.00194393	0.00244934	0.00149871	0.00138435	0.00141335	0.00139406	0.00136473	0.998975	0.988477	0.00107188	0.00107038	0.00107289	0.99787	0.596179	0.34496	0.00107355	0.00102332	0.777942	0.296735	0.588499	0.00102267	0.341611	0.420942	0.394595	0.00121868	0.0013884	0.00151596	0.00128718	0.0010005	0.00102771	0.714357	0.999022	0.441222	0.206057	0.0480346	0.999047	0.54351	0.999337	0.45855	0.638594	0.0332729	0.203311	0.66149	0.323413	0.00625954	0.0860587	0.001678	
3.295	0.00280274	0.00147286	0.00147114	0.00160169	0.00154203	0.00297016	0.00274905	0.00287831	0.00141435	0.00138138	0.00134373	0.00121313	0.00196544	0.00210627	0.00297486	0.0028816	0.0028146	0.00309139	0.00287842	0.00284492	0.0011869	0.00310268	0.00283922	0.00182083	0.00279444	0.00119134	0.00119131	0.00282847	0.00131167	0.00271723	0.0029309	0.00280785	0.00226037	0.00194393	0.00244934	0.00149871	0.00138435	0.00141335	0.00139406	0.00136473	0.998997	0.993017	0.00104886	0.00104806	0.00104946	0.998397	0.5808	0.339766	0.00107355	0.00102332	0.766875	0.312067	0.565159	0.00102267	0.315054	0.39363	0.385311	0.00121868	0.0013884	0.00151596	0.00115903	0.0010005	0.0010277	0.700301	0.99903	0.436954	0.199652	0.0413533	0.999047	0.524006	0.999337	0.431067	0.624077	0.0366353	0.329633	0.694456	0.31518	0.0168372	0.917708	0.0228977	
3.3	0.00280274	0.00147286	0.00147114	0.00160169	0.00154203	0.00297016	0.00274905	0.00287831	0.00141435	0.00138138	0.00134373	0.00121313	0.00196544	0.00210627	0.00297486	0.0028816	0.0028146	0.00309139	0.00287842	0.00284492	0.0011869	0.00310268	0.00283922	0.00182083	0.00279444	0.00119134	0.00119131	0.00282847	0.00131167	0.00271723	0.0029309	0.00280785	0.00226037	0.00194393	0.00244934	0.00149871	0.00138435	0.00141335	0.00139406	0.00136473	0.999009	0.995643	0.00103658	0.00103615	0.00103692	0.998684	0.565409	0.334459	0.00107355	0.00102332	0.762946	0.326159	0.542286	0.00102267	0.290233	0.367692	0.376034	0.00121868	0.0013884	0.00151596	0.00111029	0.0010005	0.0010277	0.683594	0.999034	0.430307	0.193421	0.0294563	0.999047	0.504713	0.999337	0.404477	0.609346	0.0398825	0.526372	0.730458	0.306797	0.0341292	0.993104	0.0552267	
3.305	0.00280274	0.00147286	0.00147114	0.00160169	0.00154203	0.00297016	0.00274905	0.00287831	0.00141435	0.00138138	0.00134373	0.00121313	0.00196544	0.00210627	0.00297486	0.0028816	0.0028146	0.00309139	0.00287842	0.00284492	0.0011869	0.00310268	0.00283922	0.00182083	0.00279444	0.00119134	0.00119131	0.00282847	0.00131167	0.00271723	0.0029309	0.00280785	0.00226037	0.00194393	0.00244934	0.00149871	0.00138435	0.00141335	0.00139406	0.00136473	0.999015	0.99714	0.00103004	0.00102981	0.00103023	0.99884	0.550049	0.329057	0.00107355	0.00102332	0.757026	0.338288	0.520031	0.00102267	0.267086	0.343115	0.366784	0.00121868	0.0013884	0.00151596	0.00109189	0.0010005	0.0010277	0.664053	0.999036	0.422978	0.187345	0.0589726	0.999047	0.481437	0.999337	0.378879	0.594462	0.042893	0.692242	0.766592	0.29879	0.0491174	0.948813	0.0824712	
3.31	0.00280274	0.00147286	0.00147114	0.00160169	0.00154203	0.00297016	0.00274905	0.00287831	0.00141435	0.00138138	0.00134373	0.00121313	0.00196544	0.00210627	0.00297486	0.0028816	0.0028146	0.00309139	0.00287842	0.00284492	0.0011869	0.00310268	0.00283922	0.00182083	0.00279444	0.00119134	0.00119131	0.00282847	0.00131167	0.00271723	0.0029309	0.00280785	0.00226037	0.00194393	0.00244934	0.00149871	0.00138435	0.00141335	0.00139406	0.00136473	0.999019	0.997982	0.00102657	0.00102645	0.00102668	0.998925	0.534758	0.323575	0.00107355	0.00102332	0.748884	0.348008	0.498498	0.00102267	0.245547	0.319877	0.35758	0.00121868	0.0013884	0.00151596	0.00108498	0.0010005	0.0010277	0.641732	0.999037	0.416158	0.181405	0.051476	0.999047	0.450095	0.999337	0.354345	0.579482	0.045484	0.809506	0.801201	0.290767	0.0595138	0.268105	0.100116	
3.315	0.00280274	0.00147286	0.00147114	0.00160169	0.00154203	0.00297016	0.00274905	0.00287831	0.00141435	0.00138138	0.00134373	0.00121313	0.00196544	0.00210627	0.00297486	0.0028816	0.0028146	0.00309139	0.00287842	0.00284492	0.0011869	0.00310268	0.00283922	0.00182083	0.00279444	0.00119134	0.00119131	0.00282847	0.00131167	0.00271723	0.0029309	0.00280785	0.00226037	0.00194393	0.00244934	0.00149871	0.00138435	0.00141335	0.00139406	0.00136473	0.99902	0.998451	0.00102473	0.00102466	0.00102479	0.99897	0.519572	0.318025	0.00107355	0.00102332	0.738925	0.355054	0.477741	0.00102267	0.225539	0.297948	0.348439	0.00121868	0.0013884	0.00151596	0.0010824	0.0010005	0.0010277	0.61681	0.999038	0.409256	0.175589	0.0368069	0.999047	0.414055	0.999337	0.330918	0.564455	0.0477816	0.885704	0.833524	0.282373	0.0667034	0.252436	0.110979	
3.32	0.00280274	0.00147286	0.00147114	0.00160169	0.00154203	0.00297016	0.00274905	0.00287831	0.00141435	0.00138138	0.00134373	0.00121313	0.00196544	0.00210627	0.00297486	0.0028816	0.0028146	0.00309139	0.00287842	0.00284492	0.0011869	0.00310268	0.00283922	0.00182083	0.00279444	0.00119134	0.00119131	0.00282847	0.00131167	0.00271723	0.0029309	0.00280785	0.00226037	0.00194393	0.00244934	0.00149871	0.00138435	0.00141335	0.00139406	0.00136473	0.999021	0.998711	0.00102375	0.00102372	0.00102379	0.998994	0.50452	0.312419	0.00107355	0.00102332	0.726494	0.359376	0.457808	0.00102267	0.206987	0.277291	0.339377	0.00121868	0.0013884	0.00151596	0.00108144	0.0010005	0.0010277	0.589231	0.999038	0.401892	0.169888	0.0348137	0.999047	0.377577	0.999337	0.308625	0.549427	0.0498137	0.912041	0.862635	0.274224	0.0718049	0.250089	0.117236	
3.325	0.00280274	0.00147286	0.00147114	0.00160169	0.00154203	0.00297016	0.00274905	0.00287831	0.00141435	0.00138138	0.00134373	0.00121313	0.00196544	0.00210627	0.00297486	0.0028816	0.0028146	0.00309139	0.00287842	0.00284492	0.0011869	0.00310268	0.00283922	0.00182083	0.00279444	0.00119134	0.00119131	0.00282847	0.00131167	0.00271723	0.0029309	0.00280785	0.00226037	0.00194393	0.00244934	0.00149871	0.00138435	0.00141335	0.00139406	0.00136473	0.999022	0.847197	0.00102324	0.00102322	0.00102326	0.999007	0.48963	0.306769	0.00107355	0.00102332	0.711355	0.360823	0.438727	0.00102267	0.189811	0.257863	0.330406	0.00121868	0.0013884	0.00151596	0.104857	0.0010005	0.0010277	0.55929	0.999038	0.392742	0.164288	0.0257302	0.999047	0.343481	0.999337	0.287476	0.534439	0.0513495	0.700784	0.887856	0.266822	0.0757326	0.304077	0.120645	
3.33	0.00280274	0.00147286	0.00147114	0.00160169	0.00154203	0.00297016	0.00274905	0.00287831	0.00141435	0.00138138	0.00134373	0.00121313	0.00196544	0.00210627	0.00297486	0.0028816	0.0028146	0.00309139	0.00287842	0.00284492	0.0011869	0.00310268	0.00283922	0.00182083	0.00279444	0.00119134	0.00119131	0.00282847	0.00131167	0.00271723	0.0029309	0.00280785	0.00226037	0.00194393	0.00244934	0.00149871	0.00138435	0.00141335	0.00139406	0.00136473	0.999022	0.604938	0.00102297	0.00102296	0.00102298	0.837625	0.474925	0.301087	0.00107355	0.00102332	0.693116	0.359601	0.420528	0.00102267	0.173932	0.239618	0.321538	0.00121868	0.0013884	0.00151596	0.51328	0.0010005	0.0010277	0.527967	0.999038	0.383332	0.158787	0.0172164	0.999047	0.310568	0.999337	0.267466	0.519527	0.0524037	0.477622	0.908865	0.260465	0.0791822	0.347652	0.122498	
3.335	0.00280274	0.00147286	0.00147114	0.00160169	0.00154203	0.00297016	0.00274905	0.00287831	0.00141435	0.00138138	0.00134373	0.00121313	0.00196544	0.00210627	0.00297486	0.0028816	0.0028146	0.00309139	0.00287842	0.00284492	0.0011869	0.00310268	0.00283922	0.00182083	0.00279444	0.00119134	0.00119131	0.00282847	0.00131167	0.00271723	0.0029309	0.00280785	0.00226037	0.00194393	0.00244934	0.00149871	0.00138435	0.00141335	0.00139406	0.00136473	0.874559	0.396501	0.00102283	0.00102282	0.00102283	0.595049	0.460428	0.29539	0.00107355	0.00102332	0.674699	0.355936	0.403228	0.00102267	0.159273	0.22251	0.312785	0.00121868	0.0013884	0.00151596	0.770984	0.0010005	0.0010277	0.496035	0.999038	0.372343	0.153384	0.0381105	0.999047	0.278656	0.999337	0.24858	0.504725	0.0529363	0.304664	0.92658	0.253488	0.0830416	0.567596	0.12453	
3.34	0.00280274	0.00147286	0.00147114	0.00160169	0.00154203	0.00297016	0.00274905	0.00287831	0.00141435	0.00138138	0.00134373	0.00121313	0.00196544	0.00210627	0.00297486	0.0028816	0.0028146	0.00309139	0.00287842	0.00284492	0.0011869	0.00310268	0.00283922	0.00182083	0.00279444	0.00119134	0.00119131	0.00282847	0.00131167	0.00271723	0.0029309	0.00280785	0.00226037	0.00194393	0.00244934	0.00149871	0.00138435	0.00141335	0.00139406	0.00136473	0.632904	0.246876	0.00102275	0.00102275	0.00102275	0.388891	0.446156	0.289692	0.00107355	0.00102332	0.656136	0.350206	0.386876	0.00102267	0.145757	0.206487	0.304155	0.00121868	0.0013884	0.00151596	0.899096	0.110676	0.0010277	0.464103	0.999038	0.362028	0.148087	0.0337995	0.999047	0.247603	0.999337	0.230795	0.49006	0.052957	0.186926	0.946341	0.246698	0.0880893	0.833191	0.128323	
3.345	0.00280274	0.00147286	0.00147114	0.00160169	0.00154203	0.00297016	0.00274905	0.00287831	0.00141435	0.00138138	0.00134373	0.00121313	0.00196544	0.00210627	0.00297486	0.0028816	0.0028146	0.00309139	0.00287842	0.00284492	0.0011869	0.00310268	0.00283922	0.00182083	0.00279444	0.00119134	0.00119131	0.00282847	0.00131167	0.00271723	0.0029309	0.00280785	0.00226037	0.00194393	0.00244934	0.00149871	0.00138435	0.00141335	0.00139406	0.00136473	0.417948	0.148634	0.00102271	0.00102271	0.00102271	0.241692	0.432125	0.284004	0.00107355	0.00102332	0.645332	0.342855	0.37138	0.00102267	0.133308	0.191499	0.295656	0.00121868	0.0013884	0.00151596	0.957051	0.185129	0.0010277	0.43264	0.999038	0.353482	0.142923	0.024405	0.999047	0.217546	0.999337	0.214081	0.475558	0.0525495	0.111452	0.97016	0.240585	0.0960735	0.983819	0.137633	
3.35	0.00280274	0.00147286	0.00147114	0.00160169	0.00154203	0.00297016	0.00274905	0.00287831	0.00141435	0.00138138	0.00134373	0.00121313	0.00196544	0.00210627	0.00297486	0.0028816	0.0028146	0.00309139	0.00287842	0.00284492	0.0011869	0.00310268	0.00283922	0.00182083	0.00279444	0.00119134	0.00119131	0.00282847	0.00131167	0.00271723	0.0029309	0.00280785	0.00226037	0.00194393	0.00244934	0.00149871	0.00138435	0.00141335	0.00139406	0.00136473	0.261464	0.0874789	0.00102269	0.00102269	0.00102269	0.145332	0.418348	0.27833	0.00107355	0.00102332	0.640258	0.334492	0.356144	0.00102267	0.121855	0.177495	0.287296	0.00121868	0.0013884	0.00151596	0.981919	0.233892	0.0010277	0.402001	0.999038	0.347033	0.137892	0.0205257	0.999047	0.189152	0.999337	0.198402	0.461243	0.051846	0.0651942	0.984945	0.235767	0.108772	0.997981	0.156137	
3.355	0.00280274	0.00147286	0.00147114	0.00160169	0.00154203	0.00297016	0.00274905	0.00287831	0.00141435	0.00138138	0.00134373	0.00121313	0.00196544	0.00210627	0.00297486	0.0028816	0.0028146	0.00309139	0.00287842	0.00284492	0.0011869	0.00310268	0.00283922	0.00182083	0.00279444	0.00119134	0.00119131	0.00282847	0.00131167	0.00271723	0.0029309	0.00280785	0.00226037	0.00194393	0.00244934	0.00149871	0.00138435	0.00141335	0.00139406	0.00136473	0.157916	0.0507327	0.00102268	0.00102268	0.00102268	0.085464	0.404838	0.272647	0.00107355	0.00102332	0.642235	0.325543	0.341004	0.00102276	0.111329	0.164424	0.27908	0.00121868	0.0013884	0.00151596	0.585477	0.679866	0.0010277	0.372449	0.999038	0.343861	0.133018	0.0150954	0.999047	0.162752	0.999337	0.18372	0.447135	0.0509664	0.0376985	0.992576	0.233009	0.127504	0.999026	0.186222	
3.36	0.00280274	0.00147286	0.00147114	0.00160169	0.00154203	0.00297016	0.00274905	0.00287831	0.00141435	0.00138138	0.00134373	0.00121313	0.00196544	0.00210627	0.00297486	0.0028816	0.0028146	0.00309139	0.00287842	0.00284492	0.0011869	0.00310268	0.00283922	0.00182083	0.00279444	0.00119134	0.00119131	0.00282847	0.00131167	0.00271723	0.0029309	0.00280785	0.00226037	0.00194393	0.00244934	0.00149871	0.00138435	0.00141335	0.00139406	0.00136473	0.0931397	0.0294345	0.00102267	0.00102267	0.00102267	0.0495387	0.391604	0.266944	0.00107355	0.00102332	0.644982	0.316331	0.326041	0.00106154	0.101664	0.152237	0.271014	0.00121868	0.0013884	0.00151596	0.291317	0.758713	0.0010277	0.34417	0.999038	0.343212	0.128322	0.0105895	0.999047	0.138869	0.999337	0.169993	0.433249	0.0500318	0.0217133	0.996182	0.231556	0.153048	0.999095	0.228716	
3.365	0.00280274	0.00147286	0.00147114	0.00160169	0.00154203	0.00297016	0.00274905	0.00287831	0.00141435	0.00138138	0.00134373	0.00121313	0.00196544	0.00210627	0.00297486	0.0028816	0.0028146	0.00309139	0.00287842	0.00284492	0.0011869	0.00310268	0.00283922	0.00182083	0.00279444	0.00119134	0.00119131	0.00282847	0.00131167	0.00271723	0.0029309	0.00280785	0.00226037	0.00194393	0.00244934	0.00149871	0.00138435	0.00141335	0.00139406	0.00136473	0.0540856	0.0170521	0.00102267	0.00102267	0.00102267	0.0285069	0.378653	0.261232	0.00107355	0.00102332	0.648892	0.307539	0.31132	0.00167863	0.0927976	0.140883	0.263101	0.00121868	0.0013884	0.00151596	0.132128	0.706096	0.669707	0.31729	0.999038	0.345349	0.123884	0.007054	0.999047	0.119222	0.532286	0.157177	0.419602	0.0491708	0.0125741	0.997799	0.230856	0.185228	0.999099	0.280679	
3.37	0.00280274	0.00147286	0.00147114	0.00160169	0.00154203	0.00297016	0.00274905	0.00287831	0.00141435	0.00138138	0.00134373	0.00121313	0.00196544	0.00210627	0.00297486	0.0028816	0.0028146	0.00309139	0.00287842	0.00284492	0.0011869	0.00310268	0.00283922	0.00182083	0.00279444	0.00119134	0.00119131	0.00282847	0.00131167	0.00271723	0.0029309	0.00280785	0.00226037	0.00194393	0.00244934	0.00149871	0.00138435	0.00141335	0.00139406	0.00136473	0.0311435	0.00997237	0.00102267	0.00102267	0.00102267	0.0164184	0.365993	0.255523	0.00107355	0.00102332	0.651368	0.299433	0.296898	0.00610838	0.0846701	0.130315	0.255346	0.00121868	0.0013884	0.00151596	0.0569946	0.626734	0.951136	0.291886	0.999038	0.349936	0.119682	0.00465713	0.999047	0.103069	0.214984	0.145229	0.406206	0.048451	0.00741673	0.9985	0.23025	0.222959	0.9991	0.337438	
3.375	0.00280274	0.00147286	0.00147114	0.00160169	0.00154203	0.00297016	0.00274905	0.00287831	0.00141435	0.00138138	0.00134373	0.00121313	0.00196544	0.00210627	0.00297486	0.0028816	0.0028146	0.00309139	0.00287842	0.00284492	0.0011869	0.00310268	0.00283922	0.00182083	0.00279444	0.00119134	0.00119131	0.00282847	0.00131167	0.00271723	0.0029309	0.00280785	0.00226037	0.00194393	0.00244934	0.00149871	0.00138435	0.00141335	0.00139406	0.00136473	0.0215637	0.00597696	0.00102267	0.00102267	0.00102267	0.00956828	0.353627	0.249827	0.00107355	0.00102332	0.659669	0.292556	0.282818	0.00601008	0.0772259	0.120487	0.24775	0.00121868	0.0013884	0.00667056	0.0240836	0.472019	0.993303	0.267993	0.999038	0.356244	0.115745	0.00315027	0.999047	0.0903033	0.0761343	0.134103	0.393072	0.0476783	0.00453676	0.998796	0.229105	0.265443	0.9991	0.395672	
3.38	0.00280274	0.00147286	0.00147114	0.00160169	0.00154203	0.00297016	0.00274905	0.00287831	0.00141435	0.00138138	0.00134373	0.00121313	0.00196544	0.00210627	0.00297486	0.0028816	0.0028146	0.00309139	0.00287842	0.00284492	0.0011869	0.00310268	0.00283922	0.00182083	0.00279444	0.00119134	0.00119131	0.00282847	0.00131167	0.00271723	0.0029309	0.00280785	0.00226037	0.00194393	0.00244934	0.00149871	0.00138435	0.00141335	0.00139406	0.00136473	0.0145212	0.00374566	0.00102267	0.00102267	0.00102267	0.00573013	0.34156	0.244154	0.00107355	0.00102332	0.673767	0.286055	0.269116	0.00477227	0.0704126	0.111355	0.240317	0.00121868	0.0013884	0.354382	0.0103096	0.0835259	0.998404	0.24562	0.999038	0.358896	0.112005	0.00224566	0.999047	0.0805562	0.025936	0.123755	0.380209	0.0480483	0.00294228	0.998919	0.225852	0.312365	0.9991	0.453098	
3.385	0.00280274	0.00147286	0.00147114	0.00160169	0.00154203	0.00297016	0.00274905	0.00287831	0.00141435	0.00138138	0.00134373	0.00121313	0.00196544	0.00210627	0.00297486	0.0028816	0.0028146	0.00309139	0.00287842	0.00284492	0.0011869	0.00310268	0.00283922	0.00182083	0.00279444	0.00119134	0.00119131	0.00282847	0.00131167	0.00271723	0.0029309	0.00280785	0.00226037	0.00194393	0.00244934	0.00149871	0.00138435	0.00141335	0.00139406	0.00136473	0.00942964	0.00251022	0.00102267	0.00102267	0.00102267	0.00359925	0.329794	0.238513	0.00107355	0.00102332	0.655671	0.281069	0.255822	0.00974323	0.0641811	0.102874	0.233048	0.00121868	0.0013884	0.403253	0.00471628	0.0123688	0.164744	0.224749	0.999038	0.362967	0.108998	0.00171926	0.999047	0.0743172	0.00923314	0.114141	0.367623	0.0486533	0.00206582	0.99897	0.222548	0.362838	0.9991	0.508216	
3.39	0.00280274	0.00147286	0.00147114	0.00160169	0.00154203	0.00297016	0.00274905	0.00287831	0.00141435	0.00138138	0.00134373	0.00121313	0.00196544	0.00210627	0.00297486	0.0028816	0.0028146	0.00309139	0.00287842	0.00284492	0.0011869	0.00310268	0.00283922	0.00182083	0.00279444	0.00119134	0.00119131	0.00282847	0.00131167	0.00271723	0.0029309	0.00280785	0.00226037	0.00194393	0.00244934	0.00149871	0.00138435	0.00141335	0.00139406	0.00136473	0.00647918	0.00183108	0.00102267	0.00102267	0.00102267	0.00242522	0.318331	0.232911	0.00107355	0.00102332	0.657951	0.277092	0.242955	0.00890043	0.0584853	0.095005	0.225943	0.00121868	0.0013884	0.94578	0.00249309	0.00241588	0.0213715	0.205344	0.999038	0.367033	0.106275	0.00141975	0.999047	0.0701754	0.00388011	0.105218	0.355322	0.0498504	0.00158698	0.99899	0.222813	0.414508	0.9991	0.560099	
3.395	0.00280274	0.00147286	0.00147114	0.00160169	0.00154203	0.00297016	0.00274905	0.00287831	0.00141435	0.00138138	0.00134373	0.00121313	0.00196544	0.00210627	0.00297486	0.0028816	0.0028146	0.00309139	0.00287842	0.00284492	0.0011869	0.00310268	0.00283922	0.00182083	0.00279444	0.00119134	0.00119131	0.00282847	0.00131167	0.00271723	0.0029309	0.00280785	0.00226037	0.00194393	0.00244934	0.00149871	0.00138435	0.00141335	0.00139406	0.00136473	0.00489393	0.00146001	0.00102267	0.00102267	0.00102267	0.00178252	0.307171	0.227355	0.00107355	0.00102332	0.65761	0.274514	0.230531	0.00676868	0.0546861	0.0877079	0.219079	0.00121868	0.0013884	0.994588	0.0261216	0.00116737	0.00328439	0.187357	0.999038	0.369909	0.103787	0.00125221	0.999047	0.0667872	0.00219547	0.0969454	0.34331	0.0518905	0.00132673	0.998998	0.224551	0.465693	0.9991	0.608231	
3.4	0.00280274	0.00147286	0.00147114	0.00160169	0.00154203	0.00297016	0.00274905	0.00287831	0.00141435	0.00138138	0.00134373	0.00121313	0.00196544	0.00210627	0.00297486	0.0028816	0.0028146	0.00309139	0.00287842	0.00284492	0.0011869	0.00310268	0.00283922	0.00182083	0.00279444	0.00119134	0.00119131	0.00282847	0.00131167	0.00271723	0.0029309	0.00280785	0.00226037	0.00194393	0.00244934	0.00149871	0.00138435	0.00141335	0.00139406	0.00136473	0.004124	0.00125833	0.00102267	0.00102267	0.00102267	0.00143263	0.296312	0.221852	0.00107355	0.00102332	0.675335	0.272346	0.218561	0.0137325	0.0565984	0.0848741	0.212686	0.00121868	0.0013884	0.998986	0.0293328	0.00101953	0.00270681	0.170728	0.733404	0.378904	0.101453	0.00115972	0.594947	0.0648906	0.0016703	0.0892817	0.331589	0.0545978	0.00118592	0.999001	0.224983	0.515226	0.9991	0.652384	
3.405	0.00280274	0.00147286	0.00147114	0.00160169	0.00154203	0.00297016	0.00274905	0.00287831	0.00141435	0.00138138	0.00134373	0.00121313	0.00196544	0.00210627	0.00297486	0.0028816	0.0028146	0.00309139	0.00287842	0.00284492	0.0011869	0.00310268	0.00283922	0.00182083	0.00279444	0.00119134	0.00119131	0.00282847	0.00131167	0.00271723	0.0029309	0.00280785	0.00226037	0.00194393	0.00244934	0.00149871	0.00138435	0.00141335	0.00139406	0.00136473	0.00317212	0.0011492	0.00102267	0.00102267	0.00102267	0.00124304	0.285755	0.216408	0.00107355	0.00102332	0.659444	0.270985	0.20705	0.0124321	0.0617817	0.085434	0.206844	0.00121868	0.0013884	0.999352	0.0176917	0.00100262	0.00129299	0.155394	0.474848	0.381469	0.0993831	0.00110921	0.169625	0.0638672	0.00150744	0.0821885	0.320163	0.0584083	0.00111005	0.999003	0.224394	0.562333	0.9991	0.692533	
3.41	0.00280274	0.00147286	0.00147114	0.00160169	0.00154203	0.00297016	0.00274905	0.00287831	0.00141435	0.00138138	0.00134373	0.00121313	0.00196544	0.00210627	0.00297486	0.0028816	0.0028146	0.00309139	0.00287842	0.00284492	0.0011869	0.00310268	0.00283922	0.00182083	0.00279444	0.00119134	0.00119131	0.00282847	0.00131167	0.00271723	0.0029309	0.00280785	0.00226037	0.00194393	0.00244934	0.00149871	0.00138435	0.00141335	0.00139406	0.00136473	0.00240492	0.0010904	0.00102267	0.00102267	0.00102267	0.00119646	0.275498	0.211027	0.00107355	0.00102332	0.656802	0.270093	0.196	0.00932431	0.0737373	0.0929312	0.201738	0.00121868	0.0013884	0.999381	0.00921192	0.00100073	0.00106036	0.141283	0.28673	0.379734	0.0975154	0.00108186	0.036495	0.0611824	0.00145708	0.0756285	0.309031	0.0632093	0.00106931	0.999003	0.224399	0.606534	0.9991	0.728782	
3.415	0.00280274	0.00147286	0.00147114	0.00160169	0.00154203	0.00297016	0.00274905	0.00287831	0.00141435	0.00138138	0.00134373	0.00121313	0.00196544	0.00210627	0.00297486	0.0028816	0.0028146	0.00309139	0.00287842	0.00284492	0.0011869	0.00310268	0.00283922	0.00182083	0.00279444	0.00119134	0.00119131	0.00282847	0.00131167	0.00271723	0.0029309	0.00280785	0.00226037	0.00194393	0.00244934	0.00149871	0.00138435	0.00141335	0.00139406	0.00136473	0.0018717	0.00105882	0.247823	0.193074	0.00102267	0.00127383	0.265537	0.205714	0.00107355	0.00102332	0.653607	0.26952	0.185411	0.0134632	0.0944981	0.107415	0.19744	0.00121868	0.0013884	0.999383	0.00472513	0.00100053	0.00103131	0.128326	0.165734	0.376318	0.0959242	0.00106716	0.00764485	0.058363	0.00144154	0.0695664	0.298479	0.0689869	0.0010475	0.999003	0.225072	0.647568	0.9991	0.761321	
3.42	0.00280274	0.00147286	0.00147114	0.00160169	0.00154203	0.00297016	0.00274905	0.00287831	0.00141435	0.00138138	0.00134373	0.00121313	0.00196544	0.00210627	0.00297486	0.0028816	0.0028146	0.00309139	0.00287842	0.00284492	0.0011869	0.00310268	0.00283922	0.00182083	0.00279444	0.00119134	0.00119131	0.00282847	0.00131167	0.00271723	0.0029309	0.00280785	0.00226037	0.00194393	0.00244934	0.00149871	0.00138435	0.00141335	0.00139406	0.00136473	0.00283856	0.00104192	0.495293	0.440399	0.00102267	0.00123264	0.255869	0.200474	0.00107355	0.00102332	0.594016	0.268506	0.175279	0.0115025	0.121961	0.127475	0.193927	0.00121868	0.905677	0.999383	0.00263151	0.0010005	0.00102807	0.116449	0.0930981	0.380828	0.0944808	0.00105931	0.00219834	0.0564513	0.00143675	0.0639684	0.288773	0.0765465	0.00103586	0.999003	0.224039	0.6848	0.9991	0.790388	
3.425	0.00280274	0.00147286	0.00147114	0.00160169	0.00154203	0.00297016	0.00274905	0.00287831	0.00141435	0.00138138	0.00134373	0.00121313	0.00196544	0.00210627	0.00297486	0.0028816	0.0028146	0.00309139	0.00287842	0.00284492	0.0011869	0.00310268	0.00283922	0.00182083	0.00279444	0.00119134	0.00119131	0.00282847	0.00131167	0.00271723	0.0029309	0.00280785	0.00226037	0.00194393	0.00244934	0.00149871	0.00138435	0.00141335	0.00139406	0.00136473	0.00282793	0.00103289	0.681632	0.640255	0.00102267	0.001171	0.24666	0.195309	0.00107355	0.00102332	0.641203	0.267523	0.165597	0.00845094	0.154384	0.151906	0.191167	0.00121868	0.322569	0.999383	0.00171848	0.0010005	0.00102774	0.105581	0.0513633	0.378422	0.0931651	0.00105513	0.0012409	0.0554049	0.00143528	0.0588026	0.280226	0.0840777	0.00102966	0.999004	0.223993	0.716182	0.9991	0.816249	
3.43	0.00280274	0.00147286	0.00147114	0.00160169	0.00154203	0.00297016	0.00274905	0.00287831	0.00141435	0.00138138	0.00134373	0.00121313	0.00196544	0.00210627	0.00297486	0.0028816	0.0028146	0.00309139	0.00287842	0.00284492	0.0011869	0.00310268	0.00283922	0.00182083	0.00279444	0.00119134	0.00119131	0.00282847	0.00131167	0.00271723	0.0029309	0.00280785	0.00226037	0.00194393	0.00244934	0.00149871	0.00138435	0.00141335	0.00139406	0.00136473	0.00238628	0.00102809	0.806687	0.778889	0.00102267	0.0011191	0.238648	0.190283	0.00107355	0.00102332	0.61254	0.266197	0.156357	0.00792426	0.190328	0.179683	0.189136	0.00121868	0.611427	0.999383	0.00133678	0.0010005	0.0010277	0.0956522	0.028092	0.377436	0.0919213	0.00105293	0.0010798	0.0545201	0.00143482	0.0540385	0.273014	0.091893	0.00102637	0.999004	0.22336	0.7409	0.9991	0.839178	
3.435	0.00280274	0.00147286	0.00147114	0.00160169	0.00154203	0.00297016	0.00274905	0.00287831	0.00141435	0.00138138	0.00134373	0.00121313	0.00196544	0.00210627	0.00297486	0.0028816	0.0028146	0.00309139	0.00287842	0.00284492	0.0011869	0.00310268	0.00283922	0.00182083	0.00279444	0.00119134	0.00119131	0.00282847	0.00131167	0.00271723	0.0029309	0.00280785	0.00226037	0.00194393	0.00244934	0.00149871	0.00138435	0.00141335	0.00139406	0.00136473	0.00194124	0.00102553	0.885558	0.868012	0.00102267	0.00108232	0.232281	0.185614	0.00107355	0.00102332	0.61067	0.264329	0.147551	0.00678762	0.228615	0.209937	0.187823	0.00121868	0.521448	0.999383	0.00118175	0.0010005	0.0010277	0.0865941	0.0153939	0.373193	0.090722	0.00105177	0.00105349	0.0528675	0.00143468	0.051515	0.267271	0.0998364	0.00102462	0.999004	0.224452	0.758901	0.9991	0.857787	
3.44	0.00280274	0.00147286	0.00147114	0.00160169	0.00154203	0.00297016	0.00274905	0.00287831	0.00141435	0.00138138	0.00134373	0.00121313	0.00196544	0.00210627	0.00297486	0.0028816	0.0028146	0.00309139	0.00287842	0.00284492	0.0011869	0.00310268	0.00283922	0.00182083	0.00279444	0.00119134	0.00119131	0.00282847	0.00131167	0.00271723	0.0029309	0.00280785	0.00226037	0.00194393	0.00244934	0.00149871	0.00138435	0.00141335	0.00139406	0.00136473	0.00178906	0.00102418	0.933395	0.922747	0.00102267	0.00105836	0.227776	0.181506	0.00107355	0.00102332	0.608641	0.26164	0.139167	0.00509396	0.268283	0.241938	0.187209	0.00121868	0.702732	0.999383	0.00112009	0.0010005	0.0010277	0.0834956	0.00857734	0.364562	0.0895201	0.00105116	0.00104928	0.0485516	0.00143464	0.0542929	0.26308	0.107605	0.0010237	0.999004	0.224198	0.770457	0.9991	0.871004	
3.445	0.00280274	0.00147286	0.00147114	0.00160169	0.00154203	0.00297016	0.00274905	0.00287831	0.00141435	0.00138138	0.00134373	0.00121313	0.00196544	0.00210627	0.00297486	0.0028816	0.0028146	0.00309139	0.00287842	0.00284492	0.0011869	0.00310268	0.00283922	0.00182083	0.00279444	0.00119134	0.00119131	0.00282847	0.00131167	0.00271723	0.0029309	0.00280785	0.00226037	0.00194393	0.00244934	0.00149871	0.00138435	0.00141335	0.00139406	0.00136473	0.00156362	0.00102347	0.961636	0.955348	0.00102267	0.00104353	0.225222	0.178175	0.00107355	0.00102332	0.585542	0.257971	0.131193	0.00366889	0.308558	0.275069	0.187264	0.00121868	0.546449	0.999383	0.00109596	0.0010005	0.0010277	0.0899557	0.00496428	0.351925	0.0882791	0.00105084	0.00104862	0.0381016	0.00143463	0.0636969	0.260488	0.115341	0.00102321	0.999004	0.221674	0.775238	0.9991	0.877478	
3.45	0.00280274	0.00147286	0.00147114	0.00160169	0.00154203	0.00297016	0.00274905	0.00287831	0.00141435	0.00138138	0.00134373	0.00121313	0.00196544	0.00210627	0.00297486	0.0028816	0.0028146	0.00309139	0.00287842	0.00284492	0.0011869	0.00310268	0.00283922	0.00182083	0.00279444	0.00119134	0.00119131	0.00282847	0.00131167	0.00271723	0.0029309	0.00280785	0.00226037	0.00194393	0.00244934	0.00149871	0.00138435	0.00141335	0.00139406	0.00136473	0.00137416	0.00102309	0.97798	0.97434	0.00102267	0.00103464	0.22462	0.175838	0.00107355	0.00102332	0.558348	0.253471	0.123617	0.00378179	0.348687	0.308819	0.187946	0.00121868	0.573496	0.999383	0.00108663	0.0010005	0.0010277	0.107178	0.00306861	0.337006	0.0869974	0.00105067	0.00104852	0.0198154	0.00143462	0.0795671	0.259514	0.123421	0.00102295	0.999004	0.217511	0.77221	0.9991	0.875198	
3.455	0.00280274	0.00147286	0.00147114	0.00160169	0.00154203	0.00297016	0.00274905	0.00287831	0.00141435	0.00138138	0.00134373	0.00121313	0.00196544	0.00210627	0.00297486	0.0028816	0.0028146	0.00309139	0.00287842	0.00284492	0.0011869	0.00310268	0.00283922	0.00182083	0.00279444	0.00119134	0.00119131	0.00282847	0.00131167	0.00271723	0.0029309	0.00280785	0.00226037	0.00194393	0.00244934	0.00149871	0.00138435	0.00141335	0.00139406	0.00136473	0.00124002	0.00102289	0.987295	0.98522	0.00102267	0.00102945	0.225913	0.174679	0.00107355	0.00102332	0.506945	0.248171	0.11645	0.00402624	0.387478	0.342763	0.189205	0.00121868	0.471025	0.999383	0.00108305	0.0010005	0.0010277	0.133591	0.00208227	0.320276	0.0856612	0.00105058	0.0010485	0.00651976	0.00143462	0.100745	0.260147	0.131971	0.00102282	0.999004	0.2117	0.760392	0.9991	0.862227	
3.46	0.00280274	0.00147286	0.00147114	0.00160169	0.00154203	0.00297016	0.00274905	0.00287831	0.00141435	0.00138138	0.00134373	0.00121313	0.00196544	0.00210627	0.00297486	0.0028816	0.0028146	0.00309139	0.00287842	0.00284492	0.0011869	0.00310268	0.00283922	0.00182083	0.00279444	0.00119134	0.00119131	0.00282847	0.00131167	0.00271723	0.0029309	0.00280785	0.00226037	0.00194393	0.00244934	0.00149871	0.00138435	0.00141335	0.00139406	0.00136473	0.0011527	0.00102278	0.992539	0.991371	0.00102267	0.00102647	0.228983	0.174756	0.0139568	0.00625742	0.133261	0.240921	0.110439	0.0033588	0.423977	0.376552	0.190983	0.00121868	0.418737	0.999383	0.0010817	0.0010005	0.0010277	0.166712	0.00157263	0.294325	0.084108	0.00105054	0.0010485	0.00242628	0.00143462	0.125685	0.262308	0.141246	0.00102275	0.944011	0.198653	0.741228	0.336588	0.83991	
3.465	0.00280274	0.00147286	0.00147114	0.00160169	0.00154203	0.00297016	0.00274905	0.00287831	0.00141435	0.00138138	0.00134373	0.00121313	0.00196544	0.00210627	0.00297486	0.0028816	0.0028146	0.00309139	0.00287842	0.00284492	0.0011869	0.00310268	0.00283922	0.00182083	0.00279444	0.00119134	0.00119131	0.00282847	0.00131167	0.00271723	0.0029309	0.00280785	0.00226037	0.00194393	0.00244934	0.00149871	0.00138435	0.00141335	0.00139406	0.00136473	0.00109865	0.00102273	0.995463	0.994812	0.00102267	0.00102478	0.233678	0.176024	0.633015	0.306627	0.027177	0.232224	0.105486	0.0026193	0.457416	0.409903	0.193215	0.00121868	0.307995	0.999383	0.00108119	0.0010005	0.0010277	0.204524	0.00131085	0.263978	0.0823762	0.00105052	0.0010485	0.00140177	0.00143462	0.153137	0.265871	0.151696	0.00102271	0.894675	0.181673	0.718201	0.169371	0.812468	
3.47	0.00280274	0.00147286	0.00147114	0.00160169	0.00154203	0.00297016	0.00274905	0.00287831	0.00141435	0.00138138	0.00134373	0.00121313	0.00196544	0.00210627	0.00297486	0.0028816	0.0028146	0.00309139	0.00287842	0.00284492	0.0011869	0.00310268	0.00283922	0.00182083	0.00279444	0.00119134	0.00119131	0.00282847	0.00131167	0.00271723	0.0029309	0.00280785	0.00226037	0.00194393	0.00244934	0.00149871	0.00138435	0.00141335	0.00139406	0.00136473	0.00106629	0.0010227	0.99708	0.99672	0.00102267	0.00102383	0.239854	0.178436	0.849769	0.470047	0.00580351	0.222493	0.101521	0.00204107	0.487168	0.441806	0.195834	0.00121868	0.186251	0.999383	0.001081	0.0010005	0.0010277	0.244515	0.00117706	0.232398	0.0804996	0.0010505	0.0010485	0.00116874	0.00143462	0.182262	0.270701	0.163807	0.00102269	0.856332	0.162966	0.693939	0.166786	0.783069	
3.475	0.00280274	0.00147286	0.00147114	0.00160169	0.00154203	0.00297016	0.00274905	0.00287831	0.00141435	0.00138138	0.00134373	0.00121313	0.00196544	0.00210627	0.00297486	0.0028816	0.0028146	0.00309139	0.00287842	0.00284492	0.0011869	0.00310268	0.00283922	0.00182083	0.00279444	0.00119134	0.00119131	0.00282847	0.00131167	0.00271723	0.0029309	0.00280785	0.00226037	0.00194393	0.00244934	0.00149871	0.00138435	0.00141335	0.00139406	0.00136473	0.00104736	0.00102268	0.997967	0.99777	0.00102267	0.0010233	0.247363	0.181939	0.985185	0.581506	0.00197101	0.212064	0.0983501	0.00164488	0.512718	0.471256	0.198763	0.00121868	0.0631433	0.999383	0.00108093	0.0010005	0.0010277	0.284489	0.00110899	0.201599	0.0785077	0.0010505	0.0010485	0.00111858	0.00143462	0.212431	0.276656	0.178076	0.00102268	0.759342	0.143993	0.670367	0.0879033	0.75405	
3.48	0.00280274	0.00147286	0.00147114	0.00160169	0.00154203	0.00297016	0.00274905	0.00287831	0.00141435	0.00138138	0.00134373	0.00121313	0.00196544	0.00210627	0.00297486	0.0028816	0.0028146	0.00309139	0.00287842	0.00284492	0.0011869	0.00310268	0.00283922	0.00182083	0.00279444	0.00119134	0.00119131	0.00282847	0.00131167	0.00271723	0.0029309	0.00280785	0.00226037	0.00194393	0.00244934	0.00149871	0.00138435	0.00141335	0.00139406	0.00136473	0.0010365	0.00102268	0.998452	0.998344	0.00102267	0.00102301	0.25596	0.186476	0.855389	0.4926	0.00131711	0.201213	0.0961633	0.00139179	0.532066	0.495583	0.201795	0.00121868	0.760878	0.999383	0.0010809	0.0010005	0.0010277	0.321563	0.00107449	0.172791	0.0764264	0.00105049	0.0010485	0.0289583	0.00143462	0.243064	0.283533	0.194931	0.00102267	0.789229	0.125689	0.648876	0.656345	0.727144	
3.485	0.00280274	0.00147286	0.00147114	0.00160169	0.00154203	0.00297016	0.00274905	0.00287831	0.00141435	0.00138138	0.00134373	0.00121313	0.00196544	0.00210627	0.00297486	0.0028816	0.0028146	0.00309139	0.00287842	0.00284492	0.0011869	0.00310268	0.00283922	0.00182083	0.00279444	0.00119134	0.00119131	0.00282847	0.00131167	0.00271723	0.0029309	0.00280785	0.00226037	0.00194393	0.00244934	0.00149871	0.00138435	0.00141335	0.00139406	0.00136473	0.00103034	0.00102267	0.998715	0.90542	0.00102267	0.00102285	0.265538	0.192001	0.24284	0.177706	0.00120824	0.19016	0.0952391	0.00123701	0.54566	0.514797	0.204888	0.00121868	0.338136	0.999383	0.00108089	0.0010005	0.0010277	0.355174	0.00105706	0.146632	0.0742784	0.00105049	0.0010485	0.0475612	0.00143462	0.273741	0.291202	0.214724	0.00102267	0.850374	0.10863	0.629541	0.070333	0.70211	
3.49	0.00280274	0.00147286	0.00147114	0.00160169	0.00154203	0.00297016	0.00274905	0.00287831	0.00141435	0.00138138	0.00134373	0.00121313	0.00196544	0.00210627	0.00297486	0.0028816	0.0028146	0.00309139	0.00287842	0.00284492	0.0011869	0.00310268	0.00283922	0.00182083	0.00279444	0.00119134	0.00119131	0.00282847	0.00131167	0.00271723	0.0029309	0.00280785	0.00226037	0.00194393	0.00244934	0.00149871	0.00138435	0.00141335	0.00139406	0.00136473	0.00102689	0.00102267	0.877934	0.732534	0.00102267	0.00102277	0.275989	0.198446	0.108048	0.0550561	0.00124107	0.179084	0.0953814	0.00114512	0.55434	0.529328	0.208024	0.00917244	0.943966	0.999383	0.00108089	0.0010005	0.559154	0.384722	0.00104829	0.123403	0.0720834	0.00105049	0.0010485	0.0672957	0.00143462	0.304054	0.299523	0.23772	0.00102267	0.880248	0.093111	0.613646	0.0965652	0.680961	
3.495	0.00280274	0.00147286	0.00147114	0.00160169	0.00154203	0.00297016	0.00274905	0.00287831	0.00141435	0.00138138	0.00134373	0.00121313	0.00196544	0.00210627	0.00297486	0.0028816	0.0028146	0.00309139	0.00287842	0.00284492	0.0011869	0.00310268	0.00283922	0.00182083	0.00279444	0.00119134	0.00119131	0.00282847	0.00131167	0.00271723	0.0029309	0.00280785	0.00226037	0.00194393	0.00244934	0.00149871	0.00138435	0.00141335	0.00139406	0.00136473	0.00102498	0.00102267	0.731936	0.569756	0.00102267	0.00102272	0.287235	0.205748	0.011227	0.013264	0.166724	0.168394	0.09669	0.00109174	0.559127	0.53995	0.21122	0.0558221	0.994966	0.999383	0.00108088	0.0010005	0.813233	0.410146	0.00104388	0.11096	0.0698807	0.00105049	0.0010485	0.0797054	0.00143462	0.333616	0.308366	0.264041	0.00102267	0.922971	0.0898421	0.601262	0.114121	0.663793	
3.5	0.00280274	0.00147286	0.00147114	0.00160169	0.00154203	0.00297016	0.00274905	0.00287831	0.00141435	0.00138138	0.00134373	0.00121313	0.00196544	0.00210627	0.00297486	0.0028816	0.0028146	0.00309139	0.00287842	0.00284492	0.0011869	0.00310268	0.00283922	0.00182083	0.00279444	0.00119134	0.00119131	0.00282847	0.00131167	0.00271723	0.0029309	0.00280785	0.00226037	0.00194393	0.00244934	0.00149871	0.00138435	0.00141335	0.00139406	0.00136473	0.00102393	0.00102267	0.679479	0.500318	0.00102267	0.0010227	0.299204	0.21384	0.00182018	0.00348058	0.42649	0.159984	0.099605	0.00106123	0.561482	0.547881	0.214517	0.201575	0.998997	0.999383	0.00108088	0.0010005	0.971106	0.431482	0.00104167	0.143457	0.0678284	0.00105049	0.0010485	0.0845763	0.00143462	0.362056	0.317601	0.293608	0.00102267	0.95926	0.128261	0.592259	0.118495	0.650455	
3.505	0.00280274	0.00147286	0.00147114	0.00160169	0.00154203	0.00297016	0.00274905	0.00287831	0.00141435	0.00138138	0.00134373	0.00121313	0.00196544	0.00210627	0.00297486	0.0028816	0.0028146	0.00309139	0.00287842	0.00284492	0.0011869	0.00310268	0.00283922	0.00182083	0.00279444	0.00119134	0.00119131	0.00282847	0.00131167	0.00271723	0.0029309	0.00280785	0.00226037	0.00194393	0.00244934	0.00149871	0.00138435	0.00141335	0.00139406	0.00136473	0.00102335	0.00102267	0.744152	0.563627	0.00102267	0.00102268	0.311826	0.222647	0.00112281	0.00148533	0.547987	0.156285	0.104663	0.00104401	0.563058	0.554581	0.217979	0.245175	0.999287	0.999383	0.00420408	0.82145	0.99565	0.448845	0.00104057	0.218358	0.0661344	0.00105049	0.0010485	0.0830929	0.00143462	0.389035	0.327102	0.326187	0.00102267	0.980097	0.177294	0.58638	0.0849536	0.640638	
3.51	0.00280274	0.00147286	0.00147114	0.00160169	0.00154203	0.00297016	0.00274905	0.00287831	0.00141435	0.00138138	0.00134373	0.00121313	0.00196544	0.00210627	0.00297486	0.0028816	0.0028146	0.00309139	0.00287842	0.00284492	0.0011869	0.00310268	0.00283922	0.00182083	0.00279444	0.00119134	0.00119131	0.00282847	0.00131167	0.00271723	0.0029309	0.00280785	0.00226037	0.00194393	0.00244934	0.00149871	0.00138435	0.00141335	0.00139406	0.00136473	0.00102304	0.00102267	0.822937	0.686447	0.00102267	0.00102268	0.325033	0.232085	0.00107661	0.00110669	0.608809	0.158984	0.112289	0.0010344	0.565655	0.561751	0.221697	0.651406	0.999307	0.999383	0.00692564	0.354615	0.998657	0.462535	0.00104002	0.300958	0.0649281	0.00105049	0.0010485	0.0730323	0.00143462	0.414288	0.336757	0.361516	0.00102267	0.990488	0.201705	0.583256	0.0451342	0.633866	
3.515	0.00280274	0.00147286	0.00147114	0.00160169	0.00154203	0.00297016	0.00274905	0.00287831	0.00141435	0.00138138	0.00134373	0.00121313	0.00196544	0.00210627	0.00297486	0.0028816	0.0028146	0.00309139	0.00287842	0.00284492	0.0011869	0.00310268	0.00283922	0.00182083	0.00279444	0.00119134	0.00119131	0.00282847	0.00131167	0.00271723	0.0029309	0.00280785	0.00226037	0.00194393	0.00244934	0.00149871	0.00138435	0.00141335	0.00139406	0.00136473	0.00102287	0.00102267	0.88604	0.794199	0.00102267	0.00102267	0.338728	0.242062	0.00107373	0.00103795	0.637198	0.168659	0.12271	0.00102908	0.571039	0.571146	0.225779	0.952091	0.999308	0.999383	0.00476257	0.600515	0.998989	0.472971	0.00103974	0.359723	0.0642375	0.00105049	0.0010485	0.0559059	0.00143462	0.43762	0.346474	0.399157	0.00102267	0.995302	0.207365	0.582429	0.0108789	0.629533	
3.52	0.00280274	0.00147286	0.00147114	0.00160169	0.00154203	0.00297016	0.00274905	0.00287831	0.00141435	0.00138138	0.00134373	0.00121313	0.00196544	0.00210627	0.00297486	0.0028816	0.0028146	0.00309139	0.00287842	0.00284492	0.0011869	0.00310268	0.00283922	0.00182083	0.00279444	0.00119134	0.00119131	0.00282847	0.00131167	0.00271723	0.0029309	0.00280785	0.00226037	0.00194393	0.00244934	0.00149871	0.00138435	0.00141335	0.00139406	0.00136473	0.00102277	0.00102267	0.92973	0.871716	0.00102267	0.00106884	0.352826	0.252483	0.00107356	0.00102584	0.65062	0.184673	0.136077	0.00102615	0.580245	0.582768	0.230309	0.993813	0.999308	0.999383	0.00293296	0.93019	0.999023	0.48059	0.00103961	0.386755	0.0640365	0.00105049	0.0010485	0.0377643	0.00143462	0.458864	0.35617	0.438747	0.00102267	0.997435	0.201522	0.582258	0.00197437	0.625219	
3.525	0.00280274	0.00147286	0.00147114	0.00160169	0.00154203	0.00297016	0.00274905	0.00287831	0.00141435	0.00138138	0.00134373	0.00121313	0.00196544	0.00210627	0.00297486	0.0028816	0.0028146	0.00309139	0.00287842	0.00284492	0.0011869	0.00310268	0.00283922	0.00182083	0.00279444	0.00119134	0.00119131	0.00282847	0.00131167	0.00271723	0.0029309	0.00280785	0.00226037	0.00194393	0.00244934	0.00149871	0.00138435	0.00141335	0.00139406	0.00136473	0.00102272	0.00102267	0.957801	0.922584	0.00102267	0.00106947	0.367221	0.263248	0.00107355	0.00102375	0.657849	0.205674	0.152388	0.00102455	0.592637	0.596104	0.23529	0.99863	0.999308	0.999383	0.00476086	0.98957	0.999027	0.485467	0.00103954	0.390443	0.0642437	0.00105049	0.0010485	0.0318899	0.00143462	0.477871	0.365751	0.479823	0.00102267	0.998351	0.190531	0.580952	0.00116917	0.618147	
3.53	0.00280274	0.00147286	0.00147114	0.00160169	0.00154203	0.00297016	0.00274905	0.00287831	0.00141435	0.00138138	0.00134373	0.00121313	0.00196544	0.00210627	0.00297486	0.0028816	0.0028146	0.00309139	0.00287842	0.00284492	0.0011869	0.00310268	0.00283922	0.00182083	0.00279444	0.00119134	0.00119131	0.00282847	0.00131167	0.00271723	0.0029309	0.00280785	0.00226037	0.00194393	0.00244934	0.00149871	0.00138435	0.00141335	0.00139406	0.00136473	0.0010227	0.00102267	0.975035	0.954235	0.00102267	0.00105826	0.381722	0.274247	0.00107355	0.0010234	0.66209	0.230016	0.171423	0.00102368	0.607396	0.610717	0.240655	0.999135	0.999308	0.999383	0.0177549	0.997829	0.999027	0.487438	0.00103951	0.384439	0.0647559	0.00105049	0.0010485	0.0472052	0.00143462	0.494519	0.375104	0.521849	0.00102267	0.998736	0.184498	0.578084	0.00111093	0.607558	
3.535	0.00280274	0.00147286	0.00147114	0.00160169	0.00154203	0.00297016	0.00274905	0.00287831	0.00141435	0.00138138	0.00134373	0.00121313	0.00196544	0.00210627	0.00297486	0.0028816	0.0028146	0.00309139	0.00287842	0.00284492	0.0011869	0.00310268	0.00283922	0.00182083	0.00279444	0.00119134	0.00119131	0.00282847	0.00131167	0.00271723	0.0029309	0.00280785	0.00226037	0.00194393	0.00244934	0.00149871	0.00138435	0.00141335	0.00139406	0.00136473	0.00102268	0.00102267	0.985295	0.973254	0.00102267	0.00104672	0.396117	0.285366	0.00107355	0.00102334	0.664296	0.255987	0.192737	0.00102321	0.622366	0.62588	0.246286	0.999186	0.999308	0.999383	0.0256183	0.998863	0.999027	0.48641	0.00103949	0.377816	0.0654717	0.00105049	0.0010485	0.0842613	0.00143462	0.508732	0.384108	0.564287	0.00102267	0.998895	0.181752	0.574233	0.00312626	0.594425	
3.54	0.00280274	0.00147286	0.00147114	0.00160169	0.00154203	0.00297016	0.00274905	0.00287831	0.00141435	0.00138138	0.00134373	0.00121313	0.00196544	0.00210627	0.00297486	0.0028816	0.0028146	0.00309139	0.00287842	0.00284492	0.0011869	0.00310268	0.00283922	0.00182083	0.00279444	0.00119134	0.00119131	0.00282847	0.00131167	0.00271723	0.0029309	0.00280785	0.00226037	0.00194393	0.00244934	0.00149871	0.00138435	0.00141335	0.00139406	0.00136473	0.00102268	0.00102267	0.946748	0.944694	0.00102267	0.00103791	0.410193	0.296487	0.00107355	0.00102333	0.680753	0.28185	0.215849	0.00102296	0.635447	0.639551	0.252034	0.99919	0.999308	0.999383	0.0279105	0.998985	0.999027	0.482443	0.00103948	0.375444	0.0663002	0.00105049	0.0010485	0.138331	0.00143462	0.520477	0.392649	0.606222	0.00102267	0.99896	0.180194	0.570401	0.00607516	0.580621	
3.545	0.00280274	0.00147286	0.00147114	0.00160169	0.00154203	0.00297016	0.00274905	0.00287831	0.00141435	0.00138138	0.00134373	0.00121313	0.00196544	0.00210627	0.00297486	0.0028816	0.0028146	0.00309139	0.00287842	0.00284492	0.0011869	0.00310268	0.00283922	0.00182083	0.00279444	0.00119134	0.00119131	0.00282847	0.00131167	0.00271723	0.0029309	0.00280785	0.00226037	0.00194393	0.00244934	0.00149871	0.00138435	0.00141335	0.00139406	0.00136473	0.00102267	0.00102267	0.710471	0.780178	0.0202022	0.00103194	0.42366	0.307421	0.00107355	0.00102333	0.621822	0.305558	0.240343	0.00102282	0.644636	0.649869	0.257706	0.999191	0.999308	0.999383	0.0260202	0.998999	0.999027	0.475699	0.00229835	0.371931	0.0671183	0.00105049	0.0010485	0.229248	0.00143462	0.52951	0.400565	0.649566	0.0656228	0.998986	0.177852	0.568041	0.00910595	0.568756	
3.55	0.00280274	0.00147286	0.00147114	0.00160169	0.00154203	0.00297016	0.00274905	0.00287831	0.00141435	0.00138138	0.00134373	0.00121313	0.00196544	0.00210627	0.00297486	0.0028816	0.0028146	0.00309139	0.00287842	0.00284492	0.0011869	0.00310268	0.00283922	0.00182083	0.00279444	0.00119134	0.00119131	0.00282847	0.00131167	0.00271723	0.0029309	0.00280785	0.00226037	0.00194393	0.00244934	0.00149871	0.00138435	0.00141335	0.00139406	0.00136473	0.00102267	0.00102267	0.478442	0.550393	0.0204669	0.00102815	0.436505	0.318156	0.00107355	0.00102332	0.667977	0.327971	0.265856	0.00102275	0.649755	0.656512	0.263307	0.999191	0.999308	0.174281	0.0223898	0.999	0.999027	0.466973	0.283299	0.372194	0.0678842	0.0192337	0.0010485	0.245874	0.0352333	0.536399	0.407915	0.691796	0.126698	0.998997	0.176189	0.566617	0.0129838	0.558956	
3.555	0.00280274	0.00147286	0.00147114	0.00160169	0.00154203	0.00297016	0.00274905	0.00287831	0.00141435	0.00138138	0.00134373	0.00121313	0.00196544	0.00210627	0.00297486	0.0028816	0.0028146	0.00309139	0.00287842	0.00284492	0.0011869	0.00310268	0.00283922	0.00182083	0.00279444	0.00119134	0.00119131	0.00282847	0.00131167	0.00271723	0.0029309	0.00280785	0.00226037	0.00194393	0.00244934	0.00149871	0.00138435	0.00141335	0.00139406	0.00136473	0.00102267	0.00102267	0.351178	0.425022	0.0158087	0.00102584	0.448635	0.328597	0.00107355	0.00102332	0.668255	0.347931	0.292073	0.00102271	0.651397	0.660067	0.268811	0.999191	0.999308	0.0183187	0.0160509	0.999	0.999027	0.457293	0.29393	0.372688	0.0685535	0.0285096	0.0010485	0.252433	0.0182153	0.541434	0.414728	0.733735	0.12107	0.999001	0.175979	0.565325	0.0729042	0.550312	
3.56	0.00280274	0.00147286	0.00147114	0.00160169	0.00154203	0.00297016	0.00274905	0.00287831	0.00141435	0.00138138	0.00134373	0.00121313	0.00196544	0.00210627	0.00297486	0.0028816	0.0028146	0.00309139	0.00287842	0.00284492	0.0011869	0.00310268	0.00283922	0.00182083	0.00279444	0.00119134	0.00119131	0.00282847	0.00131167	0.00271723	0.0029309	0.00280785	0.00226037	0.00194393	0.00244934	0.00149871	0.00138435	0.00141335	0.00139406	0.00136473	0.0531205	0.00102267	0.334197	0.366476	0.0110172	0.00102448	0.459961	0.338662	0.00107355	0.00102332	0.668586	0.365234	0.318723	0.00102269	0.649796	0.660726	0.27415	0.999191	0.999308	0.00291847	0.00906766	0.999	0.164812	0.447242	0.493326	0.37444	0.0695038	0.0251274	0.0010485	0.259025	0.00779742	0.544923	0.421042	0.774628	0.0904914	0.999002	0.17744	0.563316	0.0273385	0.541844	
3.565	0.00280274	0.00147286	0.00147114	0.00160169	0.00154203	0.00297016	0.00274905	0.00287831	0.00141435	0.00138138	0.00134373	0.00121313	0.00196544	0.00210627	0.00297486	0.0028816	0.0028146	0.00309139	0.00287842	0.00284492	0.0011869	0.00310268	0.00283922	0.00182083	0.00279444	0.00119134	0.00119131	0.00282847	0.00131167	0.00271723	0.0029309	0.00280785	0.00226037	0.00194393	0.00244934	0.00149871	0.00138435	0.00141335	0.00139406	0.00136473	0.0794283	0.00102267	0.321258	0.321903	0.00735604	0.00102369	0.470415	0.348283	0.00107355	0.00102332	0.671396	0.379992	0.345575	0.00102268	0.64523	0.65869	0.27924	0.999191	0.999308	0.00162587	0.00493635	0.999	0.0213783	0.437109	0.678226	0.375956	0.0706393	0.0193485	0.0010485	0.263031	0.00361611	0.547196	0.426907	0.814136	0.0608988	0.999003	0.179179	0.559746	0.0547763	0.532596	
3.57	0.00280274	0.00147286	0.00147114	0.00160169	0.00154203	0.00297016	0.00274905	0.00287831	0.00141435	0.00138138	0.00134373	0.00121313	0.00196544	0.00210627	0.00297486	0.0028816	0.0028146	0.00309139	0.00287842	0.00284492	0.0011869	0.00310268	0.00283922	0.00182083	0.00279444	0.00119134	0.00119131	0.00282847	0.00131167	0.00271723	0.0029309	0.00280785	0.00226037	0.00194393	0.00244934	0.00149871	0.00138435	0.00141335	0.00139406	0.00136473	0.110293	0.00459556	0.266851	0.265772	0.00487538	0.00102324	0.47995	0.357408	0.00107355	0.00102332	0.667709	0.392395	0.37243	0.00102267	0.637851	0.654052	0.283996	0.999191	0.999308	0.00152426	0.00287985	0.999	0.00328505	0.427122	0.808242	0.377666	0.0718934	0.0143639	0.0010485	0.261833	0.00214754	0.548566	0.43238	0.850849	0.0410952	0.999003	0.180715	0.553987	0.0237599	0.521974	
3.575	0.00280274	0.00147286	0.00147114	0.00160169	0.00154203	0.00297016	0.00274905	0.00287831	0.00141435	0.00138138	0.00134373	0.00121313	0.00196544	0.00210627	0.00297486	0.0028816	0.0028146	0.00309139	0.00287842	0.00284492	0.0011869	0.00310268	0.00283922	0.00182083	0.00279444	0.00119134	0.00119131	0.00282847	0.00131167	0.00271723	0.0029309	0.00280785	0.00226037	0.00194393	0.00244934	0.00149871	0.00138435	0.00141335	0.00139406	0.00136473	0.125725	0.0046449	0.214982	0.219171	0.0033012	0.00102298	0.488543	0.366002	0.00107355	0.00102332	0.673508	0.402576	0.399119	0.00102267	0.627856	0.646969	0.288342	0.999191	0.985058	0.00151657	0.00186545	0.999	0.00126313	0.417734	0.890009	0.378723	0.0732103	0.0109427	0.0010485	0.251617	0.0214471	0.549352	0.437528	0.883344	0.0262648	0.999003	0.184283	0.545292	0.0298221	0.508845	
3.58	0.00280274	0.00147286	0.00147114	0.00160169	0.00154203	0.00297016	0.00274905	0.00287831	0.00141435	0.00138138	0.00134373	0.00121313	0.00196544	0.00210627	0.00297486	0.0028816	0.0028146	0.00309139	0.00287842	0.00284492	0.0011869	0.00310268	0.00283922	0.00182083	0.00279444	0.00119134	0.00119131	0.00282847	0.00131167	0.00271723	0.0029309	0.00280785	0.00226037	0.00194393	0.00244934	0.00149871	0.00138435	0.00141335	0.00139406	0.00136473	0.105023	0.00377691	0.217412	0.210507	0.00234269	0.00102284	0.496188	0.374042	0.00107355	0.00102332	0.671751	0.410149	0.425502	0.00102267	0.615412	0.637594	0.292211	0.999191	0.582375	0.001516	0.0014089	0.999	0.0565387	0.409233	0.848762	0.380915	0.0744825	0.00825482	0.0010485	0.234749	0.446179	0.549765	0.442401	0.910171	0.0163166	0.999004	0.188547	0.533061	0.0731963	0.492363	
3.585	0.00280274	0.00147286	0.00147114	0.00160169	0.00154203	0.00297016	0.00274905	0.00287831	0.00141435	0.00138138	0.00134373	0.00121313	0.00196544	0.00210627	0.00297486	0.0028816	0.0028146	0.00309139	0.00287842	0.00284492	0.0011869	0.00310268	0.00283922	0.00182083	0.00279444	0.00119134	0.00119131	0.00282847	0.00131167	0.00271723	0.0029309	0.00280785	0.00226037	0.00194393	0.00244934	0.00149871	0.00138435	0.00141335	0.00139406	0.00136473	0.0744544	0.00288422	0.199356	0.200696	0.00177545	0.00102276	0.502888	0.381513	0.00107355	0.00102332	0.684263	0.415277	0.45146	0.00102267	0.600843	0.626158	0.295575	0.999191	0.643811	0.00151596	0.00121411	0.999	0.0609603	0.401541	0.880741	0.386449	0.0762432	0.00638392	0.0010485	0.217434	0.737868	0.550067	0.446977	0.926585	0.0141846	0.999004	0.196984	0.517563	0.0622998	0.47259	
3.59	0.00280274	0.00147286	0.00147114	0.00160169	0.00154203	0.00297016	0.00274905	0.00287831	0.00141435	0.00138138	0.00134373	0.00121313	0.00196544	0.00210627	0.00297486	0.0028816	0.0028146	0.00309139	0.00287842	0.00284492	0.0011869	0.00310268	0.00283922	0.00182083	0.00279444	0.00119134	0.00119131	0.00282847	0.00131167	0.00271723	0.0029309	0.00280785	0.00226037	0.00194393	0.00244934	0.00149871	0.00138435	0.00141335	0.00139406	0.00136473	0.0487543	0.00220222	0.146641	0.158687	0.00144666	0.00102272	0.50864	0.388412	0.00107355	0.00102332	0.68016	0.418248	0.476894	0.00102267	0.58397	0.612502	0.298346	0.999191	0.967135	0.00151596	0.00113387	0.999	0.050609	0.396172	0.920484	0.391694	0.0783002	0.0050153	0.00744229	0.187045	0.906324	0.550195	0.451353	0.937176	0.0104371	0.999004	0.204011	0.496531	0.0743352	0.446712	
3.595	0.00280274	0.00147286	0.00147114	0.00160169	0.00154203	0.00297016	0.00274905	0.00287831	0.00141435	0.00138138	0.00134373	0.00121313	0.00196544	0.00210627	0.00297486	0.0028816	0.0028146	0.00309139	0.00287842	0.00284492	0.0011869	0.00310268	0.00283922	0.00182083	0.00279444	0.00119134	0.00119131	0.00282847	0.00131167	0.00271723	0.0029309	0.00280785	0.00226037	0.00194393	0.00244934	0.00149871	0.00138435	0.00141335	0.00139406	0.00136473	0.0305462	0.00174018	0.0977345	0.11296	0.00125908	0.0010227	0.51347	0.394741	0.00107355	0.00102332	0.687501	0.419901	0.501488	0.00102267	0.565392	0.597073	0.300536	0.999191	0.996775	0.055626	0.00110163	0.999	0.0466539	0.393086	0.951042	0.395587	0.0805577	0.00409293	0.00283164	0.167258	0.968239	0.550323	0.455573	0.939798	0.00718529	0.999004	0.209472	0.471071	0.0738445	0.417152	
3.6	0.00280274	0.00147286	0.00147114	0.00160169	0.00154203	0.00297016	0.00274905	0.00287831	0.00141435	0.00138138	0.00134373	0.00121313	0.00196544	0.00210627	0.00297486	0.0028816	0.0028146	0.00309139	0.00287842	0.00284492	0.0011869	0.00310268	0.00283922	0.00182083	0.00279444	0.00119134	0.00119131	0.00282847	0.00131167	0.00271723	0.0029309	0.00280785	0.00226037	0.00194393	0.00244934	0.00149871	0.00138435	0.00141335	0.00139406	0.00136473	0.0186888	0.001447	0.0616609	0.0740154	0.0011534	0.00102268	0.51735	0.400501	0.00107355	0.00102332	0.688153	0.420287	0.524909	0.00102267	0.546086	0.580504	0.302059	0.999191	0.999127	0.0697574	0.0010889	0.999	0.0721371	0.391343	0.940813	0.400137	0.0829327	0.00340258	0.00142144	0.130413	0.989248	0.55032	0.459594	0.933603	0.0156227	0.999004	0.217143	0.441549	0.0978798	0.38571	
3.605	0.00280274	0.00147286	0.00147114	0.00160169	0.00154203	0.00297016	0.00274905	0.00287831	0.00141435	0.00138138	0.00134373	0.00121313	0.00196544	0.00210627	0.00297486	0.0028816	0.0028146	0.00309139	0.00287842	0.00284492	0.0011869	0.00310268	0.00283922	0.00182083	0.00279444	0.00119134	0.00119131	0.00282847	0.00131167	0.00271723	0.0029309	0.00280785	0.00226037	0.00194393	0.00244934	0.00149871	0.00138435	0.00141335	0.00139406	0.00136473	0.0113463	0.00126849	0.0376475	0.0462637	0.00109446	0.00102268	0.520269	0.405689	0.00107355	0.00102332	0.690517	0.419507	0.54681	0.00102267	0.527065	0.563451	0.302869	0.999191	0.999296	0.0340731	0.00108395	0.999	0.0520568	0.38856	0.902691	0.404959	0.0856208	0.00263391	0.00111783	0.103327	0.989006	0.550119	0.463385	0.918475	0.0629164	0.999004	0.228725	0.409851	0.0904916	0.353711	
3.61	0.00280274	0.00147286	0.00147114	0.00160169	0.00154203	0.00297016	0.00274905	0.00287831	0.00141435	0.00138138	0.00134373	0.00121313	0.00196544	0.00210627	0.00297486	0.0028816	0.0028146	0.00309139	0.00287842	0.00284492	0.0011869	0.00310268	0.00283922	0.00182083	0.00279444	0.00119134	0.00119131	0.00282847	0.00131167	0.00271723	0.0029309	0.00280785	0.00226037	0.00194393	0.00244934	0.00149871	0.00138435	0.00141335	0.00139406	0.00136473	0.00694935	0.00116285	0.0225711	0.0281322	0.00106186	0.00102267	0.522218	0.410303	0.00107355	0.00102332	0.69401	0.417534	0.566868	0.00102267	0.50938	0.546646	0.302928	0.999191	0.999307	0.015114	0.00108205	0.999	0.0256501	0.381598	0.889347	0.409143	0.0884579	0.00204191	0.00106058	0.0858424	0.981187	0.549617	0.466903	0.894737	0.154571	0.999004	0.242128	0.377369	0.0867834	0.32211	
3.615	0.00280274	0.00147286	0.00147114	0.00160169	0.00154203	0.00297016	0.00274905	0.00287831	0.00141435	0.00138138	0.00134373	0.00121313	0.00196544	0.00210627	0.00297486	0.0028816	0.0028146	0.00309139	0.00287842	0.00284492	0.0011869	0.00310268	0.00283922	0.00182083	0.00279444	0.00119134	0.00119131	0.00282847	0.00131167	0.00271723	0.0029309	0.00280785	0.00226037	0.00194393	0.00244934	0.00149871	0.00138435	0.00141335	0.00139406	0.00136473	0.00437845	0.00110162	0.0134572	0.016881	0.00104395	0.00102267	0.523196	0.414342	0.00107355	0.00102332	0.699015	0.414269	0.584802	0.00102267	0.494055	0.530837	0.302282	0.999191	0.999308	0.0656664	0.00108132	0.999	0.00479416	0.37063	0.860422	0.411518	0.0913287	0.0016441	0.00105052	0.0760738	0.973516	0.548699	0.470098	0.862962	0.291845	0.937339	0.257226	0.345115	0.0813991	0.291583	
3.62	0.00280274	0.00147286	0.00147114	0.00160169	0.00154203	0.00297016	0.00274905	0.00287831	0.00141435	0.00138138	0.00134373	0.00121313	0.00196544	0.00210627	0.00297486	0.0028816	0.0028146	0.00309139	0.00287842	0.00284492	0.0011869	0.00310268	0.00283922	0.00182083	0.00279444	0.00119134	0.00119131	0.00282847	0.00131167	0.00271723	0.0029309	0.00280785	0.00226037	0.00194393	0.00244934	0.00149871	0.00138435	0.00141335	0.00139406	0.00136473	0.00290189	0.00106669	0.00809169	0.0101338	0.00103418	0.00102267	0.523202	0.417809	0.00107355	0.00102332	0.713559	0.409569	0.600372	0.00102267	0.481975	0.516784	0.300999	0.999191	0.999308	0.359642	0.00108105	0.999	0.00148586	0.356728	0.824729	0.410912	0.0941141	0.00139527	0.00104883	0.0731341	0.966184	0.547272	0.472921	0.823557	0.464863	0.821695	0.270839	0.313804	0.0637113	0.262583	
3.625	0.00280274	0.00147286	0.00147114	0.00160169	0.00154203	0.00297016	0.00274905	0.00287831	0.00141435	0.00138138	0.00134373	0.00121313	0.00196544	0.00210627	0.00297486	0.0028816	0.0028146	0.00309139	0.00287842	0.00284492	0.0011869	0.00310268	0.00283922	0.00182083	0.00279444	0.00119134	0.00119131	0.00282847	0.00131167	0.00271723	0.0029309	0.00280785	0.00226037	0.00194393	0.00244934	0.00149871	0.00138435	0.00141335	0.00139406	0.00136473	0.00206556	0.00104701	0.00499413	0.00618462	0.00102887	0.00102267	0.522256	0.420714	0.00107355	0.00102332	0.694564	0.40311	0.613432	0.00102267	0.473836	0.505156	0.299145	0.999191	0.999308	0.0752271	0.00108094	0.999	0.0698758	0.340765	0.773256	0.40715	0.0967822	0.0012464	0.00104855	0.0778991	0.959142	0.545258	0.475325	0.777876	0.639918	0.704347	0.283503	0.283923	0.0172267	0.235399	
3.63	0.00280274	0.00147286	0.00147114	0.00160169	0.00154203	0.00297016	0.00274905	0.00287831	0.00141435	0.00138138	0.00134373	0.00121313	0.00196544	0.00210627	0.00297486	0.0028816	0.0028146	0.00309139	0.00287842	0.00284492	0.0011869	0.00310268	0.00283922	0.00182083	0.00279444	0.00119134	0.00119131	0.00282847	0.00131167	0.00271723	0.0029309	0.00280785	0.00226037	0.00194393	0.00244934	0.00149871	0.00138435	0.00141335	0.00139406	0.00136473	0.00159708	0.00103604	0.00323253	0.00391472	0.00102599	0.00102267	0.520375	0.423064	0.00107355	0.00102332	0.697899	0.395176	0.623853	0.00102267	0.470179	0.496605	0.296778	0.999191	0.999308	0.0304135	0.00108091	0.999	0.0852355	0.323446	0.706247	0.40468	0.0992769	0.00115997	0.00104851	0.089222	0.952505	0.54252	0.477247	0.726507	0.772354	0.586633	0.298453	0.255785	0.00256365	0.210191	
3.635	0.00280274	0.00147286	0.00147114	0.00160169	0.00154203	0.00297016	0.00274905	0.00287831	0.00141435	0.00138138	0.00134373	0.00121313	0.00196544	0.00210627	0.00297486	0.0028816	0.0028146	0.00309139	0.00287842	0.00284492	0.0011869	0.00310268	0.00283922	0.00182083	0.00279444	0.00119134	0.00119131	0.00282847	0.00131167	0.00271723	0.0029309	0.00280785	0.00226037	0.00194393	0.00244934	0.00149871	0.00138435	0.00141335	0.00139406	0.00136473	0.00133704	0.00102997	0.00224256	0.00883624	0.00102445	0.00102267	0.517583	0.424871	0.00107355	0.00102332	0.67112	0.386031	0.631567	0.00102267	0.471381	0.491729	0.293955	0.999191	0.999308	0.090053	0.00108089	0.999	0.0789965	0.305333	0.623475	0.401652	0.101562	0.00111087	0.0010485	0.109184	0.946521	0.538934	0.478622	0.670288	0.8615	0.47034	0.312707	0.229707	0.0012122	0.187024	
3.64	0.00280274	0.00147286	0.00147114	0.00160169	0.00154203	0.00297016	0.00274905	0.00287831	0.00141435	0.00138138	0.00134373	0.00121313	0.00196544	0.00210627	0.00297486	0.0028816	0.0028146	0.00309139	0.00287842	0.00284492	0.0011869	0.00310268	0.00283922	0.00182083	0.00279444	0.00119134	0.00119131	0.00282847	0.00131167	0.00271723	0.0029309	0.00280785	0.00226037	0.00194393	0.00244934	0.00149871	0.00138435	0.00141335	0.00139406	0.00136473	0.00119379	0.00102663	0.00169157	0.0082012	0.00102362	0.00102267	0.513843	0.426124	0.00107355	0.00102332	0.481923	0.374443	0.636503	0.00102267	0.476569	0.489695	0.290725	0.999191	0.999308	0.0870969	0.00108089	0.999	0.0135118	0.286874	0.708728	0.383275	0.103124	0.00108345	0.0010485	0.146958	0.940802	0.53395	0.479299	0.610827	0.91783	0.344043	0.312231	0.205646	0.00111376	0.165892	
3.645	0.00280274	0.00147286	0.00147114	0.00160169	0.00154203	0.00297016	0.00274905	0.00287831	0.00141435	0.00138138	0.00134373	0.00121313	0.00196544	0.00210627	0.00297486	0.0028816	0.0028146	0.00309139	0.00287842	0.00284492	0.0011869	0.00310268	0.00283922	0.00182083	0.00279444	0.00119134	0.00119131	0.00282847	0.00131167	0.00271723	0.0029309	0.00280785	0.00226037	0.00194393	0.00244934	0.00149871	0.00138435	0.00141335	0.00139406	0.00136473	0.00111537	0.00102481	0.00138735	0.00629281	0.00104813	0.00102267	0.509235	0.426856	0.00107355	0.00102332	0.507568	0.361007	0.638772	0.00102267	0.486952	0.492456	0.287136	0.999191	0.999308	0.0664864	0.00108088	0.999	0.00257145	0.268419	0.608583	0.366039	0.104045	0.00106832	0.0010485	0.169577	0.935509	0.527799	0.479282	0.549337	0.952037	0.25561	0.313171	0.183553	0.00110729	0.146742	
