CEINMS output
datacolumns 81
datarows 92
endheader
time	addbrev_r	addlong_r	addmagDist_r	addmagIsch_r	addmagMid_r	addmagProx_r	bflh_r	bfsh_r	edl_r	ehl_r	fdl_r	fhl_r	gaslat_r	gasmed_r	glmax1_r	glmax2_r	glmax3_r	glmed1_r	glmed2_r	glmed3_r	glmin1_r	glmin2_r	glmin3_r	grac_r	iliacus_r	perbrev_r	perlong_r	piri_r	psoas_r	recfem_r	sart_r	semimem_r	semiten_r	soleus_r	tfl_r	tibant_r	tibpost_r	vasint_r	vaslat_r	vasmed_r	addbrev_l	addlong_l	addmagDist_l	addmagIsch_l	addmagMid_l	addmagProx_l	bflh_l	bfsh_l	edl_l	ehl_l	fdl_l	fhl_l	gaslat_l	gasmed_l	glmax1_l	glmax2_l	glmax3_l	glmed1_l	glmed2_l	glmed3_l	glmin1_l	glmin2_l	glmin3_l	grac_l	iliacus_l	perbrev_l	perlong_l	piri_l	psoas_l	recfem_l	sart_l	semimem_l	semiten_l	soleus_l	tfl_l	tibant_l	tibpost_l	vasint_l	vaslat_l	vasmed_l	
3.19	219.248	-0.0587971	1485.25	1506.97	2038.05	-0.231105	5181.2	4318.54	450.978	214.749	733.085	2276.15	812.743	5447.55	851.41	2540.73	2643.83	24701.6	15909.3	3373.3	3099.84	3272.9	3700.79	283.607	275.667	239.241	2048.98	2781.43	287.279	-0.329326	371.981	14274.7	3830.82	20586.5	0.155198	702.359	2981.44	479.579	1590.47	825.458	33.7779	2331.38	-0.0290484	-0.0654925	-0.0487711	24.1408	100.643	113.075	782.062	1387.33	485.127	2015.44	1471.52	-0.801009	-0.262033	-0.27868	-0.136843	-0.117199	-0.240935	-0.288334	-0.0834871	-0.0746932	-0.141365	0.28053	-0.0135103	2202.05	5414.91	-0.269439	-0.024245	10689.9	218.688	6386.82	939.086	-2.38599	-0.105723	5962.23	8396.1	-0.0979465	-1.41443	-0.177386	
3.195	208.079	-0.0591708	1379.76	1410.91	1857.96	-0.231167	5087.52	4640.25	460.537	219.82	730.517	2262.15	847.827	5676.19	803.809	2432.82	2476.03	24702.7	15779.1	3200.98	3100.06	3273.06	3700.84	283.379	303.935	237.909	2038.67	2628.24	311.325	-0.32804	399.565	14349.9	3834.94	20045.3	1.20697	724.085	2965.83	446.267	1493.99	772.199	30.8191	2274.6	-0.0314333	-0.0679263	-0.0514425	19.2176	78.7897	101.277	785.508	1387.34	484.433	1993.6	1375.89	-0.801129	-0.262786	-0.280934	-0.137751	-0.111675	-0.240171	-0.28894	-0.0810546	-0.0706903	-0.141369	0.027568	-0.011344	2188.33	5414.89	-0.269478	-0.0235544	10690.2	216.076	5751.31	866.168	-2.38649	-0.105738	5962.27	8395.99	-0.0979734	-1.36569	-0.145474	
3.2	197.791	-0.059599	1276.92	1310.89	1689.64	-0.232279	4970.2	4990.72	471.289	225.418	727.524	2246.92	893.536	5959.14	753.754	2322.68	2313.28	24703.7	15607.4	3024.24	3100.27	3273.2	3700.87	283.071	334.669	236.356	2026.95	2456.69	338.373	-0.326917	429.661	14414.7	3834.24	19459.8	4.34925	748.146	2948.4	407.554	1380.55	710.25	27.7349	2212.68	-0.0347112	-0.071422	-0.054931	14.6364	42.3293	85.32	789.09	1387.35	484.656	1902.28	1220.47	-0.801411	-0.266714	-0.288692	-0.146766	-0.104252	-0.235249	-0.289442	-0.0785891	-0.0675686	-0.141372	-0.00258574	-0.00860896	2180.13	5414.88	-0.269568	-0.0227023	10690.4	212.968	5053.4	788.919	-2.38905	-0.105776	5962.31	8396.12	-0.0983848	-1.3003	-0.103834	
3.205	188.666	-0.0600518	1180.96	1214.76	1535.75	-0.233866	4835.85	5360.34	482.126	231.007	724.67	2232.58	946.757	6270.42	702.331	2212.68	2158.74	24704.6	15383.1	2847	3100.46	3273.33	3700.89	282.63	367.478	234.855	2015.99	2279.86	367.203	-0.32453	462.34	14442.1	3825.14	18907.5	10.6315	772.286	2931.77	367.775	1262.82	646.556	22.9443	2112.39	-0.0374917	-0.0745406	-0.0579697	11.0285	14.4109	70.7002	758.901	1387.34	484.687	1811.85	1080.25	-0.801766	-0.269837	-0.295339	-0.154466	-0.0951116	-0.227386	-0.289701	-0.0764159	-0.0663488	-0.141376	-0.00615116	-0.0110623	2174.34	5414.87	-0.26968	-0.0313569	10690.7	209.332	4424.87	719.811	-2.39216	-0.105822	5962.34	8396.17	-0.0989708	-1.22608	-0.0570415	
3.21	180.716	-0.0605101	1092.5	1124.93	1396.4	-0.235559	4685.77	5741.73	491.779	235.972	722.214	2220.23	1003.21	6589.02	649.697	2102.87	2012.33	24705.2	15095.1	2671.51	3100.63	3273.43	3700.88	281.853	402.498	233.563	2006.67	2105.25	397.251	-0.32003	497.73	14409.7	3804.42	18438	19.805	793.893	2917.39	330.024	1149.91	585.91	18.0186	2006.12	-0.0391638	-0.0764328	-0.0601488	8.01167	1.52753	58.0688	722.55	1387.35	484.222	1747.21	971.689	-0.802138	-0.271012	-0.298904	-0.159192	-0.0846547	-0.223016	-0.289928	-0.0741945	-0.0648727	-0.14138	-0.00897012	-0.0162649	2168.63	5414.86	-0.269797	-0.0421176	10690.9	205.14	3875.76	656.954	-2.39483	-0.105872	5962.35	8396.13	-0.0995967	-1.15033	-0.0093675	
3.215	173.975	-0.0609671	1011.07	1041.02	1271.42	-0.237232	4518.17	6127.69	499.541	239.961	720.235	2210.38	1061.16	6912.91	595.981	1992.92	1873.58	24705.7	14734.4	2500.32	3100.77	3273.51	3700.85	280.609	440.188	232.53	1999.25	1936.38	428.568	-0.313194	535.93	14305.1	3769.88	18069.8	30.7168	811.395	2905.87	295.273	1044.81	529.798	13.8962	1913.87	-0.0399475	-0.0768647	-0.0617884	5.32071	-0.00877109	46.317	695.418	1387.36	483.438	1705.28	884.369	-0.802506	-0.270997	-0.300315	-0.162503	-0.0756165	-0.220581	-0.290051	-0.0718292	-0.0617825	-0.141925	-0.0113554	-0.0212946	2163.49	5414.86	-0.270968	-0.0502037	10691	200.367	3388.16	597.862	-2.39678	-0.10592	5962.35	8396.07	-0.100245	-1.07545	5.99189	
3.22	168.512	-0.0614224	936.221	962.508	1160.53	-0.238872	4332.49	6510.21	504.996	242.755	718.826	2203.53	1121.29	7248.05	541.504	1882.62	1742.01	24706	14295.2	2336.07	3100.87	3273.55	3700.78	278.831	480.955	231.796	1994.05	1776.24	461.357	-0.30397	576.952	14120.3	3720.15	17814.7	42.4362	823.687	2897.78	263.742	948.408	478.625	10.5613	1832.45	-0.0403761	-0.0760004	-0.0634256	3.06719	-0.029654	34.9991	677.838	1387.35	482.581	1677.99	808.063	-0.802869	-0.27056	-0.300733	-0.165526	-0.0679601	-0.217838	-0.29009	-0.0693595	-0.0577231	-0.142403	-0.0136861	-0.0251205	2160.48	5414.87	-0.272817	-0.0551536	10691.1	194.99	2951.72	542.609	-2.39807	-0.105968	5962.33	8396.02	-0.100955	-1.00137	32.0282	
3.225	164.395	-0.0618766	867.472	888.998	1063.06	-0.240496	4130.38	6881.28	507.77	244.152	718.098	2200.19	1184.93	7599.68	486.721	1771.94	1617.07	24705.9	13776.5	2180.86	3100.93	3273.56	3700.69	276.497	525.111	231.409	1991.45	1627.43	495.954	-0.292224	620.72	13851.9	3654.84	17686.1	54.5538	829.764	2893.71	235.593	861.431	432.73	7.74794	1751.9	-0.040897	-0.074434	-0.0653604	1.37833	-0.0498504	24.4287	665.746	1387.34	481.928	1660.2	738.492	-0.803229	-0.269872	-0.300572	-0.16835	-0.0586008	-0.214579	-0.29061	-0.0668109	-0.0540496	-0.142618	-0.0161354	-0.0278271	2160.78	5414.88	-0.274652	-0.0581501	10691.2	189.002	2558.03	491.739	-2.39886	-0.106016	5962.29	8395.98	-0.101777	-0.928208	74.7774	
3.23	161.69	-0.0623303	804.352	820.074	977.788	-0.242113	3915.13	7233.82	507.545	243.989	718.139	2200.74	1253.23	7972.19	432.209	1661.43	1498.08	24705.7	13182.8	2036.36	3100.96	3273.54	3700.57	273.634	572.862	231.412	1991.74	1492.2	532.703	-0.277784	667.076	13501.2	3574.55	17696.4	66.855	828.851	2894.12	210.862	784.22	392.218	5.29882	1665.25	-0.0416271	-0.0729559	-0.067583	0.292584	-0.0695323	15.1083	655.806	1387.33	481.687	1649.95	674.674	-0.803588	-0.268783	-0.299705	-0.17067	-0.0487936	-0.210977	-0.291024	-0.0641886	-0.0500547	-0.142666	-0.0187235	-0.0298187	2164.95	5414.91	-0.277844	-0.0603067	10691.3	182.415	2207.53	445.463	-2.39931	-0.106063	5962.23	8395.96	-0.102746	-0.856162	130.601	
3.235	160.466	-0.0627838	746.425	755.439	903.468	-0.243728	3691.33	7561.91	504.132	242.171	718.996	2205.41	1327.25	8370.46	378.637	1551.76	1384.28	24705.1	12524.8	1903.7	3100.94	3273.48	3700.42	270.317	624.292	231.832	1995.1	1371.6	571.943	-0.260565	715.797	13075.1	3480.84	17855.1	79.1023	820.553	2899.3	189.389	716.504	356.863	3.19524	1569.84	-0.0424576	-0.0719551	-0.06994	-0.000703341	-0.088571	7.54234	646.204	1387.31	482.032	1646.92	616.347	-0.803946	-0.267133	-0.297884	-0.172229	-0.0391298	-0.206958	-0.291218	-0.0614876	-0.046538	-0.142658	-0.0214236	-0.0314703	2172.68	5414.95	-0.282611	-0.0622662	10691.3	175.264	1899.41	403.858	-2.39952	-0.106121	5962.14	8395.96	-0.103855	-0.784919	197.285	
3.24	160.792	-0.0632371	693.262	694.853	838.943	-0.24534	3464.02	7860.03	497.491	238.681	720.682	2214.28	1408.09	8799.98	326.749	1443.67	1274.88	24704.3	11818.6	1782.62	3100.88	3273.38	3700.24	266.66	679.341	232.678	2001.6	1264.95	613.996	-0.240618	766.225	12584	3376.04	18169.9	91.0434	804.904	2909.34	170.921	657.693	326.289	1.50787	1466.21	-0.043237	-0.071322	-0.0722614	-0.00629242	-0.106776	2.30209	636.073	1387.29	483.062	1651.29	563.051	-0.804303	-0.26484	-0.294925	-0.17288	-0.0289767	-0.202388	-0.289502	-0.0583987	-0.0431342	-0.142647	-0.0242144	-0.0330637	2182.59	5415.01	-0.287739	-0.064344	10691.3	167.613	1632.08	366.982	-2.39957	-0.106832	5962.02	8396	-0.10508	-0.713809	273.821	
3.245	162.745	-0.062979	644.437	638.019	783.203	-0.24695	3237.87	8124.62	487.733	233.582	723.169	2227.27	1496.97	9265.85	277.34	1337.94	1169.4	24703.2	11085.1	1670.78	3100.78	3273.25	3700.04	262.813	737.653	233.946	2011.2	1171.71	659.16	-0.218122	816.892	12040.5	3262.99	18646	102.461	782.37	2924.13	155.18	607.078	300.075	0.374179	1355.39	-0.0438628	-0.0707179	-0.0741578	-0.0120168	-0.123964	0.0413138	624.954	1387.25	484.888	1663.25	514.114	-0.80466	-0.261851	-0.290703	-0.172527	-0.0181012	-0.197177	-0.286525	-0.0552202	-0.0395611	-0.142643	-0.0270823	-0.0348198	2194.15	5415.07	-0.292189	-0.0667173	10691.3	159.542	1404.95	334.774	-2.3995	-0.107921	5961.87	8396.08	-0.106402	-0.642993	358.791	
3.25	166.406	-0.0609259	599.546	584.544	735.389	-0.248557	3016.57	8355.74	475.119	227.018	726.392	2244.15	1595.24	9772.12	231.178	1235.31	1068.4	24701.9	10348.9	1567.62	3100.64	3273.08	3699.81	258.944	798.681	235.616	2023.77	1091.1	707.676	-0.19336	866.483	11459.4	3144.84	19285.8	113.186	753.853	2943.35	141.863	563.854	277.767	0.000151266	1237.87	-0.0442721	-0.0698765	-0.0755072	-0.0177376	-0.139948	-0.00627982	612.546	1387.22	487.614	1682.69	468.822	-0.805016	-0.258107	-0.285111	-0.171071	-0.00648598	-0.191245	-0.282813	-0.0519654	-0.0357735	-0.142643	-0.0300106	-0.0369325	2207.82	5415.15	-0.29684	-0.0695228	10691.2	151.151	1216.8	306.949	-2.39937	-0.109023	5961.7	8396.2	-0.107837	-0.573783	449.314	
3.255	171.865	-0.0575544	558.231	533.991	694.798	-0.25016	2802.68	8555.6	460.051	219.206	730.25	2264.48	1704.21	10322.4	188.931	1136.47	972.607	24700.3	9626.29	1472.57	3100.45	3272.88	3699.56	255.239	861.839	237.652	2039.04	1022.2	759.706	-0.166711	913.975	10856.2	3024.73	20086.7	123.082	720.6	2966.49	130.644	527.115	258.866	-0.00451477	1114.38	-0.0444181	-0.0686678	-0.0763974	-0.0235268	-0.154532	-0.0145265	598.646	1387.17	491.333	1709.21	426.594	-0.805371	-0.253551	-0.278066	-0.168398	0.253045	-0.18451	-0.278235	-0.0486929	-0.0317564	-0.142646	-0.032975	-0.0395849	2223.59	5415.24	-0.301426	-0.0728853	10691.2	142.54	1063.35	283.176	-2.39919	-0.109918	5961.5	8396.36	-0.1094	-0.507945	541.557	
3.26	179.223	-0.0534704	520.228	486.166	660.891	-0.251761	2598.29	8728.38	443.051	210.427	734.608	2287.68	1824.9	10916.6	151.235	1042.02	882.655	24698.4	8925.83	1384.76	3100.22	3272.65	3699.28	251.886	926.54	239.999	2056.63	963.9	815.316	-0.138634	958.597	10246.4	2905.68	21039.2	132.074	684.069	2992.87	121.177	495.853	242.825	-0.0098986	987.92	-0.0442542	-0.06702	-0.0769777	-0.0294898	-0.167556	-0.022654	583.149	1385.55	496.122	1742.23	387.396	-0.805726	-0.248146	-0.269531	-0.164377	3.96382	-0.176903	-0.272595	-0.0454161	-0.0274979	-0.143162	-0.035944	-0.0429446	2241.07	5415.33	-0.305361	-0.0769189	10691.2	133.805	939.35	263.127	-2.39898	-0.110452	5961.28	8396.56	-0.111085	-0.4467	632.402	
3.265	188.588	-0.0487651	485.53	441.328	633.282	-0.253358	2405.56	8879.17	424.742	201.009	739.309	2313.03	1957.78	11551.4	120.702	952.384	799.061	24696.4	8255.02	1303.12	3099.96	3272.39	3698.98	249.071	992.219	242.593	2076.06	914.768	874.478	-0.109661	999.817	9645.01	2790.28	22125.9	140.126	645.769	3021.63	113.106	468.994	229.072	-0.0157615	861.468	-0.0437282	-0.0648656	-0.0773746	-0.0356889	-0.178921	-0.030657	566.052	1377.91	502.043	1781.23	351.395	-0.80608	-0.241872	-0.259513	-0.158917	12.3318	-0.168371	-0.265776	-0.0421267	-0.0229993	-0.143613	-0.0388825	-0.0471617	2259.82	5415.44	-0.309479	-0.0817158	10691.1	125.04	839.969	246.502	-2.39877	-0.110346	5961.03	8396.77	-0.112876	-0.390638	719.689	
3.27	200.123	-0.0433338	454.251	399.716	611.716	-0.254952	2226.31	9013.81	405.804	191.312	744.18	2339.71	2102.44	12221.8	97.2405	867.857	722.186	24693.8	7619.01	1226.38	3099.66	3272.09	3698.66	246.977	1058.37	245.354	2096.78	873.066	937.084	-0.0803795	1037.29	9065.91	2680.67	23322.1	147.174	607.099	3051.83	106.078	445.426	217.023	-0.0221015	737.59	-0.042787	-0.0621406	-0.0776712	-0.0421414	-0.188583	-0.0385409	547.445	1364.65	509.145	1825.78	318.701	-0.806433	-0.234727	-0.248038	-0.151993	25.5067	-0.158885	-0.257679	-0.0388248	-0.0182755	-0.142844	-0.0417526	-0.0524091	2279.51	5415.55	-0.31352	-0.0873467	10691.1	116.333	760.878	233.053	-2.39855	-0.109171	5960.75	8397	-0.114759	-0.339991	801.858	
3.275	214.085	-0.0371228	426.445	361.498	596.042	-0.256543	2061.63	9138.62	386.922	181.692	749.046	2366.93	2257.56	12920.9	79.2895	788.539	652.215	24221.3	7020.42	1153.18	3099.32	3271.76	3698.33	245.772	1124.58	248.195	2118.12	836.853	1002.85	-0.051413	1070.86	8521.42	2578.5	24595.5	153.147	569.272	3082.44	99.7462	424.033	206.099	-0.0289064	619.676	-0.0428118	-0.0587954	-0.0779146	-0.0488336	-0.196539	-0.0463077	527.51	1346.35	517.454	1875.63	289.371	-0.806786	-0.226725	-0.235157	-0.143622	43.4111	-0.148444	-0.248215	-0.0355257	-0.013357	-0.136172	-0.0445154	-0.0589074	2299.79	5415.68	-0.316948	-0.0938825	10691.1	107.754	698.462	222.588	-2.39834	-0.106878	5960.46	8397.25	-0.116739	-0.29445	878.254	
3.28	230.885	-0.030122	402.109	326.77	586.179	-0.25813	1911.91	9259.81	368.751	172.483	753.737	2393.78	2420.77	13638.7	65.2779	714.349	589.152	22966.7	6459.62	1082.23	3098.95	3271.41	3697.97	245.618	1190.54	251.024	2139.42	804.071	1071.41	-0.0233946	1100.48	8021.65	2485.19	25905	157.982	533.332	3112.43	93.7849	403.731	195.741	-0.0361514	512.256	-0.0426489	-0.0547952	-0.0781299	-0.0557298	-0.202758	-0.053954	506.505	1323.61	526.972	1930.55	263.413	-0.807138	-0.217902	-0.220942	-0.133834	65.6964	-0.137083	-0.237327	-0.0322631	-0.00829077	-0.125849	-0.0471322	-0.0668921	2320.3	5415.8	-0.320377	-0.101404	10691.1	99.3556	650.165	214.995	-2.39814	-0.104359	5960.15	8397.5	-0.118841	-0.252348	951.709	
3.285	251.093	-0.0223191	381.197	295.55	582.083	-0.259714	1777.09	9383.32	351.854	163.962	758.102	2419.34	2588.69	14362.3	54.0836	645.049	532.827	21088.6	5934.84	1012.43	3098.54	3271.03	3664.54	246.666	1256.06	253.746	2159.96	772.633	1142.4	-0.00134305	1126.21	7574.19	2402.15	27202.3	161.628	500.201	3140.8	87.896	383.501	185.428	-0.0437936	418.253	-0.0406333	-0.0501179	-0.07833	-0.0627746	-0.207119	-0.0614731	512.911	1297.09	537.669	1990.27	240.8	-0.807489	-0.208315	-0.20549	-0.122685	91.7239	-0.124874	-0.225	-0.0290863	-0.00314099	-0.114683	-0.0495664	-0.0765138	2340.68	5415.93	-0.323626	-0.109995	10691.1	91.1642	614.506	210.313	-2.39797	-0.102541	5959.83	8397.76	-0.121095	-0.212604	1024.13	
3.29	275.461	-0.0136965	363.618	267.786	583.726	-0.261295	1657.19	9514.74	336.683	156.349	762.012	2442.73	2757.45	15076.8	44.9788	580.267	482.908	18779.9	5442.4	942.693	3098.11	3270.62	3515.2	249.054	1321.08	256.268	2179.03	740.557	1215.54	2.48396	1148.18	7183.94	2330.38	28434.6	164.057	470.648	3166.65	81.8236	362.428	174.698	-0.0517738	336.722	-0.0368715	-0.0447552	-0.0785219	-0.0698957	-0.209428	-0.0688558	534.592	1267.53	549.482	2054.4	221.467	-0.807839	-0.198046	-0.188923	-0.11024	120.598	-0.111932	-0.211265	-0.0260563	0.079057	-0.103282	-0.0517856	-0.0878106	2360.57	5416.06	-0.326306	-0.119721	10691.1	83.1773	590.883	208.78	-2.39782	-0.101924	5959.49	8398.02	-0.123539	-0.175302	1094.94	
3.295	304.983	-0.0042414	349.247	243.356	591.08	-0.262872	1552.76	9658.78	323.599	149.811	765.361	2463.19	2922.84	15765.7	37.482	519.54	438.931	16275.2	4976.51	871.964	3097.65	3270.19	3274.2	252.915	1385.68	258.503	2195.95	706.137	1290.62	9.02514	1166.56	6853.24	2270.57	29547.5	165.265	445.286	3189.17	75.3699	339.756	163.178	-0.0600178	263.806	-0.0323824	-0.0387153	-0.0787093	-0.0770053	-0.209356	-0.0760913	526.138	1235.61	562.312	2122.09	205.325	-0.808189	-0.187194	-0.171389	-0.0965879	151.28	-0.0984149	-0.196209	-0.0232417	1.5332	-0.0914345	-0.053763	-0.100652	2379.69	5416.18	-0.329179	-0.130601	10691.2	75.3627	579.754	210.723	-2.3977	-0.102351	5959.15	8398.27	-0.122759	-0.202574	1150.87	
3.3	340.911	0.361052	337.929	222.083	604.174	-0.264446	1463.91	9819.05	312.889	144.484	768.072	2480.06	3080.39	16411.7	31.2531	462.389	400.329	13862.3	4528.18	799.376	3097.17	3269.73	2966.73	258.366	1450.23	260.37	2210.08	668.112	1367.52	17.4169	1181.51	6582.32	2223.02	30488.5	165.276	424.623	3207.66	68.4117	314.929	150.604	-0.0684368	195.565	-0.0275405	-0.0320262	-0.0788941	-0.0840036	-0.206143	-0.0831671	500.359	1202.04	576.025	2191.97	192.269	-0.808537	-0.175882	-0.153067	-0.0818552	182.556	-0.0845171	-0.179975	-0.0207153	4.54355	-0.0791883	-0.0554777	-0.114804	2397.79	5416.31	-0.332046	-0.14263	10691.2	67.6682	583.721	216.54	-2.3976	-0.103044	5958.8	8398.52	-0.117938	-0.255022	1191.38	
3.305	384.757	3.87178	329.481	203.745	623.016	-0.266017	1390.32	9997.96	304.802	140.484	770.085	2492.73	3225.51	16997.5	26.0393	408.301	366.462	11774.1	4092.67	724.339	3096.66	3269.25	2618.24	265.512	1515.44	261.797	2220.81	625.891	1446.17	25.8058	1193.2	6369.63	2187.74	31208.9	164.144	409.125	3221.53	60.9209	287.66	136.853	-0.0769282	133.64	-0.0223069	-0.0247369	-0.0790775	-0.0907838	-0.196654	-0.0892476	475.703	1167.47	590.473	2262.43	182.218	-0.808886	-0.164251	-0.134166	-0.066205	213.093	-0.0704676	-0.162758	-0.01855	8.67525	-0.0668219	-0.0569128	-0.130044	2414.68	5416.43	-0.334456	-0.155806	10691.2	60.1268	611.701	226.765	-2.39753	-0.103591	5958.46	8398.76	-0.111581	-0.29723	1225.57	
3.31	438.206	11.4174	323.697	188.087	647.509	-0.267584	1331.3	10196.4	299.568	137.919	771.352	2500.66	3353.58	17504.8	21.6474	356.73	336.654	10024.8	3672.5	646.639	3096.14	3268.75	2258.72	274.441	1582.05	262.721	2227.64	579.611	1526.6	32.86	1201.78	6212.29	2164.42	31665.7	161.948	399.257	3230.27	52.9938	257.977	121.97	-0.0853782	80.6062	-0.0166882	-0.0169181	-0.0792601	-0.0972395	-0.179049	-0.0937065	454.405	1132.54	605.487	2331.99	175.141	-0.809233	-0.152452	-0.114922	-0.049833	241.526	-0.0565185	-0.144807	-0.0168136	13.4355	-0.0546229	-0.0580492	-0.146195	2430.21	5416.55	-0.336778	-0.170107	10691.3	52.8393	694.525	241.718	-2.39748	-0.103989	5958.11	8398.98	-0.105427	-0.28608	1260.77	
3.315	502.591	23.2639	320.351	174.833	677.753	-0.269148	1285.83	10413.5	297.424	136.905	771.826	2503.34	3459.94	17916.1	17.9285	307.419	310.225	8578.34	3271.35	566.51	3047.7	3268.22	1925.42	285.211	1650.96	263.084	2230.08	529.864	1608.87	37.7474	1207.35	6106.43	2152.46	31822.7	158.79	395.513	3233.41	44.9299	226.301	106.207	-0.0936662	38.8328	-0.0107209	-0.00866202	-0.0794422	-0.103275	-0.156415	-0.096929	434.447	1097.84	620.874	2399.43	171.07	-0.80958	-0.14041	-0.0955248	-0.0329627	266.573	-0.0429328	-0.12641	-0.015564	18.3187	-0.0428444	-0.0588665	-0.16319	2444.3	5416.66	-0.339178	-0.185454	10691.3	45.9065	828.94	261.3	-2.39746	-0.10431	5957.78	8399.2	-0.0999752	-0.250132	1297.34	
3.32	578.921	39.5523	319.194	163.694	713.752	-0.270708	1252.66	10646.6	298.633	137.571	771.451	2500.34	3540.06	18215	14.7663	260.309	286.504	7376.68	2893.56	484.686	2772.36	3253.74	1635.56	297.846	1723	262.836	2227.74	477.218	1693.06	40.0726	1210.02	6047.51	2151	31651.8	154.794	398.419	3230.5	37.6579	193.509	90.093	-0.101672	11.38	-0.00444499	-7.99658e-05	-0.0796239	-0.108815	-0.131289	-0.0993978	415.514	1063.85	636.424	2463.89	170.11	-0.809926	-0.128131	-0.0760655	-0.0158345	287.132	-0.02997	-0.107879	-0.0148443	22.8529	-0.0317312	-0.059344	-0.180973	2456.91	5416.77	-0.341571	-0.20169	10691.3	39.4219	1007	285.503	-2.39745	-0.104573	5957.45	8399.4	-0.0952812	-0.216869	1332.06	
3.325	667.988	60.2707	319.957	154.377	755.545	-0.272265	1230.24	10891.1	303.509	140.073	770.151	2491.23	3589.57	18384.6	12.0702	215.554	264.86	6344.6	2543.81	402.412	2368.22	3030.37	1389.16	312.326	1798.99	261.933	2220.29	422.338	1779.27	39.8345	1210.28	6030.23	2158.9	31133.4	150.101	408.541	3221.06	31.6421	161.297	74.9132	-0.109283	0.340025	0.037738	1.47449	-0.0779575	-0.113771	-0.104394	-0.101323	398.035	1031.03	651.921	2524.83	172.455	-0.810271	-0.115783	-0.0567411	-0.000892305	302.363	-0.0178715	-0.0895411	-0.0146743	26.6408	-0.0215168	-0.0594615	-0.199398	2468.05	5416.87	-0.343825	-0.218597	10691.2	33.4666	1232.82	314.659	-2.39745	-0.104779	5957.14	8399.59	-0.0914467	-0.197496	1361.62	
3.33	770.307	85.244	322.35	146.592	803.163	-0.273818	1216.79	11141	312.441	144.611	767.829	2475.63	3604.51	18409.8	9.76815	174.877	244.715	5433.66	2226.78	321.456	1939.96	2637.72	1181.9	328.578	1879.76	260.338	2207.47	366.404	1867.54	37.3791	1210.31	6048.47	2174.73	30258.6	144.864	426.516	3204.57	26.8088	133.48	62.2672	-0.116338	-0.0138684	1.50316	6.36688	-0.0741129	-0.117826	-0.0758802	-0.102726	382.164	999.713	667.155	2581.95	178.404	-0.810616	-0.103547	-0.0377724	4.27595	311.757	-0.00684552	-0.0717127	-0.0147791	29.3899	-0.0124032	-0.0591989	-0.218219	2477.78	5416.97	-0.345866	-0.23594	10691.2	28.1042	1518.44	349.204	-2.39747	-0.104934	5956.84	8399.76	-0.0886618	-0.190305	1383.65	
3.335	886.144	114.2	326.062	140.053	856.576	-0.266795	1210.28	11388.8	325.912	151.439	764.364	2453.16	3581.52	18277.9	7.80311	141.36	225.567	4639.33	1945.28	246.384	1574.38	2185.45	1005.04	346.498	1966.16	258.017	2189.11	310.318	1957.85	33.3302	1210.34	6095.05	2196.79	29031	139.242	453.138	3180.51	22.903	111.183	52.2481	-0.122613	-0.0301455	5.00194	14.1542	-0.0697001	-0.120787	-0.0461361	-0.103578	367.847	970.216	681.933	2635.02	188.388	-0.81096	-0.0915847	-0.019358	16.0043	315.265	0.0673889	-0.0546851	-0.0149532	29.5245	-0.00454245	-0.0585415	-0.237143	2486.17	5417.05	-0.347693	-0.253483	10691.1	23.3756	1869.84	389.551	-2.39749	-0.105048	5956.56	8399.92	-0.0871266	-0.195549	1396.39	
3.34	1018.99	146.816	330.762	134.483	915.597	-0.250633	1208.54	11626.8	344.494	160.865	759.614	2423.49	3518.31	17979.6	6.12933	115.116	207.007	3958.87	1697.36	187.333	1294.32	1771.02	848.169	365.908	2058.96	254.949	2165.13	253.912	2050.43	28.5014	1210.37	6161.93	2223.15	27469.7	133.4	489.486	3148.35	19.6924	93.6125	44.308	-0.128001	-0.0430289	10.3041	24.1899	-0.0651427	-0.12271	-0.0157011	-0.103865	355.009	942.753	696.084	2683.75	203.037	-0.811303	-0.08005	-0.0016822	33.4079	313.74	1.98885	-0.0387137	-0.0154563	29.2691	0.0593992	-0.0574872	-0.255864	2493.33	5417.13	-0.349297	-0.270981	10690.9	19.2978	2281.75	435.857	-2.39752	-0.105135	5956.3	8400.06	-0.0869936	-0.211604	1398.45	
3.345	1176.25	182.63	336.106	129.617	979.833	-0.234455	1209.21	11846.8	368.811	173.239	753.431	2386.33	3413.87	17511.2	4.71008	94.6628	188.718	3387.41	1479.41	144.865	1082.01	1446.55	709.796	386.53	2158.87	251.123	2135.58	198.279	2145.61	23.8406	1210.39	6239.85	2251.63	25612.2	127.497	537.208	3107.62	17.0117	79.5827	37.8907	-0.132597	-0.05292	17.0742	35.7862	-0.0604452	-0.123819	1.90478	-0.103579	343.584	917.468	709.466	2727.99	223.111	-0.811646	-0.0690773	1.77455	54.7053	307.766	5.49756	-0.0239982	-0.0167006	28.3414	1.33194	-0.0560679	-0.274086	2499.36	5417.2	-0.350679	-0.288191	10690.7	15.8656	2745.65	487.956	-2.39754	-0.105206	5952.7	8400.19	-0.0883584	-0.236788	1388.9	
3.35	1363.87	221.01	341.734	125.206	1048.57	-0.218948	1209.85	12041.8	399.473	188.915	745.679	2341.71	3268.97	16757.9	3.51587	78.4418	170.495	2917.37	1287.1	114.661	918.604	1199.44	590.646	408.106	2266.51	246.548	2100.62	145.807	2243.49	19.8716	1210.42	6318.69	2279.89	23515.6	121.692	598.716	3058.01	14.7479	68.1496	32.6011	-0.136571	-0.0604068	24.9035	48.2558	-0.0557208	-0.124383	19.898	-0.102706	333.499	894.447	721.969	2767.75	249.174	-0.811988	-0.0587832	8.36303	78.2231	297.955	9.60131	-0.0106818	-0.0185683	26.633	3.25119	-0.0543548	-0.29152	2504.39	5417.27	-0.351863	-0.304873	10690.5	13.0536	3254.66	545.574	-2.39756	-0.105267	5925.39	8400.31	-0.0912734	-0.264656	1367.4	
3.355	1585.15	261.193	347.288	121.02	1120.74	-0.204	1207.99	12206.5	436.911	208.165	736.248	2289.75	3086.51	15767.3	2.52305	65.3142	152.234	2533.67	1115.08	92.4882	786.871	1010.11	491.146	430.368	2382.35	241.25	2060.6	103.331	2343.97	16.5986	1210.44	6387.73	2305.47	21253.2	116.139	676.98	2999.43	12.8205	58.6761	28.1791	-0.140042	-0.0660213	33.3508	60.9649	-0.0511107	-0.124624	53.6949	-0.101205	324.674	873.759	733.514	2803.13	281.35	-0.812329	-0.0492602	18.5125	102.505	285.122	13.7578	-0.000850335	-0.0207378	24.4555	3.00998	-0.0524207	-0.307908	2508.54	5417.33	-0.352873	-0.320797	10690.3	10.8159	3823.58	608.418	-2.39757	-0.105323	5882.49	8400.41	-0.0957579	-0.291328	1334.3	
3.36	1840.06	302.54	352.41	116.85	1194.89	-0.189814	1201.21	12337.8	481.269	231.104	725.081	2230.7	2871.78	14653.7	1.71279	54.5242	133.935	2219.2	957.686	75.5593	677.473	859.248	410.578	452.915	2506.72	235.281	2016	73.8638	2447.08	13.877	1210.46	6435.95	2325.9	18924.7	111.005	774.968	2932.13	11.1686	50.7338	24.4462	-0.143055	-0.0701585	41.9805	73.3843	-0.0467328	-0.124675	99.5937	-0.0990002	317.026	855.412	744.052	2834.24	319.569	-0.81267	-0.0405715	30.9696	126.415	270.204	17.5766	1.78039	-0.0228699	22.1375	1.23517	-0.0503153	-0.323044	2511.91	5417.38	-0.353705	-0.335764	10690	9.51256	4466.53	676.218	-2.39758	-0.105375	5832.75	8400.5	-0.101792	-0.316104	1290.77	
3.365	2115.19	345.482	356.756	112.515	1269.18	-0.176544	1187.21	12435.6	532.393	257.694	712.191	2165.33	2632.66	13471.8	1.07034	45.5605	115.697	1959.74	812.964	62.2471	587.712	733.839	345.746	475.215	2639.75	228.717	1967.51	54.6901	2552.56	11.5784	1210.48	6452.73	2338.76	16621.1	106.456	894.848	2856.69	9.744	44.0171	21.2711	-0.145635	-0.073119	50.3917	85.0757	-0.0426904	-0.124601	154.48	-0.0959982	310.481	839.367	753.564	2861.19	363.768	-0.813012	-0.0327547	44.6444	149.09	254.178	20.8028	6.17782	-0.0248196	19.3719	0.156426	-0.0480732	-0.336778	2514.63	5417.42	-0.354371	-0.349616	10689.7	9.26414	5180.45	748.742	-2.39757	-0.105426	5781.64	8400.57	-0.109325	-0.339675	1238.56	
3.37	2380.06	390.533	360.008	107.863	1341.35	-0.164309	1163.91	12502.7	589.824	287.732	697.675	2094.61	2379.69	12255.5	0.584406	38.0552	97.7247	1743.47	682.181	51.5806	515.253	630.554	293.233	496.611	2781.41	221.659	1915.93	42.0198	2659.89	9.61686	1210.5	6428.39	2341.84	14365.1	102.649	1036.66	2774.14	8.50878	38.295	18.5519	-0.147815	-0.075164	58.2409	95.6867	-0.0390736	-0.124458	216.127	-0.092139	304.969	825.583	762.046	2884.19	413.967	-0.813392	-0.0258265	58.6283	169.883	237.992	23.3456	11.9781	-0.0265433	16.2755	0.000130224	-0.0457264	-0.349004	2516.78	5417.46	-0.354891	-0.362246	10689.5	9.61737	5957.24	825.829	-2.39756	-0.105476	5732.99	8400.64	-0.118278	-0.362904	1179.58	
3.375	2611.27	437.735	361.88	102.778	1409.06	-0.153216	1129.54	12544.1	652.844	320.888	681.718	2019.8	2125.55	11043	0.246759	31.7308	80.8793	1561.16	566.243	42.9239	457.832	547.004	250.007	516.345	2931.51	214.233	1862.21	33.1691	2768.41	7.93515	1210.52	6354.89	2333.22	12202.9	99.7314	1198.99	2685.95	7.43236	33.3872	16.2086	-0.149503	-0.0765406	65.2549	104.952	-0.0359556	-0.124319	282.778	-0.0874135	300.426	814.002	769.516	2903.46	470.164	-0.814322	-0.0197889	72.178	188.333	222.503	25.2353	14.5432	-0.0281601	13.3783	0.0233112	-0.043306	-0.359649	2518.46	5417.49	-0.355296	-0.373593	10689.2	9.99134	6785.3	908.538	-2.39754	-0.105525	5689.36	8400.69	-0.128574	-0.386447	1115.48	
3.38	2794.63	486.607	362.133	97.1855	1470.05	-0.143347	1082.73	12566.5	720.585	356.764	664.609	1942.38	1881.1	9878	0.0519197	26.3728	66.5564	1406.26	465.509	35.8245	413.293	480.749	213.478	533.608	3088.85	206.583	1807.4	26.6419	2877.35	6.49111	1210.54	6226.42	2311.39	10198.5	97.8409	1379.47	2594.03	6.49016	29.152	14.1776	-0.150676	-0.0774691	71.2242	112.691	-0.0333913	-0.124257	352.836	-0.0818448	296.793	804.544	776.008	2919.24	532.764	-0.815862	-0.0146338	84.6969	204.134	208.437	26.574	14.8347	-0.0297782	10.9085	1.67382	-0.0408419	-0.368702	2519.74	5417.51	-0.355618	-0.38362	10688.9	10.4329	7630.32	998.951	-2.39752	-0.105573	5652.34	8400.74	-0.140154	-0.410784	1047.47	
3.385	2924.34	536.183	360.585	91.0523	1522.26	-0.134765	1022.59	12576.5	792.091	394.859	646.72	1864.06	1650.13	8787.96	-0.00443068	21.8139	54.9806	1275.87	379.791	29.9475	379.657	429.351	182.197	547.6	3250.65	198.862	1752.59	21.6507	2985.82	5.25132	1210.55	6040.04	2275.18	8437.81	97.1087	1575.36	2500.51	5.66224	25.4767	12.4081	-0.151429	-0.0781216	76.0002	118.792	-0.0314181	-0.124336	424.963	-0.0754781	294.015	797.117	781.564	2931.79	603.453	-0.817558	-0.0103463	95.7149	217.117	196.359	27.4988	15.2249	-0.0314211	8.92302	3.95299	-0.0383638	-0.37619	2520.67	5417.53	-0.355885	-0.392292	10688.6	11.1864	8458.91	1098.59	-2.3975	-0.105622	5622.9	8400.77	-0.152975	-0.436304	976.395	
3.39	3001.8	585.168	357.118	84.3928	1563.96	-0.12751	948.827	12578.8	866.164	434.681	628.489	1786.55	1433.63	7778.61	0.00109091	17.9227	45.6938	1168.98	308.396	25.0412	355.123	390.448	155.957	557.597	3414.02	191.223	1698.94	17.7498	3092.89	4.20018	1210.57	5796.26	2223.83	6972.17	97.6588	1783.24	2407.58	4.93231	22.2714	10.8594	-0.151896	-0.0786157	79.4898	123.206	-0.030056	-0.124579	500.22	-0.0683787	292.037	791.629	786.23	2941.33	684.128	-0.819034	-0.00694081	104.849	227.231	186.679	28.1544	15.3935	-0.0330523	7.40988	4.48342	-0.0359014	-0.382145	2521.32	5417.54	-0.356113	-0.399574	10688.3	12.3324	9241.28	1208.24	-2.39749	-0.10567	5601.55	8400.8	-0.166962	-0.463331	902.944	
3.395	3034.13	632.075	351.685	77.2707	1593.88	-0.121598	861.834	12574.6	941.749	475.682	610.377	1711.55	1233.13	6856.59	-0.0034108	14.5952	38.1472	1084.44	250.264	20.9153	338.284	361.786	134.528	563.012	3576.17	183.815	1647.51	14.6541	3197.55	4.62257	1210.58	5499.45	2157.18	5760.82	99.6064	2001.66	2317.17	4.28697	19.4637	9.49847	-0.152198	-0.0790232	81.6488	125.931	-0.0293079	-0.124838	580.447	-0.060636	290.806	787.98	790.061	2948.1	776.421	-0.821139	-0.00445259	111.735	234.409	179.657	28.6716	15.2708	-0.0346078	6.37586	3.9632	-0.0334847	-0.385793	2521.72	5417.55	-0.356307	-0.405454	10688	13.889	9936.87	1327.74	-2.39749	-0.105718	5588.36	8400.81	-0.181969	-0.492102	827.797	
3.4	3036.84	675.351	344.316	69.796	1611.25	-0.117029	762.834	12560.1	1017.14	516.924	592.834	1640.59	1048.05	6026.92	-0.00804197	11.7489	31.9173	1021.08	204.123	17.4245	328.156	341.595	117.567	563.448	3734.45	176.772	1599.25	12.1648	3298.78	8.90987	1210.59	5157.17	2075.64	4757.89	103.053	2227.6	2230.98	3.71511	16.9948	8.29835	-0.152412	-0.0793844	82.4756	127	-0.0291482	-0.125053	665.834	-0.0523708	290.263	786.057	793.127	2952.31	881.34	-0.823615	-0.00284976	116.208	238.593	175.431	29.1531	15.3686	-0.0360454	5.7981	3.36676	-0.031143	-0.387357	2521.9	5417.55	-0.356471	-0.405	10687.7	15.8727	10476.3	1455.86	-2.39752	-0.105766	5583.04	8400.82	-0.19785	-0.52276	751.371	
3.405	3036.96	713.686	335.115	62.1188	1615.83	-0.113779	654.02	12525.4	1090.36	557.326	576.259	1574.98	875.151	5296.68	-0.0126692	9.31737	26.7121	977.723	168.514	14.4568	324.104	328.6	104.668	558.728	3886.44	170.214	1554.9	10.1388	3395.53	21.467	1210.59	4778.35	1980.25	3922.85	108.079	2455.03	2150.64	3.20748	14.8167	7.23686	-0.152575	-0.0797211	82.0032	126.476	-0.0293024	-0.125223	754.994	-0.0437317	290.341	785.72	795.473	2954.21	998.99	-0.82589	-0.00206989	118.269	239.793	174.036	29.667	16.1147	-0.0376977	5.64004	3.18966	-0.0289047	-0.387668	2521.9	5417.55	-0.356608	-0.397376	10687.5	18.2924	10680.5	1590.24	-2.39758	-0.105814	5584.93	8400.82	-0.214637	-0.555596	673.554	
3.41	3037.05	746.064	324.259	54.4202	1607.95	-0.111808	538.8	12455.3	1159.49	595.704	560.987	1515.77	715.206	4670.48	-0.0172921	7.2475	22.3276	953.342	141.937	11.9246	325.769	321.923	95.403	548.916	4029.88	164.24	1515.03	8.47167	3486.76	47.8371	1210.6	4370.51	1872.56	3213.4	114.732	2676.14	2077.5	2.75635	12.8898	6.29565	-0.152707	-0.0800446	78.8181	124.44	-0.0295448	-0.125368	845.245	-0.0349437	290.962	786.799	797.164	2954.04	1128.21	-0.828381	-0.00210407	117.917	238.096	175.423	30.2444	16.8957	-0.0402233	5.88452	3.46375	-0.0267958	-0.386988	2521.73	5417.55	-0.356723	-0.392253	10687.2	21.1454	10682	1727.48	-2.39768	-0.105862	5593.07	8400.81	-0.232398	-0.591119	594.339	
3.415	3037.11	771.779	311.99	46.9015	1588.43	-0.11106	423.299	12330	1222.64	630.886	547.305	1463.74	569.997	4146.81	-0.0219105	5.49636	18.6131	947.043	122.993	9.75889	333.02	320.981	89.3681	534.314	4162.87	158.932	1480.05	7.08662	3571.41	92.3318	1210.6	3940.37	1754.49	2618.42	123.007	2882.56	2012.62	2.35519	11.1812	5.45943	-0.152821	-0.080361	72.8719	116.489	-0.0297848	-0.125501	933.242	-0.0262686	292.035	789.081	798.263	2952.1	1266.21	-0.83087	-0.00294636	115.218	233.641	179.473	30.8798	17.3714	-0.042368	6.5371	4.10319	-0.0248413	-0.385108	2521.42	5417.54	-0.356809	-0.389866	10686.9	24.4194	10683.5	1861.68	-2.39784	-0.10591	5606.2	8400.8	-0.25109	-0.629861	514.204	
3.42	3037.14	790.431	298.6	39.7762	1558.53	-0.111461	323.322	12127.4	1278.1	661.854	535.443	1419.46	440.892	3714.47	-0.0265245	4.02944	15.4521	958.093	110.475	7.90486	345.922	325.419	86.2075	515.436	4283.72	154.356	1450.24	5.92654	3648.35	157.532	1210.59	3496.66	1628.51	2135.14	132.882	3066.75	1956.86	1.99851	9.66354	4.71541	-0.152924	-0.0806735	66.0442	105.234	-0.0300081	-0.125628	1015.38	-0.0178708	293.448	792.305	798.887	2948.76	1409.88	-0.832992	-0.00454405	110.374	226.592	185.996	25.4477	17.43	-0.0415067	7.61849	5.07951	-0.0230673	-0.381878	2520.99	5417.53	-0.35686	-0.386999	10686.7	28.0952	10684.8	1985.64	-2.39807	-0.105957	5622.81	8400.79	-0.270525	-0.672146	434.41	
3.425	3037.15	801.892	284.423	33.2855	1519.84	-0.1129	247.909	11825.4	1324.55	687.816	525.568	1383.27	330.059	3337.44	-0.0311341	2.81909	12.7532	985.896	103.41	6.3186	364.716	335.062	85.624	492.963	4391.3	150.558	1425.81	4.94828	3716.58	244.919	1210.59	3047.47	1497.62	1755.39	144.367	3222.61	1910.8	1.68165	19.3939	8.03212	-0.153021	-0.0809838	59.4926	93.6012	-0.0302221	-0.125754	1088.31	-0.00986453	295.071	796.159	799.06	2944.39	1556.22	-0.83503	-0.00682495	103.673	217.109	194.735	20.8054	17.0274	-0.0401077	9.15259	6.41379	-0.0215	-0.377333	2520.48	5417.52	-0.356882	-0.382516	10686.5	32.146	10685.9	2094.17	-2.39838	-0.106005	5641.18	8400.77	-0.290411	-0.717943	356.868	
3.43	3037.13	806.284	269.813	27.836	1474.13	-0.114728	194.043	11405.2	1361.07	708.239	517.783	1355.27	243.547	2963.87	-0.0357394	1.84342	10.4434	1029.96	101.079	4.96484	389.794	349.885	87.3746	467.672	4484.72	147.571	1406.83	4.11874	3775.05	355.207	1210.57	2594.29	1365.24	1469.19	157.486	3345.79	1874.77	4.74753	54.8595	23.4751	-0.153114	-0.0812928	53.317	82.7699	-0.0304333	-0.125879	1149.2	-0.00234959	296.753	800.277	798.957	2939.46	1702.47	-0.836953	-0.00972996	95.4266	205.391	205.358	18.3011	16.1322	-0.0384906	11.1521	8.11052	-0.0201725	-0.371565	2519.93	5417.5	-0.356884	-0.376731	10686.3	36.5381	10686.8	2184.06	-2.39877	-0.106052	5659.51	8400.75	-0.31037	-0.766778	283.852	
3.435	3037.09	803.926	255.128	23.4377	1423.3	-0.116602	155.197	10854.3	1387.13	722.786	512.141	1335.37	182.302	2607.52	-0.0403403	1.08542	8.46489	1089.84	103.015	3.81513	421.672	369.999	91.2655	440.352	4563.68	145.41	1393.27	3.41225	3822.67	488.649	1210.56	2137.2	1235.08	1266.05	172.283	3433.87	1848.88	17.0249	122.718	56.0453	-0.153205	-0.0816011	47.2621	72.8154	-0.0306446	-0.126003	1195.95	0.379551	298.322	804.244	798.594	2934.48	1846.32	-0.838579	-0.0132173	85.9419	191.68	217.46	16.9692	14.7314	-0.0366234	13.6045	10.1192	-0.0191271	-0.364663	2519.4	5417.49	-0.356872	-0.369897	10686.1	41.232	10687.5	2253.66	-2.39927	-0.1061	5675.93	8400.73	-0.32996	-0.817656	217.64	
3.44	3037.04	795.292	240.719	19.8958	1369.23	-0.118433	126.136	10169.8	1402.58	731.365	508.645	1323.4	140.386	2285.27	-0.0449368	0.532336	6.77113	1165.1	108.981	2.84654	460.833	395.627	97.1406	411.623	4628.22	144.072	1385.04	2.80864	3858.47	643.946	1210.54	1687.44	1110.68	1136.24	188.816	3485.69	1833.02	41.4101	219.12	104.105	-0.153294	-0.0819089	41.1507	63.493	-0.0308563	-0.126126	1227.07	2.60114	299.588	807.599	798.023	2930.02	1986.07	-0.839824	-0.0172541	75.5405	176.269	230.568	15.8226	12.8476	-0.0345756	16.4629	12.3327	-0.0183889	-0.356716	2518.96	5417.48	-0.356853	-0.362081	10686	46.1838	10688.1	2302.43	-2.39987	-0.106155	5688.56	8400.72	-0.34873	-0.869183	160.069	
3.445	3036.96	780.961	226.912	17.0026	1313.65	-0.120231	103.612	9362.81	1407.59	734.08	507.252	1319.04	111.086	1994.96	-0.0495291	0.175197	5.32475	1255.31	118.932	2.04064	507.619	427.09	104.876	381.907	4678.8	143.537	1381.95	2.29197	3881.49	817.146	1210.51	1261.09	994.025	1072.12	207.075	3501.58	1826.94	75.9783	341.905	166.191	-0.153384	-0.0822164	34.9684	54.5947	-0.0310681	-0.126249	1241.51	6.15927	300.352	809.856	797.45	2926.7	2120.64	-0.840897	-0.0218082	64.5679	159.506	244.155	15.0969	10.556	-0.0324155	19.6424	14.5998	-0.0179553	-0.34783	2518.68	5417.48	-0.35683	-0.353371	10686	51.3467	10688.4	2330.58	-2.40058	-0.106218	5695.54	8400.71	-0.366308	-0.919896	112.241	
3.45	3036.87	761.57	214.003	14.6014	1258.14	-0.122016	85.726	8462.44	1402.62	731.189	507.879	1321.96	89.702	1727.62	-0.0541171	0.00853023	4.09563	1359.96	132.984	1.38272	562.24	464.744	114.375	351.499	4716.04	143.771	1383.78	1.84951	3890.85	1002.52	1210.48	904.811	885.762	1069.09	226.881	3483.06	1830.21	119.422	489.857	241.873	-0.153472	-0.0825237	28.8123	46.0206	-0.03128	-0.126372	1238.78	10.4418	300.409	810.521	796.972	2925.2	2250.03	-0.84191	-0.0268429	53.3906	141.775	257.657	14.5575	8.00089	-0.0302092	23.0229	16.7396	-0.0178006	-0.338119	2518.63	5417.48	-0.356804	-0.343895	10686	56.6721	10688.5	2338.63	-2.4014	-0.106284	5694.98	8400.7	-0.38248	-0.968638	74.2503	
3.455	3036.81	737.782	202.251	12.5838	1204.04	-0.123797	71.2973	7521.91	1388.36	723.076	510.41	1331.75	73.4729	1479.98	-0.0587009	0.000376103	3.05945	1478.55	151.394	0.861253	624.774	508.832	125.572	320.881	4740.57	144.731	1390.25	1.47107	3885.73	1202.22	1210.44	651.117	786.202	1125.42	247.834	3432.56	1842.29	171.478	659.889	329.913	-0.15356	-0.0828307	22.8361	37.7673	-0.0314917	-0.126494	1219.07	14.9815	299.563	809.117	796.807	2926.21	2375.29	-0.842813	-0.0323172	42.3868	123.476	270.5	14.1672	5.38562	-0.028023	26.4581	18.5596	-0.017888	-0.327704	2518.9	5417.48	-0.356778	-0.333782	10686	62.1106	10688.5	2327.22	-2.40235	-0.106347	5684.88	8400.71	-0.397167	-1.01468	45.4675	
3.46	3027.24	710.257	191.878	10.8733	1152.41	-0.125578	59.5226	6617.17	1365.66	710.221	514.698	1347.95	60.8177	1250.71	-0.0632804	-0.00133017	2.19665	1610.89	174.548	0.467389	695.183	559.55	138.436	290.681	4752.8	146.361	1401.03	1.14844	3865.46	1424.71	1210.4	483.518	695.24	1241.44	269.351	3353.38	1862.54	231.732	849.603	429.283	-0.153649	-0.0831375	17.2186	29.9062	-0.0317033	-0.126616	1183	19.4362	297.639	805.212	797.413	2930.4	2497.11	-0.843555	-0.0381849	31.9377	105.023	282.126	13.7654	2.96915	-0.0259206	29.7861	19.8769	-0.0181784	-0.316713	2519.52	5417.5	-0.356751	-0.323156	10686.1	67.6136	10688.2	2297.01	-2.40342	-0.106433	5662.26	8400.73	-0.410361	-1.05228	24.8841	
3.465	2997.68	679.629	183.076	9.41266	1104.05	-0.127358	49.818	5788.83	1335.56	693.213	520.576	1370.06	50.769	1039.43	-0.0678557	-0.00776847	1.4916	1758.47	202.967	0.194691	773.37	617.102	152.983	261.506	4752.59	148.599	1415.76	0.874977	3829.5	1675.74	1210.35	372.056	612.031	1418.41	290.705	3249.44	1890.23	299.736	1058.08	539.757	-0.153736	-0.0834441	12.1446	22.5663	-0.0319148	-0.126738	1131.52	23.5706	275.1	792.514	848.111	2938.54	2616.48	-0.844139	-0.0443953	22.4173	86.8418	292.022	13.3412	1.07212	-0.0239601	32.8436	20.5406	-0.0186345	-0.305276	2520.54	5417.52	-0.357279	-0.312137	10686.3	73.1339	10687.8	2248.77	-2.40465	-0.106549	5622.41	8400.76	-0.42209	-1.0605	11.3087	
3.47	2946.07	646.509	176.012	8.15775	1059.46	-0.129137	41.7475	5050.68	1299.16	672.709	527.858	1397.52	42.6783	846.569	-0.0724268	-0.0142019	0.932038	1924.04	237.315	0.0388901	859.216	681.742	169.274	233.925	4739.01	151.377	1434.05	0.645355	3777.47	1952.03	1210.3	294.067	535.245	1657.63	311.121	3124.99	1924.57	373.95	1280.6	659.006	-0.153824	-0.0837505	7.78915	15.9219	-0.0321262	-0.126859	1066.55	27.2365	249.355	777.142	938.494	2951.35	2734.86	-0.844602	-0.0508929	14.1873	69.3592	299.741	12.8988	0.0678995	-0.0221932	35.4784	20.4489	-0.0192224	-0.293521	2521.96	5417.55	-0.358544	-0.300841	10686.5	78.6401	10687.3	2183.68	-2.40606	-0.106671	5564.39	8400.81	-0.432398	-1.06533	3.50262	
3.475	2871.43	611.491	170.839	7.07355	1019	-0.130913	34.982	4406.05	1257.67	649.385	536.346	1429.74	36.0842	673.119	-0.0769937	-0.0206296	0.508545	2111.3	278.411	-0.00385242	953.331	753.825	187.426	208.428	4710.12	154.621	1455.5	0.455283	3709.27	2238.3	1209.15	236.516	464.556	1959.87	329.874	2984.58	1964.69	451.244	1507.39	781.885	-0.153911	-0.0840567	4.30321	10.1761	-0.0323375	-0.126981	991.447	30.3516	229.101	762.077	985.73	2969.4	2853.92	-0.844985	-0.0576182	7.58321	53.0208	304.925	12.7585	-0.00329098	-0.0206633	37.5599	19.5628	-0.0199124	-0.281574	2523.72	5417.59	-0.360326	-0.289377	10686.7	84.1407	10686.5	2103.46	-2.40769	-0.106781	5482.85	8400.88	-0.44134	-1.06658	0.266765	
3.48	2773.71	575.158	167.707	6.13213	982.893	-0.132688	29.2717	3847.1	1212.29	623.939	545.836	1466.03	30.6493	521.426	-0.0815564	-0.0270512	0.214248	2325.03	327.225	0.000994682	1058.7	833.856	207.605	185.403	4662.93	158.257	1479.69	0.301355	3625.12	2513.17	1198.26	192.454	400.878	2324.89	346.304	2833.02	2009.71	528.198	1728.16	902.92	-0.153999	-0.0843627	1.80303	5.63819	-0.0325487	-0.127102	910.593	32.8799	214.006	746.299	992.027	2993.15	2975.17	-0.845321	-0.0645059	2.90269	38.2698	307.31	8.58362	-0.0102014	-0.0194054	38.9866	17.9182	-0.0206753	-0.269554	2525.66	5417.64	-0.362049	-0.277845	10687	89.6439	10685.7	2010.6	-2.4096	-0.106873	5383.53	8400.96	-0.448989	-1.09466	-0.0056259	
3.485	2653.73	538.078	166.779	5.59674	951.281	-0.134461	24.4246	3355.52	1164.22	597.061	556.118	1505.71	26.1242	396.36	-0.086115	-0.0334668	0.0445679	2570.98	384.911	-0.0028272	1178.66	922.493	230.024	165.097	4593.53	162.212	1506.15	0.180913	3525.45	2760.49	1175.57	157.956	344.922	2750.7	359.833	2674.94	2058.71	602.401	1936.17	1018.49	-0.154086	-0.0846686	0.368197	2.48219	-0.0327598	-0.127223	828.428	34.8212	208.832	732.133	984.443	3022.78	3099.84	-0.845629	-0.0714924	0.388888	25.509	306.74	4.78004	-0.017434	-0.0184448	39.6904	15.6431	-0.0214837	-0.257571	2527.48	5417.7	-0.363351	-0.266337	10687.3	95.1499	10684.7	1908.37	-2.41187	-0.10695	5265.29	8401.07	-0.455436	-1.1002	-0.0200622	
3.49	2513.16	500.707	168.237	6.66609	924.273	-0.136232	20.292	2915.14	1114.59	569.411	566.984	1548.06	22.3226	303.252	-0.0906694	-0.0398764	-0.00427066	2855.71	452.798	-0.00677775	1316.33	1021.64	255.142	147.461	4497.34	166.413	1534.46	0.0919489	3411.16	2969.66	1141.27	130.529	297.119	3232.46	369.975	2514.67	2110.79	672.277	2127.44	1126.41	-0.154173	-0.0849742	0.000130603	0.664144	-0.0329708	-0.127344	748.645	36.2058	216.746	718.223	970.576	3058.15	3228.89	-0.845921	-0.0785181	-0.00268967	15.0817	303.159	1.9069	-0.0249338	-0.0177979	39.6389	11.4679	-0.0223113	-0.245724	2528.77	5417.77	-0.364183	-0.254931	10687.6	100.652	10683.7	1800.75	-2.41459	-0.107016	5119.88	8401.18	-0.460787	-1.10763	-0.0324824	
3.495	2354.72	463.378	172.299	9.62952	901.978	-0.138001	16.7568	2532.76	1064.42	541.587	578.231	1592.38	19.1035	237.033	-0.0952196	-0.04628	0.00118412	3186.34	532.312	-0.010725	1474.34	1135.73	283.888	132.234	4369.77	170.792	1564.19	0.0330324	3283.51	3133.4	1096.12	108.441	257.622	3762.02	376.343	2356.06	2165.07	737.048	2302.7	1226.01	-0.152254	-0.0852797	-0.00414466	0.0074446	-0.0331817	-0.127464	673.558	37.0879	234.848	706.259	943.249	3098.7	3362.91	-0.846204	-0.085528	-0.0134289	7.25776	295.128	0.336461	-0.0326324	-0.0174717	38.8349	5.37966	-0.0231339	-0.234099	2529.15	5417.85	-0.364655	-0.243697	10687.8	106.141	10682.5	1692.2	-2.41785	-0.107073	4945.91	8401.3	-0.46516	-1.10899	-0.0430302	
3.5	2182.31	426.297	179.224	14.4955	884.531	-0.139768	13.7265	2208.76	1014.6	514.107	589.672	1637.99	16.3591	189.516	-0.0997658	-0.0526777	-0.00285511	3569.74	624.885	-0.0146687	1654.76	1269.94	317.525	119.136	4206.84	175.28	1594.9	0.00326268	3144.12	3246.68	1041.41	90.4406	226.342	4332.79	378.649	2202.27	2220.69	797.887	2471.58	1320.62	-0.148765	-0.085585	-0.00823823	-0.00322175	-0.0333925	-0.127585	604.389	37.5392	238.21	685.92	914.528	3142.67	3501.8	-0.846482	-0.092472	-0.0240726	2.22446	283.181	-0.000324566	-0.0404504	-0.0174616	37.3139	1.28449	-0.0239289	-0.222767	2529.13	5417.94	-0.365004	-0.232691	10688.1	111.603	10681.3	1587.19	-2.42176	-0.107126	4750.22	8401.42	-0.468679	-1.11572	-0.0518862	
3.505	2001.54	389.62	189.316	21.6282	872.119	-0.141533	11.1272	1939.88	965.879	487.394	601.132	1684.21	14.0052	154.224	-0.104308	-0.0590695	-0.00710416	4009.78	731.827	-0.0186087	1858.8	1429.72	357.687	107.914	4006.08	179.818	1626.18	-0.000302991	2994.99	3308.93	978.909	75.6125	203.019	4951.72	376.711	2055.59	2276.84	857.422	2638.76	1414.01	-0.144877	-0.0852664	-0.0123221	-0.00813312	-0.0336032	-0.127705	541.463	37.6423	227.49	658.427	893.948	3186.99	3644.74	-0.846757	-0.0993067	-0.034568	0.0808403	268.568	-0.00581358	-0.0483108	-0.0176527	34.7104	0.0040904	-0.0246755	-0.211784	2529.16	5418.03	-0.365291	-0.221959	10688.4	117.028	10678.8	1488.32	-2.42642	-0.107175	4536.81	8401.56	-0.471472	-1.11525	-0.0592487	
3.51	1820.08	353.528	202.924	31.8211	864.987	-0.143296	8.89942	1721.31	918.888	461.766	612.447	1730.41	11.976	127.084	-0.108846	-0.0654555	-0.0113497	4508.26	854.149	-0.022545	2081.7	1620.45	406.362	98.3275	3767.52	184.347	1657.61	-3.25694e-05	2838.4	3326.2	910.802	63.2819	187.326	5627.62	370.459	1917.53	2332.75	916.115	2802.4	1506.16	-0.140739	-0.0775498	-0.0164322	-0.0136762	-0.0338138	-0.127825	484.412	37.4861	214.202	629.778	882.597	3229.23	3790.2	-0.84703	-0.105998	-0.044878	-0.00594559	252.214	-0.0114294	-0.0561503	-0.0179208	30.6146	-0.00416597	-0.025355	-0.201193	2529.18	5418.12	-0.365504	-0.211532	10688.7	122.404	10458.2	1397.04	-2.43193	-0.107223	4310.49	8401.69	-0.473673	-1.10724	-0.0653263	
3.515	1647.36	318.131	220.433	45.9915	863.449	-0.145057	6.99538	1546.96	874.155	437.471	623.472	1776	10.2191	105.678	-0.113379	-0.0718356	0.957499	5065.14	992.395	-0.0264777	2308.52	1846.92	465.832	90.1693	3494.85	188.815	1688.81	-0.00103128	2676.79	3300.71	839.691	52.9458	178.972	6367.82	359.943	1789.06	2387.75	972.997	2959.44	1595.34	-0.136283	-0.0640063	-0.0204295	-0.0196443	-0.0340243	-0.127945	432.476	37.1618	202.509	602.044	877.984	3268.43	3936.2	-0.847301	-0.112524	-0.0549782	-0.0151675	234.077	-0.0173009	-0.0639228	-0.0189399	27.0192	-0.00901373	-0.0259505	-0.191018	2529.21	5418.21	-0.365637	-0.201432	10688.9	127.727	10067.2	1314.21	-2.43835	-0.107269	4079.41	8401.83	-0.475418	-1.08785	-0.0703364	
3.52	1487.91	283.344	242.244	64.9975	867.891	-0.146816	5.37635	1409.52	831.994	414.695	634.082	1820.46	8.69264	88.5033	-0.117909	-0.0407756	13.9114	5678	1146.87	-0.0304067	2524.64	2110.83	538.49	83.2821	3196.58	193.178	1719.42	-0.00202927	2512.59	3232.48	768.536	44.2231	177.777	7174.58	345.336	1670.36	2441.29	1027.44	3108.69	1680.69	-0.131522	-0.0487078	-0.0241737	-0.0255997	-0.0342347	-0.128064	384.75	36.7596	191.835	575.796	877.508	3304.65	4080.61	-0.847572	-0.118867	-0.0648536	-0.0240059	215.61	-0.0234556	-0.0716001	-0.0202785	23.3406	-0.0139303	-0.0264463	-0.181272	2529.24	5418.3	-0.365705	-0.191672	10689.1	132.995	9636.08	1240.16	-2.44573	-0.107314	3853.02	8401.96	-0.476844	-1.06781	-0.0745021	
3.525	1342.69	248.858	268.747	89.618	878.763	-0.148573	4.01103	1301.85	792.478	393.516	644.177	1863.34	7.36264	74.5458	-0.122435	0.82842	43.7437	6341.72	1321.71	-0.0343322	2717.22	2395.31	625.941	77.5682	2887.69	197.393	1749.13	-0.0030264	2348	3123.82	700.634	36.8217	183.701	8040.67	326.971	1560.69	2492.84	1079.53	3250.69	1762.43	-0.126485	-0.0332322	-0.0276046	-0.0312448	-0.034445	-0.126555	340.514	36.3659	181.64	551.703	879.431	3338.19	4220.67	-0.847842	-0.12502	-0.0744973	-0.032439	196.92	-0.0298686	-0.0791705	-0.0214276	19.6133	-0.0190793	-0.0268276	-0.171952	2529.26	5418.39	-0.365727	-0.182252	10689.3	138.214	9189.52	1174.81	-2.45406	-0.10736	3640.51	8402.08	-0.478087	-1.05244	-0.0780496	
3.53	1212.08	214.719	300.283	120.516	896.647	-0.150328	2.87423	1218.11	755.619	373.896	653.68	1904.29	6.20161	63.0765	-0.126956	19.2602	92.8501	7048.22	1524.37	0.000251612	2875.75	2674.33	729.07	72.9984	2587.52	201.429	1777.68	-0.00402261	2184.83	2979.08	638.732	30.5145	196.842	8949.78	305.367	1459.7	2541.98	1129.22	3385.57	1840.56	-0.121181	-0.0173642	-0.0307194	-0.0364689	-0.0346552	-0.122097	299.867	36.0606	172.193	530.413	882.719	3369.13	4353.64	-0.848111	-0.130981	-0.0839096	-0.0404593	177.536	-0.0365039	-0.0866375	-0.0228307	15.969	-0.0244959	-0.0270802	-0.163046	2529.28	5418.46	-0.365724	-0.173165	10689.5	143.395	8745.2	1117.8	-2.46331	-0.107404	3449.93	8402.19	-0.479279	-1.04411	-0.0812016	
3.535	1095.71	181.467	337.094	158.143	921.899	-0.152081	1.94581	1153.62	721.472	355.786	662.538	1943.01	5.18701	53.5568	-0.131474	61.6652	162.781	7795.93	1762.89	11.8814	2992.89	2922.47	848.276	69.553	2305.52	205.258	1804.86	-0.0050477	2024.09	2803.26	583.201	25.123	217.387	9878.81	281.269	1367.33	2588.36	1176.04	3512.27	1914.34	-0.115624	-0.000775293	-0.0335343	-0.0412733	-0.0348653	-0.116799	262.958	35.915	163.937	512.439	886.711	3397.21	4476.4	-0.848379	-0.136754	-0.093098	-0.0480703	157.417	-0.0433313	-0.0940186	-0.0254553	12.4523	-0.0301683	-0.0271911	-0.154527	2529.3	5418.53	-0.365705	-0.164397	10689.6	148.555	8322.16	1068.56	-2.47341	-0.107449	3287.12	8402.28	-0.480535	-1.04187	-0.0841704	
3.54	992.482	149.69	379.272	202.683	955.204	-0.153832	1.20992	1104.72	690.031	339.175	670.72	1979.28	4.30031	45.583	-0.135335	128.351	253.542	8590.57	2044.67	53.561	3065.39	3116.33	983.481	67.202	2046.87	208.859	1830.48	0.367879	1864.24	2601.88	533.861	20.5059	245.534	10807.1	255.679	1283.43	2631.73	1219.13	3628.68	1982.38	-0.109825	3.56278	-0.0360651	-0.0455973	-0.0350753	-0.111351	229.759	35.9914	157.188	498.203	890.933	3421.96	4585.87	-0.848647	-0.142347	-0.102078	-0.0552866	136.989	-0.0503298	-0.101343	-0.0277599	9.13163	-0.0360776	-0.0271494	-0.146364	2529.32	5418.58	-0.365678	-0.155927	10689.8	153.714	7931.91	1026.47	-2.48426	-0.107494	3154.82	8402.36	-0.481958	-1.04555	-0.0871556	
3.545	900.633	120	426.7	254.099	997.112	-0.155581	0.65446	1068.5	661.269	324.028	678.215	2012.97	3.5262	38.8502	-0.0895633	217.987	363.952	9427.72	2375.2	124.336	3094.73	3235.92	1134.53	65.9092	1814.25	212.217	1854.43	13.5512	1704.94	2381.51	490.392	16.5503	281.413	11717.8	229.736	1207.76	2671.91	1257.34	3731.83	2042.81	-0.103797	15.8257	-0.0381348	-0.0492264	-0.0352852	-0.105621	200.123	36.3426	152.166	488.081	894.962	3442.66	4678.69	-0.848914	-0.1478	-0.110882	-0.0621334	116.769	-0.0574854	-0.108647	-0.0298126	6.13261	-0.0422074	-0.026947	-0.138506	2529.33	5418.62	-0.365647	-0.147732	10689.9	158.894	7579.2	990.842	-2.49573	-0.107538	3055.2	8402.41	-0.483633	-1.0532	-0.0903438	
3.55	817.897	93.018	479.011	312.04	1048.03	-0.157328	0.270573	1042.71	635.131	310.303	685.025	2044	2.85201	33.1252	-0.0386676	327.962	491.745	10291.8	2754.68	223.126	3096.01	3267.89	1306.44	65.6352	1607.3	215.324	1876.64	53.9744	1548.37	2150.2	452.372	13.1659	325.012	12597.2	204.192	1140.03	2708.83	1289.25	3817.99	2093.34	-0.0975517	35.9006	-0.0394365	-0.051966	-0.035495	-0.0995904	173.827	37.0123	149.083	482.428	898.45	3458.38	4751.86	-0.849181	-0.15319	-0.119563	-0.0686448	97.1874	-0.0647891	-0.112915	-0.0319438	3.59642	-0.048544	-0.0265782	-0.134988	2529.34	5418.65	-0.365614	-0.139783	10690	164.116	7265.81	961.018	-2.50771	-0.107582	2990.56	8402.44	-0.485633	-1.06361	-0.0939125	
3.555	742.524	69.639	535.563	375.771	1108.15	-0.159073	0.0524144	1025.65	611.536	297.944	691.167	2072.35	2.2672	28.2277	0.0325411	454.852	634.145	11158.7	3177.03	346.389	3096.15	3268.16	1504.94	66.3382	1421.37	218.176	1897.07	116.596	1397.09	1917.98	419.315	10.2796	376.112	13434.5	179.309	1079.83	2742.48	1313.41	3883.28	2131.62	-0.0914554	62.9512	-0.0399646	-0.0537952	-0.0357047	-0.0933204	150.607	38.0378	148.156	481.614	901.138	3467.96	4802.45	-0.849447	-0.158574	-0.128176	-0.0748617	78.6099	-0.0722357	-0.115903	-0.0341753	1.65286	-0.0550194	-0.0260427	-0.133909	2529.34	5418.65	-0.36558	-0.132053	10690	169.399	6992.06	936.381	-2.52011	-0.107627	2964.14	8402.45	-0.488009	-1.07645	-0.0980147	
3.56	674.38	51.9766	595.596	444.164	1177.42	-0.160815	-0.00573624	1016.19	590.376	286.887	696.667	2098.05	1.76305	24.0165	8.43567	595.346	787.796	12000.2	3633.83	489.525	3096.25	3268.4	1732.09	67.9762	1250.51	220.772	1915.7	193.331	1253.59	1694.56	390.712	7.83266	434.271	14222.1	155.359	1026.68	2772.91	1328.5	3924.19	2155.54	-0.0860639	88.4691	-0.040176	-0.0549051	-0.0359143	-0.0868518	130.177	39.4482	149.597	486.052	902.803	3470.25	4827.58	-0.849713	-0.163991	-0.136773	-0.0808305	61.3894	-0.0797054	-0.117455	-0.0364441	0.418418	-0.0615325	-0.0253454	-0.131363	2529.34	5418.64	-0.365544	-0.124515	10690.1	174.755	6756.72	916.342	-2.53282	-0.107671	2981.12	8402.44	-0.490795	-1.0921	-0.102784	
3.565	613.366	39.6731	659.04	515.747	1255.28	-0.162556	0.00156273	1013.67	571.527	277.06	701.559	2121.18	1.33234	20.38	30.6506	746.245	948.769	12789.1	4115.3	647.997	3096.33	3268.62	1986.16	70.5052	1093.27	223.118	1932.57	280.965	1120.23	1483.42	366.094	5.77747	498.814	14954.8	132.63	980.068	2800.21	1333.59	3938.21	2163.61	-0.0799317	119.601	-0.0403897	-0.0556332	-0.0361238	-0.0802165	112.25	41.2658	153.613	496.232	903.249	3463.89	4824.43	-0.849978	-0.169469	-0.145404	-0.0865997	45.8554	-0.0874228	-0.118118	-0.0387249	-0.000330394	-0.0659812	-0.0244964	-0.128356	2529.33	5418.61	-0.365509	-0.117141	10690.1	179.07	6557.62	900.345	-2.5457	-0.107715	3049.58	8402.4	-0.494008	-1.11036	-0.10833	
3.57	559.157	31.1729	725.978	588.915	1340.45	-0.164294	-0.00398633	1018.02	554.847	268.382	705.88	2141.83	0.969125	17.229	64.7556	904.009	1112.91	13503.9	4611.44	817.01	3096.39	3268.81	2262.54	73.8815	951.435	225.221	1947.72	378.923	998.949	1284.34	345.068	13.2449	568.92	15629.4	111.033	939.452	2824.53	1328.26	3924.21	2155.19	-0.0731793	163.145	-0.0406946	-0.0563977	-0.0363332	-0.0734487	96.5564	43.5041	160.406	512.751	902.299	3447.62	4790.25	-0.850242	-0.175032	-0.154117	-0.0922181	32.285	-0.0933743	-0.118471	-0.0410076	-0.00305666	-0.0684444	-0.0235106	-0.125353	2529.31	5418.55	-0.365473	-0.109908	10690.1	181.85	6391.6	887.849	-2.55858	-0.107759	3181.39	8402.32	-0.497663	-1.13118	-0.114741	
3.575	511.24	25.0923	796.146	663.239	1430.91	-0.16603	0.000752595	1029.7	540.186	260.768	709.673	2160.13	0.668549	14.4917	108.519	1065.04	1276.11	14132.4	5113.66	991.726	3096.43	3268.98	2546.67	78.0612	826.284	227.093	1961.22	496.052	891.127	1098.42	327.342	78.1464	644.156	16244.4	90.5737	904.268	2846.03	1312.68	3882.59	2130.51	-0.0662607	216.896	-0.0411368	-0.0574808	-0.0365424	-0.0665839	82.8611	46.1663	170.161	536.339	899.773	3420.55	4722.47	-0.850506	-0.180709	-0.162961	-0.097733	20.9002	-0.0990358	-0.118793	-0.0432788	-0.00661474	-0.0693986	-0.0224067	-0.121976	2529.29	5418.48	-0.365437	-0.102771	10690.2	183.838	6254.74	878.326	-2.82318	-0.107802	3388.66	8402.22	-0.501773	-1.15423	-0.12208	
3.58	468.977	20.5498	868.821	738.816	1524.01	-0.167765	13.2903	1049.8	527.383	254.131	712.98	2176.23	0.426723	16.1401	159.584	1225.94	1435.26	14673.1	5623.77	1167.64	3096.45	3269.13	2817.56	83.0015	718.411	228.745	1973.16	639.734	797.182	925.883	312.797	269.855	725.855	16799.7	71.7143	873.968	2864.9	1287.57	3815.3	2090.76	-0.0591684	275.389	-0.0416451	-0.0588912	-0.0367516	-0.0596562	70.9435	49.2425	183.034	567.872	895.473	3382.08	4618.91	-0.85077	-0.186522	-0.171976	-0.103188	11.871	-0.105821	-0.119149	-0.0455255	-0.0102039	-0.0696373	-0.0212049	-0.118331	2529.26	5418.37	-0.365401	-0.0957047	10690.2	186.057	6142.84	871.261	-2.99399	-0.107846	3677.68	8402.08	-0.506351	-1.17937	-0.130378	
3.585	431.691	17.0414	942.768	815.132	1616.67	-0.169496	96.9106	1080.05	516.275	248.382	715.845	2190.29	0.240607	34.3584	215.628	1383.61	1590.23	15132.9	6144.67	1341.85	3096.46	3269.26	3062.17	88.6757	627.631	230.193	1983.63	808.909	716.035	764.216	301.433	581.955	816.056	17296.1	54.8666	848.022	2881.36	1254.13	3725.48	2037.83	-0.0517426	337.653	-0.0419816	-0.0603989	-0.0369607	-0.052698	60.5915	52.7079	199.222	608.337	889.18	3331.86	4478.13	-0.851033	-0.192491	-0.181201	-0.10862	5.32207	-0.113134	-0.119531	-0.0477399	-0.0138202	-0.070788	-0.0199263	-0.114853	2529.22	5418.24	-0.365365	-0.0886945	10690.2	189.832	6051.54	866.157	-3.05	-0.10789	4045.18	8401.9	-0.511387	-1.20618	-0.139615	
3.59	398.702	14.2718	1016.31	891.08	1705.5	-0.171226	263.048	1122.9	506.698	243.433	718.312	2202.48	0.107927	87.136	274.517	1535.39	1740.42	15527.8	6675.41	1516.14	3096.47	3269.38	3273.08	95.1063	552.631	231.453	1992.75	996.024	646.14	614.712	293.234	967.894	917.176	17735.9	40.5345	825.921	2895.6	1213.8	3616.9	1974	-0.0438404	408.811	-0.0419689	-0.061791	-0.0371697	-0.0457399	51.6022	56.5227	219.079	658.751	880.682	3269.44	4299.83	-0.851296	-0.198629	-0.190662	-0.114059	1.34241	-0.12023	-0.119921	-0.0499194	-0.0174641	-0.0734858	-0.0185921	-0.111123	2529.18	5418.09	-0.365329	-0.0817331	10690.2	195.046	5976.56	862.545	-3.05333	-0.107933	4478.3	8401.67	-0.516843	-1.2344	-0.14969	
3.595	369.354	12.0518	1087.48	965.065	1787.19	-0.172954	478.745	1181.67	498.491	239.197	720.424	2212.98	0.0271177	189.069	334.402	1679.11	1884.14	15883.7	7213.24	1692.19	3096.47	3269.49	3446.07	102.355	490.92	232.541	2000.63	1195.9	586.037	479.772	288.164	1411.65	1031.9	18122.2	29.6118	807.186	2907.85	1168	3493.28	1901.59	-0.035845	493.232	-0.0417302	-0.0630047	-0.0373786	-0.0388094	43.7861	60.6334	243.155	720.03	869.772	3194.41	4084.82	-0.851558	-0.204943	-0.200375	-0.119527	-0.000990925	-0.126992	-0.120311	-0.0520658	-0.0211402	-0.0770735	-0.0172192	-0.106533	2529.13	5417.9	-0.365293	-0.0748154	10690.1	200.822	5913.88	859.994	-3.04528	-0.107977	4953.21	8401.4	-0.522675	-1.26354	-0.160457	
3.6	342.976	10.2496	1154.28	1035.25	1858.68	-0.174679	726.252	1260.75	491.494	235.59	722.223	2221.98	-0.0028574	344.097	393.773	1813.19	2019.1	16242.5	7755.41	1870.23	3096.49	3269.61	3577.83	110.519	440.12	233.476	2007.4	1406.75	534.347	361.386	286.167	1916.83	1163.04	18458.9	22.0248	791.367	2918.33	1117.88	3357.56	1822.43	-0.0279565	593.714	-0.0414851	-0.0639753	-0.0376219	-0.0319302	36.9746	64.9794	272.316	792.861	856.247	3106.27	3836.13	-0.851819	-0.211434	-0.210345	-0.125035	-0.00840155	-0.133495	-0.1207	-0.0541854	-0.0248574	-0.0808033	-0.0158204	-0.0998051	2526.99	5417.69	-0.365257	-0.067939	10690.1	206.585	5859.78	858.126	-3.03965	-0.10802	5426.72	8401.07	-0.528828	-1.29337	-0.171787	
3.605	318.974	8.76954	1214.88	1099.88	1917.53	-0.176402	1005.25	1365.84	485.553	232.53	723.749	2229.65	0.0003811	553.153	451.493	1936.57	2142.92	16630.9	8300.31	2049.61	3096.51	3269.72	3664.13	119.737	398.193	234.274	2013.19	1627.46	489.762	263.961	287.166	2481.36	1313.57	18750.4	16.8872	778.048	2927.25	1064.22	3211.63	1737.79	-0.020192	711.607	-0.0413191	-0.0647798	-0.0378889	-0.0251217	31.0242	69.4989	307.717	877.213	839.936	3004.71	3559.58	-0.85208	-0.2181	-0.220566	-0.130585	-0.018246	-0.139412	-0.121088	-0.0562885	-0.0286281	-0.083941	-0.0144	-0.0926605	2517.55	5417.45	-0.365221	-0.0611043	10690.1	212.206	5811.02	856.625	-3.03742	-0.108064	5818.9	8400.69	-0.535264	-1.32343	-0.183611	
3.61	296.869	7.54077	1267.83	1157.51	1962.1	-0.178123	1314.45	1504.24	480.516	229.939	725.041	2236.18	-0.00327653	819.606	506.809	2049.05	2253.59	17067.9	8848.52	2229.25	3096.55	3269.85	3697.8	130.185	363.411	234.954	2018.13	1857.88	451.1	193.356	291.064	3100.07	1485.83	19001.6	13.3096	766.837	2934.83	1007.39	3056.26	1648.3	-0.0125566	846.415	-0.0411943	-0.065583	-0.0381556	-0.0183984	25.8169	74.1332	350.515	970.449	820.724	2889.24	3263.72	-0.85234	-0.224932	-0.231023	-0.13617	-0.028029	-0.144007	-0.121475	-0.0583896	-0.0324678	-0.086158	-0.0129548	-0.085014	2499.54	5417.18	-0.365186	-0.0543133	10690.1	217.709	5764.95	855.253	-3.03676	-0.108107	5956.38	8400.25	-0.541976	-1.35245	-0.195914	
3.615	276.293	6.51065	1312.21	1207.24	1991.66	-0.179841	1648.72	1684.98	476.236	227.738	726.139	2241.75	3.56442	1148.35	559.28	2151.13	2349.81	17567.9	9413.15	2408.09	3096.61	3269.98	3698.08	142.07	334.353	235.535	2022.35	2094.27	417.35	145.489	297.734	3805.52	1681.64	19218.1	10.6999	757.369	2941.29	947.391	2891.17	1553.97	-0.00504353	997.826	-0.0410606	-0.0664664	-0.038457	-0.0117689	21.2585	78.8305	401.566	1068.61	798.553	2759.78	2959.28	-0.8526	-0.231921	-0.241695	-0.141772	-0.0377983	-0.147611	-0.121861	-0.0605064	-0.0363944	-0.0883681	-0.011474	-0.0770588	2472.19	5416.88	-0.36515	-0.0475686	10690.1	223.087	5719.6	853.905	-3.03643	-0.10815	5957.37	8399.75	-0.54896	-1.37726	-0.208664	
3.62	256.966	5.63953	1347.82	1248.74	2006.51	-0.181557	2004.36	1917.84	472.571	225.853	727.079	2246.54	29.5386	1540.42	608.744	2243.49	2431.2	18138	10002.2	2585.33	3096.69	3270.12	3698.33	155.609	309.873	236.034	2025.98	2333.48	387.697	112.907	307.003	4661.6	1902.99	19405.9	8.71925	749.299	2946.83	884.46	2716.71	1455.13	0.0518352	1166.54	-0.0408882	-0.0673916	-0.0389198	-0.00523623	17.276	83.5481	461.04	1167.08	773.425	2617.33	2657.52	-0.85286	-0.239051	-0.252555	-0.147368	-0.0476118	-0.151774	-0.122247	-0.0626594	-0.0404275	-0.091183	-0.0099503	-0.0685518	2435.01	5416.55	-0.365114	-0.0408726	10690	228.296	5673.72	852.567	-3.03603	-0.108193	5958.37	8399.19	-0.556189	-1.39591	-0.221782	
3.625	238.677	4.89719	1375.07	1282.32	2007.86	-0.183271	2394.73	2211.14	469.379	224.212	727.896	2250.73	92.9506	1989.95	655.309	2327.02	2498.35	18776.9	10617.9	2761.44	3096.78	3270.27	3698.57	171.016	289.04	236.469	2029.15	2573.27	361.59	89.7572	318.641	5726.77	2152.03	19571.1	7.17554	742.298	2951.67	819.608	2535.52	1353.38	1.77001	1354.02	-0.0406587	-0.0682812	-0.0395823	0.00293579	13.8138	88.2539	528.422	1259.94	745.393	2464.23	2367.16	-0.853119	-0.246302	-0.263571	-0.152927	-0.0575351	-0.156571	-0.122632	-0.0648712	-0.0445872	-0.0943513	-0.00838598	-0.0592625	2387.93	5416.19	-0.365078	-0.0342273	10690	233.294	5626.81	851.26	-3.03554	-0.108236	5959.36	8398.56	-0.563594	-1.40464	-0.235159	
3.63	221.258	4.26023	1394.99	1308.83	1997.75	-0.184983	2844.39	2571.28	466.524	222.743	728.627	2254.49	190.653	2494.84	699.322	2402.94	2552.81	19473.8	11254.6	2939.45	3096.89	3270.43	3698.8	188.486	271.115	236.859	2032.01	2812.16	338.472	72.522	332.345	7038.98	2431.29	19720.5	5.95087	736.051	2956.01	753.833	2351.19	1250.67	5.71101	1565.46	-0.0403555	-0.0690227	-0.0403016	1.08699	10.8302	92.928	603.02	1338.41	714.568	2302.44	2092.54	-0.853377	-0.253652	-0.274707	-0.158413	-0.0676399	-0.161506	-0.123017	-0.0671656	-0.0488928	-0.0975169	-0.00678715	-0.0490422	2331.24	5415.82	-0.365043	-0.0276333	10690	238.051	5579.09	850.05	-3.035	-0.108279	5960.33	8397.88	-0.571041	-1.40705	-0.248688	
3.635	204.565	3.71038	1409.06	1329.62	1978.9	-0.186692	3374.85	3001.99	463.871	221.377	729.306	2258.01	315.223	3090.1	741.357	2472.81	2596.97	20209	11904.7	3120.76	3097.01	3270.6	3699.04	208.102	255.451	237.222	2034.67	3049.83	317.724	59.2488	347.739	8600.27	2743.45	19860.7	4.96589	730.256	2960.05	684.749	2162.77	1143.91	11.6241	1806.41	-0.0399609	-0.0695683	-0.0409465	3.96005	8.29294	97.5625	684.13	1385.06	681.14	2133.77	1833.51	-0.853635	-0.261076	-0.285926	-0.163785	-0.0780024	-0.166223	-0.123402	-0.0695671	-0.0533617	-0.100527	-0.00515741	-0.0379139	2265.67	5415.42	-0.365007	-0.0210901	10689.9	242.55	5531.7	849.065	-3.03446	-0.108322	5961.28	8397.14	-0.578331	-1.40725	-0.262296	
3.64	188.466	3.23316	1419.13	1346.38	1954.45	-0.188398	4000.66	3500.59	461.286	220.044	729.967	2261.46	463.175	3813.28	782.19	2538.63	2633.86	20955.1	12560.7	3307.22	3097.14	3270.77	3699.27	229.845	241.372	237.575	2037.28	3285.12	298.693	48.8038	364.445	10411.5	3096.15	19998.5	4.16406	724.617	2964	610.336	1959.76	1028.82	19.2908	2079.27	-0.039457	-0.070029	-0.0417833	8.4354	6.17545	102.162	771.244	1387.31	645.505	1960.66	1587.64	-0.853892	-0.268546	-0.297186	-0.168995	-0.0887001	-0.169589	-0.123785	-0.0720997	-0.0580079	-0.103198	-0.00349651	-0.0303783	2192.22	5415	-0.364971	-0.0145959	10689.9	246.774	5486.4	848.489	-3.03394	-0.108364	5962.19	8396.35	-0.585039	-1.40724	-0.275954	
3.645	172.843	2.81699	1427.29	1361.03	1927.8	-0.190103	4725.6	4061.01	458.64	218.679	730.643	2265.01	632.371	4677.2	822.768	2602.76	2666.97	21679.7	13215	3501.67	3097.27	3270.94	3699.5	253.641	228.183	237.937	2039.97	3518.08	280.71	40.4595	382.023	12497.4	3502.37	20141.1	3.50406	718.852	2968.06	531.294	1738.5	905.304	28.5187	2383.85	-0.0388264	-0.0704668	-0.0427338	14.3676	4.45178	106.74	863.857	1387.5	607.728	1786	1362.71	-0.854149	-0.276033	-0.308446	-0.173997	-0.0998094	-0.171716	-0.124169	-0.0747856	-0.0628421	-0.10544	-0.00180143	-0.0218494	2112.19	5414.56	-0.364936	-0.00814823	10689.9	250.71	5445.26	848.554	-3.03343	-0.108407	5963.06	8395.62	-0.590881	-1.40748	-0.289685	
