CEINMS output
datacolumns 81
datarows 92
endheader
time	addbrev_r	addlong_r	addmagDist_r	addmagIsch_r	addmagMid_r	addmagProx_r	bflh_r	bfsh_r	edl_r	ehl_r	fdl_r	fhl_r	gaslat_r	gasmed_r	glmax1_r	glmax2_r	glmax3_r	glmed1_r	glmed2_r	glmed3_r	glmin1_r	glmin2_r	glmin3_r	grac_r	iliacus_r	perbrev_r	perlong_r	piri_r	psoas_r	recfem_r	sart_r	semimem_r	semiten_r	soleus_r	tfl_r	tibant_r	tibpost_r	vasint_r	vaslat_r	vasmed_r	addbrev_l	addlong_l	addmagDist_l	addmagIsch_l	addmagMid_l	addmagProx_l	bflh_l	bfsh_l	edl_l	ehl_l	fdl_l	fhl_l	gaslat_l	gasmed_l	glmax1_l	glmax2_l	glmax3_l	glmed1_l	glmed2_l	glmed3_l	glmin1_l	glmin2_l	glmin3_l	grac_l	iliacus_l	perbrev_l	perlong_l	piri_l	psoas_l	recfem_l	sart_l	semimem_l	semiten_l	soleus_l	tfl_l	tibant_l	tibpost_l	vasint_l	vaslat_l	vasmed_l	
3.19	0.123773	0.111947	0.246093	0.243034	0.182064	0.124365	0.154048	0.201637	0.131601	0.137664	0.0681252	0.0901427	0.0987311	0.099096	0.236091	0.270475	0.3009	0.130851	0.143645	0.135125	0.0911868	0.0965152	0.0916739	0.345528	0.136227	0.0665146	0.0848894	0.0434779	0.127345	0.0778642	0.52141	0.144405	0.333534	0.0787089	0.108773	0.124683	0.0715409	0.154879	0.15578	0.145389	0.135182	0.12493	0.199251	0.174161	0.136734	0.0983187	0.150481	0.151577	0.152304	0.190688	0.0566081	0.0499056	0.149564	0.0627361	0.12963	0.161168	0.168838	0.0870448	0.0533676	0.048425	0.0666387	0.0583236	0.0237274	0.301287	0.107491	0.110076	0.109081	0.0207691	0.133696	0.322711	0.527852	0.16865	0.392454	0.034064	0.0880887	0.192062	0.0975414	0.114186	0.0759184	0.0957799	
3.195	0.123101	0.111884	0.244326	0.241474	0.180406	0.124359	0.153773	0.20304	0.131872	0.137979	0.0681021	0.090097	0.0990936	0.0994948	0.235078	0.269234	0.298909	0.131421	0.143476	0.134435	0.091845	0.0969866	0.0917929	0.345501	0.13751	0.0664755	0.0848492	0.0432794	0.128178	0.0779127	0.525175	0.144482	0.333567	0.0784999	0.109995	0.125069	0.0715046	0.153997	0.154968	0.144595	0.134714	0.124678	0.198185	0.173097	0.135864	0.0974679	0.148863	0.150292	0.152372	0.190793	0.0565999	0.0498666	0.148579	0.0627311	0.129413	0.160701	0.168478	0.0877439	0.0534984	0.0484264	0.0674683	0.0593682	0.023727	0.299223	0.107778	0.109998	0.109042	0.0207674	0.133778	0.326139	0.527232	0.167249	0.389265	0.0340569	0.0880817	0.192181	0.0974134	0.114183	0.0774867	0.0973081	
3.2	0.122462	0.111812	0.242474	0.23974	0.178732	0.124245	0.153423	0.204425	0.132169	0.138318	0.0680751	0.0900469	0.099558	0.0999688	0.233987	0.267921	0.296834	0.131957	0.143262	0.133691	0.0924863	0.0974312	0.0918802	0.345464	0.138854	0.0664297	0.0848032	0.0430389	0.129087	0.0779551	0.528928	0.144547	0.333561	0.0782659	0.111739	0.125481	0.0714637	0.152942	0.153988	0.143645	0.134063	0.124393	0.196717	0.171482	0.134684	0.0965367	0.145422	0.147973	0.152443	0.190901	0.0566037	0.0496614	0.146833	0.0627192	0.128235	0.159085	0.165759	0.0885097	0.0545518	0.0490944	0.0683063	0.0601794	0.0237265	0.294401	0.10814	0.109901	0.108956	0.0207636	0.133879	0.329504	0.526486	0.165467	0.385572	0.0340224	0.088065	0.192298	0.0975568	0.114146	0.0795791	0.0992908	
3.205	0.121883	0.111736	0.240604	0.237944	0.177071	0.124083	0.153013	0.205748	0.132463	0.13865	0.0680493	0.0899993	0.100089	0.100468	0.232838	0.266565	0.294712	0.132422	0.142994	0.132901	0.0930758	0.0978218	0.0919186	0.345411	0.140215	0.066385	0.0847597	0.0427671	0.130028	0.0780452	0.532624	0.144575	0.333489	0.0780377	0.113873	0.12588	0.0714245	0.151816	0.152939	0.142636	0.133212	0.12391	0.195469	0.169998	0.133642	0.095761	0.141593	0.145706	0.151841	0.190851	0.0566004	0.049445	0.145062	0.0627043	0.127274	0.157691	0.163368	0.0895748	0.0557579	0.0494899	0.0690428	0.0604955	0.023726	0.289724	0.107815	0.109854	0.108891	0.0207589	0.13285	0.332809	0.525601	0.163559	0.381999	0.033981	0.0880441	0.192387	0.0976228	0.114092	0.0819371	0.101504	
3.21	0.121368	0.111659	0.23873	0.236124	0.175433	0.12391	0.152543	0.206988	0.13272	0.138938	0.0680269	0.0899581	0.10064	0.100957	0.231628	0.265169	0.29255	0.132792	0.142666	0.13207	0.093592	0.0981411	0.0918979	0.345317	0.141572	0.0663464	0.0847226	0.0424694	0.130983	0.078215	0.536243	0.144542	0.333324	0.0778379	0.116101	0.126226	0.0713903	0.150704	0.151898	0.141639	0.13231	0.123359	0.194717	0.16905	0.132899	0.0950723	0.138117	0.143789	0.151091	0.190984	0.0565936	0.0492854	0.143515	0.0626886	0.126882	0.156935	0.161866	0.0907743	0.0564025	0.0496039	0.0697934	0.0608774	0.0237255	0.285989	0.107125	0.109845	0.108861	0.0207539	0.131567	0.336047	0.524564	0.161561	0.378506	0.0339461	0.0880221	0.192441	0.0975956	0.114035	0.0843259	0.103742	
3.215	0.120926	0.111582	0.236853	0.234276	0.173825	0.123739	0.152	0.208136	0.132923	0.139166	0.0680088	0.0899249	0.101196	0.101435	0.230352	0.263732	0.290349	0.133051	0.142273	0.131202	0.0940176	0.0983755	0.0918112	0.345166	0.142924	0.0663153	0.0846928	0.0421475	0.131952	0.0784726	0.539773	0.144436	0.333047	0.0776775	0.118215	0.126499	0.0713627	0.149636	0.150893	0.140681	0.131459	0.122843	0.194365	0.168763	0.132357	0.0943607	0.13505	0.142042	0.150513	0.191047	0.0565899	0.0491832	0.142123	0.0626732	0.126856	0.156627	0.160847	0.0918955	0.0568173	0.0495971	0.0705903	0.0615556	0.0237081	0.282793	0.106457	0.109847	0.108855	0.0207384	0.130601	0.339199	0.523359	0.159438	0.374972	0.0339208	0.0880004	0.19244	0.0975661	0.113969	0.0866701	0.105935	
3.22	0.120563	0.111505	0.234978	0.232395	0.172257	0.123571	0.151376	0.209184	0.133064	0.139323	0.0679958	0.0899018	0.10176	0.10191	0.229011	0.262257	0.288113	0.133183	0.141815	0.130307	0.0943376	0.098514	0.0916541	0.34495	0.144266	0.0662932	0.0846719	0.0418045	0.132937	0.0788199	0.543203	0.144247	0.332641	0.0775646	0.120159	0.126687	0.0713433	0.148623	0.149937	0.139772	0.130663	0.122359	0.194172	0.169088	0.131845	0.0935989	0.132228	0.140254	0.150129	0.190989	0.0565833	0.0491208	0.140776	0.0626579	0.126971	0.156528	0.159961	0.0930207	0.0572916	0.0496669	0.0714197	0.0623258	0.0236934	0.279642	0.105947	0.109846	0.108864	0.0206212	0.130008	0.342237	0.52197	0.157214	0.371398	0.0339039	0.087979	0.192375	0.0975576	0.113806	0.0889725	0.108054	
3.225	0.120287	0.111429	0.233111	0.230479	0.17074	0.123404	0.150666	0.210128	0.133135	0.139401	0.0679891	0.0898905	0.10234	0.10239	0.227608	0.260747	0.285849	0.133179	0.141296	0.129396	0.0945406	0.0985488	0.0914243	0.344665	0.145593	0.0662815	0.0846614	0.0414465	0.133937	0.0792614	0.546526	0.143966	0.332096	0.0775072	0.121952	0.126779	0.0713335	0.147677	0.14904	0.138924	0.129881	0.121855	0.193937	0.169817	0.131244	0.0928049	0.129525	0.138341	0.14986	0.190859	0.0565937	0.0490847	0.139418	0.0626428	0.127163	0.156552	0.159138	0.094044	0.0578391	0.0498195	0.0722728	0.0633158	0.0236868	0.276313	0.105587	0.109846	0.108892	0.0204123	0.129648	0.345129	0.520381	0.154956	0.367822	0.0338933	0.0879577	0.19224	0.0975573	0.113493	0.0912308	0.110085	
3.23	0.120105	0.111352	0.231258	0.228528	0.169283	0.123239	0.149869	0.210969	0.13313	0.139392	0.0679895	0.0898923	0.102942	0.102879	0.226147	0.259207	0.283565	0.133032	0.140719	0.128483	0.094618	0.0984747	0.091122	0.344312	0.1469	0.0662816	0.0846626	0.0410846	0.134949	0.0798031	0.549734	0.14359	0.331408	0.0775118	0.123617	0.126766	0.0713345	0.146808	0.148214	0.138145	0.129078	0.121278	0.193608	0.170576	0.130537	0.0919919	0.126901	0.136298	0.149636	0.190665	0.0566004	0.0490686	0.138046	0.0626277	0.127467	0.156724	0.158446	0.0950752	0.0584415	0.05002	0.0731477	0.0643646	0.0234596	0.272782	0.105321	0.109859	0.108943	0.0201666	0.129389	0.347869	0.518577	0.152706	0.364268	0.0338875	0.0879365	0.192025	0.0975591	0.113047	0.0934396	0.112032	
3.235	0.120022	0.111276	0.229431	0.226546	0.167898	0.123073	0.14899	0.211707	0.133042	0.13929	0.0679974	0.0899081	0.103568	0.103384	0.224637	0.257643	0.281271	0.132738	0.14009	0.127582	0.0945648	0.0982895	0.090749	0.3439	0.148182	0.0662943	0.0846761	0.0407322	0.13597	0.0804476	0.552821	0.14312	0.330578	0.0775826	0.125162	0.12664	0.071347	0.14602	0.147463	0.137438	0.128227	0.1206	0.193234	0.171136	0.129769	0.0911562	0.124359	0.134137	0.149417	0.190395	0.0566048	0.0490701	0.136669	0.0626126	0.12793	0.157094	0.157958	0.0961714	0.0591143	0.0502768	0.074045	0.0654719	0.023026	0.269088	0.1051	0.109889	0.109019	0.0199388	0.129154	0.350468	0.516546	0.150468	0.360759	0.0338849	0.0879104	0.191728	0.0975694	0.112513	0.0956093	0.11392	
3.24	0.120044	0.1112	0.22764	0.224546	0.166595	0.122908	0.148035	0.21235	0.13287	0.139093	0.0680129	0.0899381	0.104219	0.103907	0.223089	0.256063	0.278979	0.132298	0.139416	0.126701	0.0943784	0.0979931	0.0903086	0.34344	0.149434	0.0663198	0.0847023	0.0403992	0.136998	0.0811923	0.555783	0.142561	0.329613	0.0777215	0.126584	0.126399	0.0713711	0.145312	0.146787	0.136804	0.12731	0.1198	0.192882	0.171501	0.128992	0.0902849	0.12192	0.131864	0.149183	0.190043	0.0566148	0.0490876	0.135301	0.0625976	0.128575	0.157702	0.157721	0.0973396	0.0598771	0.0506135	0.074967	0.0664162	0.0227163	0.265259	0.104887	0.10994	0.109121	0.0196178	0.128905	0.352937	0.51428	0.148246	0.357326	0.0338848	0.0872766	0.191344	0.0975988	0.111932	0.097761	0.115782	
3.245	0.120176	0.111243	0.225899	0.222542	0.165387	0.122743	0.147016	0.212905	0.132613	0.1388	0.0680356	0.0899817	0.104899	0.104453	0.221517	0.254476	0.276703	0.131714	0.138704	0.125834	0.0940593	0.0975877	0.0898051	0.34295	0.15065	0.0663579	0.0847407	0.0400901	0.138029	0.0820296	0.558621	0.141922	0.328525	0.0779271	0.127883	0.126043	0.0714063	0.144683	0.146185	0.136241	0.126309	0.11886	0.1926	0.171812	0.128324	0.089365	0.119604	0.129479	0.148923	0.189609	0.0566332	0.0491199	0.133949	0.0625826	0.129419	0.158573	0.157765	0.0985836	0.0607437	0.0510489	0.076038	0.0673225	0.0225926	0.261311	0.104653	0.110009	0.10925	0.0192214	0.128619	0.355234	0.511771	0.146058	0.354006	0.0338862	0.0862192	0.190872	0.0976578	0.111293	0.0998902	0.117616	
3.25	0.120422	0.111589	0.224221	0.220551	0.164284	0.122578	0.145942	0.21338	0.132274	0.138414	0.0680649	0.0900378	0.105607	0.105023	0.219936	0.252891	0.274456	0.13099	0.137957	0.124985	0.0936101	0.0970772	0.0892432	0.342452	0.151826	0.0664077	0.0847906	0.0398069	0.139059	0.0829481	0.561337	0.141213	0.327334	0.0781948	0.129057	0.125576	0.0714518	0.14413	0.145655	0.135746	0.125208	0.117765	0.192415	0.172204	0.127829	0.0883865	0.117436	0.126993	0.148628	0.189094	0.0566733	0.049166	0.132623	0.0625676	0.130475	0.15973	0.158124	0.0999067	0.0617267	0.051601	0.0771369	0.0682717	0.0225718	0.257265	0.10437	0.11009	0.109406	0.018843	0.128282	0.357292	0.509016	0.143936	0.350842	0.0338887	0.0850675	0.190312	0.0977556	0.110602	0.101958	0.11939	
3.255	0.120786	0.112155	0.222618	0.21859	0.163298	0.122413	0.144821	0.213787	0.131858	0.137941	0.0680997	0.0901046	0.106342	0.105611	0.218365	0.251317	0.272256	0.130134	0.137169	0.12416	0.0930356	0.0964665	0.0886277	0.341969	0.152959	0.0664679	0.0848506	0.0395513	0.140084	0.0839331	0.56393	0.140449	0.326064	0.0785162	0.130108	0.125008	0.0715061	0.143647	0.145191	0.135314	0.123996	0.116516	0.192349	0.172748	0.127495	0.0873438	0.115438	0.124427	0.148292	0.188499	0.0567202	0.0492252	0.131329	0.0625526	0.131759	0.161187	0.158844	0.101309	0.0628378	0.0522886	0.0782263	0.0692743	0.0225813	0.25315	0.104015	0.110184	0.109586	0.0185401	0.127877	0.359045	0.506009	0.141918	0.347881	0.0338918	0.0840057	0.189668	0.0978994	0.109876	0.103914	0.121061	
3.26	0.121271	0.112841	0.221103	0.216674	0.16244	0.122249	0.143666	0.214135	0.131373	0.137391	0.0681388	0.09018	0.1071	0.106209	0.216825	0.249764	0.270118	0.129154	0.136332	0.123362	0.0923421	0.0957615	0.0879629	0.341526	0.154046	0.0665368	0.084919	0.0393236	0.141099	0.084967	0.566403	0.139641	0.324744	0.0788786	0.131035	0.124349	0.0715673	0.143225	0.144786	0.134936	0.122663	0.115121	0.192423	0.173479	0.127277	0.086234	0.113632	0.121805	0.14791	0.187843	0.0567735	0.0492974	0.130075	0.0625377	0.133278	0.162951	0.159971	0.102785	0.0640868	0.0531299	0.07931	0.0703314	0.022591	0.249005	0.103564	0.110289	0.109789	0.0183224	0.12739	0.360459	0.502751	0.140047	0.345169	0.0338954	0.0830813	0.188943	0.0980932	0.109137	0.105723	0.122606	
3.265	0.121878	0.113629	0.219687	0.214819	0.161717	0.122085	0.142496	0.214438	0.13083	0.136775	0.0681806	0.0902613	0.107876	0.106806	0.215445	0.24824	0.268057	0.128056	0.135448	0.122591	0.0915372	0.0949685	0.0872523	0.341151	0.155085	0.0666121	0.0849937	0.0391226	0.1421	0.0860296	0.568759	0.138806	0.323406	0.0792669	0.131838	0.123616	0.0716332	0.142855	0.144429	0.134604	0.121207	0.113575	0.192661	0.174428	0.127131	0.0850567	0.112028	0.119152	0.147479	0.187176	0.0568369	0.0493826	0.12887	0.0625228	0.135037	0.165017	0.161533	0.104326	0.0654803	0.0541418	0.080387	0.0714426	0.0225956	0.24488	0.102998	0.110404	0.110013	0.018176	0.126811	0.361505	0.499243	0.138364	0.342749	0.0338991	0.0822869	0.188142	0.0983322	0.108392	0.107371	0.124018	
3.27	0.122609	0.114536	0.218381	0.213036	0.161139	0.121921	0.141332	0.214708	0.130244	0.13611	0.0682235	0.0903456	0.108658	0.107391	0.214273	0.24675	0.26609	0.126852	0.134518	0.121842	0.0906294	0.0940939	0.0864984	0.340869	0.156075	0.0666913	0.0850722	0.0389446	0.143082	0.0870992	0.571001	0.137962	0.322083	0.079666	0.132517	0.122828	0.0717014	0.142522	0.144109	0.134306	0.119625	0.111863	0.193085	0.175621	0.127025	0.0838142	0.110635	0.116506	0.146996	0.186515	0.0569128	0.0494807	0.127719	0.062508	0.137033	0.167376	0.163528	0.105921	0.0670205	0.0553381	0.0814597	0.0726036	0.0232413	0.240824	0.102291	0.110528	0.110254	0.0180172	0.12613	0.362167	0.495491	0.1369	0.340664	0.0339029	0.0815974	0.187274	0.0986033	0.107646	0.108853	0.125295	
3.275	0.123465	0.115571	0.217192	0.211339	0.160712	0.121757	0.140198	0.214959	0.12963	0.135416	0.068266	0.0904304	0.109434	0.107957	0.213284	0.245299	0.264228	0.125581	0.133541	0.12111	0.0896277	0.0931438	0.0857025	0.340707	0.157017	0.0667719	0.085152	0.0387837	0.144042	0.0881531	0.573134	0.137126	0.320807	0.0800611	0.133075	0.122003	0.0717697	0.142214	0.143812	0.13403	0.11792	0.109969	0.193719	0.177079	0.12694	0.0825117	0.109465	0.113923	0.146464	0.185859	0.0570017	0.0495911	0.12663	0.0624931	0.139259	0.170014	0.165939	0.107557	0.0687048	0.0567289	0.0825247	0.0738063	0.0244254	0.236891	0.101415	0.11066	0.11051	0.0178336	0.125338	0.362432	0.491501	0.135668	0.338951	0.0339064	0.080983	0.186346	0.0988938	0.107136	0.11018	0.12644	
3.28	0.124449	0.116733	0.21613	0.209738	0.16044	0.121594	0.139119	0.215202	0.129009	0.134713	0.0683067	0.0905129	0.110192	0.108495	0.212438	0.243889	0.262483	0.12427	0.132516	0.120385	0.0885417	0.092124	0.0848647	0.340686	0.157912	0.0668511	0.0852306	0.0386326	0.144979	0.0891686	0.575164	0.136317	0.319608	0.0804391	0.133514	0.121167	0.0718357	0.141916	0.143525	0.133762	0.116096	0.107891	0.194579	0.178817	0.126867	0.0811583	0.108529	0.111458	0.145883	0.185208	0.0571033	0.0497126	0.125608	0.0624783	0.141702	0.172911	0.168748	0.109211	0.0705249	0.058319	0.0835726	0.0750384	0.0257764	0.233134	0.100334	0.110798	0.110776	0.0176484	0.124425	0.362295	0.487286	0.134672	0.337647	0.0339098	0.0804135	0.185368	0.0991951	0.107479	0.111402	0.127494	
3.285	0.125561	0.118025	0.215198	0.208242	0.160326	0.121431	0.138112	0.21545	0.128401	0.134025	0.0683441	0.0905903	0.11092	0.109	0.211697	0.242518	0.260861	0.122918	0.131441	0.119656	0.0873808	0.0910399	0.0839991	0.340827	0.158765	0.0669265	0.0853053	0.0384823	0.145891	0.0901238	0.577098	0.135555	0.318511	0.0807886	0.133838	0.120345	0.0718974	0.141614	0.143232	0.133489	0.114162	0.105645	0.195682	0.180842	0.126799	0.0797661	0.107833	0.109149	0.146062	0.184565	0.0572164	0.0498429	0.124659	0.0624636	0.144343	0.176045	0.171932	0.110862	0.0724664	0.0601067	0.0845886	0.0762841	0.0271602	0.229601	0.0990269	0.110939	0.111048	0.0174806	0.12338	0.361768	0.482863	0.133911	0.336799	0.0339128	0.0798579	0.184351	0.0995019	0.108558	0.11228	0.128462	
3.29	0.126801	0.119447	0.2144	0.206861	0.160372	0.121268	0.137193	0.215714	0.127828	0.133377	0.0683775	0.0906603	0.111607	0.109466	0.21104	0.241182	0.259366	0.121521	0.130312	0.11891	0.0861547	0.0898967	0.0831428	0.341149	0.159578	0.0669956	0.0853738	0.0383228	0.146778	0.0909933	0.578943	0.134856	0.31754	0.0811003	0.13405	0.119569	0.0719529	0.141292	0.14292	0.133198	0.112132	0.103247	0.197038	0.183155	0.126735	0.0783503	0.107387	0.107025	0.146655	0.183931	0.05734	0.049979	0.123787	0.0624488	0.147159	0.179385	0.175464	0.112482	0.0745085	0.062083	0.0855539	0.0775238	0.0285909	0.226339	0.0974854	0.111084	0.111324	0.0172804	0.122193	0.360904	0.478251	0.133386	0.336458	0.0339153	0.0792844	0.183306	0.0998101	0.109475	0.111474	0.12905	
3.295	0.128165	0.121	0.213737	0.205598	0.160575	0.121106	0.136375	0.216006	0.12731	0.132793	0.0684058	0.0907208	0.112244	0.109887	0.210449	0.239873	0.257997	0.120072	0.129131	0.118134	0.0848732	0.0886991	0.082286	0.341663	0.160356	0.0670563	0.0854339	0.0381439	0.147641	0.0917499	0.580709	0.134236	0.316713	0.0813666	0.134154	0.118871	0.0720007	0.140939	0.142575	0.132877	0.110022	0.100706	0.198651	0.18575	0.126672	0.0769287	0.107224	0.105104	0.146426	0.18331	0.0574725	0.0501173	0.122999	0.0624341	0.150118	0.182901	0.179314	0.114041	0.0766243	0.0642311	0.0864475	0.0787332	0.0300728	0.223392	0.095724	0.111229	0.1116	0.0170253	0.120861	0.359696	0.473479	0.133111	0.336679	0.0339172	0.0786598	0.182245	0.100115	0.109946	0.110061	0.129324	
3.3	0.129651	0.122681	0.213208	0.204457	0.160934	0.120944	0.135664	0.216332	0.126869	0.132297	0.0684287	0.0907703	0.112821	0.110261	0.209914	0.238583	0.256749	0.118561	0.127894	0.117312	0.083546	0.0874521	0.081413	0.342377	0.161104	0.0671065	0.0854836	0.0379358	0.148482	0.0923762	0.582404	0.133706	0.316044	0.0815816	0.134155	0.118279	0.0720396	0.140542	0.142186	0.132515	0.107855	0.0980574	0.20052	0.188609	0.126611	0.0755214	0.107407	0.103392	0.145709	0.182704	0.057612	0.0502543	0.122298	0.0624194	0.153185	0.186552	0.183441	0.115507	0.0787819	0.0665267	0.087247	0.0798874	0.0315784	0.220813	0.0937713	0.111374	0.111871	0.0167638	0.119383	0.358148	0.468578	0.133143	0.337524	0.0339187	0.0779503	0.181179	0.100414	0.1101	0.108859	0.129454	
3.305	0.131249	0.124475	0.212808	0.203439	0.161443	0.120782	0.135063	0.2167	0.126526	0.131911	0.0684456	0.0908072	0.113331	0.110584	0.209425	0.2373	0.255614	0.116983	0.126599	0.116434	0.0821829	0.0861608	0.0805105	0.343294	0.161829	0.0671447	0.085521	0.0376895	0.149301	0.0928662	0.584037	0.133274	0.315539	0.0817405	0.134057	0.117822	0.0720687	0.140093	0.141743	0.132103	0.105655	0.0953407	0.202635	0.19171	0.12655	0.0741505	0.108064	0.101883	0.144992	0.182114	0.0577565	0.0503867	0.121689	0.0623992	0.156321	0.190297	0.187793	0.116848	0.0809451	0.0689381	0.0879304	0.0809616	0.0330746	0.218643	0.0916549	0.111516	0.112137	0.0165397	0.117757	0.356283	0.463587	0.133626	0.339075	0.0339196	0.077123	0.18012	0.100703	0.110102	0.108039	0.129535	
3.31	0.132953	0.126368	0.212532	0.202539	0.162092	0.12062	0.134573	0.217114	0.126298	0.131657	0.0684562	0.0908301	0.113764	0.110852	0.208975	0.236007	0.254579	0.115347	0.125244	0.115487	0.0807941	0.0848308	0.0795639	0.344412	0.162534	0.0671692	0.0855447	0.0373979	0.150103	0.0932212	0.585615	0.132946	0.315203	0.0818388	0.133866	0.117526	0.0720868	0.13959	0.141239	0.131636	0.103453	0.0925844	0.204977	0.195018	0.126489	0.0728384	0.1098	0.100571	0.144344	0.181543	0.0579072	0.0505124	0.121174	0.0623752	0.159485	0.194088	0.192312	0.118034	0.0830755	0.0714279	0.0884772	0.0819315	0.034532	0.216907	0.089396	0.111656	0.112393	0.0163766	0.115985	0.354123	0.458551	0.135173	0.341356	0.0339201	0.076131	0.179077	0.100979	0.110091	0.107989	0.129639	
3.315	0.134749	0.128352	0.212372	0.201755	0.162871	0.120459	0.13419	0.217575	0.126204	0.131555	0.0684601	0.0908379	0.114114	0.111062	0.208558	0.234694	0.253629	0.113667	0.123827	0.114464	0.0794038	0.0834682	0.0785565	0.34572	0.163228	0.0671789	0.0855532	0.0370549	0.150888	0.0934462	0.587147	0.13272	0.315029	0.0818721	0.133586	0.117413	0.0720934	0.139042	0.140671	0.131112	0.10128	0.0898085	0.207518	0.198491	0.126429	0.0716054	0.112596	0.0994513	0.142999	0.180885	0.0587944	0.0506302	0.12076	0.0623513	0.162696	0.197886	0.196932	0.119037	0.0851342	0.0739545	0.0888701	0.0827748	0.0359228	0.215617	0.0870011	0.111792	0.112639	0.0162449	0.114075	0.351697	0.45352	0.137665	0.344231	0.0339202	0.074903	0.178017	0.101242	0.110147	0.109037	0.129801	
3.32	0.136625	0.130418	0.212316	0.201076	0.163764	0.120298	0.133908	0.218083	0.126257	0.131622	0.068457	0.0908292	0.114372	0.111211	0.208169	0.233349	0.252747	0.111963	0.12235	0.113358	0.0780759	0.0820838	0.0774817	0.347205	0.163914	0.0671723	0.0855451	0.0366524	0.15166	0.0935484	0.588637	0.132592	0.315008	0.0818358	0.133226	0.117501	0.0720873	0.138506	0.140044	0.130539	0.099168	0.087035	0.210221	0.202081	0.126368	0.0704687	0.115993	0.098514	0.141541	0.180281	0.0598186	0.0507398	0.120452	0.0621287	0.16595	0.201675	0.201589	0.119836	0.0870838	0.0764744	0.0890467	0.0834727	0.0372204	0.214799	0.0844748	0.111926	0.112873	0.0161187	0.112044	0.349038	0.448549	0.140607	0.347518	0.0339199	0.0733414	0.177002	0.10149	0.110278	0.110074	0.130012	
3.325	0.138565	0.132555	0.212353	0.200494	0.164757	0.120137	0.133715	0.218635	0.12647	0.13187	0.0684461	0.0908028	0.114529	0.111294	0.207803	0.231968	0.251916	0.110256	0.120818	0.112169	0.0767947	0.0807365	0.0763433	0.348846	0.164599	0.0671483	0.0855192	0.0361817	0.152421	0.0935381	0.590088	0.132554	0.315123	0.081724	0.132793	0.117805	0.0720677	0.138025	0.139379	0.129954	0.0971482	0.0842772	0.213043	0.205715	0.127106	0.0694414	0.119666	0.0977483	0.140308	0.179754	0.0602347	0.0508411	0.120255	0.0617759	0.169203	0.205415	0.206216	0.120416	0.0888909	0.0789442	0.0889726	0.0840113	0.0384005	0.2145	0.0818351	0.112056	0.113093	0.0160116	0.109917	0.346182	0.443698	0.143687	0.351107	0.0339192	0.0713456	0.176051	0.101723	0.110466	0.110736	0.130251	
3.33	0.140553	0.13475	0.212468	0.199997	0.165829	0.119977	0.133599	0.219224	0.12685	0.132309	0.0684266	0.0907573	0.114576	0.111306	0.207458	0.230596	0.251116	0.10856	0.119238	0.110899	0.075537	0.0794272	0.07515	0.350617	0.165284	0.0671056	0.0854744	0.0356413	0.15317	0.0934297	0.591496	0.132594	0.315352	0.0815299	0.132297	0.118334	0.0720332	0.137607	0.138754	0.129423	0.0952484	0.0815386	0.215928	0.209308	0.128423	0.0686119	0.123504	0.097144	0.139305	0.179278	0.0602767	0.0509347	0.120175	0.0614194	0.172408	0.209066	0.210747	0.120768	0.0905274	0.0813231	0.0887788	0.0843822	0.0394436	0.214776	0.0791145	0.112184	0.113299	0.0159369	0.107723	0.343169	0.439031	0.1468	0.354919	0.0339183	0.0694024	0.175151	0.101941	0.110682	0.110766	0.130491	
3.335	0.142571	0.136989	0.212645	0.199571	0.166961	0.120702	0.133543	0.219844	0.127403	0.132941	0.0683974	0.0906913	0.114504	0.111242	0.207131	0.22935	0.250328	0.106883	0.117619	0.109597	0.074287	0.078135	0.0739196	0.352494	0.165975	0.0670431	0.0854097	0.0350385	0.15391	0.0932435	0.592861	0.132695	0.315669	0.0812447	0.131751	0.11909	0.0719824	0.137242	0.138208	0.128966	0.0934903	0.0788607	0.21882	0.212798	0.129871	0.0680166	0.127458	0.0966964	0.138438	0.17883	0.0602941	0.0510209	0.120219	0.0610696	0.175523	0.21259	0.215116	0.120899	0.0919725	0.0835753	0.0884826	0.0843379	0.0403363	0.215665	0.0763538	0.112308	0.11349	0.0158933	0.105491	0.340045	0.434611	0.149895	0.358883	0.0339173	0.0679579	0.174303	0.102144	0.110895	0.110443	0.130704	
3.34	0.144595	0.139256	0.212869	0.199202	0.168132	0.122365	0.133528	0.220484	0.128126	0.133766	0.0683571	0.0906028	0.114303	0.111094	0.206818	0.228277	0.249537	0.105239	0.11597	0.108449	0.0730482	0.0768445	0.0726676	0.354444	0.166671	0.0669596	0.0853239	0.0343841	0.154639	0.0930067	0.594181	0.132839	0.316045	0.0808578	0.131169	0.120069	0.0719136	0.136919	0.13774	0.128573	0.0919873	0.0763226	0.221666	0.21614	0.131373	0.0676322	0.131474	0.0964096	0.137643	0.178406	0.0603465	0.0511001	0.1204	0.060754	0.178509	0.215956	0.219269	0.120842	0.0932086	0.0856705	0.0880516	0.0841985	0.0410709	0.217188	0.0735969	0.112426	0.113667	0.0158683	0.103251	0.336858	0.4305	0.152919	0.362934	0.0339162	0.0670654	0.17351	0.10233	0.111026	0.109944	0.130827	
3.345	0.146599	0.141531	0.213122	0.198874	0.16932	0.124023	0.133534	0.221133	0.129012	0.134772	0.068304	0.0904901	0.113964	0.110855	0.206518	0.227358	0.248726	0.103641	0.114299	0.107522	0.0718361	0.0755524	0.0714008	0.356432	0.167374	0.0668539	0.0852165	0.0336863	0.155355	0.0927592	0.595455	0.133004	0.316448	0.0803569	0.130567	0.121259	0.0718252	0.13663	0.137336	0.12823	0.0907447	0.0740918	0.224418	0.219296	0.132919	0.0674039	0.135497	0.0962935	0.136892	0.17801	0.0603951	0.0511728	0.120736	0.0604993	0.181335	0.219132	0.223163	0.120619	0.0942308	0.0875865	0.0874784	0.0840112	0.0416429	0.219301	0.0708885	0.112538	0.113829	0.0158522	0.101035	0.333654	0.426754	0.155828	0.367022	0.0339151	0.0665523	0.172786	0.1025	0.111015	0.109416	0.130818	
3.35	0.148558	0.143793	0.213386	0.198572	0.170501	0.125606	0.133539	0.221778	0.130042	0.135941	0.0682367	0.0903519	0.11348	0.110453	0.206229	0.226561	0.247883	0.102103	0.112624	0.106786	0.0706687	0.0742736	0.0701294	0.358417	0.168084	0.0667252	0.0850867	0.0329574	0.156055	0.0925295	0.59668	0.133169	0.316843	0.0797279	0.129962	0.12265	0.0717153	0.136368	0.136981	0.127926	0.0896974	0.0722658	0.227033	0.22223	0.134467	0.0672788	0.139488	0.0963587	0.13618	0.177645	0.0604302	0.0512396	0.121256	0.0601492	0.183977	0.222094	0.226761	0.120249	0.0950677	0.0893087	0.0867837	0.0837698	0.0420579	0.221869	0.0682733	0.112641	0.113976	0.0158403	0.0988752	0.330482	0.423421	0.1586	0.371108	0.033914	0.0662624	0.172156	0.102652	0.110843	0.108918	0.130668	
3.355	0.150449	0.146018	0.213646	0.198282	0.171655	0.127126	0.133523	0.222403	0.131193	0.137245	0.0681534	0.0901867	0.112843	0.109888	0.205949	0.225856	0.246997	0.100633	0.110962	0.106187	0.0695636	0.0730265	0.0688687	0.360355	0.168799	0.0665732	0.0849344	0.0322879	0.156736	0.0923228	0.597852	0.133312	0.317198	0.0789571	0.129374	0.124217	0.0715824	0.136129	0.136664	0.127654	0.0887878	0.070829	0.22947	0.224914	0.135972	0.067218	0.143394	0.0966197	0.135507	0.177312	0.0604592	0.0513009	0.122024	0.0597395	0.186413	0.224824	0.230037	0.119759	0.0957539	0.0908305	0.0859981	0.0834515	0.0423323	0.22474	0.0657932	0.112734	0.114107	0.0158308	0.0968011	0.327384	0.42054	0.161198	0.375163	0.0339129	0.066098	0.171621	0.102788	0.110517	0.108449	0.130391	
3.36	0.152251	0.148181	0.213884	0.197988	0.172759	0.128564	0.133464	0.222995	0.13244	0.138655	0.068053	0.0899931	0.112051	0.109194	0.205676	0.225225	0.24606	0.0992421	0.109331	0.105684	0.0685306	0.0718319	0.067634	0.362202	0.169517	0.0663977	0.0847598	0.0317556	0.157396	0.0921354	0.598966	0.13341	0.317479	0.0780449	0.128822	0.125923	0.0714253	0.13591	0.13638	0.127407	0.0879904	0.0696977	0.231699	0.227327	0.137397	0.067199	0.147182	0.0971004	0.134875	0.17701	0.0604856	0.051357	0.12318	0.0593595	0.18863	0.227311	0.232972	0.11918	0.0963026	0.0921651	0.0851541	0.0830464	0.0423026	0.227825	0.0634831	0.112818	0.114223	0.0158233	0.0948413	0.324399	0.418143	0.163577	0.37917	0.0339119	0.0660032	0.171167	0.102906	0.110056	0.107989	0.130005	
3.365	0.153951	0.150256	0.214085	0.197678	0.173795	0.129905	0.133342	0.223536	0.133753	0.140139	0.0679345	0.0897709	0.111103	0.108373	0.205409	0.224653	0.245066	0.0979412	0.107748	0.10525	0.0675779	0.0707041	0.0664343	0.363918	0.170237	0.0661995	0.0845639	0.0313602	0.158034	0.0919627	0.600018	0.133445	0.317655	0.0770177	0.128325	0.127724	0.0712435	0.135708	0.136122	0.127183	0.0872976	0.0687773	0.233693	0.229454	0.138708	0.0672095	0.150844	0.0978443	0.134281	0.176741	0.0605085	0.051408	0.124768	0.0589354	0.190619	0.229548	0.235562	0.118545	0.0967244	0.0933325	0.0842899	0.0825697	0.0420554	0.231079	0.0613705	0.112891	0.114323	0.0158172	0.0930181	0.321555	0.416262	0.165721	0.38312	0.0339112	0.0659481	0.170781	0.103009	0.109475	0.107518	0.129522	
3.37	0.155541	0.152224	0.214234	0.19734	0.174743	0.131137	0.133138	0.22401	0.135104	0.141665	0.0677976	0.0895205	0.110006	0.107419	0.205146	0.224131	0.244014	0.0967417	0.106228	0.10487	0.0667141	0.0696537	0.0652841	0.365468	0.170955	0.0659801	0.0843482	0.031065	0.158647	0.0918016	0.601004	0.133395	0.317697	0.0758958	0.127904	0.129574	0.0710373	0.135522	0.135887	0.126978	0.086702	0.0680063	0.235434	0.231287	0.139878	0.0672362	0.154385	0.0989142	0.133728	0.176504	0.0605275	0.0514541	0.126596	0.0585036	0.192375	0.231531	0.237811	0.117889	0.0970362	0.0943389	0.0834754	0.0820521	0.0416123	0.234466	0.0594765	0.112954	0.114407	0.0158128	0.0913476	0.31887	0.41567	0.167649	0.387007	0.0339106	0.0659178	0.170456	0.103096	0.108784	0.107022	0.128951	
3.375	0.157017	0.154067	0.21432	0.196963	0.175588	0.132251	0.132834	0.224402	0.136466	0.143205	0.0676427	0.0892431	0.108777	0.106332	0.204888	0.223652	0.242943	0.0956532	0.104788	0.104533	0.0659474	0.068692	0.064201	0.366819	0.171668	0.0657419	0.0841151	0.0308346	0.159234	0.0916502	0.601918	0.133244	0.317579	0.0746816	0.127577	0.131434	0.0708082	0.135348	0.135671	0.126789	0.0861937	0.0673605	0.236912	0.232825	0.140884	0.0672634	0.157811	0.100343	0.133214	0.176301	0.0605431	0.0514955	0.128525	0.0581281	0.193902	0.233261	0.239729	0.117247	0.0972581	0.0951903	0.0827097	0.0815268	0.0411485	0.237945	0.0578167	0.113006	0.114475	0.0158099	0.0898404	0.316353	0.416971	0.169394	0.390823	0.0339102	0.0659036	0.170188	0.103168	0.107988	0.106491	0.128295	
3.38	0.158372	0.15577	0.214332	0.196539	0.176317	0.13324	0.132415	0.224694	0.137817	0.144736	0.0674716	0.0889413	0.107435	0.105139	0.204631	0.223208	0.241948	0.0946836	0.103441	0.104232	0.0652852	0.0678298	0.0632	0.367944	0.172374	0.0654885	0.0838681	0.0306463	0.159792	0.0915071	0.602755	0.132976	0.317279	0.0733821	0.127364	0.133271	0.0705597	0.135185	0.135472	0.126614	0.0857256	0.0668437	0.238121	0.234071	0.14171	0.0672751	0.161118	0.102076	0.13274	0.17613	0.0605555	0.0515322	0.130524	0.0576872	0.195203	0.234739	0.241325	0.116648	0.0974107	0.0958973	0.081999	0.0810234	0.0407574	0.241472	0.0563975	0.113049	0.11453	0.0158083	0.0885034	0.314003	0.418983	0.171019	0.394554	0.0339099	0.0658993	0.169973	0.103226	0.10709	0.105917	0.127554	
3.385	0.159597	0.157319	0.214261	0.196061	0.176919	0.134098	0.131866	0.224873	0.139142	0.146238	0.0672867	0.0886189	0.105983	0.103893	0.204376	0.222794	0.241067	0.0938389	0.102201	0.10396	0.0647333	0.0670767	0.0622929	0.368819	0.17307	0.0652243	0.0836113	0.0304876	0.160319	0.0913712	0.60351	0.132576	0.316778	0.0720298	0.127281	0.135062	0.0702966	0.135033	0.135288	0.126452	0.0853089	0.0664613	0.239059	0.235031	0.142344	0.067258	0.164299	0.104049	0.132801	0.176165	0.0604015	0.0515632	0.132601	0.0572185	0.196283	0.235967	0.242616	0.116123	0.0975142	0.0956467	0.081372	0.0807127	0.0404441	0.245004	0.055218	0.113066	0.114571	0.0158077	0.087343	0.31182	0.420715	0.172599	0.398181	0.0339102	0.0659009	0.169814	0.103257	0.106094	0.105292	0.126727	
3.39	0.160686	0.158705	0.214101	0.195527	0.177387	0.134822	0.131175	0.224923	0.140419	0.147677	0.0670921	0.088281	0.104419	0.102627	0.20412	0.222406	0.240295	0.0931238	0.10108	0.103713	0.0642963	0.0664402	0.0614888	0.369426	0.173755	0.0649544	0.0833503	0.0303513	0.160815	0.0912431	0.604174	0.132033	0.316055	0.0706591	0.127343	0.136781	0.0700249	0.134889	0.135117	0.1263	0.0849624	0.0660137	0.23973	0.235714	0.142782	0.0672084	0.167338	0.10623	0.133363	0.176487	0.0601807	0.051588	0.134743	0.0568026	0.19715	0.236945	0.243618	0.115693	0.0975866	0.0953321	0.0808566	0.0805761	0.0401859	0.248497	0.0542763	0.113054	0.114601	0.0158081	0.0863657	0.30981	0.422403	0.174193	0.401683	0.0339081	0.065906	0.169727	0.103258	0.104999	0.104607	0.125814	
3.395	0.161632	0.15992	0.21385	0.194934	0.177715	0.135411	0.130334	0.224835	0.141615	0.149009	0.0668926	0.0879344	0.102767	0.101353	0.203865	0.22204	0.239611	0.0925418	0.100087	0.103487	0.0639769	0.0659256	0.0607946	0.369749	0.174426	0.0646847	0.0830909	0.0302329	0.161277	0.0912963	0.604739	0.131337	0.315098	0.0692688	0.127563	0.138381	0.0697514	0.134753	0.134957	0.126158	0.0844974	0.0654247	0.240139	0.236131	0.143022	0.0671561	0.170211	0.108596	0.134053	0.176658	0.0600011	0.0516067	0.136922	0.0563334	0.197808	0.237675	0.24434	0.115375	0.0976432	0.0951013	0.0804697	0.0803967	0.0405916	0.251905	0.0535698	0.113028	0.114619	0.0158091	0.0855746	0.307917	0.424395	0.175862	0.405035	0.0339001	0.065913	0.169705	0.103247	0.103811	0.103858	0.12482	
3.4	0.162426	0.160963	0.213507	0.194285	0.177904	0.135866	0.129334	0.2246	0.142698	0.150207	0.0666935	0.0875866	0.101071	0.100079	0.20361	0.221693	0.238996	0.0920946	0.0992281	0.103277	0.0637765	0.0655359	0.0602151	0.369775	0.175082	0.0644212	0.0828394	0.0301288	0.161706	0.0917397	0.605193	0.130482	0.313894	0.0678782	0.127949	0.139818	0.0694828	0.134624	0.134806	0.126024	0.0840603	0.0648022	0.240295	0.236294	0.143073	0.067113	0.172885	0.111108	0.13484	0.176654	0.0598789	0.0516201	0.139098	0.0558501	0.198204	0.238163	0.244785	0.115182	0.0976955	0.0949972	0.0802189	0.0802482	0.0411946	0.255189	0.0530937	0.112998	0.114627	0.0158106	0.0849684	0.306111	0.426749	0.177709	0.408208	0.0338866	0.0659211	0.169732	0.103237	0.102535	0.10304	0.12375	
3.405	0.16306	0.161835	0.213075	0.193586	0.177953	0.136189	0.128175	0.22421	0.143654	0.15126	0.0665002	0.0872462	0.0993722	0.0988244	0.203356	0.221363	0.238436	0.0917827	0.0985067	0.103083	0.0636945	0.0652719	0.0597525	0.369494	0.175719	0.0641698	0.0826015	0.0300363	0.1621	0.0926243	0.605521	0.129462	0.312437	0.0665355	0.128503	0.141077	0.0692253	0.1345	0.134664	0.125897	0.0837	0.0642981	0.240206	0.236214	0.143023	0.0670783	0.175323	0.113721	0.135826	0.176662	0.0598023	0.051629	0.141227	0.0554295	0.198345	0.238377	0.244955	0.115118	0.0977508	0.0949959	0.0801109	0.080205	0.0417686	0.258309	0.0528439	0.112971	0.114626	0.0158124	0.0857142	0.304388	0.42943	0.180011	0.411171	0.0338705	0.0659297	0.16976	0.103231	0.101162	0.102145	0.122604	
3.41	0.163536	0.162538	0.212559	0.192845	0.177868	0.136385	0.126859	0.223663	0.144479	0.152167	0.0663181	0.0869222	0.0976927	0.0976113	0.203101	0.221046	0.237921	0.0916051	0.0979237	0.102901	0.0637283	0.0651319	0.0594063	0.3689	0.176334	0.0639361	0.0823823	0.0299534	0.162458	0.0938709	0.605707	0.128262	0.310721	0.0652887	0.129223	0.142157	0.0689844	0.134382	0.13453	0.125777	0.0833733	0.063956	0.239883	0.235903	0.142946	0.0669656	0.177494	0.116364	0.137206	0.1767	0.0597438	0.0516342	0.143273	0.0549392	0.19827	0.238324	0.244854	0.115182	0.0978125	0.0950421	0.0801487	0.0802731	0.0420779	0.261228	0.0530319	0.11295	0.114617	0.0158143	0.0869302	0.302751	0.432401	0.182675	0.413896	0.0338551	0.0659387	0.169753	0.103224	0.0996831	0.101159	0.121369	
3.415	0.163859	0.163077	0.211968	0.192073	0.177656	0.136459	0.125419	0.222956	0.145176	0.152932	0.0661517	0.0866235	0.0960437	0.0964614	0.202846	0.220741	0.237446	0.091559	0.0974781	0.10273	0.0638736	0.0651119	0.0591737	0.367989	0.176923	0.0637249	0.082186	0.0298784	0.162779	0.0953751	0.605732	0.126866	0.308743	0.064167	0.1301	0.143061	0.0687652	0.134269	0.134402	0.125662	0.0831071	0.0637286	0.239336	0.235372	0.14245	0.066799	0.179382	0.118961	0.138007	0.17675	0.0596957	0.0516357	0.145206	0.0544243	0.19801	0.238031	0.244487	0.115367	0.0977432	0.0950846	0.0803264	0.0804459	0.0422142	0.263917	0.0535648	0.11293	0.114601	0.0158163	0.0876302	0.301212	0.435615	0.185247	0.416357	0.0338412	0.0659478	0.169829	0.10321	0.0980889	0.100065	0.120039	
3.42	0.164035	0.163458	0.211314	0.191287	0.177326	0.136419	0.124034	0.222091	0.145748	0.153559	0.066005	0.0863585	0.0944359	0.0953868	0.202592	0.220445	0.237004	0.0916399	0.0971665	0.102568	0.0641239	0.0652056	0.0590493	0.366758	0.177483	0.0635404	0.082016	0.02981	0.163063	0.0970651	0.605577	0.125268	0.306502	0.0631852	0.131117	0.1438	0.0685724	0.134161	0.13428	0.125553	0.0829156	0.0635596	0.238035	0.233809	0.1416	0.066632	0.180993	0.12146	0.138183	0.176432	0.0596585	0.0516346	0.147005	0.0539745	0.197582	0.237524	0.243861	0.115662	0.097234	0.0950897	0.0806334	0.0807151	0.0423431	0.266351	0.0542214	0.112913	0.11458	0.0158184	0.0880696	0.299792	0.439023	0.187526	0.418539	0.0338299	0.0659571	0.169825	0.103191	0.0963838	0.0988504	0.118618	
3.425	0.164074	0.163688	0.210608	0.190513	0.176891	0.136276	0.12286	0.221067	0.146202	0.154056	0.0658808	0.0861343	0.0928993	0.0943336	0.202337	0.220158	0.23659	0.0918419	0.0969836	0.102414	0.064471	0.0654045	0.0590262	0.36521	0.178007	0.0633858	0.0818747	0.029747	0.163309	0.0989036	0.605221	0.123479	0.304003	0.0623526	0.132249	0.144381	0.0684098	0.134056	0.134952	0.125993	0.0826171	0.0634238	0.236397	0.231686	0.140603	0.0662938	0.18234	0.123834	0.1382	0.176207	0.0596249	0.0516312	0.148664	0.0535553	0.196998	0.23682	0.242991	0.116051	0.0967726	0.0950393	0.0810558	0.0810683	0.0425233	0.268515	0.0549849	0.112896	0.114556	0.0158206	0.0886444	0.298522	0.442578	0.189501	0.420424	0.0338167	0.0659664	0.169909	0.103169	0.0945877	0.097516	0.117121	
3.43	0.163984	0.163775	0.209866	0.189806	0.176365	0.136095	0.121922	0.219887	0.146545	0.15443	0.0657818	0.0859561	0.0915478	0.0931606	0.202083	0.219878	0.236201	0.0921579	0.096922	0.102266	0.0649051	0.0656988	0.0590955	0.36335	0.17849	0.0632633	0.0817637	0.0296887	0.163515	0.10087	0.604645	0.121524	0.301259	0.0616774	0.133469	0.144817	0.0682805	0.134851	0.13653	0.12734	0.082158	0.0633178	0.234769	0.229518	0.139611	0.0657632	0.18343	0.126059	0.138267	0.17623	0.059593	0.0516245	0.150182	0.0531325	0.196264	0.235934	0.241891	0.116516	0.0964467	0.0949234	0.0815764	0.08149	0.0427373	0.270391	0.055909	0.112878	0.114531	0.0158227	0.0894155	0.297444	0.446238	0.191169	0.421992	0.033798	0.0659757	0.170113	0.103145	0.0927352	0.0960748	0.115573	
3.435	0.163776	0.163728	0.209104	0.189187	0.175761	0.135908	0.12117	0.21855	0.146781	0.154688	0.0657092	0.085827	0.0904651	0.0919026	0.201829	0.219603	0.235832	0.0925794	0.0969732	0.102124	0.0654152	0.0660774	0.0592475	0.361187	0.178926	0.0631742	0.0816836	0.0296344	0.16368	0.102946	0.603831	0.119425	0.298289	0.0611659	0.134748	0.145116	0.0681863	0.136631	0.138496	0.129143	0.0817674	0.0632464	0.233208	0.227492	0.138689	0.0651089	0.184271	0.128116	0.138359	0.176354	0.0595649	0.0516146	0.151569	0.0527035	0.195387	0.234877	0.240566	0.117034	0.096237	0.0947353	0.0821757	0.0819627	0.042961	0.271959	0.057005	0.11286	0.114507	0.0158248	0.0903318	0.296609	0.449966	0.192505	0.423226	0.0337734	0.0659851	0.170294	0.103122	0.0908717	0.0945562	0.114006	
3.44	0.163459	0.163556	0.20834	0.188647	0.175096	0.135726	0.120549	0.217058	0.146919	0.154837	0.065664	0.0857483	0.0896301	0.0906414	0.201575	0.219333	0.235481	0.0930975	0.0971283	0.101987	0.0659897	0.0665288	0.0594722	0.358731	0.179307	0.0631187	0.0816347	0.0295835	0.163802	0.105103	0.602766	0.117196	0.29512	0.0608217	0.13606	0.145288	0.0681281	0.138788	0.140537	0.13104	0.0815724	0.0632252	0.231639	0.225582	0.137843	0.0644018	0.184866	0.129993	0.13829	0.176436	0.0595418	0.0516029	0.152834	0.0522807	0.194372	0.23366	0.239023	0.117583	0.0960891	0.0944691	0.0828325	0.0824676	0.0431816	0.273202	0.0582567	0.112846	0.114488	0.015827	0.0913704	0.296053	0.453726	0.193489	0.424108	0.0337446	0.0659943	0.170391	0.103104	0.0890454	0.0930028	0.112458	
3.445	0.163045	0.163265	0.207591	0.188171	0.174385	0.135547	0.12002	0.215408	0.146963	0.154884	0.0656459	0.0857195	0.0889786	0.0894156	0.201322	0.219065	0.235145	0.093703	0.0973786	0.101855	0.0666169	0.0670414	0.0597601	0.355994	0.179628	0.0630965	0.0816164	0.0295354	0.16388	0.107295	0.601438	0.114865	0.291779	0.0606458	0.137381	0.14534	0.0681057	0.140973	0.142608	0.132962	0.0814801	0.0632838	0.229996	0.223706	0.137108	0.0637394	0.185209	0.131687	0.138364	0.176453	0.0597271	0.0515932	0.153987	0.0519157	0.193227	0.232297	0.237273	0.118141	0.0960154	0.0941197	0.0835248	0.0829856	0.0433893	0.274124	0.0596457	0.112838	0.114476	0.0158291	0.0925222	0.295796	0.45749	0.194113	0.424631	0.0337153	0.0660034	0.170371	0.103092	0.087298	0.0914605	0.110961	
3.45	0.162544	0.162865	0.206874	0.187745	0.173645	0.135369	0.119561	0.213598	0.146919	0.154834	0.065654	0.0857388	0.0884524	0.0882277	0.201068	0.218799	0.234822	0.0943868	0.0977167	0.101725	0.0672854	0.0676044	0.0601025	0.353004	0.17988	0.0631063	0.0816273	0.0294899	0.163912	0.109465	0.599843	0.112665	0.288281	0.0606374	0.13868	0.14528	0.0681178	0.143146	0.144707	0.134913	0.08145	0.0634513	0.228254	0.221803	0.136514	0.0631863	0.185293	0.1332	0.138295	0.176441	0.059958	0.0515885	0.15504	0.0516419	0.191958	0.230799	0.235334	0.118684	0.0959623	0.093685	0.0842305	0.0834977	0.0435729	0.274738	0.0611539	0.112839	0.114474	0.0158313	0.093772	0.295831	0.461229	0.194373	0.424791	0.0336877	0.0660125	0.170303	0.103089	0.0856566	0.0899672	0.109535	
3.455	0.161963	0.162361	0.206206	0.187361	0.172891	0.135192	0.119156	0.211619	0.146792	0.154693	0.0656868	0.0858033	0.0880135	0.0870689	0.200814	0.218533	0.234511	0.0951405	0.0981363	0.101599	0.0679849	0.0682081	0.0604924	0.349787	0.180055	0.063146	0.0816657	0.0294464	0.163894	0.111572	0.597979	0.110875	0.284663	0.0607923	0.139927	0.145112	0.0681622	0.145334	0.146812	0.136881	0.081498	0.0637434	0.226412	0.219837	0.136064	0.0627457	0.185116	0.134541	0.137615	0.176452	0.0603065	0.0515904	0.156005	0.0514546	0.190575	0.229181	0.233227	0.119191	0.0959228	0.0931643	0.084928	0.0839861	0.0437212	0.27494	0.0627613	0.11285	0.114485	0.0158334	0.0951014	0.296148	0.46492	0.194276	0.424594	0.0336625	0.0660203	0.170225	0.103098	0.084133	0.0885477	0.108192	
3.46	0.161315	0.161759	0.205603	0.187012	0.172136	0.135014	0.118796	0.209463	0.146587	0.154465	0.0657422	0.0859089	0.087639	0.0859313	0.200561	0.218268	0.234208	0.0959565	0.0986333	0.101474	0.0687063	0.0688443	0.0609242	0.34637	0.180145	0.0632134	0.0817295	0.0294048	0.163826	0.113597	0.595849	0.109528	0.28098	0.0611018	0.141095	0.144843	0.0682361	0.147544	0.148916	0.138859	0.0813993	0.0641638	0.224484	0.217794	0.13574	0.0621373	0.18468	0.135716	0.136684	0.176342	0.0604483	0.0515991	0.156895	0.0513336	0.189087	0.227454	0.230972	0.119644	0.0956301	0.0925571	0.0855972	0.0844344	0.0438244	0.274712	0.064447	0.112875	0.114512	0.0158356	0.096493	0.296737	0.468542	0.193841	0.424059	0.0336388	0.0660262	0.1701	0.103123	0.0827304	0.0872172	0.106935	
3.465	0.160609	0.161063	0.205082	0.186692	0.171396	0.134837	0.118473	0.207134	0.146307	0.154156	0.0658174	0.0860508	0.0873149	0.0848112	0.200308	0.218002	0.233913	0.0968283	0.0992056	0.101351	0.0694424	0.0695066	0.0613947	0.342783	0.180143	0.0633056	0.081816	0.0293648	0.163703	0.115528	0.59346	0.108517	0.277298	0.0615524	0.14216	0.144478	0.0683362	0.149776	0.151022	0.140854	0.0814908	0.0647124	0.222483	0.215668	0.135511	0.0615388	0.183978	0.136732	0.135641	0.176132	0.0605084	0.0516149	0.157718	0.0512593	0.187507	0.225635	0.228587	0.120023	0.0951797	0.0918656	0.0862197	0.0848284	0.0438752	0.274136	0.0661899	0.112916	0.114557	0.0158377	0.0979305	0.297583	0.472077	0.193087	0.423209	0.0336155	0.0660317	0.169895	0.103167	0.0814596	0.0870143	0.105777	
3.47	0.159853	0.160276	0.204656	0.186397	0.170681	0.13466	0.118181	0.204648	0.145957	0.15377	0.0659098	0.0862235	0.0870312	0.0837087	0.200055	0.217737	0.233625	0.0977504	0.0998533	0.101229	0.0701874	0.0701905	0.0619025	0.339066	0.180043	0.0634193	0.0819226	0.029326	0.163523	0.117323	0.590823	0.107726	0.27368	0.0621272	0.143109	0.144021	0.0684587	0.151994	0.1531	0.142836	0.0818792	0.0653889	0.220428	0.213462	0.135347	0.0610619	0.183004	0.137598	0.134663	0.175889	0.0605611	0.0516381	0.158488	0.0512158	0.185847	0.223736	0.226093	0.120317	0.0946973	0.0910961	0.0867796	0.0851561	0.0438682	0.273313	0.0679697	0.112972	0.114623	0.0158399	0.0993984	0.298669	0.475509	0.192039	0.422075	0.0335918	0.0660377	0.169608	0.103231	0.0803315	0.0871355	0.104728	
3.475	0.15905	0.159399	0.204339	0.186124	0.170004	0.134482	0.117914	0.202032	0.145541	0.153311	0.0660162	0.0864209	0.0867807	0.0826285	0.199802	0.217472	0.233341	0.098719	0.100579	0.101108	0.0709363	0.0708934	0.062448	0.335263	0.179839	0.0635512	0.0820463	0.0292884	0.163283	0.118918	0.587956	0.10708	0.270188	0.0628087	0.14393	0.143478	0.0685997	0.154131	0.155082	0.144741	0.0824309	0.0661923	0.218339	0.211181	0.135225	0.0607311	0.181766	0.138323	0.133807	0.175632	0.0605988	0.0516688	0.159218	0.0511917	0.184122	0.221773	0.223512	0.120512	0.0942229	0.0902598	0.0872634	0.0854082	0.0438	0.272322	0.069767	0.113045	0.11471	0.015842	0.100882	0.299973	0.478822	0.190729	0.420692	0.0335669	0.0660445	0.169264	0.103318	0.0793516	0.0874208	0.103793	
3.48	0.158202	0.158432	0.204146	0.185871	0.169374	0.134305	0.117668	0.199319	0.145065	0.152786	0.0661337	0.086637	0.0865572	0.0815874	0.199549	0.217207	0.233061	0.0997316	0.101385	0.100986	0.0716835	0.0716143	0.0630333	0.331424	0.179525	0.0636978	0.082184	0.0292516	0.162978	0.120272	0.584904	0.106535	0.266878	0.0635797	0.144615	0.142852	0.0687552	0.156127	0.15691	0.146513	0.0830658	0.06712	0.216268	0.208897	0.135128	0.0606703	0.180293	0.138921	0.133046	0.17534	0.0606265	0.051707	0.159918	0.0511794	0.182347	0.219762	0.220866	0.120602	0.0937411	0.0893706	0.0876606	0.085572	0.0432686	0.271257	0.0715638	0.113134	0.114819	0.0158442	0.102369	0.301466	0.482007	0.189191	0.419096	0.0335396	0.0660521	0.168857	0.103427	0.0785198	0.086736	0.102972	
3.485	0.15731	0.157375	0.204088	0.185718	0.168802	0.134128	0.117441	0.196557	0.144533	0.152198	0.0662593	0.0868655	0.0863563	0.0806303	0.199296	0.216942	0.232783	0.100786	0.102278	0.100865	0.072425	0.0723534	0.0636615	0.327603	0.179099	0.0638557	0.0823328	0.0292156	0.162606	0.121381	0.581692	0.106066	0.263806	0.0644237	0.145157	0.142151	0.0689215	0.157955	0.158558	0.148129	0.0837829	0.0681676	0.214205	0.20659	0.135045	0.0609688	0.17863	0.139401	0.132526	0.175058	0.0606556	0.0517525	0.160579	0.0511739	0.180537	0.217717	0.218179	0.12058	0.0932262	0.0884368	0.0879636	0.0856588	0.0425927	0.270158	0.0733439	0.113237	0.11495	0.0158463	0.103847	0.303116	0.484071	0.187464	0.417323	0.0335084	0.0660602	0.168386	0.103555	0.0778402	0.0865681	0.102265	
3.49	0.156372	0.156227	0.204179	0.186017	0.168298	0.133951	0.11723	0.193795	0.143951	0.151555	0.0663901	0.0871009	0.0861742	0.0798302	0.199043	0.216678	0.232506	0.101881	0.103263	0.100744	0.0731581	0.0731105	0.064336	0.323846	0.178557	0.0640216	0.0824897	0.0291801	0.162162	0.122253	0.578337	0.105658	0.26103	0.0653233	0.145553	0.141381	0.0690948	0.159608	0.160022	0.149582	0.0845881	0.069329	0.212312	0.204465	0.13497	0.0615091	0.176827	0.139776	0.132937	0.174911	0.0606879	0.0518045	0.161211	0.0511724	0.17871	0.215655	0.215472	0.120446	0.0926611	0.0874651	0.0881674	0.0856543	0.0421067	0.269044	0.0750931	0.113354	0.1151	0.0158485	0.105306	0.304888	0.487036	0.185588	0.41541	0.0334714	0.0660687	0.167853	0.103702	0.0773075	0.0867737	0.10167	
3.495	0.155387	0.154984	0.204429	0.186741	0.167869	0.133775	0.117031	0.191117	0.143325	0.150863	0.0665235	0.0873383	0.0860079	0.079193	0.198791	0.216413	0.23223	0.103013	0.104345	0.100622	0.0738806	0.0738841	0.0650605	0.320192	0.177899	0.0641922	0.0826519	0.029145	0.161642	0.122901	0.574854	0.1053	0.258603	0.0662602	0.145796	0.14055	0.0692721	0.161085	0.161316	0.150874	0.0854804	0.0705975	0.210605	0.202608	0.1349	0.062122	0.174924	0.140058	0.134165	0.174652	0.0607251	0.0518621	0.161828	0.0511731	0.176886	0.213595	0.212768	0.120198	0.092039	0.0864639	0.0882701	0.0854606	0.0416809	0.267933	0.0767994	0.113482	0.115269	0.0158506	0.106738	0.306744	0.490322	0.183603	0.413389	0.033427	0.0660776	0.167248	0.103863	0.0769099	0.0868699	0.101175	
3.5	0.154352	0.153639	0.20485	0.187726	0.167526	0.133598	0.116844	0.18857	0.142663	0.150129	0.066657	0.0875734	0.0858551	0.0786848	0.198539	0.216149	0.231953	0.104178	0.105529	0.100501	0.0745902	0.074673	0.0658382	0.316685	0.177124	0.0643645	0.0828164	0.0291101	0.161044	0.123334	0.571255	0.10498	0.256576	0.0672146	0.145883	0.139667	0.0694502	0.162412	0.16251	0.152047	0.0864582	0.0719656	0.20881	0.20064	0.134832	0.0627463	0.172957	0.140261	0.134844	0.174146	0.0605563	0.0519165	0.162423	0.0511749	0.175075	0.211547	0.210087	0.119768	0.0913587	0.0854434	0.0882733	0.0851846	0.0412398	0.266848	0.0784533	0.113574	0.115452	0.0158528	0.108135	0.308648	0.493203	0.181547	0.411293	0.0333734	0.0660867	0.166596	0.104008	0.0766328	0.0868212	0.100771	
3.505	0.153264	0.152186	0.205453	0.188916	0.167277	0.133421	0.116667	0.186194	0.141973	0.149363	0.0667883	0.0878028	0.0857138	0.0782684	0.198286	0.215885	0.231677	0.105371	0.106817	0.10038	0.0752842	0.075475	0.066672	0.313376	0.176231	0.064536	0.0829807	0.0290754	0.160363	0.123566	0.567553	0.104694	0.25499	0.068166	0.14581	0.138743	0.0696266	0.163648	0.163637	0.153148	0.0875197	0.0734261	0.206863	0.198338	0.134765	0.0634114	0.170958	0.140398	0.134467	0.173526	0.0603389	0.0519617	0.162988	0.0511775	0.173286	0.209519	0.207447	0.119232	0.0906184	0.0844134	0.0882008	0.0847791	0.0407736	0.265815	0.0800474	0.113642	0.115645	0.0158549	0.109493	0.310561	0.495757	0.17946	0.409156	0.0333086	0.0660958	0.165903	0.104157	0.0764595	0.086803	0.100449	
3.51	0.152121	0.150624	0.206245	0.190328	0.167133	0.133245	0.116498	0.184019	0.141265	0.148574	0.0669157	0.0880235	0.0855825	0.0779173	0.198034	0.215621	0.231401	0.106584	0.108208	0.100259	0.0759609	0.0762869	0.0675623	0.310314	0.17522	0.0647043	0.0831425	0.0290407	0.159596	0.12363	0.563756	0.104435	0.253883	0.0690978	0.145571	0.137791	0.0697991	0.164801	0.164686	0.154178	0.0886621	0.0749718	0.204906	0.195806	0.134699	0.064138	0.168952	0.140482	0.133641	0.172871	0.060181	0.0519981	0.163525	0.0511805	0.171526	0.20752	0.204866	0.118562	0.0898179	0.0833822	0.0880939	0.0843649	0.0402857	0.264852	0.0815768	0.113722	0.115843	0.015857	0.110807	0.312451	0.498122	0.177664	0.407016	0.0332315	0.0664448	0.165173	0.104323	0.0763708	0.0871201	0.100199	
3.515	0.15092	0.148956	0.207233	0.191976	0.167102	0.133069	0.116336	0.182068	0.14055	0.147772	0.0670375	0.0882335	0.0854597	0.0776149	0.197782	0.215357	0.233639	0.107809	0.109699	0.100138	0.0766205	0.0771035	0.068506	0.307544	0.17409	0.0648676	0.0832999	0.029006	0.158741	0.123536	0.559874	0.104198	0.253278	0.0700004	0.145162	0.136827	0.0699657	0.165859	0.165642	0.155122	0.0898818	0.0765961	0.203069	0.193252	0.134633	0.0649312	0.166963	0.140527	0.132824	0.172194	0.0600968	0.0520289	0.164036	0.0511836	0.169804	0.205554	0.202363	0.117764	0.0889599	0.0823558	0.0879931	0.0840007	0.0397741	0.263971	0.0830386	0.113831	0.116042	0.0158592	0.112076	0.314286	0.500341	0.176271	0.40491	0.0331406	0.0675596	0.164423	0.104497	0.0763632	0.0875365	0.100022	
3.52	0.149663	0.147194	0.208422	0.193853	0.167192	0.132893	0.11618	0.180355	0.139842	0.146972	0.0671525	0.0884313	0.0853443	0.0773508	0.19753	0.216641	0.236773	0.109036	0.11128	0.100017	0.0772617	0.0779191	0.0694973	0.3051	0.17284	0.0650243	0.083451	0.0289712	0.157796	0.12328	0.555915	0.10398	0.25319	0.0708661	0.144575	0.13587	0.0701246	0.166817	0.166507	0.15598	0.091175	0.078293	0.201395	0.190813	0.134568	0.0657943	0.165011	0.140547	0.132079	0.171512	0.060063	0.0520564	0.164518	0.0511869	0.168127	0.20363	0.199952	0.116956	0.0880501	0.0813381	0.0876391	0.0835374	0.0392329	0.263188	0.0844322	0.113954	0.116235	0.0158613	0.113298	0.316037	0.502436	0.175131	0.402871	0.0330355	0.069205	0.163674	0.104663	0.0764378	0.0877867	0.0999207	
3.525	0.148356	0.145348	0.209811	0.195947	0.167411	0.132717	0.11603	0.178882	0.139149	0.146187	0.06726	0.0886158	0.0852355	0.0771178	0.197278	0.219489	0.240124	0.110251	0.11294	0.0998965	0.0778817	0.0787306	0.0705281	0.303015	0.171464	0.065173	0.0835948	0.0289366	0.156762	0.122864	0.551888	0.103778	0.253621	0.0716854	0.143806	0.134934	0.0702745	0.167688	0.167292	0.15676	0.0925377	0.0800575	0.199874	0.188534	0.134503	0.0667288	0.16312	0.140556	0.131363	0.170847	0.0600567	0.0520822	0.16497	0.0511902	0.166499	0.201748	0.19764	0.116143	0.0870951	0.0803306	0.0868205	0.0829836	0.0386569	0.262521	0.0857589	0.114071	0.116417	0.0158634	0.114474	0.317682	0.504423	0.174122	0.400928	0.0329156	0.0709419	0.162946	0.104815	0.0765875	0.0878654	0.0998968	
3.53	0.147005	0.143433	0.211396	0.198246	0.167765	0.132541	0.115883	0.177643	0.138478	0.145426	0.0673594	0.0887867	0.0851323	0.0769103	0.197027	0.222544	0.243714	0.111443	0.114662	0.100959	0.0784759	0.079536	0.0715888	0.30131	0.16996	0.0653131	0.0837301	0.0289019	0.15564	0.122291	0.547807	0.10359	0.254559	0.0724496	0.142848	0.134027	0.0704145	0.16848	0.168006	0.157473	0.093966	0.0818851	0.198491	0.186416	0.134438	0.0677331	0.161305	0.140568	0.130682	0.170227	0.0600642	0.0521064	0.165387	0.0511936	0.164922	0.19991	0.195431	0.115278	0.0861012	0.0793331	0.0862016	0.0823825	0.038044	0.261986	0.0870215	0.114175	0.116583	0.0158656	0.115605	0.319199	0.506316	0.173206	0.399108	0.0327821	0.0725203	0.162259	0.104949	0.0767938	0.0878538	0.0999453	
3.535	0.145621	0.14146	0.213168	0.200731	0.168252	0.132365	0.115741	0.176628	0.137834	0.144696	0.0674505	0.0889438	0.085034	0.0767239	0.196775	0.225648	0.247514	0.112593	0.116429	0.102898	0.0790381	0.080332	0.0726685	0.3	0.16833	0.0654438	0.0838564	0.0288662	0.154435	0.121564	0.543698	0.103414	0.255975	0.0731541	0.141699	0.133154	0.0705441	0.169193	0.16865	0.158117	0.095456	0.0837725	0.197235	0.184441	0.134373	0.0688037	0.159579	0.140596	0.130072	0.169675	0.0600788	0.052129	0.165764	0.0511969	0.163392	0.198114	0.193326	0.114339	0.0850734	0.0783433	0.0856462	0.0817441	0.0373948	0.26162	0.0882241	0.114265	0.116727	0.0158677	0.116694	0.320575	0.508129	0.172379	0.397428	0.0326346	0.0738906	0.161636	0.105065	0.0770048	0.0875687	0.100038	
3.54	0.144217	0.139446	0.215111	0.203378	0.168874	0.132189	0.115601	0.17582	0.13722	0.144001	0.0675333	0.0890872	0.08494	0.0765552	0.19656	0.228831	0.25147	0.113683	0.118218	0.104943	0.0795614	0.081114	0.0737568	0.299093	0.166583	0.0655648	0.0839733	0.0292684	0.153143	0.12068	0.53959	0.103247	0.257832	0.0737988	0.140365	0.132319	0.0706629	0.169822	0.169221	0.158687	0.0970037	0.085702	0.196129	0.182597	0.134308	0.0699354	0.157948	0.140653	0.129566	0.169219	0.0600967	0.0521493	0.166096	0.0512003	0.161909	0.196357	0.191322	0.113333	0.084015	0.0773575	0.0850256	0.0810631	0.0367114	0.261471	0.0893723	0.114338	0.116845	0.0158698	0.117742	0.321798	0.509874	0.171637	0.395906	0.0324751	0.0743931	0.1611	0.10516	0.0771671	0.0868048	0.100135	
3.545	0.142808	0.137409	0.217204	0.206159	0.169625	0.132014	0.115464	0.175199	0.136639	0.143344	0.0676081	0.0892172	0.0848499	0.0764013	0.199105	0.232046	0.255528	0.114696	0.120004	0.10703	0.0800378	0.0818769	0.07484	0.29859	0.164731	0.065676	0.0840806	0.0301879	0.151767	0.119642	0.535522	0.103089	0.260081	0.0743851	0.138857	0.131528	0.0707709	0.170361	0.16971	0.159177	0.0986053	0.0876407	0.195329	0.181071	0.134243	0.0711223	0.156415	0.14075	0.129185	0.168884	0.0601152	0.0521665	0.166378	0.0512037	0.160465	0.194636	0.189417	0.112277	0.0829283	0.0767869	0.084357	0.08034	0.0359962	0.261581	0.0895922	0.114392	0.116932	0.0158718	0.118754	0.322863	0.51096	0.170972	0.39455	0.0323038	0.0741596	0.160678	0.10523	0.0772494	0.0860608	0.100202	
3.55	0.141409	0.135378	0.219417	0.209039	0.170493	0.131838	0.115328	0.174745	0.136094	0.142728	0.0676752	0.0893343	0.084763	0.0762599	0.201922	0.235251	0.259635	0.115621	0.121763	0.109161	0.0804572	0.0826146	0.0758971	0.298483	0.162792	0.0657774	0.0841786	0.0313443	0.150314	0.11845	0.531535	0.102938	0.262669	0.0749154	0.13718	0.130785	0.0708685	0.170798	0.170108	0.159574	0.100257	0.0895761	0.194884	0.179733	0.134178	0.0723578	0.15498	0.140897	0.128949	0.168693	0.060132	0.0521793	0.166604	0.051207	0.159043	0.192942	0.187602	0.111183	0.0818144	0.0763806	0.083666	0.0795813	0.0352513	0.261973	0.08947	0.114426	0.116984	0.0158734	0.119733	0.323765	0.51275	0.170379	0.393365	0.0321231	0.0737348	0.160395	0.105272	0.077241	0.0854478	0.100217	
3.555	0.140035	0.133416	0.221718	0.21198	0.17146	0.131663	0.115193	0.174439	0.135586	0.142154	0.067735	0.0894394	0.084679	0.0761293	0.204587	0.238408	0.263735	0.116447	0.123472	0.111303	0.0808078	0.0833049	0.0769101	0.298758	0.160773	0.0658693	0.0842673	0.0325071	0.148794	0.117117	0.527677	0.102794	0.265539	0.0753927	0.13532	0.130092	0.0709561	0.171121	0.170403	0.159869	0.101642	0.0915144	0.194481	0.178408	0.134113	0.0736348	0.153641	0.1411	0.128877	0.168665	0.0601451	0.0521863	0.166768	0.0512104	0.157625	0.19126	0.185867	0.110059	0.0806738	0.0761665	0.0829565	0.0787938	0.0344781	0.262646	0.0893972	0.114436	0.116998	0.015875	0.120682	0.324509	0.514663	0.169855	0.39235	0.0319335	0.073536	0.160276	0.105285	0.0771421	0.0849031	0.100166	
3.56	0.138696	0.131745	0.22407	0.214938	0.172506	0.131488	0.115059	0.174268	0.135116	0.141624	0.0677879	0.0895329	0.0845974	0.0760079	0.20724	0.241498	0.267774	0.117171	0.125113	0.113426	0.0810882	0.0839332	0.0778658	0.299393	0.158694	0.0659521	0.0843472	0.033621	0.147221	0.11566	0.524001	0.102655	0.268635	0.0758203	0.133277	0.129451	0.0710341	0.171319	0.170585	0.160049	0.103156	0.0934657	0.19408	0.17718	0.134048	0.0749461	0.152394	0.141365	0.128988	0.168816	0.060153	0.0521853	0.166863	0.0512138	0.156197	0.18958	0.184198	0.108913	0.0795066	0.076074	0.082231	0.0779825	0.0336819	0.263578	0.0894877	0.11442	0.116969	0.0158767	0.121606	0.325097	0.516352	0.169395	0.391498	0.0317376	0.0738222	0.160353	0.105265	0.0769551	0.0843148	0.100045	
3.565	0.137403	0.130432	0.226429	0.217866	0.173606	0.131313	0.114925	0.174222	0.134686	0.141139	0.0678345	0.0896159	0.0845181	0.0758944	0.20986	0.244502	0.271697	0.117791	0.126669	0.115504	0.0813011	0.0844975	0.0787553	0.300364	0.156577	0.066026	0.0844186	0.0347035	0.145612	0.114079	0.520565	0.102521	0.271901	0.0762015	0.131091	0.128865	0.0711032	0.171385	0.170647	0.16011	0.104879	0.0951735	0.193839	0.176252	0.133983	0.0762841	0.151235	0.141694	0.129295	0.169155	0.0601544	0.052174	0.166881	0.0512171	0.154751	0.18789	0.182584	0.107754	0.0783483	0.0760246	0.0814979	0.0771612	0.0328895	0.264739	0.089753	0.114378	0.116896	0.0158784	0.122319	0.32554	0.517937	0.168997	0.390803	0.031536	0.0747228	0.160654	0.105211	0.0766828	0.0837374	0.0998508	
3.57	0.136161	0.129417	0.228755	0.220718	0.174731	0.131138	0.114791	0.174301	0.134295	0.140698	0.0678754	0.0896889	0.0844405	0.0757878	0.212404	0.247394	0.275455	0.118313	0.12813	0.117514	0.0814523	0.0849989	0.0795745	0.301642	0.154447	0.0660917	0.0844821	0.0357678	0.143987	0.112358	0.517429	0.102942	0.275288	0.0765399	0.128825	0.128333	0.0711641	0.171316	0.170585	0.160047	0.106701	0.0967885	0.19382	0.175738	0.133918	0.0776417	0.150158	0.142085	0.129808	0.169685	0.060148	0.0521502	0.166813	0.0512205	0.153279	0.186179	0.18101	0.106588	0.0771941	0.0759799	0.0807624	0.0763279	0.0321061	0.266096	0.0902003	0.114306	0.116774	0.01588	0.123161	0.325846	0.519483	0.168657	0.390249	0.0313323	0.0759782	0.16121	0.10512	0.0763286	0.0831841	0.0995849	
3.575	0.134974	0.128611	0.231007	0.223446	0.175852	0.130964	0.114989	0.174512	0.133943	0.140302	0.067911	0.0897529	0.0843644	0.0756871	0.214851	0.250148	0.279005	0.118744	0.12949	0.119437	0.0815506	0.0854419	0.0803266	0.303197	0.152331	0.0661496	0.084538	0.0368015	0.142368	0.110511	0.51465	0.104745	0.278753	0.0768388	0.12653	0.127855	0.0712173	0.171111	0.1704	0.15986	0.10851	0.0984587	0.193938	0.175588	0.133854	0.0790115	0.149159	0.142534	0.130531	0.170403	0.0601326	0.0521124	0.166651	0.0512238	0.151773	0.184437	0.179464	0.105421	0.0759934	0.0759305	0.0800256	0.0754576	0.0312981	0.267621	0.0907824	0.114203	0.116601	0.0158816	0.12416	0.32603	0.521	0.168369	0.38982	0.026389	0.0771744	0.162029	0.104987	0.0758961	0.0826923	0.0992488	
3.58	0.13384	0.12795	0.233149	0.226011	0.176939	0.130789	0.116815	0.174871	0.133629	0.139948	0.0679418	0.0898086	0.0842896	0.0757488	0.217179	0.252744	0.282311	0.119096	0.130742	0.121256	0.0816077	0.0858341	0.0810222	0.304999	0.15026	0.0662004	0.084587	0.0377721	0.140777	0.108589	0.512283	0.107462	0.282261	0.0771014	0.124242	0.127429	0.0712636	0.170775	0.170095	0.159554	0.110376	0.100429	0.194046	0.17552	0.133789	0.0803866	0.148232	0.143034	0.131465	0.171297	0.0601069	0.0520597	0.166383	0.0512272	0.150227	0.182657	0.177933	0.104258	0.0746955	0.0758776	0.0792936	0.0745754	0.0306789	0.269287	0.0914554	0.114065	0.116374	0.0158832	0.124825	0.326106	0.52249	0.168129	0.389499	0.0231167	0.0780059	0.163077	0.104808	0.0753915	0.0822736	0.0988461	
3.585	0.132757	0.127391	0.235148	0.228382	0.177962	0.130615	0.119853	0.1754	0.133352	0.139636	0.0679684	0.0898567	0.0842158	0.0762913	0.219374	0.255167	0.285344	0.119385	0.131886	0.12296	0.0816375	0.0861857	0.081671	0.307021	0.148261	0.0662446	0.0846297	0.0386553	0.139229	0.106644	0.510374	0.11034	0.285792	0.0773306	0.121996	0.127052	0.0713036	0.170317	0.16968	0.159137	0.112273	0.102703	0.194083	0.175162	0.133724	0.0817606	0.147372	0.143577	0.132602	0.17235	0.0600693	0.0519912	0.165998	0.0512305	0.148637	0.180831	0.176408	0.103102	0.0733637	0.0758236	0.0785709	0.0736921	0.0303566	0.27107	0.0922023	0.113892	0.116092	0.0158849	0.125108	0.326089	0.523951	0.167928	0.389265	0.0220281	0.0783736	0.164314	0.104579	0.074822	0.0819873	0.0983827	
3.59	0.131717	0.126911	0.236979	0.230536	0.178896	0.130441	0.123107	0.176125	0.133108	0.139361	0.0679911	0.0898982	0.0841428	0.0773288	0.221424	0.257406	0.288085	0.119626	0.132925	0.124544	0.0816547	0.0865088	0.0822826	0.309238	0.146361	0.0662828	0.0846667	0.0394504	0.137739	0.104714	0.508963	0.113076	0.28934	0.0775295	0.11986	0.126721	0.0713381	0.169746	0.169164	0.158618	0.114254	0.105042	0.194063	0.174373	0.133657	0.0831275	0.146572	0.144155	0.133924	0.173536	0.0600182	0.0519059	0.165481	0.0512339	0.146997	0.178954	0.174878	0.101955	0.0721342	0.0757669	0.0778583	0.0728023	0.0300436	0.272916	0.0930191	0.113679	0.115751	0.0158867	0.126001	0.325996	0.523888	0.167761	0.389099	0.0219614	0.0785435	0.165728	0.104295	0.0742006	0.0816721	0.0978679	
3.595	0.130711	0.126494	0.238619	0.232459	0.179718	0.130266	0.126128	0.177077	0.132896	0.139122	0.0680105	0.0899337	0.0840702	0.0786797	0.223323	0.259455	0.290522	0.11984	0.133868	0.126004	0.0816747	0.086816	0.0828668	0.311627	0.144576	0.0663157	0.0846984	0.0401721	0.136322	0.102816	0.508075	0.115719	0.292908	0.0777006	0.118018	0.126434	0.0713675	0.169072	0.168555	0.158007	0.116246	0.107282	0.194021	0.173538	0.133587	0.0844821	0.145826	0.144754	0.135412	0.174827	0.0599517	0.0518029	0.164813	0.0512372	0.145303	0.177021	0.173339	0.100818	0.070723	0.0754405	0.077155	0.0719006	0.0296808	0.274743	0.0938997	0.113426	0.115351	0.0158883	0.127132	0.325841	0.523916	0.16762	0.38898	0.0221169	0.0787224	0.167327	0.103952	0.0735382	0.0814791	0.0973102	
3.6	0.129731	0.126128	0.240055	0.234143	0.180413	0.130093	0.128952	0.178284	0.132712	0.138916	0.068027	0.0899639	0.0839979	0.0801927	0.225072	0.261313	0.292654	0.120053	0.134726	0.127344	0.0817119	0.0871202	0.083434	0.31417	0.142922	0.0663438	0.0847255	0.0408376	0.134993	0.100972	0.507722	0.118357	0.296499	0.0778469	0.116565	0.126186	0.0713925	0.168302	0.16786	0.15731	0.118209	0.109402	0.19398	0.172996	0.133517	0.0858199	0.145125	0.145365	0.137047	0.17619	0.0598677	0.0516807	0.163976	0.0512406	0.143548	0.175029	0.171785	0.0996889	0.0692265	0.074331	0.0764587	0.0709844	0.0294214	0.276511	0.0948306	0.113132	0.114891	0.01589	0.128297	0.325638	0.524829	0.167496	0.388891	0.0222256	0.0783856	0.169142	0.103545	0.0728407	0.080739	0.0967147	
3.605	0.128765	0.125804	0.241283	0.235588	0.180969	0.129919	0.131705	0.179772	0.132555	0.138739	0.0680409	0.0899896	0.0839257	0.0818144	0.226672	0.262983	0.294486	0.12028	0.13551	0.12857	0.0817788	0.0874329	0.0839953	0.316854	0.141411	0.0663677	0.0847486	0.0414466	0.133761	0.0992653	0.507899	0.121018	0.300116	0.0779714	0.115455	0.125973	0.0714138	0.167437	0.167079	0.156529	0.120136	0.111421	0.193952	0.172831	0.133432	0.0871375	0.144461	0.145976	0.138811	0.177597	0.0597641	0.051538	0.162954	0.0512439	0.141726	0.17297	0.170215	0.0985667	0.067748	0.0727062	0.075766	0.0700513	0.0293009	0.278299	0.0957961	0.112808	0.114371	0.0158917	0.12927	0.325399	0.526233	0.167382	0.388817	0.0222683	0.0775144	0.171256	0.10307	0.0721099	0.080111	0.0960861	
3.61	0.127804	0.125514	0.242303	0.236801	0.18138	0.129745	0.134432	0.181554	0.13242	0.138587	0.0680526	0.0900113	0.0839913	0.083547	0.228129	0.26447	0.296033	0.120534	0.136234	0.129688	0.0818858	0.0877641	0.0845625	0.319667	0.140051	0.066388	0.0847682	0.0419844	0.132633	0.0978607	0.508584	0.123697	0.303768	0.0780771	0.114591	0.125791	0.0714317	0.16647	0.166207	0.155659	0.122025	0.113358	0.193943	0.172895	0.133066	0.0884324	0.143827	0.14658	0.140676	0.179042	0.0596383	0.0513736	0.161731	0.0512472	0.139837	0.170843	0.168632	0.0974474	0.0662858	0.0709873	0.0750722	0.0690973	0.0290733	0.280178	0.096784	0.112459	0.113791	0.0158936	0.130106	0.325134	0.527642	0.167273	0.388748	0.0222804	0.0763694	0.173883	0.102526	0.0713478	0.079351	0.0954302	
3.615	0.126841	0.125253	0.243126	0.237797	0.181649	0.129572	0.137127	0.18363	0.132304	0.138457	0.0680626	0.0900298	0.0848545	0.0853985	0.229454	0.265788	0.297313	0.120822	0.136922	0.130708	0.0820394	0.0881207	0.0851345	0.3226	0.138841	0.0664053	0.084785	0.0424495	0.131607	0.0967805	0.509741	0.126398	0.307465	0.078167	0.113892	0.125635	0.071447	0.16539	0.165232	0.154691	0.123878	0.11523	0.193959	0.172949	0.132515	0.0897032	0.143217	0.14717	0.142601	0.180539	0.0594882	0.0511857	0.160302	0.0512506	0.13789	0.168653	0.167038	0.0963254	0.0648037	0.0694081	0.0743713	0.0681174	0.0287352	0.282153	0.0979397	0.112089	0.113155	0.0158955	0.130911	0.32485	0.528914	0.167163	0.388678	0.022286	0.0751891	0.176828	0.10191	0.0705592	0.0788607	0.0947539	
3.62	0.12587	0.125017	0.243766	0.238595	0.181783	0.129399	0.139791	0.185986	0.132204	0.138344	0.0680711	0.0900457	0.0865093	0.0873577	0.230659	0.26695	0.298352	0.12115	0.137587	0.131641	0.0822428	0.0885067	0.0857008	0.325639	0.137774	0.0664201	0.0847993	0.0428524	0.130682	0.0959534	0.511316	0.12913	0.311214	0.078244	0.113308	0.1255	0.0714601	0.164187	0.164143	0.153615	0.125699	0.117059	0.194004	0.172843	0.131955	0.0909497	0.142624	0.147744	0.144549	0.182107	0.0593109	0.0509721	0.158668	0.0512539	0.135892	0.16641	0.16544	0.095194	0.0632829	0.0678382	0.0736566	0.0671065	0.0283645	0.284195	0.0991362	0.1117	0.112464	0.0158975	0.131714	0.324552	0.530087	0.16705	0.388607	0.022293	0.0740966	0.179847	0.101224	0.0697543	0.0783368	0.0940642	
3.625	0.124887	0.124801	0.244245	0.23922	0.181795	0.129225	0.142427	0.18859	0.132117	0.138246	0.0680785	0.0900595	0.0885358	0.0893939	0.231758	0.267974	0.299182	0.121519	0.138235	0.132503	0.0824948	0.0889229	0.086264	0.328767	0.136839	0.066433	0.0848118	0.0432046	0.129847	0.0952988	0.513244	0.131873	0.315023	0.0783111	0.112808	0.125382	0.0714714	0.162871	0.162948	0.15244	0.127487	0.118856	0.194083	0.172585	0.131069	0.0921728	0.142047	0.148299	0.146488	0.183779	0.0591037	0.0507291	0.156848	0.0512572	0.133852	0.164122	0.163848	0.0940457	0.0617234	0.0659027	0.0729203	0.0660589	0.0280236	0.286282	0.100394	0.111294	0.111724	0.0158996	0.132508	0.32424	0.531201	0.166934	0.388536	0.022302	0.0731268	0.182891	0.100469	0.0689493	0.0780157	0.0933668	
3.63	0.123891	0.124603	0.244589	0.239702	0.181704	0.129052	0.145046	0.191401	0.132038	0.138157	0.0680851	0.0900719	0.090621	0.0914748	0.23277	0.268882	0.299838	0.121927	0.13887	0.133319	0.0827901	0.0893663	0.0868265	0.331965	0.136016	0.0664445	0.0848231	0.0435161	0.12909	0.0947598	0.515446	0.134588	0.318899	0.0783711	0.112375	0.125275	0.0714816	0.161457	0.161664	0.151185	0.129242	0.120589	0.194204	0.172265	0.130358	0.0933717	0.141484	0.148833	0.148399	0.185618	0.0588632	0.0504521	0.154881	0.0512605	0.131777	0.161799	0.162271	0.0928717	0.0601299	0.0637513	0.0721543	0.0649694	0.0277936	0.288406	0.101732	0.110873	0.110938	0.0159017	0.133293	0.323914	0.532255	0.166814	0.388468	0.0223116	0.0722727	0.185941	0.0996485	0.0681676	0.0778951	0.092666	
3.635	0.122885	0.12442	0.244829	0.240074	0.181533	0.12888	0.147642	0.194364	0.131965	0.138074	0.0680912	0.0900834	0.0926788	0.0935728	0.233713	0.269699	0.300358	0.122368	0.139499	0.134102	0.0831196	0.089831	0.0873879	0.335211	0.135281	0.0664553	0.0848335	0.0437956	0.128395	0.0943032	0.517837	0.13725	0.322847	0.078427	0.111996	0.125176	0.0714911	0.159897	0.160287	0.149813	0.130966	0.122221	0.194371	0.17195	0.131152	0.0945466	0.140936	0.149348	0.150267	0.187777	0.0585864	0.050136	0.152819	0.0512639	0.129676	0.159449	0.160721	0.0916629	0.0585051	0.0617237	0.0713501	0.0638327	0.0276643	0.290566	0.103159	0.110441	0.110113	0.0159038	0.13407	0.323571	0.533238	0.166694	0.38841	0.0223213	0.0715138	0.188958	0.0987687	0.0674552	0.0778675	0.0919645	
3.64	0.12187	0.12425	0.245	0.240369	0.18131	0.128707	0.150191	0.197406	0.131893	0.137993	0.0680972	0.0900947	0.0947253	0.095644	0.23461	0.270452	0.300785	0.122833	0.140124	0.134865	0.0834705	0.0903081	0.0879462	0.338483	0.134608	0.0664657	0.0848438	0.0440529	0.127743	0.0939092	0.520326	0.139863	0.326827	0.0784815	0.111659	0.125078	0.0715003	0.158146	0.158741	0.14827	0.132664	0.123743	0.194592	0.171667	0.13239	0.0957015	0.140408	0.149845	0.152089	0.190394	0.0582784	0.049776	0.150638	0.0512672	0.127557	0.157082	0.159212	0.0904097	0.0568511	0.0600829	0.0704993	0.0626447	0.0274272	0.292764	0.104244	0.109999	0.109257	0.0159059	0.13484	0.323203	0.534146	0.166577	0.388372	0.0223308	0.0708275	0.191908	0.097836	0.0668342	0.0778608	0.0912628	
3.645	0.120851	0.124092	0.245137	0.240625	0.181064	0.128535	0.152669	0.200411	0.131818	0.137909	0.0681033	0.0901064	0.0967693	0.0976252	0.235484	0.271169	0.301163	0.12331	0.14075	0.135619	0.0838272	0.0907863	0.088498	0.341759	0.133964	0.0664763	0.0848543	0.0442985	0.127113	0.0935651	0.522818	0.142461	0.330772	0.0785374	0.111358	0.124977	0.0715098	0.156205	0.156993	0.146547	0.134337	0.125156	0.194873	0.17143	0.133573	0.0968417	0.139903	0.150326	0.153859	0.193078	0.0579313	0.0493666	0.148382	0.0512705	0.125427	0.154708	0.157758	0.0891027	0.0551711	0.0588165	0.0695939	0.0614017	0.0269882	0.295003	0.105215	0.109551	0.108377	0.015908	0.135603	0.322803	0.534979	0.166468	0.388366	0.0223399	0.0701918	0.194759	0.0968587	0.0663032	0.0778504	0.0905595	
