CEINMS output
datacolumns 7
datarows 707
endheader
time	addbrev_r	addlong_r	addmagDist_r	addmagIsch_r	addmagMid_r	addmagProx_r	bflh_r	bfsh_r	edl_r	ehl_r	fdl_r	fhl_r	gaslat_r	gasmed_r	glmax1_r	glmax2_r	glmax3_r	glmed1_r	glmed2_r	glmed3_r	glmin1_r	glmin2_r	glmin3_r	grac_r	iliacus_r	perbrev_r	perlong_r	piri_r	psoas_r	recfem_r	sart_r	semimem_r	semiten_r	soleus_r	tfl_r	tibant_r	tibpost_r	vasint_r	vaslat_r	vasmed_r	addbrev_l	addlong_l	addmagDist_l	addmagIsch_l	addmagMid_l	addmagProx_l	bflh_l	bfsh_l	edl_l	ehl_l	fdl_l	fhl_l	gaslat_l	gasmed_l	glmax1_l	glmax2_l	glmax3_l	glmed1_l	glmed2_l	glmed3_l	glmin1_l	glmin2_l	glmin3_l	grac_l	iliacus_l	perbrev_l	perlong_l	piri_l	psoas_l	recfem_l	sart_l	semimem_l	semiten_l	soleus_l	tfl_l	tibant_l	tibpost_l	vasint_l	vaslat_l	vasmed_l	
0.015	756.232	5.52266	1.52076	100	1	1500	
0.015	744.203	4.09883	0.123466	100	1	1500	
0.015	732.813	3.18031	0.186288	100	1	1500	
0.02	731.021	1.88013	0.060344	100	1	1500	
0.025	731.535	1.88195	0.100332	100	1	1500	
0.03	732.108	3.47917	0.0921209	100	1	1500	
0.035	732.141	3.16569	0.0975774	100	1	1500	
0.04	731.229	3.19848	0.0866332	100	1	1500	
0.045	730.274	3.12258	0.0827671	100	1	1500	
0.05	729.297	3.16592	0.0829955	100	1	1500	
0.055	728.231	3.10615	0.0834493	100	1	1500	
0.06	727.044	2.53098	0.0828164	100	1	1500	
0.065	725.799	3.14837	0.0820595	100	1	1500	
0.07	724.924	3.14805	0.0818931	100	1	1500	
0.075	724.813	3.09922	0.0817174	100	1	1500	
0.08	725.573	3.09555	0.0821183	100	1	1500	
0.085	726.99	2.7539	0.0829795	100	1	1500	
0.09	728.624	3.02119	0.0841303	100	1	1500	
0.095	730.107	3.02121	0.0849054	100	1	1500	
0.1	731.107	3.0058	0.0849151	100	1	1500	
0.105	731.503	2.6911	0.0846352	100	1	1500	
0.11	731.101	3.01477	0.0872265	100	1	1500	
0.115	730.002	3.00927	0.0843106	100	1	1500	
0.12	728.657	2.72081	0.0818527	100	1	1500	
0.125	727.188	2.84902	0.0836743	100	1	1500	
0.13	725.488	3.06366	0.0831866	100	1	1500	
0.135	723.899	3.05463	0.0832119	100	1	1500	
0.14	722.848	2.25382	0.0835916	100	1	1500	
0.145	722.065	2.80389	0.0849946	100	1	1500	
0.15	721.131	2.47756	0.0859127	100	1	1500	
0.155	719.796	2.47749	0.0856246	100	1	1500	
0.16	718.173	2.32078	0.0844203	100	1	1500	
0.165	716.483	2.15016	0.0829699	100	1	1500	
0.17	715.079	2.13297	0.0813813	100	1	1500	
0.175	714.069	2.35227	0.0805184	100	1	1500	
0.18	713.397	2.85131	0.0808318	100	1	1500	
0.185	712.99	2.62842	0.0809657	100	1	1500	
0.19	712.578	2.62695	0.0817133	100	1	1500	
0.195	712.018	2.62619	0.0824545	100	1	1500	
0.2	711.578	2.57654	0.0835376	100	1	1500	
0.205	711.419	2.58188	0.085198	100	1	1500	
0.21	711.874	2.93678	0.0863766	100	1	1500	
0.215	713.002	2.91279	0.0867065	100	1	1500	
0.22	714.845	2.305	0.0860124	100	1	1500	
0.225	716.989	2.4523	0.086157	100	1	1500	
0.23	719.058	2.73642	0.0866641	100	1	1500	
0.235	720.946	2.50393	0.0873134	100	1	1500	
0.24	722.472	2.50548	0.0881657	100	1	1500	
0.245	723.642	2.52403	0.0884222	100	1	1500	
0.25	724.405	2.88179	0.0890772	100	1	1500	
0.255	724.631	2.67773	0.0892969	100	1	1500	
0.26	724.157	2.67096	0.0891845	100	1	1500	
0.265	722.942	2.68311	0.0880207	100	1	1500	
0.27	720.927	2.68264	0.0866057	100	1	1500	
0.275	718.443	2.7018	0.0855912	100	1	1500	
0.28	715.966	2.70211	0.0846174	100	1	1500	
0.285	713.737	2.73813	0.0838581	100	1	1500	
0.29	711.449	2.736	0.0832599	100	1	1500	
0.295	708.836	2.69275	0.0840932	100	1	1500	
0.3	705.621	2.75594	0.0837371	100	1	1500	
0.305	701.783	2.6923	0.0838641	100	1	1500	
0.31	697.69	2.47087	0.0847497	100	1	1500	
0.315	693.983	2.4733	0.0837478	100	1	1500	
0.32	690.686	2.4749	0.0832754	100	1	1500	
0.325	687.784	2.47326	0.0826285	100	1	1500	
0.33	685.453	2.47021	0.0822268	100	1	1500	
0.335	683.961	2.48437	0.0816701	100	1	1500	
0.34	683.238	2.51436	0.0809816	100	1	1500	
0.345	682.78	2.51417	0.0800629	100	1	1500	
0.35	681.793	2.36185	0.078473	100	1	1500	
0.355	679.947	2.51524	0.0762359	100	1	1500	
0.36	677.242	1.98216	0.0754635	100	1	1500	
0.365	673.899	2.76633	0.0720167	100	1	1500	
0.37	670.125	2.11634	0.071824	100	1	1500	
0.375	666.281	2.69212	0.0713573	100	1	1500	
0.38	662.824	2.26681	0.0694973	100	1	1500	
0.385	660.317	2.62461	0.0731849	100	1	1500	
0.39	658.672	2.47706	0.0697737	100	1	1500	
0.395	656.984	2.43697	0.0707098	100	1	1500	
0.4	654.609	2.28836	0.0701897	100	1	1500	
0.405	651.481	2.39144	0.0696221	100	1	1500	
0.41	647.725	2.31794	0.0687845	100	1	1500	
0.415	643.711	2.36553	0.0682874	100	1	1500	
0.42	639.682	2.30696	0.0663715	100	1	1500	
0.425	636.151	2.36826	0.0666647	100	1	1500	
0.43	633.532	2.33573	0.0648151	100	1	1500	
0.435	631.728	2.36184	0.0638246	100	1	1500	
0.44	630.457	2.34865	0.0627846	100	1	1500	
0.445	629.593	2.38513	0.0616071	100	1	1500	
0.45	629.129	2.34483	0.0613176	100	1	1500	
0.455	629.149	2.37491	0.0605844	100	1	1500	
0.46	629.558	2.33997	0.0598706	100	1	1500	
0.465	630.273	2.36121	0.0599081	100	1	1500	
0.47	631.18	2.25579	0.0588921	100	1	1500	
0.475	632.603	2.37765	0.0585739	100	1	1500	
0.48	634.946	2.37832	0.058203	100	1	1500	
0.485	637.918	2.39286	0.058087	100	1	1500	
0.49	640.918	2.37326	0.0578929	100	1	1500	
0.495	643.426	2.37788	0.0568213	100	1	1500	
0.5	645.252	2.29859	0.0570827	100	1	1500	
0.505	646.505	2.19158	0.0554163	100	1	1500	
0.51	647.76	2.45186	0.0567382	100	1	1500	
0.515	649.306	2.29942	0.0564187	100	1	1500	
0.52	651.075	2.46755	0.0577856	100	1	1500	
0.525	652.711	2.33977	0.0580119	100	1	1500	
0.53	654.027	2.41987	0.0583682	100	1	1500	
0.535	655.222	2.39403	0.0587453	100	1	1500	
0.54	656.701	2.41615	0.0590891	100	1	1500	
0.545	658.28	2.3828	0.0594798	100	1	1500	
0.55	659.711	2.3903	0.0593403	100	1	1500	
0.555	661.21	2.36691	0.058461	100	1	1500	
0.56	663.24	2.42162	0.058887	100	1	1500	
0.565	665.846	2.32275	0.0581062	100	1	1500	
0.57	668.844	2.43066	0.058649	100	1	1500	
0.575	672.362	2.30544	0.0578348	100	1	1500	
0.58	676.489	2.31577	0.0581748	100	1	1500	
0.585	681.541	2.49946	0.0572549	100	1	1500	
0.59	687.658	2.34959	0.0569257	100	1	1500	
0.595	694.165	2.36735	0.0558156	100	1	1500	
0.6	700.846	2.43263	0.0545459	100	1	1500	
0.605	707.752	2.48243	0.0532403	100	1	1500	
0.61	714.962	2.4919	0.0521461	100	1	1500	
0.615	722.576	2.51232	0.0511454	100	1	1500	
0.62	730.458	2.45495	0.0502772	100	1	1500	
0.625	738.532	2.42607	0.0500912	100	1	1500	
0.63	746.47	2.47404	0.050779	100	1	1500	
0.635	753.963	2.46266	0.0515523	100	1	1500	
0.64	760.799	2.44638	0.0522351	100	1	1500	
0.645	766.593	2.42211	0.0530329	100	1	1500	
0.65	771.293	2.40462	0.0537584	100	1	1500	
0.655	775.331	2.41305	0.0542556	100	1	1500	
0.66	779.039	2.4024	0.0548474	100	1	1500	
0.665	782.471	2.39022	0.0557472	100	1	1500	
0.67	785.741	2.25692	0.0573087	100	1	1500	
0.675	788.994	2.22382	0.0593373	100	1	1500	
0.68	792.041	2.19861	0.0620513	100	1	1500	
0.685	794.345	2.18043	0.0649189	100	1	1500	
0.69	795.645	2.16342	0.0681238	100	1	1500	
0.695	795.845	2.03684	0.0710604	100	1	1500	
0.7	794.662	2.23382	0.0731779	100	1	1500	
0.705	791.783	2.06799	0.0748211	100	1	1500	
0.71	787.129	2.08839	0.0768164	100	1	1500	
0.715	780.268	2.08555	0.0781882	100	1	1500	
0.72	770.745	2.07339	0.0792319	100	1	1500	
0.725	758.536	2.27208	0.0797515	100	1	1500	
0.73	743.918	2.26132	0.0805382	100	1	1500	
0.735	727.672	2.26053	0.0806974	100	1	1500	
0.74	710.507	2.22786	0.0812128	100	1	1500	
0.745	692.795	2.60021	0.0814773	100	1	1500	
0.75	675.316	2.57762	0.0818911	100	1	1500	
0.755	659.209	2.58213	0.0820751	100	1	1500	
0.76	645.557	2.58273	0.0816018	100	1	1500	
0.765	635.033	2.58339	0.0814343	100	1	1500	
0.77	627.683	2.57771	0.0810795	100	1	1500	
0.775	622.739	2.56969	0.0814131	100	1	1500	
0.78	619.169	2.66014	0.081351	100	1	1500	
0.785	616.328	2.63877	0.0803482	100	1	1500	
0.79	612.331	2.62156	0.0795739	100	1	1500	
0.795	609.578	2.60573	0.0784974	100	1	1500	
0.8	605.186	2.59551	0.0771306	100	1	1500	
0.805	599.833	2.587	0.0757812	100	1	1500	
0.81	592.843	2.40982	0.0738305	100	1	1500	
0.815	584.324	2.27007	0.0718405	100	1	1500	
0.82	573.786	2.23417	0.0699827	100	1	1500	
0.825	561.515	2.23587	0.0681311	100	1	1500	
0.83	548.28	2.23874	0.066851	100	1	1500	
0.835	534.786	2.23966	0.0656861	100	1	1500	
0.84	521.403	2.16367	0.0647925	100	1	1500	
0.845	508.928	2.23984	0.0645646	100	1	1500	
0.85	498.865	2.17035	0.0652329	100	1	1500	
0.855	491.748	2.23602	0.066012	100	1	1500	
0.86	487.688	3.10866	0.0665865	100	1	1500	
0.865	458.756	4.17907	0.0676256	100	1	1500	
0.87	419.414	3.68022	0.0575189	100	1	1500	
0.875	411.119	5.18013	0.0530189	100	1	1500	
0.88	396.589	3.80246	0.0504961	100	1	1500	
0.885	386.085	2.94308	0.0495341	100	1	1500	
0.89	376.294	3.10507	0.0471094	100	1	1500	
0.895	367.686	3.1694	0.0434745	100	1	1500	
0.9	361.477	5.2218	0.0493691	100	1	1500	
0.905	356.187	3.12771	0.0525675	100	1	1500	
0.91	354.157	3.19255	0.0538814	100	1	1500	
0.915	354.635	3.103	0.0556182	100	1	1500	
0.92	357.03	1.62739	0.0596177	100	1	1500	
0.925	360.554	1.44662	0.0646773	100	1	1500	
0.93	364.805	1.46848	0.0698195	100	1	1500	
0.935	369.461	1.48667	0.0755743	100	1	1500	
0.94	374.044	2.01574	0.0788533	100	1	1500	
0.945	378.236	2.01868	0.0827578	100	1	1500	
0.95	381.558	2.02593	0.0859351	100	1	1500	
0.955	384.013	2.04234	0.0888235	100	1	1500	
0.96	386.048	2.57778	0.091746	100	1	1500	
0.965	388.372	2.58241	0.0956636	100	1	1500	
0.97	391.844	2.83846	0.100976	100	1	1500	
0.975	397.116	2.83456	0.108175	100	1	1500	
0.98	404.445	2.83252	0.117172	100	1	1500	
0.985	414.159	2.83372	0.127347	100	1	1500	
0.99	425.257	2.14237	0.139316	100	1	1500	
0.995	436.234	2.15799	0.152	100	1	1500	
1	450.194	2.75506	0.165366	100	1	1500	
1.005	465.988	2.4398	0.179025	100	1	1500	
1.01	482.752	2.45677	0.192408	100	1	1500	
1.015	499.71	2.48201	0.204611	100	1	1500	
1.02	517.01	3.04309	0.216147	100	1	1500	
1.025	535.507	3.05784	0.227647	100	1	1500	
1.03	555.814	3.07349	0.238525	100	1	1500	
1.035	577.429	3.08945	0.246186	100	1	1500	
1.04	598.801	3.487	0.248361	100	1	1500	
1.045	618.359	3.48964	0.245989	100	1	1500	
1.05	635.192	2.83675	0.240931	100	1	1500	
1.055	649.58	2.96117	0.233434	100	1	1500	
1.06	662.221	3.10809	0.224482	100	1	1500	
1.065	674.156	3.11055	0.219556	100	1	1500	
1.07	686.438	3.15082	0.218482	100	1	1500	
1.075	700.304	3.06574	0.220504	100	1	1500	
1.08	716.409	3.14019	0.224235	100	1	1500	
1.085	735.104	3.07251	0.231101	100	1	1500	
1.09	756.367	3.11961	0.239626	100	1	1500	
1.095	780.09	3.08647	0.248356	100	1	1500	
1.1	806.012	3.15577	0.258623	100	1	1500	
1.105	833.848	3.08669	0.270344	100	1	1500	
1.11	863.136	3.13057	0.283842	100	1	1500	
1.115	893.136	3.10459	0.295795	100	1	1500	
1.12	923.159	3.17264	0.305991	100	1	1500	
1.125	952.659	3.17089	0.314895	100	1	1500	
1.13	981.42	3.22352	0.321973	100	1	1500	
1.135	1008.43	3.19693	0.326164	100	1	1500	
1.14	1032.28	3.24515	0.322196	100	1	1500	
1.145	1052.98	3.21789	0.318082	100	1	1500	
1.15	1071.58	3.24725	0.315867	100	1	1500	
1.155	1089.61	3.2008	0.315906	100	1	1500	
1.16	1108.78	3.22689	0.319428	100	1	1500	
1.165	1130.42	3.21973	0.327295	100	1	1500	
1.17	1155.98	3.21875	0.338452	100	1	1500	
1.175	1186.37	3.29644	0.353638	100	1	1500	
1.18	1220.99	3.27023	0.369128	100	1	1500	
1.185	1257.99	3.32673	0.380804	100	1	1500	
1.19	1295.39	3.31722	0.38855	100	1	1500	
1.195	1331.87	3.37249	0.394816	100	1	1500	
1.2	1366.58	3.35773	0.399833	100	1	1500	
1.205	1399.19	3.37505	0.402567	100	1	1500	
1.21	1430.34	3.32026	0.404605	100	1	1500	
1.215	1461.16	3.33239	0.407363	100	1	1500	
1.22	1493.27	3.29488	0.411235	100	1	1500	
1.225	1527.81	3.31397	0.417427	100	1	1500	
1.23	1564.63	3.32468	0.422875	100	1	1500	
1.235	1602.02	3.33423	0.42593	100	1	1500	
1.24	1638.35	3.37134	0.425819	100	1	1500	
1.245	1672.43	3.4081	0.423101	100	1	1500	
1.25	1704.34	3.48025	0.42144	100	1	1500	
1.255	1734.94	3.54804	0.421412	100	1	1500	
1.26	1765.96	3.63391	0.425389	100	1	1500	
1.265	1798.85	3.70534	0.431386	100	1	1500	
1.27	1833.99	3.78395	0.438146	100	1	1500	
1.275	1870.75	3.87161	0.443818	100	1	1500	
1.28	1908.34	3.88541	0.447492	100	1	1500	
1.285	1945.25	3.90613	0.449309	100	1	1500	
1.29	1980.46	3.94167	0.451013	100	1	1500	
1.295	2013.53	3.99594	0.452893	100	1	1500	
1.3	2044.57	4.05158	0.456023	100	1	1500	
1.305	2074.69	4.1112	0.459676	100	1	1500	
1.31	2104.92	4.23696	0.463209	100	1	1500	
1.315	2136.16	4.32757	0.46681	100	1	1500	
1.32	2169.23	4.48092	0.469386	100	1	1500	
1.325	2203.95	4.58665	0.47149	100	1	1500	
1.33	2238.33	4.76944	0.470978	100	1	1500	
1.335	2270.94	4.87103	0.468453	100	1	1500	
1.34	2302.23	5.03979	0.464216	100	1	1500	
1.345	2333.46	5.17204	0.460278	100	1	1500	
1.35	2365.08	5.43613	0.456279	100	1	1500	
1.355	2396.67	5.64807	0.453263	100	1	1500	
1.36	2426.31	6.58755	0.448269	100	1	1500	
1.365	2452.14	6.78245	0.440667	100	1	1500	
1.37	2478.34	6.70858	0.433593	100	1	1500	
1.375	2506.85	6.43789	0.429724	100	1	1500	
1.38	2537.87	6.66391	0.430273	100	1	1500	
1.385	2570.33	7.10054	0.43062	100	1	1500	
1.39	2603.73	6.98594	0.42943	100	1	1500	
1.395	2637.61	6.72623	0.431474	100	1	1500	
1.4	2670.24	7.46511	0.428514	100	1	1500	
1.405	2700.36	6.94143	0.422338	100	1	1500	
1.41	2728.46	7.62565	0.411007	100	1	1500	
1.415	2755.8	6.67969	0.402921	100	1	1500	
1.42	2784.15	6.89623	0.400791	100	1	1500	
1.425	2813.68	7.56117	0.400029	100	1	1500	
1.43	2844.3	7.3885	0.399718	100	1	1500	
1.435	2876.16	7.40799	0.400081	100	1	1500	
1.44	2909.14	7.599	0.401381	100	1	1500	
1.445	2942.98	7.57179	0.4023	100	1	1500	
1.45	2976.61	7.60299	0.402196	100	1	1500	
1.455	3008.63	7.57228	0.396326	100	1	1500	
1.46	3038.4	7.59181	0.392025	100	1	1500	
1.465	3066.02	7.57	0.391268	100	1	1500	
1.47	3091.13	7.59019	0.393392	100	1	1500	
1.475	3114.08	7.57123	0.397407	100	1	1500	
1.48	3136.17	7.58456	0.403489	100	1	1500	
1.485	3158.51	7.57604	0.413603	100	1	1500	
1.49	3182.61	7.58034	0.424716	100	1	1500	
1.495	3209.35	7.5886	0.436682	100	1	1500	
1.5	3238.98	7.59355	0.444861	100	1	1500	
1.505	3270.67	7.59408	0.446096	100	1	1500	
1.51	3301.81	7.55689	0.433049	100	1	1500	
1.515	3330.67	7.59413	0.416652	100	1	1500	
1.52	3356.98	7.50763	0.398704	100	1	1500	
1.525	3381.35	7.52729	0.377733	100	1	1500	
1.53	3405.63	7.48016	0.365917	100	1	1500	
1.535	3431.65	7.51493	0.361978	100	1	1500	
1.54	3460.96	7.49325	0.365162	100	1	1500	
1.545	3492.9	7.54174	0.368005	100	1	1500	
1.55	3525.59	7.52206	0.367783	100	1	1500	
1.555	3557.04	7.26291	0.364429	100	1	1500	
1.56	3585.93	7.37896	0.359761	100	1	1500	
1.565	3610.82	7.14919	0.353441	100	1	1500	
1.57	3631	7.19011	0.3436	100	1	1500	
1.575	3647.19	7.1241	0.33028	100	1	1500	
1.58	3661.1	7.01703	0.316592	100	1	1500	
1.585	3674.46	6.93551	0.304862	100	1	1500	
1.59	3689.2	7.05153	0.297733	100	1	1500	
1.595	3705.49	6.96611	0.294777	100	1	1500	
1.6	3722.72	5.70475	0.290803	100	1	1500	
1.605	3740.07	7.46454	0.286423	100	1	1500	
1.61	3756.65	6.26991	0.279302	100	1	1500	
1.615	3771.8	6.56059	0.27053	100	1	1500	
1.62	3785.34	6.11283	0.26297	100	1	1500	
1.625	3798.65	6.56188	0.256435	100	1	1500	
1.63	3814.69	6.08966	0.25742	100	1	1500	
1.635	3829.17	6.40112	0.252443	100	1	1500	
1.64	3842.68	5.96837	0.24508	100	1	1500	
1.645	3856.09	6.20855	0.240018	100	1	1500	
1.65	3868.89	5.80956	0.234333	100	1	1500	
1.655	3881.45	6.02059	0.229414	100	1	1500	
1.66	3895.62	5.61368	0.224999	100	1	1500	
1.665	3910.3	5.89242	0.222622	100	1	1500	
1.67	3925.68	5.53559	0.220968	100	1	1500	
1.675	3944.59	5.64797	0.221521	100	1	1500	
1.68	3963.77	5.41228	0.217452	100	1	1500	
1.685	3985.2	5.51732	0.213477	100	1	1500	
1.69	4010.55	5.32325	0.212868	100	1	1500	
1.695	4038.93	5.31963	0.213674	100	1	1500	
1.7	4070.58	5.29703	0.215438	100	1	1500	
1.705	4100.87	5.2641	0.216641	100	1	1500	
1.71	4129.1	5.21403	0.21628	100	1	1500	
1.715	4157.82	5.1432	0.219074	100	1	1500	
1.72	4179.16	5.18894	0.208444	100	1	1500	
1.725	4203.2	5.07622	0.205447	100	1	1500	
1.73	4227.94	5.13461	0.202818	100	1	1500	
1.735	4253.65	5.05441	0.201022	100	1	1500	
1.74	4305.75	4.853	0.227159	100	1	1500	
1.745	4331.88	5.42841	0.213584	100	1	1500	
1.75	4347.93	4.75198	0.19726	100	1	1500	
1.755	4369.49	4.89972	0.197589	100	1	1500	
1.76	4406.96	4.81519	0.203514	100	1	1500	
1.765	4444.3	4.9137	0.207313	100	1	1500	
1.77	4493.24	4.8	0.209493	100	1	1500	
1.775	4544.49	4.80315	0.208757	100	1	1500	
1.78	4602.06	5.08044	0.21201	100	1	1500	
1.785	4660.55	4.90991	0.210327	100	1	1500	
1.79	4717.37	4.75547	0.210727	100	1	1500	
1.795	4766.93	5.92374	0.202983	100	1	1500	
1.8	4812.49	5.04532	0.193903	100	1	1500	
1.805	4855.42	5.53833	0.184609	100	1	1500	
1.81	4899.24	5.06131	0.17738	100	1	1500	
1.815	4947.35	5.63341	0.171952	100	1	1500	
1.82	5004.99	4.84935	0.170561	100	1	1500	
1.825	5074.75	5.29813	0.169686	100	1	1500	
1.83	5152.26	5.04752	0.167704	100	1	1500	
1.835	5238.1	4.98975	0.169057	100	1	1500	
1.84	5331.78	5.70285	0.170209	100	1	1500	
1.845	5424.73	5.06349	0.166948	100	1	1500	
1.85	5515.91	4.69975	0.160631	100	1	1500	
1.855	5605.05	5.10497	0.153774	100	1	1500	
1.86	5693.11	4.90858	0.146969	100	1	1500	
1.865	5780.15	5.04458	0.139484	100	1	1500	
1.87	5869.22	4.89603	0.132779	100	1	1500	
1.875	5963.39	4.96703	0.127547	100	1	1500	
1.88	6067.2	4.78927	0.123888	100	1	1500	
1.885	6179.26	5.1208	0.119772	100	1	1500	
1.89	6298.99	4.68626	0.117338	100	1	1500	
1.895	6419.29	5.22193	0.114114	100	1	1500	
1.9	6543.35	4.84283	0.106535	100	1	1500	
1.905	6667.61	4.73635	0.109264	100	1	1500	
1.91	6798.1	5.66792	0.112706	100	1	1500	
1.915	6904.6	4.80158	0.109716	100	1	1500	
1.92	6998.51	5.07562	0.105887	100	1	1500	
1.925	7117.51	4.67648	0.104252	100	1	1500	
1.93	7184.26	5.01661	0.104271	100	1	1500	
1.935	7244.13	5.20066	0.10373	100	1	1500	
1.94	7304.92	5.74678	0.10685	100	1	1500	
1.945	7368.3	4.96752	0.115955	100	1	1500	
1.95	7442.88	4.9261	0.120363	100	1	1500	
1.955	7503.8	4.64729	0.117627	100	1	1500	
1.96	7548.98	4.90951	0.109887	100	1	1500	
1.965	7586.87	4.59056	0.10512	100	1	1500	
1.97	7625.72	4.74669	0.104409	100	1	1500	
1.975	7668.02	4.68827	0.105561	100	1	1500	
1.98	7718.04	4.66631	0.106693	100	1	1500	
1.985	7774.72	4.58026	0.107468	100	1	1500	
1.99	7849.76	4.67329	0.108483	100	1	1500	
1.995	7924.44	4.63354	0.108971	100	1	1500	
2	8005.45	4.83262	0.108911	100	1	1500	
2.005	8093.7	4.61939	0.109617	100	1	1500	
2.01	8183.1	4.83213	0.111341	100	1	1500	
2.015	8274.4	4.59759	0.112238	100	1	1500	
2.02	8349.9	5.18835	0.113312	100	1	1500	
2.025	8412.13	4.56973	0.114285	100	1	1500	
2.03	8472.75	4.89103	0.115322	100	1	1500	
2.035	8519.19	4.57342	0.11626	100	1	1500	
2.04	8557.79	4.87546	0.116613	100	1	1500	
2.045	8596.64	4.48543	0.117278	100	1	1500	
2.05	8634.79	4.51549	0.118101	100	1	1500	
2.055	8666.38	4.64635	0.11821	100	1	1500	
2.06	8686.93	4.5646	0.118701	100	1	1500	
2.065	8700.29	4.52427	0.119293	100	1	1500	
2.07	8709.1	4.41687	0.119369	100	1	1500	
2.075	8712.99	4.55457	0.119652	100	1	1500	
2.08	8707.96	4.49423	0.119659	100	1	1500	
2.085	8691.3	4.5434	0.119462	100	1	1500	
2.09	8667.76	4.49032	0.11917	100	1	1500	
2.095	8640.26	4.52541	0.118996	100	1	1500	
2.1	8608.89	4.48964	0.118249	100	1	1500	
2.105	8574.43	4.52772	0.118095	100	1	1500	
2.11	8536.13	4.53611	0.117859	100	1	1500	
2.115	8495.4	4.39045	0.117538	100	1	1500	
2.12	8452.58	4.43908	0.116992	100	1	1500	
2.125	8407.29	4.34704	0.116683	100	1	1500	
2.13	8359.75	4.35683	0.116243	100	1	1500	
2.135	8310.82	4.33588	0.115921	100	1	1500	
2.14	8265.67	4.20093	0.115249	100	1	1500	
2.145	8216.45	4.43451	0.114827	100	1	1500	
2.15	8167.89	4.21735	0.114293	100	1	1500	
2.155	8128.64	4.32831	0.114045	100	1	1500	
2.16	8095.9	4.31517	0.113776	100	1	1500	
2.165	8071.48	4.39246	0.113772	100	1	1500	
2.17	8054.76	4.27377	0.113819	100	1	1500	
2.175	8047.11	4.39093	0.113808	100	1	1500	
2.18	8048.64	4.29339	0.11383	100	1	1500	
2.185	8059.56	4.35292	0.114217	100	1	1500	
2.19	8075.97	4.25918	0.114417	100	1	1500	
2.195	8093.94	4.25445	0.114409	100	1	1500	
2.2	8114.2	4.35287	0.114818	100	1	1500	
2.205	8139.48	4.16539	0.114774	100	1	1500	
2.21	8168.74	4.24546	0.114945	100	1	1500	
2.215	8203.97	4.24115	0.115662	100	1	1500	
2.22	8247.34	4.23913	0.115699	100	1	1500	
2.225	8299.47	4.25274	0.115969	100	1	1500	
2.23	8360.19	4.23387	0.116796	100	1	1500	
2.235	8428.2	4.31345	0.116854	100	1	1500	
2.24	8497.95	4.26137	0.117139	100	1	1500	
2.245	8567.46	4.3175	0.118055	100	1	1500	
2.25	8639.93	4.29462	0.118224	100	1	1500	
2.255	8708.99	4.27433	0.118613	100	1	1500	
2.26	8779.23	4.3783	0.119204	100	1	1500	
2.265	8855.12	4.27287	0.119739	100	1	1500	
2.27	8934.55	4.27832	0.119993	100	1	1500	
2.275	9011.56	4.44921	0.120906	100	1	1500	
2.28	9080.6	4.23082	0.121445	100	1	1500	
2.285	9138.52	4.38345	0.121916	100	1	1500	
2.29	9187.52	4.22558	0.122047	100	1	1500	
2.295	9231.82	4.34902	0.122534	100	1	1500	
2.3	9275.66	4.22092	0.122388	100	1	1500	
2.305	9322.27	4.32055	0.12267	100	1	1500	
2.31	9374.12	4.23968	0.12272	100	1	1500	
2.315	9426.85	4.33109	0.12321	100	1	1500	
2.32	9480.34	4.27152	0.123226	100	1	1500	
2.325	9526.25	4.36606	0.123985	100	1	1500	
2.33	9561.65	4.36607	0.123978	100	1	1500	
2.335	9586.26	4.22322	0.123596	100	1	1500	
2.34	9602.25	4.5139	0.123448	100	1	1500	
2.345	9611.44	4.22833	0.12338	100	1	1500	
2.35	9614.93	4.38918	0.122705	100	1	1500	
2.355	9613.43	4.23158	0.122194	100	1	1500	
2.36	9608.22	4.37859	0.121535	100	1	1500	
2.365	9599.86	4.23493	0.121164	100	1	1500	
2.37	9588.6	4.37079	0.120411	100	1	1500	
2.375	9574.05	4.25168	0.119312	100	1	1500	
2.38	9557.79	4.39179	0.118541	100	1	1500	
2.385	9542.47	4.2939	0.117874	100	1	1500	
2.39	9527.61	4.39078	0.117131	100	1	1500	
2.395	9512.35	4.29021	0.116294	100	1	1500	
2.4	9497.8	4.42856	0.115515	100	1	1500	
2.405	9481.69	4.25934	0.114832	100	1	1500	
2.41	9462.78	4.34164	0.113991	100	1	1500	
2.415	9440.63	4.34459	0.112983	100	1	1500	
2.42	9415.76	4.30038	0.11181	100	1	1500	
2.425	9388.22	4.34136	0.110808	100	1	1500	
2.43	9358.03	4.31383	0.109837	100	1	1500	
2.435	9324.87	4.33171	0.1089	100	1	1500	
2.44	9288.95	4.34124	0.107813	100	1	1500	
2.445	9251.57	4.24736	0.106707	100	1	1500	
2.45	9214.87	4.35515	0.105576	100	1	1500	
2.455	9183.49	4.32586	0.1044	100	1	1500	
2.46	9160.14	4.30625	0.103366	100	1	1500	
2.465	9143.1	4.33232	0.102507	100	1	1500	
2.47	9129.4	4.32479	0.1016	100	1	1500	
2.475	9117.04	4.34492	0.100756	100	1	1500	
2.48	9106.23	4.33629	0.099929	100	1	1500	
2.485	9097.42	4.35861	0.0993997	100	1	1500	
2.49	9089.99	4.35438	0.0986727	100	1	1500	
2.495	9087	4.36328	0.0981184	100	1	1500	
2.5	9093.18	4.41927	0.0970703	100	1	1500	
2.505	9110.96	4.34302	0.0969959	100	1	1500	
2.51	9139.95	4.56641	0.0969845	100	1	1500	
2.515	9176.54	4.55214	0.0966045	100	1	1500	
2.52	9216.32	4.38727	0.0964558	100	1	1500	
2.525	9256.82	4.92348	0.0963413	100	1	1500	
2.53	9298.83	4.45664	0.0961865	100	1	1500	
2.535	9343.07	4.81957	0.0961405	100	1	1500	
2.54	9391.2	4.55548	0.0961032	100	1	1500	
2.545	9445.03	4.91016	0.0961639	100	1	1500	
2.55	9506.16	4.66715	0.0962027	100	1	1500	
2.555	9574.95	5.05538	0.0960796	100	1	1500	
2.56	9652.49	4.85901	0.095729	100	1	1500	
2.565	9738.68	5.29153	0.0967092	100	1	1500	
2.57	9828.7	5.42029	0.097727	100	1	1500	
2.575	9914.65	4.96496	0.0968513	100	1	1500	
2.58	9992.1	6.46402	0.0969311	100	1	1500	
2.585	10058.5	5.25358	0.096804	100	1	1500	
2.59	10112.6	6.45366	0.0967601	100	1	1500	
2.595	10152.6	6.4256	0.0966755	100	1	1500	
2.6	10177.3	5.58623	0.0968365	100	1	1500	
2.605	10187.7	6.08458	0.0965813	100	1	1500	
2.61	10187	7.00188	0.0961816	100	1	1500	
2.615	10177.3	7.32273	0.0954768	100	1	1500	
2.62	10159.7	7.14395	0.0948402	100	1	1500	
2.625	10131.2	6.49034	0.09451	100	1	1500	
2.63	10087.4	6.13853	0.0941004	100	1	1500	
2.635	10022.6	7.82839	0.09335	100	1	1500	
2.64	9934.44	7.42216	0.0923699	100	1	1500	
2.645	9822.38	7.02972	0.0912773	100	1	1500	
2.65	9689.35	7.09985	0.090249	100	1	1500	
2.655	9535.44	7.57324	0.0891235	100	1	1500	
2.66	9363.06	8.12071	0.0877483	100	1	1500	
2.665	9176.47	8.24297	0.0868619	100	1	1500	
2.67	8978.76	7.62406	0.08558	100	1	1500	
2.675	8774.44	8.01291	0.0844889	100	1	1500	
2.68	8567.84	8.43555	0.0834018	100	1	1500	
2.685	8360.59	8.08798	0.082232	100	1	1500	
2.69	8152.9	8.21594	0.0811653	100	1	1500	
2.695	7945.21	7.78213	0.0799642	100	1	1500	
2.7	7735.56	8.30779	0.0786678	100	1	1500	
2.705	7522.49	8.55608	0.077406	100	1	1500	
2.71	7306.93	8.59998	0.0761278	100	1	1500	
2.715	7090.35	7.59473	0.0748384	100	1	1500	
2.72	6872.14	8.95511	0.0735754	100	1	1500	
2.725	6655.23	8.06389	0.0723315	100	1	1500	
2.73	6443.61	8.56737	0.0711379	100	1	1500	
2.735	6239.83	8.18058	0.0700528	100	1	1500	
2.74	6050.68	7.55885	0.0690766	100	1	1500	
2.745	5863.09	8.88456	0.0679052	100	1	1500	
2.75	5708.8	8.84617	0.0679729	100	1	1500	
2.755	5569.57	8.35084	0.0684063	100	1	1500	
2.76	5439.87	6.90222	0.0683718	100	1	1500	
2.765	5319.36	7.71345	0.0678591	100	1	1500	
2.77	5209.14	7.53352	0.0679758	100	1	1500	
2.775	5111.97	7.71197	0.0688463	100	1	1500	
2.78	5037.37	6.93415	0.0699934	100	1	1500	
2.785	4958.41	7.12273	0.0717774	100	1	1500	
2.79	4903.23	7.88049	0.0742619	100	1	1500	
2.795	4828.28	7.73648	0.0779506	100	1	1500	
2.8	4771.03	6.97272	0.0828658	100	1	1500	
2.805	4724.39	7.24865	0.0895986	100	1	1500	
2.81	4682.11	6.84641	0.0994441	100	1	1500	
2.815	4641.45	6.88567	0.108541	100	1	1500	
2.82	4601.84	6.91676	0.115762	100	1	1500	
2.825	4560.87	6.93247	0.121599	100	1	1500	
2.83	4526.73	6.95702	0.140556	100	1	1500	
2.835	4477.76	6.2013	0.122153	100	1	1500	
2.84	4445.58	6.38866	0.122096	100	1	1500	
2.845	4433.94	6.53657	0.123187	100	1	1500	
2.85	4404.74	6.76779	0.125063	100	1	1500	
2.855	4382.99	6.33893	0.126472	100	1	1500	
2.86	4368.72	6.39015	0.129081	100	1	1500	
2.865	4356.01	6.3092	0.132957	100	1	1500	
2.87	4340.81	6.3292	0.140325	100	1	1500	
2.875	4321.19	6.25343	0.150716	100	1	1500	
2.88	4296.17	6.28334	0.163964	100	1	1500	
2.885	4262.47	6.23098	0.18032	100	1	1500	
2.89	4217.67	6.27551	0.19695	100	1	1500	
2.895	4164.45	6.25069	0.210488	100	1	1500	
2.9	4100.09	6.26338	0.221911	100	1	1500	
2.905	4030.65	6.25242	0.237328	100	1	1500	
2.91	3944.15	6.31331	0.254988	100	1	1500	
2.915	3850.1	6.59264	0.258094	100	1	1500	
2.92	3744.95	6.32534	0.257802	100	1	1500	
2.925	3631.75	6.3609	0.273012	100	1	1500	
2.93	3511.52	6.63876	0.270563	100	1	1500	
2.935	3385.25	7.00475	0.267384	100	1	1500	
2.94	3257.7	7.41489	0.271752	100	1	1500	
2.945	3125.83	7.25827	0.272267	100	1	1500	
2.95	2983.22	7.40226	0.268675	100	1	1500	
2.955	2842.7	7.35328	0.256412	100	1	1500	
2.96	2711.01	8.23445	0.222327	100	1	1500	
2.965	2572.24	8.55181	0.235408	100	1	1500	
2.97	2441.99	9.35592	0.194198	100	1	1500	
2.975	2322.52	8.22376	0.164663	100	1	1500	
2.98	2207.82	9.58031	0.172288	100	1	1500	
2.985	2106.38	4.99639	0.187719	100	1	1500	
2.99	2011.71	6.76999	0.176351	100	1	1500	
2.995	1919.44	7.68523	0.154205	100	1	1500	
3	1829.49	7.29718	0.143843	100	1	1500	
3.005	1744.22	5.78906	0.166952	100	1	1500	
3.01	1658.43	6.24435	0.134137	100	1	1500	
3.015	1575.37	5.89231	0.111923	100	1	1500	
3.02	1492.93	5.96506	0.0993813	100	1	1500	
3.025	1410.97	5.60587	0.0989514	100	1	1500	
3.03	1332.33	5.56774	0.0927249	100	1	1500	
3.035	1257.49	5.51848	0.08473	100	1	1500	
3.04	1185.15	5.52022	0.0712627	100	1	1500	
3.045	1115.86	5.44957	0.0662586	100	1	1500	
3.05	1049.36	5.35907	0.0627737	100	1	1500	
3.055	984.719	5.4072	0.0569886	100	1	1500	
3.06	921.625	5.3465	0.0505558	100	1	1500	
3.065	860.376	5.38265	0.0453229	100	1	1500	
3.07	801.223	5.31876	0.0425334	100	1	1500	
3.075	744.679	5.31805	0.0408393	100	1	1500	
3.08	690.531	5.25603	0.0342112	100	1	1500	
3.085	638.315	5.33202	0.0298389	100	1	1500	
3.09	587.972	5.16305	0.027861	100	1	1500	
3.095	539.606	5.06043	0.0239948	100	1	1500	
3.1	493.724	4.81681	0.0212803	100	1	1500	
3.105	450.692	4.49349	0.0180586	100	1	1500	
3.11	410.47	4.68175	0.0159809	100	1	1500	
3.115	373.35	4.55685	0.0136418	100	1	1500	
3.12	339.486	4.80517	0.0129098	100	1	1500	
3.125	309.146	4.71373	0.0116904	100	1	1500	
3.13	282.368	4.91012	0.00923685	100	1	1500	
3.135	259.141	5.07006	0.00738555	100	1	1500	
3.14	239.372	4.87365	0.00643076	100	1	1500	
3.145	222.777	3.89269	0.00551177	100	1	1500	
3.15	209.163	3.52258	0.00473257	100	1	1500	
3.155	198.439	3.52568	0.0044049	100	1	1500	
3.16	191.512	3.38491	0.00391509	100	1	1500	
3.165	188.242	3.14176	0.00383965	100	1	1500	
3.17	182.311	3.21023	0.00377696	100	1	1500	
3.175	177.696	3.21964	0.00355653	100	1	1500	
3.18	174.206	3.15928	0.00348231	100	1	1500	
3.185	170.868	3.16648	0.00335192	100	1	1500	
3.19	166.974	3.13967	0.00330758	100	1	1500	
3.195	162.49	3.13432	0.00319355	100	1	1500	
3.2	157.654	3.1097	0.00312909	100	1	1500	
3.205	152.818	3.10804	0.00301297	100	1	1500	
3.21	148.38	3.08325	0.00299241	100	1	1500	
3.215	144.811	3.0755	0.00310256	100	1	1500	
3.22	142.388	2.95513	0.00318969	100	1	1500	
3.225	141.198	2.9498	0.00349415	100	1	1500	
3.23	140.869	2.94044	0.00437999	100	1	1500	
3.235	141.425	2.93661	0.00557255	100	1	1500	
3.24	142.93	2.95902	0.00621369	100	1	1500	
3.245	145.547	2.95289	0.00674749	100	1	1500	
3.25	149.015	2.88842	0.00657111	100	1	1500	
3.255	153.005	2.8846	0.00626381	100	1	1500	
3.26	157.487	2.8696	0.00597869	100	1	1500	
3.265	162.303	2.09822	0.00557702	100	1	1500	
3.27	166.873	2.30657	0.00547835	100	1	1500	
3.275	171.38	2.30541	0.00560291	100	1	1500	
3.28	175.807	2.15139	0.00558973	100	1	1500	
3.285	179.967	2.15903	0.00580042	100	1	1500	
3.29	184.394	2.16303	0.00639447	100	1	1500	
3.295	189.028	2.59296	0.00644154	100	1	1500	
3.3	193.191	2.57557	0.00665387	100	1	1500	
3.305	196.811	2.56747	0.00707671	100	1	1500	
3.31	199.736	2.48948	0.00713741	100	1	1500	
3.315	201.664	2.5056	0.00742814	100	1	1500	
3.32	203.235	2.52191	0.00803399	100	1	1500	
3.325	204.544	2.53974	0.00812015	100	1	1500	
3.33	205.128	2.55246	0.00829607	100	1	1500	
3.335	205.918	2.56413	0.00873358	100	1	1500	
3.34	206.38	2.6141	0.00844129	100	1	1500	
3.345	205.903	2.59271	0.00832592	100	1	1500	
3.35	205.211	2.5484	0.00881761	100	1	1500	
3.355	204.616	2.56505	0.00871286	100	1	1500	
3.36	203.964	2.59865	0.0093819	100	1	1500	
3.365	204.109	2.6226	0.0107656	100	1	1500	
3.37	205.104	2.82321	0.011851	100	1	1500	
3.375	206.535	2.84659	0.013445	100	1	1500	
3.38	208.698	2.88716	0.0147254	100	1	1500	
3.385	213.18	3.28688	0.0142267	100	1	1500	
3.39	217.593	3.29815	0.0149937	100	1	1500	
3.395	222.031	3.23604	0.0145509	100	1	1500	
3.4	226.158	2.93009	0.0133759	100	1	1500	
3.405	229.625	2.92031	0.0127933	100	1	1500	
3.41	233.118	2.72033	0.0122143	100	1	1500	
3.415	236.718	2.70143	0.0118498	100	1	1500	
3.42	239.806	2.62242	0.0120362	100	1	1500	
3.425	242.538	2.61088	0.0126958	100	1	1500	
3.43	244.846	2.80795	0.0127628	100	1	1500	
3.435	246.38	2.7528	0.0126816	100	1	1500	
3.44	247.454	2.62431	0.0129926	100	1	1500	
3.445	247.978	2.47796	0.0133885	100	1	1500	
3.45	247.58	2.99119	0.0137543	100	1	1500	
3.455	246.793	2.48965	0.0144346	100	1	1500	
3.46	246.421	2.56176	0.0147474	100	1	1500	
3.465	246.863	2.51368	0.0152348	100	1	1500	
3.47	248.64	2.51061	0.0159133	100	1	1500	
3.475	251.954	3.2634	0.0165047	100	1	1500	
3.48	256.771	2.69942	0.0177558	100	1	1500	
3.485	263.489	3.50349	0.0195867	100	1	1500	
3.49	272.13	3.50883	0.0219066	100	1	1500	
3.495	282.36	3.89213	0.0247706	100	1	1500	
3.5	294.249	3.87753	0.0274487	100	1	1500	
3.505	307.504	3.89735	0.0298451	100	1	1500	
3.51	321.746	4.05637	0.0323934	100	1	1500	
3.515	336.686	4.05987	0.0348864	100	1	1500	
3.52	351.659	4.06591	0.0362651	100	1	1500	
3.525	365.718	4.07814	0.036207	100	1	1500	
3.53	377.606	4.09392	0.0350563	100	1	1500	
3.535	385.686	4.10877	0.0327903	100	1	1500	
