CEINMS output
datacolumns 81
datarows 91
endheader
time	addbrev_r	addlong_r	addmagDist_r	addmagIsch_r	addmagMid_r	addmagProx_r	bflh_r	bfsh_r	edl_r	ehl_r	fdl_r	fhl_r	gaslat_r	gasmed_r	glmax1_r	glmax2_r	glmax3_r	glmed1_r	glmed2_r	glmed3_r	glmin1_r	glmin2_r	glmin3_r	grac_r	iliacus_r	perbrev_r	perlong_r	piri_r	psoas_r	recfem_r	sart_r	semimem_r	semiten_r	soleus_r	tfl_r	tibant_r	tibpost_r	vasint_r	vaslat_r	vasmed_r	addbrev_l	addlong_l	addmagDist_l	addmagIsch_l	addmagMid_l	addmagProx_l	bflh_l	bfsh_l	edl_l	ehl_l	fdl_l	fhl_l	gaslat_l	gasmed_l	glmax1_l	glmax2_l	glmax3_l	glmed1_l	glmed2_l	glmed3_l	glmin1_l	glmin2_l	glmin3_l	grac_l	iliacus_l	perbrev_l	perlong_l	piri_l	psoas_l	recfem_l	sart_l	semimem_l	semiten_l	soleus_l	tfl_l	tibant_l	tibpost_l	vasint_l	vaslat_l	vasmed_l	
3.19	219.248	-0.0587971	1485.25	1506.97	2038.05	-0.231105	5181.2	4318.54	450.978	214.749	733.085	2276.15	812.743	5447.55	851.41	2540.73	2643.83	24701.6	15909.3	3373.3	3099.84	3272.9	3700.79	283.607	275.667	239.241	2048.98	2781.43	287.279	-0.329326	371.981	14274.7	3830.82	20586.5	0.155198	702.359	2981.44	479.579	1590.47	825.458	33.7779	2331.38	-0.0290484	-0.0654925	-0.0487711	24.1408	100.643	112.975	782.062	1387.33	485.127	2007.23	1471.52	-0.801009	-0.262033	-0.0297377	-0.00507468	-0.117199	-0.240935	-0.303901	-0.0834871	-0.0746932	-0.141365	0.28053	-0.0135103	2199.08	5414.91	-0.269439	-0.024245	10689.9	218.688	6386.82	939.086	-2.37984	-0.105723	5962.24	8396.1	-0.0979465	-1.41443	-0.177386	
3.195	208.079	-0.0591708	1379.76	1410.91	1857.96	-0.231167	5087.52	4640.25	460.537	219.82	730.517	2262.15	847.827	5676.19	803.809	2432.82	2476.03	24702.7	15779.1	3200.98	3100.06	3273.06	3700.84	283.379	303.935	237.909	2038.67	2628.24	311.325	-0.32804	399.565	14349.9	3834.94	20045.3	1.20697	724.085	2965.83	446.267	1493.99	772.199	30.8191	2274.6	-0.0314333	-0.0679263	-0.0514425	18.2325	78.6323	101.177	785.508	1387.34	484.407	1982.75	1375.43	-0.801129	-0.262804	-0.0297467	-0.00507629	-0.111448	-0.240171	-0.303892	-0.0810546	-0.0706903	-0.141369	0.0170204	-0.011344	2185.28	5414.88	-0.269478	-0.0235544	10690.2	216.076	5751.31	866.138	-2.38042	-0.105738	5962.27	8395.99	-0.0979734	-1.36569	-0.145474	
3.2	197.791	-0.059599	1276.92	1310.89	1689.64	-0.232279	4970.2	4990.72	471.289	225.418	727.524	2246.92	893.536	5959.14	753.754	2322.68	2313.28	24703.7	15607.4	3024.24	3100.27	3273.2	3700.87	283.071	334.669	236.356	2026.95	2456.69	338.373	-0.326917	429.661	14414.7	3834.24	19459.8	4.34925	748.146	2948.4	407.554	1380.55	710.25	27.7349	2212.68	-0.0347112	-0.0716072	-0.0550569	12.6381	39.8697	81.1626	789.09	1387.35	484.172	1902.91	1218.71	-0.812157	-0.266975	-0.0309674	-0.00537597	-0.104384	-0.238839	-0.301014	-0.0785891	-0.0675686	-0.141372	-0.00290245	-0.00860896	2185.93	5414.88	-0.269568	-0.0227023	10690.4	212.968	5053.4	789.007	-2.38311	-0.105776	5962.31	8396.12	-0.0983848	-1.3003	-0.103834	
3.205	188.666	-0.0600518	1180.96	1214.76	1535.75	-0.233866	4835.85	5360.34	482.126	231.007	724.67	2232.58	946.757	6270.42	702.331	2212.68	2158.74	24704.6	15383.1	2847	3100.46	3273.33	3700.89	282.63	367.478	234.855	2015.99	2279.86	367.203	-0.32453	462.34	14442.1	3825.14	18907.5	10.6315	772.286	2931.77	367.775	1262.82	646.556	24.5414	2124.73	-0.0376948	-0.0752271	-0.058429	8.45269	11.2304	63.284	778.82	1387.34	487.135	1824.45	1076.78	-0.830082	-0.27039	-0.0334743	-0.00588603	-0.0974574	-0.232284	-0.298299	-0.0761976	-0.065616	-0.141376	-0.00661637	-0.00981535	2185.07	5414.87	-0.26968	-0.0291022	10690.7	209.332	4424.84	719.76	-2.38626	-0.105822	5962.34	8396.17	-0.0989708	-1.22608	-0.0570415	
3.21	180.716	-0.0605101	1092.5	1124.93	1396.4	-0.235559	4685.77	5741.73	491.779	235.972	722.214	2220.23	1003.21	6589.02	649.697	2102.87	2012.33	24705.2	15095.1	2671.51	3100.63	3273.43	3700.88	281.853	402.498	233.563	2006.67	2105.25	397.251	-0.32003	497.73	14409.7	3804.42	18438	19.805	793.893	2917.39	330.024	1149.91	585.91	19.91	2020.92	-0.0396904	-0.0778279	-0.0609591	5.46611	0.304443	49.5853	764.033	1387.33	494.089	1768.21	966.535	-0.854386	-0.271812	-0.0371618	-0.00655447	-0.0887483	-0.224509	-0.297028	-0.0740178	-0.0642815	-0.14138	-0.00953427	-0.0140097	2182.02	5414.86	-0.269797	-0.0389613	10690.9	205.14	3875.68	656.652	-2.38881	-0.105872	5962.35	8396.15	-0.0995967	-1.15033	-0.0093675	
3.215	173.975	-0.0609671	1011.07	1041.02	1271.42	-0.237232	4518.17	6127.69	499.541	239.961	720.235	2210.38	1061.16	6912.91	595.981	1992.92	1873.58	24705.7	14734.4	2500.32	3100.77	3273.51	3700.85	280.609	440.188	232.53	1999.25	1936.38	428.568	-0.313194	535.93	14305.1	3769.88	18069.8	30.7168	811.395	2905.87	295.273	1044.81	529.798	15.2107	1921.63	-0.0407033	-0.0790287	-0.0627786	3.2145	-0.0168039	38.2975	762.467	1387.34	501.36	1731.78	877.67	-0.883611	-0.271943	-0.0418379	-0.00736621	-0.0807679	-0.220368	-0.296404	-0.0717439	-0.0610702	-0.142048	-0.0119713	-0.018796	2180.13	5414.86	-0.271211	-0.0474881	10691	200.367	3388.05	597.331	-2.39051	-0.106433	5962.35	8396.13	-0.100921	-1.07545	5.99189	
3.22	168.512	-0.0614224	936.221	962.508	1160.53	-0.238872	4332.49	6510.21	504.996	242.755	718.826	2203.53	1121.29	7248.05	541.504	1882.62	1742.01	24706	14295.2	2336.07	3100.87	3273.55	3700.78	278.831	480.955	231.796	1994.05	1776.24	461.357	-0.30397	576.952	14120.3	3720.15	17814.7	42.4362	823.687	2897.78	263.742	948.408	478.625	11.2853	1833.47	-0.0416853	-0.0796213	-0.0647067	1.49599	-0.0386583	28.0405	770.204	1387.35	503.653	1707.97	799.939	-0.915351	-0.271571	-0.0473245	-0.00831577	-0.073154	-0.219642	-0.296055	-0.069082	-0.0575204	-0.144701	-0.0143265	-0.0222426	2179.36	5414.87	-0.273845	-0.053037	10691.1	194.99	2951.63	541.878	-2.3915	-0.107478	5962.33	8396.13	-0.103363	-1.00137	32.0282	
3.225	164.395	-0.0618766	867.472	888.998	1063.06	-0.240496	4130.38	6881.28	507.77	244.152	718.098	2200.19	1184.93	7599.68	486.721	1771.94	1617.07	24705.9	13776.5	2180.86	3100.93	3273.56	3700.69	276.497	525.111	231.409	1991.45	1627.43	495.954	-0.292224	620.72	13851.9	3654.84	17686.1	54.5538	829.764	2893.71	235.593	861.431	432.73	8.12376	1749.77	-0.0429643	-0.07995	-0.0671355	0.372446	-0.0594906	18.635	778.252	1387.34	502.223	1691.89	728.981	-0.94735	-0.270919	-0.0536392	-0.00947125	-0.0642127	-0.216086	-0.295016	-0.0665891	-0.0544568	-0.148819	-0.0167881	-0.0245673	2179.3	5414.88	-0.277106	-0.0565619	10691.2	189.002	2557.99	490.826	-2.39202	-0.108775	5962.29	8396.15	-0.106968	-0.928208	74.7774	
3.23	161.69	-0.0623303	804.352	820.074	977.788	-0.242113	3915.13	7233.82	507.545	243.989	718.139	2200.74	1253.23	7972.19	432.209	1661.43	1498.08	24705.7	13182.8	2036.36	3100.96	3273.54	3700.57	273.634	572.862	231.412	1991.74	1492.2	532.703	-0.277784	667.076	13501.2	3574.55	17696.4	66.855	828.851	2894.12	210.862	784.22	392.218	5.49835	1662.76	-0.0443247	-0.079892	-0.0698839	-0.000153578	-0.0796402	10.5397	780.074	1387.33	499.816	1681.49	663.722	-0.978135	-0.269864	-0.0608404	-0.0109294	-0.0544328	-0.211233	-0.293444	-0.064081	-0.0514426	-0.153329	-0.0193833	-0.0264788	2180.59	5414.91	-0.280554	-0.059161	10691.3	182.415	2207.35	444.39	-2.39224	-0.110093	5962.23	8396.18	-0.111604	-0.856162	130.601	
3.235	160.466	-0.0627838	746.425	755.439	903.468	-0.243728	3691.33	7561.91	504.132	242.171	718.996	2205.41	1327.25	8370.46	378.637	1551.76	1384.28	24705.1	12524.8	1903.7	3100.94	3273.48	3700.42	270.317	624.292	231.832	1995.1	1371.6	571.943	-0.260565	715.797	13075.1	3480.84	17855.1	79.1023	820.553	2899.3	189.389	716.504	356.863	3.29788	1568.41	-0.0455829	-0.0794681	-0.0726981	-0.00382832	-0.0990828	4.35414	772.843	1387.31	497.973	1676.28	603.827	-1.0067	-0.268248	-0.0689431	-0.0127627	-0.0443294	-0.20687	-0.291642	-0.0614128	-0.0479312	-0.157542	-0.022087	-0.0283859	2184	5414.95	-0.284465	-0.0614678	10691.3	175.264	1898.62	402.645	-2.39229	-0.110168	5962.14	8396.22	-0.117105	-0.784919	197.285	
3.24	160.792	-0.0632371	693.262	694.853	838.943	-0.24534	3464.02	7860.03	497.491	238.681	720.682	2214.28	1408.09	8799.98	326.749	1443.67	1274.88	24704.3	11818.6	1782.62	3100.88	3273.38	3700.24	266.66	679.341	232.678	2001.6	1264.95	613.996	-0.240618	766.225	12584	3376.04	18169.9	91.0434	804.904	2909.34	170.921	657.693	326.289	1.55229	1465.73	-0.0467875	-0.079217	-0.075494	-0.00842025	-0.117684	0.698504	761.008	1387.29	497.143	1676.42	548.774	-1.03213	-0.265978	-0.0779097	-0.015005	-0.0337933	-0.202387	-0.289414	-0.0585516	-0.0442925	-0.161387	-0.0248779	-0.0304346	2189.93	5415.01	-0.28885	-0.0637989	10691.3	167.613	1630.15	365.642	-2.39223	-0.108376	5962.02	8396.28	-0.123321	-0.713809	273.821	
3.245	162.745	-0.062979	644.437	638.019	783.203	-0.24695	3237.87	8124.62	487.733	233.582	723.169	2227.27	1496.97	9265.85	277.34	1337.94	1169.4	24703.2	11085.1	1670.78	3100.78	3273.25	3700.04	262.813	737.653	233.946	2011.2	1171.71	659.16	-0.218122	816.892	12040.5	3262.99	18646	102.461	782.37	2924.13	155.18	607.078	300.075	0.386792	1355.23	-0.0479502	-0.0794287	-0.078255	-0.0132642	-0.135297	-0.00233662	747.007	1387.25	497.405	1682.24	497.82	-1.05426	-0.263001	-0.0876776	-0.0176619	-0.0224955	-0.1972	-0.286522	-0.0555817	-0.0406671	-0.164905	-0.027744	-0.0327002	2198.54	5415.07	-0.293508	-0.0663403	10691.3	159.542	1401.39	333.308	-2.39212	-0.105458	5961.87	8396.35	-0.130426	-0.642993	358.791	
3.25	166.406	-0.0609259	599.546	584.544	735.389	-0.248557	3016.57	8355.74	475.119	227.018	726.392	2244.15	1595.24	9772.12	231.178	1235.31	1068.4	24701.9	10348.9	1567.62	3100.64	3273.08	3699.81	258.944	798.681	235.616	2023.77	1091.1	707.676	-0.19336	866.483	11459.4	3144.84	19285.8	113.186	753.853	2943.35	141.863	563.854	277.767	0.000115881	1237.68	-0.0489773	-0.0799424	-0.0809538	-0.0183962	-0.151779	-0.0109305	730.865	1387.22	498.818	1694.11	450.163	-1.07338	-0.259259	-0.0981771	-0.0207219	-0.010367	-0.19156	-0.28289	-0.0525374	-0.0368656	-0.168051	-0.030672	-0.0352883	2209.97	5415.15	-0.298221	-0.0692582	10691.2	151.151	1211.22	305.344	-2.39196	-0.102431	5961.7	8396.43	-0.138747	-0.573783	449.314	
3.255	171.865	-0.0575544	558.231	533.991	694.798	-0.25016	2802.68	8555.6	460.051	219.206	730.25	2264.48	1704.21	10322.4	188.931	1136.47	972.607	24700.3	9626.29	1472.57	3100.45	3272.88	3699.56	255.239	861.839	237.652	2039.04	1022.2	759.706	-0.166711	913.975	10856.2	3024.73	20086.7	123.082	720.6	2966.49	130.644	527.115	258.866	-0.00449817	1114.06	-0.0497904	-0.080535	-0.0835768	-0.0238433	-0.166979	-0.0197434	712.493	1387.17	501.435	1712.48	405.317	-1.08851	-0.254698	-0.10934	-0.0241661	0.0132249	-0.18464	-0.278259	-0.0493896	-0.0328716	-0.168411	-0.0336414	-0.0383444	2224.21	5415.24	-0.303825	-0.0727014	10691.2	142.54	1055.33	281.407	-2.39177	-0.0998435	5961.5	8396.54	-0.148957	-0.507945	541.557	
3.26	179.223	-0.0534704	520.228	486.166	660.891	-0.251761	2598.29	8728.38	443.051	210.427	734.608	2287.68	1824.9	10916.6	151.235	1042.02	882.655	24698.4	8925.83	1384.76	3100.22	3272.65	3699.28	251.886	926.54	239.999	2056.63	963.9	815.316	-0.138634	958.597	10246.4	2905.68	21039.2	132.074	684.069	2992.87	121.177	495.853	242.825	-0.00988974	987.547	-0.0503068	-0.0809724	-0.0860918	-0.0296156	-0.180769	-0.0286884	692.16	1385.66	505.202	1737.85	363.439	-1.09921	-0.24928	-0.121125	-0.0279729	2.91442	-0.176895	-0.272591	-0.0461793	-0.0287296	-0.163588	-0.0366233	-0.0420265	2241.13	5415.34	-0.310742	-0.0767944	10691.2	133.805	928.385	261.154	-2.39157	-0.0978233	5961.28	8396.67	-0.161537	-0.4467	632.402	
3.265	188.588	-0.0487651	485.53	441.328	633.282	-0.253358	2405.56	8879.17	424.742	201.009	739.309	2313.03	1957.78	11551.4	120.702	952.384	799.061	24696.4	8255.02	1303.12	3099.96	3272.39	3698.98	249.071	992.219	242.593	2076.06	914.768	874.478	-0.109661	999.817	9645.01	2790.28	22125.9	140.126	645.769	3021.63	113.106	468.994	229.072	-0.0157561	861.173	-0.0503837	-0.0809892	-0.0884434	-0.0357073	-0.193062	-0.037677	670.206	1378.31	510.174	1770.73	324.718	-1.10602	-0.242989	-0.133505	-0.0321215	11.5182	-0.168392	-0.265777	-0.0429601	-0.024499	-0.156618	-0.0395829	-0.0464991	2260.29	5415.44	-0.318684	-0.0816331	10691.1	125.04	825.455	244.267	-2.39136	-0.0963488	5961.03	8396.83	-0.176607	-0.390638	719.689	
3.27	200.123	-0.0433338	454.251	399.716	611.716	-0.254952	2226.31	9013.81	405.804	191.312	744.18	2339.71	2102.44	12221.8	97.2405	867.857	722.186	24693.8	7619.01	1226.38	3099.66	3272.09	3698.66	246.977	1058.37	245.354	2096.78	873.066	937.084	-0.0803795	1037.29	9065.91	2680.67	23322.1	147.174	607.099	3051.83	106.078	445.426	217.023	-0.0220965	737.372	-0.0497448	-0.0793185	-0.0905912	-0.0421061	-0.203786	-0.0465832	646.953	1365.47	516.42	1811.53	289.273	-1.10998	-0.235823	-0.146583	-0.036652	25.1437	-0.159179	-0.257684	-0.0395391	-0.0199375	-0.147903	-0.042483	-0.0519523	2280.29	5415.56	-0.326456	-0.0872794	10691.1	116.333	742.281	230.475	-2.39113	-0.0953973	5960.75	8397.03	-0.190947	-0.339991	801.858	
3.275	214.085	-0.0371228	426.445	361.498	596.042	-0.256543	2061.63	9138.62	386.922	181.692	749.046	2366.93	2257.56	12920.9	79.2895	788.539	652.215	24221.3	7020.42	1153.18	3099.32	3271.76	3698.33	245.772	1124.58	248.195	2118.12	836.853	1002.85	-0.051413	1070.86	8521.42	2578.5	24595.5	153.147	569.272	3082.44	99.7462	424.033	206.099	-0.0289005	619.519	-0.0484769	-0.074997	-0.0925205	-0.0487808	-0.212888	-0.0552177	622.732	1347.71	523.936	1860.34	257.155	-1.11311	-0.227828	-0.16045	-0.0416067	43.169	-0.148618	-0.248236	-0.0361012	-0.0147917	-0.138496	-0.0452853	-0.0584354	2300.21	5415.68	-0.333253	-0.0931618	10691.1	107.754	675.186	219.575	-2.39089	-0.0949507	5960.46	8397.25	-0.198377	-0.29445	878.254	
3.28	230.885	-0.030122	402.109	326.77	586.179	-0.25813	1911.91	9259.81	368.751	172.483	753.737	2393.78	2420.77	13638.7	65.2779	714.349	589.152	22966.7	6459.62	1082.23	3098.95	3271.41	3697.97	245.618	1190.54	251.024	2139.42	804.071	1071.41	-0.0233946	1100.48	8021.65	2485.19	25905	157.982	533.332	3112.43	93.7849	403.731	195.741	-0.0361428	512.151	-0.0463935	-0.0678327	-0.0942185	-0.055682	-0.220362	-0.0634094	597.9	1325.66	532.729	1916.6	228.349	-1.11814	-0.21903	-0.175078	-0.0469887	64.6289	-0.137657	-0.237646	-0.0327449	-0.0087411	-0.127258	-0.0479525	-0.0662039	2320.37	5415.8	-0.339502	-0.100116	10691.1	99.3556	621.292	211.455	-2.39064	-0.0949056	5960.15	8397.5	-0.197993	-0.252348	951.709	
3.285	251.093	-0.0223191	381.197	295.55	582.083	-0.259714	1777.09	9383.32	351.854	163.962	758.102	2419.34	2588.69	14362.3	54.0836	645.049	532.827	21088.6	5934.84	1012.43	3098.54	3271.03	3664.54	246.666	1256.06	253.746	2159.96	772.633	1142.4	-0.00134305	1126.21	7574.19	2402.15	27202.3	161.628	500.201	3140.8	87.896	383.501	185.428	-0.0437846	418.186	-0.0429084	-0.0596582	-0.0956658	-0.0627404	-0.226231	-0.0710363	572.814	1299.95	542.753	1979.14	202.779	-1.12478	-0.209461	-0.190369	-0.0527768	91.4082	-0.125098	-0.225126	-0.0295183	-0.0031948	-0.11526	-0.0504446	-0.075683	2340.67	5415.93	-0.346221	-0.108774	10691.1	91.1642	578.986	206.14	-2.39038	-0.0950038	5959.83	8397.76	-0.192221	-0.236787	1011.24	
3.29	275.461	-0.0136965	363.618	267.786	583.726	-0.261295	1657.19	9514.74	336.683	156.349	762.012	2442.73	2757.45	15076.8	44.9788	580.267	482.908	18779.9	5442.4	942.693	3098.11	3270.62	3515.2	249.054	1321.08	256.268	2179.03	740.557	1215.54	2.48396	1148.18	7183.94	2330.38	28434.6	164.057	470.648	3166.65	81.8236	362.428	174.698	-0.0517671	336.681	-0.0383849	-0.0513204	-0.0963142	-0.0698741	-0.230464	-0.0780156	547.821	1271.32	553.941	2046.46	180.318	-1.13097	-0.1992	-0.1834	-0.0589271	120.609	-0.111919	-0.21126	-0.0263347	0.0781193	-0.103364	-0.0527183	-0.0870835	2360.57	5416.06	-0.35417	-0.118946	10691.1	83.1773	547.447	203.722	-2.39011	-0.0951132	5959.49	8398.02	-0.185008	-0.269243	1046.61	
3.295	304.983	-0.0042414	349.247	243.356	591.08	-0.262872	1552.76	9658.78	323.599	149.811	765.361	2463.19	2922.84	15765.7	37.482	519.54	438.931	16275.2	4976.51	871.964	3097.65	3270.19	3274.2	252.915	1385.68	258.503	2195.95	706.137	1290.62	9.02514	1166.56	6853.24	2270.57	29547.5	165.265	445.286	3189.17	75.3699	339.756	163.178	-0.0600137	263.78	-0.0334678	-0.0430292	-0.0957096	-0.0769923	-0.23294	-0.0842959	523.247	1240.46	566.194	2116.91	160.847	-1.13547	-0.188351	-0.166051	-0.0653863	151.278	-0.0983993	-0.196203	-0.0233898	1.53126	-0.091412	-0.0547385	-0.100168	2379.69	5416.19	-0.362563	-0.130254	10691.2	75.3627	526.375	204.411	-2.38984	-0.0957835	5959.15	8398.27	-0.178839	-0.315178	1065.02	
3.3	340.911	0.361052	337.929	222.083	604.174	-0.264446	1463.91	9819.05	312.889	144.484	768.072	2480.06	3080.39	16411.7	31.2531	462.389	400.329	13862.3	4528.18	799.376	3097.17	3269.73	2966.73	258.366	1450.23	260.37	2210.08	668.112	1367.52	17.4169	1181.51	6582.32	2223.02	30488.5	165.276	424.623	3207.66	68.4117	314.929	150.604	-0.0684344	195.548	-0.0282336	-0.0347542	-0.0939273	-0.0839957	-0.233493	-0.0898695	499.383	1208.02	579.383	2188.8	144.239	-1.1382	-0.177035	-0.148189	-0.0720177	182.551	-0.0845229	-0.179978	-0.0207858	4.54321	-0.0791911	-0.0564812	-0.114541	2397.79	5416.31	-0.370321	-0.142523	10691.2	67.6682	516.388	208.593	-2.38957	-0.0976474	5958.8	8398.52	-0.174314	-0.352623	1075.85	
3.305	384.757	3.87178	329.481	203.745	623.016	-0.266017	1390.32	9997.96	304.802	140.484	770.085	2492.73	3225.51	16997.5	26.0393	408.301	366.462	11774.1	4092.67	724.339	3096.66	3269.25	2618.24	265.512	1515.44	261.797	2220.81	625.891	1446.17	25.8058	1193.2	6369.63	2187.74	31208.9	164.144	409.125	3221.53	60.9209	287.66	136.853	-0.0769268	133.629	-0.0227396	-0.0263942	-0.0915246	-0.0907789	-0.231847	-0.0947608	476.486	1174.71	593.36	2260.55	130.348	-1.13967	-0.165393	-0.129995	-0.0610376	213.093	-0.0704708	-0.162759	-0.0185811	8.67534	-0.0668341	-0.0579304	-0.129914	2414.68	5416.44	-0.377588	-0.155784	10691.2	60.1268	519.049	216.958	-2.3893	-0.100476	5958.46	8398.76	-0.171147	-0.377987	1083.55	
3.31	438.206	11.4174	323.697	188.087	647.509	-0.267584	1331.3	10196.4	299.568	137.919	771.352	2500.66	3353.58	17504.8	21.6474	356.73	336.654	10024.8	3672.5	646.639	3096.14	3268.75	2258.72	274.441	1582.05	262.721	2227.64	579.611	1526.6	32.86	1201.78	6212.29	2164.42	31665.7	161.948	399.257	3230.27	52.9938	257.977	121.97	-0.0853773	80.5998	-0.0169538	-0.0178912	-0.088766	-0.0972365	-0.227355	-0.0989967	453.819	1140.63	607.959	2330.87	119.031	-1.14042	-0.153577	-0.111271	-0.0440166	241.527	-0.0565178	-0.144807	-0.0168267	13.4355	-0.0546266	-0.0590752	-0.146129	2430.22	5416.56	-0.384691	-0.170099	10691.3	52.8393	538.635	230.4	-2.38903	-0.103798	5958.11	8398.98	-0.168942	-0.39444	1089.26	
3.315	502.591	23.2639	320.351	174.833	677.753	-0.269148	1285.83	10413.5	297.424	136.905	771.826	2503.34	3459.94	17916.1	17.9285	307.419	310.225	8578.34	3271.35	566.51	3047.7	3268.22	1925.42	285.211	1650.96	263.084	2230.08	529.864	1608.87	37.7474	1207.35	6106.43	2152.46	31822.7	158.79	395.513	3233.41	44.9299	226.301	106.207	-0.0936657	38.8205	-0.0108764	-0.0092218	-0.0857006	-0.103274	-0.216469	-0.102605	411.904	1094.54	623.933	2398.73	110.181	-1.14082	-0.141514	-0.0923214	-0.0272232	266.573	-0.0429323	-0.12641	-0.0157505	18.3187	-0.0428432	-0.0599049	-0.163152	2444.38	5416.67	-0.390731	-0.185447	10691.3	45.9065	604.18	249.132	-2.39009	-0.107043	5957.77	8399.2	-0.167445	-0.405339	1093.14	
3.32	578.921	39.5523	319.194	163.694	713.752	-0.270708	1252.66	10646.6	298.633	137.571	771.451	2500.34	3540.06	18215	14.7663	260.309	286.504	7376.68	2893.56	484.686	2772.36	3253.74	1635.56	297.846	1723	262.836	2227.74	477.218	1693.06	40.0726	1210.02	6047.51	2151	31651.8	154.794	398.419	3230.5	37.6579	193.509	90.093	-0.101672	11.1247	-0.0045332	-0.000398612	-0.0822674	-0.108813	-0.197239	-0.105621	371.663	1051.46	641.875	2463.42	103.704	-1.14108	-0.129213	-0.0732756	-0.0104013	287.132	-0.0299701	-0.10788	-0.0154741	22.8529	-0.0317303	-0.0603997	-0.180952	2457.24	5416.78	-0.395085	-0.201684	10691.3	39.4219	731.952	272.697	-2.39633	-0.109892	5957.43	8399.4	-0.166536	-0.412742	1095.27	
3.325	667.988	60.2707	319.957	154.377	755.545	-0.272265	1230.24	10891.1	303.509	140.073	770.151	2491.23	3589.57	18384.6	12.0702	215.554	264.86	6344.6	2543.81	402.412	2368.22	3030.37	1389.16	312.326	1798.99	261.933	2220.29	422.338	1779.27	39.8345	1210.28	6030.23	2158.9	31133.4	150.101	408.541	3221.06	31.6421	161.297	74.9132	-0.109283	0.0972663	0.0347667	1.40918	-0.0784631	-0.113409	-0.172397	-0.108088	341.107	1016.25	661.033	2524.58	99.531	-1.14126	-0.116842	-0.0543216	0.427526	302.363	-0.0178715	-0.0895412	-0.0155566	26.6408	-0.0215169	-0.0605281	-0.199387	2468.9	5416.88	-0.397688	-0.218595	10691.2	33.4666	920.178	301.119	-2.40746	-0.11224	5957.11	8399.59	-0.165976	-0.396959	1096.8	
3.33	770.307	85.244	322.35	146.592	803.163	-0.273818	1216.79	11141	312.441	144.611	767.829	2475.63	3604.51	18409.8	9.76815	174.877	244.715	5433.66	2226.78	321.456	1939.96	2637.72	1181.9	328.578	1879.76	260.338	2207.47	366.404	1867.54	37.3791	1210.31	6048.47	2174.73	30258.6	144.864	426.516	3204.57	26.8088	133.48	62.2672	-0.116402	-0.0204589	1.49291	6.29478	-0.0743185	-0.116909	-0.144905	-0.110045	318.198	985.579	680.302	2582.11	97.6583	-1.14141	-0.104584	-0.035681	7.18658	311.757	-0.0068455	-0.0717127	-0.0159638	29.3899	-0.0124034	-0.060252	-0.218214	2479.41	5416.97	-0.398971	-0.23594	10691.2	28.1042	1173.03	334.857	-2.42057	-0.11411	5956.81	8399.77	-0.16559	-0.37255	1098.32	
3.335	886.144	114.2	326.062	140.053	856.576	-0.266795	1210.28	11388.8	325.912	151.439	764.364	2453.16	3581.52	18277.9	7.80311	141.36	225.567	4639.33	1945.28	246.384	1574.38	2185.45	1005.04	346.498	1966.16	258.017	2189.11	310.318	1957.85	33.3302	1210.34	6095.05	2196.79	29031	139.242	453.138	3180.51	22.903	111.183	52.2481	-0.122588	-0.0438765	4.99201	14.0983	-0.0698848	-0.119474	-0.116252	-0.111509	299.681	956.621	698.908	2636.01	98.186	-1.14154	-0.092606	-0.0175574	20.8688	315.265	0.0673896	-0.0546851	-0.0168233	28.7947	-0.00454248	-0.059544	-0.23714	2488.73	5417.06	-0.399468	-0.253483	10691.1	23.3756	1499.97	374.387	-2.43218	-0.115534	5956.52	8399.93	-0.165451	-0.36276	1098.76	
3.34	1018.99	146.816	330.762	134.483	915.597	-0.250633	1208.54	11626.8	344.494	160.865	759.614	2423.49	3518.31	17979.6	6.12933	115.116	207.007	3958.87	1697.36	187.333	1294.32	1771.02	848.169	365.908	2058.96	254.949	2165.13	253.912	2050.43	28.5014	1210.37	6161.93	2223.15	27469.7	133.4	489.486	3148.35	19.6924	93.6125	44.308	-0.12783	-0.0658388	10.2966	24.152	-0.0652419	-0.121336	-0.0869473	-0.112466	283.649	929.049	716.457	2686.29	101.355	-1.14165	-0.081062	-0.000138838	39.732	313.74	1.98885	-0.0387137	-0.0181796	27.884	0.0594031	-0.0584022	-0.255863	2496.83	5417.14	-0.399683	-0.270981	10690.9	19.2978	1903.71	420.005	-2.4404	-0.116563	5956.25	8400.09	-0.165789	-0.36651	1096.25	
3.345	1176.25	182.63	336.106	129.617	979.833	-0.234455	1209.21	11846.8	368.811	173.239	753.431	2386.33	3413.87	17511.2	4.71008	94.6628	188.718	3387.41	1479.41	144.865	1082.01	1446.55	709.796	386.53	2158.87	251.123	2135.58	198.279	2145.61	23.8406	1210.39	6239.85	2251.63	25612.2	127.497	537.208	3107.62	17.0117	79.5827	37.8907	-0.132364	-0.0848377	17.0692	35.7624	-0.0604913	-0.122661	-0.0571771	-0.112892	269.312	903.469	732.77	2733.08	107.608	-1.14173	-0.0700831	2.1435	62.0553	307.766	5.49756	-0.0239982	-0.0199918	26.6306	1.33194	-0.0568797	-0.274086	2503.71	5417.21	-0.399795	-0.288191	10690.7	15.8656	2374.64	471.607	-2.44505	-0.117263	5948.45	8400.22	-0.166815	-0.375855	1089.27	
3.35	1363.87	221.01	341.734	125.206	1048.57	-0.218948	1209.85	12041.8	399.473	188.915	745.679	2341.71	3268.97	16757.9	3.51587	78.4418	170.495	2917.37	1287.1	114.661	918.604	1199.44	590.646	408.106	2266.51	246.548	2100.62	145.807	2243.49	19.8716	1210.42	6318.69	2279.89	23515.6	121.692	598.716	3058.01	14.7479	68.1496	32.6011	-0.136371	-0.100175	24.9003	48.2417	-0.0557471	-0.123555	-0.0270869	-0.112757	256.383	880.258	747.758	2776.59	117.76	-1.14175	-0.0597774	9.00473	86.2339	297.955	9.60131	-0.0106818	-0.0221832	24.9288	3.25118	-0.0550731	-0.29152	2509.4	5417.27	-0.399844	-0.304873	10690.5	13.0536	2900.22	528.92	-2.4471	-0.117714	5913.43	8400.35	-0.168652	-0.386108	1077.03	
3.355	1585.15	261.193	347.288	121.02	1120.74	-0.204	1207.99	12206.5	436.911	208.165	736.248	2289.75	3086.51	15767.3	2.52305	65.3142	152.234	2533.67	1115.08	92.4882	786.871	1010.11	491.146	430.368	2382.35	241.25	2060.6	103.331	2343.97	16.5986	1210.44	6387.73	2305.47	21253.2	116.139	676.98	2999.43	12.8205	58.6761	28.1791	-0.1399	-0.112164	33.3489	60.9568	-0.0511261	-0.124091	0.019857	-0.112018	244.709	859.458	761.368	2817	133.501	-1.14174	-0.0502256	19.2879	110.911	284.802	13.7578	-0.000850335	-0.0246589	22.7129	4.95997	-0.0530619	-0.307908	2513.99	5417.33	-0.399847	-0.320797	10690.3	10.8159	3475.62	591.64	-2.44773	-0.117993	5863.22	8400.46	-0.171353	-0.396171	1059.29	
3.36	1840.06	302.54	352.41	116.85	1194.89	-0.189814	1201.21	12337.8	481.269	231.104	725.081	2230.7	2871.78	14653.7	1.71279	54.5242	133.935	2219.2	957.686	75.5593	677.473	859.248	410.578	452.915	2506.72	235.281	2016	73.8638	2447.08	13.877	1210.46	6435.95	2325.9	18924.7	111.005	774.968	2932.13	11.1686	50.7338	24.4462	-0.14295	-0.121618	41.9794	73.3798	-0.0467411	-0.124341	10.6737	-0.110599	234.165	841.012	773.575	2854.42	158.782	-1.1429	-0.0414877	31.7794	135.029	269.934	17.5766	1.78039	-0.0273131	20.0284	2.99	-0.0508887	-0.323044	2517.61	5417.38	-0.39982	-0.335764	10690	9.09646	4123.94	659.479	-2.44812	-0.118164	5806.91	8400.55	-0.174932	-0.406482	1036.17	
3.365	2115.19	345.482	356.756	112.515	1269.18	-0.176544	1187.21	12435.6	532.393	257.694	712.191	2165.33	2632.66	13471.8	1.07034	45.5605	115.697	1959.74	812.964	62.2471	587.712	733.839	345.746	475.215	2639.75	228.717	1967.51	54.6901	2552.56	11.5784	1210.48	6452.73	2338.76	16621.1	106.456	894.848	2856.69	9.744	44.0171	21.2711	-0.145538	-0.129339	50.3911	85.0732	-0.0426948	-0.124385	38.5409	-0.108363	224.637	824.86	784.39	2888.91	197.686	-1.1458	-0.0336083	45.4189	157.752	254.134	20.8028	6.17782	-0.0300368	17.0674	0.935416	-0.0485832	-0.336778	2520.4	5417.43	-0.399812	-0.349616	10689.7	7.84136	4849.39	732.182	-2.44938	-0.11827	5749.88	8400.64	-0.179388	-0.417706	1007.92	
3.37	2380.06	390.533	360.008	107.863	1341.35	-0.164309	1163.91	12502.7	589.824	287.732	697.675	2094.61	2379.69	12255.5	0.584406	38.0552	97.7247	1743.47	682.181	51.5806	515.253	630.554	293.233	496.611	2781.41	221.659	1915.93	42.0198	2659.89	9.61686	1210.5	6428.39	2341.84	14365.1	102.649	1036.66	2774.14	8.50878	38.295	18.5519	-0.14775	-0.135799	58.2406	95.6853	-0.039076	-0.124315	80.3031	-0.105092	216.022	810.942	793.849	2920.5	247.613	-1.14995	-0.0266176	59.3186	178.452	237.994	23.3456	11.9781	-0.0325877	14.0923	0.0725527	-0.0461774	-0.349004	2522.5	5417.47	-0.399938	-0.362246	10689.5	6.99941	5640.84	809.529	-2.45209	-0.118339	5695.76	8400.71	-0.184724	-0.430328	974.776	
3.375	2611.27	437.735	361.88	102.778	1409.06	-0.153216	1129.54	12544.1	652.844	320.888	681.718	2019.8	2125.55	11043	0.246759	31.7308	80.8793	1561.16	566.243	42.9239	457.832	547.004	250.007	516.345	2931.51	214.233	1862.21	33.1691	2768.41	7.93515	1210.52	6354.89	2333.22	12202.9	99.7314	1198.99	2685.95	7.43236	33.3872	16.2086	-0.149506	-0.14115	65.2547	104.952	-0.0359569	-0.124222	132.983	-0.100617	208.24	799.183	802.014	2949.22	305.189	-1.15446	-0.0205247	72.7498	196.681	222.502	25.2353	18.2642	-0.0349678	11.3355	-0.000961176	-0.0437032	-0.359649	2524.05	5417.5	-0.400263	-0.373593	10689.2	7.07187	6487.28	892.201	-2.45595	-0.118387	5647.13	8400.77	-0.190954	-0.444659	936.921	
3.38	2794.63	486.607	362.133	97.1855	1470.05	-0.143347	1082.73	12566.5	720.585	356.764	664.609	1942.38	1881.1	9878	0.0519197	26.3728	66.5564	1406.26	465.509	35.8245	413.293	480.749	213.478	533.608	3088.85	206.583	1807.4	26.6419	2877.35	6.49111	1210.54	6226.42	2311.39	10198.5	97.8409	1379.47	2594.03	6.49016	29.152	14.1776	-0.15079	-0.14531	71.2241	112.69	-0.033392	-0.12419	194.174	-0.095087	201.227	789.499	808.96	2975.1	369.399	-1.15872	-0.0153206	85.1288	212.148	208.436	26.574	24.4012	-0.0371708	8.95046	-0.00342166	-0.0411909	-0.368702	2525.17	5417.52	-0.400765	-0.38362	10688.9	8.50173	7361.94	982.323	-2.46033	-0.118423	5605.64	8400.81	-0.19812	-0.46092	894.367	
3.385	2924.34	536.183	360.585	91.0523	1522.26	-0.134765	1022.59	12576.5	792.091	394.859	646.72	1864.06	1650.13	8787.96	-0.00443068	21.8139	54.9806	1275.87	379.791	29.9475	379.657	429.351	182.197	547.6	3250.65	198.862	1752.59	21.6507	2985.82	5.25132	1210.55	6040.04	2275.18	8437.81	97.1087	1575.36	2500.51	5.66224	25.4767	12.4081	-0.152881	-0.148324	76.0002	118.792	-0.0314185	-0.124283	261.86	-0.0887364	194.929	781.807	814.771	2998.16	440.407	-1.16306	-0.0109863	96.001	224.713	196.359	27.4988	26.6139	-0.0391122	7.01119	-0.00552087	-0.03867	-0.37619	2525.95	5417.54	-0.401377	-0.392292	10688.6	10.3628	8224.58	1081.56	-2.46473	-0.118454	5572.26	8400.85	-0.206274	-0.479287	847.024	
3.39	3001.8	585.168	357.118	84.3928	1563.96	-0.12751	948.827	12578.8	866.164	434.681	628.489	1786.55	1433.63	7778.61	0.00109091	17.9227	45.6938	1168.98	308.396	25.0412	355.123	390.448	155.957	557.597	3414.02	191.223	1698.94	17.7498	3092.89	4.20018	1210.57	5796.26	2223.83	6972.17	97.6588	1783.24	2407.58	4.93231	22.2714	10.8594	-0.154896	-0.155264	79.4897	123.206	-0.0300562	-0.124462	333.962	-0.0816723	203.737	779.105	827.18	3015.8	518.255	-1.16675	-0.00749986	105.027	234.355	186.679	28.1544	23.1675	-0.0407063	6.25666	-0.00738768	-0.0361703	-0.382145	2525.59	5417.55	-0.401852	-0.399574	10688.3	12.0449	9045.41	1190.77	-2.46813	-0.11848	5553.91	8400.85	-0.215464	-0.499909	794.796	
3.395	3034.13	632.075	351.685	77.2707	1593.88	-0.121598	861.834	12574.6	941.749	475.682	610.377	1711.55	1233.13	6856.59	-0.0034108	14.5952	38.1472	1084.44	250.264	20.9153	338.284	361.786	134.528	563.012	3576.17	183.815	1647.51	14.6541	3197.55	4.62257	1210.58	5499.45	2157.18	5760.82	99.6064	2001.66	2317.17	4.28697	19.4637	9.49847	-0.156312	-0.163263	81.6488	125.931	-0.029308	-0.124652	408.348	-0.073963	216.374	781.877	830.352	3027.26	604.893	-1.16926	-0.00484169	111.968	241.028	179.657	28.6716	19.2837	-0.0418767	6.11891	-0.00904998	-0.0337215	-0.386599	2524.76	5417.56	-0.402096	-0.405454	10688	13.7777	9785.74	1309.89	-2.47009	-0.118505	5548.19	8400.83	-0.225703	-0.522911	737.809	
3.4	3036.84	675.351	344.316	69.796	1611.25	-0.117029	762.834	12560.1	1017.14	516.924	592.834	1640.59	1048.05	6026.92	-0.00804197	11.7489	31.9173	1021.08	204.123	17.4245	328.156	341.595	117.567	563.448	3734.45	176.772	1599.25	12.1648	3298.78	8.90987	1210.59	5157.17	2075.64	4757.89	103.053	2227.6	2230.98	3.71511	16.9948	8.29835	-0.157514	-0.169313	82.4756	127	-0.0291483	-0.12482	484.784	-0.0657155	226.242	799.584	837.911	3032.07	702.996	-1.17295	-0.00299444	116.676	244.693	175.431	29.1531	17.2664	-0.0426713	5.78687	-0.0075735	-0.031353	-0.389594	2523.72	5417.57	-0.402167	-0.409951	10687.7	15.8302	10382.4	1437.72	-2.47082	-0.118529	5554.49	8400.82	-0.236991	-0.548374	676.755	
3.405	3036.96	713.686	335.115	62.1188	1615.83	-0.113779	654.02	12525.4	1090.36	557.326	576.259	1574.98	875.151	5296.68	-0.0126692	9.31737	26.7121	977.723	168.514	14.4568	324.104	328.6	104.668	558.728	3886.44	170.214	1554.9	10.1388	3395.53	21.467	1210.59	4778.35	1980.25	3922.85	108.079	2455.03	2150.64	3.20748	14.8167	7.23686	-0.158716	-0.172791	82.0032	126.476	-0.0293026	-0.127308	564.605	-0.0570774	233.958	814.369	838.469	3030.34	814.271	-1.17712	-0.00215251	118.726	245.367	174.036	23.3614	16.8366	-0.0430079	5.63388	0.137605	-0.029093	-0.391164	2522.66	5417.57	-0.402152	-0.412896	10687.5	18.2789	10680.3	1571.99	-2.47083	-0.118553	5569.92	8400.82	-0.249391	-0.57654	611.984	
3.41	3037.05	746.064	324.259	54.4202	1607.95	-0.111808	538.8	12455.3	1159.49	595.704	560.987	1515.77	715.206	4670.48	-0.0172921	7.2475	22.3276	953.342	141.937	11.9246	325.769	321.923	95.403	548.916	4029.88	164.24	1515.03	8.47167	3486.76	47.8371	1210.6	4370.51	1872.56	3213.4	114.732	2676.14	2077.5	2.75635	12.8898	6.29565	-0.159754	-0.174339	80.2939	124.44	-0.0295452	-0.129771	646.926	-0.0482709	242.61	821.004	833.269	3022.94	939.019	-1.18041	-0.00229611	118.105	243.124	175.423	22.7897	17.1329	-0.0428888	5.8807	2.93738	-0.026967	-0.390826	2521.86	5417.56	-0.402107	-0.403136	10687.2	21.1412	10681.7	1709.31	-2.47054	-0.118576	5591.53	8400.82	-0.262992	-0.607872	543.654	
3.415	3037.11	771.779	311.99	46.9015	1588.43	-0.11106	423.299	12330	1222.64	630.886	547.305	1463.74	569.997	4146.81	-0.0219105	5.49636	18.6131	947.043	122.993	9.75889	333.02	320.981	89.3681	534.314	4162.87	158.932	1480.05	7.08662	3571.41	92.3318	1210.6	3940.37	1754.49	2618.42	123.007	2882.56	2012.62	2.35519	11.1812	5.45943	-0.160513	-0.174919	77.435	120.99	-0.0316552	-0.131387	728.701	-0.0395607	251.04	824.833	826.397	3011.35	1075.93	-1.18237	-0.00327909	115.107	238.09	179.473	23.6536	17.4842	-0.0423403	6.53707	4.61969	-0.0249977	-0.387725	2521.49	5417.55	-0.402054	-0.392637	10686.9	24.4179	10683.3	1844.23	-2.47018	-0.118598	5614.17	8400.82	-0.27786	-0.642895	472.382	
3.42	3037.14	790.431	298.6	39.7762	1558.53	-0.111461	323.322	12127.4	1278.1	661.854	535.443	1419.46	440.892	3714.47	-0.0265245	4.02944	15.4521	958.093	110.475	7.90486	345.922	325.419	86.2075	515.436	4283.72	154.356	1450.24	5.92654	3648.35	157.532	1210.59	3496.66	1628.51	2135.14	132.882	3066.75	1956.86	1.99851	9.66354	4.71541	-0.162399	-0.175298	73.5351	116.237	-0.0348746	-0.132827	806.513	-0.031116	258.672	828.469	819.969	2997.19	1221.58	-1.18376	-0.00498086	110.053	230.424	185.996	23.0412	17.5272	-0.0413924	7.61864	5.1762	-0.0232069	-0.383128	2521.39	5417.54	-0.402001	-0.386878	10686.7	28.0947	10684.6	1969.36	-2.46981	-0.118621	5634.9	8400.8	-0.293986	-0.681978	399.65	
3.425	3037.15	801.892	284.423	33.2855	1519.84	-0.1129	247.909	11825.4	1324.55	687.816	525.568	1383.27	330.059	3337.44	-0.0311341	2.81909	12.7532	985.896	103.41	6.3186	364.716	335.062	85.624	492.963	4391.3	150.558	1425.81	4.94828	3716.58	244.919	1210.59	3047.47	1497.62	1755.39	144.367	3222.61	1910.8	1.68165	19.3939	8.03212	-0.164122	-0.175765	66.1883	105.395	-0.0377518	-0.13454	878.297	-0.0230401	277.559	810.264	816.133	2982.51	1371.78	-1.1848	-0.00733205	103.225	220.309	194.735	20.2051	17.1127	-0.0400867	9.15255	6.24635	-0.0216193	-0.377933	2521.37	5417.53	-0.401947	-0.382496	10686.5	32.1458	10685.8	2079.35	-2.46946	-0.118643	5645.79	8400.79	-0.311235	-0.725122	327.658	
3.43	3037.13	806.284	269.813	27.836	1474.13	-0.114728	194.043	11405.2	1361.07	708.239	517.783	1355.27	243.547	2963.87	-0.0357394	1.84342	10.4434	1029.96	101.079	4.96484	389.794	349.885	87.3746	467.672	4484.72	147.571	1406.83	4.11874	3775.05	355.207	1210.57	2594.29	1365.24	1469.19	157.486	3345.79	1874.77	4.74753	54.8595	23.4751	-0.165144	-0.176213	57.696	91.835	-0.0403871	-0.136319	942.247	-0.0154209	291.216	797.722	812.647	2968.56	1523.11	-1.18548	-0.01029	94.8985	208.02	205.358	18.2012	16.1943	-0.0384747	11.1521	8.02009	-0.0202571	-0.371954	2521.23	5417.52	-0.401893	-0.376872	10686.3	36.5381	10686.7	2170.82	-2.46912	-0.118666	5658.93	8400.77	-0.329279	-0.771839	258.952	
3.435	3037.09	803.926	255.128	23.4377	1423.3	-0.116602	155.197	10854.3	1387.13	722.786	512.141	1335.37	182.302	2607.52	-0.0403403	1.08542	8.46489	1089.84	103.015	3.81513	421.672	369.999	91.2655	440.352	4563.68	145.41	1393.27	3.41225	3822.67	488.649	1210.56	2137.2	1235.08	1266.05	172.283	3433.87	1848.88	17.0249	122.718	56.0453	-0.165861	-0.176424	49.72	78.7854	-0.0432384	-0.137792	996.55	-0.00833338	292.667	797.235	809.208	2955.95	1673.09	-1.18583	-0.0138219	85.365	193.834	217.46	16.6787	14.7697	-0.0366152	13.6045	10.1335	-0.0191312	-0.364943	2520.95	5417.51	-0.401842	-0.36994	10686.1	41.232	10687.5	2242.06	-2.46878	-0.118688	5674.28	8400.76	-0.347618	-0.821109	196.039	
3.44	3037.04	795.292	240.719	19.8958	1369.23	-0.118433	126.136	10169.8	1402.58	731.365	508.645	1323.4	140.386	2285.27	-0.0449368	0.532336	6.77113	1165.1	108.981	2.84654	460.833	395.627	97.1406	411.623	4628.22	144.072	1385.04	2.80864	3858.47	643.946	1210.54	1687.44	1110.68	1136.24	188.816	3485.69	1833.02	41.4101	219.12	104.105	-0.166441	-0.176211	42.4902	67.24	-0.0465666	-0.138833	1039.66	-0.00183034	288.585	800.886	806.22	2945.12	1819.92	-1.186	-0.017898	74.938	178.028	230.568	15.8228	12.8686	-0.0345726	16.4629	12.3575	-0.018242	-0.356914	2520.63	5417.5	-0.4018	-0.362069	10686	46.1838	10688	2292.46	-2.46844	-0.118711	5685.53	8400.75	-0.365696	-0.871489	141.072	
3.445	3036.96	780.961	226.912	17.0026	1313.65	-0.120231	103.612	9362.81	1407.59	734.08	507.252	1319.04	111.086	1994.96	-0.0495291	0.175197	5.32475	1255.31	118.932	2.04064	507.619	427.09	104.876	381.907	4678.8	143.537	1381.95	2.29197	3881.49	817.146	1210.51	1261.09	994.025	1072.12	207.075	3501.58	1826.94	75.9783	341.905	166.191	-0.16682	-0.175408	35.724	56.9685	-0.0503414	-0.139507	1070.31	0.284103	283.499	802.792	803.982	2936.47	1962.37	-1.18614	-0.0224883	63.9576	160.926	244.155	15.2571	10.5668	-0.0324143	19.6424	14.6016	-0.0175847	-0.34797	2520.4	5417.5	-0.401766	-0.353366	10686	51.3467	10688.4	2322.13	-2.4681	-0.118733	5689	8400.74	-0.383034	-0.921435	95.4377	
3.45	3036.87	761.57	214.003	14.6014	1258.14	-0.122016	85.726	8462.44	1402.62	731.189	507.879	1321.96	89.702	1727.62	-0.0541171	0.00853023	4.09563	1359.96	132.984	1.38272	562.24	464.744	114.375	351.499	4716.04	143.771	1383.78	1.84951	3890.85	1002.52	1210.48	904.811	885.762	1069.09	226.881	3483.06	1830.21	119.422	489.857	241.873	-0.166935	-0.173846	29.2417	47.5443	-0.0543939	-0.139932	1087.35	1.89701	277.562	801.337	802.792	2930.53	2099.76	-1.18634	-0.0275585	52.7853	142.894	257.657	15.0647	8.00631	-0.0302087	23.0229	16.7338	-0.0171524	-0.33822	2520.38	5417.5	-0.40174	-0.343897	10686	56.6721	10688.5	2331.57	-2.46776	-0.118755	5683	8400.75	-0.399324	-0.969687	59.5143	
3.455	3036.81	737.782	202.251	12.5838	1204.04	-0.123797	71.2973	7521.91	1388.36	723.076	510.41	1331.75	73.4729	1479.98	-0.0587009	0.000376103	3.05945	1478.55	151.394	0.861253	624.774	508.832	125.572	320.881	4740.57	144.731	1390.25	1.47107	3885.73	1202.22	1210.44	651.117	786.202	1125.42	247.834	3432.56	1842.29	171.478	659.889	329.913	-0.166754	-0.171382	23.0669	38.7289	-0.0583786	-0.140208	1089.62	4.47165	267.621	797.27	813.848	2927.97	2232.24	-1.18655	-0.0330693	41.7972	124.325	270.5	14.9758	5.38824	-0.0280228	26.4581	18.5577	-0.0169353	-0.327776	2520.78	5417.5	-0.401715	-0.333783	10686	62.1106	10688.5	2321.38	-2.46743	-0.120103	5668.78	8400.77	-0.414424	-1.01541	32.9209	
3.46	3027.24	710.257	191.878	10.8733	1152.41	-0.125578	59.5226	6617.17	1365.66	710.221	514.698	1347.95	60.8177	1250.71	-0.0632804	-0.00133017	2.19665	1610.89	174.548	0.467389	695.183	559.55	138.436	290.681	4752.8	146.361	1401.03	1.14844	3865.46	1424.71	1210.4	483.518	695.24	1241.44	269.351	3353.38	1862.54	231.732	849.603	429.283	-0.166249	-0.167921	17.3321	30.4857	-0.0620053	-0.140402	1076.45	7.58483	255.168	791.112	839.697	2929.44	2361.35	-1.18671	-0.0389765	31.375	105.63	282.126	14.9178	2.97028	-0.0259205	29.7861	19.8778	-0.0170161	-0.316763	2521.69	5417.52	-0.401683	-0.323156	10686.1	67.6136	10688.3	2292.19	-2.46709	-0.123235	5641.92	8400.81	-0.428294	-1.05814	14.8587	
3.465	2997.68	679.629	183.076	9.41266	1104.05	-0.127358	49.818	5788.83	1335.56	693.213	520.576	1370.06	50.769	1039.43	-0.0678557	-0.00776847	1.4916	1758.47	202.967	0.194691	773.37	617.102	152.983	261.506	4752.59	148.599	1415.76	0.874977	3829.5	1675.74	1210.35	372.056	612.031	1418.41	290.705	3249.44	1890.23	299.736	1058.08	539.757	-0.166564	-0.163418	12.1963	22.8942	-0.0650746	-0.140552	1048.11	10.9036	242.034	786.404	857.773	2935.47	2486	-1.18679	-0.0452304	21.8955	87.2361	292.022	12.946	1.07248	-0.0239601	32.8436	20.5412	-0.0173978	-0.305309	2523.05	5417.54	-0.401643	-0.312137	10686.3	73.1339	10687.8	2244.77	-2.46675	-0.127191	5591.08	8400.86	-0.440817	-1.0765	4.37275	
3.47	2946.07	646.509	176.012	8.15775	1059.46	-0.129137	41.7475	5050.68	1299.16	672.709	527.858	1397.52	42.6783	846.569	-0.0724268	-0.0142019	0.932038	1924.04	237.315	0.0388901	859.216	681.742	169.274	233.925	4739.01	151.377	1434.05	0.645355	3777.47	1952.03	1210.3	294.067	535.245	1657.63	311.121	3124.99	1924.57	373.95	1280.6	659.006	-0.166238	-0.157856	7.8117	16.095	-0.0675141	-0.140677	1005.3	14.1774	228.601	776.895	911.37	2946.51	2608.4	-1.18679	-0.0517766	13.725	69.5691	299.741	10.7311	0.067943	-0.0221932	35.4784	20.4489	-0.0180076	-0.293542	2524.71	5417.57	-0.401597	-0.300841	10686.5	78.6401	10687.3	2180.32	-2.46654	-0.130913	5527.92	8400.92	-0.45185	-1.06978	0.223733	
3.475	2871.43	611.491	170.839	7.07355	1019	-0.130913	34.982	4406.05	1257.67	649.385	536.346	1429.74	36.0842	673.119	-0.0769937	-0.0206296	0.508545	2111.3	278.411	-0.00385242	953.331	753.825	187.426	208.428	4710.12	154.621	1455.5	0.455283	3709.27	2238.3	1209.15	236.516	464.556	1959.87	329.874	2984.58	1964.69	451.244	1507.39	781.885	-0.165181	-0.151233	4.31272	10.2611	-0.0693518	-0.140789	949.105	17.233	216.068	763.205	968.311	2962.96	2731.9	-1.18716	-0.0585568	7.20496	53.075	304.925	8.84382	-0.00329071	-0.0206633	37.5599	19.5626	-0.0187665	-0.281588	2526.44	5417.61	-0.401548	-0.289377	10686.7	84.1407	10686.5	2100.61	-2.4674	-0.134163	5453.46	8400.99	-0.461292	-1.06054	-0.00939193	
3.48	2773.71	575.158	167.707	6.13213	982.893	-0.132688	29.2717	3847.1	1212.29	623.939	545.836	1466.03	30.6493	521.426	-0.0815564	-0.0270512	0.214248	2325.03	327.225	0.000994682	1058.7	833.856	207.605	185.403	4662.93	158.257	1479.69	0.301355	3625.12	2513.17	1198.26	192.454	400.878	2324.89	346.304	2833.02	2009.71	528.198	1728.16	902.92	-0.163038	-0.143561	1.80663	5.57779	-0.0719698	-0.140893	881.856	19.9629	204.804	746.839	991.266	2985.12	2858.86	-1.18892	-0.0655102	2.63925	38.1989	307.31	5.99234	-0.0102013	-0.0194054	38.9866	17.9182	-0.0196182	-0.269562	2527.95	5417.66	-0.401495	-0.277845	10687	89.6439	10685.7	2008.14	-2.47129	-0.137452	5359.22	8401.07	-0.469128	-1.08033	-0.0264552	
3.485	2653.73	538.078	166.779	5.59674	951.281	-0.134461	24.4246	3355.52	1164.22	597.061	556.118	1505.71	26.1242	396.36	-0.086115	-0.0334668	0.0445679	2570.98	384.911	-0.0028272	1178.66	922.493	230.024	165.097	4593.53	162.212	1506.15	0.180913	3525.45	2760.49	1175.57	157.956	344.922	2750.7	359.833	2674.94	2058.71	602.401	1936.17	1018.49	-0.16004	-0.134864	0.364973	2.30397	-0.0768705	-0.140993	807.861	22.3007	194.526	728.168	996.005	3012.94	2987.08	-1.19238	-0.0725749	0.283519	25.3477	306.74	3.57156	-0.017434	-0.0184448	39.6904	15.6432	-0.0204912	-0.257576	2528.94	5417.72	-0.401442	-0.266337	10687.3	94.1369	10684.7	1906.23	-2.47873	-0.141105	5238.96	8401.16	-0.47536	-1.08106	-0.0408923	
3.49	2513.16	500.707	168.237	6.66609	924.273	-0.136232	20.292	2915.14	1114.59	569.411	566.984	1548.06	22.3226	303.252	-0.0906694	-0.0398764	-0.00427066	2855.71	452.798	-0.00677775	1316.33	1021.64	255.142	147.461	4497.34	166.413	1534.46	0.0919489	3411.16	2969.66	1141.27	130.529	297.119	3232.46	369.975	2514.67	2110.79	672.277	2127.44	1126.41	-0.156692	-0.125177	0.000175542	0.562869	-0.0839967	-0.14109	732.401	24.2146	203.766	707.577	975.608	3045.94	3115.02	-1.19695	-0.0796904	-0.00370611	14.8715	303.159	1.52657	-0.0249337	-0.0177979	39.6389	9.74628	-0.0213356	-0.245727	2529.14	5417.79	-0.401388	-0.254931	10687.6	98.5974	10683.7	1798.86	-2.48852	-0.144998	5093.22	8401.27	-0.48001	-1.08391	-0.0527711	
3.495	2354.72	463.378	172.299	9.62952	901.978	-0.138001	16.7568	2532.76	1064.42	541.587	578.231	1592.38	19.1035	237.033	-0.0952196	-0.04628	0.00118412	3186.34	532.312	-0.010725	1474.34	1135.73	283.888	132.234	4369.77	170.792	1564.19	0.0330324	3283.51	3133.4	1096.12	108.441	257.622	3762.02	376.343	2356.06	2165.07	737.048	2302.7	1226.01	-0.153168	-0.114544	-0.00355194	0.00432405	-0.0917181	-0.141186	659.696	25.7113	225.19	685.753	970.45	3083.66	3245.97	-1.20083	-0.0867761	-0.014552	7.05372	295.964	0.351517	-0.0323633	-0.0174717	37.9178	4.72289	-0.0221429	-0.234101	2529.14	5417.87	-0.401333	-0.243697	10687.8	104.891	10682.5	1690.56	-2.4973	-0.148328	4919.98	8401.39	-0.483143	-1.08355	-0.0622267	
3.5	2182.31	426.297	179.224	14.4955	884.531	-0.139768	13.7265	2208.76	1014.6	514.107	589.672	1637.99	16.3591	189.516	-0.0997658	-0.0526777	-0.00285511	3569.74	624.885	-0.0146687	1654.76	1269.94	317.525	119.136	4206.84	175.28	1594.9	0.00326268	3144.12	3246.68	1041.41	90.4406	226.342	4332.79	378.649	2202.27	2220.69	797.887	2471.58	1320.62	-0.149378	-0.103011	-0.00740557	-0.00343386	-0.0969309	-0.141282	592.073	26.8312	235.184	671.299	947.806	3124.26	3380.59	-1.20316	-0.0937879	-0.0252954	2.08013	286.626	0.000165878	-0.0401432	-0.0174616	34.6446	1.33274	-0.0229011	-0.222768	2529.16	5417.95	-0.401278	-0.232691	10688.1	111.155	10681.3	1585.79	-2.50294	-0.150666	4731.93	8401.52	-0.484989	-1.08888	-0.0695613	
3.505	2001.54	389.62	189.316	21.6282	872.119	-0.141533	11.1272	1939.88	965.879	487.394	601.132	1684.21	14.0052	154.224	-0.104308	-0.0590695	-0.00710416	4009.78	731.827	-0.0186087	1858.8	1429.72	357.687	107.914	4006.08	179.818	1626.18	-0.000302991	2994.99	3308.93	978.909	75.6125	203.019	4951.72	376.711	2055.59	2276.84	857.422	2638.76	1414.01	-0.14532	-0.0906271	-0.0116151	-0.00897201	-0.099869	-0.14125	530.293	27.6297	227.707	655.293	920.421	3165.72	3517.93	-1.20419	-0.100695	-0.0358976	0.0499039	273.477	-0.00542694	-0.0481403	-0.0177813	31.5409	0.022048	-0.0236019	-0.211785	2529.19	5418.04	-0.401223	-0.221959	10688.4	116.873	10678.9	1487.11	-2.50546	-0.15206	4536.84	8401.65	-0.485799	-1.09183	-0.0750508	
3.51	1820.08	353.528	202.924	31.8211	864.987	-0.143296	8.89942	1721.31	918.888	461.766	612.447	1730.41	11.976	127.084	-0.108846	-0.0654555	-0.0113497	4508.26	854.149	-0.022545	2081.7	1620.45	406.362	98.3275	3767.52	184.347	1657.61	-3.25694e-05	2838.4	3326.2	910.802	63.2819	187.326	5627.62	370.459	1917.53	2332.75	916.115	2802.4	1506.16	-0.141008	-0.0774392	-0.0160061	-0.0150329	-0.102629	-0.138712	474.151	28.165	214.519	629.938	900.221	3206.71	3657.01	-1.20448	-0.107466	-0.0463213	-0.00651416	254.749	-0.0112662	-0.0561041	-0.0184015	28.8644	-0.00379502	-0.0242581	-0.201193	2529.21	5418.13	-0.401168	-0.211532	10688.7	122.346	10458.7	1395.97	-2.50599	-0.15234	4328.91	8401.78	-0.485716	-1.08753	-0.0788073	
3.515	1647.36	318.131	220.433	45.9915	863.449	-0.145057	6.99538	1546.96	874.155	437.471	623.472	1776	10.2191	105.678	-0.113379	-0.0718356	0.957499	5065.14	992.395	-0.0264777	2308.52	1846.92	465.832	90.1693	3494.85	188.815	1688.81	-0.00103128	2676.79	3300.71	839.691	52.9458	178.972	6367.82	359.943	1789.06	2387.75	972.997	2959.44	1595.34	-0.136443	-0.0634903	-0.0202213	-0.021099	-0.105562	-0.135049	422.937	28.5	202.442	601.997	889.203	3246.64	3797.23	-1.20448	-0.114066	-0.056531	-0.0158182	234.426	-0.0172691	-0.0639265	-0.0192159	26.108	-0.00881937	-0.0248763	-0.191018	2529.22	5418.22	-0.401113	-0.201432	10688.9	127.708	10068	1313.24	-2.50569	-0.150561	4109.81	8401.91	-0.484849	-1.07458	-0.0808775	
3.52	1487.91	283.344	242.244	64.9975	867.891	-0.146816	5.37635	1409.52	831.994	414.695	634.082	1820.46	8.69264	88.5033	-0.117909	-0.0407756	13.9114	5678	1146.87	-0.0304067	2524.64	2110.83	538.49	83.2821	3196.58	193.178	1719.42	-0.00202927	2512.59	3232.48	768.536	44.2231	177.777	7174.58	345.336	1670.36	2441.29	1027.44	3108.69	1680.69	-0.131621	-0.0488184	-0.0240723	-0.0268563	-0.107761	-0.13107	375.738	28.7097	191.726	575.687	884.924	3285.29	3937.31	-1.20437	-0.120472	-0.0665002	-0.0247419	215.361	-0.0234611	-0.0716073	-0.020027	22.9765	-0.013854	-0.0254153	-0.181272	2529.24	5418.31	-0.401058	-0.191672	10689.1	132.989	9636.82	1239.25	-2.50531	-0.147248	3891.54	8402.04	-0.483566	-1.06354	-0.0816589	
3.525	1342.69	248.858	268.747	89.618	878.763	-0.148573	4.01103	1301.85	792.478	393.516	644.177	1863.34	7.36264	74.5458	-0.122435	0.82842	43.7437	6341.72	1321.71	-0.0343322	2717.22	2395.31	625.941	77.5682	2887.69	197.393	1749.13	-0.0030264	2348	3123.82	700.634	36.8217	183.701	8040.67	326.971	1560.69	2492.84	1079.53	3250.69	1762.43	-0.126543	-0.033455	-0.0275432	-0.0322075	-0.108755	-0.126725	331.939	28.8745	181.619	551.691	884.637	3322.4	4075.48	-1.20424	-0.12667	-0.0762151	-0.0332636	196.826	-0.0298717	-0.0791706	-0.0207333	19.5324	-0.019053	-0.0258238	-0.171952	2529.26	5418.39	-0.401003	-0.182252	10689.3	138.212	9190	1173.93	-2.50557	-0.143524	3685.92	8402.15	-0.482317	-1.05938	-0.0817639	
3.53	1212.08	214.719	300.283	120.516	896.647	-0.150328	2.87423	1218.11	755.619	373.896	653.68	1904.29	6.20161	63.0765	-0.126956	19.2602	92.8501	7048.22	1524.37	0.000251612	2875.75	2674.33	729.07	72.9984	2587.52	201.429	1777.68	-0.00402261	2184.83	2979.08	638.732	30.5145	196.842	8949.78	305.367	1459.7	2541.98	1129.22	3385.57	1840.56	-0.121215	-0.0174254	-0.0306753	-0.0371642	-0.108735	-0.121965	291.712	29.0734	172.208	530.421	886.506	3357.53	4209.19	-1.2041	-0.132658	-0.0856749	-0.0413758	177.577	-0.0365007	-0.0866347	-0.0215745	15.9675	-0.0244838	-0.0260683	-0.163046	2529.28	5418.47	-0.400948	-0.173165	10689.5	143.395	8745.39	1116.91	-2.50722	-0.140073	3502.21	8402.25	-0.481437	-1.06223	-0.0817953	
3.535	1095.71	181.467	337.094	158.143	921.899	-0.152081	1.94581	1153.62	721.472	355.786	662.538	1943.01	5.18701	53.5568	-0.131474	61.6652	162.781	7795.93	1762.89	11.8814	2992.89	2922.47	848.276	69.553	2305.52	205.258	1804.86	-0.0050477	2024.09	2803.26	583.201	25.123	217.387	9878.81	281.269	1367.33	2588.36	1176.04	3512.27	1914.34	-0.115644	-0.000749155	-0.0335031	-0.0417674	-0.108193	-0.116836	255.183	29.3825	163.945	512.439	889.475	3389.89	4335.59	-1.20395	-0.138443	-0.0948914	-0.0490814	157.451	-0.0433272	-0.0940165	-0.0232951	12.4524	-0.0301596	-0.0261342	-0.154527	2529.3	5418.54	-0.400893	-0.164397	10689.6	148.555	8322.09	1067.65	-2.50915	-0.138495	3347.32	8402.33	-0.481166	-1.06814	-0.0823063	
3.54	992.482	149.69	379.272	202.683	955.204	-0.153832	1.20992	1104.72	690.031	339.175	670.72	1979.28	4.30031	45.583	-0.135335	128.351	253.542	8590.57	2044.67	53.561	3065.39	3116.33	983.481	67.202	2046.87	208.859	1830.48	0.367879	1864.24	2601.88	533.861	20.5059	245.534	10807.1	255.679	1283.43	2631.73	1219.13	3628.68	1982.38	-0.109836	3.57143	-0.0356647	-0.0460542	-0.107479	-0.111378	222.334	29.874	157.186	498.202	892.908	3418.24	4451.45	-1.2038	-0.144043	-0.103888	-0.0563841	136.991	-0.0503276	-0.101342	-0.0257474	9.12818	-0.0360713	-0.0260168	-0.147611	2529.32	5418.59	-0.400838	-0.155927	10689.8	153.714	7931.69	1025.5	-2.51064	-0.138601	3225.55	8402.39	-0.481636	-1.075	-0.0837151	
3.545	900.633	120	426.7	254.099	997.112	-0.155581	0.65446	1068.5	661.269	324.028	678.215	2012.97	3.5262	38.8502	-0.0895633	217.987	363.952	9427.72	2375.2	124.336	3094.73	3235.92	1134.53	65.9092	1814.25	212.217	1854.43	13.5512	1704.94	2381.51	490.392	16.5503	281.413	11717.8	229.736	1207.76	2671.91	1257.34	3731.83	2042.81	-0.103803	15.8243	-0.0369438	-0.0497714	-0.106636	-0.105618	193.052	30.6103	152.164	488.081	896.344	3441.19	4553.41	-1.20364	-0.14949	-0.112676	-0.063301	116.763	-0.0574849	-0.105569	-0.0285189	6.13096	-0.0422037	-0.0257152	-0.146429	2529.33	5418.63	-0.400826	-0.147732	10689.9	158.894	7578.98	989.809	-2.51146	-0.139521	3139.87	8402.43	-0.482805	-1.08245	-0.0861375	
3.55	817.897	93.018	479.011	312.04	1048.03	-0.157328	0.270573	1042.71	635.131	310.303	685.025	2044	2.85201	33.1252	-0.0386676	327.962	491.745	10291.8	2754.68	223.126	3096.01	3267.89	1306.44	65.6352	1607.3	215.324	1876.64	53.9744	1548.37	2150.2	452.372	13.1659	325.012	12597.2	204.192	1140.03	2708.83	1289.25	3817.99	2093.34	-0.0975552	35.8944	-0.0379672	-0.0531138	-0.105618	-0.0995875	167.126	31.6477	149.083	482.428	899.412	3457.63	4637.77	-1.20347	-0.154859	-0.121306	-0.0698665	97.1861	-0.0647893	-0.108573	-0.0310719	3.59638	-0.0485422	-0.0252311	-0.146815	2529.34	5418.65	-0.401057	-0.139783	10690	164.116	7265.74	959.91	-2.51197	-0.140602	3092.95	8402.45	-0.48461	-1.09082	-0.0896028	
3.555	742.524	69.639	535.563	375.771	1108.15	-0.159073	0.0524144	1025.65	611.536	297.944	691.167	2072.35	2.2672	28.2277	0.0325411	454.852	634.145	11158.7	3177.03	346.389	3096.15	3268.16	1504.94	66.3382	1421.37	218.176	1897.07	116.596	1397.09	1917.98	419.315	10.2796	376.112	13434.5	179.309	1079.83	2742.48	1313.41	3883.28	2131.62	-0.0923032	62.9499	-0.0391432	-0.0563348	-0.104399	-0.0933211	144.292	33.0359	148.156	481.614	901.803	3466.82	4700.87	-1.20331	-0.160197	-0.129832	-0.0761213	78.6107	-0.0722358	-0.110154	-0.033161	1.653	-0.0550743	-0.0245694	-0.146714	2529.34	5418.66	-0.4018	-0.132053	10690	169.399	6992.23	935.183	-2.51246	-0.141555	3087.62	8402.46	-0.487003	-1.1001	-0.0941136	
3.56	674.38	51.9766	595.596	444.164	1177.42	-0.160815	-0.00573624	1016.19	590.376	286.887	696.667	2098.05	1.76305	24.0165	8.43567	595.346	787.796	12000.2	3633.83	489.525	3096.25	3268.4	1732.09	67.9762	1250.51	220.772	1915.7	193.331	1253.59	1694.56	390.712	7.83266	434.271	14222.1	155.359	1026.68	2772.91	1328.5	3924.19	2155.54	-0.086719	95.8477	-0.0400818	-0.0595217	-0.102977	-0.0868522	124.267	34.8149	149.597	486.052	903.279	3468.19	4739.21	-1.20315	-0.165535	-0.138312	-0.0821113	61.3898	-0.0798228	-0.110836	-0.03552	0.418429	-0.061788	-0.0237397	-0.145678	2529.34	5418.65	-0.403067	-0.124515	10690.1	174.755	6757.14	915.046	-2.51308	-0.142312	3127.39	8402.44	-0.48994	-1.10991	-0.0996591	
3.565	613.366	39.6731	659.04	515.747	1255.28	-0.162556	0.00156273	1013.67	571.527	277.06	701.559	2121.18	1.33234	20.38	30.6506	746.245	948.769	12789.1	4115.3	647.997	3096.33	3268.62	1986.16	70.5052	1093.27	223.118	1932.57	280.965	1120.23	1483.42	366.094	5.77747	498.814	14954.8	132.63	980.068	2800.21	1333.59	3938.21	2163.61	-0.0811192	134.742	-0.0405427	-0.0626389	-0.101354	-0.0802164	106.772	37.0137	153.613	496.232	903.592	3461.03	4749.43	-1.20298	-0.170902	-0.146801	-0.0878855	45.8554	-0.0875498	-0.111201	-0.0384096	-0.000330297	-0.0686706	-0.0227552	-0.143748	2529.33	5418.61	-0.404649	-0.117141	10690.1	180.194	6558.26	898.944	-2.51391	-0.142887	3216.92	8402.4	-0.493391	-1.11833	-0.106238	
3.57	559.157	31.1729	725.978	588.915	1340.45	-0.164294	-0.00398633	1018.02	554.847	268.382	705.88	2141.83	0.969125	17.229	64.7556	904.009	1112.91	13503.9	4611.44	817.01	3096.39	3268.81	2262.54	73.8815	951.435	225.221	1947.72	378.923	998.949	1284.34	345.068	13.2449	568.92	15629.4	111.033	939.452	2824.53	1328.26	3924.21	2155.19	-0.0745811	179.599	-0.0409708	-0.065625	-0.100232	-0.0738165	91.543	39.6468	160.405	512.751	902.544	3444.49	4728.27	-1.20282	-0.176332	-0.155357	-0.0934949	32.6553	-0.0953672	-0.111531	-0.0409236	-0.00299452	-0.0756269	-0.02164	-0.140322	2529.31	5418.56	-0.406287	-0.110053	10690.1	180.993	6392.36	886.343	-2.51498	-0.14326	3361.95	8402.32	-0.497342	-1.12324	-0.113845	
3.575	511.24	25.0923	796.146	663.239	1430.91	-0.16603	0.000752595	1029.7	540.186	260.768	709.673	2160.13	0.668549	14.4917	108.519	1065.04	1276.11	14132.4	5113.66	991.726	3096.43	3268.98	2546.67	78.0612	826.284	227.093	1961.22	496.052	891.127	1098.42	327.342	78.1464	644.156	16244.4	90.5737	904.268	2846.03	1312.68	3882.59	2130.51	-0.0674097	226.605	-0.0415932	-0.0683867	-0.0986757	-0.0670566	78.3347	42.7061	170.161	536.339	899.943	3417.74	4672.67	-1.20266	-0.181856	-0.164032	-0.0989888	21.1279	-0.10337	-0.111895	-0.0432195	-0.00655951	-0.0827032	-0.020496	-0.135759	2529.29	5418.48	-0.407735	-0.106382	10690.2	181.131	6255.5	876.717	-2.82318	-0.142577	3569.61	8402.22	-0.501679	-1.14894	-0.122321	
3.58	468.977	20.5498	868.821	738.816	1524.01	-0.167765	13.2903	1049.8	527.383	254.131	712.98	2176.23	0.426723	16.1401	159.584	1225.94	1435.26	14673.1	5623.77	1167.64	3096.45	3269.13	2817.56	83.0015	718.411	228.745	1973.16	639.734	797.182	925.883	312.797	269.855	725.855	16799.7	71.7143	873.968	2864.9	1287.57	3815.3	2090.76	-0.059627	277.518	-0.0422159	-0.0708245	-0.0964109	-0.0600777	66.8933	46.1592	183.034	567.872	895.586	3380.04	4580.15	-1.20249	-0.187501	-0.172874	-0.104413	11.9754	-0.111541	-0.112285	-0.045485	-0.0101863	-0.0899813	-0.0193884	-0.130599	2529.26	5418.38	-0.408843	-0.106835	10690.2	183.969	6143.21	869.542	-3.02424	-0.139467	3845.57	8402.08	-0.506297	-1.17169	-0.131494	
3.585	431.691	17.0414	942.768	815.132	1616.67	-0.169496	96.9106	1080.05	516.275	248.382	715.845	2190.29	0.240607	34.3584	215.628	1383.61	1590.23	15132.9	6144.67	1341.85	3096.46	3269.26	3062.17	88.6757	627.631	230.193	1983.63	808.909	716.035	764.216	301.433	581.955	816.056	17296.1	54.8666	848.022	2881.36	1254.13	3725.48	2037.83	-0.0515505	337.012	-0.0424083	-0.0725485	-0.0938297	-0.0530179	56.971	49.959	199.222	608.337	889.256	3330.74	4449.07	-1.20233	-0.193303	-0.181929	-0.109805	5.34849	-0.119843	-0.112683	-0.0477235	-0.013821	-0.0974926	-0.0183204	-0.125148	2529.22	5418.25	-0.409578	-0.105795	10690.2	189.163	6050.94	864.315	-3.09085	-0.135321	4188.74	8401.9	-0.511152	-1.18265	-0.141251	
3.59	398.702	14.2718	1016.31	891.08	1705.5	-0.171226	263.048	1122.9	506.698	243.433	718.312	2202.48	0.107927	87.136	274.517	1535.39	1740.42	15527.8	6675.41	1516.14	3096.47	3269.38	3273.08	95.1063	552.631	231.453	1992.75	996.024	646.14	614.712	293.234	967.894	917.176	17735.9	40.5345	825.921	2895.6	1213.8	3616.9	1974	-0.0434443	408.205	-0.0421617	-0.0731889	-0.0911739	-0.0459595	48.3422	54.0517	219.079	658.751	880.734	3268.98	4278.91	-1.20217	-0.199295	-0.191233	-0.115199	1.34415	-0.128267	-0.113082	-0.0499144	-0.0174655	-0.105154	-0.0172715	-0.119414	2529.18	5418.09	-0.410003	-0.10056	10690.2	195.102	5974.55	860.567	-3.09535	-0.13174	4590.12	8401.67	-0.516254	-1.1859	-0.151535	
3.595	369.354	12.0518	1087.48	965.065	1787.19	-0.172954	478.745	1181.67	498.491	239.197	720.424	2212.98	0.0271177	189.069	334.402	1679.11	1884.14	15883.7	7213.24	1692.19	3096.47	3269.49	3446.07	102.355	490.92	232.541	2000.63	1195.9	586.037	479.772	288.164	1411.65	1031.9	18122.2	29.6118	807.186	2907.85	1168	3493.28	1901.59	-0.0354866	492.905	-0.0417838	-0.0725878	-0.0884758	-0.0389508	40.8098	58.3801	243.155	720.03	869.81	3194.02	4070.27	-1.202	-0.205498	-0.200804	-0.120618	-0.000993896	-0.136823	-0.11348	-0.0520636	-0.0211397	-0.112908	-0.0162265	-0.113307	2529.13	5417.91	-0.410224	-0.0913003	10690.1	200.931	5910.38	857.875	-3.08619	-0.129181	5029.13	8401.4	-0.521641	-1.18649	-0.162292	
3.6	342.976	10.2496	1154.28	1035.25	1858.68	-0.174679	726.252	1260.75	491.494	235.59	722.223	2221.98	-0.0028574	344.097	393.773	1813.19	2019.1	16242.5	7755.41	1870.23	3096.49	3269.61	3577.83	110.519	440.12	233.476	2007.4	1406.75	534.347	361.386	286.167	1916.83	1163.04	18458.9	22.0248	791.367	2918.33	1117.88	3357.56	1822.43	-0.0276709	593.365	-0.0414966	-0.0710437	-0.0857315	-0.0320177	34.2084	62.8843	272.316	792.861	856.275	3105.15	3826.11	-1.20184	-0.211934	-0.21065	-0.126074	-0.00840111	-0.145522	-0.113876	-0.0541841	-0.0248569	-0.12075	-0.0151784	-0.106796	2526.99	5417.69	-0.410446	-0.0780884	10690.1	206.583	5855.13	855.862	-3.07973	-0.127686	5467.36	8401.07	-0.527373	-1.19432	-0.173469	
3.605	318.974	8.76954	1214.88	1099.88	1917.53	-0.176402	1005.25	1365.84	485.553	232.53	723.749	2229.65	0.0003811	553.153	451.493	1936.57	2142.92	16630.9	8300.31	2049.61	3096.51	3269.72	3664.13	119.737	398.193	234.274	2013.19	1627.46	489.762	263.961	287.166	2481.36	1313.57	18750.4	16.8872	778.048	2927.25	1064.22	3211.63	1737.79	-0.0199861	711.27	-0.0413217	-0.0692917	-0.0829418	-0.0251744	28.4022	67.5045	307.717	877.213	839.956	3002.07	3552.46	-1.20167	-0.2186	-0.220799	-0.131573	-0.0182447	-0.154368	-0.114272	-0.056288	-0.028628	-0.128691	-0.0141231	-0.0999392	2517.55	5417.45	-0.410692	-0.0645032	10690.1	212.168	5805.63	854.215	-3.07724	-0.128041	5830.9	8400.69	-0.533513	-1.20106	-0.185047	
3.61	296.869	7.54077	1267.83	1157.51	1962.1	-0.178123	1314.45	1504.24	480.516	229.939	725.041	2236.18	-0.00327653	819.606	506.809	2049.05	2253.59	17067.9	8848.52	2229.25	3096.55	3269.85	3697.8	130.185	363.411	234.954	2018.13	1857.88	451.1	193.356	291.064	3100.07	1485.83	19001.6	13.3096	766.837	2934.83	1007.39	3056.26	1648.3	-0.0124216	846.196	-0.0411923	-0.0681032	-0.0801031	-0.0184294	23.2849	72.1839	350.515	970.449	820.737	2884.9	3258.28	-1.20151	-0.225474	-0.231254	-0.137108	-0.0280286	-0.163365	-0.114667	-0.0583895	-0.0324679	-0.136683	-0.012999	-0.0928304	2499.54	5417.18	-0.410883	-0.0547683	10690.1	217.692	5759.01	852.693	-3.0766	-0.129833	5956.38	8400.25	-0.5401	-1.21768	-0.197048	
3.615	276.293	6.51065	1312.21	1207.24	1991.66	-0.179841	1648.72	1684.98	476.236	227.738	726.139	2241.75	3.56442	1148.35	559.28	2151.13	2349.81	17567.9	9413.15	2408.09	3096.61	3269.98	3698.08	142.07	334.353	235.535	2022.35	2094.27	417.35	145.489	297.734	3805.52	1681.64	19218.1	10.6999	757.369	2941.29	947.391	2891.17	1553.97	-0.00495975	997.704	-0.0410564	-0.0677851	-0.0772086	-0.0117868	18.7759	76.8722	401.566	1068.61	798.561	2754.22	2954.69	-1.20135	-0.232526	-0.24198	-0.142664	-0.0377984	-0.172515	-0.115061	-0.0605064	-0.0363945	-0.144275	-0.0117609	-0.0855497	2472.19	5416.88	-0.410987	-0.0476181	10690.1	223.089	5713.09	851.191	-3.07636	-0.132269	5957.37	8399.75	-0.547115	-1.23043	-0.209481	
3.62	256.966	5.63953	1347.82	1248.74	2006.51	-0.181557	2004.36	1917.84	472.571	225.853	727.079	2246.54	29.5386	1540.42	608.744	2243.49	2431.2	18138	10002.2	2585.33	3096.69	3270.12	3698.33	155.609	309.873	236.034	2025.98	2333.48	387.697	112.907	307.003	4661.6	1902.99	19405.9	8.71925	749.299	2946.83	884.46	2716.71	1455.13	0.05543	1166.47	-0.0408842	-0.0681682	-0.0742509	-0.00524647	14.8176	81.5282	461.04	1167.08	773.43	2611.38	2653.32	-1.20118	-0.239726	-0.252932	-0.148219	-0.0476119	-0.181818	-0.115455	-0.0626594	-0.0404275	-0.150982	-0.0104109	-0.0775255	2435.01	5416.55	-0.411022	-0.040967	10690	228.301	5666.49	849.688	-3.07604	-0.134777	5958.37	8399.19	-0.554463	-1.2384	-0.222301	
3.625	238.677	4.89719	1375.07	1282.32	2007.86	-0.183271	2394.73	2211.14	469.379	224.212	727.896	2250.73	92.9506	1989.95	655.309	2327.02	2498.35	18776.9	10617.9	2761.44	3096.78	3270.27	3698.57	171.016	289.04	236.469	2029.15	2573.27	361.59	89.7572	318.641	5726.77	2152.03	19571.1	7.17554	742.298	2951.67	819.608	2535.52	1353.38	1.78178	1353.97	-0.0406557	-0.0688799	-0.0712219	0.00283011	11.3713	86.1213	528.422	1259.94	745.396	2458.61	2363.06	-1.20102	-0.247046	-0.26406	-0.15374	-0.0575351	-0.191272	-0.115849	-0.0648712	-0.0445872	-0.154822	-0.00897516	-0.0686092	2387.92	5416.2	-0.41101	-0.0342711	10690	233.295	5618.69	848.207	-3.0756	-0.137097	5959.36	8398.56	-0.561966	-1.24189	-0.235417	
3.63	221.258	4.26023	1394.99	1308.83	1997.75	-0.184983	2844.39	2571.28	466.524	222.743	728.627	2254.49	190.653	2494.84	699.322	2402.94	2552.81	19473.8	11254.6	2939.45	3096.89	3270.43	3698.8	188.486	271.115	236.859	2032.01	2812.16	338.472	72.522	332.345	7038.98	2431.29	19720.5	5.95087	736.051	2956.01	753.833	2351.19	1250.67	5.72274	1565.44	-0.0403534	-0.0696502	-0.0681121	1.08596	8.41265	90.6329	603.02	1338.41	714.57	2297.48	2088.12	-1.20086	-0.254458	-0.27532	-0.159193	-0.0676399	-0.20087	-0.116243	-0.0671656	-0.0488928	-0.156452	-0.00747617	-0.058929	2331.23	5415.82	-0.410974	-0.027632	10690	238.05	5569.88	846.81	-3.07511	-0.139165	5960.33	8397.88	-0.569381	-1.24311	-0.24873	
3.635	204.565	3.71038	1409.06	1329.62	1978.9	-0.186692	3374.85	3001.99	463.871	221.377	729.306	2258.01	315.223	3090.1	741.357	2472.81	2596.97	20209	11904.7	3120.76	3097.01	3270.6	3699.04	208.102	255.451	237.222	2034.67	3049.83	317.724	59.2488	347.739	8600.27	2743.45	19860.7	4.96589	730.256	2960.05	684.749	2162.77	1143.91	11.6332	1806.4	-0.0399595	-0.0703665	-0.0649104	3.95899	5.92695	95.0566	684.13	1385.06	681.137	2129.51	1828.39	-1.20069	-0.261932	-0.286665	-0.164536	-0.0780024	-0.210598	-0.116635	-0.0695671	-0.0533617	-0.158413	-0.00592453	-0.0484919	2265.65	5415.42	-0.410924	-0.0210853	10689.9	242.549	5521.15	845.619	-3.07461	-0.141002	5961.28	8397.14	-0.576278	-1.24372	-0.262168	
3.64	188.466	3.23316	1419.13	1346.38	1954.45	-0.188398	4000.66	3500.59	461.286	220.044	729.967	2261.46	463.175	3813.28	782.19	2538.63	2633.86	20955.1	12560.7	3307.22	3097.14	3270.77	3699.27	229.845	241.372	237.575	2037.28	3285.12	298.693	48.8038	364.445	10411.5	3096.15	19998.5	4.16406	724.617	2964	610.336	1959.76	1028.82	19.2971	2079.26	-0.0394562	-0.0709715	-0.0616042	8.43459	3.91045	99.3974	771.244	1387.31	645.498	1956.95	1581.89	-1.20053	-0.269437	-0.298047	-0.169722	-0.0887001	-0.220436	-0.117028	-0.0720997	-0.0580079	-0.160943	-0.00432247	-0.0401988	2192.17	5415	-0.41087	-0.0145964	10689.9	246.774	5474.18	844.843	-3.07412	-0.14265	5962.19	8396.35	-0.582321	-1.24436	-0.275699	
