CEINMS output
datacolumns 6
datarows 92
endheader
time	hip_flexion_l	hip_adduction_l	hip_rotation_l	knee_angle_l	ankle_angle_l	
3.19	49.9018	-112.64	30.6078	-190.706	4.78732	
3.195	80.9996	-164.656	38.4769	-257.231	11.4941	
3.2	50.004	-140.543	15.2972	-271.09	8.09674	
3.205	18.2723	-114.972	-12.3148	-275.716	6.34214	
3.21	48.5211	-117.071	-30.3025	-283.986	7.606	
3.215	104.842	-124.027	-24.4308	-292.02	9.11651	
3.22	158.15	-130.141	-18.1263	-295.191	11.6534	
3.225	195.053	-131.706	-21.9126	-294.205	14.6197	
3.23	215.722	-131.634	-26.696	-296.953	17.5126	
3.235	223.201	-130.795	-28.9705	-305.355	20.3087	
3.24	226.882	-120.233	-33.2946	-313.864	23.1173	
3.245	226.02	-108.206	-38.443	-312.191	25.964	
3.25	220.123	-101.676	-40.749	-298.043	28.8417	
3.255	210.36	-99.108	-41.5604	-275.892	31.7585	
3.26	198.787	-97.8637	-41.2267	-249.801	34.6922	
3.265	184.287	-93.5656	-40.0502	-220.337	37.4976	
3.27	164.402	-83.5215	-38.4917	-188.661	40.0994	
3.275	136.091	-70.1696	-37.1557	-155.441	42.4384	
3.28	103.272	-50.5337	-34.8425	-120.442	44.4444	
3.285	68.4399	-34.6452	-32.2327	-91.3876	46.0229	
3.29	34.7742	-28.9791	-29.0449	-61.3884	47.0992	
3.295	2.12862	-30.0488	-25.1716	-34.439	47.6248	
3.3	-33.9531	-27.4555	-21.0057	-22.8699	47.5869	
3.305	-63.4736	-22.8279	-16.7233	-24.3851	47.0375	
3.31	-62.8854	-23.4732	-12.9466	-32.004	46.0981	
3.315	-45.5413	-26.2592	-9.90532	-32.4338	44.9215	
3.32	-28.0351	-22.2151	-7.81014	-33.0226	43.6906	
3.325	-16.3527	-7.00029	-7.19078	-33.6229	42.5893	
3.33	-9.99096	3.35672	-3.86366	-33.5841	41.785	
3.335	-1.46282	-4.77833	-0.591561	-32.2029	41.4194	
3.34	-1.20657	-11.3447	-0.0374548	-30.1189	41.6333	
3.345	-4.75385	-14.2221	0.228975	-25.0381	42.3713	
3.35	-10.6854	-14.4181	0.166301	-15.189	42.7984	
3.355	-20.6591	-11.4578	-0.589348	2.00762	42.6729	
3.36	-35.3975	-5.0636	-1.42485	27.5738	42.159	
3.365	-55.185	4.02543	-2.3094	60.4643	41.4756	
3.37	-79.3835	14.4482	-3.20389	99.3575	40.7553	
3.375	-106.995	25.0552	-3.19188	142.057	40.0236	
3.38	-136.647	34.8089	-1.65536	186.827	39.2567	
3.385	-166.951	42.8698	1.64965	235.832	38.4115	
3.39	-196.735	48.4777	6.58402	284.397	37.4305	
3.395	-228.242	52.3103	11.2613	318.469	36.2397	
3.4	-266.852	54.8559	12.8212	343.776	34.7596	
3.405	-298.021	52.8216	13.1718	348.986	32.9136	
3.41	-312.285	54.3357	12.8224	341.909	30.6648	
3.415	-323.634	62.6723	11.3587	332.099	28.033	
3.42	-338.02	67.1212	17.8774	322.221	25.0815	
3.425	-351.041	69.6901	25.3311	311.255	21.879	
3.43	-359.376	71.5517	29.8484	302.474	18.4976	
3.435	-363.039	72.0872	32.4838	294.101	14.9929	
3.44	-362.569	72.2373	32.999	284.139	11.3993	
3.445	-358.73	71.9981	32.0609	268.524	7.71842	
3.45	-352.013	71.9397	29.4558	244.949	3.91721	
3.455	-342.802	71.9733	25.7716	215.776	-0.0918135	
3.46	-331.656	72.3124	21.3081	182.753	-3.96095	
3.465	-319.191	72.9912	16.5022	167.284	-5.85266	
3.47	-301.702	73.7811	13.4601	159.209	-6.81059	
3.475	-290.415	74.7979	7.62394	149.954	-8.76229	
3.48	-281.061	67.2464	7.63903	120.494	-13.4718	
3.485	-271.459	56.9529	8.39814	102.11	-22.2394	
3.49	-261.582	46.6802	8.14343	85.217	-36.3239	
3.495	-252.258	34.4877	10.1627	68.063	-52.0997	
3.5	-244.222	20.7651	18.0838	51.7809	-65.7939	
3.505	-240.242	5.63166	24.4142	39.2647	-78.3057	
3.51	-233.067	-8.632	29.9926	29.7669	-90.6699	
3.515	-220.014	-22.0219	32.6835	21.3472	-102.929	
3.52	-201.7	-26.2276	30.0819	11.1015	-114.632	
3.525	-184.443	-25.14	22.6315	-1.40317	-125.214	
3.53	-170.35	-23.4621	13.42	-15.2345	-134.318	
3.535	-158.275	-22.9563	5.1805	-28.4662	-141.589	
3.54	-146.481	-22.0339	-2.11454	-39.8922	-146.855	
3.545	-133.885	-22.7328	-8.62608	-48.709	-149.933	
3.55	-118.869	-26.1018	-14.3843	-54.7417	-150.78	
3.555	-91.2565	-22.4392	-13.1298	-57.8758	-149.448	
3.56	-59.1367	-17.6483	-10.1574	-58.2998	-146.136	
3.565	-28.6794	-10.5809	-10.1337	-56.0675	-141.192	
3.57	-1.88507	-4.5701	-9.23332	-51.5521	-135.015	
3.575	21.091	-1.2721	-7.76478	-46.1897	-127.491	
3.58	41.6881	-1.62854	-7.64651	-42.5793	-117.447	
3.585	57.4924	-5.09388	-8.20613	-39.2815	-103.794	
3.59	69.3762	-7.9096	-7.89995	-41.0199	-86.4084	
3.595	78.5606	-9.31481	-7.12069	-47.3006	-66.069	
3.6	85.6831	-8.67643	-6.47264	-56.0681	-44.4963	
3.605	91.9817	-6.06122	-6.04365	-66.7305	-24.984	
3.61	98.3606	-1.73011	-5.67605	-78.787	-14.4835	
3.615	104.957	4.06287	-5.36018	-92.1671	-8.9259	
3.62	111.221	11.2902	-5.25641	-106.818	-3.2702	
3.625	116.372	20.0634	-5.63467	-121.939	2.16832	
3.63	120.027	30.6647	-6.70552	-135.86	6.23524	
3.635	122.549	43.7923	-8.46947	-147.729	8.47994	
3.64	136.668	56.4368	-7.36159	-159.234	9.8568	
3.645	146.789	72.1975	-7.64671	-168.791	9.28923	
