CEINMS output
datacolumns 81
datarows 92
endheader
time	addbrev_r	addlong_r	addmagDist_r	addmagIsch_r	addmagMid_r	addmagProx_r	bflh_r	bfsh_r	edl_r	ehl_r	fdl_r	fhl_r	gaslat_r	gasmed_r	glmax1_r	glmax2_r	glmax3_r	glmed1_r	glmed2_r	glmed3_r	glmin1_r	glmin2_r	glmin3_r	grac_r	iliacus_r	perbrev_r	perlong_r	piri_r	psoas_r	recfem_r	sart_r	semimem_r	semiten_r	soleus_r	tfl_r	tibant_r	tibpost_r	vasint_r	vaslat_r	vasmed_r	addbrev_l	addlong_l	addmagDist_l	addmagIsch_l	addmagMid_l	addmagProx_l	bflh_l	bfsh_l	edl_l	ehl_l	fdl_l	fhl_l	gaslat_l	gasmed_l	glmax1_l	glmax2_l	glmax3_l	glmed1_l	glmed2_l	glmed3_l	glmin1_l	glmin2_l	glmin3_l	grac_l	iliacus_l	perbrev_l	perlong_l	piri_l	psoas_l	recfem_l	sart_l	semimem_l	semiten_l	soleus_l	tfl_l	tibant_l	tibpost_l	vasint_l	vaslat_l	vasmed_l	
3.19	0.0785366	1.59449	0.667081	0.351056	0.16502	0.231105	11.783	2.0734	0.343068	0.0837516	0.305813	0.583232	7.80972	20.8796	23.7052	31.5644	19.3229	6.72159	7.94663	16.3585	0.00863102	-2.51953e-05	0.366529	0.103487	0.861018	0.503222	0.407775	2.95347	0.458801	0.777884	0.0289909	36.0774	3.6815	20.2277	0.0535934	0.249008	1.67567	1.4566	2.16911	1.10657	0.371383	0.332198	198.301	287.876	46.9331	0.352968	1.11097	0.226071	1.10268	0.161681	75.4453	0.106345	4.35058	0.801009	0.807423	2.59049	0.276069	2188.14	721.435	0.288334	110.961	691.533	0.141365	5.79536	0.668065	0.42039	0.00927687	0.269439	2.5424	0.263652	123.232	10.188	0.709292	2.38419	0.105723	7.55448	5.89319	0.0979465	4.1978	0.187506	
3.195	0.0951346	2.35063	0.494181	0.315922	0.107322	0.625681	16.8773	6.94826	0.905891	0.250226	0.547579	0.97559	17.3052	40.1536	17.1086	20.9627	9.11137	12.7129	8.47112	9.75023	0.0114392	-0.000105353	0.583532	0.24261	3.11424	0.851775	0.817436	1.71444	1.64187	2.11395	0.119811	47.8833	5.82342	21.6315	0.22977	0.830611	2.68418	1.38318	2.46231	1.21491	0.486475	0.483806	187.041	264.731	52.0472	3.87588	0.716931	0.191204	1.28186	0.226336	80.4511	0.37925	3.8294	1.60452	1.86821	5.2623	0.717772	2467.99	942.931	0.323943	121.991	186.113	0.164859	7.76214	1.61017	1.52075	0.0325839	0.53344	3.4344	0.673964	180.826	6.35215	0.51645	5.94818	0.211775	9.60573	17.1884	0.26232	8.41599	0.805229	
3.2	1.99266	2.85312	1.77001	1.96878	1.41434	10.5318	24.4057	19.0517	2.32849	1.09128	0.912965	1.48872	24.3527	45.7291	16.9189	21.1556	9.33497	12.7798	8.28964	9.76119	0.00505681	-0.00016346	0.585301	1.02113	10.8669	1.31872	2.04125	1.45269	6.99912	18.9054	1.95443	49.1414	7.04477	26.2869	3.81737	5.61385	3.75845	2.7468	8.80625	4.45995	0.92923	0.92803	241.097	282.97	81.0341	7.78648	56.9333	24.7957	1.29316	0.239951	79.3786	10.7739	122.307	3.2408	40.1515	99.0407	37.7416	2172.31	1089.7	0.327521	123.255	106.495	0.168145	53.3326	3.2063	11.5314	2.4258	1.04073	3.69351	0.793611	211.635	131.16	51.1893	27.3319	0.427743	6.26656	93.3848	3.78957	10.1045	11.5468	
3.205	2.21322	2.85241	1.83161	2.03214	1.47646	10.5193	23.2641	18.3651	2.27492	1.06399	0.924789	1.51421	24.6279	44.9537	16.4339	20.9754	9.36056	11.6352	7.73354	9.43978	0.000247506	-0.000199451	0.522404	1.01317	10.7914	1.34065	2.08037	1.37643	6.98366	20.6219	1.8952	46.5106	6.78491	28.6509	3.88848	5.45409	3.81927	2.78896	8.91043	4.54614	0.920286	0.910611	256.107	282.187	85.0085	8.14786	64.9431	28.2499	1.2656	0.232137	76.5307	11.7181	159.352	3.23643	54.9124	181.201	37.4647	2091.38	950.358	0.327459	61.6504	16.2455	0.16811	98.8285	3.16608	12.3735	2.5141	1.03931	3.64835	0.856885	220.022	149.58	59.0502	22.4652	0.427166	3.94445	118.992	3.78897	11.7594	11.6457	
3.21	2.40948	2.85168	1.83703	2.02146	1.52213	10.5058	21.675	17.7077	2.18502	1.01993	0.933268	1.53578	24.5465	44.0743	15.7011	20.4506	9.21695	10.5364	7.18706	9.08035	-1.11388e-05	-0.00022129	0.467756	0.990731	10.709	1.36011	2.10718	1.30442	6.98086	22.1692	1.83674	43.5136	6.48491	31.5474	3.90334	5.20284	3.87305	2.90336	9.22406	4.72389	0.883256	0.862572	221.284	256.113	71.1238	6.8667	71.0489	26.7401	1.23378	0.223736	76.7702	11.9473	168.754	3.23186	52.6379	177.241	37.1436	2030.95	591.161	0.327397	28.552	3.07268	0.168075	118.083	3.07221	12.6026	2.57992	1.03783	3.56901	0.920116	215.775	144.993	58.0604	17.4354	0.426563	1.75861	126.477	3.78832	13.3011	11.6954	
3.215	2.66792	2.85098	1.85351	1.99521	1.58237	10.4934	19.8588	17.034	2.0917	0.973869	0.942464	1.56044	24.5341	43.5409	15.0327	20.018	9.12568	9.35228	6.67432	8.84417	-2.95824e-05	-0.000224262	0.41394	0.967801	10.614	1.38038	2.13654	1.24675	6.98097	23.5658	1.77802	40.2318	6.14767	34.8585	3.90437	4.9308	3.93276	3.00856	9.51363	4.88744	0.881217	0.801849	166.89	208.221	54.2038	5.69206	75.2352	24.6168	1.19795	0.214605	80.6948	12.2163	164.741	3.22737	53.1545	171.907	40.4593	1918.98	207.78	0.327334	13.105	1.47304	0.16804	113.289	2.97524	13.3213	2.64834	1.03637	3.47869	0.982423	207.381	140.222	58.8471	12.9903	0.42597	0.317351	126.185	3.78818	14.6907	11.7731	
3.22	2.9737	2.85025	1.87827	1.97948	1.65405	10.4799	18.1302	16.3458	1.984	0.92006	0.954309	1.59071	24.6001	43.1126	14.4179	19.6408	9.06028	8.11091	6.2192	8.72215	-4.04441e-05	-0.000207837	0.363895	0.94264	10.5036	1.40571	2.17376	1.21959	6.96894	24.9033	1.71927	36.6007	5.77817	39.0185	3.90693	4.59961	4.00688	3.1628	9.95672	5.13555	1.95481	0.898084	119.273	153.102	39.8835	4.44941	77.4451	23.1794	1.15588	0.204269	87.2495	12.74	161.303	3.2229	56.3792	182.021	66.2049	1682.56	20.754	0.327272	6.20414	1.29615	0.168005	102.369	2.85136	14.4673	2.73427	1.03492	3.37348	1.04182	198.209	143.365	60.5305	9.40064	0.42538	-0.000236378	127.099	3.83393	15.8863	11.8363	
3.225	3.32269	2.84949	1.90689	1.9624	1.74012	10.4657	16.5795	15.6503	1.8589	0.85749	0.967981	1.62427	24.6782	42.694	13.8629	19.3124	9.01769	6.85256	5.85349	8.72137	-4.26603e-05	-0.000175668	0.321655	0.917196	10.3799	1.43556	2.21566	1.22329	6.94806	26.1729	1.66092	32.8535	5.39849	43.8647	3.90915	4.20668	4.09105	3.38477	10.6045	5.49144	2.09041	2.66009	82.1333	103.85	28.3745	3.3871	77.7538	22.1024	1.10888	0.193133	95.3966	13.4618	161.293	3.21846	60.1739	196.463	68.034	1337.24	2.57244	0.32721	3.25942	1.29463	0.167971	94.859	104.38	15.9562	2.83619	1.03348	3.26654	1.09351	188.774	152.159	62.2387	6.67179	0.424794	-0.00689873	131.875	3.95281	16.8829	11.8898	
3.23	3.70889	2.84874	1.94353	1.94393	1.84446	10.4518	15.2301	14.9561	1.72151	0.788907	0.982324	1.65899	24.7416	42.3101	13.3877	19.0444	9.00492	5.64241	5.56756	8.85166	-3.71111e-05	-0.000134884	0.290235	0.89402	10.2441	1.46762	2.25913	1.27334	6.91949	27.2742	1.60316	29.3061	5.03028	48.9488	3.90785	3.77174	4.17902	3.65331	11.3897	5.9162	1.98133	4.64386	53.6904	65.6229	19.9582	2.59539	77.3275	22.5543	1.05892	0.18166	104.346	14.3399	162.58	3.21404	64.5462	210.324	73.1689	990.679	1.39894	0.327149	16.0609	1.31394	0.167936	90.0351	244.463	17.7786	2.94913	1.03205	3.28128	1.13439	179.059	158.491	64.1198	4.68607	0.42421	-0.0120024	139.701	4.15385	17.7113	11.9456	
3.235	4.12152	2.84799	1.99241	1.93472	1.97287	10.4378	14.1264	14.2701	1.57848	0.71758	0.996573	1.69327	24.7896	41.9639	13.0076	18.8499	9.02867	4.58171	5.36277	9.12481	-2.68714e-05	-9.49148e-05	0.269206	0.875287	10.0965	1.5003	2.30238	1.3756	6.88276	28.1498	1.54625	26.2291	4.69322	53.8176	3.9022	3.3204	4.2665	3.94895	12.2545	6.37926	1.78413	5.85669	35.5097	40.5353	14.0164	2.0629	76.9022	25.064	1.00752	0.170224	113.931	15.3838	163.667	3.20963	69.9208	225.063	84.5199	697.016	1.42252	0.327087	11.5803	1.33475	0.167901	85.9396	383.925	19.9061	3.07041	1.03062	3.28029	1.16185	169.483	163.12	66.4872	3.28732	0.420615	-0.0149437	149.386	4.42658	18.4098	12.007	
3.24	4.54505	2.84724	2.05547	1.93812	2.13348	10.4239	13.2788	13.6129	1.43594	0.646757	1.01007	1.72539	24.8165	41.6233	12.7331	18.7399	9.09688	3.77579	5.2207	9.42724	-1.62198e-05	-6.30306e-05	0.257201	0.862751	9.93822	1.53232	2.34377	1.51437	6.83802	28.8093	1.49048	23.7729	4.40383	58.0722	3.88911	2.88073	4.34928	4.27073	13.1968	6.88091	1.6009	6.15797	30.1481	31.8339	10.4418	1.72933	76.4803	27.0302	0.956013	0.159199	123.856	16.6189	164.329	3.20523	76.3274	241.186	97.7268	421.147	1.55095	0.327025	6.71538	1.35435	0.167867	81.9226	465.942	22.3398	3.19965	1.0292	3.2807	1.17655	160.466	169.15	69.5495	2.3269	0.582369	-0.0155911	160.344	4.74941	18.9994	12.067	
3.245	4.96347	3.3649	2.13578	1.95522	2.33716	10.4097	12.648	12.9949	1.30028	0.579906	1.02204	1.75374	24.8154	41.2391	12.5743	18.7194	9.21696	3.22164	5.13361	9.5414	-8.06939e-06	-3.95772e-05	0.252901	0.857952	9.7702	1.56228	2.38127	1.67839	6.7854	29.2911	1.43633	21.9349	4.17422	61.3597	3.86486	2.48278	4.42303	4.61276	14.1966	7.41093	1.46621	5.98434	37.9425	38.2524	7.46159	1.53128	76.052	28.4012	0.905772	0.14896	134.119	18.0551	164.975	3.20084	83.6967	257.728	110.921	159.179	1.71151	0.50096	3.85861	1.37223	0.167832	78.2109	438.503	25.0854	3.3361	1.02777	3.28001	1.17837	152.126	178.18	73.6203	1.68352	0.697893	-0.014204	172.081	5.12455	19.4618	12.1005	
3.25	5.36049	4.16784	2.23641	1.9865	2.59584	10.3954	12.174	12.4405	1.178	0.520409	1.03186	1.77687	24.779	40.7598	12.5407	18.7941	9.39618	2.86878	5.07919	9.88908	-2.24152e-06	-2.2055e-05	0.254954	0.862078	9.59335	1.5889	2.41313	1.88298	6.72485	29.6397	1.38364	20.6065	4.01122	63.4543	3.82595	2.15316	4.48388	4.95767	15.201	7.94073	1.38071	6.32032	60.8378	57.9976	5.20782	1.41889	75.6067	29.1139	0.858056	0.139871	144.652	19.6804	166.253	3.19646	91.9215	273.56	124.409	26.8023	1.89082	0.59093	2.45061	1.3881	0.167798	75.0833	316.753	28.099	3.47716	1.02636	3.2795	1.17271	144.407	191.001	79.1724	1.26681	0.745798	-0.0112667	183.84	5.56681	19.7919	12.0982	
3.255	5.71765	4.29992	2.36132	2.03449	2.92348	10.3809	11.8213	11.9517	1.07426	0.47088	1.03899	1.79353	24.6974	40.1316	12.6395	18.9655	9.64652	2.66991	4.92394	10.2552	5.67775e-05	-7.89276e-06	0.262135	0.876016	9.40849	1.61094	2.43794	2.13809	6.65637	29.8941	1.33257	19.7032	3.91913	64.3775	3.76876	1.90162	4.52892	5.28402	16.1493	8.43856	1.33296	7.5101	101.401	90.7595	3.64898	1.35802	75.1401	29.21	0.813887	0.132251	155.227	21.5033	168.827	3.19209	100.931	288.223	137.528	7.44235	2.08416	0.688477	1.82064	1.40195	0.167764	72.6254	172.93	31.4143	3.62242	1.02494	3.279	1.16573	137.219	208.467	86.9089	1.01327	0.766492	-0.00727728	194.841	6.07972	20.0151	12.069	
3.26	6.01627	4.39905	2.51486	2.10014	3.3367	10.3663	11.6324	11.5472	0.992499	0.432654	1.04311	1.80296	24.5609	39.3518	12.9505	19.2275	9.97896	2.58214	4.77883	10.638	0.000897586	8.49134e-05	0.273254	0.900288	9.21684	1.62758	2.45461	2.43589	6.58024	30.0835	1.2832	19.2043	3.89985	64.3515	3.68952	1.7196	4.55626	5.57196	16.9842	8.87526	1.31053	8.83236	162.496	137.877	2.65089	1.32703	74.6479	29.0886	0.774146	0.12973	165.723	23.464	173.213	3.18772	110.755	301.916	148.912	5.23316	2.29147	0.826732	1.55885	1.41402	0.167729	70.8288	70.9058	34.7833	3.76466	1.02353	3.27855	1.15729	130.429	231.309	97.8195	0.879399	0.759992	-0.00263375	204.1	6.65021	20.1747	12.028	
3.265	6.24501	4.54434	2.69921	2.18287	3.85233	10.3514	11.6683	11.2215	0.934141	0.405733	1.0441	1.80492	24.3641	38.4543	15.2183	19.573	10.4045	2.56628	4.69565	11.0092	0.00274175	0.00245867	0.28717	0.935084	9.01966	1.63814	2.46252	2.75177	6.49696	30.227	1.23574	19.0902	3.95436	63.6283	3.58474	1.59591	4.56524	5.80499	17.658	9.22656	1.30359	9.60518	246.021	202.849	2.04535	1.31285	74.1257	28.9695	0.739525	0.138094	175.818	25.5337	179.774	3.18337	121.483	315.158	158.225	5.03369	2.51255	0.995487	1.45894	1.42471	0.167695	69.7079	31.5468	38.1347	3.90034	1.04788	3.2781	1.11581	123.579	262.738	113.311	0.836415	0.727684	0.0278078	210.844	7.27163	20.2816	11.9672	
3.27	6.40748	4.67044	2.92252	2.2866	4.48028	10.3364	11.951	10.9814	0.898448	0.389496	1.04207	1.80017	24.1051	37.4816	17.2439	19.9828	10.9333	2.58849	4.61056	11.3206	0.00555046	0.00795488	0.302794	0.980012	8.81882	1.64231	2.4615	3.04656	6.40751	30.334	1.19016	19.3726	4.08334	62.4235	3.45267	1.52013	4.55615	5.97	18.1338	9.47339	1.30543	9.68465	353.195	283.503	1.6913	1.30785	73.5684	28.8537	0.710311	0.142648	185.161	27.6405	188.785	3.17902	133.235	328.644	165.843	5.04826	2.74118	1.2056	1.42613	1.43445	0.167661	69.3319	22.5608	41.4342	4.02501	1.1698	3.27766	0.993856	115.357	310.88	135.247	0.864821	0.671308	0.74495	214.555	7.96042	20.3119	11.8702	
3.275	6.50974	4.76228	3.18555	2.4154	5.20138	10.3213	12.4988	10.8254	0.884962	0.383567	1.03723	1.78927	23.7861	36.4415	19.0049	20.4357	11.5721	2.75512	4.5335	11.5241	0.0092666	0.0163648	0.318971	1.03408	8.61644	1.63999	2.45167	3.27179	6.31309	30.4039	1.14674	20.0793	4.28907	60.8495	3.2928	1.48676	4.53002	6.05876	18.386	9.60339	1.31181	9.40534	497.809	389.836	1.48928	1.30769	72.9712	28.7384	0.686718	0.14686	193.53	29.8039	200.62	3.17468	146.063	342.938	172.323	5.08293	2.96732	1.47228	1.41915	1.44342	0.380722	69.8326	15.4507	44.6468	4.13507	1.27787	3.45669	0.771064	102.145	386.297	165.891	0.950527	0.599909	2.43254	214.997	8.75674	20.262	11.7281	
3.28	6.56119	4.83222	3.49298	2.57278	5.98237	10.3059	13.335	10.742	0.894859	0.388471	1.03	1.77213	23.4118	35.3345	20.4536	20.8976	12.3227	2.92698	4.46023	11.5745	0.0138253	0.0274487	0.334888	1.09549	8.41519	1.63141	2.4335	3.38048	6.21463	30.4236	1.10549	21.2677	4.57571	58.9616	3.10851	1.49832	4.48883	6.06717	18.4028	9.61064	1.32022	8.85924	664.672	524.142	1.37585	1.30994	72.3287	28.62	0.668822	0.152476	200.665	31.9341	215.705	3.17035	159.93	358.435	178.324	5.11508	3.18295	1.80386	1.42047	1.45176	0.58078	71.4248	10.2852	47.6465	4.22569	1.23683	6.28113	0.50648	67.4644	501.041	206.808	1.08202	0.552163	5.05016	212.244	9.7188	20.2445	11.6125	
3.285	6.56631	4.88685	3.84631	2.76206	6.78234	10.2904	14.507	10.7249	0.930205	0.405106	1.02087	1.74923	22.9801	34.1656	21.6599	21.3347	13.1785	3.04896	4.38879	11.4425	0.0191556	0.0409381	0.361457	1.16171	8.21779	1.61688	2.40765	3.34148	6.11351	30.3602	1.06653	23.0232	4.94571	56.7788	2.90761	1.56464	4.4348	5.99563	18.183	9.49492	1.32923	7.82359	855.151	675.075	1.3128	1.31326	71.6359	28.4966	0.656341	0.158393	206.499	33.9731	234.441	3.16603	174.672	375.197	184.466	5.14026	3.37993	2.19804	1.42245	1.45969	0.82063	74.4361	6.84786	50.3292	4.29291	1.16939	10.081	0.312857	28.0544	671.375	256.392	1.2476	0.557264	8.50519	206.644	10.9224	20.1983	11.4736	
3.29	6.53414	4.92992	4.24028	2.98535	7.55766	10.2747	16.0655	10.7634	0.994485	0.435285	1.01032	1.72209	22.4863	32.9383	22.6656	21.7044	14.1233	3.17502	4.32361	11.1209	0.0251848	0.0565505	0.412077	1.22968	8.02712	1.59686	2.37498	3.1538	6.01075	30.1096	1.02986	25.4474	5.4008	54.29	2.69746	1.69914	4.37038	5.84959	17.7389	9.26344	1.3381	6.57172	1055.99	843.413	1.27794	1.31695	129.224	28.3664	0.649282	0.165197	210.74	35.9309	257.128	3.16171	189.947	392.647	190.805	5.15663	3.55076	2.64163	1.42097	1.46744	1.07041	79.3261	4.78565	52.6734	4.33385	1.14843	5.85832	0.218156	8.86253	908.744	309.277	1.43504	0.556109	12.6861	198.77	12.4657	20.0668	11.2704	
3.295	6.47382	4.96658	4.66272	3.24356	8.27241	10.2589	18.033	10.8388	1.09365	0.482251	0.998804	1.69197	21.9168	31.6446	23.5075	21.9725	15.1297	3.27478	4.27049	10.6303	0.0318431	0.0739847	0.434302	1.29596	7.84526	1.57195	2.33632	2.84989	5.90773	29.5145	0.995507	28.6418	5.9333	51.4442	2.48441	1.92423	4.29786	5.6393	17.094	8.93032	1.34644	5.7688	1220.89	1009.93	1.25867	1.32066	293.283	28.2272	0.647545	0.172053	213.485	37.687	283.602	3.15741	205.121	409.571	197.053	5.16375	3.68975	3.10791	1.41244	1.47457	1.29897	86.6848	3.62409	54.621	4.34721	1.11526	3.86803	0.153245	2.97057	1196.14	357.752	1.62994	0.555503	17.5133	189.175	14.8688	19.8378	11.0126	
3.3	6.39275	5.00246	5.09777	3.53503	8.90962	10.2429	20.43	10.9338	1.2355	0.550825	0.986724	1.65925	21.2538	30.2812	24.2136	22.107	16.1583	3.33655	4.21829	10.0096	0.0390762	0.0929527	0.454818	1.35694	7.67366	1.54268	2.29248	2.48351	5.80529	28.4896	0.963416	32.7021	6.52505	48.2428	2.27405	2.27565	4.21916	5.38033	16.2862	8.51566	1.35412	5.23353	1323.88	1134.59	1.24794	1.32419	406.548	28.0769	0.650987	0.179592	214.632	39.2509	312.987	3.15311	219.569	424.901	202.976	5.16237	3.7945	3.55641	1.39207	1.48103	1.47776	97.1468	2.99591	56.1437	4.33285	1.07959	3.38982	0.117669	6.58526	1475.31	393.756	1.8207	0.554558	22.9274	178.505	24.0744	19.5269	10.7209	
3.305	6.29399	5.04	5.53006	3.85542	9.43167	10.2267	23.2564	11.0346	1.42473	0.644514	0.974309	1.62421	20.4716	28.8447	24.8074	22.0548	17.1626	3.38853	4.15912	9.31551	0.0468645	0.113194	0.468789	1.40934	7.51305	1.50957	2.24422	2.12036	5.70443	26.9874	0.933368	37.5764	7.14932	44.6909	2.07199	2.80014	4.13565	5.09584	15.3699	8.04779	1.36108	4.73377	1373.78	1198.97	1.24186	1.32747	419.427	27.9134	0.659769	0.188048	214.272	40.6711	343.801	3.14883	232.992	438.385	208.471	5.1483	3.86661	3.95125	1.35295	1.48607	1.60522	111.213	2.66434	57.2148	4.29192	1.05206	3.29372	0.091755	10.2442	1584.54	412.357	1.99952	0.553743	28.8496	167.279	24.8812	19.158	10.4097	
3.31	6.1748	5.08144	5.94394	4.19757	9.81398	10.2103	26.42	11.1216	1.65944	0.762621	0.961599	1.58725	19.5317	27.3167	25.3084	21.7683	18.0846	3.48651	4.09546	8.60599	0.0552506	0.134499	0.47272	1.45057	7.36509	1.47299	2.19217	1.81091	5.60547	25.0412	0.905311	42.9907	7.77367	40.8113	1.88379	3.50961	4.04802	4.82132	14.4114	7.56274	1.36737	5.26482	1404.53	1222.47	1.23831	1.33047	423.679	27.7347	0.673625	0.196573	212.527	41.8556	374.158	3.14455	245.476	450.448	213.563	5.10589	3.91028	4.27873	1.28569	1.48652	1.68731	128.978	2.49194	57.867	4.22688	1.0332	3.47002	0.0721276	5.07412	1566.46	417.03	2.16178	0.552947	35.1011	155.971	24.0316	18.7122	10.0585	
3.315	6.03257	5.12564	6.32629	4.54734	10.0989	10.1938	29.6966	11.1775	1.92833	0.898674	0.948498	1.54854	18.3971	25.7081	25.7326	21.3925	18.8738	3.60683	4.03241	7.93068	0.0663184	0.156837	0.466469	1.47903	7.23303	1.43317	2.13682	1.56523	5.50874	22.8179	0.878803	48.5365	8.3614	36.6081	1.71435	4.35125	3.95621	4.63744	13.5001	7.11127	1.37301	5.4611	1424.43	1223.46	1.23611	1.33319	426.77	27.539	0.692724	0.206361	209.555	42.8002	402.167	3.14028	257.665	461.782	218.39	5.00401	3.93147	4.53294	1.1816	1.47534	1.73264	150.571	2.40313	58.151	4.14078	1.02093	3.3266	0.0573058	1.96165	1528.66	413.921	2.30478	0.55217	41.298	144.911	24.8002	18.1468	9.64535	
3.32	5.86557	5.17011	6.66646	4.88782	10.2718	10.1771	32.8579	11.1959	2.20985	1.04021	0.934761	1.50803	17.0549	24.0174	26.0925	20.9049	19.4906	3.7756	3.97459	7.32529	0.0862893	0.181709	0.461863	1.49526	7.10769	1.39023	2.07843	1.35884	5.41392	20.5075	0.853762	53.8175	8.88618	32.0891	1.56733	5.21716	3.85937	4.9173	12.7475	6.77196	1.37807	4.85197	1417.72	1196.81	1.23464	1.33565	429.825	27.3247	0.71719	0.216327	205.588	43.592	426.148	3.13601	269.281	472.833	223.167	4.79667	3.93713	186.741	1.04397	1.441	1.75031	176.39	2.35763	58.1027	4.03771	1.01306	3.2827	0.046052	0.817861	1484.37	406.563	2.42617	0.551393	46.7159	134.362	28.8517	17.4333	9.16735	
3.325	5.67333	5.21219	6.95637	5.2037	10.3701	10.1602	35.6859	11.1613	2.47819	1.17252	0.919916	1.46553	15.4943	22.1902	26.3983	20.3725	19.9129	3.99791	3.92892	6.8074	0.0979488	0.229829	0.461323	1.5004	6.9905	1.34429	2.01738	1.17131	5.32059	18.3151	0.829483	58.4399	9.32086	27.3477	1.44554	5.9787	3.75617	5.24622	12.4461	6.89437	1.38261	4.11831	1365.01	1136.58	49.0007	1.33786	431.807	27.0908	0.746625	0.226741	200.817	44.1618	445.149	3.13176	280.188	483.442	228.046	4.4309	3.93458	382.083	0.887293	1.36874	1.74788	203.595	2.33436	57.7736	3.92152	1.00792	4.56706	0.0373656	0.424061	1431.73	396.729	2.52254	0.550616	50.2233	124.478	36.4771	16.5648	12.0745	
3.33	5.45672	5.24921	7.19233	5.48231	10.4064	10.1432	38.0146	11.0774	2.70466	1.27958	0.903531	1.42079	13.7226	20.24	26.6582	20.9372	20.1317	4.22009	3.90247	6.38563	0.110046	0.263906	0.464145	1.49606	6.8782	1.29532	1.95391	1.02406	5.22786	16.4456	0.804821	62.1341	9.65199	22.5833	1.35055	6.50552	3.6452	5.52232	13.7223	7.63208	1.38668	3.41903	1234.48	1025.6	236.912	1.33983	432.468	26.8364	0.780979	0.238345	195.496	44.5237	458.677	3.12752	290.545	493.981	232.803	3.89213	3.931	679.9	0.91995	1.24539	1.73369	227.633	2.32243	57.2183	3.79618	1.00442	6.59532	0.0306105	7.08493	1366.55	385.38	2.58929	0.549839	50.2103	115.353	47.1686	15.5568	22.0537	
3.335	5.21755	5.27835	7.37214	5.71387	10.3941	17.9094	39.7272	10.9345	2.86341	1.34942	0.885126	1.37347	11.776	18.1462	26.8786	23.7375	20.1506	4.46794	3.89016	6.40549	0.120742	0.293802	0.477718	1.48451	6.76813	1.24356	1.88829	0.919964	5.13458	15.0768	0.781773	64.75	9.87096	18.219	1.28287	6.78211	3.52483	5.74669	14.8811	8.16311	1.39033	2.82268	1083.59	898.439	340.406	1.34159	432.477	26.5615	0.820183	0.249759	189.823	44.7587	466.668	3.12328	300.562	504.898	237.518	3.28043	3.93264	849.479	0.906288	1.07982	1.71676	245.653	2.31626	56.4782	3.66591	1.00187	7.98795	0.0253121	4.30364	1290.43	373.04	2.62187	0.549061	44.2668	107.029	59.9194	14.4528	40.095	
3.34	4.95792	5.29636	7.4946	5.89311	10.3417	18.5566	40.7805	10.7459	2.95285	1.38483	0.86432	1.32295	9.76826	15.944	27.0649	26.198	19.9919	4.76465	3.8845	8.26529	0.133855	0.321301	0.494381	1.46615	6.65697	1.18937	1.82124	0.844204	5.03846	14.3709	0.759181	66.2751	9.9803	14.5753	1.24195	6.8775	3.3942	5.93241	15.8514	8.60131	1.39361	2.3791	937.014	774.238	397.343	1.34316	430.609	26.2666	0.864075	0.261922	183.908	44.8325	469.61	3.11905	310.499	516.473	242.122	2.79325	3.93183	955.368	0.893128	0.898618	1.70525	256.619	2.31301	55.5871	3.534	0.999851	4.58669	0.0211967	1.88953	1207.3	360.021	2.62009	0.548285	30.1332	99.5036	73.5711	13.3566	64.9413	
3.345	4.68507	5.30052	7.56104	6.01564	10.2566	18.2662	41.1188	10.5046	2.98648	1.39403	0.840849	1.26934	7.86601	13.716	27.2213	28.2777	19.6716	5.1096	3.90588	10.3662	0.150128	0.349925	0.508956	1.44183	6.54382	1.13345	1.75341	0.78034	4.93938	14.6239	0.737024	66.6534	9.97305	11.7524	1.22753	6.86653	3.25328	6.08846	16.6338	8.9554	1.39654	2.087	797.853	655.465	413.694	1.34454	427.679	25.9527	0.911593	0.274288	177.961	44.7513	468.698	3.11483	320.56	528.719	246.65	2.31097	3.89428	972.792	0.884729	0.729711	1.69819	261.432	2.31122	54.5712	3.40338	0.998136	3.54199	0.0179272	0.928111	1121.48	346.574	2.58942	0.54751	17.3738	92.7431	87.001	409.235	93.856	
3.35	4.40599	5.2882	7.57162	6.08204	10.1408	18.8009	40.7483	10.2223	2.98051	1.3858	0.814841	1.21552	6.28769	9.41844	27.3512	29.9736	19.2282	5.51284	3.96985	12.4019	0.169927	0.388703	0.530696	1.41227	6.42582	1.07688	1.68611	0.742624	4.83634	15.1607	0.715365	65.9431	9.85983	9.7686	1.24047	6.80706	3.10355	6.22079	17.2817	9.25155	1.39917	1.91472	669.03	543.372	396.657	1.34575	424.087	25.6219	0.962312	0.287251	171.98	44.5441	465.11	3.11062	330.805	541.411	251.211	1.93905	3.82115	916.297	0.88052	0.594725	1.6468	262.371	2.31017	53.4557	3.27663	0.996588	3.31922	0.015332	0.597365	1035.95	332.909	2.53905	0.546735	9.89056	86.6978	99.313	784.171	123.956	
3.355	4.12771	5.25832	7.52858	6.09311	9.99598	18.9273	39.6584	9.89621	2.94927	1.36713	0.786614	1.15948	5.08242	7.7405	27.4574	31.3823	18.6883	5.95246	4.06815	14.1641	0.194544	0.434572	0.561012	1.3777	6.30292	1.02109	1.62078	0.968307	4.73073	15.5095	0.694108	64.1376	9.63898	8.4228	1.28345	6.72554	2.94809	6.33363	17.8238	9.50083	1.40152	1.82676	550.175	439.44	356.76	1.3468	419.653	25.277	1.01538	0.299798	165.908	44.2213	459.556	3.10642	341.159	554.183	255.997	1.68874	3.71595	801.795	0.878531	0.501256	1.51526	261.455	2.30949	52.2457	3.1543	0.995132	4.63311	0.0131881	0.519805	952.259	319.229	2.47908	0.545961	5.33849	81.2932	110.009	1170.96	153.156	
3.36	3.85697	5.21117	7.43299	6.05203	9.81954	18.9614	37.8549	9.53339	2.90218	1.34204	0.756919	1.10263	4.21832	6.86203	27.542	32.5588	18.0877	6.46358	4.20612	15.6909	0.222236	0.493827	0.598402	1.33832	6.17453	0.967688	1.55939	1.38935	4.62675	15.7976	0.673281	61.2372	9.31411	7.49826	1.3606	6.61368	2.79184	6.43029	18.2815	9.71221	1.40362	1.79249	438.348	341.625	301.355	1.3477	414.206	26.9464	1.07009	0.313022	159.837	43.7953	452.25	3.10222	351.394	566.428	260.886	1.53793	3.54902	620.129	0.877628	0.444626	1.31946	259.745	2.309	50.948	3.03759	0.993727	4.41569	0.0113726	0.554954	874.816	305.697	2.41787	0.545188	2.96753	76.4612	119.005	1548.62	180.281	
3.365	3.60001	5.14934	7.28778	5.96331	9.60722	18.92	35.3753	9.12959	2.84445	1.31239	0.726877	1.05052	3.63771	5.98674	27.6068	33.5467	17.4608	7.08166	4.38639	16.9927	0.255469	0.562046	0.637922	1.29393	6.04033	0.918569	1.50419	1.83382	4.51933	16.0376	0.652939	57.2638	8.89037	7.04978	1.4778	6.46677	2.6414	6.51347	18.6696	9.8922	1.40549	1.78948	332.652	247.656	236.652	1.34846	407.797	115.539	1.12582	0.325626	153.856	43.2696	443.137	3.09804	361.157	577.428	265.097	1.46589	3.34805	446.285	0.877191	0.41594	1.12375	257.745	2.30859	49.5813	2.92738	0.99235	3.56253	0.00980405	0.645085	806.739	292.45	2.36129	0.544416	1.85742	72.1433	126.446	1882.55	204.915	
3.37	3.36031	5.07805	7.09605	5.8331	9.35139	18.7877	32.2979	8.68599	2.77901	1.27907	0.697879	1.00161	3.2644	5.37285	27.6531	34.3782	16.8532	7.80608	4.61534	18.0892	0.296186	0.643287	0.69337	1.2437	5.90152	0.875808	1.45743	2.34351	4.40995	16.2432	0.633077	52.2758	8.37277	6.68339	1.64123	6.28744	2.5047	6.5854	19.0004	10.0462	1.40715	1.803	233.982	163.584	167.431	1.34909	400.602	122.228	1.18187	0.338332	148.192	42.6562	432.2	3.09386	369.99	586.429	267.737	1.4607	3.14939	303.713	0.876944	0.409501	0.971521	255.804	2.30823	48.1776	2.82476	0.990991	3.32567	0.00844134	0.758776	748.196	279.588	2.3144	0.543645	1.37319	68.2901	132.361	2163.16	226.569	
3.375	3.13878	5.00182	6.86229	5.66826	9.04266	18.5465	28.768	8.20191	2.70784	1.24284	0.67157	0.959912	3.022	4.97768	27.6818	35.0804	16.9803	8.69721	4.90404	19.0054	0.345934	0.744636	0.766355	1.18619	5.75843	0.841298	1.42143	2.84857	4.29941	16.4192	0.613718	46.439	7.77292	6.26978	1.85457	6.08087	2.39205	6.64788	19.2838	10.1787	1.40862	1.82416	150.16	101.354	107.432	1.34959	392.842	123.649	1.23758	0.350838	142.704	41.9634	419.562	3.08969	377.313	592.385	267.964	1.51808	2.97435	239.064	0.876771	0.422952	0.876753	254.205	2.30789	46.7509	2.72968	0.989641	3.2761	0.0072704	0.876618	698.144	267.18	2.28388	0.542874	1.18723	64.8541	136.643	2392.63	244.451	
3.38	2.93431	4.92202	6.59277	5.47767	8.66993	18.1854	25.0115	7.67608	2.63264	1.20451	0.650047	0.927205	2.84295	4.82532	27.6936	35.6751	18.3759	9.8998	5.26418	19.7701	0.412616	0.870346	0.857255	1.12018	5.61217	0.816356	1.39857	3.31707	4.18779	16.5698	0.594812	40.0741	7.11287	5.99379	2.11609	5.85462	2.31214	6.70236	19.5279	10.2932	1.4099	1.84789	89.487	59.4181	64.62	1.34996	384.807	127.026	1.29229	0.362862	137.598	41.2086	405.393	3.08553	382.456	594.193	265.06	1.64094	2.83567	272.057	0.876626	0.45673	0.834558	253.155	2.30756	45.3241	2.64226	0.988299	3.26632	0.00628727	0.986221	654.799	255.304	2.27861	0.542104	1.13849	61.7977	139.115	2580.96	257.649	
3.385	2.74386	4.83461	6.29575	5.27056	8.22528	17.6924	21.3413	7.11107	2.55479	1.16477	0.635125	0.905881	2.64802	4.93349	27.6889	36.1801	19.5579	11.5907	5.73344	20.4096	0.515743	1.02851	0.970062	1.04574	5.46587	0.802042	1.39183	3.7361	4.07563	16.6983	0.576274	33.6766	6.4008	6.02578	2.41556	5.61687	2.27042	6.75002	19.7391	10.3927	1.41102	1.87151	51.1714	33.6093	36.9799	1.35022	376.859	130.362	1.34526	0.37426	132.888	40.4094	389.806	3.08138	384.684	590.685	258.659	1.8367	2.73915	409.29	1.09607	0.510544	0.831695	252.799	2.30724	43.9178	2.56289	0.986961	3.26423	0.00555188	1.0809	615.431	244.016	2.30933	0.541335	1.14909	59.0816	140.217	2740.89	266.935	
3.39	2.5635	4.73261	5.98146	5.05786	7.71535	17.0602	18.0475	6.51187	2.47483	1.12421	0.628427	0.896786	2.47027	5.07361	27.6769	36.6098	20.5427	13.9714	6.3776	20.9466	0.679437	1.25875	1.10895	0.963792	5.3184	0.799015	1.40364	4.10121	3.96343	16.8655	0.557939	27.9126	5.67347	6.20156	2.73311	5.37207	2.26966	6.79185	19.9227	10.4794	1.41198	1.89371	28.4096	18.5887	20.5274	1.35036	369.622	133.88	1.39576	0.384904	128.311	39.5757	372.931	3.07723	383.538	581.147	248.851	2.11087	2.683	642.848	1.19852	0.581117	0.85374	253.243	2.30692	42.5385	2.4914	0.985627	3.26353	0.00509113	1.15745	577.717	233.353	2.38622	0.540567	1.18238	56.6666	141.027	2882.94	274.971	
3.395	2.38875	4.60813	5.66182	4.85128	7.15743	16.3027	15.2483	5.88965	2.39165	1.08331	0.630985	0.901964	2.38371	5.18981	27.6661	36.9756	21.3456	17.255	7.28271	21.3993	0.929045	1.62993	1.29907	0.875712	5.16979	0.807982	1.43524	4.41046	3.85147	23.4199	0.539613	23.1562	4.97345	6.13453	3.04355	5.12722	2.30944	6.82864	20.0829	10.5553	1.41279	1.91399	15.5345	10.2515	11.2687	1.35039	363.688	137.596	1.44294	0.394635	124.082	38.7111	355.071	3.0731	378.987	565.784	235.25	2.45382	2.66025	942.516	1.07476	0.692267	0.902113	254.587	2.3066	41.1808	2.42739	0.984297	3.26307	0.00453736	1.21548	539.713	223.326	2.51876	0.5398	1.2219	54.5272	142.352	2995.4	283.834	
3.4	2.2129	4.45352	5.34895	4.66156	6.57192	15.4511	12.9819	5.26355	2.30375	1.0419	0.643403	0.923201	2.37709	5.37395	27.6555	37.2866	22.016	21.6296	8.53366	21.7826	1.27533	2.21609	1.59413	0.783295	5.02041	0.82939	1.48703	4.66872	3.74045	29.6212	0.52105	19.4234	4.34376	6.36879	3.3179	4.90301	2.39026	6.86106	20.2232	10.6219	1.41346	1.93222	8.55834	5.79739	6.26365	1.3503	359.61	141.547	1.48587	0.403252	119.836	37.8251	336.657	3.06897	371.132	545.21	218.863	2.84077	2.66136	1268.78	0.975329	0.81719	0.998071	256.891	2.30628	39.8487	2.37086	0.982969	3.26264	0.00426327	1.2576	499.145	213.93	2.71581	0.539034	1.26012	52.632	142.865	3083.62	292.63	
3.405	2.02616	4.26267	5.05497	4.4988	5.98342	14.5396	11.2372	4.65914	2.21094	0.998935	0.665606	0.962769	2.41679	5.66755	27.645	37.5503	22.5796	27.0785	10.2095	22.1079	1.6647	3.07675	2.04976	0.689286	4.87013	0.863746	1.55832	4.88377	3.63031	31.0857	0.50199	16.551	3.80476	7.02898	3.52863	4.69559	2.51014	6.88965	20.3463	10.6806	1.414	1.94846	4.86112	3.45292	3.67182	1.35011	357.644	145.729	1.5236	0.41055	116.068	36.9268	318.286	3.06485	360.144	520.151	200.68	3.23729	2.6758	1579.54	1.16967	0.943172	1.13198	260.152	2.34026	38.5555	2.32153	0.981645	3.42504	0.00419808	1.28798	452.827	205.092	2.98511	0.538269	9.13899	50.9859	139.51	3098.99	289.397	
3.41	1.83819	4.03134	4.79028	4.37228	5.41529	13.6029	9.9668	4.10375	2.11147	0.952955	0.697465	1.02308	2.46721	6.08309	27.6347	37.7727	23.0563	33.0775	12.3766	22.3848	2.02737	4.13423	2.71	0.597626	4.7182	0.911172	1.64763	5.06322	3.52152	31.4811	0.482187	14.2948	3.35393	8.03894	3.66917	4.48597	2.67122	6.91489	20.4547	10.7323	1.4144	1.96289	23.366	14.8415	2.68709	1.34987	357.216	150.077	1.5551	0.41635	113.021	36.0316	300.587	3.06074	346.287	491.417	181.534	3.60859	2.69311	1797.37	1.23846	1.06286	1.26227	264.242	2.75314	37.3376	2.27943	0.980324	6.01031	0.00426589	1.30998	388.666	196.704	3.33466	0.537504	63.6388	49.5959	134.812	3028.51	281.341	
3.415	1.64821	3.7606	4.56331	4.29162	4.89308	12.6735	9.28709	3.62641	2.00355	0.903282	0.73835	1.10698	2.5241	6.61237	27.6244	37.9587	23.4604	39.0291	15.0642	22.6207	2.31622	5.17984	3.58175	0.512762	4.56505	0.971289	1.75319	5.21356	3.4137	31.8982	0.461438	12.5372	2.9811	9.34458	3.75133	4.2597	2.87698	6.93716	20.5503	10.7779	1.41468	1.97569	51.8458	32.6453	2.08972	1.34963	357.312	154.798	1.5794	0.420461	110.555	35.1604	284.04	3.05664	329.984	460.115	162.399	3.93057	2.7038	1897.56	1.09368	1.16632	1.36713	268.825	5.10186	36.2325	2.24467	0.979005	17.9028	0.00448492	1.32594	312.268	188.696	3.77185	0.53674	138.137	48.4787	130.406	2900.1	274.815	
3.42	1.46656	3.46569	4.37979	4.2707	4.43476	11.7827	10.6296	3.23686	1.88736	0.84991	0.787053	1.21685	2.60633	7.21085	27.6142	38.1121	23.8038	44.4525	18.105	22.8215	2.50622	6.05712	4.54526	0.439471	4.40813	1.04301	1.87205	5.34006	3.30598	32.3428	0.439621	11.1438	2.68835	11.0035	3.7896	4.01012	3.12791	6.95679	20.6347	10.8183	1.41484	1.98706	78.5047	49.9925	1.74924	1.34941	356.495	160.396	1.59546	0.422743	108.091	34.3245	268.937	3.05254	311.867	427.685	144.437	4.1893	152.316	1895.86	0.983405	1.24852	1.44541	273.353	6.64055	35.2351	2.21709	0.97769	8.0215	0.00488545	1.33751	248.1	180.837	4.29946	0.535978	210.472	47.6031	126.911	2743.19	271.535	
3.425	1.29926	3.16257	4.24403	4.34706	4.05161	10.994	13.5825	2.92273	1.76439	0.793218	0.842376	1.3506	2.78225	7.11963	27.6041	38.2361	24.0961	49.0648	21.2145	22.9921	2.60591	6.69223	5.45685	0.380111	4.24944	1.12432	2.00035	5.44692	3.20049	32.7815	0.416783	10.0659	2.46504	13.188	3.79763	3.73402	3.41888	6.97407	35.526	17.7722	1.41488	1.99716	97.5548	63.1565	1.55634	1.3492	352.864	167.041	1.60233	0.423055	106.208	33.5377	255.418	3.04846	292.684	395.668	128.723	4.38162	352.017	1823.41	1.58359	1.30884	1.49951	277.143	5.87893	34.3611	2.19652	0.976377	4.29858	0.00556816	1.34577	195.164	172.711	4.91202	0.535216	267.483	46.9937	124.366	2590.73	271.136	
3.43	1.15019	2.86389	4.15754	4.69156	3.74676	11.09	16.6566	2.67789	1.63941	0.735409	0.902549	1.50257	3.41549	5.95522	27.5942	38.3331	24.3452	52.7063	24.166	23.1365	2.64387	7.07287	6.23005	0.333418	4.08428	1.21243	2.1343	5.53751	3.09426	33.1766	0.393146	9.24653	2.30004	16.6999	3.78586	3.43408	3.74056	11.9833	36.3844	18.9858	1.4148	2.00616	108.582	71.1411	1.44965	1.34899	344.147	174.942	1.59906	0.421312	104.195	32.8072	243.505	3.04438	273.28	365.558	115.915	4.51192	547.165	1706.74	1.78419	1.34998	1.53156	279.483	4.7677	33.5968	2.1824	0.975067	3.45697	0.00689504	1.35141	151.733	163.904	5.59185	0.534455	302.748	46.6121	122.668	2469.75	274.929	
3.435	1.02242	2.57868	4.12162	4.96642	3.51771	11.0817	19.4439	2.48741	1.51684	0.678002	0.965326	1.66488	4.47318	6.01894	27.5843	38.4051	24.5574	55.3413	26.8187	23.2578	2.64256	7.2636	6.83999	0.297911	3.91547	1.30409	2.26969	5.61452	2.98761	33.477	0.369117	8.56936	2.18214	23.1599	3.76111	3.12822	4.07986	12.2118	36.5708	19.0827	1.41461	2.01418	113.657	74.8697	1.39112	1.34878	328.511	184.209	1.58488	0.417409	101.429	32.1236	233.113	3.04031	254.507	338.496	105.14	4.58891	706.865	1565.13	1.43213	1.37629	1.54418	279.852	7.44311	32.8678	2.17375	0.97376	23.8875	0.00948276	1.35481	116.703	154.082	6.31365	0.533695	314.203	46.3843	121.341	2397.85	284.923	
3.44	0.916949	2.31466	4.13715	5.19524	3.35793	11.0827	21.8469	2.34472	1.39917	0.623179	1.02805	1.8288	5.7305	6.33023	27.5746	38.4535	24.7378	57.1404	29.1253	23.3586	2.61706	7.33013	7.29004	0.270474	3.73808	1.3959	2.40207	5.6801	2.88083	33.6093	0.345286	7.96296	2.09966	34.3161	3.72679	2.82477	4.42145	12.2573	36.8037	19.194	1.41436	2.02135	114.75	75.6572	1.35926	1.34857	305.817	194.618	1.55904	0.411322	97.7925	31.4765	224.137	3.03625	237.16	315.289	96.309	4.62117	811.068	1410.35	1.1541	1.39113	1.53838	278.074	6.74377	32.1106	2.16913	0.972455	10.5257	0.0139292	1.35622	87.8183	143.216	7.05784	0.532935	302.362	46.2244	120.603	2375.89	301.596	
3.445	0.833194	2.07647	4.20468	5.38216	3.25903	11.076	23.9118	2.23975	1.2879	0.571458	1.08815	1.98562	6.98372	6.59266	27.5649	38.4793	24.8905	58.321	31.0902	23.4409	2.57647	7.31759	7.60465	0.250598	3.55415	1.4846	2.52732	5.73596	2.77267	33.5019	0.322423	7.56454	2.03459	50.4093	3.68413	2.53602	4.74936	12.3306	37.0846	19.3402	1.41411	2.02775	113.355	74.5812	1.34196	1.34836	277.106	205.658	1.52108	0.403044	92.5815	30.8484	216.518	3.0322	221.884	296.037	89.4592	4.61353	868.92	1254.76	1.93832	1.39628	1.5127	274.272	5.43147	31.2603	2.16654	0.971153	4.89173	0.020194	1.35574	63.6723	131.744	7.82155	0.532177	271.682	46.025	122.672	2386.96	324.991	
3.45	0.769469	1.86602	4.32538	5.53878	3.21326	11.0706	25.6586	2.16172	1.18387	0.523022	1.14338	2.12796	8.12049	6.78079	27.5554	38.4831	25.0189	59.0488	32.7428	23.5065	2.52564	7.25434	7.82286	0.237914	3.35991	1.56742	2.64201	5.78352	2.66235	33.1307	0.30138	9.11013	1.97773	67.3849	3.63346	2.2655	5.04963	12.4246	37.3174	19.4692	1.41388	2.03349	110.534	72.3867	1.33256	1.34815	244.418	216.716	1.47089	0.392629	85.6592	30.2107	210.259	3.02815	208.937	280.369	84.2201	4.56674	874.547	1112.04	1.87298	1.39215	1.46341	268.808	9.06007	30.216	2.16321	0.969854	3.56881	0.0268229	1.35339	44.08	120.075	8.62061	0.53142	230.421	45.6318	129.307	2405.68	354.212	
3.455	0.722461	1.68307	4.50063	5.67098	3.21514	11.0653	27.1227	2.0989	1.08798	0.478468	1.19208	2.25087	9.12575	6.92134	27.5459	38.4686	25.1256	59.4427	34.1206	23.5566	2.46704	7.15713	7.97691	0.228898	3.15595	1.64241	2.74372	5.8239	2.54934	32.5566	0.282948	12.8652	1.94804	81.1644	3.57433	2.01666	5.31284	12.5072	37.4912	19.5685	1.41365	2.03863	106.998	69.5735	1.32743	1.34794	210.857	227.212	1.4087	0.380175	75.9079	29.5319	205.527	3.02412	198.302	267.878	80.2945	4.47794	828.094	984.962	1.45148	1.37797	1.38672	262.196	8.20412	28.8963	2.15583	0.968559	3.30645	0.0334324	1.34917	29.7386	108.772	9.48737	0.530663	187.875	44.8744	140.206	2423.3	390.372	
3.46	0.693869	1.52654	4.7313	5.78338	3.26099	11.0602	28.3448	2.03758	1.0008	0.437786	1.23324	2.35136	9.99482	7.0327	27.5365	38.4535	25.2129	59.5803	35.2665	23.5922	2.40198	7.03544	8.08808	0.222954	2.94195	1.70833	2.83102	5.85801	2.43314	31.8573	0.267564	16.9242	1.95238	89.5897	3.50534	1.79477	5.53309	12.5738	37.6361	19.6546	1.41343	2.04324	103.156	66.4393	1.32458	1.34774	180.551	236.675	1.33562	0.365894	61.9241	28.7879	202.529	3.02009	189.866	258.212	77.4781	4.34241	735.353	874.477	1.15629	1.3519	1.28107	255.045	6.50768	27.2718	2.14087	0.967266	14.3883	0.0394815	1.34308	20.6943	98.4741	10.4685	0.529908	151.081	43.6193	154.61	2440.38	436.082	
3.465	0.676297	1.39283	5.01807	5.87937	3.34949	11.055	29.3656	1.9964	0.922728	0.401786	1.2664	2.42824	10.7282	7.12837	27.5272	38.439	25.2825	59.5151	36.2347	23.6139	2.33136	6.89449	8.16933	0.219725	2.71841	1.76452	2.90313	5.88659	2.3133	31.0457	0.255184	21.589	1.987	93.7155	3.42365	1.60221	5.70852	12.6265	37.743	19.7232	1.41321	2.04737	99.1521	63.1191	1.32297	1.34753	157.133	244.758	1.25346	0.350054	38.7219	27.9405	201.358	3.01607	183.505	250.987	75.6006	4.15641	604.838	783.431	1.51401	1.31149	1.14885	248.01	9.33803	25.2474	2.11528	0.965976	6.763	0.0451031	1.33507	16.4627	89.8378	11.6265	0.529153	123.353	41.6283	172.697	2457.92	494.294	
3.47	0.662793	1.27745	5.36018	5.96171	3.47951	11.0498	30.2211	1.97713	0.853929	0.370403	1.29154	2.48181	11.3399	7.23072	27.5179	38.4247	25.3357	59.2815	37.0649	23.6223	2.25588	6.73721	8.22778	0.218892	2.48788	1.8108	2.95996	5.91022	2.18937	30.0982	0.245662	26.1372	2.05381	95.5348	3.32515	1.43869	5.83978	12.6441	37.7503	19.7376	1.41299	2.05106	95.0261	59.6432	1.32202	1.34733	141.67	251.249	59.3298	16.6555	10.0047	26.9862	202.076	3.01206	179.092	246.178	74.52	3.91992	444.644	713.509	1.46189	1.25465	0.997048	241.724	8.25831	22.8666	2.0761	0.964688	4.00528	0.0507885	1.32512	15.4436	83.18	13.039	0.528399	104.471	38.8366	195.63	2473.06	567.815	
3.475	0.654418	1.17662	5.75509	6.03268	3.65352	11.0445	30.9411	1.97949	0.794907	0.343398	1.30908	2.51358	11.8491	7.37533	27.5088	38.4106	25.3736	58.9009	37.7775	23.6178	2.17618	6.5652	8.26651	0.220438	2.25527	1.84739	3.00214	5.9294	2.06192	29.1325	0.239321	30.3208	2.15352	96.3167	3.20394	1.30622	5.92979	12.6221	37.6582	19.6952	1.41277	2.05437	90.762	55.9775	1.32142	1.34712	133.227	256.213	122.987	36.7123	2.18146	25.9368	204.723	3.00806	176.512	243.526	74.1306	3.63785	264.063	663.782	1.20852	1.18149	0.838477	236.736	6.49203	20.3402	2.02098	0.963403	3.39222	0.0570097	1.31324	16.6233	78.6369	14.798	0.527646	93.5507	35.4648	224.441	2478.02	659.38	
3.48	0.648303	1.08753	6.19834	6.09411	3.87297	11.0391	31.5497	2.01404	0.745584	0.321161	1.31959	2.526	12.2741	7.70495	27.4997	38.3965	25.3968	58.3843	38.3795	23.6079	2.09313	6.3792	8.28568	0.224591	2.02748	1.87485	3.03028	5.94449	1.93276	28.3079	0.238987	34.0439	2.29215	96.7076	3.05285	1.2023	5.98253	12.5778	37.4899	19.6181	1.41256	2.05732	82.7708	50.1238	1.321	1.34692	130.121	260.06	166.241	44.3293	1.0283	24.8079	209.271	3.00406	175.65	242.812	74.3654	3.31949	275.431	628.916	1.61371	1.09407	0.690998	233.477	6.80203	17.8315	1.94851	0.962122	16.3814	0.0646415	1.29956	19.5267	76.0774	17.0071	0.526895	88.6476	31.7543	259.604	2615.55	771.539	
3.485	0.643328	1.00915	6.68232	6.72626	4.14256	11.0336	32.0661	2.08998	0.705723	0.303303	1.32377	2.52196	12.6305	8.63561	27.4906	38.3826	25.406	57.7355	38.8693	23.599	2.00789	6.17931	8.28368	0.231463	1.81282	1.8937	3.04555	5.95579	1.79996	27.4652	0.238778	37.2796	2.49266	96.9389	2.86465	1.12037	6.00272	12.5153	37.2102	19.4986	1.41234	2.05994	73.3749	43.5204	1.32068	1.34672	130.883	263.37	179.998	38.0304	0.862468	23.6142	215.707	3.00008	176.425	243.932	75.1819	2.97861	340.234	598.881	1.16486	0.996086	0.573844	232.239	5.72285	15.4403	1.8586	0.960843	7.48488	0.0732175	1.28421	23.893	75.1512	19.7757	0.526144	89.0542	27.9169	301.11	2757.09	906.102	
3.49	0.638756	0.939472	7.196	9.12856	4.46386	11.0281	32.5055	2.20336	0.674667	0.28948	1.32233	2.50485	12.9311	11.1656	27.4816	38.3689	25.4015	56.9562	39.2448	23.5903	1.92126	5.96542	8.25909	0.240593	1.61907	1.9048	3.04889	5.96354	1.66985	26.2743	0.240337	40.0156	2.79727	96.9579	2.63814	1.05903	5.99526	12.4166	36.7538	19.3085	1.41212	2.06226	64.9885	37.2537	1.32041	1.34651	134.616	266.765	138.779	18.243	0.829133	22.3633	223.956	2.9961	178.789	246.854	76.5648	2.63329	422.344	575.389	1.06538	0.892245	0.51102	233.199	4.56556	13.217	1.75259	0.959566	4.16491	0.0831496	1.26737	29.7834	75.6381	23.2071	0.525394	95.2235	24.1326	348.616	2872.77	1061.69	
3.495	0.634144	0.875792	7.72713	9.81541	4.84028	11.0224	32.8801	2.42913	0.651772	0.27925	1.316	2.47729	13.1861	13.8717	27.4726	38.3552	25.3909	56.0476	39.5097	23.5817	1.83389	5.7381	8.21236	0.251791	1.45493	1.90883	3.04141	5.96787	1.54291	24.482	0.243165	42.2998	3.27553	96.6659	2.37992	1.01573	5.96458	12.266	36.1556	19.0253	1.41191	2.0643	58.3452	31.4092	1.32017	1.34631	140.909	270.857	23.0956	4.07743	12.6579	21.0699	233.947	2.99213	182.718	252.032	78.5244	25.1569	513.774	559.031	0.979459	0.788336	0.582157	236.434	5.33815	11.3448	1.63319	0.958293	3.41937	0.094807	1.24932	37.4485	77.3364	27.3792	0.524645	106.885	20.8377	401.386	2945.8	1232.44	
3.5	0.629188	0.816311	8.25916	10.1334	5.27251	11.0167	33.1998	2.67331	0.636582	0.272454	1.30539	2.44152	13.4034	16.4227	27.4637	38.3418	25.3815	55.011	39.6773	23.5731	1.74646	5.49847	8.14616	0.266886	1.31769	1.90666	3.02449	5.96889	1.42378	21.9016	0.246993	44.202	4.02962	96.0006	2.09738	0.988522	5.91453	12.0962	35.8241	18.7868	1.41169	2.06609	54.2422	25.9844	1.31994	1.34611	149.466	276.238	1.31559	0.925359	30.8717	19.8034	245.557	2.98817	188.202	259.174	81.0704	240.596	571.843	548.972	0.880245	0.690151	0.649611	241.94	5.03296	10.2691	1.50414	0.957022	9.55856	0.108527	1.23035	47.2038	80.2268	32.316	0.523897	122.822	18.7597	458.238	2989.6	1411.71	
3.505	0.624472	0.763523	8.77172	10.5181	5.75904	11.0109	33.4724	2.98634	0.629056	0.268923	1.29124	2.39955	13.5894	18.6466	27.4548	38.3285	25.3721	53.8473	39.7697	23.5646	1.6596	5.24726	8.06189	0.287865	1.2049	1.89909	2.99938	5.96694	1.31382	18.963	0.251612	45.7899	5.19269	94.9637	1.79954	0.976167	5.84841	11.9725	35.363	18.5858	1.41148	2.06764	53.3548	20.9886	1.31972	1.34591	159.899	283.467	0.566728	0.366669	50.4157	18.648	258.678	2.98421	195.227	268.028	84.2815	471.61	590.689	543.803	0.877447	0.602133	0.835013	249.648	4.23717	10.3053	1.37049	0.955754	5.12405	0.124664	1.2108	59.5027	84.5715	37.9659	0.52315	142.175	18.3652	517.173	2990.67	1599.6	
3.51	0.620059	0.720309	9.23962	10.8542	6.29222	11.005	33.7043	3.37297	0.63087	0.268614	1.27433	2.35317	13.7494	20.5723	27.4459	38.3153	25.3629	52.558	39.8078	23.5562	1.57396	4.9859	7.95518	0.316826	1.11408	1.8869	2.96732	5.96456	1.21429	16.4412	0.256828	47.1208	6.90406	93.6502	1.50164	0.979177	5.76887	11.7808	34.6912	18.2666	1.41126	2.06896	57.4599	16.2399	1.3195	1.34572	172.122	293.072	0.647818	0.253016	68.103	17.695	272.933	2.98027	203.769	278.6	88.4547	686.504	581.333	542.24	0.875664	0.527221	0.776352	259.427	3.53002	11.5228	1.23731	0.954489	3.63758	0.143524	1.19105	98.6934	90.4846	44.197	0.522403	163.868	19.5295	575.47	2414.11	1797.81	
3.515	0.616671	0.685587	9.638	11.0854	6.85977	10.999	33.9008	3.85191	0.642735	0.272239	1.25531	2.30397	13.8875	22.2047	27.4371	38.3022	46.4839	51.1493	39.778	23.5479	1.48996	4.71662	7.82067	0.357319	1.04195	1.8708	2.92987	5.96234	1.12599	13.6311	0.262675	48.2411	9.07351	92.1469	1.22378	1.00257	5.67821	11.5322	33.9067	17.87	1.41105	2.07007	68.0741	12.0762	1.31928	1.34552	186.528	305.54	0.699057	0.231577	82.2935	16.9904	288.277	2.97633	213.763	290.896	93.919	841.855	558.81	543.185	0.875633	2.54551	0.794016	271.084	6.26988	13.7519	1.10899	0.953226	3.31485	0.164824	1.1715	148.943	98.036	50.8222	0.521658	187.22	21.6688	630.337	2594.06	1996.75	
3.52	0.61714	0.657214	9.95818	11.2453	7.44088	10.9929	34.066	4.49078	0.663492	0.280377	1.23493	2.25323	14.0069	23.5724	27.4283	68.9024	45.9309	49.6347	39.6414	23.5396	1.40764	4.44255	7.65429	0.414367	0.984814	1.8515	2.88831	5.96015	1.04983	10.8948	0.268985	49.1879	11.3567	90.4961	0.989523	1.04449	5.57884	11.2744	33.1236	17.4711	1.41084	2.07098	84.522	8.63118	1.31907	1.34532	203.804	321.271	0.684782	0.233629	93.0252	16.5105	304.378	2.9724	225.085	304.78	100.282	886.466	534.207	545.627	0.875197	61.2562	0.822565	284.339	5.84941	16.6265	0.98871	0.951966	21.8681	0.189591	1.15255	179.925	107.431	57.6305	0.520914	210.307	24.0121	679.395	1367.3	2181.98	
3.525	0.621509	0.634235	10.2034	11.3619	8.01202	10.9867	34.2033	5.36154	0.691358	0.292538	1.21383	2.20208	14.1104	24.7126	27.4194	69.9761	46.3855	48.035	39.366	23.5315	1.32741	4.16736	7.45378	0.493863	0.939618	1.82975	2.84397	5.95798	0.986161	8.68864	0.275849	49.991	13.4021	88.7544	0.806273	1.0992	5.47354	11.0279	32.3824	17.0952	1.41063	2.07169	104.218	6.00258	1.31885	1.34513	224.424	340.544	0.696598	0.245481	100.952	16.2669	320.572	2.96848	237.519	319.959	107.601	851.888	511.867	548.554	0.874942	131.663	0.848328	298.834	4.81914	19.7621	0.878834	0.950709	9.65255	0.217377	1.13453	213.029	118.851	64.3789	0.520171	231.431	25.9868	720.946	1832.72	2342.55	
3.53	0.630019	0.615006	10.3805	11.4513	8.5538	10.9804	34.3155	6.50899	0.724788	0.307882	1.19257	2.15157	14.2003	25.6639	27.4106	69.6911	46.8629	46.3781	38.9352	43.4578	1.24964	3.89242	7.21856	0.601734	0.905346	1.80616	2.79799	5.95583	0.936354	7.04592	0.283837	50.674	14.9646	86.9646	0.669435	1.16153	5.36499	10.7645	31.6049	16.6947	1.41042	2.07221	124.195	4.17279	1.31863	1.34493	248.385	363.486	0.753418	0.265655	106.594	16.2521	336.805	2.96457	250.733	336.052	115.95	794.065	492.561	550.947	0.874739	167.366	0.870306	314.095	7.18607	22.8588	0.78078	0.949455	4.66582	0.248337	1.11773	256.518	132.478	70.7941	0.519429	247.616	27.2961	753.638	1036.08	2471.41	
3.535	0.643215	0.599248	10.4996	11.5248	8.99313	10.974	34.4048	7.93207	0.762178	0.32571	1.17161	2.10242	14.2783	26.4604	27.4019	70.4392	47.2713	44.6976	38.3389	44.0475	1.1746	3.61969	6.95057	0.743471	0.884197	1.78139	2.75145	5.91081	0.8993	5.82256	0.293923	51.2558	15.9525	85.1087	0.573244	1.233	5.25568	10.4647	30.7381	16.24	1.41021	3.02295	141.973	2.99605	1.31841	1.34474	275.778	390.047	0.846456	0.295876	110.468	16.4006	352.259	2.96066	264.299	352.541	125.252	747.014	475.65	551.825	0.874588	168.31	0.888959	329.547	6.47479	25.6265	0.695159	0.948204	3.50943	0.280971	1.10235	305.073	148.436	76.6162	0.518687	254.285	27.8925	776.296	1576.42	2564.28	
3.54	0.661714	0.58833	10.5718	11.5885	9.37086	10.9675	34.4728	9.58286	0.804266	0.345421	1.15134	2.05506	14.3459	27.1309	28.3798	70.9295	47.6489	43.0283	37.574	43.7413	1.10222	3.35202	6.65395	0.915259	0.870831	1.75592	2.70512	11.3233	0.859675	4.93726	0.306313	51.7517	16.5154	83.1526	0.508985	1.31687	5.14782	10.1191	29.756	15.7141	1.41	3.6328	155.648	2.28232	1.31819	1.34454	306.87	419.944	0.974828	0.337921	112.799	16.6677	366.626	2.95676	277.688	368.766	135.31	716.883	460.437	550.357	0.874451	166.571	0.904858	344.496	5.21967	27.9042	0.621925	0.946955	3.28051	0.31329	1.08844	355.14	166.73	81.7023	0.517947	228.81	27.8724	787.906	780.009	2618.63	
3.545	0.686793	0.583776	10.6066	11.6416	9.62565	10.9609	34.5209	11.3672	0.851571	0.367466	1.13202	2.01003	14.4044	27.6982	51.5809	71.3487	47.9783	41.3848	36.6552	44.5671	1.03203	3.09223	6.33144	1.10077	0.864519	1.73034	2.65988	11.9941	0.835374	4.31878	0.321672	52.174	16.8149	81.0657	0.465737	1.41441	5.04322	9.70954	28.6071	15.0894	1.4098	3.66728	163.711	1.86636	1.31797	1.34435	341.91	452.746	1.14397	0.392225	113.738	17.0061	379.27	2.95288	287.523	383.133	145.853	697.116	446.449	545.879	0.874317	108.609	0.918483	358.189	6.53986	29.6027	0.560545	0.945709	12.7297	0.341656	1.07598	407.104	187.231	86.0285	0.517208	163.766	27.3951	787.767	1369.6	2633.54	
3.55	0.718739	0.588088	10.6113	11.678	9.78114	10.9542	34.5501	13.1358	0.903677	0.391975	1.11383	1.96772	14.4549	28.1807	48.8829	71.7331	48.2227	39.7472	35.6118	45.0148	0.961347	2.84308	5.98939	1.28261	0.866377	1.70499	2.61627	12.1711	0.818236	3.89608	0.341078	52.5326	16.965	78.8386	0.427484	1.52598	4.94316	9.22048	27.2468	14.3423	1.40959	3.65649	164.407	1.63024	1.31775	1.34416	380.961	487.817	1.35403	0.456837	113.76	17.3588	389.493	2.949	292.191	394.515	156.528	683.64	418.9	511.229	0.874182	19.0475	0.930228	369.884	5.75008	30.7098	0.510108	0.944465	6.17019	0.36235	1.06482	462.337	209.511	89.6036	0.51647	94.3685	26.6157	775.66	1599.54	2609.51	
3.555	0.756595	0.622213	10.5902	11.6908	9.84967	10.9474	34.5609	14.8016	0.960593	0.418753	1.09692	1.92825	14.4981	28.5929	50.0496	72.0597	48.3616	38.0751	34.4792	45.3035	0.886693	2.60841	5.64588	1.44672	0.866063	1.68025	2.57452	12.2404	0.808424	3.60379	0.366006	52.8356	17.034	76.4864	0.385993	1.6526	4.84881	8.64977	25.6683	13.4701	1.40938	3.68592	155.978	1.49851	1.31753	1.34397	423.828	524.387	1.59352	0.526826	113.23	17.6893	396.57	2.94512	294.775	403.452	166.947	675.435	342.398	332.73	0.874047	4.87926	0.940406	378.949	4.65361	31.2807	0.469507	0.943225	3.8583	0.373061	1.05471	520.571	232.859	92.4193	0.515732	49.6715	25.6665	751.893	471.697	2548.66	
3.56	0.800219	0.810177	10.545	11.6746	9.85118	10.9405	34.5539	16.3587	1.02158	0.447667	1.08133	1.8918	14.5348	28.9465	50.392	72.3312	48.3844	36.3308	33.2968	45.4864	0.815028	2.39337	5.31214	1.58569	0.879689	1.65646	2.5352	12.2842	0.806223	3.38602	0.398581	53.0895	17.0551	74.0376	0.353418	1.79342	4.76071	8.00592	23.8953	12.4864	1.40918	3.72928	135.588	1.42587	1.3173	1.34378	469.968	561.537	1.84042	0.595024	112.453	17.9621	399.47	2.94126	295.177	409.315	176.635	671.717	256.987	56.5015	0.87391	1.44189	0.949272	385.01	3.76316	31.3984	0.437494	0.941987	3.34844	0.3702	1.04537	579.722	256.306	94.3668	0.514996	25.7706	24.64	717.169	1065.3	2454.75	
3.565	0.851079	1.05081	10.4769	11.627	9.79571	10.9335	34.5398	17.8405	1.08585	0.478447	1.06708	1.8582	14.5655	29.2509	50.597	72.5249	48.287	34.4965	32.1024	45.527	0.743455	2.19705	4.99684	1.69516	0.90168	1.63375	2.49822	12.2282	0.812525	3.14071	0.44225	53.2995	17.0386	71.5255	0.336011	1.94882	4.67922	7.31179	21.9896	11.4271	1.40898	20.648	104.146	1.38611	1.31708	1.34359	518.715	598.323	2.06906	0.653791	111.551	18.1473	397.413	2.9374	292.746	411.592	185.238	671.796	58.1001	8.77862	0.873773	1.20028	0.957029	388.137	3.15333	31.1284	0.412838	0.940752	3.24807	0.352791	131.196	639.081	279.016	95.2503	0.514261	13.3786	23.5833	672.526	1213.24	2332.88	
3.57	0.908064	1.30722	10.3876	11.5491	9.69472	10.9264	34.5272	19.3109	1.15205	0.510389	1.05417	1.82756	14.5908	29.5135	50.7787	72.6121	48.0811	32.5996	30.9317	45.4193	0.678551	2.0164	4.70649	1.77537	0.93292	1.61237	2.46397	12.0194	0.827749	2.87275	0.500994	94.3547	16.9843	68.9828	0.330237	2.11627	4.60446	6.59717	20.0305	10.3372	1.40877	143.47	70.6097	1.36445	1.31685	1.3434	569.38	633.757	2.2506	0.695977	110.595	18.2317	389.649	2.93355	287.154	409.922	192.398	674.583	8.58632	6.95476	0.873636	0.874198	0.963843	388.621	2.77314	30.5499	0.394343	0.939519	3.22984	0.324146	300.779	696.039	300.101	94.78	0.513526	7.33218	22.5232	619.625	1152.69	2189.56	
3.575	0.969798	1.54163	10.2776	11.4465	9.55317	10.9191	52.4662	20.8227	1.21892	0.542896	1.04251	1.79976	14.6109	29.7404	50.9235	72.5783	47.7863	30.7157	29.8083	45.1728	0.62516	1.85218	4.44127	1.83068	0.977866	1.59242	2.43234	11.6456	0.852994	2.70969	0.580146	103.204	16.8889	66.447	0.330437	2.29333	4.53659	5.90324	18.1264	9.2788	1.40857	297.017	44.3245	1.35268	1.31662	1.34321	621.413	666.892	2.36932	0.718289	109.493	18.2048	375.78	2.92971	278.577	404.372	197.9	679.337	2.72472	3.10747	0.873498	0.819145	0.969853	386.928	2.54921	29.7144	0.380922	0.938289	3.22618	0.288385	385.979	748.758	318.908	-0	0.512793	4.57628	21.4692	560.947	320.186	2032.88	
3.58	1.03371	1.74972	10.1451	11.325	9.3722	10.9118	65.6188	22.39	1.28497	0.575221	1.03209	1.77474	14.6263	42.0805	50.9889	72.3916	47.4161	28.9664	28.7292	44.8069	0.586513	1.70589	4.19487	1.8674	1.03815	1.57401	2.40354	11.1281	0.887793	2.66342	0.686201	105.282	16.7519	63.9524	0.333986	2.47601	4.47534	5.26753	16.375	8.30959	1.40837	408.496	27.1875	1.34627	1.31639	1.34302	674.081	696.875	2.43391	0.723579	108.238	18.0672	355.42	2.92588	267.352	395.25	201.675	685.385	2.20646	2.57596	0.873359	0.817962	0.97517	383.646	2.42219	28.6682	0.371775	0.937062	3.22523	0.249601	407.712	796.033	335.005	-1.24114	0.512061	3.35703	20.4133	499.654	637.084	1871.66	
3.585	1.09753	1.93046	9.98503	11.1826	9.14771	10.9043	67.2034	23.9501	1.34896	0.60668	1.02283	1.75238	14.6372	54.1957	50.954	72.0151	46.946	27.4895	27.6768	44.3493	0.56417	1.57904	3.96249	1.89026	1.1155	1.55715	2.37736	10.5338	0.929866	2.69131	0.826013	105.173	16.5774	61.5466	0.344491	2.6589	4.42046	4.71593	14.8416	7.46748	1.40817	461.143	16.6349	1.34275	1.31616	1.34283	726.236	722.999	2.45847	0.716041	106.726	17.7831	329.227	2.92206	253.874	383.024	203.786	692.026	2.16996	3.15936	0.87322	0.823581	0.979888	379.346	2.35193	27.4626	0.366658	0.935838	3.18761	0.212058	405.375	836.654	348.198	-1.16633	0.51133	2.79664	19.369	438.614	194.296	1714.68	
3.59	1.15632	2.08371	9.78893	11.0095	8.87177	10.8967	66.9126	25.3331	1.40971	0.636645	1.01466	1.73257	14.6437	55.2215	50.7963	71.4143	46.3258	26.3901	26.6407	43.839	0.558162	1.47197	3.74305	1.90269	1.20863	1.54192	2.35395	9.9399	0.981021	2.74216	1.00034	105.41	16.3686	59.2677	0.375042	2.83645	4.37172	4.25533	13.5444	6.76475	1.40797	367.242	10.2384	1.34079	1.31593	1.34265	776.406	744.854	2.45787	0.699601	104.847	17.4052	298.475	2.91824	238.6	368.283	204.419	698.541	2.16491	2.59843	0.87308	0.829458	0.984084	374.468	312.169	26.1493	0.36605	0.934616	709.66	0.178557	398.265	869.811	358.504	-1.46528	0.510599	2.49594	18.3807	379.909	128.115	1567.5	
3.595	1.20651	2.2117	9.54676	10.7906	8.53335	10.889	66.8213	26.3622	1.46632	0.664609	1.00751	1.71514	14.646	56.0692	50.4993	70.5614	45.4954	25.7436	25.6202	43.3031	0.567073	1.38265	3.53591	1.90713	1.31612	1.52824	2.33311	9.37879	1.04804	2.80778	1.19721	106.132	16.126	57.1523	0.480369	3.00454	4.32887	3.87544	12.4507	6.18478	1.40777	246.263	6.43762	1.33966	1.3157	1.34246	823.078	762.375	2.44339	0.677377	102.451	16.9137	266.838	2.91443	222.034	351.669	203.849	704.08	2.16422	2.52299	0.87294	0.834693	0.987826	369.296	851.457	24.7833	0.370234	0.933397	1065.68	0.150688	390.047	895.32	366.119	-1.32467	0.50987	2.28761	17.5328	324.568	218.762	1430.68	
3.6	1.24501	2.31814	9.24941	10.5113	8.12211	10.8812	67.2026	26.9475	1.51789	0.690173	1.00131	1.69998	14.6442	56.8302	50.0562	69.4443	44.4046	25.7862	24.6276	42.719	0.587851	1.30662	3.3395	1.90522	1.44449	1.5162	2.31481	8.85043	1.13407	2.92778	1.39864	106.509	15.85	55.2399	0.630875	3.15958	4.29152	3.54807	11.4895	5.68654	1.40757	152.348	4.23197	1.33898	1.31547	1.34228	865.049	775.727	2.42128	0.65156	99.2438	16.3527	237.726	2.91063	204.651	333.781	202.393	708.233	2.16346	2.51436	0.872799	0.83931	0.991168	364.012	1469.59	23.5342	0.379499	0.932181	307.252	0.129051	382.904	913.589	371.367	-1.31329	0.509142	2.10738	16.9099	273.296	212.384	1302.18	
3.605	1.27042	2.40681	8.89276	10.1632	7.63896	10.8733	67.482	27.0875	1.56394	0.713008	0.996001	1.68692	14.6396	57.6482	49.4743	68.0721	43.0302	25.8745	23.6796	42.0613	0.616062	1.23757	3.15144	1.89807	1.60508	1.50567	2.29899	8.3251	1.24144	3.34332	1.58529	106.188	15.5414	53.5491	0.810253	3.29904	4.25942	3.24919	10.595	5.2317	1.40738	90.8318	2.97533	1.33854	1.31523	1.34209	901.679	785.221	2.39234	0.623628	95.088	15.705	213.492	2.90684	186.882	315.136	200.38	710.087	2.16251	2.51115	0.872657	0.843396	0.994158	358.74	2054.21	23.0971	0.394045	0.930967	58.8239	0.11337	375.708	925.526	374.672	-1.28786	0.508415	1.9271	16.4961	226.754	192.34	1182.25	
3.61	1.28314	2.48104	8.48053	9.74787	7.10771	10.8652	67.4115	26.8875	1.60397	0.73286	0.991526	1.67591	19.1034	58.4741	48.7743	66.4804	41.3884	26.1364	22.7987	41.3218	0.645712	1.16891	2.9675	1.8863	1.80862	1.49673	2.2855	7.83437	1.37173	4.50338	1.74282	105.212	15.2011	52.0877	0.990525	3.42097	4.23225	2.95893	9.70672	4.79067	1.40718	53.0813	2.27169	1.33822	1.315	1.34191	932.819	791.219	2.35422	0.594804	88.999	14.9717	196.16	2.90305	169.093	296.151	198.126	708.196	2.16137	2.5086	0.872515	0.84703	0.996835	353.57	2386.15	22.6214	0.414236	0.929756	13.6971	0.103227	367.817	932.345	376.547	-1.26591	0.507689	1.72832	16.2857	185.506	183.921	1073.13	
3.615	1.28563	2.54355	8.02955	9.28016	6.56248	10.857	67.0314	26.5172	1.63775	0.749621	0.98784	1.66676	25.8244	59.1559	47.9915	64.7311	39.5409	26.4405	22.1081	40.5117	0.670379	1.09528	2.77836	1.87015	2.06244	1.48929	2.27434	7.42846	1.52395	5.86715	1.86283	103.666	14.8287	50.8604	1.15564	3.52389	4.20979	2.66901	8.79157	4.34349	2.32109	30.7845	1.88627	1.33797	1.31476	1.34172	958.762	794.104	2.30592	0.564776	80.3682	14.1561	185.834	2.89928	151.571	277.153	195.913	701.868	2.16018	2.50606	0.872372	0.850273	0.999232	348.588	2428.68	21.9444	0.440444	0.928547	6.70721	0.0982228	359.603	935.457	378.119	-1.23222	0.506964	1.456	16.2648	149.888	143.145	976.004	
3.62	1.28131	2.59652	7.57666	8.79103	6.04078	10.8487	66.3851	26.0575	1.66509	0.763176	0.984873	1.65943	26.7348	59.5075	47.1736	62.9166	37.6058	26.6709	21.423	39.6566	0.684457	1.0136	2.58864	1.84986	2.36253	1.4833	2.26531	7.08268	1.69202	7.38335	1.94282	101.487	14.4228	49.8652	1.30233	3.60725	4.19181	2.4175	7.96734	3.94815	2.39678	18.0271	1.68253	1.33775	1.31452	2.24378	980.213	794.311	2.24886	0.533108	69.669	13.196	180.48	2.89551	134.542	258.371	193.992	690.724	2.15898	2.50352	0.872228	0.853172	1.00138	343.877	2358.29	21.1481	0.472878	0.927342	5.32507	0.0979553	351.291	936.345	379.515	-1.18852	0.50624	1.17178	16.4151	119.787	100.213	889.739	
3.625	1.27345	2.64167	7.15935	8.32705	5.57736	10.8403	65.463	25.4723	1.68594	0.773494	0.982613	1.65379	27.0636	59.3798	46.3791	61.1518	35.764	26.7541	20.7719	38.8427	0.684689	0.923458	2.40834	1.82566	2.69013	1.4788	2.25844	6.76049	1.86382	8.81314	1.98595	98.488	13.983	49.1003	1.42981	3.67041	4.17803	2.24465	7.37739	3.67521	2.36967	10.8636	1.58208	1.33756	1.31428	2.26218	998.222	792.305	2.18516	0.499376	58.1109	12.0818	178.368	2.89175	118.259	239.977	192.588	674.671	2.15777	2.50098	0.872084	0.855768	1.0033	339.534	2267.39	20.2693	0.511592	0.926139	4.994	0.101715	342.933	936.446	380.831	-1.13492	0.505517	0.907862	16.6994	94.8155	53.0065	811.867	
3.63	1.26506	2.68037	6.80775	7.92723	5.20228	10.8317	64.2701	24.7304	1.70027	0.780545	0.98102	1.64982	27.2464	58.7416	45.6714	59.573	34.1701	26.6467	20.1737	38.2064	0.671169	0.826643	2.22976	1.79787	3.01075	1.47571	2.25354	6.45215	2.02439	10.104	1.99983	94.7608	13.5088	48.5582	1.53779	3.71314	4.16835	2.11986	6.98691	3.49844	2.38967	6.87269	1.54054	1.33737	1.31404	2.2522	1014.1	788.586	2.11646	0.46317	46.7196	10.8213	182.227	2.88799	102.94	222.081	191.915	654.002	2.15657	2.49841	0.871939	0.858094	1.00502	335.655	2089.45	19.2331	0.556408	0.924938	4.92715	0.109033	334.624	937.162	382.451	-1.07237	0.504795	0.663326	17.0483	74.7255	18.3382	740.097	
3.635	1.25851	2.7137	6.54497	7.61932	4.93754	10.823	62.7693	23.8225	1.70805	0.784357	0.980046	1.64736	27.4754	57.6025	45.1163	58.2882	32.936	26.3386	19.6039	37.5443	0.646421	0.72637	2.05402	1.76682	3.28211	1.47401	2.25063	6.16233	2.15643	11.2392	1.99153	90.6118	12.998	48.2309	1.62801	3.73551	4.16256	1.87518	6.485	3.1261	2.40602	4.67412	1.53319	1.33719	1.3138	2.26887	1029.33	783.66	2.04447	0.423945	36.3195	9.63137	191.019	2.88425	88.7555	204.758	192.184	629.41	2.15535	2.49584	0.871793	0.860179	1.00656	332.322	1816.71	18.1246	0.607006	0.923741	4.93055	0.118821	326.506	940.608	384.767	-1.00167	0.504074	13.483	17.3796	59.0009	5.90368	672.356	
3.64	1.25589	2.74255	6.38519	7.41978	4.79589	10.8142	60.9662	22.7416	1.70937	0.784908	0.979675	1.6464	27.6766	55.9014	44.7682	57.4101	32.1316	25.8466	19.0546	36.9959	0.613485	0.626466	1.882	1.73283	3.4621	1.47368	2.2496	5.90694	2.24328	12.2155	1.96618	86.2024	12.4444	48.1101	1.70313	3.7375	4.16043	1.67999	5.60225	2.76167	2.41799	3.45553	1.54618	1.33702	1.31356	2.28401	1045.48	777.99	1.97055	0.377345	20.0956	8.54721	188.609	2.88051	75.8463	188.052	193.621	601.937	2.15413	2.49326	0.871647	0.86205	1.00793	329.586	1940	16.7903	0.66285	0.922546	4.93442	0.129823	318.689	947.293	388.042	-0.923944	0.503354	14.1059	17.4228	47.7777	4.70574	607.015	
3.645	1.25901	2.76763	6.33646	7.33589	4.78478	10.8052	58.9605	21.5065	1.7043	0.78227	0.979862	1.64683	27.7494	53.7033	44.663	56.9724	31.7892	25.1853	18.5194	36.5471	0.575219	0.53068	1.71485	1.69624	3.51907	1.47471	2.25037	5.69011	2.2722	13.0365	1.92692	81.6058	11.8614	48.1827	1.76583	3.71933	4.16187	1.54187	5.02439	2.52148	2.42929	2.76136	1.5718	1.33684	1.31331	2.29438	1064.09	771.964	1.89495	0.318315	11.399	7.59528	200.142	2.87678	64.3037	172	196.483	572.732	2.1529	2.49066	0.8715	0.863727	1.00915	327.484	1818.69	15.3499	0.723999	0.921354	4.93334	0.140169	311.15	957.193	392.407	-0.840658	0.502635	5.23242	17.236	41.1881	4.61451	543.089	
