Inverse Dynamics Generalized Forces
version=1
nRows=124
nColumns=40
inDegrees=no
endheader
time	pelvis_tilt_moment	pelvis_list_moment	pelvis_rotation_moment	pelvis_tx_force	pelvis_ty_force	pelvis_tz_force	hip_flexion_r_moment	hip_adduction_r_moment	hip_rotation_r_moment	hip_flexion_l_moment	hip_adduction_l_moment	hip_rotation_l_moment	lumbar_extension_moment	lumbar_bending_moment	lumbar_rotation_moment	knee_angle_r_moment	knee_angle_r_beta_force	knee_angle_l_moment	knee_angle_l_beta_force	arm_flex_r_moment	arm_add_r_moment	arm_rot_r_moment	arm_flex_l_moment	arm_add_l_moment	arm_rot_l_moment	ankle_angle_r_moment	ankle_angle_l_moment	elbow_flex_r_moment	elbow_flex_l_moment	subtalar_angle_r_moment	subtalar_angle_l_moment	pro_sup_r_moment	pro_sup_l_moment	mtp_angle_r_moment	mtp_angle_l_moment	wrist_flex_r_moment	wrist_dev_r_moment	wrist_flex_l_moment	wrist_dev_l_moment
      1.27500000	     13.75395385	     -5.45358393	      8.00080607	     22.47118631	   1068.49664254	     65.41833612	    -37.14960884	    -19.88418205	      1.39865458	     79.40153560	     -1.99074258	     -4.90646058	     48.05378605	     11.28605496	     -4.62377232	     11.28064796	     -0.03867553	     15.05168224	     -0.04030325	     -2.71922296	     -3.59017433	     -0.33559994	     -6.55493887	     -1.90740683	     -2.00093439	      1.65808087	      5.64767398	      5.19326533	      1.72764077	     -1.01861789	     -0.58048020	     -0.10726281	      0.01390958	     -0.12064469	     -0.28841193	      0.23027870	     -0.55353518	      0.27147485	     -0.17826939
      1.28000000	     17.99404873	      1.08520390	     12.78235879	    -11.28906409	    919.24350567	     63.73292461	    -14.06754387	    -21.83602825	      0.98401024	     51.85457723	     -0.04619094	     -4.23799888	     43.05390592	     16.73773626	    -10.08065487	      6.79287258	     -0.03948482	     26.13261448	     -0.03568219	     -4.13743471	     -3.53909475	     -0.80878877	     -3.24625442	     -1.86687439	     -1.49280669	      1.87104206	      4.98481522	      2.97393841	      1.85021062	     -1.04683285	     -0.48131032	     -0.08312282	      0.02928879	     -0.12748189	     -0.25727201	      0.03411888	     -0.26335910	      0.29077118	     -0.11650496
      1.28500000	     19.23883331	      6.48050338	     17.17381935	    -45.75919355	    765.70737326	     63.75540367	      8.86263155	    -24.62724450	      0.63744497	     21.23794754	      1.61489475	     -3.20028397	     38.28269420	     22.08254271	    -15.75374450	      2.25799057	     -0.04017150	     37.17473516	     -0.03233913	     -5.56900080	     -3.51330998	     -1.25610686	     -0.02949292	     -1.85607591	     -1.00478089	      2.13246935	      4.23375270	      0.79273162	      1.95663879	     -1.10914735	     -0.40803330	     -0.05808033	      0.04389133	     -0.13586478	     -0.22150074	     -0.15360651	      0.02092219	      0.30876776	     -0.05612122
      1.29000000	     18.24070013	     10.80246869	     21.31585865	    -79.88203682	    611.44588307	     65.72888351	     31.38579486	    -28.21044093	      0.39281596	    -11.42338113	      2.80738713	     -1.88426318	     33.95432981	     27.27793421	    -21.54908428	     -2.29386769	     -0.04088257	     48.00985758	     -0.02886714	     -6.98205623	     -3.52165147	     -1.67325936	      3.02752363	     -1.87110793	     -0.54481756	      2.43966494	      3.41593168	     -1.27268073	      2.04645841	     -1.20360416	     -0.35914080	     -0.03345171	      0.05756303	     -0.14566548	     -0.18222407	     -0.32848340	      0.28828079	      0.32511268	      0.00204263
      1.29500000	     15.85153268	     13.74339802	     25.07497872	   -112.39738535	    460.25889443	     70.27606011	     53.27417856	    -32.40803412	      0.27059626	    -44.90149563	      3.81194403	     -0.56757188	     30.22372639	     32.25062346	    -27.38278263	     -6.82877079	     -0.04185020	     58.45544788	     -0.02271984	     -8.35141154	     -3.57341092	     -2.05775502	      5.86726120	     -1.90707924	     -0.11895992	      2.79018092	      2.55351398	     -3.15205589	      2.12204222	     -1.32457349	     -0.31676022	     -0.01053800	      0.07025517	     -0.15687971	     -0.14092916	     -0.48675477	      0.52882395	      0.33972076	      0.05744982
      1.30000000	     12.88663184	     15.76046778	     28.55001492	   -142.26104213	    316.11529596	     76.70429473	     74.32943764	    -36.93901743	      0.27504143	    -78.03774965	      4.30316783	      0.77552454	     27.19813220	     36.90544124	    -33.17783393	    -11.31022872	     -0.04339799	     68.30385220	     -0.01559335	     -9.65849831	     -3.67669739	     -2.40786176	      8.44305253	     -1.95792562	      0.26875322	      3.18169655	      1.67565380	     -4.78442511	      2.18814724	     -1.46355340	     -0.28776918	      0.00945174	      0.08200899	     -0.16960277	     -0.09883576	     -0.62527195	      0.73409958	      0.35275504	      0.10983595
      1.30500000	     10.14213107	     16.69904923	     31.46812979	   -168.49156150	    182.83170820	     85.08042032	     94.38872900	    -41.42582691	      0.38824634	   -109.62869244	      4.65624022	      1.92431216	     24.95274756	     41.13720126	    -38.85798524	    -15.69965735	     -0.04567575	     77.35400147	     -0.00901827	    -10.89038441	     -3.83645423	     -2.72146991	     10.71852718	     -2.01621609	      0.61620680	      3.61151888	      0.80812037	     -6.11926853	      2.25128538	     -1.60921842	     -0.25563666	      0.02547479	      0.09293511	     -0.18399668	     -0.05754206	     -0.74139780	      0.89728896	      0.36459207	      0.15915433
      1.31000000	      8.32022855	     16.65087889	     33.59521760	   -190.29913144	     63.93839866	     94.98320513	    113.32140977	    -45.45481931	      0.56981685	   -138.62848376	      5.10127316	      2.78343022	     23.54607007	     44.84420832	    -44.34104112	    -19.95897524	     -0.04849416	     85.43774882	     -0.00451325	    -12.03834266	     -4.05249591	     -2.99506454	     12.66642937	     -2.07309421	      0.92297966	      4.07626023	     -0.02211947	     -7.11724794	      2.31908240	     -1.74922613	     -0.21191538	      0.03672162	      0.10319262	     -0.20022056	     -0.01857585	     -0.83290283	      1.01331575	      0.37578635	      0.20550667
      1.31500000	      7.99336231	     15.90775855	     34.82902914	   -207.16311334	    -37.45326439	    105.62350659	    131.01942940	    -48.68378372	      0.76651754	   -164.20427251	      5.66507822	      3.36589973	     23.03138530	     47.94167852	    -49.53406000	    -24.05419510	     -0.05213283	     92.41940040	     -0.00137953	    -13.09634028	     -4.31793228	     -3.22301763	     14.26732212	     -2.11848304	      1.18997808	      4.57173576	     -0.78707160	     -7.75068743	      2.39975893	     -1.87358994	     -0.15717239	      0.04266887	      0.11297163	     -0.21833184	      0.01663464	     -0.89789584	      1.07889539	      0.38704589	      0.24906603
      1.32000000	      9.59955447	     14.57702982	     34.99362512	   -218.95433251	   -118.75057165	    116.46705498	    147.40568100	    -50.79939466	      0.90496462	   -185.70697667	      6.60372611	      3.63720524	     23.46232991	     50.37344989	    -54.33239501	    -27.95245682	     -0.05672727	     98.18013767	      0.00129779	    -14.05964415	     -4.61830514	     -3.39738142	     15.50852771	     -2.14164458	      1.41897629	      5.09195779	     -1.46155966	     -8.00392287	      2.50181071	     -1.97288494	     -0.08567867	      0.04311158	      0.12248165	     -0.23827099	      0.04664509	     -0.93481996	      1.09254038	      0.39922368	      0.29000313
      1.32500000	     13.41631723	     12.84684790	     34.00771394	   -225.86231754	   -177.98217085	    126.88866672	    162.41997506	    -51.57910259	      0.90122925	   -202.72626405	      8.08272278	      3.61238368	     24.89197703	     52.12113313	    -58.62294475	    -31.62261365	     -0.06245898	    102.63365988	      0.00489346	    -14.92363144	     -4.93167295	     -3.50828929	     16.38348182	     -2.13209267	      1.61214855	      5.62887392	     -2.02261771	     -7.87355702	      2.63387601	     -2.04002326	      0.00422174	      0.03816931	      0.13194589	     -0.25980416	      0.07019538	     -0.94252711	      1.05452830	      0.41331881	      0.32843006
      1.33000000	     19.53667889	     11.27640653	     31.95443602	   -228.40049877	   -213.82852127	    135.81891847	    176.02227215	    -50.84155733	      0.65480864	   -215.11736801	      9.92529991	      3.39435070	     27.36605248	     53.21033391	    -62.29032378	    -35.03623341	     -0.07033571	    105.71793953	      0.00714918	    -15.68285155	     -5.22977283	     -3.54498298	     16.89153574	     -2.08074694	      1.77167272	      6.17179903	     -2.44968371	     -7.36856156	      2.80471329	     -2.06824605	      0.10283541	      0.02826310	      0.14160013	     -0.28253905	      0.08641270	     -0.92042454	      0.96683016	      0.43047662	      0.36437098
      1.33500000	     27.88721679	     10.27749637	     28.90714354	   -227.18817836	   -225.67534695	    142.50426534	    188.16138560	    -48.51824962	      0.06742485	   -222.90882965	     12.05328508	      3.04211099	     30.91229108	     53.71352993	    -65.22441826	    -38.16475513	     -0.08073197	    107.41781706	      0.00799290	    -16.33036455	     -5.48025825	     -3.49737573	     17.03812579	     -1.98114126	      1.89945179	      6.70769587	     -2.72730704	     -6.51010061	      3.02319049	     -2.05338318	      0.20399212	      0.01406426	      0.15169300	     -0.30590505	      0.09461773	     -0.86866799	      0.83299194	      0.45197657	      0.39776055
      1.34000000	     38.17847832	     10.15576002	     25.11066941	   -222.96387624	   -213.56876016	    146.48445525	    198.72154769	    -44.79899572	     -0.90757808	   -226.29994392	     14.30082046	      2.61682666	     35.52900258	     53.74916504	    -67.32828506	    -40.96960317	     -0.09226676	    107.75293996	      0.00751995	    -16.85740491	     -5.64984753	     -3.35792073	     16.83514637	     -1.83047347	      1.99697353	      7.22173364	     -2.84544253	     -5.33093023	      3.29819154	     -1.99890173	      0.29930234	     -0.00357824	      0.16248447	     -0.32909560	      0.09450412	     -0.78835714	      0.65796415	      0.47919823	      0.42846561
      1.34500000	     49.94886527	     11.28004475	     20.80137051	   -216.44307163	   -178.16143950	    147.36441381	    207.55938579	    -39.89226019	     -2.29969681	   -225.61965577	     16.44787866	      2.17138428	     41.17569231	     53.47659906	    -68.52543746	    -43.40717334	     -0.10431163	    106.77589193	      0.00586943	    -17.25347021	     -5.70805604	     -3.12343627	     16.30132321	     -1.63029474	      2.06530391	      7.69682580	     -2.80042475	     -3.87424311	      3.63837085	     -1.90783520	      0.37950609	     -0.02372107	      0.17423951	     -0.35122805	      0.08617500	     -0.68167908	      0.44787782	      0.51355969	      0.45632171
      1.35000000	     62.58493461	     14.26909473	     15.99398862	   -208.25901886	   -120.74623993	    144.52054443	    214.52122982	    -33.76974696	     -4.18971739	   -221.29195036	     18.24342516	      1.74829485	     47.76781365	     53.08673010	    -68.76565625	    -45.41020659	     -0.11271151	    104.57069557	      0.00332834	    -17.50694114	     -5.63103902	     -2.79650199	     15.46238190	     -1.38669948	      2.10519326	      8.11368656	     -2.59555669	     -2.19189765	      4.05171802	     -1.77387068	      0.43532168	     -0.04540885	      0.18721552	     -0.37159435	      0.07016089	     -0.55195210	      0.20977256	      0.55642790	      0.48117510
      1.35500000	     75.30849419	     19.22780274	     11.03316044	   -198.93987040	    -42.92335068	    138.19618351	    219.35383769	    -26.91510094	     -6.48961363	   -213.80182498	     19.44980618	      1.37740299	     55.17695460	     52.78842157	    -68.02899389	    -46.92819979	     -0.11928785	    101.25003811	      0.00024983	    -17.60627134	     -5.40496674	     -2.38610279	     14.35084383	     -1.10996604	      2.11727161	      8.45430970	     -2.24151296	     -0.34207996	      4.54492507	     -1.60869284	      0.45886676	     -0.06774405	      0.20164275	     -0.38916057	      0.04740486	     -0.40354260	     -0.04870862	      0.60900317	      0.50292296
      1.36000000	     87.24814983	     26.22544898	      6.13569048	   -188.88495237	     53.31538271	    128.76412293	    221.77930803	    -19.70966109	     -9.08714603	   -203.66417299	     19.90014498	      1.07372019	     63.23646481	     52.79127783	    -66.32783473	    -47.89974084	     -0.12471857	     96.95199115	     -0.00328541	    -17.54166395	     -5.02836033	     -1.90734504	     13.00535670	     -0.81366956	      2.10231407	      8.70107980	     -1.75646698	      1.61346340	      5.12258684	     -1.42101798	      0.44540983	     -0.08993719	      0.21769876	     -0.40303825	      0.01921625	     -0.24165473	     -0.31963967	      0.67218448	      0.52154712
      1.36500000	     97.50038573	     35.52540169	      1.14138705	   -178.39033794	    165.75050876	    116.25599848	    221.57061698	    -12.12164866	    -11.97547600	   -191.41348609	     19.50333996	      0.84462655	     71.75109017	     53.28598444	    -63.70649820	    -48.28403717	     -0.13004881	     91.83720829	     -0.00717008	    -17.30700695	     -4.51296290	     -1.38026619	     11.46954696	     -0.51336654	      2.06155227	      8.83816940	     -1.16533851	      3.61242700	      5.78630934	     -1.20558374	      0.39336116	     -0.11133492	      0.23547985	     -0.41274921	     -0.01279163	     -0.07201661	     -0.59512984	      0.74642931	      0.53713958
      1.37000000	    105.18532227	     46.72649709	     -3.70290033	   -167.66655492	    291.74580085	    101.71999010	    218.46762839	     -4.64407012	    -14.91919430	   -177.59280284	     18.26351459	      0.69161808	     80.50847935	     54.42413691	    -60.23785081	    -48.01635162	     -0.13403657	     86.08404207	     -0.01126014	    -16.90171991	     -3.88296601	     -0.82795140	      9.79044168	     -0.22504978	      1.99698208	      8.85395409	     -0.49873394	      5.59494940	      6.53384016	     -0.97799851	      0.30471763	     -0.13142806	      0.25497365	     -0.41762515	     -0.04679463	      0.09949388	     -0.86762424	      0.83162620	      0.54991743
      1.37500000	    109.50901628	     59.33548494	     -8.28003858	   -156.88837700	    428.51299399	     86.23150108	    212.28725445	      2.40059061	    -17.69274146	   -162.74531655	     16.28873016	      0.61062363	     89.29059866	     56.29979831	    -56.01710844	    -47.05291696	     -0.13528659	     79.88215959	     -0.01538199	    -16.33212193	     -3.17269607	     -0.27431175	      8.01655217	      0.03636265	      1.91158398	      8.74079047	      0.20859227	      7.50637004	      7.35836579	     -0.74982483	      0.18516518	     -0.14984485	      0.27603772	     -0.41726575	     -0.08086942	      0.26723127	     -1.13017243	      0.92700112	      0.56022261
      1.38000000	    109.88953785	     73.13464491	    -12.92090055	   -146.23469341	    572.96263798	     70.22246198	    203.05733340	      9.24175881	    -20.29678426	   -147.40536876	     13.78730259	      0.59084660	     97.88404200	     58.93475238	    -51.15453177	    -45.37545445	     -0.13215811	     73.42460410	     -0.01935117	    -15.61197645	     -2.42314452	      0.25807282	      6.19575545	      0.25825159	      1.80936542	      8.49447204	      0.91969323	      9.29950591	      8.24812340	     -0.51236056	      0.04380874	     -0.16633486	      0.29838770	     -0.41186102	     -0.11311561	      0.42612206	     -1.37665171	      1.03107666	      0.56850002
      1.38500000	    105.91422276	     86.94124760	    -17.22663306	   -135.87337359	    722.20801242	     55.50534186	    190.80526875	     15.30351887	    -22.36653530	   -132.08623783	     11.05079961	      0.61285124	    106.08913448	     62.26899589	    -45.76968388	    -43.02208261	     -0.12710165	     66.89863314	     -0.02299479	    -14.76199395	     -1.67789155	      0.74970400	      4.37315011	      0.43112177	      1.69520563	      8.12144928	      1.59768998	     10.93626279	      9.18642607	     -0.29100863	     -0.10748678	     -0.18074800	      0.32159698	     -0.40124519	     -0.14177847	      0.57192337	     -1.60193472	      1.14169307	      0.57525439
      1.39000000	     97.48883248	     99.88081342	    -21.17555115	   -125.99830043	    873.17363136	     43.17690982	    175.80291695	     20.51504749	    -23.76859480	   -117.26273044	      8.42710605	      0.64656250	    113.72747761	     66.15829823	    -39.98791823	    -40.06216187	     -0.12074053	     60.47597887	     -0.02620821	    -13.80828774	     -0.97896576	      1.18531060	      2.58907756	      0.54907100	      1.57457941	      7.63254059	      2.20814776	     12.38849471	     10.15213094	     -0.09191617	     -0.25503350	     -0.19301374	      0.34510913	     -0.38582700	     -0.16536162	      0.70138015	     -1.80199759	      1.25609070	      0.58099754
      1.39500000	     84.89359674	    111.17902719	    -24.84930609	   -116.74431341	   1022.75214563	     33.95885641	    158.56439906	     24.98068251	    -24.51277037	   -103.34951546	      6.28341788	      0.65094672	    120.64715416	     70.38076930	    -33.93719230	    -36.61143641	     -0.11402007	     54.30353153	     -0.02897415	    -12.78003616	     -0.36310939	      1.55435570	      0.87748684	      0.60992434	      1.45322350	      7.04509158	      2.72138507	     13.63812531	     11.12053937	      0.08682632	     -0.38455140	     -0.20312507	      0.36826401	     -0.36640530	     -0.18271828	      0.81227966	     -1.97396977	      1.37104962	      0.58619750
      1.40000000	     68.51651726	    119.59638877	    -27.84502872	   -108.45671742	   1168.03651199	     29.28967379	    139.50434963	     28.29551384	    -24.35849870	    -90.68483873	      4.93316163	      0.58309355	    126.72550944	     74.65293941	    -27.74398855	    -32.80050874	     -0.10415050	     48.49728182	     -0.03110863	    -11.70678653	      0.14116056	      1.85100581	     -0.73520266	      0.61497902	      1.33674271	      6.38229717	      3.11475277	     14.67659754	     12.06468483	      0.22507132	     -0.48354651	     -0.21112773	      0.39033618	     -0.34349421	     -0.19310536	      0.90341941	     -2.11612545	      1.48307800	      0.59123206
      1.40500000	     49.13681185	    124.42276408	    -30.07458421	   -101.29437935	   1306.21860286	     29.64606708	    119.30035865	     30.45818558	    -23.34042986	    -79.50424437	      4.60723866	      0.40204750	    131.87023945	     78.65382788	    -21.52892161	    -28.80165505	     -0.09088032	     43.13759231	     -0.03254847	    -10.61588021	      0.51544680	      2.07373816	     -2.23062949	      0.56836418	      1.23016167	      5.67135904	      3.37404039	     15.50375033	     12.95690102	      0.32155298	     -0.54226914	     -0.21711130	      0.41058146	     -0.31812775	     -0.19621402	      0.97451480	     -2.22781533	      1.58863056	      0.59634710
      1.41000000	     27.76292289	    125.23984413	    -31.47269883	    -95.30035870	   1434.73801983	     35.05198150	     98.71156033	     31.50811784	    -21.58032856	    -69.92533367	      5.40710910	      0.08034788	    136.01942868	     82.05416324	    -15.40276621	    -24.80081171	     -0.07439393	     38.26876930	     -0.03330339	     -9.53040875	      0.75225400	      2.22476786	     -3.59837226	      0.47612014	      1.13747361	      4.94238223	      3.49444497	     16.12625996	     13.77050067	      0.37886899	     -0.55528503	     -0.22119875	      0.42828597	     -0.29150196	     -0.19215929	      1.02607185	     -2.30934289	      1.68433142	      0.60162349
      1.41500000	      5.51568486	    121.63310552	    -31.71475630	    -90.33240814	   1551.49720785	     45.68837046	     78.43358726	     31.19560092	    -19.04865206	    -61.93958843	      7.27732588	     -0.38469213	    139.14072422	     84.54724442	     -9.46303781	    -20.97331266	     -0.05740373	     33.90201981	     -0.03347657	     -8.46795959	      0.85472893	      2.30942364	     -4.83523136	      0.34515551	      1.06125709	      4.22763983	      3.48074073	     16.55581448	     14.48136870	      0.38678505	     -0.52245178	     -0.22353306	      0.44281154	     -0.26460186	     -0.18144121	      1.05924309	     -2.36179522	      1.76717392	      0.60695770
      1.42000000	    -16.43222013	    113.80481320	    -30.74278151	    -86.11119663	   1654.78330482	     60.84942450	     59.16688360	     29.53375357	    -15.89889494	    -55.41495740	      9.99805465	     -0.96187567	    141.22960889	     85.87779707	     -3.79065666	    -17.48233588	     -0.04040829	     30.02119206	     -0.03327394	     -7.44021449	      0.83548874	      2.33551584	     -5.94402577	      0.18224209	      1.00242675	      3.55730555	      3.34666938	     16.80720077	     15.06928233	      0.34815954	     -0.44927069	     -0.22426203	      0.45363204	     -0.23859954	     -0.16488377	      1.07567408	     -2.38684479	      1.83467427	      0.61206019
      1.42500000	    -36.92667480	    102.44379152	    -28.64204256	    -82.14756784	   1743.31233787	     79.21419143	     41.57025861	     26.65476760	    -12.37413096	    -50.11013356	     13.20000494	     -1.58211276	    142.30664450	     85.86534559	      1.55332328	    -14.46328744	     -0.02465057	     26.59005741	     -0.03299831	     -6.45328584	      0.71464922	      2.31265905	     -6.93207598	     -0.00684774	      0.96014664	      2.95838181	      3.11360908	     16.89648508	     15.51882301	      0.27229310	     -0.34650830	     -0.22352389	      0.46035672	     -0.21467836	     -0.14356043	      1.07734029	     -2.38654290	      1.88496414	      0.61647188
      1.43000000	    -55.03904960	     88.34379273	    -25.42901766	    -77.89238813	   1816.42882528	     99.51593123	     26.06854356	     22.55265621	     -8.58004719	    -45.69932454	     16.40465018	     -2.14276602	    142.41328819	     84.41889987	      6.52912404	    -12.00489484	     -0.01044085	     23.55992637	     -0.03299122	     -5.50857761	      0.51722178	      2.25151307	     -7.80959953	     -0.21794712	      0.93191904	      2.45350553	      2.80864229	     16.83946332	     15.81981603	      0.15958230	     -0.22896772	     -0.22143756	      0.46274030	     -0.19366379	     -0.11871718	      1.06637778	     -2.36312891	      1.91681886	      0.61959661
      1.43500000	    -70.00626624	     72.69111826	    -21.31351304	    -72.64602766	   1873.87327724	    120.00560190	     12.99703135	     17.38521338	     -4.69744755	    -41.80630085	     19.06607081	     -2.51585068	    141.60584300	     81.54109778	     11.11634486	    -10.15970728	      0.00210354	     20.87544722	     -0.03388142	     -4.60393967	      0.27023426	      2.16298058	     -8.58826299	     -0.44866275	      0.91389423	      2.05918335	      2.46228894	     16.65052952	     15.96728299	      0.01727579	     -0.11413336	     -0.21809934	      0.46068061	     -0.17629310	     -0.09168973	      1.04492063	     -2.31887637	      1.92962461	      0.62075065
      1.44000000	    -81.30802397	     56.84401745	    -16.60809649	    -65.64035985	   1915.78308916	    138.78281153	      2.54730750	     11.37858779	     -0.90329942	    -38.04270025	     20.62678482	     -2.56361186	    139.94778182	     77.32232320	     15.31014059	     -8.94029729	      0.01290148	     18.47865612	     -0.03622355	     -3.73489411	     -0.00001976	      2.05742288	     -9.28005651	     -0.69803818	      0.90141092	      1.78531857	      2.10607761	     16.34205230	     15.96094689	     -0.14588971	     -0.02031426	     -0.21358598	      0.45420465	     -0.16308158	     -0.06383144	      1.01495859	     -2.25598918	      1.92329410	      0.61922937
      1.44500000	    -88.67602167	     42.15977881	    -11.69751533	    -56.08399703	   1942.60833411	    154.01444408	     -5.23371930	      4.80979404	      2.64504911	    -34.04360679	     20.60422015	     -2.16647270	    137.50141715	     71.92693629	     19.11747176	     -8.32366735	      0.02194765	     16.31266292	     -0.04026120	     -2.89574955	     -0.27033022	      1.94393129	     -9.89653851	     -0.96586062	      0.88967109	      1.63503028	      1.77010764	     15.92428498	     15.80441209	     -0.32066519	      0.03619394	     -0.20796332	      0.44344553	     -0.15429234	     -0.03646785	      0.97822494	     -2.17655398	      1.89815011	      0.61438159
      1.45000000	    -92.08818500	     29.85925229	     -6.99422489	    -43.23074099	   1955.01820266	    164.11514088	    -10.43542666	     -2.01947224	      5.82563465	    -29.50146192	     18.63310201	     -1.24052465	    134.32017764	     65.57419587	     22.55383305	     -8.25803432	      0.02935380	     14.32200668	     -0.04613486	     -2.08049794	     -0.52233199	      1.82971426	    -10.44841631	     -1.25182643	      0.87441071	      1.60508995	      1.48106709	     15.40576708	     15.50419404	     -0.49850405	      0.04254343	     -0.20129909	      0.42861561	     -0.14992542	     -0.01084220	      0.93612512	     -2.08254694	      1.85480121	      0.60567776
      1.45500000	    -91.74035015	     20.88834392	     -2.89049216	    -26.44375278	   1953.80484993	    167.93442943	    -13.26994949	     -8.81372770	      8.56618359	    -24.19095717	     14.50963682	      0.24513337	    130.44285670	     58.51665820	     25.64030576	     -8.67040255	      0.03543224	     12.45314665	     -0.05387568	     -1.28345427	     -0.74353801	      1.71968923	    -10.94537609	     -1.55474893	      0.85245323	      1.68675345	      1.26068199	     14.79410368	     15.06876956	     -0.67282770	     -0.00925229	     -0.19367651	      0.40998020	     -0.14972235	      0.01191941	      0.88971542	     -1.97588340	      1.79403154	      0.59276188
      1.46000000	    -87.98251237	     15.90385970	      0.24360178	     -5.22757992	   1939.78059177	    164.73616241	    -14.01934967	    -15.24839799	     10.79516677	    -17.98359238	      8.22204391	      2.25732176	    125.89101821	     51.01889229	     28.40105715	     -9.47450204	      0.04040076	     10.65540906	     -0.06340553	     -0.49964254	     -0.92759551	      1.61635251	    -11.39604840	     -1.87195286	      0.82206958	      1.86622709	      1.12471796	     14.09695339	     14.50778039	     -0.83576323	     -0.12143356	     -0.18520521	      0.38783554	     -0.15325362	      0.03083179	      0.83973391	     -1.85849180	      1.71671989	      0.57548104
      1.46500000	    -81.27855477	     15.17246782	      2.12583041	     20.71220434	   1913.73170902	    154.35619531	    -13.02699487	    -21.02063923	     12.46649251	    -10.85117468	     -0.03395420	      4.69572097	    120.67016892	     43.33894284	     30.86148004	    -10.57513074	      0.04452181	      8.88305306	     -0.07454295	      0.27503180	     -1.07383122	      1.51995744	    -11.80800168	     -2.19894126	      0.78310870	      2.12606010	      1.08252396	     13.32302823	     13.83147096	     -0.98031579	     -0.29016983	     -0.17602704	      0.36249324	     -0.15993055	      0.04506558	      0.78667669	     -1.73239057	      1.62379519	      0.55389109
      1.47000000	    -72.15814911	     18.55329462	      2.59458254	     51.42667733	   1876.38852185	    137.22934477	    -10.67361281	    -25.86376614	     13.55452861	     -2.85894005	     -9.85525561	      7.39843602	    114.77455206	     35.71415648	     33.04704094	    -11.87155818	      0.04807914	      7.09861052	     -0.08701360	      1.04375987	     -1.18625152	      1.42897491	    -12.18768231	     -2.52935832	      0.73690323	      2.44628481	      1.13703755	     12.48291078	     13.05038174	     -1.10036348	     -0.50576412	     -0.16631573	      0.33427194	     -0.16905485	      0.05395720	      0.73090403	     -1.59974668	      1.51622733	      0.52824010
      1.47500000	    -61.17720762	     25.51846260	      1.63280861	     86.68934001	   1828.42272723	    114.36604356	     -7.35631007	    -29.55831766	     14.04917052	      5.84985709	    -20.64736961	     10.15573175	    108.19468341	     28.35203638	     34.98279524	    -13.25912946	      0.05135801	      5.27708828	     -0.10046426	      1.80889117	     -1.27222283	      1.34075558	    -12.54025484	     -2.85522086	      0.68598770	      2.80553967	      1.28512951	     11.58953183	     12.17526426	     -1.19062490	     -0.75331958	     -0.15627036	      0.30349522	     -0.17986916	      0.05701748	      0.67275605	     -1.46289921	      1.39504551	      0.49893437
      1.48000000	    -48.89057936	     35.20842321	     -0.61908329	    125.97213466	   1770.46582363	     87.28027848	     -3.47155151	    -31.93951334	     13.95199778	     15.07521233	    -31.65637588	     12.73056234	    100.92629873	     21.42593526	     36.69367551	    -14.62950482	      0.05462947	      3.41016244	     -0.11447904	      2.57202428	     -1.34107592	      1.25226566	    -12.86933857	     -3.16736004	      0.63369073	      3.18213604	      1.51816156	     10.65821934	     11.21714423	     -1.24665980	     -1.01379090	     -0.14610408	      0.27049355	     -0.19160480	      0.05394255	      0.61265485	     -1.32433906	      1.26137144	      0.46649327
      1.48500000	    -35.83810166	     46.51626204	     -3.86335965	    168.43448284	   1703.13985334	     57.87389358	      0.59746780	    -32.90140179	     13.27434856	     24.58438123	    -42.01660819	     14.88373628	     92.97913967	     15.07466040	     38.20538984	    -15.87016188	      0.05813774	      1.50926263	     -0.12859701	      3.33409663	     -1.40286783	      1.16074109	    -13.17668954	     -3.45600166	      0.58367046	      3.55505104	      1.82266158	      9.70631111	     10.18744554	     -1.26495807	     -1.26534856	     -0.13603047	      0.23560774	     -0.20352396	      0.04462902	      0.55117211	     -1.18664583	      1.11645430	      0.43150009
      1.49000000	    -22.54271532	     58.19249281	     -7.66040385	    212.92887054	   1627.09118039	     28.28521097	      4.48913567	    -32.39841557	     12.03784764	     34.13546864	    -50.81302346	     16.40092092	     84.38383414	      9.40451923	     39.54478088	    -16.86384902	      0.06208902	     -0.39349974	     -0.14232996	      4.09545691	     -1.46743308	      1.06414781	    -13.46193404	     -3.71139731	      0.53945639	      3.90483814	      2.18107691	      8.75240147	      9.09809364	     -1.24315512	     -1.48499470	     -0.12625032	      0.19919197	     -0.21495459	      0.02919319	      0.48905167	     -1.05239193	      0.96169740	      0.39455361
      1.49500000	     -9.51094965	     68.94205173	    -11.45635898	    258.03491383	   1543.01316464	      0.73505513	      7.86796559	    -30.44528634	     10.27753913	     43.50020239	    -57.13909791	     17.11380122	     75.19565225	      4.49229281	     40.73871741	    -17.48864672	      0.06663973	     -2.24634388	     -0.15483996	      4.85589179	     -1.54368755	      0.96143518	    -13.72246560	     -3.92441078	      0.50405343	      4.21444739	      2.57256684	      7.81534340	      7.96153236	     -1.18038373	     -1.64984641	     -0.11694042	      0.16161487	     -0.22531676	      0.00798214	      0.42719149	     -0.92402788	      0.79866933	      0.35622426
      1.50000000	      2.74603244	     77.57405912	    -14.63736378	    302.08936077	   1451.67813655	    -22.69707800	     10.42632222	    -27.11630481	      8.04729292	     52.47458994	    -60.20941430	     16.92937933	     65.49520511	      0.38801625	     41.81221963	    -17.61920414	      0.07188263	     -3.98422745	     -0.16509706	      5.61458320	     -1.63909768	      0.85261143	    -13.95355577	     -4.08700354	      0.47965004	      4.46994025	      2.97413215	      6.91315251	      6.79061737	     -1.07773586	     -1.74000033	     -0.10824456	      0.12325766	     -0.23414009	     -0.01839386	      0.36659533	     -0.80376246	      0.62909513	      0.31701875
      1.50500000	     13.71673864	     83.15417655	    -16.59573108	    343.27420638	   1353.94889161	    -40.32368920	     11.89789404	    -22.51236668	      5.40002665	     60.88779080	    -59.44075391	     15.84147979	     55.38700870	     -2.88317736	     42.78690102	    -17.13020421	      0.07769798	     -5.53690687	     -0.17255556	      6.37001082	     -1.75929113	      0.73865291	    -14.14867903	     -4.19261228	      0.46744503	      4.66073848	      3.36190686	      6.06196055	      5.59838968	     -0.93682839	     -1.74041239	     -0.10026745	      0.08450903	     -0.24110012	     -0.04906031	      0.30830274	     -0.69345250	      0.45482774	      0.27735532
      1.51000000	     22.88408215	     85.01190594	    -16.78139982	    379.69762236	   1250.78735458	    -50.87130388	     12.03694292	    -16.80541128	      2.43351141	     68.60649345	    -54.51846124	     13.93013011	     44.99693948	     -5.32054006	     43.68000342	    -15.89981955	      0.08403451	     -6.83803094	     -0.17681504	      7.11983582	     -1.90779648	      0.62127481	    -14.30004138	     -4.23641880	      0.46758887	      4.78051367	      3.71271792	      5.27514315	      4.39776653	     -0.76311307	     -1.64240435	     -0.09307194	      0.04575790	     -0.24597791	     -0.08290151	      0.25330777	     -0.59451600	      0.27780521	      0.23755033
      1.51500000	     29.74257627	     82.81172463	    -14.77845305	    409.50993809	   1143.25305124	    -53.60930687	     10.62151962	    -10.23645280	     -0.70762909	     75.53263180	    -45.46344844	     11.35410419	     34.46950127	     -6.94842566	     44.50394840	    -13.81742348	      0.09076959	     -7.83574379	     -0.17769715	      7.86079367	     -2.08587599	      0.50262394	    -14.39929656	     -4.21550431	      0.47923219	      4.82733308	      4.00598082	      4.56270508	      3.20120034	     -0.56592924	     -1.44540227	     -0.08667986	      0.00738558	     -0.24865385	     -0.11860043	      0.20247865	     -0.50787718	      0.10000028	      0.19781623
      1.52000000	     33.83678025	     76.60849732	    -10.37547052	    431.04470146	   1032.49647327	    -48.45933704	      7.46465455	     -3.09590780	     -3.84705733	     81.60034689	    -32.66790154	      8.33137930	     23.96550131	     -7.81765622	     45.26619723	    -10.79228136	      0.09763256	     -8.50211706	     -0.17526114	      8.58861049	     -2.29242226	      0.38495946	    -14.43841059	     -4.12888646	      0.50066485	      4.80335734	      4.22569630	      3.93095828	      2.02035508	     -0.35731794	     -1.15797950	     -0.08107564	     -0.03024112	     -0.24910779	     -0.15470949	      0.15648976	     -0.43394723	     -0.07663163	      0.15827002
      1.52500000	     34.82035175	     66.84207077	     -3.61221871	    442.97676783	    919.74345842	    -36.01138402	      2.42724713	      4.29274219	     -6.79177488	     86.77834228	    -16.88373968	      5.10899397	     13.66034747	     -8.00671157	     45.96935931	     -6.76400877	      0.10413267	     -8.84057945	     -0.16996649	      9.29795767	     -2.52391650	      0.27037553	    -14.41058246	     -3.97744202	      0.52952195	      4.71438909	      4.36220011	      3.38248427	      0.86584374	     -0.15092660	     -0.79770565	     -0.07621185	     -0.06677513	     -0.24740837	     -0.18974936	      0.11577361	     -0.37263896	     -0.25020065	      0.11895069
      1.53000000	     32.53809570	     54.41105109	      5.20044304	    444.50471945	    806.27376412	    -17.65032523	     -4.53617901	     11.66658267	     -9.40355288	     91.06928081	      0.81109552	      1.93337496	      3.74282839	     -7.62202901	     46.61171620	     -1.71577286	      0.10964209	     -8.88859665	     -0.16293048	      9.98247389	     -2.77448913	      0.16060607	    -14.31108747	     -3.76372556	      0.56304102	      4.56871861	      4.41353105	      2.91634179	     -0.25294116	      0.04309297	     -0.39057920	     -0.07201522	     -0.10189147	     -0.24375874	     -0.22231677	      0.08049871	     -0.32340909	     -0.41892232	      0.07984579
      1.53500000	     26.93679124	     40.23014369	     15.43440777	    435.19727120	    693.41692430	      5.11354532	    -13.51140557	     18.53347430	    -11.39524315	     94.49634837	     19.02274269	     -0.96757962	     -5.58638228	     -6.79674094	     47.18797105	      4.32848214	      0.11443666	     -8.71597664	     -0.15427952	     10.63488433	     -3.03613259	      0.05693616	    -14.13794518	     -3.49170533	      0.59835172	      4.37729352	      4.38661355	      2.52846571	     -1.32789519	      0.20351813	      0.02845573	     -0.06839165	     -0.13528672	     -0.23818119	     -0.25117595	      0.05057628	     -0.28532136	     -0.58114772	      0.04092691
      1.54000000	     18.26350889	     25.42167838	     26.21845299	    415.31757120	    582.46336222	     30.31169823	    -24.47975930	     24.46937850	    -12.56715493	     97.14461199	     36.25580686	     -3.42801242	    -14.11773701	     -5.68695293	     47.69004573	     11.28715545	      0.11814426	     -8.42206479	     -0.14439076	     11.24722547	     -3.29908203	     -0.03978604	    -13.89237428	     -3.16644094	      0.63276440	      4.15106166	      4.29600014	      2.21220782	     -2.35218368	      0.31455532	      0.42160365	     -0.06523079	     -0.16667701	     -0.23074132	     -0.27538227	      0.02569285	     -0.25712499	     -0.73538605	      0.00218870
      1.54500000	      7.05140830	     11.53949199	     36.56101950	    385.77230330	    474.58048374	     55.22203543	    -37.30050138	     29.40355007	    -12.96735423	     99.15859601	     51.02069584	     -5.34994696	    -21.63847926	     -4.46486160	     48.10821430	     19.01686292	      0.12287207	     -8.12403806	     -0.13362259	     11.81116442	     -3.55236453	     -0.12907792	    -13.57900924	     -2.79373469	      0.66402116	      3.89747655	      4.16253592	      1.95898370	     -3.32016388	      0.37814830	      0.75078218	     -0.06241150	     -0.19579659	     -0.22166606	     -0.29433684	      0.00535971	     -0.23734493	     -0.88032301	     -0.03631516
      1.55000000	     -5.93939161	     -0.65731270	     45.32689055	    347.97587269	    370.92331800	     78.16542172	    -51.83639732	     32.80157881	    -12.39622882	    100.74419480	     61.98559300	     -6.70404165	    -27.94158421	     -3.30899338	     48.43262102	     27.33691231	      0.12565034	     -7.94342332	     -0.12232660	     12.31839996	     -3.78452192	     -0.21073246	    -13.20584573	     -2.37980638	      0.69048369	      3.62511354	      4.01082477	      1.75898948	     -4.22727150	      0.37640141	      0.98171555	     -0.05980902	     -0.22239829	     -0.21073583	     -0.30781165	     -0.01102904	     -0.22437949	     -1.01483640	     -0.07444299
      1.55500000	    -19.71357024	    -10.27906916	     51.47155925	    303.83094137	    272.48469742	     97.18793157	    -67.80699158	     34.48635916	    -10.91208932	    102.15864502	     68.11981196	     -7.51868982	    -32.83783925	     -2.39286848	     48.65476680	     36.01973974	      0.12521233	     -7.99104207	     -0.11086438	     12.76113128	     -3.98448843	     -0.28472523	    -12.78389169	     -1.93104527	      0.71124076	      3.33704597	      3.86612522	      1.60193991	     -5.06989399	      0.30943902	      1.08789129	     -0.05730256	     -0.24625655	     -0.19782421	     -0.31593303	     -0.02413362	     -0.21659821	     -1.13800865	     -0.11194632
      1.56000000	    -33.08872831	    -16.37292962	     54.23523874	    255.60240804	    180.20408036	    110.21300426	    -84.74309442	     34.71733212	     -8.81801488	    103.68626420	     68.81097546	     -7.86102436	    -36.17012021	     -1.87359568	     48.76876581	     44.80721451	      0.11921654	     -8.35253877	     -0.09960892	     13.13256654	     -4.14255490	     -0.35112466	    -12.32653604	     -1.45387037	      0.72612392	      3.03065782	      3.75118000	      1.47778154	     -5.84525617	      0.19619856	      1.05385442	     -0.05478241	     -0.26717359	     -0.18293178	     -0.31913046	     -0.03460496	     -0.21243309	     -1.24913606	     -0.14846502
      1.56500000	    -45.11715127	    -19.12017837	     53.01002736	    205.36910482	     94.66001442	    116.83913968	   -102.40233490	     33.24195654	     -6.13622974	    105.60076323	     63.93614423	     -7.81451891	    -37.82804939	     -1.88155862	     48.77281642	     53.46755674	      0.11086435	     -9.07710622	     -0.08899694	     13.42742503	     -4.25131002	     -0.41002117	    -11.84869679	     -0.95469039	      0.73563403	      2.70176671	      3.68354295	      1.37734804	     -6.55135575	      0.03332664	      0.87722623	     -0.05215667	     -0.28498985	     -0.16553735	     -0.31806175	     -0.04302703	     -0.21045822	     -1.34773806	     -0.18354008
      1.57000000	    -54.84406802	    -18.24101797	     47.78774592	    155.34250887	     16.42424398	    116.09004550	   -120.28384880	     30.63413688	     -3.27848334	    108.12124643	     53.87463544	     -7.45880293	    -37.76102977	     -2.51206234	     48.67103123	     61.78476256	      0.10232238	    -10.17117536	     -0.07946384	     13.64237029	     -4.30643888	     -0.46149217	    -11.36585639	     -0.43993414	      0.74078512	      2.33904632	      3.67389000	      1.29293242	     -7.18695932	     -0.14952534	      0.56906354	     -0.04935786	     -0.29959814	     -0.14556551	     -0.31352975	     -0.04987174	     -0.20945567	     -1.43356571	     -0.21664693
      1.57500000	    -61.62002547	    -14.25089705	     38.89794394	    107.29585176	    -53.88340395	    108.24406722	   -137.94222437	     27.21236643	     -0.47961249	    111.37405203	     39.49278524	     -6.86008424	    -35.98855120	     -3.81958393	     48.47429949	     69.57342569	      0.09543603	    -11.59778419	     -0.07121594	     13.77629322	     -4.30726301	     -0.50559970	    -10.89310159	      0.08384098	      0.74286131	      1.93293166	      3.72531773	      1.21875993	     -7.75158513	     -0.33531037	      0.15355499	     -0.04634850	     -0.31095845	     -0.12279417	     -0.30641869	     -0.05546756	     -0.20846881	     -1.50659644	     -0.24724933
      1.58000000	    -65.13489901	     -8.06333021	     27.03046229	     62.56499696	   -115.58412390	     94.32152600	   -154.94744607	     23.24746459	      2.08774662	    115.36299752	     22.03829977	     -6.06691568	    -32.60640077	     -5.81506746	     48.19927917	     76.68914710	      0.08919563	    -13.28451748	     -0.06438756	     13.83038605	     -4.25692182	     -0.54240349	    -10.44424487	      0.60973210	      0.74311088	      1.47550470	      3.83409832	      1.15134978	     -8.24538039	     -0.51055649	     -0.33498848	     -0.04312498	     -0.31910881	     -0.09707493	     -0.29762864	     -0.05998102	     -0.20684461	     -1.56700133	     -0.27486478
      1.58500000	    -65.37532256	     -0.03439797	     13.46102359	     22.01813037	   -167.85203465	     74.77547608	   -170.75167873	     19.73438586	      4.05930024	    119.96553081	      3.00885069	     -5.11736380	    -27.78600457	     -8.46646476	     47.86690568	     83.02439547	      0.08023463	    -15.13673630	     -0.05906993	     13.80800516	     -4.16214602	     -0.57198177	    -10.03108468	      1.13021106	      0.74245150	      0.95749979	      3.99133961	      1.08974259	     -8.66888070	     -0.63762792	     -0.85580134	     -0.03971994	     -0.32416863	     -0.06880799	     -0.28803386	     -0.06341280	     -0.20426178	     -1.61508686	     -0.29912397
      1.59000000	    -62.70999450	      8.29217574	     -0.68499438	    -13.67276745	   -209.97499446	     51.96454080	   -185.05036983	     16.59627502	      5.51693765	    124.95580172	    -16.00279556	     -4.05253528	    -21.76502021	    -11.70241473	     47.50162424	     88.58609114	      0.06951642	    -17.05466727	     -0.05533870	     13.71434516	     -4.03263640	     -0.59445344	     -9.66288825	      1.63690107	      0.74124692	      0.38168949	      4.18522117	      1.03556600	     -9.02268078	     -0.72030941	     -1.36597786	     -0.03620320	     -0.32633270	     -0.03823781	     -0.27845380	     -0.06560967	     -0.20074094	     -1.65121908	     -0.31981217
      1.59500000	    -57.68844518	     16.09909187	    -13.99069923	    -44.30611649	   -241.11349361	     27.42778558	   -197.46728197	     14.35231152	      6.37952380	    130.05199944	    -33.46397484	     -2.93198494	    -14.82986388	    -15.41862650	     47.13080336	     93.38862065	      0.06011334	    -18.95124483	     -0.05323130	     13.55593773	     -3.88010815	     -0.60998407	     -9.34616248	      2.12049862	      0.73916890	     -0.24519032	      4.40329206	      0.99292772	     -9.30702927	     -0.74291277	     -1.82475808	     -0.03268029	     -0.32585532	     -0.00626907	     -0.26963099	     -0.06628785	     -0.19663703	     -1.67573518	     -0.33688866
      1.60000000	    -50.99890021	     22.53109801	    -25.17591383	    -70.07525978	   -260.47141566	      2.92372772	   -207.73670479	     13.29535770	      6.68090016	    134.97817505	    -48.03150172	     -1.84681823	     -7.29243719	    -19.48637431	     46.78346174	     97.46361252	      0.05501634	    -20.76721752	     -0.05244040	     13.34000107	     -3.71709660	     -0.61875489	     -9.08472043	      2.57086915	      0.73514859	     -0.90740587	      4.63432426	      0.96814319	     -9.52136708	     -0.69989911	     -2.19700032	     -0.02928794	     -0.32302541	      0.02593625	     -0.26221327	     -0.06506192	     -0.19261529	     -1.68884920	     -0.35048114
      1.60500000	    -43.38960208	     26.52278995	    -33.40445392	    -91.59702074	   -267.38291489	    -19.38723001	   -215.78663497	     13.17957691	      6.59746878	    139.52513429	    -58.70313120	     -0.91771263	      0.53585873	    -23.76247363	     46.48777265	    100.83118672	      0.05022110	    -22.48304919	     -0.05275837	     13.07369240	     -3.55565986	     -0.62088911	     -8.88000080	      2.97729990	      0.72742131	     -1.57950582	      4.86980289	      0.96931268	     -9.66385029	     -0.60567772	     -2.45745167	     -0.02618640	     -0.31813512	      0.05717683	     -0.25670781	     -0.06147495	     -0.18961150	     -1.69056204	     -0.36085331
      1.61000000	    -35.44405609	     27.59552898	    -38.03878995	   -109.52542326	   -261.39893774	    -38.11210505	   -221.56308397	     13.97904858	      6.23327627	    143.60019996	    -64.87720701	     -0.28836262	      8.36955658	    -28.09974233	     46.26769294	    103.52409052	      0.04481974	    -24.12093628	     -0.05403607	     12.76332558	     -3.40614668	     -0.61636048	     -8.73154364	      3.32886488	      0.71365249	     -2.23037162	      5.10428471	      1.00578161	     -9.73092304	     -0.46815872	     -2.59214059	     -0.02355003	     -0.31144601	      0.08580262	     -0.25345788	     -0.05502970	     -0.18877848	     -1.68058831	     -0.36834915
      1.61500000	    -27.55729135	     25.55661590	    -38.83925573	   -124.61185716	   -242.33781901	    -52.28050008	   -225.09993630	     15.58392168	      5.69514487	    147.24765178	    -66.38936491	     -0.10592467	     15.97111457	    -32.35672849	     46.13976537	    105.56279491	      0.03763932	    -25.73917701	     -0.05620905	     12.41362280	     -3.27618498	     -0.60491821	     -8.63750632	      3.61486814	      0.69112928	     -2.82419292	      5.33510317	      1.08753035	     -9.71702819	     -0.29892128	     -2.59913857	     -0.02155812	     -0.30315691	      0.11003948	     -0.25261359	     -0.04522240	     -0.19142132	     -1.65831322	     -0.37332173
      1.62000000	    -19.98619387	     20.25823601	    -36.08026027	   -137.68779313	   -210.41098421	    -61.06385350	   -226.60731146	     17.57306229	      5.11834940	    150.63481072	    -63.49806567	     -0.49559424	     23.16688119	    -36.40591234	     46.11044230	    106.95690050	      0.03135064	    -27.41839997	     -0.05931061	     12.02707642	     -3.17001134	     -0.58604626	     -8.59513320	      3.82533399	      0.65700904	     -3.32111177	      5.56145645	      1.22452518	     -9.61453009	     -0.12075616	     -2.48779978	     -0.02038674	     -0.29337808	      0.12820132	     -0.25411765	     -0.03157860	     -0.19892288	     -1.62278946	     -0.37605545
      1.62500000	    -12.74586419	     11.97670327	    -30.28413503	   -149.49954898	   -166.01704461	    -64.36645700	   -226.27071064	     19.69888175	      4.57089283	    154.00836080	    -56.79374673	     -1.54162048	     29.85524025	    -40.13998571	     46.17384673	    107.69222826	      0.02586580	    -29.24306912	     -0.06381509	     11.60349874	     -3.08822485	     -0.55897077	     -8.60111690	      3.95149439	      0.60861081	     -3.68452002	      5.78303977	      1.42606236	     -9.41388943	      0.05000438	     -2.27570112	     -0.02020162	     -0.28211463	      0.13870321	     -0.25772533	     -0.01368925	     -0.21266239	     -1.57277751	     -0.37669118
      1.63000000	     -5.72243456	      1.13762950	    -22.19093303	   -160.69482323	   -109.74375759	    -62.46291137	   -224.29834150	     21.71904064	      4.09550385	    157.62914963	    -47.07071147	     -3.27852307	     36.00643175	    -43.47591706	     46.31030987	    107.74483382	      0.02086126	    -31.28228625	     -0.07050929	     11.13983290	     -3.02798422	     -0.52272494	     -8.65180150	      3.98623154	      0.54371779	     -3.88285410	      5.99875021	      1.70016527	     -9.10410147	      0.19805226	     -1.98460982	     -0.02115288	     -0.26926104	      0.14028021	     -0.26305165	      0.00875460	     -0.23393486	     -1.50682662	     -0.37516688
      1.63500000	      1.23128555	    -11.51891015	    -12.83485383	   -171.78602151	    -42.28438028	    -56.25808999	   -220.89348299	     23.41838928	      3.71272777	    161.66222101	    -35.47119599	     -5.62420814	     41.65480431	    -46.35679633	     46.48617071	    107.08891413	      0.01590052	    -33.55874553	     -0.07802696	     10.63028349	     -2.98360737	     -0.47626945	     -8.74321158	      3.92445577	      0.46086097	     -3.89269436	      6.20664075	      2.05308742	     -8.67338066	      0.31039450	     -1.64562480	     -0.02337203	     -0.25460697	      0.13212695	     -0.26949548	      0.03593101	     -0.26387890	     -1.42338933	     -0.37118402
      1.64000000	      8.21650305	    -25.25198487	     -3.23251854	   -183.09444578	     35.64668874	    -46.81786240	   -216.23235861	     24.62328672	      3.42688859	    166.13351007	    -23.09781864	     -8.43580166	     46.88540527	    -48.75189158	     46.65522824	    105.70548020	      0.01058900	    -36.04106278	     -0.08593184	     10.06680107	     -2.94749920	     -0.41865712	     -8.87093772	      3.76341622	      0.35958033	     -3.70125735	      6.40203887	      2.48892908	     -8.11005288	      0.37727226	     -1.28731593	     -0.02697035	     -0.23785340	      0.11400869	     -0.27640788	      0.06786203	     -0.30341425	     -1.32096079	     -0.36420142
      1.64500000	     15.69416457	    -47.71214871	      1.36190941	   -180.39152636	     78.41140751	    -23.54262641	   -214.45920947	     12.07855204	      4.82763325	    170.87836885	    -10.86410907	    -11.54242403	     51.81716276	    -50.65556196	     46.76185152	     99.81677701	      0.00463350	    -38.62911506	     -0.09248396	      9.43991578	     -2.91128805	     -0.34921605	     -9.02993710	      3.50295811	      0.24066056	     -2.07031190	      6.57724865	      3.00936095	     -7.40359892	     -1.23833213	     -0.93168497	     -0.03203740	     -0.21863780	      0.08633798	     -0.28318633	      0.10439744	     -0.35318843	     -1.19823251	     -0.35345580
      1.65000000	      7.75795136	    -60.86544072	     10.68927569	   -174.49374830	     86.93103257	     -7.58650408	   -229.00374850	      6.13380492	      6.12754839	    175.54217531	      0.45414343	    -14.73609093	     56.58435260	    -52.08564434	     46.74494916	    102.91243401	     -0.00186563	    -41.16620978	     -0.09700782	      8.73986684	     -2.86701870	     -0.26771826	     -9.21431468	      3.14573119	      0.10630377	     -7.32520648	      6.72243462	      3.61346399	     -6.54577485	     -1.36864511	     -0.59711277	     -0.03863865	     -0.19656658	      0.05018569	     -0.28923199	      0.14521090	     -0.41353564	     -1.05424819	     -0.33801197
      1.65500000	     -4.34686533	    -71.18639722	     19.02048745	   -161.90336963	     65.54532098	      7.59795320	   -248.97465400	     -1.82760044	      8.01437691	    179.58310704	     10.09054159	    -17.72950942	     61.31790494	    -53.08167024	     46.54208202	    105.35192841	     -0.00866175	    -43.45970558	     -0.10136221	      7.95793353	     -2.80827021	     -0.17451756	     -9.41714607	      2.69731823	     -0.03981531	    -13.00282505	      6.82656240	      4.29769214	     -5.53173040	     -1.35820874	     -0.30398561	     -0.04681202	     -0.17125355	      0.00725648	     -0.29384093	      0.18980969	     -0.48445025	     -0.88855044	     -0.31684500
      1.66000000	    -19.81386046	    -77.42309460	     26.18906075	   -142.25845952	     10.76134337	     20.19757764	   -273.29166312	    -11.36448868	     10.45358209	    182.34854458	     17.71759899	    -20.30119504	     66.12838481	    -53.70290439	     46.09377161	    105.66687523	     -0.01540509	    -45.28562959	     -0.10566937	      7.08784562	     -2.73107692	     -0.07064234	     -9.63038526	      2.16624453	     -0.19264886	    -18.72406727	      6.87704871	      5.05594453	     -4.36105404	     -1.03794732	     -0.06085313	     -0.05656323	     -0.14236208	     -0.04020577	     -0.29649565	      0.23755631	     -0.56557391	     -0.70130931	     -0.28894865
      1.66500000	    -37.10728266	    -78.57500835	     32.43448962	   -116.41183468	    -74.87297725	     28.57494206	   -299.63297385	    -21.38823285	     13.23869591	    183.19313664	     23.51587792	    -22.36905195	     71.09185150	    -54.02619869	     45.34751989	    102.18875042	     -0.02152978	    -46.44008168	     -0.11029188	      6.12713365	     -2.63454637	      0.04218227	     -9.84489457	      1.56383617	     -0.34604807	    -24.25073380	      6.86139549	      5.87971857	     -3.03866795	     -0.20791897	      0.13790879	     -0.06785903	     -0.10964880	     -0.08957942	     -0.29692864	      0.28770131	     -0.65619272	     -0.49342497	     -0.25346056
      1.67000000	    -53.55568180	    -73.37772225	     37.62319805	    -86.29686328	   -179.92169239	     30.19654788	   -323.97546866	    -30.07529368	     15.90303315	    181.49870718	     27.35421410	    -23.70583346	     76.23927717	    -54.14335160	     44.26122386	     93.28586307	     -0.02657685	    -46.71738566	     -0.11349082	      5.07827065	     -2.52114157	      0.16156961	    -10.05063841	      0.90388192	     -0.49321262	    -29.55844078	      6.76995031	      6.75831938	     -1.57549283	      1.30343900	      0.28364561	     -0.08061940	     -0.07300583	     -0.13805348	     -0.29467501	      0.33942181	     -0.75524311	     -0.26659706	     -0.20979221
      1.67500000	    -65.36362556	    -61.26319880	     41.82162647	    -54.90071737	   -281.11100643	     23.05510086	   -340.50743536	    -34.89269817	     17.66057651	    176.80929022	     29.53572707	    -24.24065491	     81.55064350	    -54.15681922	     42.80747493	     77.91987894	     -0.03022027	    -45.98399551	     -0.11451269	      3.94943104	     -2.39655800	      0.28455532	    -10.23704359	      0.20208649	     -0.62729493	    -34.88128685	      6.59510209	      7.67909974	      0.01118220	      3.56465165	      0.38055710	     -0.09471102	     -0.03249783	     -0.18285726	     -0.28953660	      0.39185652	     -0.86132364	     -0.02335550	     -0.15774945
      1.68000000	    -69.13400105	    -42.92686826	     45.14385750	    -25.29685445	   -349.46012961	      6.69479895	   -343.70673313	    -33.62351563	     17.62962241	    168.93455300	     30.66858460	    -24.06730316	     86.95420746	    -54.17328349	     40.97865441	     56.51969966	     -0.03232097	    -44.18134017	     -0.11238535	      2.75468127	     -2.26904539	      0.40781458	    -10.39347781	     -0.52463766	     -0.74209537	    -40.81265228	      6.33230182	      8.62767888	      1.69769909	      6.50737192	      0.44332508	     -0.10994102	      0.01161001	     -0.22148811	     -0.28158963	      0.44414163	     -0.97270575	      0.23295469	     -0.09762850
      1.68500000	    -63.76747077	    -21.30772438	     46.80533051	      1.94436122	   -367.81746000	    -16.19517133	   -331.44371725	    -27.41911678	     15.61633336	    157.87867349	     30.93618660	    -23.13914185	     92.33011061	    -54.29607293	     38.78970291	     30.61772162	     -0.03292105	    -41.35071457	     -0.10856215	      1.51350107	     -2.14822549	      0.52805695	    -10.50981609	     -1.25899363	     -0.83275729	    -48.15441622	      5.98477402	      9.58810800	      3.45449266	      9.89953120	      0.47081596	     -0.12604811	      0.05883642	     -0.25191322	     -0.27079356	      0.49545484	     -1.08734148	      0.49824209	     -0.03027364
      1.69000000	    -51.53633879	     -2.59131104	     45.71284312	     27.78393124	   -338.27249384	    -38.31640493	   -306.30110540	    -21.80055094	     12.62301689	    143.90449007	     30.62338830	    -21.50897482	     97.51782253	    -54.61692740	     36.27740645	      2.29074274	     -0.03219984	    -37.61507447	     -0.10318706	      0.24964467	     -2.04369150	      0.64248515	    -10.57708690	     -1.98418593	     -0.89636094	    -57.74765472	      5.56017320	     10.54302660	      5.24706819	     13.32930147	      0.46743442	     -0.14269609	      0.10848532	     -0.27271824	     -0.25734290	      0.54505832	     -1.20287888	      0.76779451	      0.04291434
      1.69500000	    -35.65126658	      7.73939992	     41.70898756	     53.43746130	   -274.11941457	    -52.75654926	   -272.52489541	    -22.13981326	     10.20588731	    127.55733324	     30.05863256	    -19.33284927	    102.32780225	    -55.20685931	     33.49774333	    -26.82262907	     -0.03105435	    -33.17722660	     -0.09691457	     -1.01058419	     -1.96363346	      0.74919003	    -10.58813271	     -2.68474733	     -0.93230666	    -69.90700612	      5.07135159	     11.47386790	      7.03747233	     16.55711204	      0.44250609	     -0.15947635	      0.15966733	     -0.28320026	     -0.24169245	      0.59232679	     -1.31669551	      1.03645816	      0.12002683
      1.70000000	    -19.60811551	      8.25411576	     35.87403971	     78.42827051	   -190.74418005	    -57.32205137	   -234.70531759	    -30.10778264	      9.57232373	    109.50685847	     29.31378245	    -16.70989930	    106.55753736	    -56.10696280	     30.52171316	    -55.20743720	     -0.02903892	    -28.29135703	     -0.08912452	     -2.24047784	     -1.91369471	      0.84741151	    -10.53816548	     -3.34714593	     -0.94237711	    -84.39780305	      4.53673844	     12.36112943	      8.78616844	     19.64500670	      0.39861406	     -0.17591897	      0.21134121	     -0.28332664	     -0.22435121	      0.63675606	     -1.42595225	      1.29886075	      0.19875715
      1.70500000	     -6.98874154	      1.23183453	     29.84766572	    100.31105276	   -101.27051267	    -54.24623890	   -197.43539118	    -43.93978130	     11.11047228	     90.48652262	     28.28872453	    -13.69926127	    110.01119318	    -57.32074769	     27.42923630	    -81.22990790	     -0.02594306	    -23.23805454	     -0.07924684	     -3.41521221	     -1.89630742	      0.93758609	    -10.42510633	     -3.96003442	     -0.93041355	   -100.67363010	      3.97857575	     13.18472982	     10.45416602	     22.72533544	      0.33429419	     -0.19151035	      0.26237155	     -0.27368927	     -0.20589442	      0.67794941	     -1.52766922	      1.54966212	      0.27656641
      1.71000000	     -0.04255536	     -9.71916326	     24.91208674	    116.70818799	    -15.98646889	    -47.35213438	   -164.10945853	    -60.72788244	     14.47361542	     71.31965633	     26.90750995	    -10.41844433	    112.52111812	    -58.80906392	     24.30163824	   -103.83698885	     -0.02207117	    -18.30390354	     -0.06771860	     -4.51396102	     -1.91067402	      1.02111654	    -10.24962544	     -4.51406462	     -0.90162382	   -118.00911403	      3.42134756	     13.92449715	     12.00520138	     25.77403604	      0.25161271	     -0.20571831	      0.31159793	     -0.25539875	     -0.18707971	      0.71557977	     -1.61882852	      1.78381143	      0.35088974
      1.71500000	      1.01456358	    -20.88306116	     21.68658518	    126.62676654	     57.46943238	    -40.59466554	   -136.24789192	    -77.55033515	     18.83306900	     52.83181738	     25.12463133	     -7.03050805	    113.96866032	    -60.48833686	     21.21356103	   -122.86831445	     -0.01786529	    -13.75257595	     -0.05454716	     -5.52154944	     -1.95340191	      1.09987447	    -10.01483084	     -5.00128717	     -0.86162036	   -135.67362933	      2.88993258	     14.56081193	     13.40774210	     28.67574010	      0.15563210	     -0.21802409	      0.35790847	     -0.22993285	     -0.16878290	      0.74933242	     -1.69650286	      1.99678775	      0.41935929
      1.72000000	     -3.10755307	    -28.70143331	     20.10408341	    129.63860049	    114.57046947	    -37.85736417	   -114.38375972	    -91.74023534	     23.18240148	     35.72188696	     22.72228352	     -3.58373548	    114.30139784	    -62.23259467	     18.22513160	   -138.42513117	     -0.01366129	     -9.79688782	     -0.04128818	     -6.42942673	     -2.01965921	      1.17551632	     -9.72561000	     -5.41426289	     -0.81535448	   -153.06954355	      2.40914500	     15.07538101	     14.63658729	     31.35403492	      0.04362560	     -0.22795812	      0.40030917	     -0.19900601	     -0.15176734	      0.77883901	     -1.75800181	      2.18479993	      0.48001434
      1.72500000	    -11.59780596	    -31.09974932	     19.71305583	    125.21419150	    153.62701682	    -41.20417592	    -98.74822349	   -101.75304412	     26.73568016	     20.58391771	     19.59321412	     -0.16335818	    113.54409476	    -63.87915881	     15.37564756	   -150.51795878	     -0.01109455	     -6.59018079	     -0.02862375	     -7.23585709	     -2.10458671	      1.24874662	     -9.38768485	     -5.74510422	     -0.76615141	   -169.75373659	      2.00047142	     15.45207575	     15.67387466	     33.76325229	     -0.08354239	     -0.23513710	      0.43798087	     -0.16436297	     -0.13679657	      0.80361608	     -1.80102057	      2.34492538	      0.53146818
      1.73000000	    -23.10796868	    -27.78615632	     19.80081813	    113.57566178	    175.07636854	    -50.51969543	    -88.82952201	   -107.43981002	     29.09952048	      7.87180739	     15.71665170	      3.13717585	    111.80126765	    -65.23743701	     12.67991192	   -159.31862579	     -0.01067748	     -4.21927650	     -0.01696046	     -7.94537960	     -2.20461967	      1.31869981	     -9.00648222	     -5.98473920	     -0.71504205	   -185.39930799	      1.68104420	     15.67773062	     16.50939453	     35.87662771	     -0.22331786	     -0.23929760	      0.47031764	     -0.12772619	     -0.12454967	      0.82302357	     -1.82377169	      2.47517673	      0.57300737
      1.73500000	    -35.73907871	    -19.78195010	     19.63667351	     95.90001921	    180.85686091	    -64.04382118	    -83.35524551	   -109.61233235	     30.23507721	     -2.12302354	     11.14771866	      6.23312038	    109.24996622	    -66.10028373	     10.12734225	   -165.18793714	     -0.01247486	     -2.70485647	     -0.00661044	     -8.56771309	     -2.31840463	      1.38260088	     -8.58596986	     -6.12270258	     -0.66054548	   -199.75586098	      1.46269844	     15.74278792	     17.14022051	     37.69403139	     -0.37245629	     -0.24031823	      0.49694246	     -0.09070435	     -0.11555305	      0.83625741	     -1.82507989	      2.57449681	      0.60460766
      1.74000000	    -47.45524291	     -8.72257942	     18.68675752	     73.92356026	    173.83241181	    -79.18415131	    -80.70772181	   -109.41656271	     30.32095553	     -9.26766837	      6.03126825	      9.03985789	    106.12246125	    -66.25744659	      7.68334641	   -168.50875443	     -0.01644191	     -2.00886729	      0.00207883	     -9.11634071	     -2.44711779	      1.43579882	     -8.12765863	     -6.14766553	     -0.59898626	   -212.61839744	      1.35126199	     15.64170251	     17.56975462	     39.24426911	     -0.52635338	     -0.23822472	      0.51769849	     -0.05471753	     -0.11015234	      0.84238299	     -1.80442657	      2.64269048	      0.62685971
      1.74500000	    -56.60800905	      3.72831294	     16.66562118	     49.36152647	    157.29074160	    -93.27132443	    -79.41271003	   -107.92891652	     29.63471479	    -13.61322913	      0.54656104	     11.51092787	    102.68013150	    -65.51058903	      5.29260627	   -169.52894609	     -0.02245276	     -2.04342216	      0.00906186	     -9.60698949	     -2.59414223	      1.47217565	     -7.62996421	     -6.04874932	     -0.52532331	   -223.80593337	      1.34648311	     15.37306805	     17.80635008	     40.57049159	     -0.68158035	     -0.23317712	      0.53261756	     -0.02096249	     -0.10844206	      0.84040589	     -1.76193960	      2.68030809	      0.64081240
      1.75000000	    -62.06041917	     16.02543955	     13.56707037	     23.73575913	    134.37434438	   -103.75916140	    -78.30839752	   -106.04058087	     28.48767324	    -15.34423253	     -5.04936988	     13.59111708	     99.18152523	    -63.68937997	      2.88424147	   -168.38890016	     -0.03032229	     -2.68568027	      0.01451384	    -10.05615423	     -2.76419959	      1.48485844	     -7.08805866	     -5.81748420	     -0.43434953	   -233.14744167	      1.44194433	     14.93947244	     17.86171632	     41.71190153	     -0.83282252	     -0.22544240	      0.54187191	      0.00959834	     -0.11031180	      0.82936866	     -1.69833295	      2.68849790	      0.64775848
      1.75500000	    -63.10426632	     26.77788249	      9.59087814	     -1.57900930	    107.73558908	   -108.36754685	    -76.46528436	   -104.51587377	     27.19618702	    -14.77452285	    -10.46444540	     15.23244001	     95.84874012	    -60.66803886	      0.37888149	   -165.25158495	     -0.03982101	     -3.78913402	      0.01869954	    -10.47975618	     -2.96210913	      1.46712631	     -6.49427941	     -5.45009914	     -0.32203616	   -240.47215186	      1.62566435	     14.34713058	     17.74931994	     42.68042445	     -0.97410867	     -0.21535813	      0.54571791	      0.03622896	     -0.11543574	      0.80845973	     -1.61480698	      2.66884657	      0.64899928
      1.76000000	    -59.42786846	     34.82559819	      5.08761719	    -25.37156993	     79.42986320	   -105.27010361	    -73.16029118	   -103.96634275	     26.03906284	    -12.32762787	    -15.39742736	     16.39561040	     92.83669308	    -56.38146349	     -2.30292466	   -160.35097256	     -0.05068363	     -5.19447060	      0.02195934	    -10.89196033	     -3.19139587	      1.41338640	     -5.83908820	     -4.94970065	     -0.18676574	   -245.61026091	      1.88091888	     13.60538008	     17.48298358	     43.45194262	     -1.09911169	     -0.20329352	      0.54444174	      0.05839856	     -0.12329510	      0.77712167	     -1.51292733	      2.62322629	      0.64562823
      1.76500000	    -51.12071806	     39.36871693	      0.49904694	    -46.63538989	     51.00587068	    -93.34284962	    -67.89408121	   -104.75137857	     25.20823305	     -8.51059393	    -19.56021649	     17.04852984	     90.20966615	    -50.83957131	     -5.23196533	   -153.97548911	     -0.06261231	     -6.73875717	      0.02467741	    -11.30410692	     -3.45301283	      1.32007295	     -5.11248203	     -4.32787211	     -0.03022080	   -248.40062568	      2.18732670	     12.72615401	     17.07585059	     43.97108198	     -1.20130049	     -0.18961368	      0.53831590	      0.07575269	     -0.13321988	      0.73514627	     -1.39450529	      2.55366654	      0.63836858
      1.77000000	    -38.70668982	     40.07133400	     -3.71817910	    -64.62803571	     23.69498428	    -72.36659592	    -60.44340220	   -106.88863778	     24.77266421	     -3.88367608	    -22.69830521	     17.16501202	     87.92871078	    -44.13797485	     -8.46189711	   -146.41502994	     -0.07527675	     -8.26278821	      0.02724733	    -11.72371540	     -3.74440938	      1.18633210	     -4.30570104	     -3.60530311	      0.14224245	   -248.69907446	      2.52217725	     11.72353773	     16.53982094	     44.16209453	     -1.27414927	     -0.17465213	      0.52757348	      0.08808274	     -0.14444353	      0.68274563	     -1.26150138	      2.46226374	      0.62749040
      1.77500000	    -23.14655469	     37.09149669	     -7.17676494	    -78.89777448	     -1.42529953	    -43.11353366	    -50.89584134	   -110.02386579	     24.67052195	      0.97353819	    -24.60819218	     16.72445571	     85.85212601	    -36.46313096	    -12.02167812	   -137.91591373	     -0.08831365	     -9.61692302	      0.03003722	    -12.15357763	     -4.05908284	      1.01439979	     -3.41305545	     -2.81122557	      0.32181460	   -246.39105716	      2.86195241	     10.61346868	     15.88549142	     43.94275641	     -1.31143971	     -0.15869429	      0.51240249	      0.09529891	     -0.15616673	      0.62059169	     -1.11596520	      2.35113679	      0.61281667
      1.78000000	     -5.71816036	     30.97229708	     -9.62945433	    -89.19952474	    -23.37115567	     -7.23405742	    -39.57970919	   -113.52051929	     24.74135520	      5.49838778	    -25.15101739	     15.71320363	     83.74962894	    -28.09043082	    -15.90991126	   -128.69472936	     -0.10132860	    -10.66589355	      0.03335673	    -12.59101799	     -4.38667008	      0.80963242	     -2.43367811	     -1.98166247	      0.49702142	   -241.40697799	      3.18397438	      9.41359107	     15.12255973	     43.23501295	     -1.30768805	     -0.14197178	      0.49295915	      0.09741133	     -0.16762448	      0.54982179	     -0.96001551	      2.22242825	      0.59381247
      1.78500000	     12.15727610	     22.42896206	    -10.99997163	    -95.39184477	    -41.24495698	     33.01952521	    -26.94949013	   -116.64164927	     24.78609481	      9.18196242	    -24.26211991	     14.12815049	     81.32917597	    -19.37394149	    -20.09162505	   -118.97584568	     -0.11390328	    -11.29303828	      0.03742766	    -13.02745692	     -4.71356597	      0.58019614	     -1.37300003	     -1.15671219	      0.65495752	   -233.73462565	      3.46808590	      8.14324601	     14.26058235	     41.96989920	     -1.25871158	     -0.12466773	      0.46939703	      0.09452153	     -0.17815071	      0.47201194	     -0.79585794	      2.07834387	      0.56973767
      1.79000000	     29.05677757	     12.17097334	    -11.37337392	    -97.39189197	    -54.19240370	     75.07328408	    -13.51021694	   -118.70454686	     24.62107134	     11.60418302	    -21.95655344	     11.98272530	     78.27375467	    -10.72708773	    -24.49744307	   -108.99825966	     -0.12560975	    -11.40426446	      0.04236044	    -13.44844684	     -5.02398445	      0.33645604	     -0.24376063	     -0.37723666	      0.78277523	   -223.43205030	      3.69824235	      6.82354502	     13.30992686	     40.09443130	     -1.16231444	     -0.10693161	      0.44190684	      0.08682497	     -0.18723387	      0.38912054	     -0.62583162	      1.92121706	      0.53983430
      1.79500000	     43.63263615	      0.83317033	    -10.96806114	    -95.20253671	    -61.30176595	    116.23214039	      0.18994197	   -119.14621444	     24.10693171	     12.46455311	    -18.33074272	      9.31468410	     74.28399058	     -2.59476190	    -29.02519466	    -98.97900993	     -0.13603236	    -10.93182441	      0.04813807	    -13.83432632	     -5.30132522	      0.09013411	      0.93359055	      0.31861009	      0.86920834	   -210.63849263	      3.86387472	      5.47744499	     12.28273553	     37.58433519	     -1.01902577	     -0.08890071	      0.41075961	      0.07462238	     -0.19455793	      0.30340602	     -0.45246992	      1.75358078	      0.50351759
      1.80000000	     54.70071540	    -11.02420221	    -10.10247846	    -88.92427978	    -61.54643193	    153.84208739	     13.57461954	   -117.53859584	     23.15869679	     11.60598122	    -13.56040679	      6.19432684	     69.12136123	      4.58118692	    -33.54415012	    -89.08462040	     -0.14479549	     -9.83778721	      0.05460898	    -14.16156234	     -5.52968244	     -0.14667865	      2.13118144	      0.89858291	      0.90591249	   -195.58286712	      3.96087429	      4.12973139	     11.19372609	     34.45827045	     -0.83277274	     -0.07072468	      0.37634567	      0.05833545	     -0.20002455	      0.21732167	     -0.27855728	      1.57822915	      0.46054140
      1.80500000	     61.40582293	    -22.95065122	     -9.14550954	    -78.67597153	    -53.85306150	    185.53474073	     26.11978285	   -113.60759438	     21.74638944	      9.04154774	     -7.86434531	      2.70874229	     62.64664721	     10.39988395	    -37.90191719	    -79.44662320	     -0.15159375	     -8.11788032	      0.06145303	    -14.40472799	     -5.69532198	     -0.36256373	      3.31471185	      1.33890870	      0.88844050	   -178.58936366	      3.99192481	      2.80683520	     10.06068298	     30.78654162	     -0.60983612	     -0.05259008	      0.33920310	      0.03852082	     -0.20377954	      0.13339179	     -0.10716602	      1.39825258	      0.41111586
      1.81000000	     63.32483319	    -34.50040559	     -8.48440978	    -64.60181804	    -37.22130299	    209.26999763	     37.43074102	   -107.24597857	     19.88728189	      4.93022228	     -1.55356045	     -0.99016797	     54.84894972	     14.53871682	    -41.93378994	    -70.18553500	     -0.15593404	     -5.80120077	      0.06848067	    -14.53891932	     -5.78795281	     -0.54776982	      4.44510571	      1.62593935	      0.81673839	   -160.07857665	      3.96661186	      1.53644794	      8.90452722	     26.69151312	     -0.36196429	     -0.03474149	      0.30003036	      0.01586548	     -0.20613987	      0.05407581	      0.05833829	      1.21703131	      0.35596528
      1.81500000	     60.51230088	    -45.30637741	     -8.44418076	    -46.91307749	    -10.89842228	    223.61628939	     47.25080357	    -98.56256176	     17.64726971	     -0.41469763	      5.01773230	     -4.71666143	     45.86162184	     16.78553271	    -45.47392222	    -61.42015069	     -0.15734443	     -2.95311975	      0.07527853	    -14.54230893	     -5.80163600	     -0.69505160	      5.48069328	      1.75674138	      0.69512867	   -140.55848600	      3.90050773	      0.34693219	      7.74891241	     22.33886057	     -0.10415303	     -0.01749622	      0.25968063	     -0.00880268	     -0.20758486	     -0.01836872	      0.21432979	      1.03817812	      0.29632497
      1.82000000	     53.42967656	    -55.05362913	     -9.24009414	    -26.02189446	     25.48797372	    227.84863323	     55.40572835	    -87.87219167	     15.12797149	     -6.54816973	     11.46998428	     -8.26107550	     35.96267411	     17.06165075	    -48.36709636	    -53.25162206	     -0.15604728	      0.32568807	      0.08136500	    -14.39849056	     -5.73521676	     -0.80024791	      6.37972121	      1.73860405	      0.53182321	   -120.60654401	      3.81380491	     -0.73345570	      6.61937268	     17.92391478	      0.14622216	     -0.00124936	      0.21913796	     -0.03454164	     -0.20870073	     -0.08201073	      0.35699784	      0.86543007	      0.23388438
      1.82500000	     42.82301101	    -63.43322264	    -10.96024926	     -2.68761610	     71.80410911	    221.96436358	     61.72773077	    -75.63032781	     12.44690328	    -12.92602669	     17.43247584	    -11.41446931	     25.55876212	     15.43248092	    -50.47964542	    -45.73391267	     -0.15232757	      3.90135122	      0.08632677	    -14.09829325	     -5.59223549	     -0.86252791	      7.10294536	      1.58759548	      0.33806547	   -100.84558228	      3.72940810	     -1.67749634	      5.54212376	     13.65689362	      0.37128722	      0.01353254	      0.17947720	     -0.06035430	     -0.21012478	     -0.13534522	      0.48246514	      0.70249946	      0.17068844
      1.83000000	     29.61573147	    -70.29893519	    -13.55147640	     21.89286226	    127.30186342	    206.89379551	     66.02271157	    -62.38678412	      9.72857708	    -18.94498363	     22.69699051	    -14.06602839	     15.15370783	     12.10380420	    -51.70860159	    -38.87025698	     -0.14658570	      7.60925517	      0.09059175	    -13.64081706	     -5.38035804	     -0.88428233	      7.61606172	      1.32641721	      0.12702727	    -81.90918625	      3.66992109	     -2.46004139	      4.54268366	      9.74406955	      0.55982605	      0.02632973	      0.14181082	     -0.08523777	     -0.21256013	     -0.17735812	      0.58694381	      0.55290331	      0.10900866
      1.83500000	     14.81079399	    -75.19816357	    -16.86971767	     46.10572605	    190.76768556	    183.74416923	     68.08175966	    -48.72522220	      7.09357450	    -24.00457689	     26.89071829	    -16.00558646	      5.30456846	      7.40385696	    -51.98862042	    -32.61900466	     -0.13929249	     11.26771407	      0.09262687	    -13.03354568	     -5.11043221	     -0.87068185	      7.89176934	      0.98185029	     -0.08740800	    -64.39249687	      3.65798198	     -3.05909394	      3.64449645	      6.36202387	      0.69328563	      0.03659862	      0.10722732	     -0.10824488	     -0.21648582	     -0.20755011	      0.66692061	      0.41979276	      0.05119513
      1.84000000	     -0.58443013	    -77.84803213	    -20.66436925	     68.08041995	    260.70101081	    154.29702527	     67.69838158	    -35.20337739	      4.65117616	    -27.53111233	     29.83015806	    -17.15168276	     -3.42991841	      1.75372143	    -51.29620276	    -26.89143296	     -0.13094252	     14.67830578	      0.09195562	    -12.29153402	     -4.79531407	     -0.82897078	      7.91131501	      0.58209417	     -0.29184833	    -48.79117207	      3.71215179	     -3.45687550	      2.86771084	      3.63317429	      0.76200889	      0.04380959	      0.07672736	     -0.12854182	     -0.22232642	     -0.22591914	      0.71935792	      0.30580030	     -0.00047907
      1.84500000	    -15.59464781	    -78.24269781	    -24.65077428	     85.99555117	    335.73999838	    120.92911404	     64.71434392	    -22.28415604	      2.48857241	    -28.98926398	     31.61667097	    -17.58966221	    -10.54260103	     -4.36980246	    -49.65056473	    -21.55745822	     -0.12237053	     17.63345713	      0.08719472	    -11.43582845	     -4.44862451	     -0.76761035	      7.66542947	      0.15430259	     -0.47446669	    -35.44644615	      3.84533150	     -3.64081408	      2.22822486	      1.61016097	      0.76858971	      0.04748863	      0.05116405	     -0.14546101	     -0.23046270	     -0.23290956	      0.74189358	      0.21291908	     -0.04397001
      1.85000000	    -29.37906354	    -76.41678843	    -28.51480846	     98.26919048	    414.87420517	     86.02758257	     59.09358931	    -10.37925563	      0.67660444	    -28.00189641	     32.36736799	    -17.40689125	    -15.62649777	    -10.47374740	    -47.11067605	    -16.48778427	     -0.11397583	     19.94055838	      0.07845718	    -10.49139554	     -4.08359786	     -0.69540803	      7.15464020	     -0.27740624	     -0.62583297	    -24.50816500	      4.06474997	     -3.60438542	      1.73705777	      0.27129631	      0.71660452	      0.04725745	      0.03119403	     -0.15850886	     -0.24101988	     -0.22934128	      0.73302061	      0.14242403	     -0.07759678
      1.85500000	    -41.20001723	    -72.46862200	    -31.93912524	    103.85696755	    497.53471155	     51.82512517	     50.98955975	      0.18569208	     -0.74421264	    -24.34939260	     32.22233156	    -16.70265387	    -18.41243519	    -16.08594218	    -43.76889445	    -11.59510252	     -0.10595833	     21.43036592	      0.06654438	     -9.48489707	     -3.71216007	     -0.62075213	      6.38903064	     -0.69325737	     -0.73941474	    -15.93476034	      4.37179578	     -3.34774670	      1.40005451	     -0.46811612	      0.61123992	      0.04286756	      0.01724436	     -0.16739094	     -0.25388668	     -0.21633166	      0.69222939	      0.09483726	     -0.10014223
      1.86000000	    -50.47147520	    -67.10552631	    -34.70277845	    102.38286135	    583.54133176	     20.98375823	     40.69034319	      9.15240555	     -1.76193845	    -17.92421304	     31.77405624	    -15.77273303	    -18.79062824	    -20.78544404	    -39.74248801	     -6.82924818	     -0.09853048	     21.96719538	      0.05267737	     -8.44265381	     -3.34431230	     -0.55102941	      5.38757574	     -1.07835179	     -0.81171619	     -9.53129793	      4.75969745	     -2.87811049	      1.21788331	     -0.73428501	      0.47510095	      0.03422560	      0.00949729	     -0.17200702	     -0.26898358	     -0.19521987	      0.62009834	      0.06993526	     -0.11091159
      1.86500000	    -56.95476710	    -60.98360949	    -36.65351613	     93.88193533	    673.04879364	     -4.37623303	     28.49006417	     16.30550952	     -2.38432810	     -8.78213841	     31.51483282	    -14.82102213	    -16.81321493	    -24.22398261	    -35.16454490	     -2.13361672	     -0.09183756	     21.45533889	      0.03849260	     -7.38907427	     -2.98782853	     -0.49225922	      4.17720595	     -1.42245971	     -0.84207622	     -5.00964209	      5.21750942	     -2.20981351	      1.18625552	     -0.66758418	      0.32648375	      0.02140835	      0.00789230	     -0.17243553	     -0.28598066	     -0.16749953	      0.51832323	      0.06679071	     -0.10974550
      1.87000000	    -71.20072907	    -52.22987464	    -40.71384762	     83.93483653	    801.68555640	    -26.29725300	      6.22272919	     26.82882017	     -3.04674680	      2.88747801	     31.77213783	    -13.94991652	    -12.67746361	    -26.13770330	    -30.17585129	      7.63108615	     -0.08597096	     19.84110323	      0.02376068	     -6.34569755	     -2.64822544	     -0.44893751	      2.79174305	     -1.71922137	     -0.83218966	      1.66746179	      5.73121742	     -1.36405333	      1.29628340	      0.50949966	      0.17777589	      0.00466742	      0.01214228	     -0.16892031	     -0.30432221	     -0.13476154	      0.38968098	      0.08383870	     -0.09699027
      1.87500000	    -70.20646101	    -46.59393228	    -40.59486906	     55.32679160	    878.55348226	    -35.49839734	     -7.31323607	     28.38036627	     -2.74438752	     16.78393059	     33.38913118	    -13.40923038	     -6.69255788	    -26.35010500	    -24.91870818	     10.76881732	     -0.08098483	     17.10756416	      0.00673620	     -5.33085180	     -2.32892469	     -0.42405131	      1.27080417	     -1.96499177	     -0.78545979	      1.33066507	      6.27995461	     -0.36829075	      1.53489879	      0.56819093	      0.05950722	     -0.01557541	      0.02175913	     -0.16186195	     -0.32358446	     -0.09864573	      0.23793088	      0.11895668	     -0.07343543
      1.88000000	    -66.76856452	    -42.89332154	    -39.38205688	     25.42342853	    965.57546899	    -35.00287203	    -21.24936392	     27.72353221	     -2.24361443	     32.48234449	     36.52023964	    -13.14343372	      0.76408499	    -24.76829838	    -19.53247807	     13.96506297	     -0.07685670	     13.33215147	     -0.01342582	     -4.35979231	     -2.03151587	     -0.41921009	     -0.34132194	     -2.15759510	     -0.70629995	      0.98131859	      6.84370916	      0.74467030	      1.88527418	      0.58269138	     -0.02147343	     -0.03874119	      0.03608401	     -0.15181759	     -0.34300433	     -0.06079864	      0.06766080	      0.16954869	     -0.04023210
      1.88500000	    -61.54974151	    -41.30693976	    -37.23685114	     -5.36873468	   1060.03936635	    -24.78523105	    -35.47392378	     24.85864986	     -1.58121775	     49.48836668	     41.27948597	    -13.07311707	      9.29331180	    -21.37572633	    -14.15045229	     17.22188499	     -0.07333823	      8.63675324	     -0.03552277	     -3.44507749	     -1.75604906	     -0.43483276	     -1.99692251	     -2.29522097	     -0.59948908	      0.62477414	      7.40128493	      1.93790183	      2.32721174	      0.55500177	     -0.05857018	     -0.06411436	      0.05431714	     -0.13949810	     -0.36182952	     -0.02283225	     -0.11591053	      0.23262364	      0.00119343
      1.89000000	    -55.14830960	    -42.43613782	    -34.48107130	    -36.51381888	   1158.81726310	     -4.46179560	    -49.79368059	     19.81407140	     -0.79262862	     67.26802062	     48.16407924	    -13.19988489	     18.51567032	    -16.22460690	     -8.89751077	     20.51409073	     -0.07050166	      3.20323316	     -0.05093834	     -2.59689001	     -1.50131869	     -0.47033022	     -3.64637513	     -2.37565431	     -0.46966696	      0.26806399	      7.92933672	      3.17182945	      2.83748741	      0.48697765	     -0.03177147	     -0.09086946	      0.07554319	     -0.12573237	     -0.37959441	      0.01372331	     -0.30716149	      0.30485820	      0.04921765
