Coordinates
version=1
nRows=124
nColumns=40
inDegrees=yes

Units are S.I. units (second, meters, Newtons, ...)
If the header above contains a line with 'inDegrees', this indicates whether rotational values are in degrees (yes) or radians (no).

endheader
time	pelvis_tilt	pelvis_list	pelvis_rotation	pelvis_tx	pelvis_ty	pelvis_tz	hip_flexion_r	hip_adduction_r	hip_rotation_r	knee_angle_r	knee_angle_r_beta	ankle_angle_r	subtalar_angle_r	mtp_angle_r	hip_flexion_l	hip_adduction_l	hip_rotation_l	knee_angle_l	knee_angle_l_beta	ankle_angle_l	subtalar_angle_l	mtp_angle_l	lumbar_extension	lumbar_bending	lumbar_rotation	arm_flex_r	arm_add_r	arm_rot_r	elbow_flex_r	pro_sup_r	wrist_flex_r	wrist_dev_r	arm_flex_l	arm_add_l	arm_rot_l	elbow_flex_l	pro_sup_l	wrist_flex_l	wrist_dev_l
      1.27500000	     -8.69397186	     10.78850972	     -1.72454645	     -2.53449447	      0.96437422	      0.26564774	    -21.54589555	    -11.27832979	     -6.02664526	     12.86163953	      0.22447796	    -20.59479442	      0.00000000	      0.00000000	     57.18834887	      5.01452694	    -10.84901914	     71.01082471	      1.23937270	      6.26191795	      0.00000000	      0.00000000	    -21.42876601	    -15.99669117	     14.38321435	     10.59347070	    -21.07547419	     10.95695779	    131.97588188	     88.26235746	      0.00000000	      0.00000000	    -45.47259803	    -23.15695928	    -21.40042291	    107.37957678	      1.35072099	      0.00000000	      0.00000000
      1.28000000	     -8.89240869	     11.04885744	     -1.65904938	     -2.50942607	      0.96595572	      0.26541715	    -22.13678796	    -11.54314264	     -5.83580924	     13.10786655	      0.22877543	    -22.45321063	      0.00000000	      0.00000000	     56.86199738	      5.45006737	    -10.55056631	     67.15944797	      1.17215349	      6.13857511	      0.00000000	      0.00000000	    -21.10281968	    -16.60426248	     14.59622916	      9.80782348	    -21.70607461	     11.67415948	    131.99455112	     88.31733123	      0.00000000	      0.00000000	    -45.63569591	    -23.33495532	    -21.60100689	    108.17087904	      1.39819849	      0.00000000	      0.00000000
      1.28500000	     -9.00319203	     11.17206880	     -1.63252946	     -2.48436680	      0.96751550	      0.26524990	    -22.70868496	    -11.65292874	     -5.43551709	     13.57775559	      0.23697654	    -23.77465296	      0.00000000	      0.00000000	     56.30727489	      5.75664586	    -10.16081104	     63.29518704	      1.10470941	      6.19825504	      0.00000000	      0.00000000	    -20.89298812	    -17.09040071	     14.78282577	      9.00891622	    -22.39078073	     12.38950068	    131.86492998	     88.35274034	      0.00000000	      0.00000000	    -45.76714364	    -23.42628979	    -21.76294236	    109.08291490	      1.38721901	      0.00000000	      0.00000000
      1.29000000	     -9.03758173	     11.17230706	     -1.63276816	     -2.45930499	      0.96903275	      0.26511383	    -23.23824794	    -11.62454423	     -4.86370423	     14.30777617	      0.24971780	    -24.57042399	      0.00000000	      0.00000000	     55.54140905	      5.95108904	     -9.70097841	     59.43720978	      1.03737501	      6.46048439	      0.00000000	      0.00000000	    -20.75316261	    -17.42500062	     14.98183310	      8.14395649	    -23.03541279	     13.06461801	    131.40536931	     88.38769830	      0.00000000	      0.00000000	    -45.65276037	    -23.46032008	    -21.87912585	    109.77311680	      1.39962778	      0.00000000	      0.00000000
      1.29500000	     -8.98091700	     11.03999690	     -1.63598413	     -2.43423868	      0.97049005	      0.26498621	    -23.75809031	    -11.43684958	     -4.15934779	     15.26758223	      0.26646958	    -24.94210396	      0.00000000	      0.00000000	     54.56518060	      6.03974417	     -9.17359196	     55.62550449	      0.97084820	      6.89838574	      0.00000000	      0.00000000	    -20.71866354	    -17.60809983	     15.15034748	      7.24111714	    -23.68300738	     13.70974065	    130.72234516	     88.42152181	      0.00000000	      0.00000000	    -45.42212380	    -23.45331361	    -21.90155832	    110.44641356	      1.37919435	      0.00000000	      0.00000000
      1.30000000	     -8.81996242	     10.78486180	     -1.61686723	     -2.40916187	      0.97189097	      0.26483124	    -24.28986391	    -11.09435643	     -3.39508465	     16.44570412	      0.28703168	    -24.99488322	      0.00000000	      0.00000000	     53.37873616	      6.04130900	     -8.60024849	     51.89102302	      0.90566920	      7.50226152	      0.00000000	      0.00000000	    -20.80900156	    -17.63483279	     15.26906210	      6.27036213	    -24.27899651	     14.24928373	    129.77818529	     88.45179881	      0.00000000	      0.00000000	    -44.98425365	    -23.35925459	    -21.91636552	    111.01014482	      1.39063148	      0.00000000	      0.00000000
      1.30500000	     -8.56336148	     10.43085066	     -1.58477045	     -2.38410586	      0.97320997	      0.26464610	    -24.78491608	    -10.63722728	     -2.61407048	     17.91025399	      0.31259290	    -24.77214958	      0.00000000	      0.00000000	     52.00984091	      5.95229824	     -8.04019812	     48.26842923	      0.84244301	      8.22099589	      0.00000000	      0.00000000	    -21.01579633	    -17.53564174	     15.34100219	      5.31272688	    -24.88003745	     14.73388879	    128.59527227	     88.46316352	      0.00000000	      0.00000000	    -44.43069525	    -23.31401952	    -21.78715031	    111.54117314	      1.37548184	      0.00000000	      0.00000000
      1.31000000	     -8.21064923	      9.96704230	     -1.49088501	     -2.35903546	      0.97443578	      0.26437396	    -25.27724870	    -10.03632643	     -1.90377558	     19.59494141	      0.34199624	    -24.40501543	      0.00000000	      0.00000000	     50.48067029	      5.79517884	     -7.47139777	     44.80789514	      0.78204530	      9.00332397	      0.00000000	      0.00000000	    -21.33444141	    -17.26869088	     15.37335322	      4.27417337	    -25.41625212	     15.10010063	    127.15984802	     88.45933606	      0.00000000	      0.00000000	    -43.67229576	    -23.29570208	    -21.49165484	    111.94313238	      1.34773778	      0.00000000	      0.00000000
      1.31500000	     -7.74280871	      9.43748546	     -1.34233487	     -2.33397082	      0.97559024	      0.26400300	    -25.76959908	     -9.35054570	     -1.32473764	     21.51431719	      0.37549567	    -23.96881701	      0.00000000	      0.00000000	     48.78863797	      5.58887818	     -6.96191324	     41.53875458	      0.72498803	      9.79630908	      0.00000000	      0.00000000	    -21.81597152	    -16.89951477	     15.44064019	      3.03218245	    -25.92635337	     15.13238826	    125.64101416	     88.45722972	      0.00000000	      0.00000000	    -42.64827678	    -23.35553450	    -21.02744328	    112.25557589	      1.34387740	      0.00000000	      0.00000000
      1.32000000	     -7.19086109	      8.85668436	     -1.12462277	     -2.30893444	      0.97661679	      0.26350927	    -26.21499477	     -8.59918319	     -0.91879301	     23.68546400	      0.41338933	    -23.50055958	      0.00000000	      0.00000000	     46.99270272	      5.34470490	     -6.52137007	     38.51232195	      0.67216682	     10.54178172	      0.00000000	      0.00000000	    -22.41565264	    -16.44279181	     15.42001191	      1.72481169	    -26.35521281	     14.96833724	    123.93783349	     88.46176879	      0.00000000	      0.00000000	    -41.50468047	    -23.38693054	    -20.50140408	    112.56536320	      1.34410416	      0.00000000	      0.00000000
      1.32500000	     -6.56105676	      8.25434232	     -0.83977440	     -2.28396404	      0.97748775	      0.26287715	    -26.59161326	     -7.82535433	     -0.72645324	     26.12059475	      0.45589038	    -23.02692726	      0.00000000	      0.00000000	     45.12239105	      5.08026879	     -6.17305943	     35.76833110	      0.62427515	     11.18370051	      0.00000000	      0.00000000	    -23.11092891	    -15.91290561	     15.09011056	      0.72584790	    -26.73931018	     15.05253130	    121.88445502	     88.45623895	      0.00000000	      0.00000000	    -40.44983638	    -23.22191371	    -20.14618761	    112.87704750	      1.34285178	      0.00000000	      0.00000000
      1.33000000	     -5.87215366	      7.66099035	     -0.50448933	     -2.25909645	      0.97818494	      0.26210887	    -26.86641633	     -7.07763446	     -0.74749987	     28.82191652	      0.50303734	    -22.55547265	      0.00000000	      0.00000000	     43.21095655	      4.80539631	     -5.94416459	     33.33182442	      0.58175008	     11.66998374	      0.00000000	      0.00000000	    -23.90552151	    -15.34840093	     14.91894295	     -0.61743007	    -27.07657458	     14.64422590	    119.88065143	     88.45437324	      0.00000000	      0.00000000	    -39.05459273	    -23.28478410	    -19.43277370	    113.08404627	      1.34679690	      0.00000000	      0.00000000
      1.33500000	     -5.13617064	      7.10596351	     -0.13810430	     -2.23437197	      0.97866601	      0.26122697	    -27.02082321	     -6.40206234	     -0.97000119	     31.78566838	      0.55476457	    -22.06717420	      0.00000000	      0.00000000	     41.28863677	      4.53255984	     -5.84313166	     31.23618602	      0.54517429	     11.95574685	      0.00000000	      0.00000000	    -24.77062950	    -14.80053653	     14.36802767	     -1.54858011	    -27.39405670	     14.59933229	    117.56943802	     88.41993898	      0.00000000	      0.00000000	    -37.90972170	    -23.02177528	    -19.10695016	    113.45048388	      1.36464624	      0.00000000	      0.00000000
      1.34000000	     -4.44358623	      6.57616924	      0.25847506	     -2.20982601	      0.97882515	      0.26022668	    -26.95238180	     -5.79189275	     -1.33674361	     35.00990646	      0.61103814	    -21.50932065	      0.00000000	      0.00000000	     39.46687129	      4.25126568	     -5.82059386	     29.50655737	      0.51498658	     12.01279746	      0.00000000	      0.00000000	    -25.57963749	    -14.21191899	     14.10123943	     -2.86643484	    -27.60217480	     13.98363708	    115.25431257	     88.42883116	      0.00000000	      0.00000000	    -36.31159299	    -23.16110170	    -18.16246330	    113.52742886	      1.35539740	      0.00000000	      0.00000000
      1.34500000	     -3.74760874	      6.11889830	      0.64664752	     -2.18548079	      0.97870234	      0.25916885	    -26.72789915	     -5.31277430	     -1.83164947	     38.44788817	      0.67104224	    -20.87809037	      0.00000000	      0.00000000	     37.69002140	      3.98849655	     -5.89893451	     28.12719998	      0.49091225	     11.82358602	      0.00000000	      0.00000000	    -26.41490751	    -13.70106510	     13.42613882	     -3.69659973	    -27.81255463	     13.81649859	    112.67987186	     88.39729504	      0.00000000	      0.00000000	    -35.04594348	    -22.93163361	    -17.74096514	    113.82627305	      1.36151296	      0.00000000	      0.00000000
      1.35000000	     -3.09985348	      5.71528296	      1.02622374	     -2.16133469	      0.97825303	      0.25805650	    -26.31057583	     -4.94492298	     -2.40140271	     42.05100966	      0.73392857	    -20.14352193	      0.00000000	      0.00000000	     36.01396005	      3.73681164	     -6.01345004	     27.09480930	      0.47289363	     11.39997859	      0.00000000	      0.00000000	    -27.19929753	    -13.20411594	     13.11271721	     -4.99236121	    -27.94021326	     13.01017798	    110.25723130	     88.41374945	      0.00000000	      0.00000000	    -33.27714603	    -23.08606371	    -16.68544172	    113.86749123	      1.36321822	      0.00000000	      0.00000000
      1.35500000	     -2.49590451	      5.37540231	      1.38776776	     -2.13738168	      0.97747386	      0.25693114	    -25.72743958	     -4.69692210	     -3.01962844	     45.77056964	      0.79884714	    -19.27816224	      0.00000000	      0.00000000	     34.42665367	      3.50732037	     -6.13911815	     26.38546986	      0.46051332	     10.76145357	      0.00000000	      0.00000000	    -27.94055192	    -12.76821710	     12.56403513	     -5.97099531	    -28.05119779	     12.47022125	    107.66747655	     88.40792189	      0.00000000	      0.00000000	    -31.67704848	    -23.07617038	    -15.88831370	    113.99307592	      1.36659973	      0.00000000	      0.00000000
      1.36000000	     -1.94758960	      5.08577638	      1.74066405	     -2.11360396	      0.97636086	      0.25579280	    -24.98993426	     -4.54583079	     -3.66576191	     49.55069893	      0.86482284	    -18.27963793	      0.00000000	      0.00000000	     32.93577256	      3.30138636	     -6.22735545	     25.97934552	      0.45342512	      9.96231498	      0.00000000	      0.00000000	    -28.62313687	    -12.36781397	     11.97907671	     -6.89563459	    -28.12409598	     11.90013689	    105.05081210	     88.40581163	      0.00000000	      0.00000000	    -30.02593019	    -23.08115821	    -15.06188921	    114.08337472	      1.37065916	      0.00000000	      0.00000000
      1.36500000	     -1.46155443	      4.83650997	      2.09989284	     -2.08998435	      0.97491398	      0.25463242	    -24.11182989	     -4.47249299	     -4.33609449	     53.34498756	      0.93104567	    -17.15072095	      0.00000000	      0.00000000	     31.54507997	      3.12285629	     -6.24834488	     25.85680380	      0.45128636	      9.06722415	      0.00000000	      0.00000000	    -29.23837039	    -11.98737527	     11.36847899	     -7.79723112	    -28.15933536	     11.27250387	    102.45119640	     88.40946513	      0.00000000	      0.00000000	    -28.30670653	    -23.11161367	    -14.18953886	    114.12801616	      1.37328336	      0.00000000	      0.00000000
      1.37000000	     -1.03484173	      4.62188058	      2.48241941	     -2.06651530	      0.97314811	      0.25343331	    -23.11198865	     -4.46244622	     -5.03946281	     57.11783446	      0.99689427	    -15.91425441	      0.00000000	      0.00000000	     30.24933552	      2.97979270	     -6.18499062	     26.00004404	      0.45378637	      8.16881936	      0.00000000	      0.00000000	    -29.78484877	    -11.61995759	     10.48184250	     -8.34046419	    -28.22901208	     10.99856679	     99.73869968	     88.38851700	      0.00000000	      0.00000000	    -26.78791661	    -23.00287501	    -13.61057781	    114.23987961	      1.37099531	      0.00000000	      0.00000000
      1.37500000	     -0.66901021	      4.44053545	      2.90275663	     -2.04318648	      0.97109886	      0.25216496	    -22.00030193	     -4.51282860	     -5.78392715	     60.83865700	      1.06183488	    -14.58938305	      0.00000000	      0.00000000	     29.04736128	      2.88070296	     -6.04797826	     26.39471471	      0.46067468	      7.37062439	      0.00000000	      0.00000000	    -30.26807044	    -11.24356206	      9.63370091	     -8.97808300	    -28.28378819	     10.57468181	     97.14971412	     88.39533367	      0.00000000	      0.00000000	    -25.08323958	    -23.01001354	    -12.82923203	    114.22084611	      1.37216704	      0.00000000	      0.00000000
      1.38000000	     -0.36749273	      4.29303677	      3.35939515	     -2.02000854	      0.96877285	      0.25082046	    -20.77138436	     -4.62946518	     -6.56478452	     64.50706079	      1.12586060	    -13.19636855	      0.00000000	      0.00000000	     27.94766608	      2.82470418	     -5.87154803	     27.04009934	      0.47193876	      6.79757075	      0.00000000	      0.00000000	    -30.69794569	    -10.85578759	      9.17389560	    -10.25514800	    -28.16179442	      9.26218881	     94.99918387	     88.42051367	      0.00000000	      0.00000000	    -22.85266017	    -23.26751313	    -11.44828149	    113.98343383	      1.38543127	      0.00000000	      0.00000000
      1.38500000	     -0.12612984	      4.17899068	      3.88802529	     -1.99700448	      0.96620556	      0.24934782	    -19.43995655	     -4.80914386	     -7.41961360	     68.10050169	      1.18857798	    -11.78599969	      0.00000000	      0.00000000	     26.95480364	      2.82910479	     -5.65002263	     27.94181984	      0.48767676	      6.58479947	      0.00000000	      0.00000000	    -31.06171074	    -10.45107514	      8.26980098	    -11.01700900	    -28.17170838	      8.56708341	     92.76345710	     88.44431167	      0.00000000	      0.00000000	    -20.95016114	    -23.32710968	    -10.51582049	    113.85414431	      1.38101206	      0.00000000	      0.00000000
      1.39000000	      0.06358352	      4.09962023	      4.47744845	     -1.97419982	      0.96346131	      0.24774951	    -18.00837438	     -5.06235854	     -8.32803940	     71.61612451	      1.24993717	    -10.37522380	      0.00000000	      0.00000000	     26.05732521	      2.88891348	     -5.41754122	     29.08097463	      0.50755876	      6.80940838	      0.00000000	      0.00000000	    -31.37952692	    -10.02364620	      7.27392158	    -11.76787140	    -28.20924495	      7.84672092	     90.70649469	     88.45914412	      0.00000000	      0.00000000	    -19.00727244	    -23.37986606	     -9.57839703	    113.67882092	      1.38052723	      0.00000000	      0.00000000
      1.39500000	      0.19218019	      4.04456885	      5.12949178	     -1.95163366	      0.96056721	      0.24603983	    -16.45961721	     -5.38034479	     -9.27459458	     75.05040984	      1.30987676	     -8.99377533	      0.00000000	      0.00000000	     25.27621759	      2.99096556	     -5.16995408	     30.45799061	      0.53159222	      7.53086066	      0.00000000	      0.00000000	    -31.64098520	     -9.56454577	      6.18144532	    -12.51612437	    -28.28815242	      7.12115796	     88.88128944	     88.46853680	      0.00000000	      0.00000000	    -17.02652553	    -23.43042655	     -8.64252602	    113.47692576	      1.38674857	      0.00000000	      0.00000000
      1.40000000	      0.26433548	      4.00441039	      5.83296421	     -1.92932632	      0.95759561	      0.24424698	    -14.79214896	     -5.75474808	    -10.23082639	     78.38964387	      1.36815739	     -7.66158442	      0.00000000	      0.00000000	     24.60452992	      3.11764592	     -4.89345327	     32.03958225	      0.55919620	      8.70333693	      0.00000000	      0.00000000	    -31.85410062	     -9.06793024	      5.01771453	    -13.29098200	    -28.41894163	      6.36161463	     87.32655732	     88.47570246	      0.00000000	      0.00000000	    -15.00640518	    -23.47781992	     -7.70039442	    113.25097922	      1.39169484	      0.00000000	      0.00000000
      1.40500000	      0.27576149	      3.97333112	      6.57635213	     -1.90727959	      0.95461563	      0.24241023	    -12.99330962	     -6.18127758	    -11.17280637	     81.62192733	      1.42457137	     -6.39543878	      0.00000000	      0.00000000	     24.03757996	      3.25489140	     -4.56153308	     33.77463638	      0.58947861	     10.23251715	      0.00000000	      0.00000000	    -32.01019718	     -8.53847797	      3.76983182	    -14.08091643	    -28.58929005	      5.57263084	     86.04847884	     88.48116601	      0.00000000	      0.00000000	    -12.97413532	    -23.50078894	     -6.80920624	    113.02754966	      1.39296843	      0.00000000	      0.00000000
      1.41000000	      0.23445672	      3.93496927	      7.33590222	     -1.88547223	      0.95170159	      0.24058121	    -11.06341987	     -6.63982513	    -12.06038130	     84.72637374	      1.47875419	     -5.19422512	      0.00000000	      0.00000000	     23.55572743	      3.36917727	     -4.16086589	     35.61063889	      0.62152290	     12.00175631	      0.00000000	      0.00000000	    -32.10774608	     -7.97233651	      2.50925267	    -14.94516647	    -28.81728550	      4.74011510	     85.09770134	     88.47103645	      0.00000000	      0.00000000	    -10.89595808	    -23.54170001	     -5.87755809	    112.78432920	      1.40488027	      0.00000000	      0.00000000
      1.41500000	      0.14660334	      3.88329923	      8.09615966	     -1.86384008	      0.94891911	      0.23877466	     -9.01067006	     -7.12524755	    -12.87648090	     87.67671198	      1.53024730	     -4.05560733	      0.00000000	      0.00000000	     23.12543165	      3.44490575	     -3.67752984	     37.47455985	      0.65405446	     13.88233964	      0.00000000	      0.00000000	    -32.14610575	     -7.37444040	      1.22381141	    -15.87491073	    -29.09467121	      3.85974815	     84.46358072	     88.47651047	      0.00000000	      0.00000000	     -8.83067405	    -23.56189210	     -4.98549526	    112.56559850	      1.40308733	      0.00000000	      0.00000000
      1.42000000	      0.00835153	      3.79395624	      8.83451024	     -1.84229912	      0.94630461	      0.23703353	     -6.82620664	     -7.60255962	    -13.59195179	     90.44502038	      1.57856340	     -2.98158823	      0.00000000	      0.00000000	     22.72211902	      3.44198874	     -3.13048792	     39.29185614	      0.68577226	     15.78467027	      0.00000000	      0.00000000	    -32.12165791	     -6.74115923	     -0.46623932	    -16.37133267	    -29.60547940	      3.65405423	     83.98684743	     88.22974140	      0.00000000	      0.00000000	     -7.32814169	    -23.48561533	     -4.77640988	    112.70287419	      1.62698010	      0.00000000	      0.00000000
      1.42500000	     -0.13171079	      3.67845838	      9.51009051	     -1.82076524	      0.94394293	      0.23539315	     -4.56530473	     -8.07590428	    -14.17676736	     93.00713503	      1.62328073	     -1.95449180	      0.00000000	      0.00000000	     22.24681671	      3.34835195	     -2.56775728	     40.97054915	      0.71507098	     17.61187766	      0.00000000	      0.00000000	    -32.01988886	     -6.09318453	     -1.23328657	    -18.04628583	    -29.75393831	      1.92691881	     84.15720217	     88.45779576	      0.00000000	      0.00000000	     -4.75994663	    -23.61461768	     -3.21077057	    112.23286536	      1.40514365	      0.00000000	      0.00000000
      1.43000000	     -0.29411745	      3.50658151	     10.12825915	     -1.79914517	      0.94183150	      0.23386196	     -2.21043177	     -8.49642368	    -14.63892539	     95.33157489	      1.66384986	     -0.97336906	      0.00000000	      0.00000000	     21.69534268	      3.13390722	     -2.00694233	     42.44758676	      0.74085015	     19.31749163	      0.00000000	      0.00000000	    -31.86029188	     -5.41174330	     -2.41118055	    -19.24464114	    -30.15277236	      0.95323682	     84.44312043	     88.43966119	      0.00000000	      0.00000000	     -2.86042879	    -23.61722722	     -2.44593176	    112.17399067	      1.40876485	      0.00000000	      0.00000000
      1.43500000	     -0.47107538	      3.28922074	     10.65894023	     -1.77736796	      0.93999077	      0.23246974	      0.22752177	     -8.86690366	    -14.96124316	     97.40663461	      1.70006649	     -0.02699572	      0.00000000	      0.00000000	     21.02243674	      2.79978076	     -1.50642885	     43.65665938	      0.76195245	     20.85049446	      0.00000000	      0.00000000	    -31.63398652	     -4.72539123	     -3.41058732	    -20.69624228	    -30.50617471	     -0.26188038	     85.06273671	     88.39524462	      0.00000000	      0.00000000	     -0.96286588	    -23.61569753	     -1.59901555	    112.17596857	      1.44507728	      0.00000000	      0.00000000
      1.44000000	     -0.63601263	      3.01761307	     11.10511384	     -1.75538685	      0.93845768	      0.23121902	      2.70748739	     -9.15599884	    -15.16436128	     99.20711057	      1.73149072	      0.88174862	      0.00000000	      0.00000000	     20.18346750	      2.34054203	     -1.07319618	     44.56447613	      0.77779684	     22.20068422	      0.00000000	      0.00000000	    -31.35512208	     -4.02669979	     -4.37959657	    -22.13741593	    -30.91462399	     -1.37039481	     85.84524210	     88.40799772	      0.00000000	      0.00000000	      0.77034123	    -23.62543720	     -0.86535734	    112.31137793	      1.41705853	      0.00000000	      0.00000000
      1.44500000	     -0.78405378	      2.69200937	     11.45600259	     -1.73317923	      0.93722532	      0.23011149	      5.21825184	     -9.35166228	    -15.25227235	    100.72576027	      1.75799616	      1.74627730	      0.00000000	      0.00000000	     19.16762447	      1.76108727	     -0.73461189	     45.16331327	      0.78824852	     23.35567707	      0.00000000	      0.00000000	    -31.04612252	     -3.31312960	     -5.25846247	    -23.66789051	    -31.31671879	     -2.54022040	     86.85586346	     88.38536439	      0.00000000	      0.00000000	      2.35193325	    -23.62139106	     -0.24501856	    112.61019980	      1.41612474	      0.00000000	      0.00000000
      1.45000000	     -0.90250055	      2.31950171	     11.70617494	     -1.71073291	      0.93629583	      0.22913635	      7.73299107	     -9.45133293	    -15.23968946	    101.95788670	      1.77950082	      2.56894224	      0.00000000	      0.00000000	     17.96308096	      1.07752822	     -0.49895156	     45.46068260	      0.79343859	     24.31098160	      0.00000000	      0.00000000	    -30.71661623	     -2.59384795	     -6.02114060	    -25.27572064	    -31.72804419	     -3.73877992	     88.04627368	     88.34732065	      0.00000000	      0.00000000	      3.83085291	    -23.62095351	      0.34315930	    113.02664202	      1.42951642	      0.00000000	      0.00000000
      1.45500000	     -1.00022881	      1.89311729	     11.85103403	     -1.68805896	      0.93563839	      0.22828890	     10.25472712	     -9.43678422	    -15.13434636	    102.90533105	      1.79603684	      3.34555322	      0.00000000	      0.00000000	     16.59762218	      0.29522072	     -0.37409786	     45.48962790	      0.79394378	     25.05700297	      0.00000000	      0.00000000	    -30.36637925	     -1.86322514	     -6.68816408	    -26.90687585	    -32.14154747	     -4.94444633	     89.35498526	     88.32165467	      0.00000000	      0.00000000	      5.15894883	    -23.61046011	      0.81561796	    113.60370665	      1.42872882	      0.00000000	      0.00000000
      1.46000000	     -1.07315966	      1.42167693	     11.89040686	     -1.66516988	      0.93524454	      0.22754626	     12.76340064	     -9.31466241	    -14.95446793	    103.56892432	      1.80761873	      4.05277686	      0.00000000	      0.00000000	     15.08194537	     -0.56206684	     -0.35124208	     45.28323736	      0.79034159	     25.59955344	      0.00000000	      0.00000000	    -30.00886936	     -1.12526168	     -7.25071394	    -28.55512470	    -32.56798675	     -6.14406844	     90.77018493	     88.29296573	      0.00000000	      0.00000000	      6.37155132	    -23.59456051	      1.21680764	    114.30632016	      1.42987572	      0.00000000	      0.00000000
      1.46500000	     -1.13177363	      0.91227713	     11.81858084	     -1.64209186	      0.93508567	      0.22691310	     15.26084711	     -9.08476524	    -14.70336874	    103.95979192	      1.81444066	      4.70158956	      0.00000000	      0.00000000	     13.44445017	     -1.47605699	     -0.43472351	     44.87518456	      0.78321972	     25.91041069	      0.00000000	      0.00000000	    -29.64297756	     -0.38805114	     -7.69991820	    -30.21111932	    -32.99537001	     -7.35621131	     92.26101232	     88.27361753	      0.00000000	      0.00000000	      7.46906116	    -23.57508661	      1.54875095	    115.13475095	      1.43309286	      0.00000000	      0.00000000
      1.47000000	     -1.18398666	      0.37532628	     11.64125603	     -1.61883976	      0.93515288	      0.22638310	     17.73739525	     -8.75775550	    -14.39832893	    104.08381974	      1.81660535	      5.27940466	      0.00000000	      0.00000000	     11.71059686	     -2.42278129	     -0.61401879	     44.29977561	      0.77317694	     25.98395735	      0.00000000	      0.00000000	    -29.27243367	      0.34145539	     -8.05706726	    -31.83311713	    -33.42691249	     -8.54938138	     93.77552057	     88.26718554	      0.00000000	      0.00000000	      8.44842367	    -23.55887699	      1.80058861	    116.08541005	      1.42576752	      0.00000000	      0.00000000
      1.47500000	     -1.23716371	     -0.17074335	     11.36067386	     -1.59542322	      0.93543616	      0.22595921	     20.18160187	     -8.35136857	    -14.04742796	    103.94965122	      1.81426367	      5.78459620	      0.00000000	      0.00000000	      9.89818623	     -3.37339145	     -0.88669909	     43.57819480	      0.76058298	     25.77974185	      0.00000000	      0.00000000	    -28.89865089	      1.04746989	     -8.29941987	    -33.45570520	    -33.84436034	     -9.74210006	     95.32209303	     88.26015116	      0.00000000	      0.00000000	      9.35102224	    -23.53473806	      2.03568975	    117.10932556	      1.43512479	      0.00000000	      0.00000000
      1.48000000	     -1.30165794	     -0.71256039	     10.98052586	     -1.57183259	      0.93593220	      0.22564465	     22.58527194	     -7.87877325	    -13.65954698	    103.56377924	      1.80752893	      6.21152973	      0.00000000	      0.00000000	      8.02381023	     -4.30501574	     -1.25043721	     42.72552675	      0.74570112	     25.30012896	      0.00000000	      0.00000000	    -28.53396163	      1.72507991	     -8.69940097	    -34.72860030	    -34.43917676	    -10.57098278	     96.78120706	     88.14674301	      0.00000000	      0.00000000	      9.83795070	    -23.57235356	      1.82916333	    118.44158230	      1.51010273	      0.00000000	      0.00000000
      1.48500000	     -1.37721472	     -1.24158314	     10.52033903	     -1.54810114	      0.93662065	      0.22544241	     24.93194217	     -7.34827061	    -13.25352925	    102.93621865	      1.79657594	      6.57197400	      0.00000000	      0.00000000	      6.10458279	     -5.20076267	     -1.68485847	     41.76353301	      0.72891116	     24.51753737	      0.00000000	      0.00000000	    -28.14320252	      2.35487871	     -8.55609405	    -36.52809152	    -34.64364453	    -12.02500529	     98.33014478	     88.24455093	      0.00000000	      0.00000000	     10.86450005	    -23.53823095	      2.35622460	    119.38953438	      1.44479363	      0.00000000	      0.00000000
      1.49000000	     -1.47555855	     -1.74767396	      9.98309997	     -1.52417906	      0.93749851	      0.22534127	     27.21198759	     -6.77460584	    -12.83477976	    102.07121296	      1.78147874	      6.86951949	      0.00000000	      0.00000000	      4.14861312	     -6.04206606	     -2.19367339	     40.68490450	      0.71008554	     23.41485100	      0.00000000	      0.00000000	    -27.75586118	      2.94734209	     -8.58230859	    -37.97916140	    -35.00718911	    -13.11446807	     99.75991701	     88.25944468	      0.00000000	      0.00000000	     11.49200825	    -23.56845165	      2.47718590	    120.61295863	      1.44311692	      0.00000000	      0.00000000
      1.49500000	     -1.59270572	     -2.22747454	      9.38332044	     -1.50006742	      0.93855138	      0.22533773	     29.40518844	     -6.16301768	    -12.41657117	    100.97504172	      1.76234694	      7.10976559	      0.00000000	      0.00000000	      2.15972826	     -6.82039732	     -2.76703587	     39.49351374	      0.68929185	     21.98067922	      0.00000000	      0.00000000	    -27.36233490	      3.50014648	     -8.55976981	    -39.35586346	    -35.35318535	    -14.15131393	    101.12194388	     88.26641771	      0.00000000	      0.00000000	     12.02370742	    -23.61153700	      2.57004243	    121.87732152	      1.43812003	      0.00000000	      0.00000000
      1.50000000	     -1.72560867	     -2.68507687	      8.73528536	     -1.47575661	      0.93976373	      0.22542103	     31.49351549	     -5.51384064	    -12.01371155	     99.65213377	      1.73925784	      7.30682248	      0.00000000	      0.00000000	      0.14445881	     -7.53525760	     -3.39673621	     38.19392902	      0.66660982	     20.20220376	      0.00000000	      0.00000000	    -26.96600782	      4.02412309	     -8.48664846	    -40.67017670	    -35.66618184	    -15.14565497	    102.40755601	     88.26349092	      0.00000000	      0.00000000	     12.47281148	    -23.67292716	      2.65281694	    123.17101537	      1.44858212	      0.00000000	      0.00000000
      1.50500000	     -1.87562185	     -3.12809551	      8.05861274	     -1.45124274	      0.94111203	      0.22558231	     33.46525512	     -4.82862417	    -11.64469385	     98.10637917	      1.71227933	      7.46888800	      0.00000000	      0.00000000	     -1.88162581	     -8.19222965	     -4.07046548	     36.79334417	      0.64216500	     18.07644591	      0.00000000	      0.00000000	    -26.56094635	      4.53290104	     -8.38026087	    -41.91109836	    -35.94893136	    -16.07485726	    103.61277449	     88.26568796	      0.00000000	      0.00000000	     12.82057651	    -23.74989769	      2.72921403	    124.49055552	      1.45352544	      0.00000000	      0.00000000
      1.51000000	     -2.04164141	     -3.55460818	      7.35642338	     -1.42652032	      0.94256987	      0.22582016	     35.31251931	     -4.11174170	    -11.30609421	     96.34707833	      1.68157374	      7.61305513	      0.00000000	      0.00000000	     -3.91386893	     -8.78685909	     -4.79219442	     35.29678535	      0.61604512	     15.59935683	      0.00000000	      0.00000000	    -26.15296901	      5.02941526	     -8.37277178	    -42.93224179	    -36.34970739	    -16.78367813	    104.69716446	     88.24381834	      0.00000000	      0.00000000	     12.93111792	    -23.88755426	      2.58867774	    125.93286857	      1.48411477	      0.00000000	      0.00000000
      1.51500000	     -2.20871409	     -3.97668538	      6.65600640	     -1.40162833	      0.94412106	      0.22610902	     37.01251149	     -3.36966136	    -11.02725038	     94.37770201	      1.64720164	      7.74127013	      0.00000000	      0.00000000	     -5.94598470	     -9.33331951	     -5.53185526	     33.72127513	      0.58854728	     12.78652349	      0.00000000	      0.00000000	    -25.74495820	      5.52942248	     -8.09892071	    -44.17008927	    -36.46677282	    -17.76716067	    105.75884805	     88.25933649	      0.00000000	      0.00000000	     13.25917131	    -23.95641829	      2.82197071	    127.17825650	      1.45097563	      0.00000000	      0.00000000
      1.52000000	     -2.37595798	     -4.39482038	      5.97586992	     -1.37656696	      0.94575996	      0.22643466	     38.55622625	     -2.61494158	    -10.81553706	     92.20108998	      1.60921259	      7.86322963	      0.00000000	      0.00000000	     -7.96878987	     -9.83124712	     -6.26476691	     32.07157275	      0.55975454	      9.64646910	      0.00000000	      0.00000000	    -25.34680751	      6.03227933	     -8.04472277	    -45.03735128	    -36.82396389	    -18.31061009	    106.64110738	     88.23076051	      0.00000000	      0.00000000	     13.27221758	    -24.12964646	      2.78509537	    128.60388411	      1.51283424	      0.00000000	      0.00000000
      1.52500000	     -2.59285078	     -4.81114509	      5.31588750	     -1.35134683	      0.94739851	      0.22680383	     40.00323090	     -1.85052428	    -10.65788571	     89.82951797	      1.56782085	      7.96428902	      0.00000000	      0.00000000	     -9.91519806	    -10.27913109	     -6.96952284	     30.37160501	      0.53008451	      6.23402431	      0.00000000	      0.00000000	    -24.91304217	      6.57153543	     -7.92726677	    -45.96823049	    -36.99493937	    -19.03346077	    107.53710179	     88.21638792	      0.00000000	      0.00000000	     13.15384045	    -24.26599317	      2.71595033	    129.99357866	      1.50152913	      0.00000000	      0.00000000
      1.53000000	     -2.79312600	     -5.22209935	      4.69943011	     -1.32601982	      0.94910272	      0.22718345	     41.27513885	     -1.09488810	    -10.57228744	     87.26078858	      1.52298807	      8.05759934	      0.00000000	      0.00000000	    -11.84762075	    -10.67926708	     -7.59933580	     28.62196264	      0.49954749	      2.58572635	      0.00000000	      0.00000000	    -24.49569117	      7.11254676	     -7.70591008	    -46.91608293	    -37.04110039	    -19.78030878	    108.33795175	     88.22879754	      0.00000000	      0.00000000	     13.16970735	    -24.37925033	      2.89232146	    131.24702471	      1.47417193	      0.00000000	      0.00000000
      1.53500000	     -3.00578946	     -5.62063109	      4.13870636	     -1.30059661	      0.95083133	      0.22756192	     42.40493100	     -0.36532587	    -10.54961096	     84.50323787	      1.47485973	      8.13459370	      0.00000000	      0.00000000	    -13.72209422	    -11.02389556	     -8.09897050	     26.84206856	      0.46848247	     -1.21303704	      0.00000000	      0.00000000	    -24.08028052	      7.66647554	     -7.63811150	    -47.62972748	    -37.18027531	    -20.29396268	    109.03100704	     88.20653113	      0.00000000	      0.00000000	     12.94425818	    -24.56898676	      2.91366473	    132.58606467	      1.50163680	      0.00000000	      0.00000000
      1.54000000	     -3.21779906	     -6.00887534	      3.63905421	     -1.27509526	      0.95259452	      0.22792392	     43.37823032	      0.33503208	    -10.58945898	     81.55876953	      1.42346906	      8.19883468	      0.00000000	      0.00000000	    -15.54868729	    -11.31680755	     -8.41559880	     25.03855727	      0.43700526	     -5.08060976	      0.00000000	      0.00000000	    -23.67373581	      8.23134390	     -7.59143990	    -48.24859601	    -37.26648487	    -20.75314948	    109.64902274	     88.19604359	      0.00000000	      0.00000000	     12.66246829	    -24.75110653	      2.96096870	    133.87480496	      1.50563515	      0.00000000	      0.00000000
      1.54500000	     -3.41910154	     -6.37788658	      3.19584488	     -1.24953063	      0.95439471	      0.22826042	     44.18489552	      1.00181796	    -10.67285911	     78.43031700	      1.36886727	      8.24434489	      0.00000000	      0.00000000	    -17.33752391	    -11.54682827	     -8.50058870	     23.22126229	      0.40528748	     -8.90376875	      0.00000000	      0.00000000	    -23.26518933	      8.77082561	     -7.55558763	    -48.70514864	    -37.34934981	    -21.04264154	    110.07221058	     88.17758670	      0.00000000	      0.00000000	     12.39343861	    -24.92188786	      3.15858318	    135.01550734	      1.55349270	      0.00000000	      0.00000000
      1.55000000	     -3.63324655	     -6.73793658	      2.84182508	     -1.22393499	      0.95618241	      0.22853961	     44.84952725	      1.61775756	    -10.82596002	     75.11925996	      1.31107842	      8.26135492	      0.00000000	      0.00000000	    -19.02541847	    -11.74600025	     -8.27862159	     21.46427146	      0.37462221	    -12.55431593	      0.00000000	      0.00000000	    -22.90182277	      9.38545992	     -7.64644103	    -49.12965593	    -37.33637745	    -21.43784504	    110.66792078	     88.18070416	      0.00000000	      0.00000000	     11.82524348	    -25.13166658	      3.05449293	    136.32378919	      1.51300447	      0.00000000	      0.00000000
      1.55500000	     -3.83362378	     -7.08148843	      2.53871129	     -1.19830207	      0.95798237	      0.22878342	     45.34508344	      2.21109619	    -11.00047565	     71.62660898	      1.25012016	      8.26173326	      0.00000000	      0.00000000	    -20.65978966	    -11.89832478	     -7.75118983	     19.76526772	      0.34496900	    -15.92135573	      0.00000000	      0.00000000	    -22.50104363	      9.93829490	     -7.67455574	    -49.35819596	    -37.31129850	    -21.60161959	    110.93650077	     88.16180003	      0.00000000	      0.00000000	     11.43541864	    -25.28038319	      3.35959983	    137.25476365	      1.56380380	      0.00000000	      0.00000000
      1.56000000	     -4.02389142	     -7.42488732	      2.33281005	     -1.17267882	      0.95973999	      0.22894965	     45.67434623	      2.76191468	    -11.23786850	     67.95680540	      1.18607000	      8.23891247	      0.00000000	      0.00000000	    -22.17357850	    -12.05849022	     -6.87452362	     18.25510730	      0.31861173	    -18.87679429	      0.00000000	      0.00000000	    -22.19638661	     10.58706894	     -7.95401562	    -49.45986199	    -37.34455401	    -21.75857654	    111.42374365	     88.16716113	      0.00000000	      0.00000000	     10.57328599	    -25.54838361	      3.10878101	    138.58719804	      1.51737152	      0.00000000	      0.00000000
      1.56500000	     -4.21591735	     -7.76403098	      2.19317807	     -1.14705463	      0.96143691	      0.22905817	     45.85012801	      3.29313855	    -11.50057037	     64.10868100	      1.11890756	      8.18950197	      0.00000000	      0.00000000	    -23.55403493	    -12.21960127	     -5.67389161	     16.97121175	      0.29620352	    -21.31681301	      0.00000000	      0.00000000	    -21.86118824	     11.20457249	     -8.40065170	    -49.14844852	    -37.57213924	    -21.46881545	    111.62385729	     88.15378578	      0.00000000	      0.00000000	      9.56685706	    -25.81862451	      2.89361712	    139.77347035	      1.51411931	      0.00000000	      0.00000000
      1.57000000	     -4.39689498	     -8.10030767	      2.12232639	     -1.12146598	      0.96301462	      0.22908590	     45.86564268	      3.80456510	    -11.78372529	     60.10132545	      1.04896601	      8.11564352	      0.00000000	      0.00000000	    -24.77126100	    -12.39764657	     -4.18835252	     16.02691395	      0.27972242	    -23.15539729	      0.00000000	      0.00000000	    -21.53481823	     11.84360918	     -8.57991515	    -49.10213717	    -37.41312846	    -21.55935919	    111.89256191	     88.13550807	      0.00000000	      0.00000000	      8.87751173	    -26.01022411	      3.15186169	    140.62459753	      1.53830686	      0.00000000	      0.00000000
      1.57500000	     -4.57279775	     -8.44448161	      2.11510311	     -1.09590851	      0.96443613	      0.22902222	     45.72583159	      4.30861875	    -12.08832624	     55.93738327	      0.97629151	      7.99728896	      0.00000000	      0.00000000	    -25.79045612	    -12.60629992	     -2.48134934	     15.50474176	      0.27060879	    -24.34417371	      0.00000000	      0.00000000	    -21.19470246	     12.49520015	     -8.72954951	    -48.97291394	    -37.21072816	    -21.61002489	    112.05967519	     88.11934312	      0.00000000	      0.00000000	      8.25067138	    -26.11018144	      3.53164424	    141.24350539	      1.56805177	      0.00000000	      0.00000000
      1.58000000	     -4.77368144	     -8.74581797	      2.17034199	     -1.07036820	      0.96561250	      0.22885913	     45.47891018	      4.75477526	    -12.38272786	     51.67469754	      0.90189361	      7.83640177	      0.00000000	      0.00000000	    -26.55410071	    -12.78802646	     -0.55229202	     15.45135765	      0.26967706	    -24.89759053	      0.00000000	      0.00000000	    -20.88400267	     13.14117013	     -9.58416803	    -48.06000912	    -37.68425656	    -20.84271945	    112.12819175	     88.11944591	      0.00000000	      0.00000000	      6.57083321	    -26.36561587	      2.81821288	    142.44953085	      1.53258579	      0.00000000	      0.00000000
      1.58500000	     -4.93240832	     -9.02585880	      2.25947681	     -1.04487855	      0.96652896	      0.22859533	     45.06945041	      5.18518343	    -12.66100207	     47.34724397	      0.82636530	      7.63140594	      0.00000000	      0.00000000	    -27.13341157	    -12.94358508	      1.45573897	     15.90034413	      0.27751336	    -24.84304193	      0.00000000	      0.00000000	    -20.55965227	     13.75656052	     -9.73826950	    -47.84897660	    -37.39598572	    -20.90498915	    112.30887234	     88.09663585	      0.00000000	      0.00000000	      5.90839488	    -26.45226167	      3.29875854	    142.83080576	      1.55375081	      0.00000000	      0.00000000
      1.59000000	     -5.08676322	     -9.23911742	      2.36625330	     -1.01938498	      0.96709526	      0.22826275	     44.56168438	      5.56082383	    -12.89504012	     43.03967399	      0.75118402	      7.38086400	      0.00000000	      0.00000000	    -27.49607121	    -13.00953225	      3.49496139	     16.82971939	      0.29373402	    -24.29729354	      0.00000000	      0.00000000	    -20.26921817	     14.30522295	    -10.44862069	    -46.92865702	    -37.70074540	    -20.21630463	    112.32830790	     88.08725198	      0.00000000	      0.00000000	      4.38314653	    -26.62656416	      2.94785742	    143.64370835	      1.52826281	      0.00000000	      0.00000000
      1.59500000	     -5.18380854	     -9.38873294	      2.45772181	     -0.99390283	      0.96728096	      0.22789655	     43.93341542	      5.90505530	    -13.07106996	     38.83766890	      0.67784520	      7.10607477	      0.00000000	      0.00000000	    -27.72460972	    -12.96813846	      5.41405400	     18.20416195	      0.31772256	    -23.37160881	      0.00000000	      0.00000000	    -20.01726325	     14.77507068	    -10.79767173	    -46.34948787	    -37.65779237	    -19.93762097	    112.44577261	     88.06292476	      0.00000000	      0.00000000	      3.32044949	    -26.72950830	      3.10741348	    144.02861621	      1.52767380	      0.00000000	      0.00000000
      1.60000000	     -5.22091381	     -9.46233261	      2.50627620	     -0.96841586	      0.96704338	      0.22755734	     43.21881607	      6.21681394	    -13.17380223	     34.84457643	      0.60815259	      6.82892505	      0.00000000	      0.00000000	    -27.85319544	    -12.79827554	      7.09777802	     19.95906974	      0.34835148	    -22.20103885	      0.00000000	      0.00000000	    -19.81974134	     15.14667446	    -10.84804694	    -46.04234968	    -37.36121294	    -19.98322025	    112.66695928	     88.05307037	      0.00000000	      0.00000000	      2.57628642	    -26.79771068	      3.60772368	    144.11228725	      1.52537652	      0.00000000	      0.00000000
      1.60500000	     -5.21237019	     -9.44888346	      2.49633706	     -0.94291805	      0.96637618	      0.22730966	     42.46631363	      6.48689623	    -13.19704644	     31.15698067	      0.54379190	      6.57333689	      0.00000000	      0.00000000	    -27.89017825	    -12.49653018	      8.45919054	     22.02717598	      0.38444675	    -20.91223315	      0.00000000	      0.00000000	    -19.69150122	     15.38579540	    -11.18249733	    -45.23543407	    -37.46138701	    -19.47701533	    112.75655455	     88.02767018	      0.00000000	      0.00000000	      1.31519801	    -26.90607047	      3.61549265	    144.37741093	      1.52110591	      0.00000000	      0.00000000
      1.61000000	     -5.14122819	     -9.36520992	      2.40385965	     -0.91743330	      0.96530601	      0.22721120	     41.68605536	      6.74022615	    -13.13773600	     27.84861055	      0.48604995	      6.35744060	      0.00000000	      0.00000000	    -27.88457659	    -12.09157910	      9.39202922	     24.33179904	      0.42467001	    -19.61210679	      0.00000000	      0.00000000	    -19.63149212	     15.51663056	    -11.05876426	    -44.85271943	    -37.17478689	    -19.47039923	    112.99213831	     88.01477626	      0.00000000	      0.00000000	      0.53643934	    -26.98132609	      4.11330570	    144.25150322	      1.51340132	      0.00000000	      0.00000000
      1.61500000	     -5.03155835	     -9.21134032	      2.23424767	     -0.89196829	      0.96389664	      0.22729678	     40.91485568	      6.96661723	    -13.00275836	     24.96456454	      0.43571385	      6.18954184	      0.00000000	      0.00000000	    -27.82049746	    -11.61399138	      9.87819671	     26.80917256	      0.46790833	    -18.37252576	      0.00000000	      0.00000000	    -19.63077761	     15.51731655	    -11.05428085	    -44.11481286	    -37.12050248	    -19.07434145	    113.11535416	     87.98421943	      0.00000000	      0.00000000	     -0.53494152	    -27.07428054	      4.33204326	    144.15720338	      1.51051443	      0.00000000	      0.00000000
      1.62000000	     -4.88161857	     -8.99466097	      1.98245156	     -0.86656500	      0.96220598	      0.22759148	     40.16421009	      7.17183682	    -12.78813484	     22.54264729	      0.39344342	      6.06455035	      0.00000000	      0.00000000	    -27.71095094	    -11.09597083	      9.90594784	     29.40520212	      0.51321759	    -17.22471376	      0.00000000	      0.00000000	    -19.70124526	     15.41422471	    -10.71710924	    -43.63208438	    -36.77132798	    -19.00639848	    113.37452999	     87.98221311	      0.00000000	      0.00000000	     -1.31526170	    -27.12945996	      4.75717563	    143.79675835	      1.48534403	      0.00000000	      0.00000000
      1.62500000	     -4.70851488	     -8.75010708	      1.67962995	     -0.84118567	      0.96038164	      0.22805181	     39.40258208	      7.37346880	    -12.52623207	     20.48391639	      0.35751178	      5.90367162	      0.00000000	      0.00000000	    -27.54635812	    -10.61156951	      9.50313941	     32.04789600	      0.55934130	    -16.27203949	      0.00000000	      0.00000000	    -19.79940727	     15.22301624	    -10.53446939	    -42.71145506	    -36.69992871	    -18.47395477	    113.34760709	     87.93765098	      0.00000000	      0.00000000	     -2.40332534	    -27.17441841	      5.03189064	    143.42501228	      1.49618215	      0.00000000	      0.00000000
      1.63000000	     -4.50830730	     -8.44701794	      1.33233957	     -0.81588829	      0.95844391	      0.22867948	     38.65558884	      7.53112328	    -12.20798235	     18.86273431	      0.32921682	      5.71167439	      0.00000000	      0.00000000	    -27.32611448	    -10.14758741	      8.74193965	     34.72737677	      0.60610707	    -15.42418924	      0.00000000	      0.00000000	    -19.94139126	     14.93369466	    -10.10303780	    -41.93766924	    -36.38303810	    -18.15119277	    113.36822268	     87.92710365	      0.00000000	      0.00000000	     -3.23066317	    -27.19693844	      5.50721648	    142.77906106	      1.48356790	      0.00000000	      0.00000000
      1.63500000	     -4.29406182	     -8.10360957	      0.96465296	     -0.79064082	      0.95646686	      0.22943626	     37.90668324	      7.64986036	    -11.85306566	     17.61645738	      0.30746518	      5.45613126	      0.00000000	      0.00000000	    -27.04220376	     -9.74497102	      7.68043731	     37.40729894	      0.65288053	    -14.69290652	      0.00000000	      0.00000000	    -20.11842498	     14.56846672	     -9.87339082	    -40.76076598	    -36.25537893	    -17.43246017	    113.23557660	     87.88264523	      0.00000000	      0.00000000	     -4.42497877	    -27.13689791	      5.56485644	    142.16517978	      1.48278037	      0.00000000	      0.00000000
      1.64000000	     -4.05843717	     -7.71458184	      0.59851795	     -0.76545879	      0.95449832	      0.23027473	     37.14659633	      7.70692800	    -11.49122945	     16.73845208	      0.29214110	      5.07696064	      0.00000000	      0.00000000	    -26.70041506	     -9.40663450	      6.40708198	     40.08052494	      0.69953713	    -14.02716598	      0.00000000	      0.00000000	    -20.31148650	     14.12666541	     -9.54814527	    -39.56219313	    -36.00757636	    -16.73083957	    113.00811897	     87.86383340	      0.00000000	      0.00000000	     -5.48266420	    -27.06012868	      5.76353796	    141.31064889	      1.47627627	      0.00000000	      0.00000000
      1.64500000	     -3.80387086	     -7.29215722	      0.24626861	     -0.74034113	      0.95256123	      0.23116983	     36.37046857	      7.70573900	    -11.14624482	     16.20429068	      0.28281823	      4.55126717	      0.00000000	      0.00000000	    -26.30046410	     -9.14646734	      4.98367156	     42.74167369	      0.74598293	    -13.38625601	      0.00000000	      0.00000000	    -20.52070770	     13.62582447	     -9.25652779	    -38.20284048	    -35.75074470	    -15.89911226	    112.65581958	     87.84451977	      0.00000000	      0.00000000	     -6.57772901	    -26.92764670	      5.89028813	    140.32156736	      1.47007247	      0.00000000	      0.00000000
      1.65000000	     -3.52660805	     -6.85227306	     -0.08597222	     -0.71529857	      0.95065744	      0.23210096	     35.57924245	      7.65449440	    -10.85004861	     16.01249576	      0.27947077	      3.87475216	      0.00000000	      0.00000000	    -25.84865495	     -8.97394147	      3.46366985	     45.39608199	      0.79231110	    -12.71669078	      0.00000000	      0.00000000	    -20.73095951	     13.08865968	     -8.73892570	    -37.02502448	    -35.25037717	    -15.33321006	    112.24747878	     87.85907820	      0.00000000	      0.00000000	     -7.30852959	    -26.78329096	      6.33813061	    138.99949078	      1.44343203	      0.00000000	      0.00000000
      1.65500000	     -3.24583741	     -6.41375673	     -0.38092442	     -0.69033854	      0.94877653	      0.23305094	     34.79896969	      7.55828266	    -10.64403652	     16.16053609	      0.28205456	      3.05734002	      0.00000000	      0.00000000	    -25.31679862	     -8.90577184	      1.90778263	     48.06075186	      0.83881836	    -11.99290388	      0.00000000	      0.00000000	    -20.96869312	     12.53913606	     -8.72647923	    -35.11797251	    -35.15323969	    -13.97796372	    111.58808075	     87.84539368	      0.00000000	      0.00000000	     -8.74856904	    -26.51285237	      6.01829395	    137.88724117	      1.45556871	      0.00000000	      0.00000000
      1.66000000	     -2.95120556	     -6.00013447	     -0.65691322	     -0.66549880	      0.94689062	      0.23403599	     34.04178946	      7.44620418	    -10.54549689	     16.68376689	      0.29118666	      2.16774594	      0.00000000	      0.00000000	    -24.72263975	     -8.94449679	      0.33559147	     50.74601332	      0.88568501	    -11.17090376	      0.00000000	      0.00000000	    -21.18402814	     12.00350456	     -8.17778457	    -33.82503293	    -34.55948009	    -13.38198853	    110.98760998	     87.86526122	      0.00000000	      0.00000000	     -9.38094523	    -26.27584121	      6.41187353	    136.24050948	      1.42130808	      0.00000000	      0.00000000
      1.66500000	     -2.66113776	     -5.62349052	     -0.90611726	     -0.64081793	      0.94498045	      0.23504732	     33.34832830	      7.32089129	    -10.58486200	     17.61308225	      0.30740628	      1.32297214	      0.00000000	      0.00000000	    -24.03620171	     -9.09055449	     -1.19841688	     53.46906847	      0.93321129	    -10.23499279	      0.00000000	      0.00000000	    -21.40655245	     11.50555399	     -7.64037299	    -32.44201593	    -33.95638727	    -12.76028377	    110.33416202	     87.88738004	      0.00000000	      0.00000000	    -10.04515767	    -26.01609659	      6.70944465	    134.49531700	      1.39263044	      0.00000000	      0.00000000
      1.67000000	     -2.36821956	     -5.29981359	     -1.15422093	     -0.61632284	      0.94302438	      0.23612657	     32.73901107	      7.20811520	    -10.74769515	     18.99993504	      0.33161142	      0.69255024	      0.00000000	      0.00000000	    -23.27340064	     -9.34019812	     -2.70064275	     56.22813825	      0.98136614	     -9.19364638	      0.00000000	      0.00000000	    -21.65311212	     11.01812236	     -7.81015938	    -29.95167492	    -33.98794117	    -10.82518730	    109.22437741	     87.90899096	      0.00000000	      0.00000000	    -11.63371965	    -25.52701004	      5.95209412	    133.10410923	      1.45187762	      0.00000000	      0.00000000
      1.67500000	     -2.09173026	     -5.02504453	     -1.40880664	     -0.59208631	      0.94095178	      0.23727422	     32.27048851	      7.09798907	    -11.01693596	     20.90459213	      0.36485396	      0.46570414	      0.00000000	      0.00000000	    -22.40030566	     -9.67298330	     -4.13420021	     59.04757269	      1.03057456	     -8.04991468	      0.00000000	      0.00000000	    -21.87918851	     10.57932972	     -7.35412690	    -28.20648435	    -33.51406576	     -9.83866749	    108.30924724	     87.93182468	      0.00000000	      0.00000000	    -12.38196788	    -25.14957452	      5.93918175	    131.22754884	      1.44224306	      0.00000000	      0.00000000
      1.68000000	     -1.82487199	     -4.77581732	     -1.68683137	     -0.56815679	      0.93872660	      0.23849514	     31.96736350	      6.96390539	    -11.34784282	     23.38135688	      0.40808166	      0.83315406	      0.00000000	      0.00000000	    -21.42086356	    -10.04344219	     -5.47993863	     61.92136972	      1.08073178	     -6.83756887	      0.00000000	      0.00000000	    -22.12611484	     10.16289268	     -6.55709366	    -26.86200082	    -32.79542617	     -9.39381539	    107.59379474	     87.73243236	      0.00000000	      0.00000000	    -12.74547120	    -24.81348870	      6.17222905	    129.12653514	      1.52891742	      0.00000000	      0.00000000
      1.68500000	     -1.59376200	     -4.59451372	     -1.99960008	     -0.54455543	      0.93637442	      0.23984253	     31.79172577	      6.87101840	    -11.65558915	     26.24838142	      0.45812068	      1.78027348	      0.00000000	      0.00000000	    -20.30846455	    -10.49529434	     -6.75440545	     64.85056358	      1.13185586	     -5.55144391	      0.00000000	      0.00000000	    -22.32921582	      9.75521085	     -6.10264940	    -24.76859851	    -32.45820987	     -8.07762437	    106.41294262	     88.04681369	      0.00000000	      0.00000000	    -13.48399998	    -24.37705378	      5.94392892	    127.13165297	      1.42736730	      0.00000000	      0.00000000
      1.69000000	     -1.37998630	     -4.43229499	     -2.34903920	     -0.52131289	      0.93388659	      0.24125582	     31.72663512	      6.75877425	    -11.89170503	     29.48620864	      0.51463142	      3.33304678	      0.00000000	      0.00000000	    -19.07517232	    -10.95485857	     -7.91676723	     67.81379160	      1.18357394	     -4.25447279	      0.00000000	      0.00000000	    -22.55482332	      9.36060058	     -5.28272619	    -23.10746069	    -31.88175934	     -7.33262752	    105.47150755	     88.08490904	      0.00000000	      0.00000000	    -13.81751190	    -24.00446613	      5.99665041	    124.93947316	      1.42649584	      0.00000000	      0.00000000
      1.69500000	     -1.18532353	     -4.32106220	     -2.72994113	     -0.49840079	      0.93136324	      0.24270534	     31.67636211	      6.67533584	    -12.00591418	     32.84259193	      0.57321136	      5.31798781	      0.00000000	      0.00000000	    -17.72451761	    -11.44946590	     -8.96916467	     70.78231535	      1.23538446	     -2.96907377	      0.00000000	      0.00000000	    -22.79133686	      8.99920913	     -4.39402457	    -21.39906537	    -31.33052183	     -6.58636410	    104.51552175	     88.11976728	      0.00000000	      0.00000000	    -14.08852263	    -23.57609906	      5.96591027	    122.68556934	      1.43172301	      0.00000000	      0.00000000
      1.70000000	     -1.01237226	     -4.27052934	     -3.12558466	     -0.47576587	      0.92890819	      0.24412320	     31.56151201	      6.63729794	    -11.98408198	     36.11074746	      0.63025144	      7.55439127	      0.00000000	      0.00000000	    -16.25486106	    -11.98307769	     -9.89354153	     73.72251028	      1.28670054	     -1.71303014	      0.00000000	      0.00000000	    -23.03039036	      8.69203327	     -3.35580386	    -19.79605520	    -30.76570709	     -5.97934438	    103.62131158	     88.15965734	      0.00000000	      0.00000000	    -14.17366927	    -23.16516726	      6.06636856	    120.33700011	      1.43854393	      0.00000000	      0.00000000
      1.70500000	     -0.85633756	     -4.29261027	     -3.52674647	     -0.45332624	      0.92663707	      0.24544764	     31.30475305	      6.66803367	    -11.83266720	     39.11791557	      0.68273642	      9.89863635	      0.00000000	      0.00000000	    -14.68216614	    -12.55772125	    -10.68506026	     76.58784534	      1.33671007	     -0.51408919	      0.00000000	      0.00000000	    -23.28028602	      8.45909044	     -2.30188718	    -18.13014722	    -30.26245108	     -5.33944884	    102.72371644	     88.21480535	      0.00000000	      0.00000000	    -14.25822814	    -22.64959615	      6.03537905	    117.95051740	      1.44552993	      0.00000000	      0.00000000
      1.71000000	     -0.72255756	     -4.37832409	     -3.91725527	     -0.43098334	      0.92462592	      0.24662927	     30.86504138	      6.76437997	    -11.57415893	     41.75757315	      0.72880714	     12.24494573	      0.00000000	      0.00000000	    -13.00685073	    -13.15986591	    -11.33251391	     79.33773782	      1.38470475	      0.60830502	      0.00000000	      0.00000000	    -23.51689275	      8.30035236	     -1.12171822	    -16.61049874	    -29.76879096	     -4.85886041	    101.91105284	     88.14914324	      0.00000000	      0.00000000	    -14.17478650	    -22.10892792	      6.12268423	    115.45746387	      1.47700051	      0.00000000	      0.00000000
      1.71500000	     -0.62375067	     -4.51810254	     -4.28329024	     -0.40862697	      0.92291873	      0.24762225	     30.22804513	      6.91711156	    -11.24922984	     43.97092683	      0.76743745	     14.52273955	      0.00000000	      0.00000000	    -11.22268020	    -13.77559050	    -11.82997201	     81.93825344	      1.43009231	      1.66701447	      0.00000000	      0.00000000	    -23.72220693	      8.22047246	      0.05958598	    -15.14049908	    -29.32649680	     -4.41510464	    101.17532110	     88.09605510	      0.00000000	      0.00000000	    -14.10900645	    -21.47547349	      6.12172768	    112.96698516	      1.51720679	      0.00000000	      0.00000000
      1.72000000	     -0.53838073	     -4.67546382	     -4.61415057	     -0.38617373	      0.92157340	      0.24842471	     29.36831604	      7.09216726	    -10.87536988	     45.75267695	      0.79853485	     16.70610962	      0.00000000	      0.00000000	     -9.36012472	    -14.35821107	    -12.17378282	     84.34459427	      1.47209088	      2.63008174	      0.00000000	      0.00000000	    -23.89750150	      8.17302636	      1.14718644	    -13.63180609	    -28.98488230	     -3.85018577	    100.47281297	     88.25673236	      0.00000000	      0.00000000	    -14.11356795	    -20.84556057	      6.07032917	    110.56068698	      1.48843573	      0.00000000	      0.00000000
      1.72500000	     -0.49998775	     -4.84837762	     -4.89211747	     -0.36354875	      0.92057968	      0.24904560	     28.32115607	      7.28816095	    -10.49172862	     47.09620917	      0.82198392	     18.75651917	      0.00000000	      0.00000000	     -7.38381400	    -14.91048492	    -12.35645909	     86.54399077	      1.51047759	      3.51327342	      0.00000000	      0.00000000	    -24.01135303	      8.17645428	      2.10005757	    -12.14052063	    -28.68178878	     -3.22711891	     99.88025312	     88.35214632	      0.00000000	      0.00000000	    -14.29797243	    -20.07430442	      5.71975532	    108.29298526	      1.48104265	      0.00000000	      0.00000000
      1.73000000	     -0.48892389	     -5.01716347	     -5.11691626	     -0.34073609	      0.91995058	      0.24953251	     27.08626020	      7.49454114	    -10.09082599	     48.03268219	      0.83832845	     20.66808398	      0.00000000	      0.00000000	     -5.32074888	    -15.40752019	    -12.39063780	     88.51670974	      1.54490803	      4.30026246	      0.00000000	      0.00000000	    -24.06014701	      8.19849817	      3.11046107	    -10.91894519	    -28.35878721	     -2.80266287	     99.49038151	     88.36637281	      0.00000000	      0.00000000	    -14.39842266	    -19.38444821	      5.54053888	    106.08345355	      1.49154960	      0.00000000	      0.00000000
      1.73500000	     -0.49268102	     -5.16959111	     -5.30159724	     -0.31776266	      0.91967273	      0.24996002	     25.68319433	      7.71072077	     -9.65224884	     48.61219565	      0.84844287	     22.40303439	      0.00000000	      0.00000000	     -3.19550738	    -15.83380589	    -12.30167555	     90.25382689	      1.57522644	      4.99842252	      0.00000000	      0.00000000	    -24.06829042	      8.21345806	      4.00126447	     -9.72045927	    -28.08098546	     -2.32842410	     99.24017893	     88.40796502	      0.00000000	      0.00000000	    -14.63849405	    -18.70565376	      5.20485721	    104.12672604	      1.48868271	      0.00000000	      0.00000000
      1.74000000	     -0.50043134	     -5.28735701	     -5.47520774	     -0.29468606	      0.91973368	      0.25044145	     24.13752967	      7.93709530	     -9.12637260	     48.89093936	      0.85330787	     23.96506551	      0.00000000	      0.00000000	     -1.03509887	    -16.17005970	    -12.13283845	     91.74462938	      1.60124585	      5.59714218	      0.00000000	      0.00000000	    -24.04424984	      8.18101614	      4.90780437	     -8.71589892	    -27.78583397	     -1.94198976	     99.20130599	     88.41193010	      0.00000000	      0.00000000	    -14.92420057	    -18.13790829	      4.92892455	    102.42544515	      1.50030852	      0.00000000	      0.00000000
      1.74500000	     -0.49185083	     -5.35793251	     -5.67285273	     -0.27157855	      0.92012768	      0.25106175	     22.46272687	      8.16906251	     -8.46676597	     48.92411471	      0.85388689	     25.32160148	      0.00000000	      0.00000000	      1.11534663	    -16.40605642	    -11.94014728	     92.98349618	      1.62286816	      6.11865971	      0.00000000	      0.00000000	    -24.02743475	      8.06604736	      5.86086333	     -7.89227870	    -27.46431976	     -1.67673367	     99.42819530	     88.27823156	      0.00000000	      0.00000000	    -15.27256683	    -17.68218362	      4.65505089	    101.03319864	      1.60267449	      0.00000000	      0.00000000
      1.75000000	     -0.45693244	     -5.36873899	     -5.86384008	     -0.24848308	      0.92085347	      0.25178546	     20.68231765	      8.36499498	     -7.70420824	     48.77105746	      0.85121553	     26.47285018	      0.00000000	      0.00000000	      3.25512975	    -16.52554055	    -11.70383812	     93.96959922	      1.64007890	      6.50342566	      0.00000000	      0.00000000	    -24.02264785	      7.85844595	      6.56355939	     -6.86415982	    -27.19626319	     -1.11139944	     99.69200679	     88.44029330	      0.00000000	      0.00000000	    -15.94932667	    -17.26962588	      4.08093525	    100.21058569	      1.50359383	      0.00000000	      0.00000000
      1.75500000	     -0.41299160	     -5.30576165	     -6.00847440	     -0.22536836	      0.92189023	      0.25249876	     18.83106595	      8.46854337	     -6.90831647	     48.46065080	      0.84579791	     27.38078401	      0.00000000	      0.00000000	      5.40898024	    -16.49924413	    -11.39487280	     94.70716054	      1.65295178	      6.81251017	      0.00000000	      0.00000000	    -23.99679936	      7.57487435	      7.44484290	     -6.26132813	    -26.87261729	     -0.93013025	    100.31732882	     88.28281459	      0.00000000	      0.00000000	    -16.46494182	    -17.07657051	      3.86359043	     99.56620055	      1.65003373	      0.00000000	      0.00000000
      1.76000000	     -0.33548765	     -5.15402335	     -6.07385544	     -0.20219767	      0.92324836	      0.25309674	     16.90263325	      8.42872700	     -6.13713157	     48.03128182	      0.83830401	     28.03887820	      0.00000000	      0.00000000	      7.54332366	    -16.29304275	    -11.00813898	     95.18673442	      1.66132192	      7.04097835	      0.00000000	      0.00000000	    -23.98573368	      7.19617201	      8.16331395	     -5.65699059	    -26.52375156	     -0.75238529	    101.02285786	     88.42842782	      0.00000000	      0.00000000	    -17.20272563	    -16.94600847	      3.49974655	     99.45233185	      1.53391431	      0.00000000	      0.00000000
      1.76500000	     -0.26990851	     -4.91029931	     -6.00751723	     -0.17896154	      0.92488435	      0.25346453	     14.95660843	      8.21813708	     -5.48183631	     47.48908685	      0.82884092	     28.42628379	      0.00000000	      0.00000000	      9.72367344	    -15.88382918	    -10.49420606	     95.41996359	      1.66539254	      7.19114170	      0.00000000	      0.00000000	    -23.90504740	      6.76743291	      8.67183252	     -5.02127722	    -26.23573551	     -0.39897466	    101.77932551	     88.45149938	      0.00000000	      0.00000000	    -18.05760746	    -16.93711449	      3.16581082	     99.63192821	      1.51189257	      0.00000000	      0.00000000
      1.77000000	     -0.19457543	     -4.57053735	     -5.82109132	     -0.15564212	      0.92680627	      0.25359416	     12.97901514	      7.83308246	     -4.95549243	     46.84668410	      0.81762888	     28.52540730	      0.00000000	      0.00000000	     11.89235619	    -15.25753240	     -9.89307355	     95.39473843	      1.66495227	      7.26557623	      0.00000000	      0.00000000	    -23.81246447	      6.27171672	      9.21196776	     -4.68802019	    -25.90452686	     -0.37579751	    102.78362957	     88.39297447	      0.00000000	      0.00000000	    -18.85024999	    -17.05962168	      3.02093039	    100.05776878	      1.57828318	      0.00000000	      0.00000000
      1.77500000	     -0.14082367	     -4.14275979	     -5.51495487	     -0.13224301	      0.92895370	      0.25348152	     11.01231386	      7.29060083	     -4.58779225	     46.11401329	      0.80484136	     28.31812417	      0.00000000	      0.00000000	     14.06589189	    -14.42307147	     -9.21932885	     95.11995293	      1.66015636	      7.27976613	      0.00000000	      0.00000000	    -23.65725977	      5.72802688	      9.64327892	     -4.41800789	    -25.61964763	     -0.34395630	    103.85271800	     88.42136414	      0.00000000	      0.00000000	    -19.66878077	    -17.28981854	      2.96037329	    100.70419873	      1.56465019	      0.00000000	      0.00000000
      1.78000000	     -0.09527380	     -3.63712051	     -5.10581700	     -0.10875638	      0.93131503	      0.25316048	      9.04259746	      6.61461975	     -4.38124413	     45.29116562	      0.79047996	     27.79877700	      0.00000000	      0.00000000	     16.19454183	    -13.39378818	     -8.50291658	     94.59373411	      1.65097211	      7.24223726	      0.00000000	      0.00000000	    -23.47430962	      5.13408983	      9.96870368	     -4.21116578	    -25.34078068	     -0.34857971	    104.99380606	     88.41690523	      0.00000000	      0.00000000	    -20.53998250	    -17.57825348	      2.89812877	    101.56688907	      1.56909973	      0.00000000	      0.00000000
      1.78500000	     -0.07767550	     -3.07269132	     -4.61327224	     -0.08518528	      0.93382959	      0.25267634	      7.09410658	      5.84480168	     -4.33191758	     44.38241326	      0.77461924	     26.95522025	      0.00000000	      0.00000000	     18.27413223	    -12.20507719	     -7.76805849	     93.82760033	      1.63760055	      7.17620339	      0.00000000	      0.00000000	    -23.25127640	      4.50707150	     10.21831889	     -4.06705716	    -25.09108677	     -0.35754367	    106.19043300	     88.40460763	      0.00000000	      0.00000000	    -21.43015510	    -17.93941193	      2.88329317	    102.57010447	      1.58824845	      0.00000000	      0.00000000
      1.79000000	     -0.08851218	     -2.45885390	     -4.05627788	     -0.06150317	      0.93646469	      0.25207757	      5.16473080	      5.00525098	     -4.43968575	     43.38924209	      0.75728513	     25.80119118	      0.00000000	      0.00000000	     20.27845057	    -10.87919447	     -7.03702376	     92.82503949	      1.62010257	      7.08137985	      0.00000000	      0.00000000	    -22.98957583	      3.84514548	     10.40912848	     -3.98790624	    -24.86850319	     -0.39286190	    107.41795853	     88.38544499	      0.00000000	      0.00000000	    -22.35338768	    -18.31967591	      2.82793001	    103.72252886	      1.58013328	      0.00000000	      0.00000000
      1.79500000	     -0.14554070	     -1.82517402	     -3.46137491	     -0.03769637	      0.93915987	      0.25143181	      3.27060991	      4.14872048	     -4.67200803	     42.30641835	      0.73838629	     24.32434421	      0.00000000	      0.00000000	     22.20622115	     -9.47545794	     -6.32929071	     91.60384492	      1.59878870	      7.00674640	      0.00000000	      0.00000000	    -22.67378294	      3.17640200	     10.55508404	     -3.95040915	    -24.66646691	     -0.40921761	    108.68424099	     88.36487394	      0.00000000	      0.00000000	    -23.29000080	    -18.75942933	      2.80992394	    104.91934281	      1.58512595	      0.00000000	      0.00000000
      1.80000000	     -0.25882271	     -1.17867125	     -2.84936248	     -0.01374405	      0.94187910	      0.25078689	      1.42583332	      3.29308330	     -5.01273810	     41.14004508	      0.71802924	     22.54897530	      0.00000000	      0.00000000	     24.05436191	     -8.01792889	     -5.65929945	     90.16754898	      1.57372061	      6.94264970	      0.00000000	      0.00000000	    -22.29324700	      2.49677588	     10.68631342	     -3.96881751	    -24.48142916	     -0.41903087	    109.94556582	     88.34237849	      0.00000000	      0.00000000	    -24.23332915	    -19.21952963	      2.77763154	    106.12312291	      1.59074357	      0.00000000	      0.00000000
      1.80500000	     -0.42783632	     -0.52135142	     -2.28574241	      0.01037954	      0.94459378	      0.25024122	     -0.36173978	      2.45011638	     -5.38230670	     39.90155196	      0.69641346	     20.45379485	      0.00000000	      0.00000000	     25.79794397	     -6.55431874	     -5.09025836	     88.51988926	      1.54496352	      6.91851515	      0.00000000	      0.00000000	    -21.87000340	      1.76699124	     10.85978591	     -4.07904058	    -24.32854871	     -0.43369604	    111.23284815	     88.31384556	      0.00000000	      0.00000000	    -25.25509687	    -19.66694767	      2.66442874	    107.47290925	      1.56533893	      0.00000000	      0.00000000
      1.81000000	     -0.66348004	      0.13260281	     -1.72417397	      0.03468751	      0.94728027	      0.24974609	     -2.08920347	      1.63245703	     -5.83607829	     38.57171044	      0.67320335	     18.07215656	      0.00000000	      0.00000000	     27.46635492	     -5.08380236	     -4.55514230	     86.67080729	      1.51269095	      6.91031660	      0.00000000	      0.00000000	    -21.36081536	      1.04722797	     11.01049632	     -4.21111016	    -24.15999015	     -0.39741122	    112.47876772	     88.29168784	      0.00000000	      0.00000000	    -26.25748923	    -20.14706787	      2.56355063	    108.67463027	      1.56271055	      0.00000000	      0.00000000
      1.81500000	     -0.95186978	      0.81013287	     -1.25950538	      0.05918234	      0.94993373	      0.24942805	     -3.74453643	      0.81101280	     -6.25542155	     37.18968782	      0.64908250	     15.41063074	      0.00000000	      0.00000000	     29.01864046	     -3.64166068	     -4.16010872	     84.61217507	      1.47676104	      6.93565748	      0.00000000	      0.00000000	    -20.81236211	      0.22852952	     11.22202519	     -4.43796506	    -24.01882579	     -0.36517609	    113.72470228	     88.25726635	      0.00000000	      0.00000000	    -27.35833252	    -20.55494777	      2.29633932	    110.02394920	      1.50198547	      0.00000000	      0.00000000
      1.82000000	     -1.28633586	      1.49291727	     -0.82751966	      0.08385305	      0.95255598	      0.24918741	     -5.34990083	     -0.00275370	     -6.72181516	     35.72408075	      0.62350283	     12.46306026	      0.00000000	      0.00000000	     30.47371399	     -2.21403106	     -3.81395057	     82.35354893	      1.43734058	      6.97044039	      0.00000000	      0.00000000	    -20.20597968	     -0.60753522	     11.27914482	     -4.49754119	    -23.88175231	     -0.05034771	    114.82138293	     88.21558411	      0.00000000	      0.00000000	    -28.60591148	    -20.87175114	      1.81953778	    111.29868743	      1.41696451	      0.00000000	      0.00000000
      1.82500000	     -1.64651383	      2.19308358	     -0.46102295	      0.10868191	      0.95516351	      0.24905979	     -6.91598763	     -0.82681769	     -7.19302417	     34.18654390	      0.59666775	      9.24370467	      0.00000000	      0.00000000	     31.80502514	     -0.81157531	     -3.54319034	     79.88928882	      1.39433113	      7.00587571	      0.00000000	      0.00000000	    -19.57260966	     -1.48978759	     11.55010359	     -4.80725431	    -23.73183101	      0.04450773	    115.97937679	     88.20075057	      0.00000000	      0.00000000	    -29.64906022	    -21.33134715	      1.59391898	    112.43350677	      1.45508811	      0.00000000	      0.00000000
      1.83000000	     -2.04971543	      2.91732624	     -0.15993948	      0.13361732	      0.95769543	      0.24904030	     -8.40288077	     -1.67542814	     -7.66298136	     32.61907256	      0.56931022	      5.79576588	      0.00000000	      0.00000000	     33.04540582	      0.56881188	     -3.33434959	     77.22789001	      1.34788096	      7.02447129	      0.00000000	      0.00000000	    -18.90418892	     -2.44487236	     11.71326032	     -5.02532819	    -23.58171984	      0.32732989	    117.01787225	     88.16410427	      0.00000000	      0.00000000	    -30.86157243	    -21.61883734	      1.05051595	    113.60567065	      1.39854343	      0.00000000	      0.00000000
      1.83500000	     -2.47112494	      3.65129018	      0.07321682	      0.15862199	      0.96016935	      0.24913582	     -9.83373778	     -2.53655766	     -8.11890066	     31.02133064	      0.54142436	      2.14572856	      0.00000000	      0.00000000	     34.17487835	      1.90320054	     -3.17521131	     74.37474420	      1.29808417	      7.02305149	      0.00000000	      0.00000000	    -18.22146800	     -3.43742801	     12.00050639	     -5.36675552	    -23.42467938	      0.52061657	    118.05881871	     88.14494318	      0.00000000	      0.00000000	    -31.95858402	    -21.97846350	      0.63719248	    114.68923439	      1.40000674	      0.00000000	      0.00000000
      1.84000000	     -2.89373851	      4.38210584	      0.23595050	      0.18363717	      0.96258134	      0.24935118	    -11.21255774	     -3.39977486	     -8.53887095	     29.41735455	      0.51342969	     -1.68487666	      0.00000000	      0.00000000	     35.18555757	      3.17479261	     -3.04603374	     71.33799182	      1.24508284	      6.99239749	      0.00000000	      0.00000000	    -17.54202151	     -4.45376940	     12.34305121	     -5.73458690	    -23.29430269	      0.74335371	    119.02253182	     88.13928075	      0.00000000	      0.00000000	    -32.98573916	    -22.34538812	      0.25079522	    115.70357539	      1.42943283	      0.00000000	      0.00000000
      1.84500000	     -3.33754467	      5.09019601	      0.33289431	      0.20862153	      0.96487486	      0.24969540	    -12.49867039	     -4.24859848	     -8.90577178	     27.84974421	      0.48606973	     -5.59682232	      0.00000000	      0.00000000	     36.11081941	      4.35872272	     -2.92776791	     68.13415012	      1.18916525	      6.91955191	      0.00000000	      0.00000000	    -16.84733937	     -5.48672975	     12.44478272	     -5.80695643	    -23.20996299	      1.37143567	    119.75540670	     88.11216529	      0.00000000	      0.00000000	    -34.31540088	    -22.39330879	     -0.62961716	    116.81498171	      1.38648564	      0.00000000	      0.00000000
      1.85000000	     -3.77109555	      5.73960121	      0.35457697	      0.23354190	      0.96708735	      0.25019298	    -13.72116089	     -5.04304701	     -9.16958743	     26.31547679	      0.45929171	     -9.56755247	      0.00000000	      0.00000000	     36.92140556	      5.40829069	     -2.80535230	     64.77683044	      1.13056897	      6.80746080	      0.00000000	      0.00000000	    -16.17185751	     -6.47282941	     12.89956704	     -6.22283769	    -23.10759427	      1.60619873	    120.59638729	     88.10834880	      0.00000000	      0.00000000	    -35.26460372	    -22.67275600	     -1.07609476	    117.75681418	      1.41328388	      0.00000000	      0.00000000
      1.85500000	     -4.20057713	      6.30544689	      0.30059236	      0.25838019	      0.96918558	      0.25085763	    -14.85522904	     -5.76199740	     -9.30106689	     24.85455538	      0.43379383	    -13.51465557	      0.00000000	      0.00000000	     37.63177127	      6.29078941	     -2.67107974	     61.28892489	      1.06969353	      6.65296644	      0.00000000	      0.00000000	    -15.49499728	     -7.39985448	     13.13240756	     -6.31511106	    -23.08360098	      2.25345030	    121.17891385	     88.09071899	      0.00000000	      0.00000000	    -36.47208849	    -22.62684058	     -1.95011619	    118.76582299	      1.37426096	      0.00000000	      0.00000000
      1.86000000	     -4.59578874	      6.75494775	      0.16416861	      0.28313909	      0.97120626	      0.25170605	    -15.93317401	     -6.36865230	     -9.25196257	     23.45978028	      0.40945041	    -17.38368241	      0.00000000	      0.00000000	     38.21059425	      6.96815355	     -2.51487440	     57.69137207	      1.00690439	      6.46659827	      0.00000000	      0.00000000	    -14.85429787	     -8.21606182	     13.58308595	     -6.56983499	    -23.07296126	      2.70927742	    121.75783208	     88.08701912	      0.00000000	      0.00000000	    -37.44949615	    -22.64047183	     -2.63292302	    119.66985076	      1.37886779	      0.00000000	      0.00000000
      1.86500000	     -4.94902686	      7.06517341	     -0.05191378	      0.30783733	      0.97313924	      0.25273864	    -16.96218102	     -6.83910200	     -8.99275614	     22.14372397	      0.38648089	    -21.07381464	      0.00000000	      0.00000000	     38.65469534	      7.41531861	     -2.33840424	     54.01570079	      0.94275183	      6.25681405	      0.00000000	      0.00000000	    -14.24894021	     -8.89346065	     14.13015933	     -6.84823758	    -23.09669458	      3.14198696	    122.25853185	     88.09029848	      0.00000000	      0.00000000	    -38.33323450	    -22.60532066	     -3.29012101	    120.51722404	      1.37180736	      0.00000000	      0.00000000
      1.87000000	     -5.25169762	      7.22334831	     -0.34955322	      0.33249492	      0.97497882	      0.25395884	    -17.95461910	     -7.15837822	     -8.48233820	     20.91309188	      0.36500231	    -24.46334053	      0.00000000	      0.00000000	     38.96006162	      7.61864403	     -2.15190839	     50.29561044	      0.87782400	      6.04330975	      0.00000000	      0.00000000	    -13.68526125	     -9.41503302	     14.81381529	     -7.21122322	    -23.15379303	      3.49010257	    122.70415857	     88.09973670	      0.00000000	      0.00000000	    -39.08015263	    -22.56065507	     -3.85410032	    121.29538372	      1.38768084	      0.00000000	      0.00000000
      1.87500000	     -5.47904071	      7.22241009	     -0.72144078	      0.35712805	      0.97671946	      0.25534433	    -18.94416179	     -7.31874891	     -7.70932368	     19.77962071	      0.34521951	    -27.43913053	      0.00000000	      0.00000000	     39.11002617	      7.57733187	     -1.96741955	     46.57495669	      0.81288634	      5.85607966	      0.00000000	      0.00000000	    -13.17864869	     -9.76700259	     15.37942772	     -7.31151951	    -23.30852068	      4.14406764	    122.90454189	     88.10693345	      0.00000000	      0.00000000	    -39.91783351	    -22.29027888	     -4.60061627	    122.05326498	      1.37572989	      0.00000000	      0.00000000
      1.88000000	     -5.63647366	      7.06772021	     -1.16419968	      0.38175249	      0.97831925	      0.25686370	    -19.92404956	     -7.33001143	     -6.65866180	     18.77818880	      0.32774122	    -29.86119684	      0.00000000	      0.00000000	     39.12317417	      7.30212632	     -1.80884442	     42.89968902	      0.74874082	      5.72232538	      0.00000000	      0.00000000	    -12.73885086	     -9.94165020	     16.23591189	     -7.68698300	    -23.46280721	      4.46413856	    123.15800194	     88.11963287	      0.00000000	      0.00000000	    -40.42432189	    -22.19204455	     -5.02488088	    122.68545935	      1.40870391	      0.00000000	      0.00000000
      1.88500000	     -5.72412109	      6.77891080	     -1.65891387	      0.40637574	      0.97973513	      0.25847670	    -20.89604779	     -7.21135105	     -5.34447768	     17.94909476	      0.31327080	    -31.60524033	      0.00000000	      0.00000000	     39.01285143	      6.82653977	     -1.69474848	     39.31162086	      0.68611722	      5.67160417	      0.00000000	      0.00000000	    -12.37354828	     -9.96753100	     17.10079492	     -8.03503109	    -23.66354212	      4.81427405	    123.31627681	     88.13488407	      0.00000000	      0.00000000	    -40.89868866	    -22.00315566	     -5.48890572	    123.31806725	      1.42027189	      0.00000000	      0.00000000
      1.89000000	     -5.75357174	      6.38048264	     -2.18727568	      0.43099360	      0.98090915	      0.26011453	    -21.83768148	     -6.99202471	     -3.81562293	     17.34981463	      0.30281139	    -32.60327449	      0.00000000	      0.00000000	     38.80866472	      6.19042010	     -1.64871069	     35.85923255	      0.62586168	      5.72170070	      0.00000000	      0.00000000	    -12.06993021	     -9.87302987	     17.78504381	     -8.15166635	    -23.93726055	      5.41866776	    123.28968537	     88.15280318	      0.00000000	      0.00000000	    -41.52320585	    -21.56193514	     -6.19998512	    124.02057762	      1.37535648	      0.00000000	      0.00000000
