CEINMS output
datacolumns 7
datarows 708
endheader
time	addbrev_r	addlong_r	addmagDist_r	addmagIsch_r	addmagMid_r	addmagProx_r	bflh_r	bfsh_r	edl_r	ehl_r	fdl_r	fhl_r	gaslat_r	gasmed_r	glmax1_r	glmax2_r	glmax3_r	glmed1_r	glmed2_r	glmed3_r	glmin1_r	glmin2_r	glmin3_r	grac_r	iliacus_r	perbrev_r	perlong_r	piri_r	psoas_r	recfem_r	sart_r	semimem_r	semiten_r	soleus_r	tfl_r	tibant_r	tibpost_r	vasint_r	vaslat_r	vasmed_r	addbrev_l	addlong_l	addmagDist_l	addmagIsch_l	addmagMid_l	addmagProx_l	bflh_l	bfsh_l	edl_l	ehl_l	fdl_l	fhl_l	gaslat_l	gasmed_l	glmax1_l	glmax2_l	glmax3_l	glmed1_l	glmed2_l	glmed3_l	glmin1_l	glmin2_l	glmin3_l	grac_l	iliacus_l	perbrev_l	perlong_l	piri_l	psoas_l	recfem_l	sart_l	semimem_l	semiten_l	soleus_l	tfl_l	tibant_l	tibpost_l	vasint_l	vaslat_l	vasmed_l	
0.015	6.75389	4.44062	0.00639411	10	1	3000	
0.015	6.40307	0.589944	0.00242618	10	1	3000	
0.015	40.8278	3.56429	0.0127002	10	1	3000	
0.015	31.0566	3.61741	0.00897917	10	1	3000	
0.02	10.652	0.84544	0.00262747	10	1	3000	
0.025	12.5187	1.21435	0.00294597	10	1	3000	
0.03	13.5723	0.79641	0.00297409	10	1	3000	
0.035	14.1143	0.959406	0.00322474	10	1	3000	
0.04	14.3193	0.853022	0.00326504	10	1	3000	
0.045	14.144	0.865567	0.00321182	10	1	3000	
0.05	13.6634	0.823192	0.00313025	10	1	3000	
0.055	13.0114	0.797218	0.00305116	10	1	3000	
0.06	12.3083	0.759634	0.00296017	10	1	3000	
0.065	11.6063	0.753179	0.00293075	10	1	3000	
0.07	10.9912	0.697071	0.00278993	10	1	3000	
0.075	10.4275	0.685838	0.00271066	10	1	3000	
0.08	9.88191	0.634508	0.00262761	10	1	3000	
0.085	9.326	0.616851	0.00253744	10	1	3000	
0.09	8.76524	0.587522	0.00243818	10	1	3000	
0.095	8.25159	0.562429	0.00234105	10	1	3000	
0.1	7.82672	0.53644	0.00226097	10	1	3000	
0.105	7.51975	0.513488	0.00220519	10	1	3000	
0.11	7.29811	0.503753	0.00216566	10	1	3000	
0.115	7.14141	0.47307	0.00215316	10	1	3000	
0.12	7.04644	0.457157	0.00215492	10	1	3000	
0.125	6.99507	0.442447	0.00217057	10	1	3000	
0.13	6.9963	0.42718	0.00220506	10	1	3000	
0.135	7.04656	0.412806	0.00224961	10	1	3000	
0.14	7.12351	0.400106	0.00230189	10	1	3000	
0.145	7.16765	0.38686	0.00234168	10	1	3000	
0.15	7.14139	0.372202	0.00235826	10	1	3000	
0.155	7.09295	0.356176	0.00236115	10	1	3000	
0.16	7.03751	0.34073	0.00235351	10	1	3000	
0.165	6.99952	0.326169	0.00234392	10	1	3000	
0.17	6.99456	0.317311	0.00233778	10	1	3000	
0.175	6.98182	0.308636	0.00232011	10	1	3000	
0.18	6.89906	0.303323	0.00227546	10	1	3000	
0.185	6.72669	0.299123	0.00219866	10	1	3000	
0.19	6.49463	0.296805	0.00202847	10	1	3000	
0.195	6.25356	0.296762	0.00174236	10	1	3000	
0.2	6.0233	0.295426	0.0014402	10	1	3000	
0.205	5.80423	0.29993	0.00117162	10	1	3000	
0.21	5.59516	0.306422	0.000957349	10	1	3000	
0.215	5.39798	0.316019	0.000801828	10	1	3000	
0.22	5.22799	0.308603	0.000690397	10	1	3000	
0.225	5.08634	0.328711	0.000629236	10	1	3000	
0.23	4.98084	0.337583	0.000622361	10	1	3000	
0.235	4.90547	0.347675	0.000656208	10	1	3000	
0.24	4.84293	0.35754	0.000699312	10	1	3000	
0.245	4.79108	0.362603	0.000715457	10	1	3000	
0.25	4.76848	0.365957	0.00070015	10	1	3000	
0.255	4.79451	0.361713	0.000671926	10	1	3000	
0.26	4.87781	0.357505	0.000648554	10	1	3000	
0.265	4.99918	0.349243	0.000643666	10	1	3000	
0.27	5.15594	0.340674	0.000672502	10	1	3000	
0.275	5.32092	0.332698	0.000732533	10	1	3000	
0.28	5.48548	0.327343	0.000805958	10	1	3000	
0.285	5.6459	0.318997	0.00087917	10	1	3000	
0.29	5.80444	0.309083	0.000949004	10	1	3000	
0.295	5.94925	0.319317	0.00101313	10	1	3000	
0.3	6.06378	0.325244	0.0010549	10	1	3000	
0.305	6.18951	0.321707	0.00116489	10	1	3000	
0.31	6.25833	0.320479	0.00115551	10	1	3000	
0.315	6.36589	0.325699	0.00125966	10	1	3000	
0.32	6.50242	0.326015	0.00133182	10	1	3000	
0.325	6.62162	0.334497	0.0013344	10	1	3000	
0.33	6.73591	0.343526	0.00137524	10	1	3000	
0.335	6.83942	0.357695	0.00142837	10	1	3000	
0.34	6.91275	0.372868	0.0014758	10	1	3000	
0.345	6.95917	0.388857	0.00152808	10	1	3000	
0.35	7.01162	0.40616	0.00160255	10	1	3000	
0.355	7.06946	0.423167	0.00170525	10	1	3000	
0.36	7.11402	0.437094	0.00181572	10	1	3000	
0.365	7.17335	0.444939	0.00191967	10	1	3000	
0.37	7.24823	0.452484	0.00197097	10	1	3000	
0.375	7.31959	0.450946	0.00201184	10	1	3000	
0.38	7.41845	0.445952	0.00202693	10	1	3000	
0.385	7.59772	0.43744	0.00205797	10	1	3000	
0.39	7.82798	0.429802	0.0020999	10	1	3000	
0.395	8.07049	0.426836	0.0021533	10	1	3000	
0.4	8.33151	0.419458	0.00221056	10	1	3000	
0.405	8.60615	0.415844	0.00226642	10	1	3000	
0.41	8.89225	0.416446	0.00232573	10	1	3000	
0.415	9.16735	0.414582	0.00238218	10	1	3000	
0.42	9.4134	0.413664	0.00243313	10	1	3000	
0.425	9.64098	0.412634	0.00247936	10	1	3000	
0.43	9.84242	0.410732	0.00251958	10	1	3000	
0.435	10.0685	0.402619	0.00256263	10	1	3000	
0.44	10.309	0.417697	0.0026151	10	1	3000	
0.445	10.5228	0.412982	0.00265009	10	1	3000	
0.45	10.7048	0.40931	0.00268397	10	1	3000	
0.455	10.8231	0.423088	0.00269525	10	1	3000	
0.46	10.8664	0.420943	0.00269375	10	1	3000	
0.465	10.8377	0.424825	0.00267541	10	1	3000	
0.47	10.7585	0.425145	0.00264837	10	1	3000	
0.475	10.6975	0.427427	0.00262515	10	1	3000	
0.48	10.6717	0.43063	0.00261148	10	1	3000	
0.485	10.6742	0.433612	0.00260109	10	1	3000	
0.49	10.7028	0.436522	0.00260162	10	1	3000	
0.495	10.7457	0.440352	0.00260898	10	1	3000	
0.5	10.81	0.442983	0.00262666	10	1	3000	
0.505	10.8902	0.447816	0.00264941	10	1	3000	
0.51	10.9888	0.455807	0.00267884	10	1	3000	
0.515	11.103	0.461986	0.00271497	10	1	3000	
0.52	11.2471	0.471846	0.00276039	10	1	3000	
0.525	11.3895	0.479161	0.00280477	10	1	3000	
0.53	11.5557	0.483253	0.00286074	10	1	3000	
0.535	11.721	0.487633	0.00292159	10	1	3000	
0.54	11.8936	0.499106	0.00299133	10	1	3000	
0.545	12.0273	0.49945	0.00305714	10	1	3000	
0.55	12.1662	0.497318	0.00313565	10	1	3000	
0.555	12.3198	0.500018	0.00321275	10	1	3000	
0.56	12.4351	0.497243	0.0032814	10	1	3000	
0.565	12.5295	0.494681	0.00334092	10	1	3000	
0.57	12.5417	0.489303	0.00339197	10	1	3000	
0.575	12.6524	0.488943	0.00344833	10	1	3000	
0.58	12.7335	0.47996	0.00350032	10	1	3000	
0.585	12.7829	0.477424	0.00355252	10	1	3000	
0.59	12.7947	0.471116	0.00358663	10	1	3000	
0.595	12.7726	0.468738	0.0036203	10	1	3000	
0.6	12.7445	0.469804	0.00363905	10	1	3000	
0.605	12.7223	0.467356	0.00366241	10	1	3000	
0.61	12.678	0.465696	0.00367423	10	1	3000	
0.615	12.6143	0.463817	0.00367838	10	1	3000	
0.62	12.5283	0.446911	0.00366851	10	1	3000	
0.625	12.3998	0.444288	0.00365004	10	1	3000	
0.63	12.2045	0.430013	0.00361382	10	1	3000	
0.635	11.9611	0.425818	0.00356126	10	1	3000	
0.64	11.6753	0.410184	0.00349733	10	1	3000	
0.645	11.3683	0.396699	0.00342773	10	1	3000	
0.65	11.039	0.384891	0.00335311	10	1	3000	
0.655	10.7075	0.375641	0.00327884	10	1	3000	
0.66	10.3981	0.365528	0.00320889	10	1	3000	
0.665	10.1108	0.353655	0.00314281	10	1	3000	
0.67	9.82703	0.350157	0.00307808	10	1	3000	
0.675	9.54378	0.328426	0.00301683	10	1	3000	
0.68	9.26019	0.311053	0.00295415	10	1	3000	
0.685	8.96995	0.292546	0.00288911	10	1	3000	
0.69	8.68164	0.274281	0.00282323	10	1	3000	
0.695	8.42063	0.257094	0.00276246	10	1	3000	
0.7	8.21897	0.239192	0.0027064	10	1	3000	
0.705	8.10871	0.243439	0.00261465	10	1	3000	
0.71	8.06515	0.245472	0.00254552	10	1	3000	
0.715	8.05724	0.242179	0.00250966	10	1	3000	
0.72	8.06903	0.245035	0.002508	10	1	3000	
0.725	8.08069	0.244406	0.00254202	10	1	3000	
0.73	8.10421	0.246005	0.00259835	10	1	3000	
0.735	8.1441	0.246957	0.0026457	10	1	3000	
0.74	8.20419	0.250866	0.00265088	10	1	3000	
0.745	8.25343	0.263465	0.00263374	10	1	3000	
0.75	8.25893	0.263384	0.00260041	10	1	3000	
0.755	8.19374	0.269715	0.00254158	10	1	3000	
0.76	8.06922	0.294994	0.00246113	10	1	3000	
0.765	7.36479	1.35416	0.00193509	10	1	3000	
0.77	5.96028	1.44649	0.001184	10	1	3000	
0.775	4.73446	1.44801	0.000815202	10	1	3000	
0.78	3.68818	1.6109	0.000559853	10	1	3000	
0.785	3.02805	1.53069	0.000478319	10	1	3000	
0.79	2.59212	1.64075	0.000486238	10	1	3000	
0.795	2.31464	1.60602	0.000559784	10	1	3000	
0.8	2.20944	1.57774	0.000538507	10	1	3000	
0.805	2.24072	1.62273	0.000540781	10	1	3000	
0.81	2.36059	1.61835	0.000564279	10	1	3000	
0.815	2.54129	1.5959	0.000601183	10	1	3000	
0.82	2.78146	1.67163	0.000650406	10	1	3000	
0.825	3.10116	1.65483	0.000713204	10	1	3000	
0.83	3.54259	1.68889	0.000805102	10	1	3000	
0.835	4.14055	1.69508	0.000932243	10	1	3000	
0.84	4.94168	1.7277	0.00110285	10	1	3000	
0.845	6.14887	1.81723	0.00136629	10	1	3000	
0.85	7.4696	1.79541	0.00164408	10	1	3000	
0.855	9.06205	1.8968	0.00196234	10	1	3000	
0.86	10.9834	1.813	0.00228862	10	1	3000	
0.865	13.1952	1.33933	0.00251023	10	1	3000	
0.87	15.4492	0.701001	0.00255847	10	1	3000	
0.875	17.0839	0.454887	0.00242571	10	1	3000	
0.88	20.7566	0.416906	0.00407649	10	1	3000	
0.885	20.5774	0.37425	0.0034569	10	1	3000	
0.89	19.9883	0.239294	0.00350515	10	1	3000	
0.895	20.8726	0.403642	0.00403707	10	1	3000	
0.9	20.9196	0.285832	0.0040639	10	1	3000	
0.905	20.9856	0.312289	0.00419475	10	1	3000	
0.91	21.3422	0.303422	0.00443154	10	1	3000	
0.915	21.9243	0.328762	0.00474654	10	1	3000	
0.92	22.6374	0.338316	0.00499238	10	1	3000	
0.925	23.5153	0.350502	0.00520879	10	1	3000	
0.93	24.5422	0.363183	0.00545114	10	1	3000	
0.935	25.6527	0.380343	0.00573773	10	1	3000	
0.94	26.1197	1.3646	0.00550012	10	1	3000	
0.945	25.4082	1.39026	0.00482872	10	1	3000	
0.95	25.7382	1.37067	0.00465231	10	1	3000	
0.955	25.9096	1.4528	0.00446799	10	1	3000	
0.96	25.981	1.46386	0.00438733	10	1	3000	
0.965	26.0541	1.5506	0.00440673	10	1	3000	
0.97	26.1965	1.32595	0.00457506	10	1	3000	
0.975	26.6394	1.14556	0.00454422	10	1	3000	
0.98	27.4082	1.09415	0.00453361	10	1	3000	
0.985	28.1667	2.06444	0.00485436	10	1	3000	
0.99	28.8717	1.98527	0.00556804	10	1	3000	
0.995	30.1446	1.35488	0.00662305	10	1	3000	
1	31.924	1.26286	0.00805874	10	1	3000	
1.005	34.4305	1.25618	0.00899671	10	1	3000	
1.01	37.6968	1.23023	0.00989286	10	1	3000	
1.015	41.304	1.2776	0.0107848	10	1	3000	
1.02	45.2908	1.22831	0.0118768	10	1	3000	
1.025	49.8843	1.2635	0.0126892	10	1	3000	
1.03	55.0208	1.28923	0.0135026	10	1	3000	
1.035	60.4122	1.32578	0.0142631	10	1	3000	
1.04	65.7932	1.31368	0.0151928	10	1	3000	
1.045	71.0256	1.27491	0.016304	10	1	3000	
1.05	75.9339	1.18406	0.0174098	10	1	3000	
1.055	80.5197	1.14276	0.0185887	10	1	3000	
1.06	85.0135	1.0921	0.0199126	10	1	3000	
1.065	89.3406	0.997034	0.022111	10	1	3000	
1.07	93.036	1.21009	0.0231916	10	1	3000	
1.075	96.4568	1.08235	0.0245972	10	1	3000	
1.08	100.088	1.10559	0.0258018	10	1	3000	
1.085	103.77	1.17478	0.0265232	10	1	3000	
1.09	107.439	1.19697	0.0266861	10	1	3000	
1.095	111.018	1.24147	0.0261643	10	1	3000	
1.1	114.584	1.29744	0.0252193	10	1	3000	
1.105	118.319	1.35397	0.0240273	10	1	3000	
1.11	122.333	1.37722	0.0228224	10	1	3000	
1.115	126.518	1.3858	0.0217029	10	1	3000	
1.12	130.641	1.40112	0.0208102	10	1	3000	
1.125	134.481	1.41603	0.0200699	10	1	3000	
1.13	137.868	1.44048	0.0194519	10	1	3000	
1.135	140.786	1.46428	0.0188685	10	1	3000	
1.14	143.236	1.49416	0.0182534	10	1	3000	
1.145	145.205	1.34153	0.018236	10	1	3000	
1.15	146.851	1.45031	0.018073	10	1	3000	
1.155	148.42	1.39898	0.0180163	10	1	3000	
1.16	150.177	1.43537	0.0181438	10	1	3000	
1.165	152.478	1.45509	0.0184528	10	1	3000	
1.17	155.489	1.52846	0.0188917	10	1	3000	
1.175	159.4	1.60105	0.0193647	10	1	3000	
1.18	164.238	1.64515	0.0199485	10	1	3000	
1.185	169.442	1.67146	0.0206857	10	1	3000	
1.19	174.705	1.68505	0.0214685	10	1	3000	
1.195	180.177	1.68775	0.0223631	10	1	3000	
1.2	185.365	1.75024	0.0233697	10	1	3000	
1.205	190.051	1.77965	0.0244444	10	1	3000	
1.21	194.658	1.79383	0.0256476	10	1	3000	
1.215	199.288	1.86853	0.0269994	10	1	3000	
1.22	204.079	1.92591	0.0286158	10	1	3000	
1.225	209.21	1.93566	0.0301786	10	1	3000	
1.23	214.586	1.95319	0.0318676	10	1	3000	
1.235	220.297	1.98123	0.0323824	10	1	3000	
1.24	226.273	1.99132	0.0329296	10	1	3000	
1.245	231.819	2.02315	0.0339524	10	1	3000	
1.25	236.704	2.05068	0.0355324	10	1	3000	
1.255	241.217	2.09936	0.0376503	10	1	3000	
1.26	245.862	2.14975	0.0402618	10	1	3000	
1.265	251.158	2.21658	0.0433102	10	1	3000	
1.27	257.065	2.27797	0.0464851	10	1	3000	
1.275	263.398	2.31688	0.0495045	10	1	3000	
1.28	269.541	2.40499	0.0517583	10	1	3000	
1.285	275.426	2.41618	0.0531088	10	1	3000	
1.29	281.311	2.45197	0.0533767	10	1	3000	
1.295	290.898	2.23957	0.0526569	10	1	3000	
1.3	302.136	2.43363	0.0508361	10	1	3000	
1.305	306.318	2.89265	0.047847	10	1	3000	
1.31	312.42	2.64904	0.0440569	10	1	3000	
1.315	321.111	2.59398	0.0402962	10	1	3000	
1.32	330.241	2.89168	0.0367897	10	1	3000	
1.325	338.83	2.86807	0.0337221	10	1	3000	
1.33	347.107	2.9642	0.0312541	10	1	3000	
1.335	355.142	3.0511	0.0294699	10	1	3000	
1.34	363.068	3.14218	0.0283328	10	1	3000	
1.345	371.246	3.21001	0.0277451	10	1	3000	
1.35	379.979	3.25706	0.0276392	10	1	3000	
1.355	389.245	3.26204	0.0280645	10	1	3000	
1.36	399.127	3.26725	0.0289248	10	1	3000	
1.365	409.533	3.27865	0.0301854	10	1	3000	
1.37	420.508	3.30176	0.0316924	10	1	3000	
1.375	432.202	3.32947	0.033266	10	1	3000	
1.38	443.87	3.31758	0.0347743	10	1	3000	
1.385	454.765	3.38275	0.0360971	10	1	3000	
1.39	464.321	3.39967	0.0371794	10	1	3000	
1.395	472.53	3.45092	0.0379676	10	1	3000	
1.4	479.263	3.47094	0.0385224	10	1	3000	
1.405	484.338	3.52516	0.0387971	10	1	3000	
1.41	488.406	3.55093	0.038497	10	1	3000	
1.415	490.688	3.60605	0.0377362	10	1	3000	
1.42	492.619	3.63243	0.0366603	10	1	3000	
1.425	495.302	3.67949	0.0355206	10	1	3000	
1.43	498.457	3.68946	0.03394	10	1	3000	
1.435	502.472	3.70466	0.0322932	10	1	3000	
1.44	507.254	3.74248	0.0307427	10	1	3000	
1.445	512.302	3.78661	0.0294285	10	1	3000	
1.45	516.697	3.84122	0.028358	10	1	3000	
1.455	519.639	3.88654	0.0275014	10	1	3000	
1.46	521.216	3.89026	0.0267509	10	1	3000	
1.465	522.134	3.8686	0.0260119	10	1	3000	
1.47	524.092	3.98713	0.0252017	10	1	3000	
1.475	525.355	3.99593	0.0243789	10	1	3000	
1.48	526.789	4.06601	0.0235726	10	1	3000	
1.485	530.735	4.06411	0.0229539	10	1	3000	
1.49	537.551	4.12726	0.02257	10	1	3000	
1.495	547.617	4.50387	0.0224755	10	1	3000	
1.5	560.83	4.6823	0.0227371	10	1	3000	
1.505	576.56	4.52638	0.0237829	10	1	3000	
1.51	593.779	4.30623	0.0249541	10	1	3000	
1.515	605.869	4.12892	0.0259826	10	1	3000	
1.52	616.008	4.03571	0.0268783	10	1	3000	
1.525	625.704	3.97446	0.0276293	10	1	3000	
1.53	635.364	3.95378	0.028228	10	1	3000	
1.535	645.949	3.92158	0.0285617	10	1	3000	
1.54	657.678	3.91748	0.0284759	10	1	3000	
1.545	669.608	3.94873	0.0282566	10	1	3000	
1.55	680.632	3.92517	0.0285011	10	1	3000	
1.555	690.014	3.81825	0.0297974	10	1	3000	
1.56	698.398	3.78103	0.0316133	10	1	3000	
1.565	706.106	3.75518	0.0339359	10	1	3000	
1.57	713.3	3.72925	0.0366481	10	1	3000	
1.575	720.385	3.72401	0.03962	10	1	3000	
1.58	728.173	3.72946	0.0426437	10	1	3000	
1.585	736.65	3.74949	0.0455079	10	1	3000	
1.59	749.768	3.77808	0.0479883	10	1	3000	
1.595	758.177	3.82294	0.0497964	10	1	3000	
1.6	768.225	3.88419	0.0507884	10	1	3000	
1.605	777.706	3.93639	0.0507098	10	1	3000	
1.61	784.954	4.00716	0.0496063	10	1	3000	
1.615	790.007	4.06624	0.0475395	10	1	3000	
1.62	793.59	4.12465	0.0447964	10	1	3000	
1.625	797.22	4.17245	0.0417214	10	1	3000	
1.63	802.039	4.21095	0.038671	10	1	3000	
1.635	807.914	4.22753	0.0359107	10	1	3000	
1.64	814.741	4.22834	0.0336774	10	1	3000	
1.645	821.434	4.20133	0.0320387	10	1	3000	
1.65	829.374	4.17388	0.031043	10	1	3000	
1.655	836.168	4.10607	0.0307087	10	1	3000	
1.66	840.402	4.04657	0.0310279	10	1	3000	
1.665	849.437	3.95999	0.0319996	10	1	3000	
1.67	855.669	3.88711	0.0335341	10	1	3000	
1.675	855.878	3.79948	0.0355496	10	1	3000	
1.68	856.957	3.72345	0.0379463	10	1	3000	
1.685	862.497	3.65359	0.0406215	10	1	3000	
1.69	870.621	3.59524	0.043345	10	1	3000	
1.695	884.444	3.54186	0.0458941	10	1	3000	
1.7	895.558	3.50319	0.048026	10	1	3000	
1.705	905.318	3.46616	0.0495679	10	1	3000	
1.71	914.493	3.44393	0.0503788	10	1	3000	
1.715	922.097	3.42049	0.0503673	10	1	3000	
1.72	927.575	3.40087	0.0495461	10	1	3000	
1.725	932.847	3.40635	0.0479686	10	1	3000	
1.73	938.719	3.38894	0.0459001	10	1	3000	
1.735	945.267	3.39157	0.0435818	10	1	3000	
1.74	952.371	3.38082	0.0412801	10	1	3000	
1.745	959.808	3.36995	0.0392289	10	1	3000	
1.75	967.632	3.35874	0.0375938	10	1	3000	
1.755	976.187	3.34525	0.0364776	10	1	3000	
1.76	986.985	3.34316	0.0359978	10	1	3000	
1.765	1001.1	3.34429	0.0362419	10	1	3000	
1.77	1019.36	3.34925	0.0372297	10	1	3000	
1.775	1042	3.37883	0.0388911	10	1	3000	
1.78	1068.43	3.41548	0.0411209	10	1	3000	
1.785	1097.01	3.5952	0.043837	10	1	3000	
1.79	1123.73	3.46114	0.0469357	10	1	3000	
1.795	1148.19	3.61191	0.0503745	10	1	3000	
1.8	1170.68	3.61018	0.0541183	10	1	3000	
1.805	1191.1	3.63152	0.0581856	10	1	3000	
1.81	1210.41	3.67491	0.0626151	10	1	3000	
1.815	1231.34	3.68184	0.0673773	10	1	3000	
1.82	1256.45	3.72018	0.0724713	10	1	3000	
1.825	1287.4	3.73029	0.0778243	10	1	3000	
1.83	1327.67	3.79511	0.0835032	10	1	3000	
1.835	1367.87	3.80101	0.0892521	10	1	3000	
1.84	1412.77	3.86544	0.0951239	10	1	3000	
1.845	1457.31	3.89533	0.101232	10	1	3000	
1.85	1498.36	3.95007	0.10774	10	1	3000	
1.855	1540.91	4.00083	0.115009	10	1	3000	
1.86	1580.29	4.0428	0.122675	10	1	3000	
1.865	1622.03	4.06743	0.130559	10	1	3000	
1.87	1668.31	4.0712	0.138003	10	1	3000	
1.875	1720.91	4.05454	0.144519	10	1	3000	
1.88	1780.11	4.02132	0.149632	10	1	3000	
1.885	1848.84	3.96801	0.152849	10	1	3000	
1.89	1921.42	3.93883	0.152746	10	1	3000	
1.895	2005.25	3.73855	0.150368	10	1	3000	
1.9	2093.56	3.11001	0.144076	10	1	3000	
1.905	2184.73	3.38061	0.136172	10	1	3000	
1.91	2291.11	3	0.127954	10	1	3000	
1.915	2373.06	2.99944	0.119782	10	1	3000	
1.92	2442.3	2.89068	0.112433	10	1	3000	
1.925	2517.1	2.76524	0.10655	10	1	3000	
1.93	2623.77	2.70042	0.102798	10	1	3000	
1.935	2692.63	2.77215	0.100723	10	1	3000	
1.94	2746.24	2.66765	0.100741	10	1	3000	
1.945	2796.25	2.78849	0.102853	10	1	3000	
1.95	2842.57	2.81384	0.106765	10	1	3000	
1.955	2884.22	2.90059	0.112087	10	1	3000	
1.96	2918.48	2.96119	0.118419	10	1	3000	
1.965	2944.48	3.07093	0.125364	10	1	3000	
1.97	2965.12	3.12076	0.132806	10	1	3000	
1.975	2984.29	3.24667	0.140777	10	1	3000	
1.98	3005.58	3.16234	0.148744	10	1	3000	
1.985	3031.79	3.21179	0.15563	10	1	3000	
1.99	3065.95	3.14538	0.161557	10	1	3000	
1.995	3110.61	3.05056	0.167074	10	1	3000	
2	3164.4	2.91624	0.172481	10	1	3000	
2.005	3225.3	2.7866	0.178001	10	1	3000	
2.01	3289.09	2.61168	0.183432	10	1	3000	
2.015	3351.98	2.48034	0.188129	10	1	3000	
2.02	3411.09	2.29862	0.19175	10	1	3000	
2.025	3484.21	2.37842	0.19445	10	1	3000	
2.03	3537.69	2.19666	0.195468	10	1	3000	
2.035	3576.29	2.30049	0.195093	10	1	3000	
2.04	3609.37	2.16156	0.193486	10	1	3000	
2.045	3639.22	2.22058	0.191338	10	1	3000	
2.05	3662.47	2.17629	0.188679	10	1	3000	
2.055	3675.29	2.18077	0.185997	10	1	3000	
2.06	3690.91	2.19077	0.18256	10	1	3000	
2.065	3690.54	2.17489	0.179054	10	1	3000	
2.07	3690.25	2.19506	0.174466	10	1	3000	
2.075	3686.86	2.15404	0.16916	10	1	3000	
2.08	3679.43	2.10053	0.162819	10	1	3000	
2.085	3680.02	2.12095	0.156294	10	1	3000	
2.09	3680.91	2.09423	0.149046	10	1	3000	
2.095	3668.07	2.05275	0.14182	10	1	3000	
2.1	3668.7	2.01412	0.135058	10	1	3000	
2.105	3670.54	1.98313	0.128756	10	1	3000	
2.11	3663.48	1.9712	0.124363	10	1	3000	
2.115	3642.73	1.96621	0.120786	10	1	3000	
2.12	3620.86	1.95606	0.117622	10	1	3000	
2.125	3595.4	1.96173	0.115998	10	1	3000	
2.13	3591.42	1.92743	0.115731	10	1	3000	
2.135	3613.43	1.98776	0.116771	10	1	3000	
2.14	3527.35	1.9831	0.116396	10	1	3000	
2.145	3455.24	2.04069	0.117129	10	1	3000	
2.15	3409.03	2.08464	0.119397	10	1	3000	
2.155	3374.35	2.17484	0.123008	10	1	3000	
2.16	3349.03	2.25809	0.127883	10	1	3000	
2.165	3332.1	2.33208	0.13384	10	1	3000	
2.17	3322.45	2.42602	0.140633	10	1	3000	
2.175	3323.79	2.5393	0.147842	10	1	3000	
2.18	3326.97	2.58198	0.1549	10	1	3000	
2.185	3334.35	2.66607	0.161267	10	1	3000	
2.19	3346.26	2.70866	0.166433	10	1	3000	
2.195	3356.84	2.72231	0.169826	10	1	3000	
2.2	3373.62	2.71349	0.171444	10	1	3000	
2.205	3387.01	2.71345	0.171195	10	1	3000	
2.21	3412.44	2.65121	0.169643	10	1	3000	
2.215	3427.02	2.65124	0.167078	10	1	3000	
2.22	3440.5	2.57603	0.16386	10	1	3000	
2.225	3465.97	2.50191	0.16129	10	1	3000	
2.23	3504.24	2.46565	0.160061	10	1	3000	
2.235	3549.02	2.38006	0.160173	10	1	3000	
2.24	3585.43	3.37976	0.161032	10	1	3000	
2.245	3618.26	3.31884	0.162318	10	1	3000	
2.25	3669.28	3.32151	0.162234	10	1	3000	
2.255	3720.2	3.26858	0.170768	10	1	3000	
2.26	3776.93	3.21065	0.182041	10	1	3000	
2.265	3853.8	2.42684	0.195271	10	1	3000	
2.27	3911.94	2.14171	0.209237	10	1	3000	
2.275	3959.66	2.34	0.223259	10	1	3000	
2.28	4003.51	2.39318	0.236569	10	1	3000	
2.285	4042.59	2.28887	0.247988	10	1	3000	
2.29	4077.32	2.28822	0.256412	10	1	3000	
2.295	4108.69	2.32571	0.260987	10	1	3000	
2.3	4140.6	2.13601	0.261213	10	1	3000	
2.305	4178.26	2.17178	0.257655	10	1	3000	
2.31	4231.36	2.0875	0.250984	10	1	3000	
2.315	4291.07	2.0194	0.242803	10	1	3000	
2.32	4352.08	1.87734	0.234451	10	1	3000	
2.325	4410.63	1.61843	0.226589	10	1	3000	
2.33	4444.64	1.78476	0.219773	10	1	3000	
2.335	4461.03	1.73122	0.214306	10	1	3000	
2.34	4473.65	1.39422	0.210256	10	1	3000	
2.345	4482.44	1.6047	0.207177	10	1	3000	
2.35	4487.08	1.49693	0.205276	10	1	3000	
2.355	4488.09	1.48447	0.204256	10	1	3000	
2.36	4485.65	1.5022	0.203238	10	1	3000	
2.365	4480.41	1.50524	0.202368	10	1	3000	
2.37	4471.79	1.5323	0.201258	10	1	3000	
2.375	4460.3	1.52057	0.19948	10	1	3000	
2.38	4446.07	1.51704	0.196785	10	1	3000	
2.385	4432.83	1.50899	0.193373	10	1	3000	
2.39	4418	1.52742	0.1893	10	1	3000	
2.395	4403.71	1.50194	0.184598	10	1	3000	
2.4	4390.32	1.49712	0.179632	10	1	3000	
2.405	4376.9	1.4787	0.174605	10	1	3000	
2.41	4360.73	1.51339	0.170099	10	1	3000	
2.415	4341.47	1.49076	0.166503	10	1	3000	
2.42	4318.99	1.46152	0.163337	10	1	3000	
2.425	4293.55	1.49124	0.161515	10	1	3000	
2.43	4262.37	1.57558	0.161084	10	1	3000	
2.435	4231.05	1.50788	0.161771	10	1	3000	
2.44	4194.35	1.6657	0.163676	10	1	3000	
2.445	4154.36	1.70623	0.166569	10	1	3000	
2.45	4114.87	1.89249	0.170232	10	1	3000	
2.455	4078.5	1.94167	0.173985	10	1	3000	
2.46	4045.58	2.05058	0.177059	10	1	3000	
2.465	4014.09	2.37088	0.178827	10	1	3000	
2.47	3983.09	2.48588	0.178961	10	1	3000	
2.475	3952.76	2.58824	0.177019	10	1	3000	
2.48	3923.72	2.70154	0.172946	10	1	3000	
2.485	3895.53	2.82509	0.166609	10	1	3000	
2.49	3867.92	2.93894	0.158314	10	1	3000	
2.495	3843.25	3.0674	0.148503	10	1	3000	
2.5	3825.43	3.20331	0.13783	10	1	3000	
2.505	3817.76	3.34094	0.127022	10	1	3000	
2.51	3820.55	3.49798	0.116783	10	1	3000	
2.515	3830.65	3.67004	0.107857	10	1	3000	
2.52	3842.9	3.87531	0.100286	10	1	3000	
2.525	3855.46	4.09613	0.0942189	10	1	3000	
2.53	3868.49	4.31974	0.0897619	10	1	3000	
2.535	3880.87	4.55655	0.0870804	10	1	3000	
2.54	3894.83	4.75423	0.0863464	10	1	3000	
2.545	3915.16	4.93767	0.0877806	10	1	3000	
2.55	3937.3	5.10737	0.0919856	10	1	3000	
2.555	3967.33	5.21859	0.0993871	10	1	3000	
2.56	4009.95	5.29916	0.109867	10	1	3000	
2.565	4066.66	5.32804	0.123473	10	1	3000	
2.57	4132.56	5.30501	0.139701	10	1	3000	
2.575	4200.31	5.2378	0.15762	10	1	3000	
2.58	4262.2	5.17204	0.175583	10	1	3000	
2.585	4315.01	5.07185	0.191936	10	1	3000	
2.59	4358.12	4.94368	0.20511	10	1	3000	
2.595	4387.49	4.87956	0.21389	10	1	3000	
2.6	4403.48	4.71457	0.217916	10	1	3000	
2.605	4407.56	4.61685	0.21766	10	1	3000	
2.61	4402.09	4.46525	0.21439	10	1	3000	
2.615	4390.62	4.34546	0.209199	10	1	3000	
2.62	4373.48	4.20033	0.203756	10	1	3000	
2.625	4349.57	4.06158	0.199687	10	1	3000	
2.63	4316.05	3.93615	0.198391	10	1	3000	
2.635	4270.93	3.80136	0.200403	10	1	3000	
2.64	4211.06	3.71193	0.205701	10	1	3000	
2.645	4137.28	3.59897	0.213756	10	1	3000	
2.65	4050.23	3.53169	0.224193	10	1	3000	
2.655	3965.59	3.48757	0.236011	10	1	3000	
2.66	3868.36	3.43708	0.250181	10	1	3000	
2.665	3748.67	3.49957	0.267157	10	1	3000	
2.67	3623.92	3.50639	0.28757	10	1	3000	
2.675	3496.74	3.45159	0.311914	10	1	3000	
2.68	3365.17	3.53867	0.340211	10	1	3000	
2.685	3227.15	3.59226	0.373913	10	1	3000	
2.69	3082.77	3.63679	0.414481	10	1	3000	
2.695	2931.28	3.76071	0.462972	10	1	3000	
2.7	2783.3	3.93257	0.51895	10	1	3000	
2.705	2637.28	4.24735	0.580431	10	1	3000	
2.71	2464.65	4.34748	0.641498	10	1	3000	
2.715	2289.14	4.67246	0.695956	10	1	3000	
2.72	2116.52	4.87704	0.739037	10	1	3000	
2.725	1947.71	5.09359	0.766942	10	1	3000	
2.73	1785	5.29599	0.777427	10	1	3000	
2.735	1630.89	5.54305	0.770333	10	1	3000	
2.74	1487.22	5.68738	0.747192	10	1	3000	
2.745	1354.74	5.89232	0.711926	10	1	3000	
2.75	1241.26	6.10961	0.66967	10	1	3000	
2.755	1134.27	6.0567	0.625538	10	1	3000	
2.76	1037.22	6.25072	0.584563	10	1	3000	
2.765	947.451	6.22088	0.550618	10	1	3000	
2.77	868.359	6.21607	0.525766	10	1	3000	
2.775	798.008	6.16039	0.510876	10	1	3000	
2.78	745.798	6.13309	0.505898	10	1	3000	
2.785	691.615	6.30951	0.509405	10	1	3000	
2.79	643.999	6.15099	0.519283	10	1	3000	
2.795	603.17	6.15251	0.532149	10	1	3000	
2.8	568.621	6.1617	0.544216	10	1	3000	
2.805	539.802	6.18654	0.552242	10	1	3000	
2.81	515.035	6.18201	0.553866	10	1	3000	
2.815	492.409	6.18143	0.547439	10	1	3000	
2.82	470.85	6.13649	0.532436	10	1	3000	
2.825	450.443	6.12333	0.509354	10	1	3000	
2.83	433.171	6.06637	0.480113	10	1	3000	
2.835	421.287	6.03629	0.44749	10	1	3000	
2.84	410.384	5.97882	0.414172	10	1	3000	
2.845	399.903	5.9301	0.38259	10	1	3000	
2.85	392.363	5.9731	0.354621	10	1	3000	
2.855	387.587	6.04489	0.331242	10	1	3000	
2.86	384.499	6.14955	0.312951	10	1	3000	
2.865	382.094	6.26795	0.29979	10	1	3000	
2.87	384.822	6.33722	0.275456	10	1	3000	
2.875	391.071	6.21397	0.264353	10	1	3000	
2.88	398.749	6.0981	0.25902	10	1	3000	
2.885	407.199	5.99331	0.257116	10	1	3000	
2.89	415.852	5.89735	0.257539	10	1	3000	
2.895	423.582	5.78863	0.259886	10	1	3000	
2.9	429.632	5.68327	0.263191	10	1	3000	
2.905	434.259	5.56394	0.266481	10	1	3000	
2.91	422.347	6.28256	0.30353	10	1	3000	
2.915	420.136	5.39798	0.256817	10	1	3000	
2.92	424.096	5.01634	0.252123	10	1	3000	
2.925	424.254	4.9845	0.246342	10	1	3000	
2.93	406.551	5.5346	0.266818	10	1	3000	
2.935	397.425	4.79276	0.214013	10	1	3000	
2.94	395.448	4.70194	0.201961	10	1	3000	
2.945	390.054	4.7848	0.18472	10	1	3000	
2.95	367.806	5.54349	0.198888	10	1	3000	
2.955	354.669	4.44588	0.14595	10	1	3000	
2.96	345.881	4.62085	0.133038	10	1	3000	
2.965	335.111	4.54268	0.123234	10	1	3000	
2.97	322.365	4.55491	0.115402	10	1	3000	
2.975	311.07	4.52726	0.106733	10	1	3000	
2.98	302.541	4.36464	0.101562	10	1	3000	
2.985	291.131	3.95204	0.095861	10	1	3000	
2.99	277.86	3.96483	0.0905835	10	1	3000	
2.995	263.349	3.82251	0.0856456	10	1	3000	
3	248.273	3.78168	0.0804838	10	1	3000	
3.005	233.378	3.63038	0.0747171	10	1	3000	
3.01	220.823	3.57707	0.064369	10	1	3000	
3.015	210.239	3.48253	0.0572576	10	1	3000	
3.02	200.853	3.43381	0.0521261	10	1	3000	
3.025	193.402	2.69062	0.0471542	10	1	3000	
3.03	187.205	2.24842	0.0429568	10	1	3000	
3.035	181.798	2.2376	0.0372474	10	1	3000	
3.04	175.51	1.82702	0.036574	10	1	3000	
3.045	170.106	2.04997	0.0307178	10	1	3000	
3.05	164.608	1.7092	0.0290629	10	1	3000	
3.055	159.251	1.72882	0.025709	10	1	3000	
3.06	155.025	1.75335	0.0189855	10	1	3000	
3.065	150.271	1.57968	0.0174407	10	1	3000	
3.07	145.048	1.60194	0.0130498	10	1	3000	
3.075	139.312	1.56325	0.0106273	10	1	3000	
3.08	132.943	1.50564	0.008826	10	1	3000	
3.085	126.296	1.47012	0.00761233	10	1	3000	
3.09	119.715	1.42313	0.00676504	10	1	3000	
3.095	113.334	1.37486	0.00619294	10	1	3000	
3.1	107.305	1.30466	0.00575262	10	1	3000	
3.105	101.625	1.22051	0.00542209	10	1	3000	
3.11	96.2706	1.15814	0.00522947	10	1	3000	
3.115	91.3457	1.29778	0.00523773	10	1	3000	
3.12	86.9856	1.00689	0.0052449	10	1	3000	
3.125	83.1185	1.02012	0.00554378	10	1	3000	
3.13	79.7231	0.957934	0.00602909	10	1	3000	
3.135	76.9131	1.02082	0.0067378	10	1	3000	
3.14	75.8313	0.915605	0.00745356	10	1	3000	
3.145	72.6839	1.00778	0.00855449	10	1	3000	
3.15	70.3881	0.897439	0.00970153	10	1	3000	
3.155	68.4898	0.936449	0.010874	10	1	3000	
3.16	67.4911	0.879925	0.00981842	10	1	3000	
3.165	66.925	0.882734	0.00970751	10	1	3000	
3.17	66.3909	0.847909	0.0094481	10	1	3000	
3.175	65.8884	0.834776	0.00911277	10	1	3000	
3.18	65.522	0.811985	0.00889762	10	1	3000	
3.185	65.3091	0.814509	0.00877145	10	1	3000	
3.19	65.0966	0.808846	0.00866103	10	1	3000	
3.195	64.7222	0.82119	0.00857997	10	1	3000	
3.2	64.1127	0.835791	0.00850998	10	1	3000	
3.205	63.2611	0.793747	0.00843739	10	1	3000	
3.21	62.4518	0.787447	0.00831934	10	1	3000	
3.215	63.0531	0.770551	0.00795503	10	1	3000	
3.22	60.7933	0.77162	0.00819164	10	1	3000	
3.225	58.5059	0.769648	0.00840014	10	1	3000	
3.23	55.081	0.78991	0.00698306	10	1	3000	
3.235	53.4765	0.706622	0.00725533	10	1	3000	
3.24	52.0595	0.717735	0.00769201	10	1	3000	
3.245	51.2652	0.751867	0.00958084	10	1	3000	
3.25	50.0944	0.795403	0.00890512	10	1	3000	
3.255	49.2205	0.858042	0.00917719	10	1	3000	
3.26	44.2054	0.843867	0.00515209	10	1	3000	
3.265	46.3029	1.50311	0.00654089	10	1	3000	
3.27	47.6209	0.935707	0.00762206	10	1	3000	
3.275	47.0817	1.00998	0.00791473	10	1	3000	
3.28	46.2901	1.01024	0.00802214	10	1	3000	
3.285	45.3217	1.03428	0.00820631	10	1	3000	
3.29	43.7993	0.982282	0.00786504	10	1	3000	
3.295	41.8176	0.965161	0.00701221	10	1	3000	
3.3	39.8565	0.938411	0.00583677	10	1	3000	
3.305	38.1995	0.91505	0.00487184	10	1	3000	
3.31	36.4309	0.846712	0.0047292	10	1	3000	
3.315	34.337	0.798272	0.004458	10	1	3000	
3.32	32.0939	0.738035	0.00412796	10	1	3000	
3.325	29.9834	0.686391	0.00378552	10	1	3000	
3.33	28.2622	0.653037	0.0035179	10	1	3000	
3.335	27.0608	0.624052	0.00339175	10	1	3000	
3.34	26.3989	0.601296	0.00341427	10	1	3000	
3.345	26.1786	0.584129	0.00355372	10	1	3000	
3.35	26.3473	0.573445	0.00380251	10	1	3000	
3.355	26.975	0.560536	0.00421716	10	1	3000	
3.36	28.3003	0.54827	0.00497683	10	1	3000	
3.365	30.6043	0.53212	0.0063374	10	1	3000	
3.37	33.9129	0.514224	0.00863225	10	1	3000	
3.375	37.9929	0.495763	0.0123426	10	1	3000	
3.38	42.4688	0.47893	0.016628	10	1	3000	
3.385	48.0615	0.466767	0.0208274	10	1	3000	
3.39	55.9434	0.45838	0.0207663	10	1	3000	
3.395	63.308	0.477533	0.0269923	10	1	3000	
3.4	69.1329	0.474881	0.0299486	10	1	3000	
3.405	73.712	0.477029	0.0337256	10	1	3000	
3.41	78.0352	0.455394	0.0344329	10	1	3000	
3.415	81.4736	0.449821	0.0352602	10	1	3000	
3.42	83.0369	0.436825	0.0355282	10	1	3000	
3.425	82.6866	0.419982	0.0353352	10	1	3000	
3.43	80.8452	0.397175	0.0349331	10	1	3000	
3.435	77.92	0.372951	0.0345755	10	1	3000	
3.44	74.2454	0.347181	0.0340263	10	1	3000	
3.445	69.7126	0.323102	0.032737	10	1	3000	
3.45	64.5516	0.301323	0.0301279	10	1	3000	
3.455	59.312	0.284537	0.0274784	10	1	3000	
3.46	54.7351	0.282515	0.022927	10	1	3000	
3.465	50.3603	0.268375	0.0210191	10	1	3000	
3.47	47.469	0.264057	0.0157798	10	1	3000	
3.475	44.7965	0.264534	0.0171543	10	1	3000	
3.48	43.6805	0.262409	0.0129068	10	1	3000	
3.485	42.673	0.273742	0.0161681	10	1	3000	
3.49	43.3845	0.320581	0.0124478	10	1	3000	
3.495	44.1648	0.301087	0.0163686	10	1	3000	
3.5	45.9868	0.288652	0.0142885	10	1	3000	
3.505	47.7951	0.385864	0.016263	10	1	3000	
3.51	50.0657	0.505722	0.0139952	10	1	3000	
3.515	51.6166	0.840069	0.0159699	10	1	3000	
3.52	53.3188	0.835474	0.0132538	10	1	3000	
3.525	53.9589	1.03467	0.0151689	10	1	3000	
3.53	54.4206	0.849657	0.0123637	10	1	3000	
3.535	54.0914	0.924784	0.013865	10	1	3000	
