CEINMS output
datacolumns 11
datarows 217
endheader
time	hip_flexion_r	hip_adduction_r	hip_rotation_r	knee_angle_r	ankle_angle_r	hip_flexion_l	hip_adduction_l	hip_rotation_l	knee_angle_l	ankle_angle_l	
0.175	10.4764	-14.958	1.19087	-3.5376	1.27643	-14.0479	-1.6969	-10.8626	5.4238	-0.151921	
0.18	2.35414	-19.0495	-0.14193	-1.88153	3.71845	-10.4746	-2.19324	-8.62581	0.474573	0.377278	
0.185	0.050361	-24.9422	-2.39307	-0.218416	6.36467	-5.5472	-4.59246	-7.4642	-1.9797	0.394979	
0.19	0.313679	-28.4341	-4.7025	0.889966	9.20349	-0.0628088	-7.32389	-6.11886	-3.33557	0.295723	
0.195	3.07561	-28.4469	-5.18001	-1.89349	12.0606	3.63103	-8.56145	-4.7999	-4.20868	0.271438	
0.2	6.67271	-27.2915	-4.6468	-9.76641	14.8784	3.86648	-8.9594	-4.49865	-4.9326	0.356677	
0.205	8.59341	-26.8228	-4.22956	-17.854	17.6359	4.59984	-8.34911	-4.37893	-5.66781	0.502955	
0.21	8.09262	-28.7659	-4.61009	-24.2085	20.3083	6.44681	-6.84437	-4.45714	-6.38121	0.678934	
0.215	1.54833	-29.1274	-5.12812	-27.337	22.7029	8.82603	-4.95636	-4.62349	-7.0911	0.876215	
0.22	-4.69927	-31.7863	-6.41007	-31.4897	24.6046	11.6666	-2.38965	-4.78668	-7.81842	1.09478	
0.225	-12.762	-35.6016	-8.47651	-34.5274	25.9017	13.7112	-0.517912	-4.80744	-8.53598	1.32915	
0.23	-19.4758	-38.9568	-10.5895	-39.0122	26.5473	15.9064	2.39357	-4.80047	-9.19499	1.5643	
0.235	-22.8656	-41.6538	-10.8465	-44.248	26.5888	19.2037	6.04237	-5.08453	-11.5366	1.80327	
0.24	-21.7286	-47.0671	-6.26073	-51.308	26.1946	23.5636	10.1091	-5.49073	-15.589	2.02788	
0.245	-18.3537	-51.6789	-0.810089	-57.1376	25.5757	27.5123	13.6917	-5.89599	-19.5083	2.25041	
0.25	-14.7049	-53.9153	2.91297	-62.0443	24.9008	30.5545	16.6164	-6.19864	-22.5674	2.40324	
0.255	-12.0286	-55.2924	4.83448	-65.9342	24.2466	31.0178	20.7052	-6.0567	-20.574	2.53586	
0.26	-11.2706	-56.9228	4.98393	-68.9144	23.6278	29.98	23.4732	-6.04832	-18.034	2.63345	
0.265	-11.3106	-58.8002	4.12739	-71.055	23.0217	29.3351	24.4745	-5.74669	-15.985	2.69075	
0.27	-11.3204	-60.524	2.83226	-72.3107	22.3764	28.1248	23.9301	-5.50864	-14.3213	2.71182	
0.275	-11.5687	-61.8394	1.07558	-72.7276	21.6153	26.4707	21.8422	-5.32933	-13.2147	2.70002	
0.28	-11.8692	-62.6545	-0.963011	-72.428	20.6426	24.1703	18.9074	-5.17899	-12.0611	2.66009	
0.285	-12.0297	-63.2423	-3.08519	-71.6075	19.3544	20.9038	15.7276	-4.98276	-10.655	2.5962	
0.29	-11.8539	-63.9333	-5.10589	-70.444	17.6503	15.2902	11.9349	-4.46544	-9.1014	2.51063	
0.295	-10.7394	-64.9669	-7.0635	-69.04	15.4626	9.58291	9.34767	-4.27863	-7.41632	2.40134	
0.3	-9.07023	-66.2952	-8.98337	-67.4377	12.8283	4.01394	11.3555	-5.255	-5.73195	2.26173	
0.305	-7.05846	-67.8155	-10.8095	-65.6821	9.9251	0.836524	8.212	-6.18953	-6.05766	2.08144	
0.31	-4.74308	-69.4467	-12.4531	-63.8479	6.89663	-1.0676	5.62963	-7.05296	-7.25152	1.84922	
0.315	-2.20995	-71.1488	-13.9775	-61.9928	4.26929	-1.24731	1.64757	-7.73268	-9.875	1.56037	
0.32	0.403795	-72.7187	-15.4363	-60.0965	2.5861	-0.358162	-1.9079	-8.03515	-11.9802	1.21088	
0.325	2.79171	-73.8355	-16.8878	-58.0624	1.79477	1.45771	-5.16426	-7.94997	-13.3652	0.796679	
0.33	4.15475	-74.111	-18.2581	-55.7574	1.38722	4.00197	-8.1285	-7.56143	-14.2285	0.319211	
0.335	5.08566	-73.6114	-19.5902	-53.1515	1.06331	7.00805	-10.7154	-6.92555	-14.5322	-0.216444	
0.34	5.96878	-72.6201	-20.8966	-50.2797	0.719151	10.2047	-12.8111	-6.11068	-14.2824	-0.812336	
0.345	6.52137	-71.3955	-22.1131	-47.2469	0.360737	12.21	-15.0132	-5.56388	-13.7675	-1.44644	
0.35	6.70342	-70.1458	-23.193	-44.1342	0.00185651	13.3591	-16.5887	-5.27311	-13.3454	-2.10777	
0.355	6.58071	-68.9517	-24.1626	-41.0135	-0.356911	14.4929	-16.6709	-5.01127	-13.1586	-2.76994	
0.36	6.50719	-67.7784	-24.9226	-37.9563	-0.719218	15.5431	-15.6302	-4.83592	-12.9834	-3.42306	
0.365	6.44672	-66.5583	-25.569	-35.0068	-1.08638	16.2127	-14.0779	-4.83121	-12.6645	-4.03485	
0.37	6.61846	-65.1969	-26.2093	-32.1991	-1.4581	16.2828	-12.3532	-4.98688	-12.141	-4.60303	
0.375	7.05046	-63.6346	-26.8086	-29.5685	-1.83437	15.9054	-10.6704	-5.21356	-11.3833	-5.11632	
0.38	7.52768	-61.7722	-27.3383	-27.1208	-2.21586	15.2068	-9.05656	-5.41852	-10.3558	-5.57687	
0.385	8.10253	-59.6359	-27.7838	-24.8201	-2.60385	14.2788	-7.49381	-5.59181	-9.16413	-5.98927	
0.39	8.69275	-57.3308	-28.1196	-22.6396	-2.9994	13.212	-6.03186	-5.71197	-7.81803	-6.34924	
0.395	9.19705	-54.978	-28.3166	-20.5436	-3.40262	12.0885	-4.71043	-5.80024	-6.47981	-6.66629	
0.4	9.53419	-52.713	-28.3613	-18.5204	-3.8138	10.7664	-3.50634	-5.85964	-5.04556	-6.93518	
0.405	9.7135	-50.5997	-28.2556	-16.5988	-4.23336	9.39484	-2.6431	-5.89772	-3.66808	-7.15812	
0.41	9.79681	-48.6642	-28.011	-14.8113	-4.66153	7.92296	-2.14589	-5.96048	-2.337	-7.34305	
0.415	9.80123	-46.917	-27.7305	-13.1948	-5.0987	6.0876	-2.1499	-6.37071	-1.27369	-7.48455	
0.42	10.0055	-45.2338	-27.2261	-11.7413	-5.54342	4.31616	-1.99543	-6.29348	-0.479193	-7.59472	
0.425	10.2401	-43.6601	-26.7394	-10.4882	-5.99193	2.7503	-2.24085	-6.28427	0.32251	-7.67016	
0.43	10.6527	-42.0825	-26.2364	-9.41586	-6.4371	1.32682	-2.52963	-6.21454	1.09535	-7.71721	
0.435	11.1827	-40.5065	-25.7576	-8.46628	-6.87211	0.0905516	-2.92636	-6.02558	1.80561	-7.73695	
0.44	11.73	-38.8933	-25.2796	-7.55739	-7.29198	-1.22436	-4.46348	-4.2181	2.78612	-7.72761	
0.445	12.1936	-37.2983	-24.7809	-6.67386	-7.6936	-2.34257	-4.83651	-3.09549	3.03728	-8.31035	
0.45	12.5432	-35.7681	-24.2671	-5.79024	-8.07488	-3.04078	-5.11733	-2.47404	3.44558	-10.4142	
0.455	12.8479	-34.3261	-23.7377	-4.93034	-8.43426	-3.62907	-5.46615	-1.91221	3.78185	-11.1754	
0.46	13.1473	-32.9879	-23.1955	-4.09922	-8.76995	-4.00904	-5.69117	-1.40241	4.04811	-10.9416	
0.465	13.4591	-31.2176	-22.6386	-3.31724	-9.08066	-4.27229	-5.91801	-0.995024	4.24828	-10.4107	
0.47	13.5039	-30.2469	-22.1319	-2.60152	-9.36471	-4.38827	-6.1031	-0.678714	4.38858	-9.91316	
0.475	13.7908	-29.2284	-21.7002	-1.96972	-10.6703	-4.34275	-6.21688	-0.403775	4.47307	-9.47468	
0.48	14.0657	-28.4336	-21.3397	-1.4197	-14.7704	-4.17152	-6.29444	-0.175078	4.50978	-9.05685	
0.485	14.3626	-27.8149	-21.0608	-0.985076	-19.538	-3.89694	-6.35312	-0.00417483	4.50696	-8.64338	
0.49	14.6949	-27.3959	-20.8563	-0.613926	-24.4374	-3.54138	-6.402	0.114524	4.47344	-8.24074	
0.495	15.0579	-27.177	-20.7406	-0.320105	-28.8989	-3.13597	-6.45277	0.191271	4.42296	-7.86018	
0.5	15.4611	-27.1571	-20.7114	-0.0809418	-32.9764	-2.71126	-6.51676	0.23989	4.36828	-7.51047	
0.505	15.8835	-27.3288	-20.7695	0.0808281	-36.6059	-2.29645	-6.60538	0.277564	4.31385	-7.19374	
0.51	16.3295	-27.6813	-20.9163	0.314676	-39.7611	-2.11338	-6.92826	0.526835	4.30635	-6.91557	
0.515	16.8041	-28.213	-21.1526	0.480669	-42.4571	-2.04681	-7.01992	0.699794	4.05853	-6.67261	
0.52	17.3255	-28.9147	-21.4806	0.582717	-44.7651	-2.0459	-7.13424	0.826973	3.95707	-6.47032	
0.525	18.0832	-29.6716	-21.8777	0.640035	-46.7773	-2.18226	-7.39599	1.03272	4.08811	-6.30715	
0.53	18.8028	-30.7345	-22.3624	0.712008	-48.5561	-2.56051	-7.8168	1.176	4.41683	-6.18591	
0.535	19.4871	-31.9052	-22.9264	0.812585	-50.1401	-3.18524	-8.39546	1.33829	4.96743	-6.38445	
0.54	20.1338	-33.118	-23.5436	0.970173	-51.5609	-4.23224	-9.03768	1.51953	5.47574	-6.76453	
0.545	20.6688	-34.401	-24.1909	1.23266	-52.8406	-5.6789	-9.76582	1.7831	5.99314	-6.72244	
0.55	21.0772	-35.6911	-24.8491	1.58635	-54.0047	-7.43333	-10.5888	2.04908	6.65163	-6.69922	
0.555	21.3708	-36.9427	-25.5022	2.03574	-55.0807	-9.53701	-11.4274	2.35835	7.34233	-6.75696	
0.56	21.5803	-38.1541	-26.145	2.53634	-56.0965	-11.9269	-12.299	2.68146	8.1525	-6.86197	
0.565	21.7512	-39.3149	-26.7766	3.06319	-57.0772	-14.5438	-13.152	2.98596	9.08617	-6.99491	
0.57	21.9354	-40.41	-27.3952	3.56733	-58.0508	-17.3314	-13.8969	3.26625	10.1019	-7.14786	
0.575	22.1798	-41.4168	-28.0056	3.99549	-59.0361	-20.1564	-14.5741	3.43338	11.3789	-7.3186	
0.58	22.5346	-42.2989	-28.6057	4.3025	-60.0437	-22.9283	-15.019	3.50132	12.7958	-7.49562	
0.585	23.0141	-43.0288	-29.1956	4.47861	-61.0762	-25.6519	-15.0652	3.56907	14.1513	-7.69148	
0.59	23.574	-43.5933	-29.7927	4.50086	-62.1314	-28.2149	-14.7451	3.58781	15.578	-7.89528	
0.595	24.3174	-43.9933	-30.3234	4.35594	-63.2015	-30.5715	-13.9731	3.55769	16.9879	-8.09591	
0.6	25.1644	-44.2266	-30.8092	4.05519	-64.2752	-32.6522	-12.7755	3.47602	18.4393	-8.29918	
0.605	26.0113	-44.2653	-31.2292	3.57089	-65.3423	-34.4285	-11.1506	3.34791	19.8851	-8.49028	
0.61	26.8214	-44.0686	-31.5662	2.91744	-66.387	-35.8677	-9.15015	3.18359	21.2766	-8.66981	
0.615	27.6225	-43.6412	-31.8268	2.09992	-67.3974	-36.9801	-6.81845	2.99735	22.6983	-8.8311	
0.62	28.4685	-43.3832	-32.3344	1.18378	-68.3581	-37.772	-4.31326	2.7961	24.046	-8.97768	
0.625	29.4641	-42.8445	-32.9524	0.213453	-69.2497	-38.2984	-1.74304	2.60026	25.2741	-9.08201	
0.63	30.5232	-41.8668	-33.4723	-0.785813	-70.0541	-38.585	0.73919	2.41776	26.3896	-9.16087	
0.635	31.4864	-40.7061	-33.8505	-1.75421	-70.7487	-38.78	2.97887	2.212	27.172	-9.1953	
0.64	32.2321	-39.3137	-33.9476	-2.66874	-71.3124	-38.9192	4.75961	1.85808	27.6114	-9.18823	
0.645	32.6929	-37.7667	-33.782	-3.51435	-71.7182	-38.9039	6.03697	1.53029	27.8416	-9.12338	
0.65	32.8934	-35.9975	-33.3621	-4.2721	-71.9412	-38.6188	6.75271	1.35256	27.952	-9.00448	
0.655	32.8865	-34.0386	-32.7202	-4.93557	-71.9528	-38.1071	6.88575	1.36671	27.8995	-8.81589	
0.66	32.4398	-31.7338	-31.9034	-5.54157	-71.722	-37.3609	6.33563	1.48658	27.7186	-8.56488	
0.665	32.521	-29.6551	-30.9724	-6.17792	-71.2159	-36.4641	4.99665	1.47096	27.3367	-8.25598	
0.67	32.35	-27.2858	-29.99	-6.82659	-70.4012	-35.3756	2.9865	1.38493	26.7605	-7.90228	
0.675	32.3343	-24.9156	-29.0233	-7.57676	-69.2407	-34.0448	0.468699	1.31883	25.9723	-7.50355	
0.68	32.6509	-22.2625	-28.1085	-8.42009	-67.7037	-32.4253	-2.43355	1.25877	25.0286	-7.05068	
0.685	33.6053	-18.8676	-27.3081	-9.35373	-65.7628	-30.838	-5.40847	1.24782	22.8033	-6.54452	
0.69	34.1625	-16.3634	-26.5786	-10.4005	-63.393	-28.5418	-8.73666	0.982951	22.4481	-5.99952	
0.695	34.6907	-14.0906	-25.9327	-11.5272	-60.58	-26.226	-11.6665	0.894139	20.709	-5.41524	
0.7	35.0617	-12.2791	-25.3547	-12.7088	-57.3301	-23.7962	-14.3264	0.724407	18.8799	-4.81874	
0.705	35.0683	-10.1773	-25.0343	-13.9022	-53.6721	-21.2514	-16.4057	0.605815	16.6275	-4.20636	
0.71	35.2058	-8.67972	-24.7554	-15.0954	-49.6807	-18.398	-17.9824	0.451057	14.9102	-3.59893	
0.715	35.3024	-8.52058	-24.2482	-16.2682	-45.4426	-15.5614	-18.8071	0.36617	12.9227	-2.99785	
0.72	35.4745	-7.8531	-23.8321	-17.382	-40.9442	-12.6979	-18.9522	0.277078	11.1878	-2.42351	
0.725	35.6527	-7.13718	-23.3962	-18.3962	-35.9797	-10.1418	-18.5685	-0.152453	9.37313	-1.88462	
0.73	35.8438	-6.47322	-22.9133	-19.6058	-30.2277	-8.46429	-17.4294	-1.16473	8.02496	-1.38928	
0.735	36.0518	-5.69857	-22.3317	-19.9286	-24.7944	-7.54906	-16.7303	-1.87281	6.41802	-0.955556	
0.74	36.3027	-4.61396	-21.5906	-20.3936	-19.7661	-6.84959	-16.8828	-2.05852	5.20121	-0.582205	
0.745	36.6226	-3.22099	-20.6706	-20.6419	-14.9742	-6.95735	-17.7201	-2.09874	4.40456	-0.284619	
0.75	37.0006	-1.67488	-19.6024	-20.8775	-10.4646	-5.54075	-18.0197	-2.0075	3.98746	-0.0495989	
0.755	37.5704	0.34355	-18.5566	-21.3476	-6.62209	-4.89909	-18.2698	-2.0036	3.89743	0.11842	
0.76	38.555	2.53433	-17.408	-21.495	-4.91145	-4.94652	-18.3537	-2.07823	4.01048	0.223433	
0.765	39.7167	4.87951	-16.3251	-21.741	-4.10624	-5.39167	-18.2827	-2.19954	4.24454	0.275879	
0.77	41.04	7.39696	-15.3258	-22.3653	-3.22649	-6.11877	-18.1538	-2.35386	4.54742	0.277479	
0.775	42.733	10.2509	-14.4762	-22.5296	-2.27626	-6.95853	-18.0709	-2.52718	4.80796	0.233478	
0.78	44.5878	13.0976	-13.7693	-22.5246	-1.2617	-7.55403	-18.1585	-2.7072	4.61258	0.14781	
0.785	46.2667	15.61	-13.1128	-22.8733	-0.201979	-8.39071	-18.3026	-2.90518	4.65329	0.0206167	
0.79	47.4402	17.5407	-12.4078	-23.5426	0.886799	-9.46397	-18.5069	-3.12337	4.92475	-0.140867	
0.795	47.9423	18.8898	-11.5976	-24.5156	1.98531	-10.6451	-18.8004	-3.36188	5.25857	-0.336288	
0.8	46.8794	20.2306	-10.822	-23.8658	3.06296	-11.8765	-19.1917	-3.62169	5.5847	-0.554283	
0.805	44.3945	21.6035	-10.0914	-21.2986	4.08128	-14.3128	-19.1272	-3.84289	6.61918	-0.792998	
0.81	36.4319	19.5656	-9.0401	-18.0347	5.19239	-18.3862	-18.3232	-3.98145	8.74792	-1.04792	
0.815	30.9197	19.9229	-8.32239	-14.3021	6.24789	-20.8335	-18.2172	-4.18328	10.0439	-1.31376	
0.82	27.1542	19.4621	-7.73151	-11.0147	7.11265	-21.3688	-19.0219	-4.48005	10.2042	-1.58765	
0.825	23.1945	18.0802	-7.28484	-7.95477	7.82254	-21.5655	-20.0194	-4.79021	10.1778	-1.86702	
0.83	19.5107	16.0855	-6.82012	-5.17734	8.36902	-21.4721	-21.1528	-5.10426	10.0078	-2.14363	
0.835	16.1452	13.7058	-6.36613	-2.60773	8.77849	-21.0284	-22.4095	-5.42374	9.66574	-2.41995	
0.84	13.1219	11.183	-5.97399	-0.275619	9.0612	-20.2621	-23.7338	-5.75037	9.2089	-2.69287	
0.845	11.5967	8.19207	-5.57086	0.0924856	9.21952	-19.1824	-25.079	-6.08849	8.6889	-2.95965	
0.85	10.9995	5.26789	-5.18143	-0.598948	9.25627	-16.6997	-24.618	-6.75453	8.80511	-3.22083	
0.855	10.8895	2.59773	-4.81727	-1.61325	9.17707	-11.3838	-21.3819	-8.03243	9.53465	-3.47287	
0.86	11.2977	0.25393	-4.50271	-2.81691	8.9907	-8.35852	-18.7536	-9.06187	10.6165	-3.71798	
0.865	12.0265	-1.70597	-4.37267	-4.12106	8.70759	-6.14845	-17.5206	-9.89745	10.9164	-3.95693	
0.87	12.9512	-3.0922	-4.15386	-5.6264	8.34067	-4.6793	-17.6728	-10.5521	10.3909	-4.18553	
0.875	13.0967	-3.59457	-4.07461	-8.29068	7.90519	-3.51869	-17.8333	-11.1365	9.85987	-4.41059	
0.88	14.3409	-4.5397	-3.97927	-8.75095	7.41751	-2.59421	-17.7977	-11.7132	9.41785	-4.62401	
0.885	15.8925	-5.1321	-3.87466	-8.70267	6.89377	-1.83352	-17.4937	-12.2497	9.13285	-4.83433	
0.89	16.6574	-5.05493	-3.81504	-9.25972	6.34969	-1.25968	-16.9778	-12.7256	8.99484	-5.03833	
0.895	16.9104	-4.76836	-3.79474	-9.66804	5.79931	-0.839228	-16.2821	-13.1261	8.98946	-5.23612	
0.9	16.8148	-4.3112	-3.80239	-9.81	5.2547	-0.562947	-15.4384	-13.4597	9.09444	-5.43243	
0.905	16.39	-3.72692	-3.81467	-9.7331	4.72528	-0.319452	-14.4687	-13.7177	9.26011	-5.61918	
0.91	15.6726	-3.11437	-3.81629	-9.46362	4.19895	-0.0765151	-13.4009	-13.9012	9.56067	-6.00876	
0.915	14.7554	-2.577	-3.78994	-9.03135	3.70472	0.215352	-12.2643	-14.0067	9.85589	-6.37841	
0.92	13.6021	-2.12652	-3.73663	-8.47501	3.26085	0.550475	-11.0877	-14.0405	10.0716	-6.63418	
0.925	12.1987	-1.748	-3.66376	-7.83295	2.87249	0.975108	-9.90349	-14.0047	10.1867	-6.80954	
0.93	10.6133	-1.51007	-3.54763	-7.14007	2.53586	1.48068	-8.74179	-13.9092	10.2078	-6.95334	
0.935	8.57206	-1.83754	-2.96004	-6.42579	2.24119	2.10239	-7.64329	-13.76	10.1123	-7.0952	
0.94	7.12988	-1.5019	-3.02348	-5.714	1.98457	2.82463	-6.63153	-13.5621	9.90062	-7.23411	
0.945	5.64213	-1.90772	-2.90793	-5.02063	1.7646	3.62669	-5.72879	-13.326	9.56617	-7.40524	
0.95	4.0314	-2.39542	-2.65697	-4.36448	1.57852	4.4281	-4.92565	-13.0637	9.14634	-7.89682	
0.955	2.49047	-3.23232	-2.22079	-3.7424	1.42293	5.23159	-4.24157	-12.7874	8.62818	-8.3957	
0.96	1.26686	-3.95246	-1.72872	-3.16858	1.29488	5.9957	-3.67463	-12.5041	8.04125	-8.75486	
0.965	0.0594941	-4.94707	-1.20161	-2.63338	1.19231	6.67531	-3.20591	-12.2144	7.43155	-8.98062	
0.97	-0.993792	-5.96423	-0.657566	-2.14072	1.11348	7.23946	-2.82462	-11.9276	6.82727	-9.13254	
0.975	-2.00563	-7.16192	-0.462822	-1.67898	1.05488	7.6561	-2.52871	-11.657	6.27234	-9.25896	
0.98	-2.74549	-8.20645	0.088753	-1.25272	1.01346	7.92372	-2.28137	-11.4023	5.78937	-9.37525	
0.985	-3.33036	-9.23831	0.596147	-0.850935	0.987875	8.06804	-1.96807	-11.1625	5.39937	-9.48462	
0.99	-3.79196	-10.2541	0.964642	-0.475463	0.968429	8.1845	-1.28619	-10.9936	5.01061	-9.58374	
0.995	-4.094	-11.2026	1.27524	-0.125021	0.956334	7.76033	-1.33125	-10.7237	4.78099	-9.67354	
1	-4.23365	-12.0614	1.52896	0.200276	0.955838	7.40301	-0.999803	-10.5334	4.67197	-9.75141	
1.005	-4.20635	-12.8292	1.69929	0.506722	0.968806	6.85759	-0.748292	-10.3606	4.66175	-9.81659	
1.01	-4.01871	-13.5007	1.77923	0.796733	0.983511	6.16773	-0.549126	-10.205	4.73764	-9.86937	
1.015	-3.67042	-14.0503	1.77016	1.04564	1.01831	5.35021	-0.360804	-10.0709	4.90012	-9.90957	
1.02	-3.15361	-14.4883	1.67224	1.28304	1.07022	4.45759	-0.189012	-9.96323	5.11585	-9.93602	
1.025	-2.47503	-14.8028	1.48362	1.49681	1.12806	3.52455	-0.0374776	-9.87771	5.36395	-9.94943	
1.03	-1.65914	-15.002	1.22014	1.69077	1.1908	2.5371	0.0422456	-9.81673	5.63809	-9.95062	
1.035	-0.72666	-15.0887	0.897286	1.86906	1.2578	1.54595	0.050683	-9.7905	5.92421	-9.9405	
1.04	0.290541	-15.0675	0.535027	2.03338	1.32911	0.589234	0.0208147	-9.79405	6.20986	-9.92614	
1.045	1.35615	-14.9434	0.16219	2.18857	1.40298	-0.327938	-0.0860163	-9.8247	6.4703	-9.91959	
1.05	2.39534	-14.7355	-0.21928	2.38526	1.47682	-1.18601	-0.262374	-9.88595	6.70061	-9.92904	
1.055	3.462	-14.4469	-0.593365	2.57252	1.54778	-1.96396	-0.508929	-9.97138	6.89272	-9.95821	
1.06	4.20321	-14.06	-0.936801	2.80725	1.61284	-2.65986	-0.825251	-10.0865	7.03738	-10.0092	
1.065	5.19047	-13.7608	-1.2749	3.08513	1.58715	-3.27676	-1.18856	-10.222	7.15027	-10.0801	
1.07	5.63405	-13.4063	-1.4879	3.43328	0.742289	-3.80691	-1.6023	-10.3797	7.22017	-10.1698	
1.075	5.85876	-13.1224	-1.60121	3.85976	0.195448	-4.25248	-2.05242	-10.5556	7.25326	-10.2771	
1.08	5.71804	-12.9163	-1.58647	4.38467	0.155931	-4.61416	-2.52185	-10.747	7.27239	-10.471	
1.085	5.15834	-12.7808	-1.44163	5.01172	0.324617	-4.87773	-3.0149	-10.951	7.31802	-10.9717	
1.09	4.15482	-12.7651	-1.15208	5.76232	0.44516	-5.06577	-3.48731	-11.165	7.35522	-11.4883	
1.095	2.64133	-12.9297	-0.720855	6.63567	0.454616	-5.195	-3.90055	-11.3869	7.3791	-11.8868	
1.1	0.546778	-13.3692	-0.390515	7.637	0.378144	-5.26292	-4.24123	-11.6122	7.39338	-12.1618	
1.105	-2.09048	-14.0323	-0.166495	8.76994	0.248329	-5.26547	-4.49912	-11.841	7.40847	-12.3608	
1.11	-5.17942	-14.806	0.0921321	10.0369	0.0797346	-5.19491	-4.66754	-12.0679	7.43104	-12.5184	
1.115	-8.61346	-15.5794	0.376837	11.4168	-0.123453	-5.04998	-4.74668	-12.2929	7.46163	-12.6569	
1.12	-12.3517	-16.2794	0.639114	12.9095	-0.358681	-4.81959	-4.74365	-12.5102	7.48891	-12.7769	
1.125	-16.2876	-16.7951	0.903431	14.5123	-0.621023	-4.49987	-4.75508	-12.765	7.55823	-12.8788	
1.13	-20.3085	-16.9857	1.18028	16.2037	-0.903493	-4.05605	-4.72528	-13.0349	7.63157	-12.9601	
1.135	-24.2883	-16.7032	1.40908	17.9751	-1.19727	-3.48663	-4.51635	-13.2379	7.54168	-13.0153	
1.14	-28.1093	-15.8249	1.59377	19.8116	-1.49336	-2.89849	-4.44682	-13.46	7.38428	-13.044	
1.145	-31.6511	-14.2265	1.74483	21.6779	-1.78214	-2.14522	-4.30033	-13.5893	7.11869	-13.0394	
1.15	-34.8376	-11.8764	1.85727	23.5577	-2.05409	-1.25553	-4.1535	-13.6808	6.73282	-12.9981	
1.155	-37.6109	-8.78539	1.93581	25.4174	-2.30075	-0.303742	-4.04866	-13.7428	6.23623	-12.9161	
1.16	-39.9267	-5.01855	1.99154	27.2177	-2.51462	0.645399	-4.01478	-13.8175	5.62955	-12.7899	
1.165	-41.763	-0.706281	2.02109	28.8882	-2.68914	1.64907	-3.96322	-13.8041	4.95802	-12.6178	
1.17	-43.1197	3.94761	2.07546	30.4648	-2.81916	2.65247	-3.88235	-13.6927	4.26423	-12.3977	
1.175	-44.0254	8.68404	2.06967	31.7033	-2.90118	3.54085	-3.78235	-13.5378	3.58717	-12.1274	
1.18	-44.7808	12.6604	1.40136	32.8565	-2.9337	4.27058	-3.63447	-13.3385	2.99449	-11.81	
1.185	-44.9454	16.0894	0.727527	33.2093	-2.91746	4.77261	-3.41319	-13.0842	2.5394	-11.4502	
1.19	-44.673	18.9138	0.293945	33.8946	-2.85298	4.97741	-3.11945	-12.771	2.27639	-11.0564	
1.195	-43.9295	20.6857	0.179002	33.7821	-2.74203	4.81795	-2.78225	-12.3898	2.26163	-10.6851	
1.2	-42.7143	21.4331	0.157453	33.2208	-2.58703	4.2424	-2.44702	-11.9515	2.53153	-10.2794	
1.205	-40.9082	21.064	0.103274	32.1084	-2.39183	3.23672	-2.08555	-11.4366	3.07531	-9.83293	
1.21	-38.5076	19.5023	0.0172604	30.504	-2.16116	1.81843	-1.788	-10.8431	3.8297	-9.35566	
1.215	-35.6365	16.8572	-0.091724	28.3399	-1.90166	0.093184	-1.67702	-10.1774	4.66118	-8.87773	
1.22	-31.9056	13.1808	-0.164214	25.6305	-1.61992	-1.57752	-1.602	-9.50286	5.44702	-8.39219	
1.225	-27.2986	8.76832	-0.0953075	22.3985	-1.32393	-2.40529	-0.934879	-8.96681	6.15215	-7.88889	
1.23	-21.7985	3.96793	-0.00946309	18.6797	-1.04602	-2.56211	0.243839	-8.53977	6.74366	-7.37969	
1.235	-15.3901	-0.954136	-0.0346695	14.5233	-0.773274	-2.09623	1.97169	-8.1381	7.23651	-6.87795	
1.24	-8.10726	-5.75592	-0.280008	9.98687	-0.438498	-1.87863	3.00946	-7.80627	7.6545	-6.39526	
1.245	-0.0922601	-10.1879	-0.849529	5.14851	-0.0746412	-1.93513	3.36984	-7.59444	8.02009	-5.94705	
1.25	4.48558	-13.287	-1.48821	2.72373	0.293661	-1.92547	3.59579	-7.46859	8.34496	-5.54262	
1.255	6.62241	-14.8557	-1.73212	2.24688	0.636697	-1.87838	3.75567	-7.39084	8.63911	-5.1956	
