CEINMS output
datacolumns 81
datarows 92
endheader
time	addbrev_r	addlong_r	addmagDist_r	addmagIsch_r	addmagMid_r	addmagProx_r	bflh_r	bfsh_r	edl_r	ehl_r	fdl_r	fhl_r	gaslat_r	gasmed_r	glmax1_r	glmax2_r	glmax3_r	glmed1_r	glmed2_r	glmed3_r	glmin1_r	glmin2_r	glmin3_r	grac_r	iliacus_r	perbrev_r	perlong_r	piri_r	psoas_r	recfem_r	sart_r	semimem_r	semiten_r	soleus_r	tfl_r	tibant_r	tibpost_r	vasint_r	vaslat_r	vasmed_r	addbrev_l	addlong_l	addmagDist_l	addmagIsch_l	addmagMid_l	addmagProx_l	bflh_l	bfsh_l	edl_l	ehl_l	fdl_l	fhl_l	gaslat_l	gasmed_l	glmax1_l	glmax2_l	glmax3_l	glmed1_l	glmed2_l	glmed3_l	glmin1_l	glmin2_l	glmin3_l	grac_l	iliacus_l	perbrev_l	perlong_l	piri_l	psoas_l	recfem_l	sart_l	semimem_l	semiten_l	soleus_l	tfl_l	tibant_l	tibpost_l	vasint_l	vaslat_l	vasmed_l	
3.19	5.25622e-05	0.000773534	0.00016652	8.78867e-05	4.43359e-05	5.80862e-05	0.000914131	0.000462873	0.000262921	0.000135634	0.000424936	0.000438306	0.000917762	0.00140491	0.00213725	0.00204146	0.00195583	0.00213877	0.00212431	0.00190726	0.000448302	0.00213027	0.00188348	0.000181635	0.000348778	0.00041468	0.000219886	0.00202193	0.000132482	0.000116513	6.46323e-05	0.00216718	0.0011681	0.000901844	5.62209e-05	8.96996e-05	0.000568391	0.000261346	0.000128386	0.000122691	0.000248659	0.000248659	0.247057	0.247057	0.0174066	0.000248659	0.000305565	4.11896e-05	0.000968885	0.000739262	0.0117719	1.62476e-05	0.000635165	0.000248659	0.000912726	0.00165067	0.000100036	0.872914	0.924278	0.00133329	0.109572	0.776298	0.000862863	0.00170343	0.000284681	7.63837e-05	8.48611e-06	0.000267727	0.000776532	0.0183901	0.186182	0.00253974	0.000178835	0.00371775	0.000248659	0.00316002	0.000456693	2.55801e-05	0.000998959	3.03582e-05	
3.195	0.000143169	0.00119938	0.0003875	0.000222473	0.000117934	0.000157914	0.00168795	0.00101731	0.000562033	0.000321892	0.000796865	0.000787985	0.0014989	0.00191979	0.0027885	0.00268745	0.00260659	0.00285819	0.00272277	0.00259835	0.000793858	0.00286018	0.00258216	0.000430155	0.000799858	0.00075472	0.000470716	0.0026465	0.000313226	0.000301267	0.000174491	0.00269349	0.00182472	0.0014769	0.000151563	0.000225198	0.000976726	0.000559261	0.000307226	0.000294488	0.000500749	0.000500749	0.383673	0.35633	0.0893058	0.00244813	0.000637916	0.000100924	0.00106577	0.0009611	0.0207779	4.49847e-05	0.00144738	0.000500749	0.00167469	0.00302353	0.000200031	0.727439	0.824793	0.00149903	0.0766997	0.145665	0.0010073	0.00377515	0.00055606	0.000281736	2.41854e-05	0.000532862	0.000993041	0.0179756	0.314052	0.00539913	0.000428003	0.00749302	0.000500749	0.00271621	0.0015162	6.86385e-05	0.00109884	8.10598e-05	
3.2	0.00280274	0.00147286	0.00147114	0.00160169	0.00154203	0.00297016	0.00274905	0.00287831	0.00141435	0.00138138	0.00134373	0.00121313	0.00196544	0.00210627	0.00297486	0.0028816	0.0028146	0.00309139	0.00287842	0.00284492	0.0011869	0.00310268	0.00283922	0.00182083	0.00279444	0.00119134	0.00119131	0.00282847	0.00131167	0.00271723	0.0029309	0.00280785	0.00226037	0.00194393	0.00244934	0.00149871	0.00138435	0.00141335	0.00139406	0.00136473	0.00102267	0.00102267	0.646738	0.584382	0.177635	0.00552048	0.0668766	0.0169814	0.00107355	0.00102332	0.0233056	0.00123803	0.0728099	0.00102267	0.0393407	0.0912427	0.0236491	0.646984	0.723692	0.00151596	0.0746986	0.0849804	0.0010277	0.0840382	0.00103947	0.00229509	0.00168911	0.00105049	0.0010485	0.0201725	0.435808	0.164809	0.0493948	0.0205276	0.00102267	0.00305369	0.013077	0.00103384	0.00110687	0.00113001	
3.205	0.00280274	0.00147286	0.00147114	0.00160169	0.00154203	0.00297016	0.00274905	0.00287831	0.00141435	0.00138138	0.00134373	0.00121313	0.00196544	0.00210627	0.00297486	0.0028816	0.0028146	0.00309139	0.00287842	0.00284492	0.0011869	0.00310268	0.00283922	0.00182083	0.00279444	0.00119134	0.00119131	0.00282847	0.00131167	0.00271723	0.0029309	0.00280785	0.00226037	0.00194393	0.00244934	0.00149871	0.00138435	0.00141335	0.00139406	0.00136473	0.00102267	0.00102267	0.5006	0.435754	0.159249	0.00455376	0.0665647	0.0169565	0.00107355	0.00102332	0.0252939	0.00124031	0.0722997	0.00102267	0.0390913	0.0905481	0.0235649	0.623967	0.586816	0.00151596	0.0368336	0.0126338	0.0010277	0.0831683	0.00103947	0.00243329	0.00168911	0.00105049	0.0010485	0.0216099	0.504793	0.162714	0.0492803	0.0188129	0.00102267	0.00264762	0.0134051	0.00103384	0.00110687	0.00113001	
3.21	0.00280274	0.00147286	0.00147114	0.00160169	0.00154203	0.00297016	0.00274905	0.00287831	0.00141435	0.00138138	0.00134373	0.00121313	0.00196544	0.00210627	0.00297486	0.0028816	0.0028146	0.00309139	0.00287842	0.00284492	0.0011869	0.00310268	0.00283922	0.00182083	0.00279444	0.00119134	0.00119131	0.00282847	0.00131167	0.00271723	0.0029309	0.00280785	0.00226037	0.00194393	0.00244934	0.00149871	0.00138435	0.00141335	0.00139406	0.00136473	0.00102267	0.00102267	0.377265	0.317581	0.134072	0.00344683	0.0661199	0.0169196	0.00107355	0.00102332	0.0285525	0.00124731	0.0715832	0.00102267	0.0386427	0.0894646	0.0234457	0.561479	0.415712	0.00151596	0.0170337	0.00245287	0.0010277	0.0819871	0.00103947	0.00263418	0.00168911	0.00105049	0.0010485	0.0239409	0.545192	0.159857	0.0491089	0.016649	0.00102267	0.00298989	0.0139976	0.00103384	0.00110687	0.00113001	
3.215	0.00280274	0.00147286	0.00147114	0.00160169	0.00154203	0.00297016	0.00274905	0.00287831	0.00141435	0.00138138	0.00134373	0.00121313	0.00196544	0.00210627	0.00297486	0.0028816	0.0028146	0.00309139	0.00287842	0.00284492	0.0011869	0.00310268	0.00283922	0.00182083	0.00279444	0.00119134	0.00119131	0.00282847	0.00131167	0.00271723	0.0029309	0.00280785	0.00226037	0.00194393	0.00244934	0.00149871	0.00138435	0.00141335	0.00139406	0.00136473	0.00102267	0.00102267	0.278013	0.231512	0.106974	0.00257299	0.0655563	0.0168709	0.00107355	0.00102332	0.0321376	0.00126188	0.0706859	0.00102267	0.037975	0.0879561	0.023296	0.493872	0.218039	0.00151596	0.00784841	0.00117201	0.0010277	0.0805578	0.00103947	0.00290487	0.00168911	0.00105049	0.0010485	0.0265487	0.566416	0.156396	0.0488827	0.01429	0.00102267	0.00393411	0.0149032	0.00103384	0.00110687	0.00113001	
3.22	0.00280274	0.00147286	0.00147114	0.00160169	0.00154203	0.00297016	0.00274905	0.00287831	0.00141435	0.00138138	0.00134373	0.00121313	0.00196544	0.00210627	0.00297486	0.0028816	0.0028146	0.00309139	0.00287842	0.00284492	0.0011869	0.00310268	0.00283922	0.00182083	0.00279444	0.00119134	0.00119131	0.00282847	0.00131167	0.00271723	0.0029309	0.00280785	0.00226037	0.00194393	0.00244934	0.00149871	0.00138435	0.00141335	0.00139406	0.00136473	0.00119195	0.00102267	0.197696	0.166293	0.0805727	0.00197151	0.0648871	0.0168102	0.00107355	0.00102332	0.0359328	0.00128532	0.0696312	0.00102267	0.0370819	0.0860189	0.0231195	0.420577	0.0245747	0.00151596	0.00385744	0.00102008	0.0010277	0.0789325	0.00103947	0.00323652	0.00168911	0.00105049	0.0010485	0.0294107	0.576185	0.152462	0.0486046	0.0119442	0.00102267	0.00536732	0.0161265	0.00103384	0.00110687	0.00113001	
3.225	0.00280274	0.00147286	0.00147114	0.00160169	0.00154203	0.00297016	0.00274905	0.00287831	0.00141435	0.00138138	0.00134373	0.00121313	0.00196544	0.00210627	0.00297486	0.0028816	0.0028146	0.00309139	0.00287842	0.00284492	0.0011869	0.00310268	0.00283922	0.00182083	0.00279444	0.00119134	0.00119131	0.00282847	0.00131167	0.00271723	0.0029309	0.00280785	0.00226037	0.00194393	0.00244934	0.00149871	0.00138435	0.00141335	0.00139406	0.00136473	0.00119429	0.00594926	0.132765	0.112834	0.0585505	0.00158625	0.0641247	0.0167337	0.00107355	0.00102332	0.0394066	0.00132011	0.0684425	0.00102267	0.0359608	0.0836569	0.02292	0.326245	0.00323526	0.00151596	0.00675808	0.00100269	0.0010277	0.0771536	0.0139591	0.00363477	0.00168911	0.00105049	0.0010485	0.032294	0.577996	0.148178	0.0482781	0.00975138	0.00102267	0.00719803	0.0176763	0.00103384	0.00110687	0.00113001	
3.23	0.00280274	0.00147286	0.00147114	0.00160169	0.00154203	0.00297016	0.00274905	0.00287831	0.00141435	0.00138138	0.00134373	0.00121313	0.00196544	0.00210627	0.00297486	0.0028816	0.0028146	0.00309139	0.00287842	0.00284492	0.0011869	0.00310268	0.00283922	0.00182083	0.00279444	0.00119134	0.00119131	0.00282847	0.00131167	0.00271723	0.0029309	0.00280785	0.00226037	0.00194393	0.00244934	0.00149871	0.00138435	0.00141335	0.00139406	0.00136473	0.00115316	0.0147008	0.08486	0.0719253	0.0438454	0.00135023	0.0632804	0.0166428	0.00107355	0.00102332	0.0430247	0.00136745	0.0671457	0.00102267	0.0346477	0.0809646	0.0227008	0.235791	0.00151998	0.00151596	0.0123958	0.00100074	0.0010277	0.0752559	0.0386363	0.0040945	0.00168911	0.00105049	0.0010485	0.0342869	0.577333	0.143665	0.0479086	0.00780181	0.00102267	0.00892202	0.0195374	0.00103384	0.00110687	0.00113001	
3.235	0.00280274	0.00147286	0.00147114	0.00160169	0.00154203	0.00297016	0.00274905	0.00287831	0.00141435	0.00138138	0.00134373	0.00121313	0.00196544	0.00210627	0.00297486	0.0028816	0.0028146	0.00309139	0.00287842	0.00284492	0.0011869	0.00310268	0.00283922	0.00182083	0.00279444	0.00119134	0.00119131	0.00282847	0.00131167	0.00271723	0.0029309	0.00280785	0.00226037	0.00194393	0.00244934	0.00149871	0.00138435	0.00141335	0.00139406	0.00136473	0.00111087	0.0234434	0.0577328	0.0478636	0.0377454	0.00120994	0.0623649	0.0165388	0.00107355	0.00102332	0.0467986	0.00142832	0.0657707	0.00102267	0.033199	0.0780273	0.022465	0.158318	0.00139724	0.00151596	0.00825386	0.00100053	0.0010277	0.0732682	0.0575969	0.00461304	0.00168927	0.00105049	0.0010485	0.0349718	0.578103	0.139041	0.0475028	0.00614245	0.00102267	0.0100486	0.0216946	0.00103384	0.00110687	0.00113001	
3.24	0.00280274	0.00147286	0.00147114	0.00160169	0.00154203	0.00297016	0.00274905	0.00287831	0.00141435	0.00138138	0.00134373	0.00121313	0.00196544	0.00210627	0.00297486	0.0028816	0.0028146	0.00309139	0.00287842	0.00284492	0.0011869	0.00310268	0.00283922	0.00182083	0.00279444	0.00119134	0.00119131	0.00282847	0.00131167	0.00271723	0.0029309	0.00280785	0.00226037	0.00194393	0.00244934	0.00149871	0.00138435	0.00141335	0.00139406	0.00136473	0.00107855	0.0301883	0.0516834	0.0426721	0.0398789	0.00112835	0.0613879	0.0164231	0.00107355	0.00102332	0.0507532	0.00150439	0.0643471	0.00102267	0.0316608	0.0749169	0.0222142	0.089992	0.00138897	0.00151596	0.00469823	0.0010005	0.0010277	0.0712159	0.063736	0.00519572	0.00169073	0.00105049	0.0010485	0.0347161	0.579907	0.134416	0.0470684	0.00479936	0.00102267	0.0101598	0.0241321	0.00103384	0.00110687	0.00113001	
3.245	0.00280274	0.00147286	0.00147114	0.00160169	0.00154203	0.00297016	0.00274905	0.00287831	0.00141435	0.00138138	0.00134373	0.00121313	0.00196544	0.00210627	0.00297486	0.0028816	0.0028146	0.00309139	0.00287842	0.00284492	0.0011869	0.00310268	0.00283922	0.00182083	0.00279444	0.00119134	0.00119131	0.00282847	0.00131167	0.00271723	0.0029309	0.00280785	0.00226037	0.00194393	0.00244934	0.00149871	0.00138435	0.00141335	0.00139406	0.00136473	0.00105666	0.0345403	0.0657757	0.0543981	0.0506262	0.00108169	0.0603581	0.0162967	0.00107355	0.00102332	0.0548864	0.00159553	0.0628991	0.00102267	0.0300707	0.0716937	0.0219551	0.031322	0.00138844	0.00151596	0.00272828	0.0010005	0.0010277	0.0691215	0.0536531	0.00583702	0.00169419	0.00105049	0.0010485	0.0344182	0.576472	0.129876	0.0466124	0.00378085	0.00102267	0.00881773	0.0268304	0.00103384	0.00110687	0.00113001	
3.25	0.00280274	0.00147286	0.00147114	0.00160169	0.00154203	0.00297016	0.00274905	0.00287831	0.00141435	0.00138138	0.00134373	0.00121313	0.00196544	0.00210627	0.00297486	0.0028816	0.0028146	0.00309139	0.00287842	0.00284492	0.0011869	0.00310268	0.00283922	0.00182083	0.00279444	0.00119134	0.00119131	0.00282847	0.00131167	0.00271723	0.0029309	0.00280785	0.00226037	0.00194393	0.00244934	0.00149871	0.00138435	0.00141335	0.00139406	0.00136473	0.00104277	0.0390773	0.104597	0.0829723	0.0759038	0.00105535	0.0592838	0.0161609	0.00107355	0.00102332	0.0590973	0.00170213	0.0614433	0.00102267	0.0285096	0.0685108	0.0216997	0.00542981	0.00138841	0.00151596	0.0017889	0.0010005	0.0010277	0.0670066	0.036971	0.0065394	0.00170041	0.00105049	0.0010485	0.0344634	0.561949	0.125483	0.0461418	0.00303969	0.00102267	0.00559716	0.0297623	0.00103384	0.00110687	0.00113001	
3.255	0.00280274	0.00147286	0.00147114	0.00160169	0.00154203	0.00297016	0.00274905	0.00287831	0.00141435	0.00138138	0.00134373	0.00121313	0.00196544	0.00210627	0.00297486	0.0028816	0.0028146	0.00309139	0.00287842	0.00284492	0.0011869	0.00310268	0.00283922	0.00182083	0.00279444	0.00119134	0.00119131	0.00282847	0.00131167	0.00271723	0.0029309	0.00280785	0.00226037	0.00194393	0.00244934	0.00149871	0.00138435	0.00141335	0.00139406	0.00136473	0.00103431	0.0450591	0.166339	0.125078	0.115576	0.00104064	0.0581724	0.0160167	0.00107355	0.00102332	0.0633807	0.00182442	0.0599916	0.00102267	0.02707	0.0655474	0.0214638	0.0016972	0.0013884	0.00151596	0.00137401	0.0010005	0.0010277	0.0648911	0.0233452	0.00730688	0.00171004	0.00105049	0.0010485	0.0347844	0.536927	0.121288	0.0456635	0.00253084	0.00102267	0.00331923	0.0328912	0.00103384	0.00110687	0.00113001	
3.26	0.00280274	0.00147286	0.00147114	0.00160169	0.00154203	0.00297016	0.00274905	0.00287831	0.00141435	0.00138138	0.00134373	0.00121313	0.00196544	0.00210627	0.00297486	0.0028816	0.0028146	0.00309139	0.00287842	0.00284492	0.0011869	0.00310268	0.00283922	0.00182083	0.00279444	0.00119134	0.00119131	0.00282847	0.00131167	0.00271723	0.0029309	0.00280785	0.00226037	0.00194393	0.00244934	0.00149871	0.00138435	0.00141335	0.00139406	0.00136473	0.00102931	0.0501163	0.242061	0.177855	0.163722	0.00103249	0.0570304	0.015865	0.00107355	0.00102332	0.0676123	0.00196226	0.0585539	0.00102267	0.0258856	0.0630358	0.0212676	0.00126826	0.0013884	0.00151596	0.00119911	0.0010005	0.0010277	0.0627938	0.0141416	0.00814098	0.00172357	0.00105049	0.0010485	0.0351247	0.50137	0.11735	0.0451849	0.00223462	0.00102267	0.00208327	0.0361669	0.00103384	0.00110687	0.00113001	
3.265	0.00280274	0.00147286	0.00147114	0.00160169	0.00154203	0.00297016	0.00274905	0.00287831	0.00141435	0.00138138	0.00134373	0.00121313	0.00196544	0.00210627	0.00297486	0.0028816	0.0028146	0.00309139	0.00287842	0.00284492	0.0011869	0.00310268	0.00283922	0.00182083	0.00279444	0.00119134	0.00119131	0.00282847	0.00131167	0.00271723	0.0029309	0.00280785	0.00226037	0.00194393	0.00244934	0.00149871	0.00138435	0.00141335	0.00139406	0.00136473	0.00102641	0.0518977	0.336067	0.237705	0.215181	0.00102801	0.0558641	0.0157067	0.00107355	0.00102332	0.0715905	0.00211462	0.0571387	0.00102267	0.0251179	0.06123	0.021132	0.00122356	0.0013884	0.00151596	0.00112766	0.0010005	0.0010277	0.0607313	0.00846265	0.00903518	0.00174123	0.00105049	0.0010485	0.0357145	0.453358	0.113713	0.0447148	0.00212305	0.00102267	0.00148371	0.0395175	0.00103384	0.00110687	0.00113001	
3.27	0.00280274	0.00147286	0.00147114	0.00160169	0.00154203	0.00297016	0.00274905	0.00287831	0.00141435	0.00138138	0.00134373	0.00121313	0.00196544	0.00210627	0.00297486	0.0028816	0.0028146	0.00309139	0.00287842	0.00284492	0.0011869	0.00310268	0.00283922	0.00182083	0.00279444	0.00119134	0.00119131	0.00282847	0.00131167	0.00271723	0.0029309	0.00280785	0.00226037	0.00194393	0.00244934	0.00149871	0.00138435	0.00141335	0.00139406	0.00136473	0.00102475	0.0494027	0.437446	0.309993	0.266242	0.00102556	0.0546788	0.0155424	0.00107355	0.00102332	0.0751882	0.00227952	0.0557536	0.00102267	0.0249199	0.0603422	0.0210739	0.00121914	0.0013884	0.00151596	0.00109912	0.0010005	0.0010277	0.0587171	0.00513958	0.00997893	0.00176303	0.00105049	0.0010485	0.0370486	0.392518	0.110409	0.0442624	0.00216345	0.00102267	0.00121039	0.0428548	0.00103384	0.00110687	0.00113001	
3.275	0.00280274	0.00147286	0.00147114	0.00160169	0.00154203	0.00297016	0.00274905	0.00287831	0.00141435	0.00138138	0.00134373	0.00121313	0.00196544	0.00210627	0.00297486	0.0028816	0.0028146	0.00309139	0.00287842	0.00284492	0.0011869	0.00310268	0.00283922	0.00182083	0.00279444	0.00119134	0.00119131	0.00282847	0.00131167	0.00271723	0.0029309	0.00280785	0.00226037	0.00194393	0.00244934	0.00149871	0.00138435	0.00141335	0.00139406	0.00136473	0.00102382	0.0446897	0.545731	0.38615	0.315026	0.00102422	0.0534795	0.0153729	0.00107355	0.00102332	0.0783015	0.00245522	0.054406	0.00102267	0.0253741	0.0604669	0.0211044	0.00121872	0.0013884	0.00151596	0.00108791	0.0010005	0.0010277	0.0567596	0.00326181	0.0109617	0.0017888	0.00105049	0.0010485	0.0393748	0.318498	0.107467	0.0438381	0.00232253	0.00102267	0.00109064	0.0460836	0.00103384	0.00110687	0.00113001	
3.28	0.00280274	0.00147286	0.00147114	0.00160169	0.00154203	0.00297016	0.00274905	0.00287831	0.00141435	0.00138138	0.00134373	0.00121313	0.00196544	0.00210627	0.00297486	0.0028816	0.0028146	0.00309139	0.00287842	0.00284492	0.0011869	0.00310268	0.00283922	0.00182083	0.00279444	0.00119134	0.00119131	0.00282847	0.00131167	0.00271723	0.0029309	0.00280785	0.00226037	0.00194393	0.00244934	0.00149871	0.00138435	0.00141335	0.00139406	0.00136473	0.0010233	0.0392729	0.654272	0.464516	0.357483	0.0010235	0.0522706	0.0151986	0.00107355	0.00102332	0.0808812	0.00263881	0.0531028	0.00102267	0.0264619	0.0615404	0.0212233	0.00121868	0.0013884	0.103877	0.00108357	0.0010005	0.0010277	0.0548613	0.00222663	0.0119702	0.00181813	0.00105049	0.0010485	0.0421862	0.239406	0.104905	0.0434518	0.00256602	0.00102267	0.00103959	0.049108	0.00103384	0.00110687	0.00113001	
3.285	0.00280274	0.00147286	0.00147114	0.00160169	0.00154203	0.00297016	0.00274905	0.00287831	0.00141435	0.00138138	0.00134373	0.00121313	0.00196544	0.00210627	0.00297486	0.0028816	0.0028146	0.00309139	0.00287842	0.00284492	0.0011869	0.00310268	0.00283922	0.00182083	0.00279444	0.00119134	0.00119131	0.00282847	0.00131167	0.00271723	0.0029309	0.00280785	0.00226037	0.00194393	0.00244934	0.00149871	0.00138435	0.00141335	0.00139406	0.00136473	0.00102301	0.0350573	0.74808	0.546691	0.400153	0.00102312	0.0510557	0.01502	0.00107355	0.00102332	0.0828184	0.00282737	0.0518565	0.00102267	0.028049	0.0633427	0.02142	0.00121868	0.0013884	0.196271	0.0010819	0.0010005	0.0010277	0.0530195	0.00166636	0.0129851	0.00185045	0.00105049	0.00105326	0.0441364	0.189217	0.102819	0.0431139	0.00286671	0.00102267	0.00101826	0.0518378	0.00103439	0.00110687	0.00113001	
3.29	0.00280274	0.00147286	0.00147114	0.00160169	0.00154203	0.00297016	0.00274905	0.00287831	0.00141435	0.00138138	0.00134373	0.00121313	0.00196544	0.00210627	0.00297486	0.0028816	0.0028146	0.00309139	0.00287842	0.00284492	0.0011869	0.00310268	0.00283922	0.00182083	0.00279444	0.00119134	0.00119131	0.00282847	0.00131167	0.00271723	0.0029309	0.00280785	0.00226037	0.00194393	0.00244934	0.00149871	0.00138435	0.00141335	0.00139406	0.00136473	0.00102286	0.0315469	0.82444	0.62353	0.437676	0.00102291	0.0498382	0.0148373	0.00107355	0.00102332	0.0842022	0.00301801	0.0506808	0.00102267	0.0299419	0.0655768	0.0216761	0.00121868	0.0013884	0.248855	0.00108127	0.0010005	0.0010277	0.0512276	0.00136741	0.0139957	0.00188503	0.00105049	0.00104983	0.0446592	0.175444	0.101468	0.0428305	0.00319726	0.00102267	0.00100949	0.0541969	0.00104231	0.00110687	0.00113001	
3.295	0.00280274	0.00147286	0.00147114	0.00160169	0.00154203	0.00297016	0.00274905	0.00287831	0.00141435	0.00138138	0.00134373	0.00121313	0.00196544	0.00210627	0.00297486	0.0028816	0.0028146	0.00309139	0.00287842	0.00284492	0.0011869	0.00310268	0.00283922	0.00182083	0.00279444	0.00119134	0.00119131	0.00282847	0.00131167	0.00271723	0.0029309	0.00280785	0.00226037	0.00194393	0.00244934	0.00149871	0.00138435	0.00141335	0.00139406	0.00136473	0.00102277	0.0281649	0.883432	0.692865	0.461255	0.00102279	0.048621	0.0146507	0.00107355	0.00102332	0.0848307	0.00320695	0.049588	0.00102267	0.0319082	0.0679045	0.0219669	0.00121868	0.0013884	0.275794	0.00108103	0.0010005	0.0010277	0.0494768	0.00120969	0.0149665	0.00192108	0.00105049	0.00104878	0.0441681	0.187721	0.10127	0.042598	0.00352508	0.00102267	0.00100592	0.0561267	0.00106539	0.00110687	0.00113001	
3.3	0.00280274	0.00147286	0.00147114	0.00160169	0.00154203	0.00297016	0.00274905	0.00287831	0.00141435	0.00138138	0.00134373	0.00121313	0.00196544	0.00210627	0.00297486	0.0028816	0.0028146	0.00309139	0.00287842	0.00284492	0.0011869	0.00310268	0.00283922	0.00182083	0.00279444	0.00119134	0.00119131	0.00282847	0.00131167	0.00271723	0.0029309	0.00280785	0.00226037	0.00194393	0.00244934	0.00149871	0.00138435	0.00141335	0.00139406	0.00136473	0.00102272	0.0246029	0.920365	0.753751	0.466841	0.00102274	0.0474265	0.0144606	0.00107355	0.00102332	0.0848977	0.00339129	0.0485924	0.00102267	0.0337266	0.0700151	0.0222663	0.00121868	0.0013884	0.28709	0.00108094	0.0010005	0.0010277	0.0477589	0.00112725	0.0158821	0.00195776	0.00105049	0.00104855	0.0428412	0.22072	0.102967	0.0424054	0.00383308	0.00102267	0.00100449	0.0575898	0.00108095	0.00110687	0.00113001	
3.305	0.00280274	0.00147286	0.00147114	0.00160169	0.00154203	0.00297016	0.00274905	0.00287831	0.00141435	0.00138138	0.00134373	0.00121313	0.00196544	0.00210627	0.00297486	0.0028816	0.0028146	0.00309139	0.00287842	0.00284492	0.0011869	0.00310268	0.00283922	0.00182083	0.00279444	0.00119134	0.00119131	0.00282847	0.00131167	0.00271723	0.0029309	0.00280785	0.00226037	0.00194393	0.00244934	0.00149871	0.00138435	0.00141335	0.00139406	0.00136473	0.0010227	0.020261	0.913979	0.79198	0.446465	0.0010227	0.0463156	0.014267	0.00107355	0.00102332	0.0844627	0.00356876	0.047707	0.00102267	0.0351866	0.0716219	0.0225472	0.00121868	0.0013884	0.259419	0.0010809	0.0010005	0.0010277	0.0460676	0.00108448	0.0167292	0.00199421	0.00105049	0.00104851	0.0409645	0.26569	0.106118	0.042231	0.00411264	0.00102267	0.00100392	0.0585715	0.00109081	0.00110687	0.00113001	
3.31	0.00280274	0.00147286	0.00147114	0.00160169	0.00154203	0.00297016	0.00274905	0.00287831	0.00141435	0.00138138	0.00134373	0.00121313	0.00196544	0.00210627	0.00297486	0.0028816	0.0028146	0.00309139	0.00287842	0.00284492	0.0011869	0.00310268	0.00283922	0.00182083	0.00279444	0.00119134	0.00119131	0.00282847	0.00131167	0.00271723	0.0029309	0.00280785	0.00226037	0.00194393	0.00244934	0.00149871	0.00138435	0.00141335	0.00139406	0.00136473	0.00102268	0.0144688	0.892212	0.773939	0.429003	0.00102269	0.0452951	0.0140701	0.00107355	0.00102332	0.0835914	0.00373719	0.0469498	0.00102267	0.0363006	0.072732	0.0228045	0.00121868	0.0013884	0.296447	0.00108089	0.0010005	0.0010277	0.0443989	0.00106244	0.0174968	0.00202964	0.00105049	0.0010485	0.0386449	0.283464	0.110025	0.0420664	0.00435947	0.00102267	0.00100369	0.0590786	0.00109638	0.00110687	0.00113001	
3.315	0.00280274	0.00147286	0.00147114	0.00160169	0.00154203	0.00297016	0.00274905	0.00287831	0.00141435	0.00138138	0.00134373	0.00121313	0.00196544	0.00210627	0.00297486	0.0028816	0.0028146	0.00309139	0.00287842	0.00284492	0.0011869	0.00310268	0.00283922	0.00182083	0.00279444	0.00119134	0.00119131	0.00282847	0.00131167	0.00271723	0.0029309	0.00280785	0.00226037	0.00194393	0.00244934	0.00149871	0.00138435	0.00141335	0.00139406	0.00136473	0.00102268	0.0097114	0.871263	0.743441	0.427662	0.00102268	0.0443552	0.01387	0.00107355	0.00102332	0.0823597	0.00389429	0.0463398	0.00102267	0.0371312	0.0734189	0.0230396	0.00121868	0.0013884	0.342755	0.00108089	0.0010005	0.0010277	0.0427509	0.00105115	0.0181764	0.0020633	0.00105049	0.0010485	0.0360884	0.28226	0.114289	0.0419075	0.00457274	0.00102267	0.0010036	0.0591376	0.00109877	0.00110687	0.00113001	
3.32	0.00280274	0.00147286	0.00147114	0.00160169	0.00154203	0.00297016	0.00274905	0.00287831	0.00141435	0.00138138	0.00134373	0.00121313	0.00196544	0.00210627	0.00297486	0.0028816	0.0028146	0.00309139	0.00287842	0.00284492	0.0011869	0.00310268	0.00283922	0.00182083	0.00279444	0.00119134	0.00119131	0.00282847	0.00131167	0.00271723	0.0029309	0.00280785	0.00226037	0.00194393	0.00244934	0.00149871	0.00138435	0.00141335	0.00139406	0.00136473	0.00102267	0.00637641	0.84184	0.702393	0.432713	0.00102267	0.0434833	0.013667	0.00107355	0.00102332	0.08088	0.00403907	0.0458911	0.00102267	0.0377113	0.0737223	0.0232511	0.00121868	0.0013884	0.391761	0.00108088	0.0010005	0.0010277	0.0411242	0.00104538	0.0187629	0.00209456	0.00105049	0.0010485	0.0334424	0.278927	0.118552	0.0417477	0.00475109	0.00102267	0.00100356	0.0587881	0.00109886	0.00110687	0.00113001	
3.325	0.00280274	0.00147286	0.00147114	0.00160169	0.00154203	0.00297016	0.00274905	0.00287831	0.00141435	0.00138138	0.00134373	0.00121313	0.00196544	0.00210627	0.00297486	0.0028816	0.0028146	0.00309139	0.00287842	0.00284492	0.0011869	0.00310268	0.00283922	0.00182083	0.00279444	0.00119134	0.00119131	0.00282847	0.00131167	0.00271723	0.0029309	0.00280785	0.00226037	0.00194393	0.00244934	0.00149871	0.00138435	0.00141335	0.00139406	0.00136473	0.00102267	0.00421774	0.795693	0.652373	0.436572	0.00102267	0.042668	0.0134615	0.00107355	0.00102332	0.0792455	0.00417048	0.0456071	0.00102267	0.0380658	0.0736803	0.0234382	0.00121868	0.0013884	0.438002	0.00108088	0.0010005	0.0010277	0.0395222	0.00104246	0.019255	0.00212293	0.00105049	0.0010485	0.0308526	0.273761	0.122531	0.0415802	0.00488986	0.00102267	0.00100355	0.0580884	0.00109731	0.00110687	0.00113001	
3.33	0.00280274	0.00147286	0.00147114	0.00160169	0.00154203	0.00297016	0.00274905	0.00287831	0.00141435	0.00138138	0.00134373	0.00121313	0.00196544	0.00210627	0.00297486	0.0028816	0.0028146	0.00309139	0.00287842	0.00284492	0.0011869	0.00310268	0.00283922	0.00182083	0.00279444	0.00119134	0.00119131	0.00282847	0.00131167	0.00271723	0.0029309	0.00280785	0.00226037	0.00194393	0.00244934	0.00149871	0.00138435	0.00141335	0.00139406	0.00136473	0.00102267	0.0028862	0.738699	0.599895	0.436275	0.00102267	0.0418989	0.0132539	0.00107355	0.00102332	0.0774887	0.00428766	0.0454907	0.00102267	0.0382311	0.0733383	0.0236013	0.00121868	0.0013884	0.476572	0.00108088	0.0010005	0.0010277	0.0379488	0.00104097	0.0196542	0.00214794	0.00105049	0.0010485	0.0280704	0.26242	0.126008	0.0413988	0.00498714	0.00102267	0.00100354	0.0570825	0.00109465	0.00110687	0.00113001	
3.335	0.00280274	0.00147286	0.00147114	0.00160169	0.00154203	0.00297016	0.00274905	0.00287831	0.00141435	0.00138138	0.00134373	0.00121313	0.00196544	0.00210627	0.00297486	0.0028816	0.0028146	0.00309139	0.00287842	0.00284492	0.0011869	0.00310268	0.00283922	0.00182083	0.00279444	0.00119134	0.00119131	0.00282847	0.00131167	0.00271723	0.0029309	0.00280785	0.00226037	0.00194393	0.00244934	0.00149871	0.00138435	0.00141335	0.00139406	0.00136473	0.00102267	0.00209094	0.677276	0.547511	0.428965	0.00102267	0.0411644	0.0130451	0.00107355	0.00102332	0.0756627	0.00439054	0.0455324	0.00102267	0.038236	0.0727416	0.0237415	0.00121868	0.0013884	0.502343	0.00108088	0.0010005	0.0010277	0.0364122	0.00104023	0.0199643	0.00216928	0.00105049	0.0010485	0.0253124	0.242162	0.128807	0.0411982	0.00503677	0.00102267	0.00100354	0.0558305	0.00109126	0.00110687	0.00113001	
3.34	0.00280274	0.00147286	0.00147114	0.00160169	0.00154203	0.00297016	0.00274905	0.00287831	0.00141435	0.00138138	0.00134373	0.00121313	0.00196544	0.00210627	0.00297486	0.0028816	0.0028146	0.00309139	0.00287842	0.00284492	0.0011869	0.00310268	0.00283922	0.00182083	0.00279444	0.00119134	0.00119131	0.00282847	0.00131167	0.00271723	0.0029309	0.00280785	0.00226037	0.00194393	0.00244934	0.00149871	0.00138435	0.00141335	0.00139406	0.00136473	0.00102267	0.00162686	0.613565	0.493566	0.412347	0.00102267	0.0404525	0.0128359	0.00107355	0.00102332	0.0738939	0.00447929	0.0457114	0.00102267	0.0381032	0.0719316	0.0238601	0.00121868	0.0013884	0.513914	0.00108088	0.0010005	0.0010277	0.0350654	0.00103985	0.0201907	0.00218674	0.00105049	0.0010485	0.0225347	0.209251	0.130754	0.0409731	0.00503814	0.00102267	0.00100354	0.0543871	0.00108744	0.00110687	0.00113001	
3.345	0.00280274	0.00147286	0.00147114	0.00160169	0.00154203	0.00297016	0.00274905	0.00287831	0.00141435	0.00138138	0.00134373	0.00121313	0.00196544	0.00210627	0.00297486	0.0028816	0.0028146	0.00309139	0.00287842	0.00284492	0.0011869	0.00310268	0.00283922	0.00182083	0.00279444	0.00119134	0.00119131	0.00282847	0.00131167	0.00271723	0.0029309	0.00280785	0.00226037	0.00194393	0.00244934	0.00149871	0.00138435	0.00141335	0.00139406	0.00136473	0.00102267	0.0013607	0.547989	0.436732	0.385438	0.00102267	0.0397508	0.0126276	0.00107355	0.00102332	0.0721088	0.00455392	0.0459941	0.00102267	0.0378531	0.0709468	0.0239589	0.00121868	0.0013884	0.511725	0.00108088	0.0010005	0.0010277	0.0340126	0.00103966	0.0203381	0.00220016	0.00105049	0.0010485	0.0197764	0.154974	0.131703	0.040718	0.00499818	0.00102267	0.00100354	0.052801	0.00141635	0.00162025	0.00113001	
3.35	0.00280274	0.00147286	0.00147114	0.00160169	0.00154203	0.00297016	0.00274905	0.00287831	0.00141435	0.00138138	0.00134373	0.00121313	0.00196544	0.00210627	0.00297486	0.0028816	0.0028146	0.00309139	0.00287842	0.00284492	0.0011869	0.00310268	0.00283922	0.00182083	0.00279444	0.00119134	0.00119131	0.00282847	0.00131167	0.00271723	0.0029309	0.00280785	0.00226037	0.00194393	0.00244934	0.00149871	0.00138435	0.00141335	0.00139406	0.00136473	0.00102267	0.00121012	0.487756	0.383673	0.354794	0.00102267	0.0390495	0.0124217	0.00107355	0.00102332	0.0699994	0.00461395	0.0463396	0.00102267	0.0375122	0.0698338	0.0240408	0.00121868	0.0013884	0.487332	0.00108088	0.0010005	0.0010277	0.0330998	0.00103957	0.0204012	0.00220943	0.00105049	0.0010485	0.0171202	0.0668113	0.131591	0.04043	0.0049292	0.00102267	0.00100354	0.0511006	0.00201323	0.0135818	0.00113001	
3.355	0.00280274	0.00147286	0.00147114	0.00160169	0.00154203	0.00297016	0.00274905	0.00287831	0.00141435	0.00138138	0.00134373	0.00121313	0.00196544	0.00210627	0.00297486	0.0028816	0.0028146	0.00309139	0.00287842	0.00284492	0.0011869	0.00310268	0.00283922	0.00182083	0.00279444	0.00119134	0.00119131	0.00282847	0.00131167	0.00271723	0.0029309	0.00280785	0.00226037	0.00194393	0.00244934	0.00149871	0.00138435	0.00141335	0.00139406	0.00136473	0.00102267	0.00112585	0.43109	0.332587	0.32095	0.00102267	0.0383393	0.01222	0.00107355	0.00102332	0.0675147	0.00465879	0.0466993	0.00102267	0.0371057	0.0686342	0.0241088	0.00121868	0.0013884	0.45387	0.00108088	0.0010005	0.0010277	0.0322041	0.00103952	0.0203715	0.00221473	0.00105049	0.0010485	0.0146284	0.0249812	0.130405	0.0401068	0.00482733	0.00102267	0.00100354	0.0493035	0.00282102	0.114416	0.001816	
3.36	0.00280274	0.00147286	0.00147114	0.00160169	0.00154203	0.00297016	0.00274905	0.00287831	0.00141435	0.00138138	0.00134373	0.00121313	0.00196544	0.00210627	0.00297486	0.0028816	0.0028146	0.00309139	0.00287842	0.00284492	0.0011869	0.00310268	0.00283922	0.00182083	0.00279444	0.00119134	0.00119131	0.00282847	0.00131167	0.00271723	0.0029309	0.00280785	0.00226037	0.00194393	0.00244934	0.00149871	0.00138435	0.00141335	0.00139406	0.00136473	0.00102267	0.00107911	0.37751	0.282883	0.285436	0.00102267	0.0376131	0.0120248	0.00107355	0.00102332	0.0649538	0.0046882	0.0470239	0.00102267	0.0366594	0.0673871	0.0241662	0.00121868	0.0013884	0.397178	0.00108088	0.0010005	0.0010277	0.0312373	0.0010395	0.0202448	0.00221663	0.00105049	0.0010485	0.0123436	0.00931058	0.128203	0.0397479	0.00473564	0.00102267	0.00100354	0.047428	0.00378714	0.325394	0.00361575	
3.365	0.00280274	0.00147286	0.00147114	0.00160169	0.00154203	0.00297016	0.00274905	0.00287831	0.00141435	0.00138138	0.00134373	0.00121313	0.00196544	0.00210627	0.00297486	0.0028816	0.0028146	0.00309139	0.00287842	0.00284492	0.0011869	0.00310268	0.00283922	0.00182083	0.00279444	0.00119134	0.00119131	0.00282847	0.00131167	0.00271723	0.0029309	0.00280785	0.00226037	0.00194393	0.00244934	0.00149871	0.00138435	0.00141335	0.00139406	0.00136473	0.00102267	0.00105338	0.327167	0.236084	0.249499	0.00102267	0.0368645	0.0118384	0.00107355	0.00102332	0.0623229	0.00470238	0.0472534	0.00102267	0.0362037	0.0661307	0.0242166	0.00121868	0.0013884	0.345925	0.00108088	0.0010005	0.0010277	0.0301172	0.00103949	0.0200239	0.00221561	0.00105049	0.0010485	0.0103136	0.00397392	0.125131	0.0393537	0.00463821	0.00102267	0.00100354	0.0454986	0.00486368	0.491413	0.00665113	
3.37	0.00280274	0.00147286	0.00147114	0.00160169	0.00154203	0.00297016	0.00274905	0.00287831	0.00141435	0.00138138	0.00134373	0.00121313	0.00196544	0.00210627	0.00297486	0.0028816	0.0028146	0.00309139	0.00287842	0.00284492	0.0011869	0.00310268	0.00283922	0.00182083	0.00279444	0.00119134	0.00119131	0.00282847	0.00131167	0.00271723	0.0029309	0.00280785	0.00226037	0.00194393	0.00244934	0.00149871	0.00138435	0.00141335	0.00139406	0.00136473	0.00102267	0.0010393	0.28104	0.192609	0.214373	0.00102267	0.0360946	0.0116636	0.00107355	0.00102332	0.0597807	0.0047018	0.0473156	0.00102267	0.0357708	0.0649001	0.0242633	0.00121868	0.0013884	0.303815	0.00108088	0.0010005	0.0010277	0.0288243	0.00103948	0.0197171	0.00221209	0.00105049	0.0010485	0.00856583	0.00223741	0.121386	0.0389245	0.00456828	0.00102267	0.00100354	0.0435425	0.00600765	0.643726	0.0108927	
3.375	0.00280274	0.00147286	0.00147114	0.00160169	0.00154203	0.00297016	0.00274905	0.00287831	0.00141435	0.00138138	0.00134373	0.00121313	0.00196544	0.00210627	0.00297486	0.0028816	0.0028146	0.00309139	0.00287842	0.00284492	0.0011869	0.00310268	0.00283922	0.00182083	0.00279444	0.00119134	0.00119131	0.00282847	0.00131167	0.00271723	0.0029309	0.00280785	0.00226037	0.00194393	0.00244934	0.00149871	0.00138435	0.00141335	0.00139406	0.00136473	0.00102267	0.00103164	0.240446	0.153752	0.181198	0.00102267	0.0353076	0.0115035	0.00107355	0.00102332	0.0573882	0.00468719	0.0471305	0.00102267	0.0353923	0.0637265	0.0243092	0.00121868	0.0013884	0.282907	0.00108088	0.0010005	0.0010277	0.0274171	0.00103948	0.0193363	0.00220645	0.00105049	0.0010485	0.00711379	0.00168564	0.117135	0.038461	0.00451185	0.00102267	0.00100354	0.0415877	0.00718205	0.76735	0.0162338	
3.38	0.00280274	0.00147286	0.00147114	0.00160169	0.00154203	0.00297016	0.00274905	0.00287831	0.00141435	0.00138138	0.00134373	0.00121313	0.00196544	0.00210627	0.00297486	0.0028816	0.0028146	0.00309139	0.00287842	0.00284492	0.0011869	0.00310268	0.00283922	0.00182083	0.00279444	0.00119134	0.00119131	0.00282847	0.00131167	0.00271723	0.0029309	0.00280785	0.00226037	0.00194393	0.00244934	0.00149871	0.00138435	0.00141335	0.00139406	0.00136473	0.00102267	0.00102749	0.207023	0.121756	0.151351	0.00102267	0.0345073	0.0113616	0.00107355	0.00102332	0.055158	0.00465944	0.0466855	0.00102267	0.0351008	0.0626392	0.0243569	0.00121868	0.0013884	0.291451	0.00108088	0.0010005	0.0010277	0.0259421	0.00103948	0.0188948	0.00219904	0.00105049	0.0010485	0.00595694	0.00151261	0.112519	0.0379642	0.00450603	0.00102267	0.00100354	0.0396598	0.00835322	0.883721	0.0225258	
3.385	0.00280274	0.00147286	0.00147114	0.00160169	0.00154203	0.00297016	0.00274905	0.00287831	0.00141435	0.00138138	0.00134373	0.00121313	0.00196544	0.00210627	0.00297486	0.0028816	0.0028146	0.00309139	0.00287842	0.00284492	0.0011869	0.00310268	0.00283922	0.00182083	0.00279444	0.00119134	0.00119131	0.00282847	0.00131167	0.00271723	0.0029309	0.00280785	0.00226037	0.00194393	0.00244934	0.00149871	0.00138435	0.00141335	0.00139406	0.00136473	0.00102267	0.00102525	0.181907	0.0983514	0.126419	0.00102267	0.0336974	0.0112412	0.00107355	0.00102332	0.0530696	0.00461957	0.0460229	0.00102267	0.0349337	0.0616683	0.0244089	0.00121868	0.0013884	0.333028	0.00108088	0.0010005	0.0010277	0.0244366	0.00103947	0.018405	0.00219014	0.00105049	0.0010485	0.0050849	0.00145876	0.107654	0.0374349	0.00454427	0.00102267	0.00100354	0.0377796	0.00949167	0.988263	0.0296282	
3.39	0.00280274	0.00147286	0.00147114	0.00160169	0.00154203	0.00297016	0.00274905	0.00287831	0.00141435	0.00138138	0.00134373	0.00121313	0.00196544	0.00210627	0.00297486	0.0028816	0.0028146	0.00309139	0.00287842	0.00284492	0.0011869	0.00310268	0.00283922	0.00182083	0.00279444	0.00119134	0.00119131	0.00282847	0.00131167	0.00271723	0.0029309	0.00280785	0.00226037	0.00194393	0.00244934	0.00149871	0.00138435	0.00141335	0.00139406	0.00136473	0.00102267	0.00102405	0.165506	0.0840184	0.106823	0.00102267	0.0328809	0.0111462	0.00107355	0.00102332	0.051071	0.00456865	0.0451797	0.00102267	0.0349368	0.0608465	0.0244668	0.00121868	0.0013884	0.406856	0.00108088	0.0010005	0.0010277	0.0229296	0.00103947	0.017878	0.00218001	0.00105049	0.0010485	0.00448084	0.00144208	0.102637	0.036876	0.00466267	0.00102267	0.00100354	0.0359626	0.0105722	0.998302	0.0373612	
3.395	0.00280274	0.00147286	0.00147114	0.00160169	0.00154203	0.00297016	0.00274905	0.00287831	0.00141435	0.00138138	0.00134373	0.00121313	0.00196544	0.00210627	0.00297486	0.0028816	0.0028146	0.00309139	0.00287842	0.00284492	0.0011869	0.00310268	0.00283922	0.00182083	0.00279444	0.00119134	0.00119131	0.00282847	0.00131167	0.00271723	0.0029309	0.00280785	0.00226037	0.00194393	0.00244934	0.00149871	0.00138435	0.00141335	0.00139406	0.00136473	0.00102267	0.0010234	0.156097	0.0775881	0.0909747	0.00102267	0.0320608	0.0110802	0.00107355	0.00102332	0.0491183	0.00450768	0.0441888	0.00102267	0.0351554	0.0602006	0.0245316	0.00121868	0.0013884	0.499811	0.00108088	0.0010005	0.0010277	0.0214436	0.00103947	0.0173221	0.00216889	0.00105049	0.0010485	0.00409043	0.00143692	0.0975486	0.0362967	0.00485319	0.00102267	0.00100354	0.0342177	0.0115742	0.999047	0.0453448	
3.4	0.00280274	0.00147286	0.00147114	0.00160169	0.00154203	0.00297016	0.00274905	0.00287831	0.00141435	0.00138138	0.00134373	0.00121313	0.00196544	0.00210627	0.00297486	0.0028816	0.0028146	0.00309139	0.00287842	0.00284492	0.0011869	0.00310268	0.00283922	0.00182083	0.00279444	0.00119134	0.00119131	0.00282847	0.00131167	0.00271723	0.0029309	0.00280785	0.00226037	0.00194393	0.00244934	0.00149871	0.00138435	0.00141335	0.00139406	0.00136473	0.00102267	0.00102306	0.157882	0.0818303	0.0841849	0.00102267	0.0312396	0.011047	0.00107355	0.00102332	0.0471775	0.0044377	0.0430787	0.00102267	0.0356437	0.0597688	0.0246049	0.00121868	0.0013884	0.596527	0.00108088	0.0010005	0.0010277	0.0199957	0.00103947	0.0167444	0.00215697	0.00105049	0.00107319	0.00387582	0.00143533	0.0924535	0.0357106	0.00517297	0.00102267	0.00100354	0.03255	0.0124834	0.999096	0.0533225	
3.405	0.00280274	0.00147286	0.00147114	0.00160169	0.00154203	0.00297016	0.00274905	0.00287831	0.00141435	0.00138138	0.00134373	0.00121313	0.00196544	0.00210627	0.00297486	0.0028816	0.0028146	0.00309139	0.00287842	0.00284492	0.0011869	0.00310268	0.00283922	0.00182083	0.00279444	0.00119134	0.00119131	0.00282847	0.00131167	0.00271723	0.0029309	0.00280785	0.00226037	0.00194393	0.00244934	0.00149871	0.00138435	0.00141335	0.00139406	0.00136473	0.00102267	0.00102287	0.180834	0.10179	0.0978802	0.00102267	0.0304198	0.0110143	0.00107355	0.00102332	0.0451567	0.00435934	0.0418745	0.00102267	0.0364863	0.0596235	0.0246903	0.00121868	0.0013884	0.684874	0.00108088	0.0010005	0.0010277	0.0185985	0.00103947	0.016145	0.00214444	0.00105049	0.00143956	0.00375666	0.00143484	0.087405	0.0351396	0.00556094	0.00102267	0.00100354	0.0309532	0.013288	0.9991	0.0609219	
3.41	0.00280274	0.00147286	0.00147114	0.00160169	0.00154203	0.00297016	0.00274905	0.00287831	0.00141435	0.00138138	0.00134373	0.00121313	0.00196544	0.00210627	0.00297486	0.0028816	0.0028146	0.00309139	0.00287842	0.00284492	0.0011869	0.00310268	0.00283922	0.00182083	0.00279444	0.00119134	0.00119131	0.00282847	0.00131167	0.00271723	0.0029309	0.00280785	0.00226037	0.00194393	0.00244934	0.00149871	0.00138435	0.00141335	0.00139406	0.00136473	0.00102267	0.00102278	0.224564	0.134094	0.132965	0.00102267	0.0296329	0.0109859	0.00107355	0.00102332	0.0430513	0.00427329	0.0405979	0.00102267	0.0377343	0.0598256	0.0247919	0.00121868	0.0709839	0.74862	0.00108088	0.0010005	0.0010277	0.0172609	0.00103947	0.0155256	0.00213143	0.00105049	0.00180536	0.00369319	0.00143469	0.0824454	0.0346089	0.006039	0.00102267	0.00100354	0.0294218	0.0139851	0.9991	0.067752	
3.415	0.00280274	0.00147286	0.00147114	0.00160169	0.00154203	0.00297016	0.00274905	0.00287831	0.00141435	0.00138138	0.00134373	0.00121313	0.00196544	0.00210627	0.00297486	0.0028816	0.0028146	0.00309139	0.00287842	0.00284492	0.0011869	0.00310268	0.00283922	0.00182083	0.00279444	0.00119134	0.00119131	0.00282847	0.00131167	0.00271723	0.0029309	0.00280785	0.00226037	0.00194393	0.00244934	0.00149871	0.00138435	0.00141335	0.00139406	0.00136473	0.00102267	0.00102273	0.276648	0.169389	0.177577	0.00102267	0.0289235	0.0109758	0.00107355	0.00102332	0.0408496	0.00418018	0.0392679	0.00102267	0.0393729	0.0603818	0.0249114	0.00121868	0.164818	0.791088	0.00108088	0.0010005	0.0010277	0.0161232	0.00103947	0.0148875	0.00211809	0.00105049	0.00125194	0.00366869	0.00143464	0.0776764	0.0341406	0.00663028	0.00102267	0.00100354	0.0279493	0.0145774	0.9991	0.0735338	
3.42	0.00280274	0.00147286	0.00147114	0.00160169	0.00154203	0.00297016	0.00274905	0.00287831	0.00141435	0.00138138	0.00134373	0.00121313	0.00196544	0.00210627	0.00297486	0.0028816	0.0028146	0.00309139	0.00287842	0.00284492	0.0011869	0.00310268	0.00283922	0.00182083	0.00279444	0.00119134	0.00119131	0.00282847	0.00131167	0.00271723	0.0029309	0.00280785	0.00226037	0.00194393	0.00244934	0.00149871	0.00138435	0.00141335	0.00139406	0.00136473	0.00102267	0.0010227	0.326063	0.20171	0.221216	0.00102267	0.0283257	0.0109948	0.00107355	0.00102332	0.0385258	0.00408043	0.037901	0.00102267	0.0413394	0.0612537	0.0250475	0.00121868	0.244253	0.818642	0.00108088	0.0010005	0.0010277	0.0154712	0.00104085	0.01423	0.00210452	0.00105049	0.00109052	0.00367284	0.00143463	0.0733759	0.0337508	0.00726503	0.00102267	0.00100354	0.0265253	0.0150758	0.9991	0.0781617	
3.425	0.00280274	0.00147286	0.00147114	0.00160169	0.00154203	0.00297016	0.00274905	0.00287831	0.00141435	0.00138138	0.00134373	0.00121313	0.00196544	0.00210627	0.00297486	0.0028816	0.0028146	0.00309139	0.00287842	0.00284492	0.0011869	0.00310268	0.00283922	0.00182083	0.00279444	0.00119134	0.00119131	0.00282847	0.00131167	0.00271723	0.0029309	0.00280785	0.00226037	0.00194393	0.00244934	0.00149871	0.00138435	0.00141335	0.00139406	0.00136473	0.00102267	0.00102268	0.368206	0.229814	0.259262	0.00102267	0.0278634	0.0110523	0.00107355	0.00102332	0.0360628	0.00397449	0.0365113	0.00102267	0.0435451	0.0623805	0.0251984	0.00121868	0.32192	0.834506	0.00108088	0.0010005	0.0010277	0.0154733	0.00106206	0.0135535	0.00209084	0.00105049	0.00173443	0.00368251	0.00143462	0.0696809	0.0334513	0.00796565	0.00102267	0.00100354	0.0251409	0.0154963	0.9991	0.0816397	
3.43	0.00280274	0.00147286	0.00147114	0.00160169	0.00154203	0.00297016	0.00274905	0.00287831	0.00141435	0.00138138	0.00134373	0.00121313	0.00196544	0.00210627	0.00297486	0.0028816	0.0028146	0.00309139	0.00287842	0.00284492	0.0011869	0.00310268	0.00283922	0.00182083	0.00279444	0.00119134	0.00119131	0.00282847	0.00131167	0.00271723	0.0029309	0.00280785	0.00226037	0.00194393	0.00244934	0.00149871	0.00138435	0.00141335	0.00139406	0.00136473	0.00102267	0.00102268	0.402092	0.254015	0.290894	0.00102267	0.0275497	0.0111564	0.00107355	0.00102332	0.033441	0.0038627	0.0351108	0.00102267	0.0458946	0.0636953	0.0253624	0.00121868	0.378814	0.840133	0.00108088	0.0010005	0.0010277	0.0161866	0.00116008	0.0128579	0.00207713	0.00105049	0.00197487	0.00367532	0.00143462	0.0666309	0.0332496	0.00872013	0.00102267	0.00100354	0.0237858	0.0158613	0.9991	0.0840748	
3.435	0.00280274	0.00147286	0.00147114	0.00160169	0.00154203	0.00297016	0.00274905	0.00287831	0.00141435	0.00138138	0.00134373	0.00121313	0.00196544	0.00210627	0.00297486	0.0028816	0.0028146	0.00309139	0.00287842	0.00284492	0.0011869	0.00310268	0.00283922	0.00182083	0.00279444	0.00119134	0.00119131	0.00282847	0.00131167	0.00271723	0.0029309	0.00280785	0.00226037	0.00194393	0.00244934	0.00149871	0.00138435	0.00141335	0.00139406	0.00136473	0.00102267	0.00102267	0.427724	0.274762	0.316466	0.00102267	0.0273892	0.0113137	0.00107355	0.00102332	0.030613	0.00374531	0.0337101	0.00102267	0.0482962	0.0651322	0.0255382	0.00121868	0.420012	0.833912	0.00108088	0.0010005	0.0010277	0.0175843	0.00127195	0.0121425	0.00206345	0.00105049	0.00129347	0.00360253	0.00143462	0.064209	0.0331498	0.00949865	0.00102267	0.00100354	0.0224485	0.0161982	0.9991	0.0856288	
3.44	0.00280274	0.00147286	0.00147114	0.00160169	0.00154203	0.00297016	0.00274905	0.00287831	0.00141435	0.00138138	0.00134373	0.00121313	0.00196544	0.00210627	0.00297486	0.0028816	0.0028146	0.00309139	0.00287842	0.00284492	0.0011869	0.00310268	0.00283922	0.00182083	0.00279444	0.00119134	0.00119131	0.00282847	0.00131167	0.00271723	0.0029309	0.00280785	0.00226037	0.00194393	0.00244934	0.00149871	0.00138435	0.00141335	0.00139406	0.00136473	0.00102267	0.00102267	0.446003	0.292324	0.336743	0.00102267	0.0273798	0.0115294	0.00107355	0.00102332	0.0275276	0.00362253	0.0323178	0.00102267	0.0506675	0.0666296	0.0257241	0.00121868	0.447257	0.813955	0.00108088	0.0010005	0.0010277	0.0195888	0.00123369	0.0114067	0.00204988	0.00105049	0.0010988	0.00340287	0.00143462	0.0623673	0.0331529	0.0102863	0.00102267	0.00100354	0.0211173	0.0165382	0.9991	0.0864655	
3.445	0.00280274	0.00147286	0.00147114	0.00160169	0.00154203	0.00297016	0.00274905	0.00287831	0.00141435	0.00138138	0.00134373	0.00121313	0.00196544	0.00210627	0.00297486	0.0028816	0.0028146	0.00309139	0.00287842	0.00284492	0.0011869	0.00310268	0.00283922	0.00182083	0.00279444	0.00119134	0.00119131	0.00282847	0.00131167	0.00271723	0.0029309	0.00280785	0.00226037	0.00194393	0.00244934	0.00149871	0.00138435	0.00141335	0.00139406	0.00136473	0.00102267	0.00102267	0.458875	0.306681	0.352548	0.00102267	0.0275156	0.0118084	0.00107355	0.00102332	0.0241248	0.00349527	0.0309414	0.00102267	0.0529351	0.0681297	0.025919	0.00121868	0.459817	0.790778	0.00108088	0.0010005	0.0010277	0.0221084	0.00117181	0.0106462	0.00203646	0.00105049	0.00201772	0.00301917	0.00143462	0.0610445	0.0332585	0.0110722	0.00102267	0.00100354	0.0197747	0.0169148	0.98999	0.0866848	
3.45	0.00280274	0.00147286	0.00147114	0.00160169	0.00154203	0.00297016	0.00274905	0.00287831	0.00141435	0.00138138	0.00134373	0.00121313	0.00196544	0.00210627	0.00297486	0.0028816	0.0028146	0.00309139	0.00287842	0.00284492	0.0011869	0.00310268	0.00283922	0.00182083	0.00279444	0.00119134	0.00119131	0.00282847	0.00131167	0.00271723	0.0029309	0.00280785	0.00226037	0.00194393	0.00244934	0.00149871	0.00138435	0.00141335	0.00139406	0.00136473	0.00102267	0.00102267	0.468147	0.317328	0.364346	0.00102267	0.0277882	0.0121549	0.00107355	0.00102332	0.0203473	0.00336615	0.0295871	0.00102267	0.0550377	0.0695814	0.0261216	0.00121868	0.459378	0.770287	0.00108088	0.0010005	0.0010277	0.0250424	0.00126368	0.00985817	0.00202325	0.00105049	0.0013954	0.00252703	0.00143462	0.060171	0.0334647	0.011879	0.00102267	0.00100354	0.0184045	0.0173633	0.871284	0.0863346	
3.455	0.00280274	0.00147286	0.00147114	0.00160169	0.00154203	0.00297016	0.00274905	0.00287831	0.00141435	0.00138138	0.00134373	0.00121313	0.00196544	0.00210627	0.00297486	0.0028816	0.0028146	0.00309139	0.00287842	0.00284492	0.0011869	0.00310268	0.00283922	0.00182083	0.00279444	0.00119134	0.00119131	0.00282847	0.00131167	0.00271723	0.0029309	0.00280785	0.00226037	0.00194393	0.00244934	0.00149871	0.00138435	0.00141335	0.00139406	0.00136473	0.00102267	0.00102267	0.474266	0.323922	0.372402	0.00102267	0.0281881	0.0125721	0.00107355	0.00102332	0.0160002	0.00323729	0.0282639	0.00102267	0.0569268	0.0709405	0.0263307	0.00121868	0.446532	0.747603	0.00108088	0.0010005	0.0010277	0.028279	0.00131047	0.00903656	0.00201027	0.00105049	0.00112639	0.00203093	0.00143462	0.0596746	0.033768	0.0127348	0.00102267	0.00100354	0.0169853	0.0179194	0.750351	0.0854686	
3.46	0.00280274	0.00147286	0.00147114	0.00160169	0.00154203	0.00297016	0.00274905	0.00287831	0.00141435	0.00138138	0.00134373	0.00121313	0.00196544	0.00210627	0.00297486	0.0028816	0.0028146	0.00309139	0.00287842	0.00284492	0.0011869	0.00310268	0.00283922	0.00182083	0.00279444	0.00119134	0.00119131	0.00282847	0.00131167	0.00271723	0.0029309	0.00280785	0.00226037	0.00194393	0.00244934	0.00149871	0.00138435	0.00141335	0.00139406	0.00136473	0.00102267	0.00102267	0.476687	0.326283	0.376884	0.00102267	0.028706	0.0130618	0.00107355	0.00102332	0.0110837	0.00311032	0.0269938	0.00102267	0.0585696	0.0721724	0.0265452	0.00121868	0.421779	0.716936	0.00108088	0.0010005	0.0010277	0.0317039	0.00124689	0.00817697	0.00199756	0.00105049	0.0022042	0.00167254	0.00143462	0.0594918	0.034164	0.0136848	0.00102267	0.00100354	0.0154985	0.018615	0.637215	0.0841636	
3.465	0.00280274	0.00147286	0.00147114	0.00160169	0.00154203	0.00297016	0.00274905	0.00287831	0.00141435	0.00138138	0.00134373	0.00121313	0.00196544	0.00210627	0.00297486	0.0028816	0.0028146	0.00309139	0.00287842	0.00284492	0.0011869	0.00310268	0.00283922	0.00182083	0.00279444	0.00119134	0.00119131	0.00282847	0.00131167	0.00271723	0.0029309	0.00280785	0.00226037	0.00194393	0.00244934	0.00149871	0.00138435	0.00141335	0.00139406	0.00136473	0.00102267	0.00102267	0.474616	0.324229	0.377785	0.00102267	0.0293325	0.0136249	0.00107355	0.00102332	0.00528867	0.00298648	0.0257908	0.00102267	0.0599403	0.0732462	0.0267643	0.00121868	0.385212	0.673833	0.00108088	0.0010005	0.0010277	0.0352014	0.00117564	0.00730199	0.00198515	0.00105049	0.00136924	0.00151626	0.00143462	0.059571	0.0346468	0.014755	0.00102267	0.0223083	0.0139245	0.0194819	0.534113	0.0825164	
3.47	0.00280274	0.00147286	0.00147114	0.00160169	0.00154203	0.00297016	0.00274905	0.00287831	0.00141435	0.00138138	0.00134373	0.00121313	0.00196544	0.00210627	0.00297486	0.0028816	0.0028146	0.00309139	0.00287842	0.00284492	0.0011869	0.00310268	0.00283922	0.00182083	0.00279444	0.00119134	0.00119131	0.00282847	0.00131167	0.00271723	0.0029309	0.00280785	0.00226037	0.00194393	0.00244934	0.00149871	0.00138435	0.00141335	0.00139406	0.00136473	0.00102267	0.00102267	0.467519	0.318163	0.375208	0.00102267	0.0300587	0.0142607	0.0261045	0.00839	0.00208412	0.00286672	0.0246625	0.00102267	0.0610281	0.0741389	0.0269871	0.00121868	0.335231	0.624354	0.00108088	0.0010005	0.0010277	0.0386643	0.00118827	0.00646529	0.00197305	0.00105049	0.00111547	0.00159125	0.00143462	0.0598711	0.0352093	0.0159966	0.00102267	0.0586421	0.0123733	0.0205422	0.441488	0.0806445	
3.475	0.00280274	0.00147286	0.00147114	0.00160169	0.00154203	0.00297016	0.00274905	0.00287831	0.00141435	0.00138138	0.00134373	0.00121313	0.00196544	0.00210627	0.00297486	0.0028816	0.0028146	0.00309139	0.00287842	0.00284492	0.0011869	0.00310268	0.00283922	0.00182083	0.00279444	0.00119134	0.00119131	0.00282847	0.00131167	0.00271723	0.0029309	0.00280785	0.00226037	0.00194393	0.00244934	0.00149871	0.00138435	0.00141335	0.00139406	0.00136473	0.00102267	0.00102267	0.455253	0.308535	0.369279	0.00102267	0.0308761	0.0149673	0.066144	0.0274006	0.00135377	0.00275173	0.0236098	0.00102267	0.0618316	0.0748326	0.0272119	0.00121868	0.27681	0.584002	0.00108088	0.0010005	0.0010277	0.0419949	0.00116533	0.00569639	0.00196128	0.00105049	0.00106094	0.0018893	0.00143462	0.0603557	0.0358432	0.0174638	0.00102267	0.096574	0.0109107	0.0218093	0.373629	0.0786855	
3.48	0.00280274	0.00147286	0.00147114	0.00160169	0.00154203	0.00297016	0.00274905	0.00287831	0.00141435	0.00138138	0.00134373	0.00121313	0.00196544	0.00210627	0.00297486	0.0028816	0.0028146	0.00309139	0.00287842	0.00284492	0.0011869	0.00310268	0.00283922	0.00182083	0.00279444	0.00119134	0.00119131	0.00282847	0.00131167	0.00271723	0.0029309	0.00280785	0.00226037	0.00194393	0.00244934	0.00149871	0.00138435	0.00141335	0.00139406	0.00136473	0.00102267	0.00102267	0.415268	0.281248	0.336103	0.00102267	0.0317698	0.0157399	0.0712919	0.0319031	0.00121589	0.00264196	0.0226188	0.00102267	0.0623272	0.0752643	0.0274211	0.00121868	0.322068	0.561553	0.00108088	0.0010005	0.0010277	0.0449864	0.00112565	0.00500904	0.00194984	0.00105049	0.00194693	0.00339643	0.00143462	0.0609654	0.0365343	0.0192088	0.00102267	0.11642	0.00957262	0.0232846	0.540886	0.0772497	
3.485	0.00280274	0.00147286	0.00147114	0.00160169	0.00154203	0.00297016	0.00274905	0.00287831	0.00141435	0.00138138	0.00134373	0.00121313	0.00196544	0.00210627	0.00297486	0.0028816	0.0028146	0.00309139	0.00287842	0.00284492	0.0011869	0.00310268	0.00283922	0.00182083	0.00279444	0.00119134	0.00119131	0.00282847	0.00131167	0.00271723	0.0029309	0.00280785	0.00226037	0.00194393	0.00244934	0.00149871	0.00138435	0.00141335	0.00139406	0.00136473	0.00102267	0.00102267	0.372539	0.253318	0.298357	0.00102267	0.0327339	0.0165762	0.0597123	0.025606	0.00119175	0.00253772	0.0217189	0.00102267	0.0625648	0.0754647	0.0276182	0.00121868	0.351614	0.565942	0.00108088	0.0010005	0.0172065	0.047614	0.00109304	0.00440692	0.00193876	0.00105049	0.00129877	0.00423418	0.00143462	0.0616728	0.0372744	0.0212753	0.00102267	0.119206	0.00837497	0.0249569	0.486251	0.0761933	
3.49	0.00280274	0.00147286	0.00147114	0.00160169	0.00154203	0.00297016	0.00274905	0.00287831	0.00141435	0.00138138	0.00134373	0.00121313	0.00196544	0.00210627	0.00297486	0.0028816	0.0028146	0.00309139	0.00287842	0.00284492	0.0011869	0.00310268	0.00283922	0.00182083	0.00279444	0.00119134	0.00119131	0.00282847	0.00131167	0.00271723	0.0029309	0.00280785	0.00226037	0.00194393	0.00244934	0.00149871	0.00138435	0.00141335	0.00139406	0.00136473	0.00102267	0.00102267	0.333886	0.229309	0.261161	0.00102267	0.0337623	0.0174729	0.0273838	0.0115479	0.00118768	0.00243917	0.0209337	0.00102267	0.062602	0.0754742	0.0278068	0.00121868	0.40053	0.588576	0.00108088	0.0010005	0.0535562	0.049851	0.00107096	0.00388758	0.00192803	0.00105049	0.00110082	0.0049265	0.00143462	0.0624475	0.0380539	0.023708	0.00102267	0.108987	0.00732068	0.0268051	0.46063	0.0754911	
3.495	0.00280274	0.00147286	0.00147114	0.00160169	0.00154203	0.00297016	0.00274905	0.00287831	0.00141435	0.00138138	0.00134373	0.00121313	0.00196544	0.00210627	0.00297486	0.0028816	0.0028146	0.00309139	0.00287842	0.00284492	0.0011869	0.00310268	0.00283922	0.00182083	0.00279444	0.00119134	0.00119131	0.00282847	0.00131167	0.00271723	0.0029309	0.00280785	0.00226037	0.00194393	0.00244934	0.00149871	0.00138435	0.00141335	0.00139406	0.00136473	0.00102267	0.00102267	0.303704	0.211004	0.229638	0.00102267	0.0348489	0.018426	0.00356163	0.00362894	0.00381372	0.00234636	0.0202859	0.00102267	0.0624991	0.0753437	0.0279902	0.116922	0.423683	0.611941	0.00108088	0.0010005	0.0723294	0.0516886	0.00105732	0.0034451	0.00191765	0.00105049	0.00105822	0.00553439	0.00143462	0.0632601	0.038863	0.0265193	0.00102267	0.0860102	0.00642753	0.0287985	0.463636	0.075141	
3.5	0.00280274	0.00147286	0.00147114	0.00160169	0.00154203	0.00297016	0.00274905	0.00287831	0.00141435	0.00138138	0.00134373	0.00121313	0.00196544	0.00210627	0.00297486	0.0028816	0.0028146	0.00309139	0.00287842	0.00284492	0.0011869	0.00310268	0.00283922	0.00182083	0.00279444	0.00119134	0.00119131	0.00282847	0.00131167	0.00271723	0.0029309	0.00280785	0.00226037	0.00194393	0.00244934	0.00149871	0.00138435	0.00141335	0.00139406	0.00136473	0.00102267	0.00102267	0.284179	0.199321	0.205499	0.00102267	0.0359881	0.0194311	0.0012565	0.00156848	0.00994454	0.00225926	0.0197988	0.00102267	0.0623298	0.0751338	0.028172	0.2399	0.457116	0.646568	0.00108088	0.0236933	0.0851503	0.0531278	0.00104934	0.00318062	0.00190764	0.00105049	0.00200332	0.00618316	0.00143462	0.0640833	0.0396912	0.0297293	0.00102267	0.0487647	0.00585768	0.030904	0.477799	0.0751466	
3.505	0.00280274	0.00147286	0.00147114	0.00160169	0.00154203	0.00297016	0.00274905	0.00287831	0.00141435	0.00138138	0.00134373	0.00121313	0.00196544	0.00210627	0.00297486	0.0028816	0.0028146	0.00309139	0.00287842	0.00284492	0.0011869	0.00310268	0.00283922	0.00182083	0.00279444	0.00119134	0.00119131	0.00282847	0.00131167	0.00271723	0.0029309	0.00280785	0.00226037	0.00194393	0.00244934	0.00149871	0.00138435	0.00141335	0.00139406	0.00136473	0.00102267	0.00102267	0.276334	0.195354	0.189047	0.00102267	0.0371735	0.0204824	0.00108562	0.00112831	0.017123	0.00217776	0.019497	0.00102267	0.0621765	0.0749146	0.0283556	0.378558	0.506925	0.692163	0.00108088	0.0893256	0.0931915	0.0541789	0.00104482	0.00315673	0.00189797	0.00105049	0.00131455	0.00666556	0.00143462	0.0648961	0.0405281	0.0333272	0.00102267	0.0245773	0.00569798	0.033084	0.475841	0.0754212	
3.51	0.00280274	0.00147286	0.00147114	0.00160169	0.00154203	0.00297016	0.00274905	0.00287831	0.00141435	0.00138138	0.00134373	0.00121313	0.00196544	0.00210627	0.00297486	0.0028816	0.0028146	0.00309139	0.00287842	0.00284492	0.0011869	0.00310268	0.00283922	0.00182083	0.00279444	0.00119134	0.00119131	0.00282847	0.00131167	0.00271723	0.0029309	0.00280785	0.00226037	0.00194393	0.00244934	0.00149871	0.00138435	0.00141335	0.00139406	0.00136473	0.00102267	0.00102267	0.285406	0.202862	0.184655	0.00102267	0.0383998	0.0215742	0.0010743	0.00104257	0.0240476	0.0021075	0.0194068	0.00102267	0.0621413	0.0747793	0.0285444	0.50558	0.573109	0.748478	0.00108088	0.155412	0.0158976	0.0548798	0.00104233	0.00340703	0.00188866	0.00105049	0.00110413	0.00678387	0.00143462	0.0657022	0.0413656	0.0372977	0.00102267	0.0118615	0.00597628	0.0353001	0.404245	0.0756733	
3.515	0.00280274	0.00147286	0.00147114	0.00160169	0.00154203	0.00297016	0.00274905	0.00287831	0.00141435	0.00138138	0.00134373	0.00121313	0.00196544	0.00210627	0.00297486	0.0028816	0.0028146	0.00309139	0.00287842	0.00284492	0.0011869	0.00310268	0.00283922	0.00182083	0.00279444	0.00119134	0.00119131	0.00282847	0.00131167	0.00271723	0.0029309	0.00280785	0.00226037	0.00194393	0.00244934	0.00149871	0.00138435	0.00141335	0.00139406	0.00136473	0.00102267	0.00102267	0.313015	0.222532	0.19486	0.00102267	0.0396613	0.0226993	0.00107359	0.00102674	0.0299458	0.00205394	0.019545	0.00102267	0.0623275	0.0748283	0.0287415	0.610129	0.640985	0.801175	0.00108088	0.208097	0.00287133	0.0552751	0.00104098	0.00392728	0.0018797	0.00105049	0.00129204	0.00667982	0.00143462	0.0665325	0.0421969	0.0416152	0.00102267	0.00579377	0.00665644	0.0375119	0.312655	0.0757259	
3.52	0.00280274	0.00147286	0.00147114	0.00160169	0.00154203	0.00297016	0.00274905	0.00287831	0.00141435	0.00138138	0.00134373	0.00121313	0.00196544	0.00210627	0.00297486	0.0028816	0.0028146	0.00309139	0.00287842	0.00284492	0.0011869	0.00310268	0.00283922	0.00182083	0.00279444	0.00119134	0.00119131	0.00282847	0.00131167	0.00271723	0.0029309	0.00280785	0.00226037	0.00194393	0.00244934	0.00149871	0.00138435	0.00141335	0.00139406	0.00136473	0.00102267	0.00102267	0.351059	0.247974	0.214443	0.00102267	0.0409495	0.0238494	0.00107355	0.00102392	0.0346329	0.00201936	0.019917	0.00102267	0.062803	0.0751321	0.0289499	0.691148	0.692703	0.835984	0.00108088	0.249684	0.00424867	0.0553923	0.00104026	0.00467783	0.00187108	0.00105049	0.00275681	0.00685741	0.00143462	0.0673795	0.0430153	0.0462646	0.00102267	0.00305554	0.00765241	0.0396806	0.290558	0.0756276	
3.525	0.00280274	0.00147286	0.00147114	0.00160169	0.00154203	0.00297016	0.00274905	0.00287831	0.00141435	0.00138138	0.00134373	0.00121313	0.00196544	0.00210627	0.00297486	0.0028816	0.0028146	0.00309139	0.00287842	0.00284492	0.0011869	0.00310268	0.00283922	0.00182083	0.00279444	0.00119134	0.00119131	0.00282847	0.00131167	0.00271723	0.0029309	0.00280785	0.00226037	0.00194393	0.00244934	0.00149871	0.00138435	0.00141335	0.00139406	0.00136473	0.00102267	0.00102267	0.386777	0.270787	0.234479	0.00102267	0.0422531	0.0250154	0.00107355	0.00102343	0.0381992	0.00200442	0.0205219	0.00102267	0.063578	0.0757103	0.0291717	0.746061	0.721151	0.848999	0.00108088	0.278516	0.00314082	0.0552475	0.00103988	0.00560077	0.00186279	0.00105049	0.00152012	0.00761982	0.00143462	0.0682316	0.0438139	0.0512156	0.00102267	0.00186395	0.00885649	0.0417696	0.299227	0.0754523	
3.53	0.00280274	0.00147286	0.00147114	0.00160169	0.00154203	0.00297016	0.00274905	0.00287831	0.00141435	0.00138138	0.00134373	0.00121313	0.00196544	0.00210627	0.00297486	0.0028816	0.0028146	0.00309139	0.00287842	0.00284492	0.0011869	0.00310268	0.00283922	0.00182083	0.00279444	0.00119134	0.00119131	0.00282847	0.00131167	0.00271723	0.0029309	0.00280785	0.00226037	0.00194393	0.00244934	0.00149871	0.00138435	0.00141335	0.00139406	0.00136473	0.00102267	0.00102267	0.410233	0.285618	0.248332	0.00102267	0.0435588	0.0261876	0.00107355	0.00102334	0.0408587	0.00200909	0.0213545	0.00102267	0.0646088	0.0765333	0.0294083	0.778884	0.726741	0.841623	0.00108088	0.288987	0.0013589	0.0548551	0.00103969	0.00663761	0.00185484	0.00105049	0.0011468	0.00899406	0.00143462	0.0690761	0.0445858	0.0564126	0.00102267	0.0013585	0.0101668	0.043746	0.306135	0.0752267	
3.535	0.00280274	0.00147286	0.00147114	0.00160169	0.00154203	0.00297016	0.00274905	0.00287831	0.00141435	0.00138138	0.00134373	0.00121313	0.00196544	0.00210627	0.00297486	0.0028816	0.0028146	0.00309139	0.00287842	0.00284492	0.0011869	0.00310268	0.00283922	0.00182083	0.00279444	0.00119134	0.00119131	0.00282847	0.00131167	0.00271723	0.0029309	0.00280785	0.00226037	0.00194393	0.00244934	0.00149871	0.00138435	0.00141335	0.00139406	0.00136473	0.00102267	0.00102267	0.420113	0.291162	0.252464	0.00102267	0.0448521	0.0273565	0.00107355	0.00102333	0.0428991	0.00203217	0.0224081	0.00102267	0.0658208	0.0775419	0.02966	0.794926	0.71822	0.822109	0.00108088	0.286976	0.00106836	0.0542304	0.00103958	0.00773274	0.0018472	0.00105049	0.00106674	0.0108922	0.00143462	0.0698924	0.0453246	0.0618102	0.00102267	0.00114812	0.0114944	0.0455789	0.30416	0.0749276	
3.54	0.00280274	0.00147286	0.00147114	0.00160169	0.00154203	0.00297016	0.00274905	0.00287831	0.00141435	0.00138138	0.00134373	0.00121313	0.00196544	0.00210627	0.00297486	0.0028816	0.0028146	0.00309139	0.00287842	0.00284492	0.0011869	0.00310268	0.00283922	0.00182083	0.00279444	0.00119134	0.00119131	0.00282847	0.00131167	0.00271723	0.0029309	0.00280785	0.00226037	0.00194393	0.00244934	0.00149871	0.00138435	0.00141335	0.00139406	0.00136473	0.00102267	0.00102267	0.419453	0.288638	0.24408	0.00102267	0.0461189	0.0285129	0.00107355	0.00102333	0.0445008	0.00207188	0.0236733	0.00102267	0.0671327	0.0786673	0.0299259	0.810137	0.707757	0.801875	0.00108088	0.288028	0.00103219	0.0533856	0.00103953	0.00883874	0.00183988	0.00105049	0.00237148	0.0130662	0.00143462	0.0706582	0.0460253	0.0673742	0.00102267	0.00106183	0.0127715	0.0472391	0.297993	0.0745121	
3.545	0.00280274	0.00147286	0.00147114	0.00160169	0.00154203	0.00297016	0.00274905	0.00287831	0.00141435	0.00138138	0.00134373	0.00121313	0.00196544	0.00210627	0.00297486	0.0028816	0.0028146	0.00309139	0.00287842	0.00284492	0.0011869	0.00310268	0.00283922	0.00182083	0.00279444	0.00119134	0.00119131	0.00282847	0.00131167	0.00271723	0.0029309	0.00280785	0.00226037	0.00194393	0.00244934	0.00149871	0.00138435	0.00141335	0.00139406	0.00136473	0.00102267	0.00102267	0.411619	0.279536	0.232212	0.00102267	0.0473448	0.0296477	0.00107355	0.00102332	0.0458155	0.0021259	0.0251404	0.00102267	0.0684315	0.0798106	0.030203	0.7817	0.661845	0.754748	0.00108088	0.253936	0.00102817	0.0523583	0.0010395	0.00991561	0.00183286	0.00105049	0.00141704	0.0154401	0.00143462	0.0713458	0.0466839	0.0730997	0.00102267	0.00102684	0.0139505	0.048697	0.290173	0.0739367	
3.55	0.00280274	0.00147286	0.00147114	0.00160169	0.00154203	0.00297016	0.00274905	0.00287831	0.00141435	0.00138138	0.00134373	0.00121313	0.00196544	0.00210627	0.00297486	0.0028816	0.0028146	0.00309139	0.00287842	0.00284492	0.0011869	0.00310268	0.00283922	0.00182083	0.00279444	0.00119134	0.00119131	0.00282847	0.00131167	0.00271723	0.0029309	0.00280785	0.00226037	0.00194393	0.00244934	0.00149871	0.00138435	0.00141335	0.00139406	0.00136473	0.00102267	0.00102267	0.397304	0.26521	0.218971	0.00102267	0.0485161	0.0307525	0.00107355	0.00102332	0.046967	0.00219175	0.0267985	0.00102267	0.0696013	0.0808676	0.0304872	0.734767	0.600075	0.6938	0.00108088	0.208957	0.00102775	0.0511885	0.00103949	0.0109336	0.00182614	0.00105049	0.00112555	0.0178239	0.00143462	0.0719291	0.0472975	0.0789867	0.00102267	0.00101279	0.015003	0.0499209	0.278362	0.0731577	
3.555	0.00280274	0.00147286	0.00147114	0.00160169	0.00154203	0.00297016	0.00274905	0.00287831	0.00141435	0.00138138	0.00134373	0.00121313	0.00196544	0.00210627	0.00297486	0.0028816	0.0028146	0.00309139	0.00287842	0.00284492	0.0011869	0.00310268	0.00283922	0.00182083	0.00279444	0.00119134	0.00119131	0.00282847	0.00131167	0.00271723	0.0029309	0.00280785	0.00226037	0.00194393	0.00244934	0.00149871	0.00138435	0.00141335	0.00139406	0.00136473	0.00102267	0.00102267	0.37637	0.246851	0.203488	0.00102267	0.0496202	0.0318194	0.00107355	0.00102332	0.048066	0.00226652	0.0286349	0.00102267	0.0705428	0.081745	0.0307724	0.683186	0.531119	0.620867	0.00108088	0.167002	0.0010277	0.0499149	0.00103948	0.0118675	0.00181971	0.00105049	0.00106282	0.019997	0.00143462	0.0723877	0.0478649	0.0850154	0.00102267	0.00100719	0.0159154	0.0508763	0.259414	0.0721307	
3.56	0.00280274	0.00147286	0.00147114	0.00160169	0.00154203	0.00297016	0.00274905	0.00287831	0.00141435	0.00138138	0.00134373	0.00121313	0.00196544	0.00210627	0.00297486	0.0028816	0.0028146	0.00309139	0.00287842	0.00284492	0.0011869	0.00310268	0.00283922	0.00182083	0.00279444	0.00119134	0.00119131	0.00282847	0.00131167	0.00271723	0.0029309	0.00280785	0.00226037	0.00194393	0.00244934	0.00149871	0.00138435	0.00141335	0.00139406	0.00136473	0.00102267	0.00102267	0.349095	0.225491	0.185383	0.00102267	0.0506459	0.0328415	0.00107355	0.00102332	0.0492288	0.00234743	0.030635	0.00102267	0.0711769	0.0823628	0.0310513	0.630039	0.457973	0.531472	0.00108088	0.130268	0.0010277	0.0485758	0.00103948	0.0127019	0.00181355	0.00105049	0.00125606	0.02175	0.00143462	0.0727083	0.0483862	0.09112	0.00102267	0.00100497	0.0166854	0.051528	0.230656	0.0708175	
3.565	0.00280274	0.00147286	0.00147114	0.00160169	0.00154203	0.00297016	0.00274905	0.00287831	0.00141435	0.00138138	0.00134373	0.00121313	0.00196544	0.00210627	0.00297486	0.0028816	0.0028146	0.00309139	0.00287842	0.00284492	0.0011869	0.00310268	0.00283922	0.00182083	0.00279444	0.00119134	0.00119131	0.00282847	0.00131167	0.00271723	0.0029309	0.00280785	0.00226037	0.00194393	0.00244934	0.00149871	0.00138435	0.00141335	0.00139406	0.00136473	0.00102267	0.00102267	0.316203	0.202103	0.164807	0.00102267	0.0515845	0.0338132	0.00107355	0.00102332	0.0503422	0.0024318	0.0327815	0.00102267	0.0714471	0.08266	0.0313162	0.574288	0.383832	0.427008	0.00108088	0.0976004	0.0010277	0.0472095	0.00103948	0.013427	0.00180766	0.00105049	0.00110609	0.0229563	0.00143462	0.0728844	0.0488635	0.0971841	0.00102267	0.0010041	0.0173176	0.051844	0.188487	0.0691881	
3.57	0.00280274	0.00147286	0.00147114	0.00160169	0.00154203	0.00297016	0.00274905	0.00287831	0.00141435	0.00138138	0.00134373	0.00121313	0.00196544	0.00210627	0.00297486	0.0028816	0.0028146	0.00309139	0.00287842	0.00284492	0.0011869	0.00310268	0.00283922	0.00182083	0.00279444	0.00119134	0.00119131	0.00282847	0.00131167	0.00271723	0.0029309	0.00280785	0.00226037	0.00194393	0.00244934	0.00149871	0.00138435	0.00141335	0.00139406	0.00136473	0.00102267	0.00102267	0.278628	0.177745	0.141446	0.00102267	0.05243	0.0347304	0.00107355	0.00102332	0.0515566	0.002517	0.0350526	0.00102267	0.0713198	0.0825956	0.0315588	0.52078	0.31239	0.316402	0.00108088	0.0179149	0.0010277	0.0458489	0.00103948	0.0140378	0.00180203	0.00105049	0.00106052	0.0234365	0.00143462	0.0729171	0.0492996	0.103016	0.00102267	0.00100376	0.0178211	0.0517991	0.134248	0.0672269	
3.575	0.00280274	0.00147286	0.00147114	0.00160169	0.00154203	0.00297016	0.00274905	0.00287831	0.00141435	0.00138138	0.00134373	0.00121313	0.00196544	0.00210627	0.00297486	0.0028816	0.0028146	0.00309139	0.00287842	0.00284492	0.0011869	0.00310268	0.00283922	0.00182083	0.00279444	0.00119134	0.00119131	0.00282847	0.00131167	0.00271723	0.0029309	0.00280785	0.00226037	0.00194393	0.00244934	0.00149871	0.00138435	0.00141335	0.00139406	0.00136473	0.00102267	0.00102267	0.237738	0.153221	0.114208	0.00102267	0.0531784	0.0355901	0.00107355	0.00102332	0.0528938	0.00260061	0.0374208	0.00102267	0.0707844	0.0821497	0.0317713	0.47795	0.24699	0.20164	0.00108088	0.00333009	0.0010277	0.0445188	0.00103947	0.014534	0.00179665	0.00105049	0.00105073	0.0231543	0.00143462	0.0728119	0.0496978	0.108335	0.00102267	0.00100363	0.0182073	0.051378	0.0722394	0.0649412	
3.58	0.00280274	0.00147286	0.00147114	0.00160169	0.00154203	0.00297016	0.00274905	0.00287831	0.00141435	0.00138138	0.00134373	0.00121313	0.00196544	0.00210627	0.00297486	0.0028816	0.0028146	0.00309139	0.00287842	0.00284492	0.0011869	0.00310268	0.00283922	0.00182083	0.00279444	0.00119134	0.00119131	0.00282847	0.00131167	0.00271723	0.0029309	0.00280785	0.00226037	0.00194393	0.00244934	0.00149871	0.00138435	0.00141335	0.00139406	0.00136473	0.00102267	0.00102267	0.195781	0.129164	0.0830003	0.00102267	0.053828	0.0363904	0.00107355	0.00102332	0.0543747	0.00268068	0.0398523	0.00102267	0.0698482	0.0813206	0.031947	0.450007	0.184563	0.0264921	0.00108088	0.00129051	0.0010277	0.0432386	0.00103947	0.0149201	0.0017915	0.00105049	0.00104889	0.0221816	0.00143462	0.0725771	0.0500611	0.112813	0.00102267	0.00100357	0.0184894	0.0505779	0.00792642	0.0623414	
3.585	0.00280274	0.00147286	0.00147114	0.00160169	0.00154203	0.00297016	0.00274905	0.00287831	0.00141435	0.00138138	0.00134373	0.00121313	0.00196544	0.00210627	0.00297486	0.0028816	0.0028146	0.00309139	0.00287842	0.00284492	0.0011869	0.00310268	0.00283922	0.00182083	0.00279444	0.00119134	0.00119131	0.00282847	0.00131167	0.00271723	0.0029309	0.00280785	0.00226037	0.00194393	0.00244934	0.00149871	0.00138435	0.00141335	0.00139406	0.00136473	0.00102267	0.00102267	0.154033	0.106022	0.0550623	0.00102267	0.05438	0.0371317	0.00107355	0.00102332	0.0559413	0.0027559	0.0423157	0.00102267	0.0685338	0.0801209	0.03208	0.441808	0.021193	0.00382906	0.00108088	0.00103469	0.0010277	0.0420953	0.00103947	0.0152048	0.00178659	0.00105049	0.00104856	0.0203627	0.00143462	0.072274	0.0503953	0.116134	0.00102267	0.00100355	0.0186821	0.0494095	0.0297059	0.059006	
3.59	0.00280274	0.00147286	0.00147114	0.00160169	0.00154203	0.00297016	0.00274905	0.00287831	0.00141435	0.00138138	0.00134373	0.00121313	0.00196544	0.00210627	0.00297486	0.0028816	0.0028146	0.00309139	0.00287842	0.00284492	0.0011869	0.00310268	0.00283922	0.00182083	0.00279444	0.00119134	0.00119131	0.00282847	0.00131167	0.00271723	0.0029309	0.00280785	0.00226037	0.00194393	0.00244934	0.00149871	0.00138435	0.00141335	0.00139406	0.00136473	0.00102267	0.00102267	0.115918	0.0865339	0.0347463	0.00102267	0.054837	0.0378145	0.00107355	0.00102332	0.0575168	0.00282504	0.044776	0.00102267	0.0668701	0.078587	0.0321661	0.469691	0.00297498	0.00170759	0.00108088	0.0010044	0.0010277	0.0411642	0.00103947	0.0153986	0.00178191	0.00105049	0.00104851	0.0180779	0.126013	0.0719789	0.0507063	0.118056	0.00102267	0.00100355	0.0188011	0.0478973	0.00395662	0.055134	
3.595	0.00280274	0.00147286	0.00147114	0.00160169	0.00154203	0.00297016	0.00274905	0.00287831	0.00141435	0.00138138	0.00134373	0.00121313	0.00196544	0.00210627	0.00297486	0.0028816	0.0028146	0.00309139	0.00287842	0.00284492	0.0011869	0.00310268	0.00283922	0.00182083	0.00279444	0.00119134	0.00119131	0.00282847	0.00131167	0.00271723	0.0029309	0.00280785	0.00226037	0.00194393	0.00244934	0.00149871	0.00138435	0.00141335	0.00139406	0.00136473	0.00102267	0.00102267	0.0798436	0.0711245	0.0213262	0.00102267	0.0552011	0.0384388	0.00107355	0.00102332	0.0590233	0.0028875	0.047194	0.00102267	0.0649122	0.0767676	0.0322023	0.546338	0.00494006	0.00153094	0.00108088	0.00100093	0.0010277	0.0404786	0.00103947	0.0155112	0.00177743	0.00105049	0.0010485	0.0157324	0.272546	0.0717572	0.0509979	0.118437	0.00102267	0.00100354	0.018863	0.0460769	0.0190468	0.0509901	
3.6	0.00280274	0.00147286	0.00147114	0.00160169	0.00154203	0.00297016	0.00274905	0.00287831	0.00141435	0.00138138	0.00134373	0.00121313	0.00196544	0.00210627	0.00297486	0.0028816	0.0028146	0.00309139	0.00287842	0.00284492	0.0011869	0.00310268	0.00283922	0.00182083	0.00279444	0.00119134	0.00119131	0.00282847	0.00131167	0.00271723	0.0029309	0.00280785	0.00226037	0.00194393	0.00244934	0.00149871	0.00138435	0.00141335	0.00139406	0.00136473	0.00102267	0.00102267	0.0514175	0.0566773	0.0129408	0.00102267	0.0554737	0.0390042	0.00107355	0.00102332	0.060192	0.00294226	0.0495302	0.00102267	0.0627129	0.0747102	0.032187	0.665688	0.00393019	0.00151709	0.00108088	0.00100055	0.0010277	0.0400343	0.00103947	0.0155354	0.00177316	0.00105049	0.0010485	0.0135865	0.384915	0.071657	0.051272	0.117241	0.00102267	0.00100354	0.0188796	0.0439914	0.00289645	0.0467667	
3.605	0.00280274	0.00147286	0.00147114	0.00160169	0.00154203	0.00297016	0.00274905	0.00287831	0.00141435	0.00138138	0.00134373	0.00121313	0.00196544	0.00210627	0.00297486	0.0028816	0.0028146	0.00309139	0.00287842	0.00284492	0.0011869	0.00310268	0.00283922	0.00182083	0.00279444	0.00119134	0.00119131	0.00282847	0.00131167	0.00271723	0.0029309	0.00280785	0.00226037	0.00194393	0.00244934	0.00149871	0.00138435	0.00141335	0.00139406	0.00136473	0.00102267	0.00102267	0.0318608	0.0394419	0.00788817	0.00102267	0.0556562	0.0395102	0.00107355	0.00102332	0.0602545	0.00298772	0.0517454	0.00102267	0.0603217	0.0724255	0.03212	0.810587	0.00165158	0.00151604	0.00108088	0.0010005	0.0010277	0.0397894	0.00103947	0.0154606	0.00176909	0.00105049	0.0010485	0.0118135	0.461219	0.0717067	0.0515289	0.114523	0.00102267	0.00100354	0.018845	0.0416898	0.010795	0.0425999	
3.61	0.00280274	0.00147286	0.00147114	0.00160169	0.00154203	0.00297016	0.00274905	0.00287831	0.00141435	0.00138138	0.00134373	0.00121313	0.00196544	0.00210627	0.00297486	0.0028816	0.0028146	0.00309139	0.00287842	0.00284492	0.0011869	0.00310268	0.00283922	0.00182083	0.00279444	0.00119134	0.00119131	0.00282847	0.00131167	0.00271723	0.0029309	0.00280785	0.00226037	0.00194393	0.00244934	0.00149871	0.00138435	0.00141335	0.00139406	0.00136473	0.00102267	0.00102267	0.019337	0.0256739	0.0049205	0.00102267	0.0557496	0.0399566	0.00107355	0.00102332	0.0571876	0.00301988	0.0538018	0.00102267	0.0577855	0.0699589	0.0320022	0.96618	0.00140939	0.00151596	0.00108088	0.0010005	0.0010277	0.039678	0.00103947	0.0152326	0.00176521	0.00105049	0.0010485	0.0105268	0.513136	0.0719165	0.0517673	0.11042	0.00102267	0.00100354	0.0186983	0.0392237	0.00207199	0.0387862	
3.615	0.00280274	0.00147286	0.00147114	0.00160169	0.00154203	0.00297016	0.00274905	0.00287831	0.00141435	0.00138138	0.00134373	0.00121313	0.00196544	0.00210627	0.00297486	0.0028816	0.0028146	0.00309139	0.00287842	0.00284492	0.0011869	0.00310268	0.00283922	0.00182083	0.00279444	0.00119134	0.00119131	0.00282847	0.00131167	0.00271723	0.0029309	0.00280785	0.00226037	0.00194393	0.00244934	0.00149871	0.00138435	0.00141335	0.00139406	0.00136473	0.00102267	0.00102267	0.0116656	0.0161426	0.00321019	0.00102267	0.0557548	0.0403432	0.00107355	0.00102332	0.0510636	0.00303417	0.0556652	0.00102267	0.0551482	0.0673531	0.0318353	0.995133	0.0013899	0.00151596	0.00108088	0.0010005	0.0010277	0.0395636	0.00103947	0.0147995	0.0017615	0.00105049	0.0010485	0.00984887	0.554845	0.0722689	0.0519842	0.105118	0.00102267	0.00100354	0.0183728	0.0366451	0.0049766	0.0352638	
3.62	0.00280274	0.00147286	0.00147114	0.00160169	0.00154203	0.00297016	0.00274905	0.00287831	0.00141435	0.00138138	0.00134373	0.00121313	0.00196544	0.00210627	0.00297486	0.0028816	0.0028146	0.00309139	0.00287842	0.00284492	0.0011869	0.00310268	0.00283922	0.00182083	0.00279444	0.00119134	0.00119131	0.00282847	0.00131167	0.00271723	0.0029309	0.00280785	0.00226037	0.00194393	0.00244934	0.00149871	0.00138435	0.00141335	0.00139406	0.00136473	0.00102267	0.00102267	0.0071065	0.0100171	0.00223882	0.00102267	0.0556729	0.0406705	0.00107355	0.00102332	0.0438645	0.00302813	0.057308	0.00102267	0.0524494	0.0646473	0.0316219	0.998753	0.0013885	0.00151596	0.00108088	0.0010005	0.0010277	0.0392615	0.00103947	0.0141598	0.00175797	0.00105049	0.0010485	0.00979203	0.58865	0.0727375	0.0521756	0.0988205	0.00102267	0.00100354	0.01785	0.0340046	0.00149155	0.031996	
3.625	0.00280274	0.00147286	0.00147114	0.00160169	0.00154203	0.00297016	0.00274905	0.00287831	0.00141435	0.00138138	0.00134373	0.00121313	0.00196544	0.00210627	0.00297486	0.0028816	0.0028146	0.00309139	0.00287842	0.00284492	0.0011869	0.00310268	0.00283922	0.00182083	0.00279444	0.00119134	0.00119131	0.00282847	0.00131167	0.00271723	0.0029309	0.00280785	0.00226037	0.00194393	0.00244934	0.00149871	0.00138435	0.00141335	0.00139406	0.00136473	0.00102267	0.00102267	0.0044557	0.00625608	0.00169353	0.00102267	0.055506	0.040939	0.00107355	0.00102332	0.036801	0.00300129	0.0587089	0.00102267	0.0497255	0.0618774	0.0313653	0.999147	0.00138841	0.00151596	0.00108088	0.0010005	0.0010277	0.0386207	0.00103947	0.0133467	0.00175461	0.00105049	0.0010485	0.0103348	0.6134	0.0732961	0.0523376	0.0917301	0.00102267	0.00100354	0.0171471	0.0313491	0.00134378	0.0289271	
3.63	0.00280274	0.00147286	0.00147114	0.00160169	0.00154203	0.00297016	0.00274905	0.00287831	0.00141435	0.00138138	0.00134373	0.00121313	0.00196544	0.00210627	0.00297486	0.0028816	0.0028146	0.00309139	0.00287842	0.00284492	0.0011869	0.00310268	0.00283922	0.00182083	0.00279444	0.00119134	0.00119131	0.00282847	0.00131167	0.00271723	0.0029309	0.00280785	0.00226037	0.00194393	0.00244934	0.00149871	0.00138435	0.00141335	0.00139406	0.00136473	0.00102267	0.00102267	0.00293983	0.00401718	0.0013903	0.00102267	0.0552573	0.0411502	0.00107355	0.00102332	0.0301638	0.00295717	0.0598533	0.00102267	0.0470084	0.0590758	0.0310688	0.999187	0.0013884	0.00151596	0.00108088	0.0010005	0.0010277	0.0375729	0.00103947	0.012406	0.00175141	0.00105049	0.0010485	0.0114393	0.630686	0.0739207	0.0524664	0.0840849	0.00102267	0.00100354	0.0162965	0.0287214	0.0011296	0.026077	
3.635	0.00280274	0.00147286	0.00147114	0.00160169	0.00154203	0.00297016	0.00274905	0.00287831	0.00141435	0.00138138	0.00134373	0.00121313	0.00196544	0.00210627	0.00297486	0.0028816	0.0028146	0.00309139	0.00287842	0.00284492	0.0011869	0.00310268	0.00283922	0.00182083	0.00279444	0.00119134	0.00119131	0.00282847	0.00131167	0.00271723	0.0029309	0.00280785	0.00226037	0.00194393	0.00244934	0.00149871	0.00138435	0.00141335	0.00139406	0.00136473	0.00102267	0.00102267	0.00208417	0.00271378	0.00122299	0.00102267	0.0549305	0.0413053	0.00107355	0.00102332	0.0241578	0.00290014	0.0607335	0.00102267	0.0443258	0.0562709	0.0307364	0.99919	0.0013884	0.00151596	0.00108088	0.0010005	0.0010277	0.0362262	0.00103947	0.0113841	0.00174835	0.00105049	0.0010485	0.0130774	0.64288	0.0745919	0.0525578	0.0761039	0.00102267	0.00100354	0.0153319	0.0261762	0.00110855	0.023433	
3.64	0.00280274	0.00147286	0.00147114	0.00160169	0.00154203	0.00297016	0.00274905	0.00287831	0.00141435	0.00138138	0.00134373	0.00121313	0.00196544	0.00210627	0.00297486	0.0028816	0.0028146	0.00309139	0.00287842	0.00284492	0.0011869	0.00310268	0.00283922	0.00182083	0.00279444	0.00119134	0.00119131	0.00282847	0.00131167	0.00271723	0.0029309	0.00280785	0.00226037	0.00194393	0.00244934	0.00149871	0.00138435	0.00141335	0.00139406	0.00136473	0.00102267	0.00102267	0.00160621	0.00196768	0.0011313	0.00102267	0.0545231	0.0414051	0.00107355	0.00102332	0.0133292	0.00283374	0.0613394	0.00102267	0.0417011	0.0534878	0.0303718	0.999191	0.0013884	0.00151596	0.00108088	0.0010005	0.0010277	0.0346686	0.00103947	0.0102545	0.00174545	0.00105049	0.0010485	0.0154227	0.65967	0.0751479	0.0525974	0.0680554	0.00102267	0.00100354	0.0141607	0.0237522	0.0014769	0.0209913	
3.645	0.00280274	0.00147286	0.00147114	0.00160169	0.00154203	0.00297016	0.00274905	0.00287831	0.00141435	0.00138138	0.00134373	0.00121313	0.00196544	0.00210627	0.00297486	0.0028816	0.0028146	0.00309139	0.00287842	0.00284492	0.0011869	0.00310268	0.00283922	0.00182083	0.00279444	0.00119134	0.00119131	0.00282847	0.00131167	0.00271723	0.0029309	0.00280785	0.00226037	0.00194393	0.00244934	0.00149871	0.00138435	0.00141335	0.00139406	0.00136473	0.00102267	0.00102267	0.00134151	0.00154619	0.00108132	0.00102267	0.0540421	0.041452	0.00107355	0.00102332	0.00982082	0.00276089	0.0616786	0.00102267	0.0391534	0.0507474	0.0299788	0.999191	0.0013884	0.00151596	0.00108088	0.0010005	0.0010277	0.032971	0.00103947	0.00911459	0.00174268	0.00105049	0.0010485	0.0181672	0.665779	0.0756333	0.0525843	0.0600138	0.00102267	0.00100354	0.0129175	0.021474	0.00182018	0.0187561	
