CEINMS output
datacolumns 7
datarows 217
endheader
time	addbrev_r	addlong_r	addmagDist_r	addmagIsch_r	addmagMid_r	addmagProx_r	bflh_r	bfsh_r	edl_r	ehl_r	fdl_r	fhl_r	gaslat_r	gasmed_r	glmax1_r	glmax2_r	glmax3_r	glmed1_r	glmed2_r	glmed3_r	glmin1_r	glmin2_r	glmin3_r	grac_r	iliacus_r	perbrev_r	perlong_r	piri_r	psoas_r	recfem_r	sart_r	semimem_r	semiten_r	soleus_r	tfl_r	tibant_r	tibpost_r	vasint_r	vaslat_r	vasmed_r	addbrev_l	addlong_l	addmagDist_l	addmagIsch_l	addmagMid_l	addmagProx_l	bflh_l	bfsh_l	edl_l	ehl_l	fdl_l	fhl_l	gaslat_l	gasmed_l	glmax1_l	glmax2_l	glmax3_l	glmed1_l	glmed2_l	glmed3_l	glmin1_l	glmin2_l	glmin3_l	grac_l	iliacus_l	perbrev_l	perlong_l	piri_l	psoas_l	recfem_l	sart_l	semimem_l	semiten_l	soleus_l	tfl_l	tibant_l	tibpost_l	vasint_l	vaslat_l	vasmed_l	
0.175	387.929	4.64651	0.306246	100	1	5000	
0.18	1405.11	3.29191	0.297889	100	1	5000	
0.185	3291.27	3.30745	0.176557	100	1	5000	
0.19	5183.03	2.19087	0.187439	100	1	5000	
0.195	5985.17	2.25457	0.2516	100	1	5000	
0.2	5882.35	2.32535	0.317913	100	1	5000	
0.205	5653.85	2.35578	0.346143	100	1	5000	
0.21	5596.56	2.36955	0.34844	100	1	5000	
0.215	5659.81	3.3525	0.352026	100	1	5000	
0.22	5699.49	3.37523	0.375433	100	1	5000	
0.225	5694.81	3.70337	0.474046	100	1	5000	
0.23	5691.36	3.74842	0.496201	100	1	5000	
0.235	5896.32	3.862	0.521262	100	1	5000	
0.24	6204.67	2.86891	0.6156	100	1	5000	
0.245	6593.7	4.02232	0.547482	100	1	5000	
0.25	6852.4	2.79608	0.61071	100	1	5000	
0.255	6677.26	4.29661	0.489744	100	1	5000	
0.26	6431.89	3.77109	0.357479	100	1	5000	
0.265	6240.18	4.20273	0.278776	100	1	5000	
0.27	6055.87	3.70685	0.200258	100	1	5000	
0.275	5840.56	3.61431	0.1171	100	1	5000	
0.28	5591.77	3.32643	0.0554322	100	1	5000	
0.285	5314.55	3.90385	0.0285661	100	1	5000	
0.29	5015.72	3.38456	0.0131399	100	1	5000	
0.295	4705.72	3.81279	0.00607904	100	1	5000	
0.3	4394.92	2.47502	0.00441929	100	1	5000	
0.305	4129.44	2.60263	0.00558379	100	1	5000	
0.31	3874.26	2.33738	0.00769087	100	1	5000	
0.315	3616.74	2.39682	0.0118743	100	1	5000	
0.32	3376.08	2.2033	0.0178589	100	1	5000	
0.325	3152.11	2.09661	0.0238023	100	1	5000	
0.33	2933.72	1.99513	0.0294754	100	1	5000	
0.335	2720.15	1.89724	0.0405691	100	1	5000	
0.34	2499.21	1.84298	0.0547733	100	1	5000	
0.345	2276.94	1.80031	0.0694869	100	1	5000	
0.35	2063.2	1.77274	0.0819312	100	1	5000	
0.355	1865.92	1.67491	0.0915514	100	1	5000	
0.36	1688.22	1.67825	0.100223	100	1	5000	
0.365	1529.85	1.68571	0.130275	100	1	5000	
0.37	1378.71	1.67818	0.125059	100	1	5000	
0.375	1237.98	1.66664	0.116948	100	1	5000	
0.38	1110.49	1.66471	0.109028	100	1	5000	
0.385	998.011	1.65499	0.104454	100	1	5000	
0.39	830.588	2.01785	0.47601	100	1	5000	
0.395	626.08	1.61306	0.0710811	100	1	5000	
0.4	499.395	1.65119	0.057824	100	1	5000	
0.405	368.815	1.58801	0.0343029	100	1	5000	
0.41	266.547	1.51979	0.03924	100	1	5000	
0.415	206.921	1.6164	0.0828646	100	1	5000	
0.42	159.611	1.58785	0.0525303	100	1	5000	
0.425	125.631	1.55598	0.048071	100	1	5000	
0.43	106.669	1.57744	0.0668263	100	1	5000	
0.435	94.1116	1.65875	0.08503	100	1	5000	
0.44	81.6285	0.624546	0.0968383	100	1	5000	
0.445	71.1513	0.599131	0.0962421	100	1	5000	
0.45	62.6388	0.678035	0.0913689	100	1	5000	
0.455	56.202	0.819812	0.0831378	100	1	5000	
0.46	51.9118	1.21666	0.0784907	100	1	5000	
0.465	47.4455	1.84011	0.0731695	100	1	5000	
0.47	44.3194	1.57539	0.0733713	100	1	5000	
0.475	42.1323	1.7976	0.0771518	100	1	5000	
0.48	41.0188	1.77758	0.0848376	100	1	5000	
0.485	41.2942	1.79539	0.0948498	100	1	5000	
0.49	60.0513	2.20109	0.133518	100	1	5000	
0.495	64.0945	1.82306	0.135621	100	1	5000	
0.5	55.4232	1.69231	0.133116	100	1	5000	
0.505	55.506	1.71274	0.147576	100	1	5000	
0.51	62.0817	1.77168	0.171897	100	1	5000	
0.515	71.212	1.78784	0.19978	100	1	5000	
0.52	82.3099	2.16983	0.231696	100	1	5000	
0.525	94.2428	1.82884	0.26079	100	1	5000	
0.53	107.107	2.0907	0.290585	100	1	5000	
0.535	120.676	2.37314	0.320931	100	1	5000	
0.54	134.304	2.05375	0.350291	100	1	5000	
0.545	147.883	2.52665	0.378308	100	1	5000	
0.55	161.816	2.72131	0.405587	100	1	5000	
0.555	176.552	3.13544	0.432055	100	1	5000	
0.56	192.969	3.2763	0.463082	100	1	5000	
0.565	212.51	3.47452	0.50108	100	1	5000	
0.57	236.434	3.40388	0.544654	100	1	5000	
0.575	266.695	3.7697	0.597094	100	1	5000	
0.58	304.92	3.82224	0.659109	100	1	5000	
0.585	353.394	3.9358	0.730868	100	1	5000	
0.59	411.523	4.02174	0.811195	100	1	5000	
0.595	482.197	4.06856	0.902241	100	1	5000	
0.6	567.859	3.8673	1.00391	100	1	5000	
0.605	667.91	4.01593	1.11459	100	1	5000	
0.61	781.284	4.38464	1.23797	100	1	5000	
0.615	908.894	4.26363	1.3676	100	1	5000	
0.62	1058.51	4.53697	1.50229	100	1	5000	
0.625	1207.48	4.51639	1.61219	100	1	5000	
0.63	1348.91	4.80014	1.69868	100	1	5000	
0.635	1505.17	4.74899	1.77401	100	1	5000	
0.64	1692.79	4.80931	1.85489	100	1	5000	
0.645	1885.5	5.34437	1.91938	100	1	5000	
0.65	1970.95	4.9712	1.89739	100	1	5000	
0.655	2076.74	5.70513	1.90427	100	1	5000	
0.66	2180.81	5.64997	1.92741	100	1	5000	
0.665	2280.23	5.65964	1.95374	100	1	5000	
0.67	2376.78	5.70622	1.98292	100	1	5000	
0.675	2471.51	5.7985	2.01517	100	1	5000	
0.68	2574.81	5.82639	2.05783	100	1	5000	
0.685	2688.2	5.95343	2.10847	100	1	5000	
0.69	2815.38	6.00787	2.16854	100	1	5000	
0.695	2954.34	6.09785	2.23999	100	1	5000	
0.7	3101.74	6.12699	2.30266	100	1	5000	
0.705	3252.63	6.24708	2.39162	100	1	5000	
0.71	3398.08	6.26149	2.46712	100	1	5000	
0.715	3526.33	6.2827	2.52949	100	1	5000	
0.72	3612.11	4.29066	2.58913	100	1	5000	
0.725	3629.91	5.15858	2.61594	100	1	5000	
0.73	3584.11	4.55887	2.66333	100	1	5000	
0.735	3411.75	4.39943	2.71398	100	1	5000	
0.74	3115.24	4.30061	2.68088	100	1	5000	
0.745	2743.79	3.95747	2.4151	100	1	5000	
0.75	2336.16	3.68766	2.0682	100	1	5000	
0.755	1873.8	4.2734	1.75905	100	1	5000	
0.76	1258.21	4.06669	1.52543	100	1	5000	
0.765	960.981	3.8276	1.30123	100	1	5000	
0.77	809.811	3.64126	1.10287	100	1	5000	
0.775	736.658	3.40816	0.965052	100	1	5000	
0.78	715.207	2.44217	0.875686	100	1	5000	
0.785	703.887	2.37659	0.791831	100	1	5000	
0.79	667.847	2.34699	0.696689	100	1	5000	
0.795	603.602	2.23988	0.583841	100	1	5000	
0.8	497.529	4.15727	0.474854	100	1	5000	
0.805	401.374	4.1711	0.382279	100	1	5000	
0.81	646.978	2.93303	0.131768	100	1	5000	
0.815	661.889	2.37712	0.261937	100	1	5000	
0.82	571.626	2.28734	0.16365	100	1	5000	
0.825	436.935	3.1888	0.119845	100	1	5000	
0.83	316.868	3.17571	0.0984981	100	1	5000	
0.835	238.277	3.13264	0.0856106	100	1	5000	
0.84	193.999	4.09607	0.0694711	100	1	5000	
0.845	164.967	2.32677	0.0583335	100	1	5000	
0.85	142.43	3.06147	0.0517736	100	1	5000	
0.855	124.589	3.05029	0.0475672	100	1	5000	
0.86	113.687	1.23435	0.0476487	100	1	5000	
0.865	108.693	2.87472	0.0479994	100	1	5000	
0.87	108.527	2.2178	0.0495173	100	1	5000	
0.875	112.456	2.37547	0.0595848	100	1	5000	
0.88	120.391	2.15189	0.067379	100	1	5000	
0.885	130.904	2.31987	0.0791506	100	1	5000	
0.89	220.989	2.10701	0.0945881	100	1	5000	
0.895	312.295	1.46782	0.107193	100	1	5000	
0.9	351.122	2.21359	0.109334	100	1	5000	
0.905	365.714	2.40458	0.107376	100	1	5000	
0.91	376.744	2.40412	0.107191	100	1	5000	
0.915	386.72	2.45711	0.128461	100	1	5000	
0.92	383.936	2.3905	0.094793	100	1	5000	
0.925	369.968	2.24338	0.104094	100	1	5000	
0.93	348.506	1.27412	0.0822576	100	1	5000	
0.935	325.383	1.22229	0.0699752	100	1	5000	
0.94	300.896	1.96999	0.0614438	100	1	5000	
0.945	275.779	1.3608	0.0528026	100	1	5000	
0.95	251.026	1.10029	0.0437578	100	1	5000	
0.955	228.285	1.13917	0.0381183	100	1	5000	
0.96	208.303	1.3497	0.0337933	100	1	5000	
0.965	191.142	0.0385575	0.0313297	100	1	5000	
0.97	176.767	0.22177	0.0293747	100	1	5000	
0.975	164.294	0.405492	0.0275571	100	1	5000	
0.98	153.255	0.212287	0.0247929	100	1	5000	
0.985	144.867	0.227394	0.0223076	100	1	5000	
0.99	176.155	0.36079	0.0209284	100	1	5000	
0.995	201.954	1.4173	0.0183403	100	1	5000	
1	205.128	0.474694	0.017426	100	1	5000	
1.005	197.034	0.278322	0.0122845	100	1	5000	
1.01	187.507	0.234753	0.00925083	100	1	5000	
1.015	179.712	0.209416	0.00673036	100	1	5000	
1.02	173.804	0.199463	0.00522085	100	1	5000	
1.025	171.857	0.184374	0.00433598	100	1	5000	
1.03	185.365	0.168169	0.00361047	100	1	5000	
1.035	194.131	0.0318695	0.00271105	100	1	5000	
1.04	196.717	0.0639091	0.00158092	100	1	5000	
1.045	198.063	0.17622	0.000635849	100	1	5000	
1.05	200.683	0.376489	0.000112061	100	1	5000	
1.055	204.422	0.775409	5.6e-05	100	1	5000	
1.06	208.522	1.0744	5.6e-05	100	1	5000	
1.065	212.532	1.05717	5.6e-05	100	1	5000	
1.07	216.295	1.05392	5.6e-05	100	1	5000	
1.075	219.722	1.04985	5.6e-05	100	1	5000	
1.08	222.455	1.08163	9.21109e-05	100	1	5000	
1.085	224.482	1.05774	0.000542953	100	1	5000	
1.09	225.859	0.789514	0.000511835	100	1	5000	
1.095	218.327	0.114782	0.000538423	100	1	5000	
1.1	208.145	0.50755	0.000488979	100	1	5000	
1.105	203.324	0.946128	0.000477578	100	1	5000	
1.11	200.683	0.642769	0.000891672	100	1	5000	
1.115	198.086	0.617516	0.00142368	100	1	5000	
1.12	194.746	1.42878	0.00189255	100	1	5000	
1.125	190.423	1.79605	0.00241695	100	1	5000	
1.13	184.927	1.29825	0.00230982	100	1	5000	
1.135	178.429	1.2841	0.00188391	100	1	5000	
1.14	171.015	1.16026	0.000924886	100	1	5000	
1.145	163.103	1.05424	0.000391871	100	1	5000	
1.15	155.307	0.446639	0.000101916	100	1	5000	
1.155	148.921	0.339452	0.000499401	100	1	5000	
1.16	144.274	0.306677	0.00288441	100	1	5000	
1.165	139.583	0.30406	0.00519439	100	1	5000	
1.17	136.091	0.621821	0.0051409	100	1	5000	
1.175	133.23	2.12084	0.00500189	100	1	5000	
1.18	131.891	3.9234	0.013372	100	1	5000	
1.185	130.146	3.57757	0.0269287	100	1	5000	
1.19	128.244	2.19373	0.0394308	100	1	5000	
1.195	125.7	2.39373	0.0464154	100	1	5000	
1.2	120.976	2.14588	0.0443289	100	1	5000	
1.205	114.237	3.09071	0.0347093	100	1	5000	
1.21	107.685	2.51323	0.0217864	100	1	5000	
1.215	105.812	1.64498	0.00905787	100	1	5000	
1.22	113.544	2.57491	0.00139122	100	1	5000	
1.225	135.397	3.05037	6.34478e-05	100	1	5000	
1.23	173.711	2.0279	6.13326e-05	100	1	5000	
1.235	229.09	1.86567	0.000212952	100	1	5000	
1.24	278.138	2.17699	0.001203	100	1	5000	
1.245	297.617	3.53001	0.000287021	100	1	5000	
1.25	344.77	4.09608	7.02645e-05	100	1	5000	
1.255	478.027	4.17837	6.41433e-05	100	1	5000	
