CEINMS output
datacolumns 11
datarows 645
endheader
time	hip_flexion_r	hip_adduction_r	hip_rotation_r	knee_angle_r	ankle_angle_r	hip_flexion_l	hip_adduction_l	hip_rotation_l	knee_angle_l	ankle_angle_l	
0.015	-4.2493	16.2699	1.10442	3.10046	-17.4586	-11.2953	32.6485	-2.40227	28.4169	-48.3562	
0.015	-4.38903	16.3474	1.0754	3.18925	-17.4539	-11.8892	33.3387	-2.6871	28.4255	-48.304	
0.015	-4.6655	16.2998	0.862413	3.20212	-17.4397	-11.9023	33.5205	-3.1712	28.3976	-48.2603	
0.02	-4.66893	16.3275	0.70682	3.11861	-17.4108	-11.6545	33.6525	-3.04774	28.2524	-48.2548	
0.025	-4.57439	16.3952	0.686727	3.10689	-17.372	-11.7319	33.6659	-2.45235	28.309	-48.1652	
0.03	-4.58059	16.4439	0.705752	3.11564	-17.3304	-11.6383	33.7292	-2.34139	28.2601	-48.111	
0.035	-4.56708	16.5153	0.678211	3.09786	-17.2873	-11.5767	33.7473	-2.46578	28.2158	-48.0551	
0.04	-4.51509	16.6143	0.621686	3.06031	-17.2373	-11.5196	33.7505	-2.49986	28.1648	-47.9952	
0.045	-4.45707	16.7188	0.559699	3.02562	-17.1852	-11.4582	33.7426	-2.48727	28.1248	-47.9334	
0.05	-4.40976	16.8133	0.498211	2.98602	-17.1388	-11.3998	33.7376	-2.49652	28.0809	-47.8735	
0.055	-4.38199	16.8877	0.444444	2.94156	-17.0958	-11.3508	33.7258	-2.51344	28.0456	-47.8082	
0.06	-4.37581	16.9362	0.4046	2.89569	-17.0574	-11.3109	33.7086	-2.53086	27.9993	-47.7307	
0.065	-4.4143	16.9302	0.380658	2.84479	-17.0209	-11.2827	33.694	-2.55189	27.9614	-47.6473	
0.07	-4.54596	16.8574	0.360708	2.79162	-16.9863	-11.281	33.6889	-2.57099	27.9338	-47.5732	
0.075	-4.48418	16.8054	0.343139	2.73419	-16.9523	-11.3091	33.6962	-2.59508	27.9328	-47.5138	
0.08	-4.63028	16.6758	0.40259	2.68364	-16.919	-11.3468	33.7267	-2.64319	27.9451	-47.4648	
0.085	-4.67158	16.6014	0.408595	2.64355	-16.8961	-11.396	33.7737	-2.67247	27.9697	-47.4217	
0.09	-4.69837	16.5824	0.40247	2.63189	-16.8902	-11.4411	33.8029	-2.68608	27.9815	-47.3751	
0.095	-4.70248	16.6184	0.383681	2.64652	-16.9012	-11.4849	33.8022	-2.69756	27.9842	-47.3224	
0.1	-4.68974	16.6948	0.347438	2.22059	-16.9277	-11.525	33.7754	-2.70136	27.9731	-47.2661	
0.105	-4.66804	16.7817	0.305586	2.22127	-16.9527	-11.5517	33.7444	-2.6989	27.9604	-47.211	
0.11	-4.62933	16.846	0.270601	2.61607	-16.9702	-11.5718	33.7366	-2.6953	27.9546	-47.162	
0.115	-4.56981	16.8808	0.240399	2.75065	-16.9819	-11.5922	33.7516	-2.69076	27.9643	-47.1203	
0.12	-4.50813	16.8919	0.21451	2.7155	-17.0011	-11.6205	33.7864	-2.68712	27.9851	-47.0817	
0.125	-4.45315	16.8735	0.195718	2.71829	-17.027	-11.6634	33.8389	-2.68521	28.0235	-47.0501	
0.13	-4.4101	16.8298	0.186414	2.7565	-17.0542	-11.7133	33.9125	-2.68752	28.0752	-47.026	
0.135	-4.38072	16.7859	0.185318	2.81824	-17.0848	-11.762	33.9957	-2.69452	28.1344	-47.0082	
0.14	-4.37029	16.7435	0.193232	2.86736	-17.1158	-11.8061	34.0555	-2.7043	28.1851	-46.9865	
0.145	-4.3866	16.6887	0.21361	2.91599	-17.1366	-11.8516	34.0685	-2.71127	28.2181	-46.9577	
0.15	-4.43304	16.6317	0.24494	2.96984	-17.151	-11.8981	34.0393	-2.713	28.2368	-46.9246	
0.155	-4.4931	16.587	0.278559	3.03365	-17.1666	-11.9397	33.9839	-2.7113	28.2473	-46.8962	
0.16	-4.53443	16.5356	0.305647	3.0929	-17.1837	-11.9728	33.9145	-2.71015	28.2492	-46.8696	
0.165	-4.54579	16.4601	0.324108	3.1347	-17.2005	-12.0009	33.8488	-2.71143	28.2476	-46.8456	
0.17	-4.54966	16.3567	0.341007	3.16025	-17.213	-12.0209	33.7858	-2.71345	28.2356	-46.8154	
0.175	-4.57686	16.2396	0.363838	3.18197	-17.2235	-12.0312	33.7241	-2.714	28.2099	-46.7725	
0.18	-4.63723	16.1266	0.393429	3.21174	-17.2351	-12.0456	33.6687	-2.70994	28.1754	-46.7191	
0.185	-4.73175	16.0611	0.4242	3.26364	-17.2574	-12.0832	33.6397	-2.7031	28.1505	-46.6698	
0.19	-4.85033	16.0667	0.450489	3.34244	-17.288	-12.1412	33.6553	-2.69476	28.1457	-46.6349	
0.195	-4.98327	16.1284	0.472728	3.43903	-17.3199	-12.1985	33.7071	-2.68354	28.1523	-46.6149	
0.2	-5.11609	16.2248	0.490686	3.54183	-17.349	-12.2242	33.7736	-2.67086	28.1501	-46.6048	
0.205	-5.2274	16.3502	0.499527	3.63966	-17.3745	-12.2104	33.8557	-2.65934	28.1329	-46.6	
0.21	-5.29862	16.4781	0.498158	3.71887	-17.3927	-12.1719	33.9662	-2.65218	28.1112	-46.6017	
0.215	-5.32264	16.5797	0.489067	3.76778	-17.4006	-12.1204	34.1103	-2.64865	28.0994	-46.6172	
0.22	-5.32185	16.6484	0.480385	3.78928	-17.4034	-12.068	34.2783	-2.64842	28.106	-46.6541	
0.225	-5.32698	16.6789	0.482122	3.79928	-17.4069	-12.0187	34.4375	-2.64832	28.1246	-46.7081	
0.23	-5.34237	16.668	0.495129	3.80621	-17.414	-11.9827	34.5691	-2.64729	28.1501	-46.7716	
0.235	-5.3465	16.6044	0.512981	3.80182	-17.42	-11.9547	34.6663	-2.64486	28.1774	-46.8378	
0.24	-5.33306	16.5075	0.529621	3.78056	-17.4259	-11.9226	34.7219	-2.64157	28.1898	-46.8929	
0.245	-5.31558	16.4227	0.541323	3.75511	-17.4407	-11.8962	34.7263	-2.63931	28.1833	-46.9312	
0.25	-5.29884	16.3707	0.545421	3.74008	-17.4729	-11.8754	34.6806	-2.63673	28.1564	-46.9532	
0.255	-5.27214	16.3553	0.537159	3.73664	-17.5208	-11.8594	34.6068	-2.63154	28.1207	-46.9694	
0.26	-5.22748	16.3649	0.51559	3.73374	-17.5761	-11.841	34.5198	-2.6214	28.0837	-46.9839	
0.265	-5.17542	16.3764	0.487989	3.71874	-17.6271	-11.8124	34.4343	-2.60686	28.0499	-47.0036	
0.27	-5.12317	16.3838	0.458445	3.68746	-17.6683	-11.7662	34.363	-2.58924	28.0232	-47.0353	
0.275	-5.06774	16.3891	0.426863	3.64705	-17.7003	-11.6972	34.2926	-2.56858	27.9926	-47.0729	
0.28	-5.01129	16.3861	0.395931	3.5964	-17.7296	-11.5979	34.2172	-2.54661	27.946	-47.1043	
0.285	-4.96622	16.3854	0.368865	3.54692	-17.7574	-11.4602	34.1329	-2.52427	27.8734	-47.1197	
0.29	-4.92317	16.4081	0.340073	3.50629	-17.7853	-11.3022	34.0502	-2.50294	27.7858	-47.1255	
0.295	-4.85333	16.4557	0.300376	3.46305	-17.809	-11.1596	33.9931	-2.48405	27.7097	-47.1369	
0.3	-4.75956	16.5333	0.250386	3.4122	-17.8321	-11.0437	33.9947	-2.47005	27.6639	-47.1677	
0.305	-4.66028	16.645	0.195766	3.35873	-17.8559	-10.9528	34.0613	-2.46308	27.6472	-47.2189	
0.31	-4.57265	16.7847	0.143263	3.30837	-17.8819	-10.8741	34.1744	-2.46785	27.6433	-47.2855	
0.315	-4.5138	16.9306	0.101512	3.26414	-17.9089	-10.7983	34.2936	-2.48673	27.6343	-47.3651	
0.32	-4.49357	17.0776	0.0741117	3.23401	-17.9457	-10.7249	34.3847	-2.51722	27.6102	-47.452	
0.325	-4.5089	17.2181	0.0606628	3.22236	-17.9944	-10.6634	34.4433	-2.55103	27.5766	-47.5471	
0.33	-4.5412	17.3247	0.0588103	3.21953	-18.0439	-10.6157	34.4957	-2.58284	27.5549	-47.6537	
0.335	-4.57699	17.3676	0.0686774	3.20886	-18.0794	-10.5848	34.557	-2.60333	27.5573	-47.7704	
0.34	-4.61762	17.3344	0.0928184	3.18397	-18.0964	-10.5678	34.6217	-2.61459	27.5813	-47.8889	
0.345	-4.66405	17.2511	0.127844	3.15255	-18.1008	-10.5709	34.6832	-2.61544	27.6283	-48.0048	
0.35	-4.7087	17.1684	0.163851	3.13271	-18.1048	-10.5921	34.7213	-2.60575	27.6853	-48.1071	
0.355	-4.74018	17.1195	0.192086	3.13551	-18.1149	-10.6194	34.7223	-2.58648	27.7399	-48.1884	
0.36	-4.764	17.1225	0.211343	3.1661	-18.1343	-10.6349	34.7047	-2.55887	27.7853	-48.2464	
0.365	-4.79047	17.1793	0.224192	3.22669	-18.1671	-10.6229	34.6842	-2.5285	27.8142	-48.2734	
0.37	-4.81726	17.2659	0.232784	3.30626	-18.2096	-10.5748	34.651	-2.49276	27.8178	-48.2708	
0.375	-4.83988	17.3697	0.237153	3.40091	-18.2536	-10.5088	34.6062	-2.46654	27.8036	-48.256	
0.38	-4.8517	17.4794	0.236756	3.49767	-18.2921	-10.4372	34.5396	-2.44457	27.7829	-48.2372	
0.385	-4.8443	17.5702	0.232371	3.57805	-18.3243	-10.3593	34.4495	-2.42345	27.7513	-48.2144	
0.39	-4.81669	17.6382	0.224193	3.64037	-18.349	-10.2674	34.3495	-2.40654	27.7113	-48.1897	
0.395	-4.77636	17.6915	0.213557	3.68497	-18.3677	-10.1711	34.2392	-2.39347	27.6676	-48.1664	
0.4	-4.7444	17.7307	0.206977	3.72257	-18.3795	-10.0814	34.1205	-2.38233	27.6285	-48.1487	
0.405	-4.7454	17.7597	0.211716	3.76273	-18.3922	-10.0159	33.972	-2.3717	27.5963	-48.1352	
0.41	-4.78721	17.7862	0.228678	3.82473	-18.4181	-9.98927	33.769	-2.35999	27.5654	-48.1208	
0.415	-4.86683	17.8426	0.250978	3.92701	-18.4726	-9.99945	33.5322	-2.34546	27.5388	-48.1029	
0.42	-4.97785	17.9493	0.273697	4.05196	-18.5625	-10.0307	33.2961	-2.3306	27.517	-48.0727	
0.425	-5.11433	18.1059	0.297861	4.16366	-18.6874	-10.083	33.1111	-2.31799	27.5128	-48.037	
0.43	-5.26776	18.2835	0.313131	4.47183	-18.8261	-10.155	33.003	-2.30826	27.5436	-48.0079	
0.435	-5.40688	18.451	0.32599	4.57851	-18.96	-10.2471	32.9755	-2.2981	27.6071	-47.9992	
0.44	-5.51816	18.5892	0.323106	4.80685	-19.0781	-10.3529	33.0131	-2.28614	27.7155	-48.0202	
0.445	-5.58067	18.6877	0.303289	4.93159	-19.1844	-10.4609	33.1039	-2.27664	27.8458	-48.0728	
0.45	-5.61142	18.7635	0.2688	5.04544	-19.2988	-10.5394	33.2381	-2.26654	27.9925	-48.1521	
0.455	-5.62442	18.8398	0.221283	5.14089	-19.441	-10.575	33.3993	-2.25379	28.128	-48.2489	
0.46	-5.62426	18.923	0.162324	5.24903	-19.6195	-10.5789	33.5384	-2.24086	28.2427	-48.3514	
0.465	-5.60143	19.0039	0.0919362	5.35439	-19.8274	-10.5645	33.6265	-2.2271	28.3185	-48.453	
0.47	-5.54509	19.0723	0.0096449	5.44856	-20.0589	-10.5362	33.675	-2.21385	28.3675	-48.5555	
0.475	-5.45926	19.1164	-0.0790864	5.52829	-20.3056	-10.4905	33.7111	-2.20117	28.3905	-48.6607	
0.48	-5.3451	19.1162	-0.168983	5.58265	-20.5458	-10.4325	33.7623	-2.19556	28.4016	-48.7695	
0.485	-5.2087	19.0824	-0.258402	5.61212	-20.7702	-10.3913	33.8457	-2.19527	28.4114	-48.8782	
0.49	-5.06948	19.0573	-0.345279	5.61239	-20.9702	-10.3824	33.954	-2.19532	28.4268	-48.9819	
0.495	-4.92784	19.0526	-0.429695	5.5988	-21.14	-10.4301	34.1015	-2.19689	28.4607	-49.0837	
0.5	-4.79899	19.0821	-0.507061	5.58687	-21.2678	-10.5348	34.2774	-2.20073	28.5191	-49.19	
0.505	-4.69725	19.1761	-0.575714	5.58042	-21.3485	-10.6734	34.4686	-2.20235	28.5925	-49.307	
0.51	-4.63567	19.3595	-0.634131	5.59196	-21.3846	-10.8024	34.6729	-2.21271	28.6729	-49.438	
0.515	-4.61747	19.6328	-0.680788	5.62289	-21.3809	-10.8744	34.8848	-2.24609	28.7381	-49.5744	
0.52	-4.63792	19.9774	-0.714517	5.66952	-21.3425	-10.905	35.1179	-2.26175	28.7948	-49.7161	
0.525	-4.70089	20.3784	-0.731893	5.72805	-21.2761	-10.9147	35.3895	-2.2695	28.864	-49.8663	
0.53	-4.82641	20.8243	-0.726271	5.7977	-21.1824	-10.9315	35.7114	-2.28091	28.9614	-50.0211	
0.535	-5.01967	21.312	-0.696334	5.87955	-21.0639	-10.9701	36.0909	-2.29296	29.0738	-50.1749	
0.54	-5.26958	21.8445	-0.648067	5.97383	-20.9284	-11.021	36.527	-2.30647	29.2401	-50.32	
0.545	-5.55603	22.4178	-0.589637	6.0741	-20.7784	-11.068	37.001	-2.32356	29.4166	-50.4492	
0.55	-5.85495	23.0232	-0.529681	6.17219	-20.6101	-11.0902	37.5076	-2.34628	29.5958	-50.5605	
0.555	-6.12996	23.6502	-0.480122	6.25012	-20.4154	-11.0638	38.0342	-2.37499	29.7515	-50.6486	
0.56	-6.33602	24.2794	-0.45612	6.28606	-20.1889	-10.9713	38.559	-2.41212	29.8798	-50.7043	
0.565	-6.43354	24.8765	-0.466388	6.25337	-19.9309	-10.8039	39.0712	-2.45988	29.9626	-50.7255	
0.57	-6.41255	25.3882	-0.508885	6.12975	-19.6508	-10.5584	39.5727	-2.5156	30.0046	-50.7134	
0.575	-6.28957	25.762	-0.571622	5.90326	-19.3604	-10.2559	40.0482	-2.57619	30.0007	-50.6627	
0.58	-6.09011	25.9669	-0.643366	5.57435	-19.0703	-9.92906	40.4718	-2.64229	29.9566	-50.563	
0.585	-5.82707	26.0069	-0.721872	5.1515	-18.7826	-9.6142	40.829	-2.71637	29.8715	-50.4052	
0.59	-5.51751	25.9116	-0.806802	4.64813	-18.4991	-9.34374	41.0895	-2.79822	29.7488	-50.1853	
0.595	-5.19188	25.7292	-0.896213	4.09059	-18.226	-9.14018	41.2301	-2.88721	29.5809	-49.899	
0.6	-4.89012	25.499	-0.984414	3.51473	-17.9693	-9.00183	41.2545	-2.97531	29.3679	-49.5486	
0.605	-4.65447	25.2457	-1.06204	2.95362	-17.7314	-8.91153	41.186	-3.05929	29.1184	-49.1418	
0.61	-4.5272	24.9913	-1.11976	2.43584	-17.5161	-8.86008	41.0541	-3.13887	28.8389	-48.6987	
0.615	-4.52254	24.7599	-1.15749	1.97661	-17.3221	-8.8399	40.887	-3.20711	28.5359	-48.2252	
0.62	-4.61326	24.5575	-1.18561	1.56232	-17.1369	-8.81349	40.7125	-3.29381	28.2052	-47.7308	
0.625	-4.75197	24.3905	-1.22041	1.16159	-16.9426	-8.76833	40.5288	-3.39061	27.8326	-47.2153	
0.63	-4.91379	24.2633	-1.27022	0.753548	-16.7312	-8.70416	40.3278	-3.49212	27.4035	-46.6787	
0.635	-5.0978	24.1903	-1.33713	0.337331	-16.5012	-8.6183	40.1123	-3.60464	26.9075	-46.1206	
0.64	-5.31571	24.1766	-1.41622	-0.0800437	-16.2536	-8.50963	39.8949	-3.72261	26.3484	-45.5466	
0.645	-5.58462	24.2189	-1.5003	-0.491366	-15.9997	-8.39499	39.688	-3.84321	25.7348	-44.964	
0.65	-5.88994	24.2877	-1.58569	-0.900126	-15.7499	-8.2889	39.4977	-3.96085	25.0839	-44.3717	
0.655	-6.19347	24.3307	-1.67467	-1.32661	-15.5082	-8.19472	39.3185	-4.07275	24.3983	-43.761	
0.66	-6.47722	24.3006	-1.76235	-1.77968	-15.2799	-8.11666	39.1388	-4.17798	23.6543	-43.1331	
0.665	-6.73638	24.1928	-1.84511	-2.25119	-15.0676	-8.06489	38.9716	-4.27233	22.8661	-42.4809	
0.67	-6.96516	24.0111	-1.9153	-2.73236	-14.8713	-8.0704	38.8335	-4.35625	22.0586	-41.8075	
0.675	-7.16183	23.7518	-1.98078	-3.21844	-14.6898	-8.16768	38.7208	-4.43506	21.2471	-41.1179	
0.68	-7.33388	23.4306	-2.03977	-3.70095	-14.5341	-8.37851	38.6237	-4.50554	20.4448	-40.4176	
0.685	-7.48794	23.068	-2.09132	-4.17244	-14.4129	-8.72553	38.5395	-4.56432	19.6681	-39.7276	
0.69	-7.58968	22.6947	-2.04132	-4.64293	-14.3222	-9.21065	38.4345	-4.61838	18.9512	-39.0348	
0.695	-7.64048	22.2873	-2.11798	-5.13569	-14.2554	-9.77256	38.2644	-4.66163	18.2279	-38.3649	
0.7	-7.64981	21.8409	-2.17194	-5.68227	-14.2042	-10.2908	38.0314	-4.69454	17.4683	-37.736	
0.705	-7.51914	21.3572	-2.24433	-6.32592	-14.1666	-10.6388	37.7557	-4.71965	16.6496	-37.1644	
0.71	-7.31005	20.8222	-2.31529	-7.08582	-14.1441	-10.7507	37.4758	-4.74095	15.7476	-36.6793	
0.715	-7.06629	20.2565	-2.37537	-7.94872	-14.133	-10.662	37.2473	-4.76696	14.7609	-36.3183	
0.72	-6.88285	19.6885	-2.40346	-8.89402	-14.1204	-10.4815	37.1213	-4.80149	13.7251	-36.1034	
0.725	-6.84281	19.1521	-2.38628	-9.86199	-14.0927	-10.3192	37.133	-4.87015	12.6883	-36.0408	
0.73	-7.02345	18.6837	-2.31316	-10.792	-14.0516	-10.2541	37.2819	-4.92623	11.6998	-36.1179	
0.735	-7.47504	18.3186	-2.18347	-11.625	-14.0036	-10.2984	37.5713	-5.01317	10.7581	-36.3224	
0.74	-8.20151	18.0518	-2.01955	-12.3366	-13.9511	-10.4649	37.9538	-5.11276	9.86419	-36.6264	
0.745	-9.11395	17.8602	-1.8276	-12.9554	-13.8854	-10.7373	38.3744	-5.22321	9.00076	-36.9938	
0.75	-10.1181	17.7102	-1.62112	-13.5557	-13.7979	-11.1101	38.7784	-5.33801	8.1592	-37.3964	
0.755	-11.1339	17.5973	-1.42991	-14.1175	-13.7035	-11.5276	39.1414	-5.45494	7.31784	-37.8089	
0.76	-12.0868	17.5237	-1.27506	-14.6669	-13.6149	-11.926	39.4341	-5.57531	6.43998	-38.2147	
0.765	-12.9149	17.4777	-1.17792	-15.2531	-13.5349	-12.2626	39.6431	-5.70485	5.48325	-38.6051	
0.77	-13.5507	17.4593	-1.1565	-15.9323	-13.4649	-12.5098	39.7857	-5.82731	4.4327	-38.9651	
0.775	-13.9548	17.4748	-1.20689	-16.797	-13.4313	-12.6822	39.8706	-5.93419	3.26411	-39.2795	
0.78	-14.1535	17.5159	-1.30951	-17.8631	-13.4341	-12.8347	39.9341	-6.04573	2.00468	-39.5255	
0.785	-14.2124	17.5733	-1.44389	-19.1462	-13.4754	-13.0528	40.0254	-6.15729	0.707322	-39.6868	
0.79	-14.2107	17.6702	-1.59407	-20.6245	-13.5547	-13.4119	40.1799	-6.26481	-0.569487	-39.756	
0.795	-14.2333	17.8434	-1.74428	-22.2478	-13.6638	-13.9199	40.5131	-5.49402	-1.7797	-39.7397	
0.8	-14.3593	18.1277	-1.86196	-23.9362	-13.7925	-14.5077	40.9082	-6.67277	-2.89413	-39.6577	
0.805	-14.6757	18.523	-1.98379	-25.6183	-13.9271	-15.2761	41.5317	-6.51742	-3.90354	-39.5411	
0.81	-15.23	19.0101	-2.06359	-27.2329	-14.0485	-15.9173	42.4385	-6.50901	-4.81758	-39.4242	
0.815	-15.9962	19.5653	-2.09658	-28.7381	-14.1474	-16.5972	43.4757	-6.7317	-5.67565	-39.3274	
0.82	-16.9386	20.1433	-2.09709	-30.1193	-14.2166	-17.128	44.6888	-7.04655	-6.52192	-39.2509	
0.825	-17.9903	20.7093	-2.08299	-31.3817	-14.2561	-17.5641	45.9883	-7.31072	-7.38112	-39.1841	
0.83	-19.084	21.2283	-2.06217	-32.5402	-14.268	-17.8797	47.3107	-7.55476	-8.25492	-39.1094	
0.835	-20.1428	21.6749	-2.04855	-33.6146	-14.2441	-18.134	48.5504	-7.79524	-9.13135	-39.0109	
0.84	-21.0958	22.0166	-2.04796	-34.6056	-14.177	-18.3033	49.656	-8.03409	-10.0141	-38.8883	
0.845	-21.915	22.218	-2.0571	-35.4868	-14.0619	-18.3838	50.5861	-8.25564	-10.9306	-38.7518	
0.85	-22.6053	22.2793	-2.07024	-36.2161	-13.902	-18.3869	51.335	-8.4582	-11.919	-38.6177	
0.855	-23.191	22.2382	-2.08636	-36.7636	-13.71	-18.3736	51.9479	-8.64406	-12.9979	-38.5179	
0.86	-23.7152	22.1195	-2.2183	-37.1552	-13.5049	-18.4214	52.5087	-8.82255	-14.1646	-38.4766	
0.865	-24.1393	22.0039	-2.38712	-37.4882	-13.307	-18.6436	53.0967	-9.01764	-15.372	-38.5031	
0.87	-24.4832	21.9358	-2.52476	-37.9105	-13.1316	-19.1289	53.7624	-9.24611	-16.5453	-38.5882	
0.875	-24.8019	21.9221	-2.68499	-38.5855	-12.988	-19.9212	54.5082	-9.45139	-17.608	-38.7114	
0.88	-25.1249	21.9717	-2.84139	-39.6459	-12.8804	-21.0271	55.2883	-9.55964	-18.4987	-38.8468	
0.885	-25.5072	22.0684	-2.95887	-41.1324	-12.8183	-22.4179	55.9662	-9.67142	-19.1911	-38.9608	
0.89	-25.993	22.168	-3.01342	-42.9704	-12.8034	-23.8989	56.5203	-9.66919	-19.6828	-39.0247	
0.895	-26.6158	22.2212	-2.99337	-44.9804	-12.8264	-25.3884	56.8324	-9.53875	-19.978	-39.0233	
0.9	-27.4027	22.2206	-2.89828	-46.9402	-12.8782	-26.7736	56.8099	-9.3329	-20.1124	-38.945	
0.905	-28.3381	22.1913	-2.74302	-48.6721	-12.953	-27.88	56.4607	-9.11017	-20.1551	-38.7882	
0.91	-29.3599	22.1731	-2.52054	-50.1066	-13.0369	-28.6001	55.8684	-8.91621	-20.203	-38.5616	
0.915	-30.4272	22.171	-2.34746	-51.2729	-13.1199	-28.9023	55.1548	-8.79073	-20.383	-38.2859	
0.92	-31.4553	22.1904	-2.17792	-52.3056	-13.1896	-28.8159	54.4749	-8.77003	-20.8322	-38.0046	
0.925	-32.3558	22.2083	-2.02993	-53.3934	-13.2315	-28.4338	53.9721	-8.87196	-21.6472	-37.7719	
0.93	-33.1038	22.1851	-1.90527	-54.6773	-13.2383	-27.9035	53.7207	-9.08437	-22.8395	-37.625	
0.935	-33.7206	22.0592	-1.78319	-56.1996	-13.2038	-27.3733	53.7721	-9.32882	-24.3085	-37.5833	
0.94	-34.2391	21.8035	-1.64537	-57.8817	-13.1295	-26.9812	54.1264	-9.5712	-25.8951	-37.6533	
0.945	-34.6686	21.4491	-1.49671	-59.5447	-13.0209	-26.8647	54.7117	-9.83761	-27.4363	-37.8323	
0.95	-34.998	21.0663	-1.35662	-60.9942	-12.8805	-27.0068	55.4804	-10.0484	-28.8119	-38.1044	
0.955	-35.2053	20.7526	-1.25751	-62.0822	-12.7261	-27.3427	56.3298	-10.3274	-29.9789	-38.4456	
0.96	-35.277	20.6048	-1.22846	-62.7518	-12.587	-27.8015	57.176	-10.4414	-30.9755	-38.8346	
0.965	-35.2357	20.6712	-1.28165	-63.0726	-12.4777	-28.3263	57.9309	-10.6612	-31.8952	-39.2608	
0.97	-35.1556	20.9308	-1.40018	-63.2038	-12.4018	-28.937	58.5669	-10.847	-32.8289	-39.7364	
0.975	-35.1487	21.3243	-1.55046	-63.3097	-12.3588	-29.639	59.0972	-10.9523	-33.8318	-40.2779	
0.98	-35.3403	21.7739	-1.69077	-63.4835	-12.3429	-30.477	59.4779	-11.0079	-34.9022	-40.8841	
0.985	-35.816	22.2007	-1.78176	-63.7304	-12.3441	-31.4549	59.6644	-11.0189	-35.9867	-41.5287	
0.99	-36.5729	22.5244	-1.80378	-63.9881	-12.3535	-32.5477	59.6141	-10.9787	-36.9901	-42.1716	
0.995	-37.5403	22.7053	-1.75711	-64.1829	-12.3695	-33.7029	59.3406	-10.8904	-37.8176	-42.774	
1	-38.6356	22.7536	-1.65858	-64.2723	-12.4093	-34.84	58.9397	-10.7798	-38.4268	-43.3186	
1.005	-39.7516	22.7082	-1.53901	-64.2838	-12.4898	-35.841	58.5393	-10.6831	-38.8602	-43.8063	
1.01	-40.7702	22.6025	-1.42488	-64.3139	-12.6167	-36.5905	58.2572	-10.636	-39.2366	-44.2495	
1.015	-41.6125	22.4594	-1.33901	-64.5048	-12.7883	-37.0287	58.1686	-10.6618	-39.7247	-44.6684	
1.02	-42.2409	22.2914	-1.28835	-64.9811	-12.9889	-37.1702	58.2776	-10.7639	-40.4818	-45.0828	
1.025	-42.6779	22.0988	-1.26788	-65.7676	-13.2091	-37.1089	58.4943	-10.9178	-41.5707	-45.4989	
1.03	-42.9703	21.8759	-1.26546	-66.7724	-13.4393	-36.9749	58.6688	-11.0804	-42.9203	-45.9075	
1.035	-43.1567	21.6244	-1.27434	-67.8385	-13.6668	-36.8683	58.6948	-11.2174	-44.3657	-46.2852	
1.04	-43.2941	21.363	-1.28887	-68.8157	-13.8723	-36.8349	58.542	-11.3148	-45.7196	-46.6117	
1.045	-43.4598	21.1138	-1.30377	-69.5946	-14.0408	-36.8814	58.2443	-11.3773	-46.8458	-46.8768	
1.05	-43.7399	20.9082	-1.31239	-70.1129	-14.1714	-37.0015	57.8786	-11.4218	-47.695	-47.0902	
1.055	-44.2058	20.7719	-1.31263	-70.3673	-14.2727	-37.1767	57.5327	-11.45	-48.3198	-47.2722	
1.06	-44.8992	20.7194	-1.30157	-70.4153	-14.3568	-37.4131	57.2682	-11.4678	-48.85	-47.4528	
1.065	-45.8128	20.7453	-1.27861	-70.3746	-14.4357	-37.7613	57.1161	-11.486	-49.4443	-47.6695	
1.07	-46.8935	20.8313	-1.24688	-70.3943	-14.5131	-38.3051	57.0549	-11.5035	-50.2244	-47.9528	
1.075	-48.0459	20.9496	-1.21022	-70.5805	-14.5942	-39.12	56.9982	-11.5031	-51.2095	-48.3036	
1.08	-49.1707	21.0626	-1.17182	-70.9565	-14.6879	-40.2351	56.8191	-11.4601	-52.3007	-48.6944	
1.085	-50.1921	21.1437	-1.13135	-71.4808	-14.8005	-41.5692	56.4205	-11.3631	-53.3364	-49.0811	
1.09	-51.0599	21.1766	-1.08948	-72.1081	-14.9265	-42.9481	55.7525	-11.2154	-54.1588	-49.4161	
1.095	-51.755	21.1724	-1.05024	-72.8135	-15.0722	-44.1617	54.8633	-11.0422	-54.6721	-49.6677	
1.1	-52.2956	21.124	-1.00762	-73.5882	-15.2448	-45.0544	53.8533	-10.8769	-54.8709	-49.827	
1.105	-52.725	21.0079	-0.946101	-74.4383	-15.4501	-45.5697	52.8296	-10.7454	-54.8365	-49.9052	
1.11	-53.1116	20.7984	-0.846452	-75.3866	-15.6854	-45.777	51.9052	-10.6662	-54.7035	-49.9368	
1.115	-53.5326	20.4927	-0.699289	-76.4361	-15.9456	-45.833	51.1873	-10.6259	-54.6151	-49.9747	
1.12	-54.0354	20.1041	-0.501926	-77.5447	-16.2237	-45.9435	50.7059	-10.5998	-54.6686	-50.0613	
1.125	-54.6213	19.6339	-0.26491	-78.6236	-16.5074	-46.3051	50.3954	-10.5745	-54.8749	-50.2133	
1.13	-55.245	19.084	0.00354401	-79.5607	-16.7814	-47.0205	50.1356	-10.535	-55.172	-50.4219	
1.135	-55.8289	18.4756	0.290529	-80.2727	-17.0281	-48.0528	49.8267	-10.4699	-55.4689	-50.6612	
1.14	-56.304	17.8675	0.575832	-80.7175	-17.2496	-49.2529	49.4226	-10.3816	-55.7012	-50.9074	
1.145	-56.636	17.29	0.759045	-80.927	-17.458	-50.4213	48.9226	-10.283	-55.8612	-51.1451	
1.15	-56.8013	16.7961	0.880597	-80.9891	-17.6659	-51.4108	48.3316	-10.1859	-55.9868	-51.3638	
1.155	-56.8246	16.3945	0.92773	-81.0074	-17.883	-52.1733	47.6877	-10.1013	-56.1379	-51.5709	
1.16	-56.7398	16.082	0.900315	-81.0741	-18.1076	-52.7364	47.0609	-10.0446	-56.369	-51.7852	
1.165	-56.5758	15.8438	0.809731	-81.2339	-18.3389	-53.1673	46.4781	-10.012	-56.6869	-52.0214	
1.17	-56.3492	15.6706	0.66807	-81.4678	-18.5768	-53.5564	45.9295	-9.99214	-57.0537	-52.2866	
1.175	-56.0571	15.5501	0.484353	-81.7156	-18.8177	-53.8406	45.4516	-9.98025	-57.4062	-52.582	
1.18	-55.7061	15.464	0.272222	-81.9163	-19.0575	-54.0876	44.9766	-9.94572	-57.692	-52.9004	
1.185	-55.3214	15.3958	0.0458799	-82.0343	-19.2928	-54.3298	44.4553	-9.87927	-57.8989	-53.2281	
1.19	-54.9191	15.3339	-0.182599	-82.1059	-19.5121	-54.5483	43.8673	-9.78704	-58.0571	-53.5503	
1.195	-54.5378	15.2743	-0.402758	-82.205	-19.7063	-54.6968	43.1786	-9.67033	-58.2311	-53.8529	
1.2	-54.2491	15.2141	-0.599142	-82.399	-19.8818	-54.74	42.3883	-9.54375	-58.4895	-54.1359	
1.205	-54.1038	15.1458	-0.760973	-82.7131	-20.0488	-54.6742	41.5308	-9.42444	-58.899	-54.4118	
1.21	-54.1002	15.0666	-0.888421	-83.1113	-20.2134	-54.5249	40.6646	-9.32543	-59.4926	-54.6987	
1.215	-54.1923	14.9735	-0.990192	-83.537	-20.3705	-54.3412	39.8674	-9.25915	-60.2572	-55.0139	
1.22	-54.3203	14.8738	-1.08322	-83.939	-20.5129	-54.1672	39.1945	-9.23681	-61.1364	-55.3623	
1.225	-54.4412	14.7777	-1.18216	-84.2797	-20.6347	-54.0363	38.6613	-9.25829	-62.0558	-55.7431	
1.23	-54.525	14.6868	-1.29974	-84.5381	-20.7354	-53.952	38.2264	-9.31183	-62.9551	-56.1492	
1.235	-54.5394	14.611	-1.44449	-84.7151	-20.8246	-53.8902	37.8176	-9.38257	-63.8101	-56.5641	
1.24	-54.4516	14.5615	-1.62723	-84.8299	-20.9131	-53.8275	37.3755	-9.45814	-64.627	-56.9717	
1.245	-54.2485	14.5506	-1.852	-84.9038	-21.011	-53.7401	36.8592	-9.53044	-65.427	-57.3586	
1.25	-53.9303	14.5764	-2.11257	-84.955	-21.1192	-53.6106	36.2638	-9.6042	-66.2199	-57.7271	
1.255	-53.5162	14.6141	-2.39296	-85.0051	-21.2306	-53.4372	35.6022	-9.68264	-67.0033	-58.0766	
1.26	-53.0468	14.6304	-2.66507	-85.0726	-21.3434	-53.237	34.8841	-9.7591	-67.7487	-58.4085	
1.265	-52.5471	14.5862	-2.90531	-85.1683	-21.4567	-53.0508	34.1295	-9.82176	-68.4013	-58.729	
1.27	-52.043	14.4579	-3.09337	-85.2896	-21.5674	-52.9181	33.3613	-9.86031	-68.9152	-59.0375	
1.275	-51.5583	14.253	-3.22287	-85.4526	-21.6785	-52.8488	32.57	-9.86257	-69.261	-59.3245	
1.28	-51.1412	14.0077	-3.3001	-85.6618	-21.806	-52.8447	31.7623	-9.82816	-69.4304	-59.5971	
1.285	-50.8197	13.7591	-3.33265	-85.9129	-21.9501	-52.9047	30.9653	-9.76821	-69.4659	-59.8686	
1.29	-50.6183	13.5236	-3.3279	-86.1881	-22.1067	-53.0203	30.2124	-9.7018	-69.4256	-60.1528	
1.295	-50.5115	13.3031	-3.29282	-86.479	-22.2664	-53.1715	29.5259	-9.64836	-69.3943	-60.4521	
1.3	-50.4426	13.1097	-3.24624	-86.7764	-22.427	-53.344	28.9252	-9.6261	-69.4326	-60.7735	
1.305	-50.36	12.9818	-3.1637	-87.0674	-22.5875	-53.5233	28.3982	-9.64172	-69.564	-61.1118	
1.31	-50.2396	12.9207	-3.07738	-87.3311	-22.7475	-53.7016	27.9069	-9.68931	-69.7851	-61.461	
1.315	-50.0864	12.8826	-3.09584	-87.5796	-22.8995	-53.892	27.4217	-9.7585	-70.0695	-61.8099	
1.32	-49.8936	12.9009	-3.16924	-87.814	-23.0427	-54.0948	26.8901	-9.83069	-70.3861	-62.1502	
1.325	-49.6972	12.9673	-3.27264	-88.0445	-23.1843	-54.321	26.2985	-9.89771	-70.6947	-62.4754	
1.33	-49.5202	13.0583	-3.40539	-88.2635	-23.33	-54.5828	25.6735	-9.99076	-70.9581	-62.7927	
1.335	-49.3737	13.1275	-3.55624	-88.4732	-23.4736	-54.9293	25.0617	-10.0647	-71.1454	-63.0996	
1.34	-49.2601	13.1321	-3.70978	-88.6664	-23.6041	-55.3427	24.4623	-10.1435	-71.2217	-63.3939	
1.345	-49.1825	13.0588	-3.8576	-88.8342	-23.7191	-55.8352	23.8789	-10.2206	-71.1937	-63.6669	
1.35	-49.1521	12.9042	-4.01863	-88.9769	-23.8181	-56.54	23.1777	-10.2091	-71.0546	-63.9196	
1.355	-49.1522	12.7115	-4.16264	-89.1184	-23.9071	-57.3454	22.4205	-10.1599	-70.8219	-64.144	
1.36	-49.2156	12.5101	-4.31674	-89.1121	-23.9987	-58.1736	21.581	-10.0736	-70.5099	-64.3371	
1.365	-49.3683	12.3233	-4.48389	-89.0488	-24.1048	-58.9013	20.7118	-9.99639	-70.1354	-64.5006	
1.37	-49.6243	12.1575	-4.66115	-88.9751	-24.2358	-59.5074	19.8144	-9.92948	-69.7275	-64.6437	
1.375	-49.9787	12.0021	-4.84052	-88.9793	-24.3945	-59.9568	18.9628	-9.90991	-69.3418	-64.7682	
1.38	-50.3932	11.8494	-5.01639	-89.0916	-24.579	-60.2624	18.17	-9.93738	-69.0414	-64.8855	
1.385	-50.8156	11.6863	-5.18597	-89.3614	-24.7823	-60.4308	17.4604	-10.0148	-68.8677	-65.0041	
1.39	-51.1867	11.5129	-5.35076	-90.1199	-25.0063	-60.5335	16.8232	-10.1188	-68.8403	-65.1355	
1.395	-51.4614	11.3279	-5.51152	-90.9365	-25.2391	-60.632	16.2366	-10.2182	-68.933	-65.285	
1.4	-51.6394	11.1357	-5.66793	-91.7697	-25.4673	-60.7635	15.6693	-10.2842	-69.1046	-65.4579	
1.405	-51.7636	10.9495	-5.82062	-92.5703	-25.6795	-60.9485	15.0953	-10.2954	-69.3018	-65.648	
1.41	-51.8915	10.7801	-5.97227	-93.2906	-25.8645	-61.1873	14.4928	-10.236	-69.4698	-65.8622	
1.415	-52.0935	10.6322	-6.12071	-93.8911	-26.0164	-61.4778	13.8578	-10.1079	-69.5869	-66.0783	
1.42	-52.4236	10.5079	-6.26648	-94.35	-26.1328	-61.7751	13.1922	-9.92762	-69.6646	-66.2939	
1.425	-52.9132	10.4	-6.40501	-94.6642	-26.2268	-62.0135	12.507	-9.72196	-69.7178	-66.4897	
1.43	-53.5614	10.2831	-6.52756	-94.8489	-26.3088	-62.1549	11.825	-9.51678	-69.7605	-66.6613	
1.435	-54.3429	10.1306	-6.62502	-94.9316	-26.3867	-62.196	11.1682	-9.33345	-69.7789	-66.805	
1.44	-55.1964	9.92833	-6.69519	-94.9443	-26.4685	-62.1445	10.5283	-9.18476	-69.7552	-66.9245	
1.445	-56.0375	9.67872	-6.74255	-94.9235	-26.5636	-62.0086	9.88921	-9.07298	-69.6682	-67.0144	
1.45	-56.7853	9.39674	-6.77928	-94.9013	-26.673	-61.8129	9.2566	-9.00193	-69.5074	-67.0871	
1.455	-57.3836	9.10539	-6.81476	-94.9044	-26.7977	-61.5748	8.63632	-8.9767	-69.2801	-67.1413	
1.46	-57.8052	8.83336	-6.86204	-94.9543	-26.9321	-61.3109	8.01979	-8.9933	-69.0162	-67.181	
1.465	-58.0584	8.60217	-6.92818	-95.0655	-27.0631	-61.0452	7.38312	-9.03829	-68.7399	-67.207	
1.47	-58.1799	8.41263	-7.01073	-95.2385	-27.1789	-60.8004	6.70655	-9.08661	-68.4783	-67.2297	
1.475	-58.2151	8.24559	-7.1	-95.4584	-27.2802	-60.5837	5.97115	-9.13694	-68.2528	-67.2463	
1.48	-58.1778	8.07572	-7.1877	-95.696	-27.379	-60.4103	5.17147	-9.15511	-68.081	-67.2642	
1.485	-58.0759	7.89584	-7.27081	-95.9201	-27.4874	-60.2673	4.33525	-9.14646	-67.9674	-67.286	
1.49	-57.9244	7.68424	-7.34058	-96.1042	-27.6118	-60.158	3.49986	-9.13253	-67.9096	-67.3204	
1.495	-57.7522	7.50135	-7.41996	-96.2303	-27.7523	-60.0469	2.65949	-9.12081	-67.897	-67.3656	
1.5	-57.5684	7.32526	-7.49776	-96.2882	-27.9018	-59.9612	1.84055	-9.11613	-67.9132	-67.4404	
1.505	-57.3787	7.15877	-7.57145	-96.2767	-28.0522	-59.9229	1.06355	-9.12414	-67.9284	-67.5494	
1.51	-57.1878	7.01774	-7.64476	-96.202	-28.1995	-59.907	0.318224	-9.13842	-67.9313	-67.6851	
1.515	-56.9947	6.89511	-7.71267	-96.0744	-28.3439	-59.8893	-0.402708	-9.15668	-67.9234	-67.8217	
1.52	-56.7979	6.7695	-7.76537	-95.9091	-28.4899	-59.8489	-1.10994	-9.17441	-67.9075	-67.9407	
1.525	-56.5976	6.6268	-7.8006	-95.7281	-28.6366	-59.7746	-1.80185	-9.19007	-67.8867	-68.0299	
1.53	-56.4025	6.45931	-7.81749	-95.5557	-28.7894	-59.6496	-2.46852	-9.21032	-67.8532	-68.0883	
1.535	-56.2224	6.24869	-7.8082	-95.4203	-28.9499	-59.4785	-3.12512	-9.22494	-67.7872	-68.1131	
1.54	-56.0753	5.99929	-7.78861	-95.3487	-29.1121	-59.2918	-3.77642	-9.22671	-67.6647	-68.1208	
1.545	-55.9776	5.72592	-7.77163	-95.3737	-29.2775	-59.1371	-4.42674	-9.20506	-67.4647	-68.1114	
1.55	-55.9422	5.44097	-7.76631	-95.5229	-29.4455	-58.9848	-5.05712	-9.17725	-67.1833	-68.0894	
1.555	-55.97	5.14279	-7.7764	-95.8175	-29.6058	-58.8232	-5.66572	-9.14621	-66.8469	-68.0407	
1.56	-56.0496	4.81076	-7.79542	-96.2735	-29.7473	-58.6123	-6.19121	-9.13537	-66.4853	-67.9695	
1.565	-56.1648	4.42585	-7.81521	-96.894	-29.8662	-58.3632	-6.67388	-9.14171	-66.1261	-67.8814	
1.57	-56.14	3.94987	-7.81906	-97.6824	-29.9693	-58.0609	-7.0495	-9.21597	-65.798	-67.7912	
1.575	-56.0562	3.41091	-7.80867	-97.703	-30.0628	-57.8039	-7.41225	-9.29806	-65.4987	-67.7109	
1.58	-56.0326	2.85538	-7.79776	-97.4103	-30.155	-57.6138	-7.75181	-9.37747	-65.2065	-67.6487	
1.585	-56.0737	2.30348	-7.7911	-97.1368	-30.2542	-57.5696	-8.19656	-9.37987	-64.9106	-67.5913	
1.59	-56.1715	1.76801	-7.78971	-96.8747	-30.3592	-57.636	-8.68565	-9.34448	-64.6062	-67.5454	
1.595	-56.2879	1.25172	-7.79526	-96.6884	-30.471	-57.8179	-9.27663	-9.24331	-64.2965	-67.5131	
1.6	-56.4068	0.761882	-7.80636	-96.5532	-30.598	-58.0971	-9.89586	-9.11659	-64.0025	-67.5055	
1.605	-56.5054	0.310046	-7.81974	-96.4742	-30.7337	-58.4616	-10.5557	-8.96232	-63.7384	-67.5255	
1.61	-56.5726	-0.0951604	-7.83786	-96.4027	-30.8861	-58.8675	-11.2296	-8.80484	-63.5089	-67.5718	
1.615	-56.5941	-0.441949	-7.8564	-96.3234	-31.0489	-59.3005	-11.897	-8.66371	-63.3062	-67.6317	
1.62	-56.5703	-0.720753	-7.87947	-96.2098	-31.2149	-59.7189	-12.5317	-8.56452	-63.1106	-67.6976	
1.625	-56.5077	-0.924508	-7.90435	-96.0562	-31.3707	-60.1084	-13.1308	-8.51198	-62.899	-67.7518	
1.63	-56.3693	-1.05898	-7.9273	-95.8532	-31.5097	-60.4747	-13.697	-8.5048	-62.6463	-67.7882	
1.635	-56.1368	-1.13405	-7.94347	-95.6194	-31.6269	-60.7941	-14.2727	-8.53066	-62.3266	-67.8045	
1.64	-55.8251	-1.16118	-7.95152	-95.3612	-31.7094	-61.0888	-14.8603	-8.57116	-61.9376	-67.8043	
1.645	-55.4665	-1.15314	-7.95214	-95.1042	-31.7843	-61.3426	-15.476	-8.65287	-61.5283	-67.7874	
1.65	-55.0975	-1.12604	-7.94748	-94.8411	-31.8498	-61.5835	-16.1147	-8.75087	-60.9913	-67.7477	
1.655	-54.7488	-1.09981	-7.93941	-94.5498	-31.9078	-61.7206	-16.6724	-8.89482	-60.3498	-67.6945	
1.66	-54.498	-1.03635	-7.94232	-94.2005	-31.9618	-61.8647	-17.3239	-8.98781	-59.6533	-67.6421	
1.665	-54.3475	-0.968448	-7.95676	-93.7789	-32.015	-62.0886	-18.055	-9.00839	-58.9392	-67.5916	
1.67	-54.2565	-0.960308	-7.97169	-93.273	-32.0646	-62.1777	-18.8529	-8.97803	-58.1891	-67.5491	
1.675	-54.2265	-1.01604	-7.98973	-92.6822	-32.114	-62.4359	-19.3736	-9.00588	-57.436	-67.5205	
1.68	-54.2508	-1.13187	-8.01253	-92.0122	-32.1643	-62.549	-19.8609	-9.02022	-56.7151	-67.5236	
1.685	-54.3122	-1.31693	-8.03681	-91.2893	-32.2028	-62.5452	-20.353	-8.96439	-56.0921	-67.5663	
1.69	-54.4396	-1.60145	-8.04369	-90.5299	-32.2212	-62.5288	-20.7597	-8.89394	-55.4997	-67.6314	
1.695	-54.5283	-1.90176	-8.0713	-89.7149	-32.2339	-62.5099	-21.1507	-8.8638	-54.9874	-67.7181	
1.7	-54.5875	-2.19897	-8.11636	-88.8407	-32.261	-62.4273	-21.6538	-8.73754	-54.5381	-67.8304	
1.705	-54.6399	-2.48129	-8.17487	-87.9334	-32.3123	-62.7321	-21.987	-8.55933	-54.0843	-67.9569	
1.71	-54.691	-2.72775	-8.24279	-87.0438	-32.3901	-62.6796	-22.3802	-8.37826	-53.6272	-68.1082	
1.715	-54.7526	-2.94298	-8.30925	-86.2199	-32.499	-62.6489	-22.7973	-8.16599	-53.1394	-68.2564	
1.72	-54.8104	-3.11085	-8.37268	-85.5169	-32.6399	-62.4925	-23.2161	-7.96779	-52.626	-68.4094	
1.725	-54.842	-3.21169	-8.43515	-84.9989	-32.8096	-62.4886	-23.5584	-7.78466	-52.0817	-68.5479	
1.73	-54.8306	-3.24512	-8.49031	-84.7065	-32.997	-62.026	-23.8262	-7.47527	-51.5248	-68.6862	
1.735	-54.7653	-3.22865	-8.5376	-84.6572	-33.1857	-62.0303	-23.9447	-7.28562	-50.948	-68.8096	
1.74	-54.658	-3.16396	-8.5779	-84.8035	-33.393	-61.9865	-24.1163	-7.00711	-50.3581	-68.954	
1.745	-54.6299	-3.19608	-8.55345	-85.1043	-33.5976	-61.6247	-24.4298	-6.95043	-49.7428	-69.1063	
1.75	-54.6515	-3.30727	-8.47906	-85.4808	-33.7975	-61.2924	-24.7149	-6.96834	-49.0906	-69.2805	
1.755	-54.6612	-3.44226	-8.38909	-85.8479	-33.9863	-61.1484	-24.8952	-6.91941	-48.3944	-69.4497	
1.76	-54.667	-3.5829	-8.29987	-86.1274	-34.1707	-59.9365	-25.5054	-6.80544	-47.6636	-69.6319	
1.765	-54.6961	-3.7234	-8.21975	-86.2625	-34.3571	-61.1852	-25.1015	-6.82707	-46.9094	-69.8294	
1.77	-54.7643	-3.86857	-8.1534	-86.2291	-34.5434	-60.9972	-25.3415	-6.7416	-46.1607	-70.0801	
1.775	-54.85	-4.0191	-8.10475	-86.028	-34.7183	-60.3373	-25.7717	-6.65253	-45.4615	-70.3793	
1.78	-54.9244	-4.18207	-8.07545	-85.672	-34.8704	-60.0068	-26.0457	-6.58218	-44.8317	-70.7363	
1.785	-54.9775	-4.36886	-8.06141	-85.1642	-34.9975	-60.0899	-26.162	-6.586	-44.2763	-71.1196	
1.79	-55.0024	-4.58093	-8.05672	-84.5174	-35.1032	-60.1346	-26.237	-6.62105	-43.7862	-71.5273	
1.795	-54.9881	-4.80825	-8.06165	-83.7621	-35.1891	-59.8995	-26.3645	-6.68264	-43.3697	-71.9298	
1.8	-54.9145	-5.0231	-8.0791	-82.9455	-35.2499	-59.7113	-26.4142	-6.76916	-43.0331	-72.3453	
1.805	-54.8564	-5.19037	-8.107	-82.1027	-35.2962	-59.5523	-26.4219	-6.87064	-42.744	-72.7755	
1.81	-54.7844	-5.31957	-8.1407	-81.2744	-35.3258	-59.3293	-26.4528	-6.99473	-42.4693	-73.2268	
1.815	-54.7388	-5.42714	-8.16459	-80.4712	-35.3539	-59.2032	-26.4659	-7.10486	-42.2673	-73.6792	
1.82	-54.7636	-5.52062	-8.16959	-79.7351	-35.397	-59.1202	-26.4927	-7.19255	-42.1183	-74.1268	
1.825	-54.8492	-5.60218	-8.15592	-79.035	-35.4656	-59.0545	-26.5193	-7.27227	-42.0241	-74.5702	
1.83	-55.1186	-5.69202	-8.10643	-78.4275	-35.5765	-58.8867	-26.6246	-7.31987	-41.8517	-75.0503	
1.835	-55.1359	-5.75743	-8.08326	-77.9905	-35.7126	-59.2624	-26.5224	-7.38712	-41.6164	-75.464	
1.84	-55.3175	-5.85117	-8.02855	-77.6699	-35.8572	-58.1805	-26.9271	-7.40358	-41.4407	-75.8554	
1.845	-55.2361	-5.93763	-8.00471	-77.3107	-36.0265	-58.2364	-26.9155	-7.44041	-41.2332	-76.2492	
1.85	-55.1852	-6.04161	-7.97015	-76.8961	-36.2388	-58.5528	-26.6619	-7.55874	-40.9932	-76.5865	
1.855	-55.0052	-6.1387	-7.9489	-76.8259	-36.3383	-58.6259	-26.6904	-7.56954	-40.7536	-76.8941	
1.86	-54.7669	-6.30333	-7.94183	-76.5877	-36.4873	-58.3875	-27.0542	-7.46321	-40.4943	-77.1775	
1.865	-54.6433	-6.51254	-7.92149	-76.3273	-36.7223	-58.0638	-27.4958	-7.33755	-40.228	-77.4296	
1.87	-54.377	-6.7185	-7.92397	-76.0912	-36.8684	-57.88	-27.7691	-7.27505	-39.8989	-77.6399	
1.875	-54.1341	-6.92909	-7.92629	-75.7796	-37.0409	-57.7868	-27.8734	-7.27417	-39.5113	-77.7967	
1.88	-54.0001	-7.14559	-7.91817	-75.454	-37.2192	-57.7204	-27.9	-7.30511	-39.1159	-77.9499	
1.885	-53.8726	-7.34572	-7.91509	-75.0546	-37.3961	-57.6532	-27.8969	-7.34782	-38.7244	-78.1449	
1.89	-53.5739	-7.49949	-7.94208	-74.65	-37.5643	-57.5397	-27.93	-7.37986	-38.5369	-78.1874	
1.895	-53.3596	-7.63151	-7.96768	-74.2178	-37.6956	-57.363	-27.968	-7.40209	-38.4645	-78.2704	
1.9	-53.1641	-7.73464	-7.99793	-73.7876	-37.8135	-57.1319	-28.0611	-7.35211	-38.165	-78.3595	
1.905	-52.9712	-7.80723	-8.0341	-73.364	-37.9166	-56.8721	-28.1096	-7.37663	-37.5805	-78.4289	
1.91	-52.7841	-7.85497	-8.07618	-72.9697	-38.0125	-56.5618	-28.1465	-7.44891	-37.2204	-78.4668	
1.915	-52.4721	-7.87202	-8.14132	-72.5688	-38.0882	-56.3417	-28.25	-7.3563	-37.051	-78.2973	
1.92	-52.36	-7.90793	-8.18429	-72.2917	-38.2006	-55.9534	-28.2371	-7.51617	-36.977	-78.5109	
1.925	-52.2477	-7.94727	-8.23181	-71.9641	-38.3108	-55.5864	-28.2344	-7.67129	-36.9582	-78.5231	
1.93	-52.099	-7.99785	-8.28851	-71.713	-38.4656	-55.2888	-28.2893	-7.72415	-36.9765	-78.5151	
1.935	-52.0908	-8.08641	-8.32897	-71.4682	-38.5954	-55.0502	-28.3426	-7.77444	-36.8603	-78.4611	
1.94	-52.2062	-8.20938	-8.35365	-71.2435	-38.7372	-55.0035	-28.9974	-7.52646	-36.5757	-78.5051	
1.945	-52.3535	-8.35633	-8.37487	-71.0309	-38.8593	-54.7666	-28.7887	-7.63003	-36.3869	-78.5273	
1.95	-52.4911	-8.52326	-8.39616	-70.8328	-38.9584	-55.0172	-30.155	-6.97977	-36.3516	-78.5575	
1.955	-52.6163	-8.71206	-8.41604	-70.6478	-39.0607	-54.6178	-29.296	-7.42972	-36.3934	-78.6117	
1.96	-52.7304	-8.92095	-8.43362	-70.4744	-39.1465	-54.8744	-30.6171	-6.80592	-36.5491	-78.6688	
1.965	-52.8302	-9.14845	-8.44627	-70.317	-39.227	-54.4886	-29.4629	-7.29743	-36.7387	-78.7464	
1.97	-52.914	-9.38975	-8.45336	-70.158	-39.2831	-54.7219	-30.7155	-6.62519	-36.9673	-78.8099	
1.975	-52.9864	-9.64194	-8.45199	-70.0019	-39.327	-54.2758	-29.3645	-7.14845	-37.2156	-78.8843	
1.98	-53.0498	-9.90206	-8.43952	-69.8388	-39.3397	-54.5638	-30.6338	-6.32771	-37.4653	-78.9262	
1.985	-53.1086	-10.1667	-8.41604	-69.657	-39.3295	-54.0298	-29.2564	-6.86877	-37.7021	-78.98	
1.99	-53.1699	-10.4349	-8.37749	-69.4543	-39.2815	-53.9747	-30.3834	-6.44912	-37.8772	-78.9799	
1.995	-53.2363	-10.7043	-8.32473	-69.231	-39.2181	-53.4537	-29.574	-6.85715	-37.9989	-78.964	
2	-53.3087	-10.9713	-8.25697	-69.0065	-39.123	-53.4133	-30.4775	-6.44363	-38.0315	-78.8705	
2.005	-53.3817	-11.2333	-8.17747	-68.7943	-39.0072	-53.0129	-29.9404	-6.67329	-37.9798	-78.7705	
2.01	-53.4513	-11.4861	-8.08809	-68.5979	-38.8599	-52.9305	-30.4994	-6.41911	-37.8139	-78.6077	
2.015	-53.5114	-11.7269	-7.99166	-68.3976	-38.7048	-52.7152	-30.406	-6.4751	-37.557	-78.4423	
2.02	-53.5551	-11.9542	-7.89215	-68.1812	-38.5402	-52.7004	-30.717	-6.24926	-37.2326	-78.2225	
2.025	-53.5762	-12.1678	-7.795	-67.958	-38.3562	-52.5872	-30.8958	-6.22309	-36.8606	-77.9895	
2.03	-53.5774	-12.3729	-7.70291	-67.6725	-38.1871	-52.5091	-31.1965	-6.18717	-36.4459	-77.6819	
2.035	-53.5641	-12.5763	-7.61847	-67.3781	-38.0265	-52.4978	-31.5028	-6.12665	-36.0249	-77.3726	
2.04	-53.5429	-12.7888	-7.5445	-67.0733	-37.8562	-52.5498	-31.8638	-6.02193	-35.5952	-77.025	
2.045	-53.5243	-13.0262	-7.4838	-66.7634	-37.7107	-52.654	-32.2441	-5.89562	-35.1006	-76.6945	
2.05	-53.5246	-13.302	-7.43731	-66.4813	-37.5616	-52.8274	-32.6446	-5.75372	-34.6345	-76.3586	
2.055	-53.5511	-13.6356	-7.40462	-66.2447	-37.4236	-53.0695	-33.0428	-5.60367	-34.1338	-76.0586	
2.06	-53.6173	-14.031	-7.38761	-66.0333	-37.2712	-53.3389	-33.4448	-5.44699	-33.645	-75.7597	
2.065	-53.7259	-14.4961	-7.38575	-65.8781	-37.1189	-53.6337	-33.8155	-5.29539	-33.1674	-75.5018	
2.07	-53.8852	-15.0377	-7.39799	-65.758	-36.9477	-53.8978	-34.1559	-5.15244	-32.7119	-75.2687	
2.075	-54.1052	-15.6633	-7.42276	-65.7083	-36.7734	-54.1334	-34.4634	-5.02539	-32.2892	-75.0966	
2.08	-54.3935	-16.3747	-7.45754	-65.7139	-36.6047	-54.3628	-34.7275	-4.84392	-31.9512	-74.9701	
2.085	-54.7503	-17.1653	-7.49971	-65.764	-36.4504	-54.5228	-35.0104	-4.69391	-31.6961	-74.925	
2.09	-55.1633	-18.0166	-7.54756	-65.8835	-36.3014	-54.6005	-35.3092	-4.60359	-31.575	-74.9301	
2.095	-55.6164	-18.9027	-7.59918	-66.1107	-36.1643	-54.6194	-35.5926	-4.535	-31.641	-75.0088	
2.1	-56.0956	-19.801	-7.65252	-66.4752	-36.0325	-54.6206	-35.8357	-4.49184	-31.9068	-75.1231	
2.105	-56.5904	-20.6917	-7.7048	-66.9745	-35.9152	-54.5844	-36.0166	-4.48603	-32.3642	-75.3071	
2.11	-57.0916	-21.5602	-7.75602	-67.5911	-35.8458	-54.5094	-36.1289	-4.52376	-32.9346	-75.4891	
2.115	-57.5937	-22.3977	-7.80262	-68.3014	-35.842	-54.4066	-36.1645	-4.60653	-33.5829	-75.7114	
2.12	-58.0903	-23.1984	-7.84467	-69.1047	-35.8658	-54.3812	-36.0294	-4.59633	-34.2423	-75.8922	
2.125	-58.5776	-23.9615	-7.88096	-69.9903	-35.9591	-54.2816	-35.8652	-4.68736	-34.9047	-76.114	
2.13	-59.0523	-24.6911	-7.91154	-70.9547	-36.1029	-54.0843	-35.732	-4.91029	-35.524	-76.3048	
2.135	-59.5149	-25.3981	-7.93821	-71.9863	-36.3243	-53.8836	-35.5927	-5.1188	-36.0836	-76.5413	
2.14	-59.9618	-26.082	-7.95237	-73.0709	-36.6007	-53.72	-35.4753	-5.28293	-36.7574	-76.7607	
2.145	-60.3967	-26.7643	-7.96477	-74.2156	-36.9402	-53.5616	-35.4403	-5.41669	-37.3527	-77.0533	
2.15	-60.7208	-27.0071	-8.03438	-75.4478	-37.3254	-53.4279	-35.4989	-5.50279	-38.1646	-77.3445	
2.155	-60.9539	-26.8451	-8.16222	-76.8001	-37.7497	-53.3153	-35.6529	-5.53888	-39.0457	-77.7365	
2.16	-61.2098	-26.6992	-8.2802	-78.2971	-38.2131	-53.2329	-35.8885	-5.53104	-40.1003	-78.1096	
2.165	-61.4831	-26.5762	-8.39116	-79.952	-38.7003	-53.2081	-36.1873	-5.48821	-41.3237	-78.6056	
2.17	-61.7798	-26.5005	-8.48925	-81.7476	-39.1878	-53.2545	-36.5345	-5.41289	-42.6703	-79.0676	
2.175	-62.1048	-26.4908	-8.57034	-83.6395	-39.6893	-53.3941	-36.9104	-5.31823	-44.1825	-79.7005	
2.18	-62.4567	-26.5423	-8.63074	-85.5947	-40.2079	-53.6114	-37.3158	-5.20896	-45.7821	-80.2977	
2.185	-62.8234	-26.6221	-8.67231	-87.5966	-40.757	-53.907	-37.7466	-5.0885	-47.5444	-81.137	
2.19	-63.1879	-26.6923	-8.69773	-89.6563	-41.3479	-54.2628	-38.2038	-4.96231	-49.4051	-81.9165	
2.195	-63.5471	-26.7808	-8.6992	-91.7885	-41.9648	-54.7192	-38.6632	-4.84449	-51.4186	-83.0049	
2.2	-63.9372	-26.8783	-8.67668	-93.9842	-42.5783	-55.2214	-39.1086	-4.73592	-53.442	-83.9435	
2.205	-64.8579	-26.8013	-8.49596	-96.2103	-43.2029	-55.7985	-39.5256	-4.6515	-55.5087	-85.2418	
2.21	-65.8297	-26.6983	-8.40009	-98.4095	-43.82	-56.4414	-39.918	-4.59415	-57.5117	-86.2569	
2.215	-66.854	-26.5487	-8.1846	-100.527	-44.4526	-57.1057	-40.2885	-4.56079	-59.43	-87.6471	
2.22	-67.906	-26.3391	-7.84341	-102.523	-45.0736	-57.8227	-40.6448	-4.55145	-61.2909	-88.5673	
2.225	-68.8529	-26.0471	-7.82282	-104.368	-45.7002	-58.4985	-41.0095	-4.55108	-62.9743	-89.871	
2.23	-69.617	-25.6434	-7.75868	-106.076	-46.2857	-59.1965	-41.367	-4.56729	-64.6455	-90.5775	
2.235	-70.3014	-25.0479	-7.68307	-107.651	-46.8881	-59.8602	-41.7297	-4.59266	-66.0948	-91.7443	
2.24	-70.8799	-24.3383	-7.62437	-109.132	-47.4488	-60.5024	-42.0986	-4.6167	-67.4964	-92.1818	
2.245	-71.3302	-23.508	-7.59675	-110.515	-48.0061	-61.0029	-42.5002	-4.74539	-68.7876	-93.2117	
2.25	-71.723	-22.5691	-7.35837	-111.783	-48.54	-61.4419	-43.1281	-4.55242	-69.9484	-93.3652	
2.255	-71.9778	-21.5146	-7.2417	-112.923	-49.0713	-62.249	-42.9019	-4.79641	-71.0516	-94.2861	
2.26	-72.1789	-20.4489	-7.30572	-113.936	-49.567	-63.6007	-43.7891	-4.47201	-72.0201	-94.3548	
2.265	-72.3953	-19.4117	-7.32735	-114.829	-50.0405	-64.2723	-42.8421	-5.04358	-72.9869	-94.9547	
2.27	-72.5575	-18.3334	-7.33391	-115.614	-50.4525	-65.623	-44.0889	-4.44505	-73.9002	-94.8773	
2.275	-72.7002	-17.2423	-7.34842	-116.303	-50.8162	-66.3213	-42.6909	-5.09639	-74.7547	-95.2269	
2.28	-72.8685	-16.1877	-7.36424	-116.904	-51.0911	-67.9345	-44.0175	-4.42172	-75.5372	-94.9486	
2.285	-73.0497	-15.1644	-7.37285	-117.43	-51.2823	-68.5851	-42.515	-5.08122	-76.2724	-95.1991	
2.29	-73.2448	-14.1459	-7.28762	-117.899	-51.3458	-70.1592	-43.8458	-4.31627	-76.9676	-94.772	
2.295	-73.4576	-13.0954	-7.16266	-118.306	-51.3138	-70.8779	-42.1561	-5.039	-77.6463	-94.8807	
2.3	-73.7354	-12.1486	-7.21553	-118.729	-51.1807	-72.4081	-43.5188	-4.22958	-78.3051	-94.2934	
2.305	-74.1845	-11.3048	-7.15494	-119.039	-51.0056	-73.0924	-41.4309	-5.1616	-78.982	-94.2704	
2.31	-74.7835	-10.5517	-7.07553	-119.287	-50.7867	-74.6591	-42.8083	-4.31114	-79.5971	-93.5391	
2.315	-75.503	-9.87869	-6.97813	-119.43	-50.5892	-73.8214	-41.0155	-5.33698	-80.1689	-93.4304	
2.32	-76.3117	-9.25587	-6.85418	-119.574	-50.3594	-76.8408	-41.6329	-4.38915	-80.6104	-92.6559	
2.325	-77.224	-8.65396	-6.54016	-119.652	-50.1447	-77.6678	-39.5247	-5.03901	-81.0302	-92.5252	
2.33	-78.1644	-8.02916	-6.08482	-119.717	-49.9069	-78.9364	-41.387	-4.05726	-81.3139	-91.7606	
2.335	-79.049	-7.38879	-5.88526	-119.719	-49.6759	-79.0229	-39.235	-5.09397	-81.6258	-91.5901	
2.34	-79.9937	-6.82234	-5.40151	-119.712	-49.4145	-80.5455	-40.7725	-4.06357	-81.7745	-90.8081	
2.345	-80.4713	-6.47705	-5.18661	-119.587	-49.1419	-80.9976	-39.0347	-4.39258	-81.9779	-90.5798	
2.35	-80.7875	-6.2093	-4.8057	-119.323	-48.8069	-82.7237	-40.3696	-3.10822	-81.9757	-89.7447	
2.355	-81.01	-6.11217	-4.35156	-118.784	-48.4966	-85.3365	-38.2235	-3.17427	-82.0365	-89.4245	
2.36	-81.2244	-6.19502	-3.85764	-118.03	-48.1483	-85.5537	-40.1714	-1.60617	-81.7734	-88.4944	
2.365	-82.0616	-6.27606	-3.26416	-117.084	-47.8134	-86.2895	-38.5233	-1.65461	-81.6384	-88.0434	
2.37	-83.5448	-6.20188	-2.58653	-116.02	-47.4741	-88.1239	-39.015	0.0502684	-81.1148	-86.9937	
2.375	-85.0988	-6.08837	-1.89708	-114.896	-47.165	-89.3416	-37.3389	0.404395	-80.8191	-86.416	
2.38	-86.4866	-6.11678	-1.18613	-113.743	-46.8656	-90.7173	-37.5108	1.64705	-80.1203	-85.3063	
2.385	-87.8056	-6.20495	-0.459467	-112.578	-46.6057	-91.3588	-35.9028	1.86507	-79.6911	-84.6713	
2.39	-89.0272	-6.25113	0.260081	-111.41	-46.3431	-96.9093	-33.2315	1.96004	-79.1386	-83.6171	
2.395	-90.1072	-6.31252	0.967232	-110.247	-46.0969	-91.0673	-34.1743	2.66248	-78.6662	-82.9503	
2.4	-91.0253	-6.38847	1.6512	-109.112	-45.8046	-90.599	-35.3007	4.3857	-78.1518	-81.8978	
2.405	-91.7521	-6.43668	2.29642	-108.029	-45.5029	-91.1216	-32.7778	4.94142	-78.0237	-81.3795	
2.41	-92.2505	-6.47158	2.89085	-107.026	-45.1334	-91.3981	-32.356	6.50253	-77.6133	-80.413	
2.415	-92.5381	-6.49115	3.42058	-106.112	-44.7601	-91.0931	-29.7319	6.39869	-77.6282	-79.991	
2.42	-92.6277	-6.46387	3.87463	-105.271	-44.3205	-91.9944	-29.4008	7.3557	-77.3424	-79.0797	
2.425	-92.576	-6.3384	4.24869	-104.484	-43.8768	-91.9127	-26.6151	6.74024	-77.3955	-78.6823	
2.43	-92.4648	-6.19498	4.54063	-103.804	-43.3648	-92.7647	-26.1303	7.30621	-77.092	-77.7782	
2.435	-92.4497	-6.09756	4.78482	-103.654	-42.8528	-92.3492	-23.2689	6.35169	-77.0945	-77.4617	
2.44	-92.2392	-5.50478	4.96793	-102.234	-42.2897	-92.764	-22.6026	6.55429	-76.7484	-76.5932	
2.445	-93.5663	-5.89177	5.7813	-102.233	-41.7364	-92.0726	-20.1466	5.5171	-76.7083	-76.3913	
2.45	-92.1578	-5.342	5.8984	-100.404	-41.143	-92.1238	-19.3148	5.36726	-76.1988	-75.4673	
2.455	-92.1187	-5.33223	6.28277	-99.6267	-40.5759	-91.5154	-17.1966	4.46539	-75.9272	-75.5019	
2.46	-92.0202	-5.63126	6.79536	-98.8982	-39.9899	-91.4152	-15.9803	4.1477	-75.4743	-74.4629	
2.465	-91.7672	-5.79907	7.32564	-97.8087	-39.4502	-91.0712	-14.2458	3.66567	-75.034	-74.7337	
2.47	-91.3674	-5.91104	7.87021	-96.7919	-38.9088	-90.8844	-12.6151	3.59529	-74.6972	-73.816	
2.475	-90.7784	-5.92077	8.38923	-95.9669	-38.4327	-90.6854	-10.9492	3.52125	-74.3852	-73.9685	
2.48	-90.0375	-5.85412	8.89512	-95.2975	-37.9835	-90.4621	-9.2594	3.47116	-74.1258	-73.2409	
2.485	-89.1791	-5.71507	9.3905	-94.7659	-37.6075	-90.164	-7.57117	3.52891	-73.694	-73.1128	
2.49	-88.2654	-5.51599	9.8797	-94.3668	-37.246	-89.6612	-5.9243	3.68904	-72.9566	-72.417	
2.495	-87.3291	-5.25988	10.3525	-94.0866	-36.9466	-89.0423	-4.2797	3.95516	-72.3064	-72.1161	
2.5	-86.3806	-4.96596	10.7806	-94.4458	-36.6503	-88.28	-2.56287	4.30739	-71.457	-71.4513	
2.505	-85.3905	-4.6246	11.1215	-94.9583	-36.4037	-87.4108	-0.733539	4.73442	-70.7089	-71.1172	
2.51	-84.1108	-4.05389	11.413	-94.4749	-36.1363	-86.4956	1.03534	5.2265	-69.8157	-70.5275	
2.515	-83.3729	-3.86492	11.6827	-95.7773	-35.8952	-85.6179	2.71715	5.67059	-69.1345	-70.2584	
2.52	-81.8375	-3.18305	11.6367	-95.8932	-35.5866	-84.7723	4.2935	6.11364	-68.3116	-69.7412	
2.525	-80.7105	-2.80329	11.7459	-95.8819	-35.2666	-83.9511	5.76228	6.50551	-67.6689	-69.4894	
2.53	-79.5229	-2.47225	11.7015	-96.1831	-34.8832	-83.0447	7.10089	6.81309	-66.8582	-68.9569	
2.535	-78.356	-2.20294	11.6219	-96.3683	-34.4979	-82.0573	8.36719	7.02199	-66.1609	-68.62	
2.54	-77.2489	-2.03517	11.5745	-96.0589	-34.0727	-80.9051	9.55449	7.12199	-65.2679	-68.0067	
2.545	-76.1697	-1.98532	11.5838	-94.7885	-33.6579	-79.6496	10.7038	7.11874	-64.3816	-67.5191	
2.55	-75.0774	-2.06469	11.6568	-93.3718	-33.1959	-78.2796	11.7986	7.03346	-63.3141	-66.7735	
2.555	-73.9473	-2.26718	11.7876	-91.9436	-32.7217	-76.9024	12.8898	6.86377	-62.217	-66.1216	
2.56	-72.7811	-2.57012	11.964	-90.456	-32.1925	-75.5267	13.9751	6.63884	-60.9284	-65.2743	
2.565	-71.5663	-2.93228	12.1709	-88.9237	-31.6605	-74.1905	15.0618	6.37678	-59.5693	-64.5146	
2.57	-70.2913	-3.30495	12.4138	-87.3032	-31.0966	-72.7393	16.1779	6.08123	-58.0899	-63.5949	
2.575	-68.9471	-3.67943	12.6887	-85.629	-30.5494	-71.1473	17.3327	5.77792	-56.5899	-62.7356	
2.58	-67.508	-4.01778	12.983	-83.9241	-29.9806	-69.6019	18.5447	5.49967	-55.0649	-61.7661	
2.585	-65.9426	-4.32746	13.2746	-82.243	-29.4185	-68.1116	19.7984	5.27765	-53.5574	-60.8523	
2.59	-64.2632	-4.61122	13.5443	-80.5787	-28.8286	-66.5248	20.8469	5.13384	-52.0515	-59.849	
2.595	-62.4969	-4.87369	13.7891	-78.9133	-28.2391	-64.8455	21.629	5.04942	-50.5482	-58.8849	
2.6	-60.6859	-5.11115	14.0008	-77.2216	-27.6248	-63.1698	22.2627	4.99158	-49.0318	-57.8429	
2.605	-58.8671	-5.33107	14.1768	-75.5112	-27.0138	-61.5151	22.8073	4.9424	-47.5121	-56.8311	
2.61	-57.0596	-5.55655	14.316	-73.7881	-26.3855	-59.8344	23.2487	4.89498	-45.9939	-55.7769	
2.615	-55.2729	-5.81999	14.4237	-72.0508	-25.7752	-58.0824	23.5845	4.83822	-44.5039	-54.7655	
2.62	-53.5015	-6.13877	14.4981	-70.2874	-25.1719	-56.0477	23.9943	4.76457	-43.0389	-53.7344	
2.625	-51.7362	-6.511	14.5361	-68.4912	-24.6022	-53.8813	24.2678	4.73118	-41.5949	-52.742	
2.63	-49.9516	-6.92244	14.5301	-66.6729	-24.0424	-51.6972	24.4563	4.69735	-40.1509	-51.7375	
2.635	-48.1208	-7.3645	14.4814	-64.8548	-23.491	-49.5189	24.5283	4.65613	-38.7235	-50.7553	
2.64	-46.2604	-7.84174	14.3996	-63.0448	-22.92	-47.3884	24.4636	4.61017	-37.3007	-49.7561	
2.645	-44.4271	-8.37694	14.3114	-61.2525	-22.334	-45.3469	24.2554	4.56884	-35.8927	-48.7703	
2.65	-42.6628	-8.97106	14.2434	-59.5038	-21.7086	-43.4493	23.9291	4.54502	-34.4648	-47.7688	
2.655	-40.9566	-9.50829	14.1599	-57.813	-21.0578	-41.728	23.501	4.53731	-32.9938	-46.7611	
2.66	-39.3332	-9.91934	14.0465	-56.1659	-20.3895	-40.2068	23.0187	4.55156	-31.4437	-45.7223	
2.665	-37.8582	-10.2137	13.9264	-54.5344	-19.7326	-38.6243	22.7654	4.56845	-29.824	-44.6643	
2.67	-36.5408	-10.4192	13.8144	-52.9133	-19.0909	-37.194	22.517	4.64227	-28.1599	-43.5769	
2.675	-35.3758	-10.6178	13.7348	-51.3046	-18.4714	-35.9234	22.1852	4.7512	-26.4938	-42.4704	
2.68	-34.3036	-10.8271	13.6775	-49.7049	-17.8707	-34.7193	21.8209	4.84939	-24.8578	-41.348	
2.685	-33.2779	-11.0706	13.6326	-48.0963	-17.2783	-33.5552	21.4605	4.91785	-23.2619	-40.2373	
2.69	-32.2661	-11.3637	13.5887	-46.4469	-16.6925	-32.4402	21.1208	4.95053	-21.7055	-39.1646	
2.695	-31.2706	-11.6969	13.532	-44.7332	-16.1134	-31.3767	20.8169	4.9368	-20.1786	-38.1647	
2.7	-30.3368	-12.0139	13.4397	-42.9629	-15.5541	-30.3721	20.5588	4.87692	-18.6977	-37.2586	
2.705	-29.6378	-12.047	13.2434	-41.1608	-15.0278	-29.4166	20.3432	4.77102	-17.3003	-36.4754	
2.71	-28.9874	-12.0349	12.9976	-39.3499	-14.558	-28.4668	20.1146	4.63281	-16.0077	-35.8185	
2.715	-28.4347	-12.0091	12.7353	-37.5458	-14.1485	-27.4539	19.8397	4.46617	-14.8821	-35.2738	
2.72	-27.9851	-11.9539	12.4596	-35.7908	-13.8156	-26.3403	19.4862	4.27029	-13.9136	-34.8299	
2.725	-27.6047	-11.8773	12.1724	-34.1311	-13.5478	-25.1451	19.0569	4.06204	-13.0966	-34.4778	
2.73	-27.2546	-11.7462	11.8622	-32.6025	-13.3365	-23.9102	18.5364	3.85505	-12.4071	-34.2011	
2.735	-26.9417	-11.6707	11.572	-31.2116	-13.1785	-22.6486	17.9488	3.65122	-11.8402	-33.9919	
2.74	-26.6338	-11.534	11.2686	-29.9556	-13.0598	-21.3821	17.3028	3.45563	-11.3439	-33.8282	
2.745	-26.3218	-11.3773	10.9679	-28.8188	-12.9548	-20.1558	16.5931	3.29112	-10.8704	-33.6955	
2.75	-25.9946	-11.201	10.6749	-27.7628	-12.8418	-19.0276	15.8227	3.17252	-10.3466	-33.5727	
2.755	-25.6655	-11.0323	10.4064	-26.7417	-12.6998	-18.0566	14.99	3.11766	-9.74289	-33.447	
2.76	-25.3025	-10.8537	10.148	-25.7236	-12.5202	-17.2696	14.0985	3.13401	-9.05301	-33.3035	
2.765	-24.9146	-10.6618	9.89815	-24.6839	-12.3147	-16.6868	13.1676	3.21804	-8.28217	-33.1453	
2.77	-24.5106	-10.4645	9.65854	-23.593	-12.0952	-16.3235	12.2325	3.36227	-7.42024	-32.9853	
2.775	-24.127	-10.2434	9.43094	-22.427	-11.8733	-16.1693	11.3444	3.55273	-6.47769	-32.8576	
2.78	-23.7897	-10.0022	9.2128	-21.184	-11.6561	-16.1506	10.5371	3.74275	-5.63054	-32.8707	
2.785	-23.5224	-9.72801	9.00381	-19.8851	-11.4571	-16.2015	9.79385	3.92497	-4.71541	-32.9153	
2.79	-23.3341	-9.42506	8.79838	-18.7319	-11.2849	-16.2662	9.07558	4.09285	-3.68306	-32.9325	
2.795	-23.2147	-9.1016	8.59295	-17.4929	-11.1432	-16.2859	8.35399	4.23383	-2.63528	-32.9701	
2.8	-23.1387	-8.72572	8.37406	-16.2829	-11.0553	-16.225	7.62189	4.34584	-1.68457	-33.0616	
2.805	-23.0854	-8.3748	8.15403	-15.2102	-11.0383	-16.0573	6.87369	4.42049	-0.992358	-33.2777	
2.81	-23.0306	-8.06851	7.937	-14.3073	-11.0932	-15.6373	6.23019	4.38585	-0.478546	-33.5555	
2.815	-22.9505	-7.78097	7.71022	-13.5119	-11.2142	-14.9799	5.76669	4.23047	0.0660766	-33.8078	
2.82	-22.7102	-7.28159	7.48981	-12.7707	-11.3559	-14.2787	5.45875	4.02007	0.714392	-34.0252	
2.825	-22.4692	-6.88897	7.26163	-12.0576	-11.5245	-13.8273	5.45284	3.80441	1.47031	-34.2311	
2.83	-22.2895	-6.72064	7.0193	-11.4	-11.7482	-13.7065	5.75293	3.61146	2.31764	-34.4684	
2.835	-22.074	-6.56134	6.78032	-10.8207	-12.0675	-13.5595	6.14547	3.45778	3.22716	-34.7884	
2.84	-21.8305	-6.36084	6.54898	-10.315	-12.5013	-12.1754	6.91672	2.26545	4.12595	-35.261	
2.845	-21.5961	-6.13109	6.32984	-9.7325	-12.8667	-12.969	6.94969	2.37134	5.08945	-35.8309	
2.85	-21.3809	-5.87747	6.12475	-9.051	-13.2536	-13.5171	7.77547	2.62158	6.11396	-36.4656	
2.855	-21.151	-5.62108	5.93087	-8.37701	-13.6605	-13.6346	8.49211	2.43824	7.08672	-37.1816	
2.86	-20.8854	-5.3799	5.74595	-7.75026	-14.0872	-13.6863	8.89336	2.20321	7.94116	-37.9858	
2.865	-20.487	-4.98039	5.56031	-7.23204	-14.534	-13.7514	9.21482	2.03023	8.69961	-38.8743	
2.87	-20.1429	-4.78385	5.36237	-6.81886	-15.0106	-13.8773	9.48787	1.91702	9.39748	-39.8271	
2.875	-19.7686	-4.5745	5.17666	-6.50529	-15.4954	-14.0663	9.75284	1.79556	10.054	-40.823	
2.88	-19.3824	-4.33496	4.98772	-6.29653	-15.9748	-14.041	10.0313	1.64575	10.6833	-41.8519	
2.885	-19	-3.99886	4.77758	-6.15377	-16.4473	-13.8786	10.3154	1.49099	11.2837	-42.9047	
2.89	-18.6516	-3.53322	4.54543	-6.06577	-16.9149	-13.7303	10.6544	1.32849	11.88	-43.9548	
2.895	-18.3804	-2.94729	4.30701	-5.96467	-17.3866	-13.5981	11.0446	1.15746	12.4977	-44.99	
2.9	-18.298	-2.23817	4.14705	-5.72161	-17.8558	-13.4929	11.4078	0.996788	13.1412	-45.9988	
2.905	-18.3865	-1.51235	4.08057	-5.36066	-18.3279	-13.4404	11.6832	0.870443	13.8087	-46.9624	
2.91	-18.5804	-0.891313	4.0803	-4.99348	-18.8039	-13.4502	11.8315	0.785391	14.495	-47.8641	
2.915	-18.8314	-0.415067	4.12068	-4.63299	-19.289	-13.5281	11.8229	0.752466	15.1977	-48.7016	
2.92	-19.0787	-0.070196	4.16389	-4.3012	-19.7871	-13.6476	11.6539	0.765253	15.9153	-49.4662	
2.925	-19.2849	0.206908	4.1711	-3.96872	-20.306	-13.7536	11.3599	0.79968	16.6473	-50.1614	
2.93	-19.4774	0.412762	4.15449	-3.60675	-20.8522	-13.7618	10.9959	0.816804	17.383	-50.7779	
2.935	-19.652	0.533533	4.12595	-3.18613	-21.4147	-13.6007	10.6374	0.800116	18.0982	-51.317	
2.94	-19.7802	0.558048	4.08924	-2.74985	-21.9798	-13.2828	10.3641	0.722144	18.7587	-51.8024	
2.945	-19.749	0.58148	3.95547	-2.40571	-22.5401	-12.8533	10.2634	0.56252	19.3555	-52.2845	
2.95	-19.5445	0.609711	3.70106	-2.16839	-23.094	-12.3518	10.4022	0.333007	19.9099	-52.8005	
2.955	-19.2011	0.684483	3.34462	-1.96925	-23.6349	-11.8628	10.7826	0.0607345	20.4526	-53.3718	
2.96	-18.7485	0.8708	2.90548	-1.76648	-24.1597	-11.4513	11.3827	-0.241704	21.0092	-53.9934	
2.965	-18.2565	1.22944	2.44207	-1.49906	-24.6721	-11.1568	12.1366	-0.552744	21.5959	-54.6463	
2.97	-17.0767	1.55481	1.62631	-0.896978	-25.0931	-10.9901	12.9709	-0.851287	22.235	-55.3045	
2.975	-17.9187	2.5857	1.5967	-0.0800198	-25.3573	-10.9598	13.8302	-1.12139	23.0064	-55.9422	
2.98	-17.4295	3.13961	1.17853	0.546706	-25.7413	-11.1453	14.8491	-1.27462	24.1706	-56.4118	
2.985	-16.9785	3.58764	0.837609	1.12938	-26.2418	-11.5212	15.7953	-1.28885	25.5598	-56.833	
2.99	-16.7526	3.96104	0.664204	1.79906	-26.763	-12.0065	16.5876	-1.22226	26.9649	-57.2697	
2.995	-16.6728	4.17326	0.607729	2.49659	-27.2833	-12.6017	17.2073	-1.08663	28.3312	-57.7518	
3	-16.6458	4.19357	0.624647	3.18667	-27.8437	-13.3457	17.5994	-0.875074	29.6072	-58.2786	
3.005	-16.7573	4.12115	0.776738	3.9774	-28.4249	-14.2783	17.7642	-0.567823	30.8446	-58.8584	
3.01	-16.9852	4.00562	1.05171	4.87768	-29.0141	-15.3733	17.7343	-0.195012	32.0752	-59.4709	
3.015	-17.2661	3.86321	1.38956	5.81335	-29.6182	-16.6153	17.6141	0.203875	33.3435	-60.1561	
3.02	-17.5955	3.74208	1.75377	6.77008	-30.2519	-17.9946	17.4702	0.609251	34.6327	-60.8794	
3.025	-18.0227	3.71876	2.14587	7.78606	-30.9235	-19.4945	17.3274	1.00667	35.9327	-61.6544	
3.03	-18.5945	3.84234	2.56668	8.94335	-31.5474	-21.0806	17.2195	1.38061	37.1842	-62.4029	
3.035	-19.3169	4.09548	2.98683	10.2036	-32.154	-22.6943	17.183	1.7087	38.376	-63.1298	
3.04	-20.1064	4.61469	3.32677	11.4649	-32.7451	-24.2556	17.2714	1.96586	39.4619	-63.756	
3.045	-20.8711	5.38961	3.51484	12.5911	-33.3072	-25.6599	17.5321	2.11277	40.4403	-64.3309	
3.05	-21.7179	6.11456	3.63649	13.5115	-33.8358	-26.8168	17.9644	2.13236	41.2654	-64.7998	
3.055	-22.6909	6.64623	3.78596	14.3112	-34.318	-27.607	18.5415	1.99154	41.9363	-65.2411	
3.06	-23.7171	6.96473	3.95778	15.0478	-34.7428	-27.9399	19.1967	1.67415	42.3673	-65.6234	
3.065	-24.7111	7.05792	4.09948	15.7043	-35.1075	-27.7854	19.7891	1.19727	42.5553	-66.005	
3.07	-25.58	6.89499	4.16573	16.2191	-35.4104	-27.1806	20.2231	0.609101	42.4445	-66.3353	
3.075	-26.2644	6.44774	4.15961	16.5567	-35.6547	-26.219	20.4311	-0.0213404	42.0871	-66.6605	
3.08	-26.7236	5.72505	4.10763	16.7042	-35.8507	-24.9229	20.64	-0.499205	41.5012	-66.9307	
3.085	-26.6509	4.95782	3.82436	16.4813	-36.0046	-23.3172	20.3767	-0.717958	40.7043	-67.1839	
3.09	-26.0131	4.01784	3.27248	15.7585	-36.1248	-21.7817	19.7276	-0.773052	39.8866	-67.32	
3.095	-25.1414	2.92034	2.68391	14.8435	-36.2232	-20.4765	18.9607	-0.767742	39.1142	-67.3531	
3.1	-24.1247	1.71516	2.17545	13.9237	-36.3009	-19.4792	18.0839	-0.707949	38.3667	-67.309	
3.105	-22.9482	0.417489	1.84059	13.1143	-36.357	-18.8496	17.1493	-0.603017	37.6528	-67.2555	
3.11	-21.8897	-0.781273	1.76305	12.5941	-36.3933	-18.6086	16.2727	-0.479743	36.9765	-67.1775	
3.115	-21.0803	-1.77053	1.90955	12.2885	-36.4092	-18.7284	15.5459	-0.363878	36.4017	-67.0988	
3.12	-20.5306	-2.53356	2.13677	11.9122	-36.4013	-19.145	15.0352	-0.277103	35.9603	-66.9884	
3.125	-20.1391	-3.11606	2.35671	11.4897	-36.3351	-19.6621	14.7292	-0.221871	35.7625	-66.8463	
3.13	-19.8773	-3.51977	2.54784	11.2959	-36.2909	-19.7234	14.4423	-0.152177	35.6343	-66.7137	
3.135	-19.6099	-3.77351	2.69562	10.9545	-36.3058	-20.0171	14.4619	0.0393826	36.0341	-66.4821	
3.14	-19.5255	-3.73728	2.91445	10.9997	-36.2968	-20.4863	14.7262	0.334374	36.4135	-66.2869	
3.145	-19.4696	-3.46281	3.1176	11.1654	-36.2345	-20.9478	15.0298	0.654826	36.902	-66.1718	
3.15	-19.366	-3.04476	3.22036	11.2972	-36.154	-21.3808	15.3909	0.964772	37.3916	-66.0433	
3.155	-19.2645	-2.51695	3.2464	11.4189	-36.0541	-21.8037	15.8408	1.24108	37.9912	-65.9596	
3.16	-19.1943	-1.89248	3.22991	11.5262	-35.938	-22.1377	16.3561	1.46576	38.4207	-65.8755	
3.165	-19.226	-1.17948	3.18929	11.8052	-35.8121	-22.4317	16.9519	1.6455	38.9942	-65.7911	
3.17	-19.3693	-0.465439	3.13433	12.1598	-35.6819	-22.6708	17.6291	1.7773	39.4677	-65.6482	
3.175	-19.6157	0.211927	3.07001	12.5595	-35.5468	-22.8724	18.3579	1.87815	40.0063	-65.5577	
3.18	-19.9438	0.824351	2.99933	12.9308	-35.4135	-23.0187	19.0776	1.94482	40.4089	-65.4144	
3.185	-20.2008	1.45596	2.82034	13.17	-35.2909	-23.0962	19.711	1.97429	40.8048	-65.3383	
3.19	-20.3854	1.9579	2.53081	13.2951	-35.1819	-23.0979	20.2098	1.97009	41.0049	-65.1943	
3.195	-20.4838	2.35424	2.14593	13.3475	-35.0822	-23.0268	20.5338	1.94286	41.1409	-65.1163	
3.2	-20.4895	2.6532	1.70097	13.3122	-34.9889	-22.8812	20.6827	1.88875	41.0586	-64.9637	
3.205	-20.4097	2.85848	1.23304	13.2278	-34.9063	-22.6817	20.6627	1.81665	40.9367	-64.862	
3.21	-20.4047	3.08071	0.903122	13.2327	-34.8305	-22.4683	20.4906	1.73925	40.6516	-64.6783	
3.215	-20.3828	3.28677	0.782855	13.343	-34.6818	-22.2709	20.1914	1.66604	40.3957	-64.5438	
3.22	-20.1459	3.36066	0.809708	13.5262	-34.4775	-22.1196	19.8667	1.60621	40.0884	-64.3492	
3.225	-19.9105	3.38003	0.905191	13.6982	-34.3152	-22.0288	19.6095	1.56683	39.9558	-64.2821	
