CEINMS output
datacolumns 81
datarows 92
endheader
time	addbrev_r	addlong_r	addmagDist_r	addmagIsch_r	addmagMid_r	addmagProx_r	bflh_r	bfsh_r	edl_r	ehl_r	fdl_r	fhl_r	gaslat_r	gasmed_r	glmax1_r	glmax2_r	glmax3_r	glmed1_r	glmed2_r	glmed3_r	glmin1_r	glmin2_r	glmin3_r	grac_r	iliacus_r	perbrev_r	perlong_r	piri_r	psoas_r	recfem_r	sart_r	semimem_r	semiten_r	soleus_r	tfl_r	tibant_r	tibpost_r	vasint_r	vaslat_r	vasmed_r	addbrev_l	addlong_l	addmagDist_l	addmagIsch_l	addmagMid_l	addmagProx_l	bflh_l	bfsh_l	edl_l	ehl_l	fdl_l	fhl_l	gaslat_l	gasmed_l	glmax1_l	glmax2_l	glmax3_l	glmed1_l	glmed2_l	glmed3_l	glmin1_l	glmin2_l	glmin3_l	grac_l	iliacus_l	perbrev_l	perlong_l	piri_l	psoas_l	recfem_l	sart_l	semimem_l	semiten_l	soleus_l	tfl_l	tibant_l	tibpost_l	vasint_l	vaslat_l	vasmed_l	
3.19	218.362	1.51842	1470.1	1495.38	2015.13	0	5148.38	4248.11	445.226	212.46	724.512	2242.88	807.511	5426.11	834.746	2461.36	2549.94	24264.7	15599.1	3296.34	3085.72	3272.9	3700.97	281.459	268.99	236.579	2019.63	2765.51	282.82	0.434382	371.947	14083.7	3782.39	19892.8	0.208509	694.588	2946.44	480.33	1556.04	774.296	33.9561	2321.75	330.426	320.325	323.872	23.462	107.796	111.383	773.685	1377.31	806.235	1992.76	1473.86	0	9.21221	18.966	3.86349	2040.77	609.294	9.55842e-10	282.443	691.459	0	9.7407	0.628099	2192.94	5356.91	0	2.45709	10662.8	471.999	6326.59	928.557	2.56058e-07	1.06485e-14	5926.57	8342.19	0	2.5609	0.00905458	
3.195	187.174	3.44631e-07	1279.49	1322.82	1724.36	0	4990.29	4693.62	463.08	221.799	721.222	2226.17	923.787	5851.11	677.934	2174.94	2203.11	24449.8	15440.2	2990.89	3126.64	3302.94	3709.56	281.225	352.973	233.759	2006.18	2578.11	359.378	9.51244	411.988	14203.2	3789.9	19140.5	23.9456	740.105	2925.93	373.191	1259.63	615.894	19.8508	2252.01	352.32	330.541	311.773	72.8047	9.2935	73.5578	779.078	1378.63	802.794	1984.37	1310.84	0	19.0049	29.6067	0	2555	801.677	8.29586e-07	317.947	211.968	0	0	14.005	2193.74	5354.48	0	7.37777	11005.1	459.195	5557.97	822.748	0	0	5933.24	8372.06	6.13418e-11	310.872	175.921	
3.2	180.328	1.89768e-07	1172.59	1212.15	1557.3	0	4852.25	5049.02	476.317	228.67	718.366	2211.16	1006.38	6188.41	617.793	2054.05	2035.09	24439	15258.2	2802.79	3125.48	3300.54	3706.28	281.614	394.468	232.202	1995.03	2396.56	398.476	24.2887	443.858	14261.3	3788.09	18535	45.1349	771.147	2908.6	314.005	1092.15	528.763	15.7357	2188.21	505.282	400.719	430.687	130.586	46.2344	115.872	782.736	1378.69	793.402	1988	1357.75	2.11965e-07	458.527	706.881	75.9967	2412.49	483.276	6.81499e-07	318.939	123.66	3.28731e-11	38.6755	20.4335	2220.14	5363.79	2.21935e-08	9.0504	10996.6	447.201	4948.29	839.281	0	8.33881e-09	5937.21	8453.67	0	467.118	265.066	
3.205	173.807	8.25721e-08	1079.42	1118.33	1407.52	0	4705.66	5404.34	486.112	233.714	715.78	2197.62	1066.45	6489.65	563.494	1945.01	1884.88	24410.3	15025.4	2622.28	3120.87	3295.8	3701.8	281.052	425.715	231.115	1985.1	2216.82	426.602	40.8078	476.165	14259.1	3775.17	18034.5	56.5773	792.11	2893.31	275.845	980.223	471.561	121.792	2182.1	606.716	465.808	495.377	148.367	129.323	144.298	830.046	1387.27	744.224	1990.45	1410.45	2.4079e-08	1000.21	1605.68	416.436	1623.51	86.2278	9.06766e-07	634.831	706.934	2.80461e-10	100.064	189.562	2227.45	5370.48	0	418.194	10991.4	435.134	4380.82	806.559	0	5.63142e-09	5939.02	8527.77	1.47155e-07	480.744	271.52	
3.21	167.959	2.85994e-08	990.957	1027.57	1270.9	0	4538.05	5772.74	493.995	237.784	713.514	2185.94	1121.29	6795.7	505.19	1832.02	1739.15	24381.7	14729.6	2442.47	3116.31	3291.06	3697.42	279.942	459.846	230.19	1976.49	2038.93	457.064	56.3591	511.23	14193.7	3750.1	17621.2	63.7472	808.813	2880.11	242.153	879.523	420.102	298.017	2182.43	555.696	475.695	418.723	141.998	186.802	134.208	869.51	1390.77	706.104	1989.55	1399.36	2.63002e-08	1217.31	2080.57	523.762	668.212	5.1684	9.23064e-07	946.611	1330.79	1.32216e-11	124.151	521.653	2221.91	5372.4	2.39745e-05	1168.83	10984.9	422.198	3845.33	743.182	0	4.94363e-09	5935.84	8572.01	3.23835e-07	468.92	264.747	
3.215	163.771	0.000474015	910.088	942.016	1149.62	0.00925993	4349.15	6144.62	499.965	240.864	711.744	2176.84	1179.61	7116.53	446.273	1720.02	1602.02	24346.2	14362.1	2268.92	3110.52	3285.39	3692.55	278.356	496.604	229.54	1969.84	1866.8	489.381	71.246	549.065	14053.3	3710.71	17311.1	71.2689	821.296	2869.89	210.973	785.467	372.326	459.209	2145.79	396.1	417.876	273.696	143.464	210.939	109.848	854.976	1385.42	696.043	1989.65	1347.15	0.00145025	1202.98	2186.43	505.304	193.619	14.7943	0	1113.84	1422.4	0	121.15	926.661	2217.6	5373.23	0	1862.16	10975.7	407.927	3366.41	686.899	0.0120137	0.000197166	5930.09	8593.3	0.00329079	467.028	267.37	
3.22	161.125	0.000455039	836.227	862.341	1043	0.00890117	4141.24	6512.47	503.4	242.62	710.604	2170.9	1242.49	7451.7	386.987	1608.41	1472.55	24305.7	13917.7	2104.35	3103.81	3279.07	3687.4	276.203	535.996	229.286	1965.62	1704.35	522.757	86.804	589.681	13829	3655.71	17122.4	80.2601	827.755	2863.43	184.313	703.886	331.369	562.854	2072	239.296	311.54	147.42	149.267	217.203	87.7404	810.265	1378.91	695.372	1993.65	1282.59	0.00139331	1148.36	2182.66	491.113	156.251	21.8818	0.00799327	1198.76	992.376	0.00477875	109.301	1302.91	2216.37	5374.78	0.00909245	2396.06	10963.3	392.29	2954.41	639.486	0.0125159	0.000189296	5924.18	8602.2	0.00301622	466.338	283.59	
3.225	160.062	0.000162971	768.67	787.612	950.4	0.00318764	3916.97	6868.86	503.882	242.84	710.188	2168.54	1309.74	7804.17	327.908	1497.15	1350.17	24261.4	13396.2	1951.17	3096.44	3272.31	3682.17	273.489	578.494	229.468	1964.12	1554.57	557.723	103.746	633.017	13519	3584.97	17066.7	90.2093	827.205	2861.22	162.579	636.089	297.701	604.359	1970.69	129.891	200.423	70.3405	148.675	220.378	69.8964	778.857	1375.81	704.942	2002.7	1224.73	0.000499011	1127.5	2218	527.628	80.9003	21.6602	0	1244.05	579.536	0	99.5895	1586.75	2217.22	5376.94	0	2632.27	10947.5	375.563	2602.21	597.166	0.00543419	6.78027e-05	5918.47	8604.75	0.00344244	459.166	313.074	
3.23	160.636	2.45257e-05	707.131	717.413	870.601	0.000465824	3680.18	7207.12	501.193	241.413	710.559	2170.1	1381.92	8179.3	269.929	1386.95	1234.43	24214.5	12802.2	1811.28	3088.57	3265.29	3676.99	270.276	624.302	230.086	1965.56	1420.76	594.691	121.502	678.921	13127.3	3499.36	17152.1	100.355	819.186	2863.59	144.899	579.833	269.973	608.788	1855.19	69.9708	111.444	30.8373	142.327	226.71	53.7755	767.592	1374.66	720.827	2016.89	1176.48	7.47415e-05	1127.92	2293.12	597.98	57.5484	22.9285	0	1270.43	129.96	0.00354497	92.6811	1766.32	2220.79	5379.24	0	2726.81	10933.5	358.147	2289.61	559.29	0.00117884	1.01509e-05	5912.98	8602.47	0.000360882	450.739	356.835	
3.235	162.887	0	651.333	651.999	802.398	0	3436.61	7521.6	495.245	238.292	711.747	2175.76	1460.14	8582.55	214.021	1278.7	1124.77	24166	12146.5	1685.88	3080.39	3258.16	3671.98	266.673	673.481	231.138	1970.05	1303.92	633.937	138.945	727.174	12663	3400.68	17384.6	110.321	803.57	2870.74	130.491	533.1	247.081	589.333	1731.78	38.4336	59.5117	10.954	163.232	237.159	38.7842	758.983	1373.7	738.108	2036.25	1135.69	0	1128.98	2374	683.466	61.0127	26.3106	0.0127087	1288	32.3838	0.0276389	86.9854	1851.76	2228.07	5381.54	0.00100032	2733.88	10921.2	340.481	2012.7	527.078	0	0	5907.76	8596.85	0	447.03	415.195	
3.24	166.85	0	600.869	591.339	744.695	0	3192.31	7807.19	486.069	233.496	713.751	2185.55	1545.47	9019.06	161.16	1173.3	1020.64	24117.1	11444.8	1572.29	3072.08	3251.07	3667.23	262.819	725.992	232.611	1977.65	1202	675.766	155.27	777.127	12138.5	3291.5	17768.5	119.922	780.596	2882.68	119.048	495.151	228.633	553.703	1602.37	21.5188	33.7172	0.737694	206.815	252.034	25.9708	746.337	1372.63	757.277	2060.92	1100.58	0	1125.63	2440.16	775.365	64.872	30.1566	1.51057	1019.39	25.0681	0	81.7697	1859.49	2239.48	5383.81	0.0269349	2682.74	10908.8	322.903	1776.19	501.451	0	21.4496	5902.64	8591.69	0	447.83	486.205	
3.245	172.562	8.55345	555.352	535.21	696.538	0	2952.13	8060.4	473.847	227.126	716.524	2199.35	1639	9492.82	112.364	1071.58	921.688	24068.2	10717.9	1464.29	3063.78	3244.14	3662.77	258.887	781.515	234.473	1988.27	1113.62	720.452	169.895	827.331	11567.7	3174.89	18305.3	129.007	750.971	2899.19	110.181	464.945	214.074	508.097	1468.35	12.3783	22.4952	0.00194874	246.543	272.291	16.5453	730.737	1371.57	776.369	2091.04	1070.74	0	1120.23	2484.87	872.686	68.6721	34.3207	25.1331	648.539	24.98	0.0296837	77.2006	1800.45	2254.92	5386.09	0	2583.57	10888.2	305.609	1584.48	483.068	0	63.7045	5897.51	8590.93	0	442.444	562.033	
3.25	180.069	24.1966	514.382	483.227	657.05	0	2719.27	8281.56	458.924	219.369	719.987	2216.88	1741.83	10006.1	68.5587	974.329	828.519	24020.1	9989.05	1368.98	3055.64	3237.46	3658.63	255.064	839.543	236.68	2001.71	1038.22	768.196	182.309	876.461	10965.6	3054.16	18993.2	137.409	715.865	2919.87	103.363	440.994	202.618	458.834	1332.05	7.86798	17.7111	0	268.703	299.483	10.514	713.114	1370.55	795.879	2126.53	1046.53	0	1112.85	2502.44	973.261	72.7403	39.0151	24.1411	337.458	25.6462	0.00280508	73.5788	1684.24	2274.15	5388.32	0.000253437	2444.71	10860.7	288.748	1439.22	472.731	0	108.459	5892.44	8596.94	0.000238255	425.21	637.286	
3.255	189.421	27.3764	477.604	435.016	625.492	7.9627e-06	2496.02	8472.8	441.783	210.484	724.024	2237.67	1854.84	10559.3	30.4801	882.2	741.919	23973.1	9270.4	1281.78	3047.76	3231.1	3654.8	251.545	899.528	239.167	2017.67	974.835	819.124	192.044	923.498	10347.6	2932.69	19825.1	144.965	676.79	2944.14	98.0161	421.672	193.43	411.138	1196.15	6.15222	16.1062	0.0135696	273.175	335.689	6.52268	693.551	1369.55	815.743	2167.1	1028.59	1.52163e-06	1101.86	2488.82	1069.75	77.0504	44.2085	28.887	165.797	26.9151	0.00452226	71.0237	1520.99	2296.47	5390.43	0.0278689	2274.22	10827.5	272.482	1339.44	471.689	0	153.819	5887.5	8608.46	0.0022691	397.727	709.808	
3.26	200.682	29.979	444.729	390.316	601.298	7.56853e-06	2286.08	8638.53	423.031	200.794	728.492	2261.11	1978.35	11151	0	795.605	662.498	23927.5	8573.32	1201.75	3040.24	3225.09	3651.22	248.526	960.942	241.863	2035.74	921.973	873.293	198.676	967.674	9730.2	2813.6	20787.8	151.585	635.412	2971.25	93.5736	405.331	185.679	368.192	1060.24	6.21799	16.5978	0.0075537	266.516	384.21	3.76214	672.138	1367.44	835.814	2212.4	1017.9	1.24648e-06	1086.96	2447.3	1148.97	84.18	49.7702	36.7372	84.0971	28.3258	0	69.547	1329.05	2320.95	5392.38	0	2081.57	10793.1	256.977	1282.68	481.798	0	188.984	5882.79	8621.37	7.48501e-05	366.867	780.557	
3.265	213.93	34.6123	415.639	349.22	584.008	2.87072e-06	2093.67	8783.65	403.382	190.677	733.23	2286.45	2112.09	11778.1	0.00181566	714.801	590.679	23883.5	7906.97	1127.42	3033.14	3219.46	3647.84	246.196	1023.27	244.686	2055.41	877.779	930.691	201.875	1008.46	9128.71	2699.55	21863.3	157.233	593.389	3000.33	89.4992	390.379	178.568	331.135	922.763	7.48058	18.5757	0.00234329	254.888	449.842	2.07875	649.189	1360.4	855.917	2261.9	1015.66	4.74696e-07	1068.83	2385.74	1201.15	95.3765	55.5722	44.515	47.7226	29.644	1.78155e-05	69.182	1129.43	2346.73	5394.15	0.000594542	1881.05	10755.6	242.374	1267.47	505.653	0	212.863	5878.39	8631.19	0	334.636	847.738	
3.27	229.313	39.6928	390.495	311.971	573.293	0	1921.21	8914.06	383.587	180.528	738.066	2312.93	2255.07	12437	0	639.721	526.672	23840.9	7274.35	1056.91	3026.51	3214.19	3644.57	244.728	1086.08	247.548	2076.11	840.127	991.269	201.424	1045.52	8557.7	2592.62	23028.9	161.876	552.202	3030.41	85.2885	375.303	171.338	299.548	785.816	9.55236	21.4998	0	241.931	537.339	2.08017	625.063	1347.6	875.757	2314.75	1023.26	7.47127e-08	1047.99	2311.33	1229.83	110.552	61.4493	52.5305	32.2192	30.8093	5.84265	70.0236	929.001	2372.84	5395.7	0.0297262	1683.76	10716.5	228.771	1297.47	546.531	0	220.763	5874.38	8634.9	0	301.783	909.874	
3.275	247.075	44.4133	369.185	278.711	568.872	0	1769.54	9036.04	364.392	170.733	742.828	2339.73	2405.75	13121	0.0911797	570.124	470.436	23357.5	6678.33	988.286	3020.38	3209.28	3641.32	244.284	1149	250.357	2097.2	806.718	1054.83	197.237	1078.69	8029.61	2494.39	24254.4	165.471	513.182	3060.49	80.5031	358.708	163.311	272.444	654.3	12.1742	24.9763	0	229.543	652.901	5.15074	600.119	1329.91	895.048	2370.55	1042.18	0	1024.73	2229.36	1244.57	129.398	67.1907	61.1852	25.6587	31.7236	77.5643	72.2359	738.481	2398.47	5397	0	1492.2	10676.7	216.226	1383.58	608.255	0	204.731	5870.83	8631.74	0	272.955	967.408	
3.28	267.726	49.0495	351.661	249.463	570.51	0	1638.24	9155.59	346.51	161.661	747.357	2365.97	2562.04	13820.2	0.0336755	505.473	421.702	22108.3	6119.1	919.777	3014.77	3204.7	3638.02	245.009	1211.79	253.024	2117.99	775.184	1121.04	189.358	1107.94	7554.48	2406.15	25501.4	167.964	477.625	3089.58	74.7694	339.399	153.9	249.032	534.549	15.1853	28.7775	0	218.866	816.903	11.3368	574.729	1308.04	913.526	2428.22	1073.87	0	999.265	2143.7	1252.52	151.386	72.5572	70.1789	22.6543	32.2878	77.5309	76.0574	577.843	2422.98	5398.01	0.000683725	1308.95	10636.2	204.775	1541.03	694.961	0	161.339	5867.8	8622.79	0.000381937	259.83	1030.63	
3.285	291.713	53.7967	337.778	224.163	577.991	0	1526.54	9278.55	330.535	153.601	751.512	2390.73	2720.72	14522.4	0.00763558	445.132	379.968	20242.8	5594.78	849.929	3009.67	3200.42	3603.52	247.032	1274.31	255.461	2137.8	743.209	1189.64	177.954	1133.32	7139.47	2329.11	26724.9	169.316	446.743	3116.74	67.8	316.369	142.622	229	431.724	18.4616	32.7484	0	210.758	1042.67	19.3964	549.252	1282.58	930.941	2487.11	1119.62	8.2638e-09	971.618	2056.72	1258.44	175.715	77.2931	79.1574	20.8747	32.4077	72.4783	81.8346	461.165	2446.02	5398.7	0.0243651	1139.58	10598.5	194.423	1784.2	809.697	0	105.299	5865.34	8609.95	0.00092304	247.082	1092.42	
3.29	319.741	58.6062	327.33	202.646	591.102	0	1433.59	9410.38	316.919	146.772	755.176	2413.19	2878.21	15213.2	0	388.271	344.545	17958.1	5101.97	777.44	3005.11	3196.43	3456.73	250.47	1336.55	257.586	2155.95	708.721	1260.4	164.085	1154.98	6788.66	2264.16	27876.2	169.512	421.384	3141.12	59.4168	288.894	129.145	212.414	340.662	21.8921	36.7416	0	205.947	1323.72	28.4165	524.049	1254.28	947.084	2546.5	1180.26	1.97365e-08	941.606	1969.28	1263.03	201.357	81.138	87.7877	19.3289	32.074	76.0046	90.0323	376.275	2467.26	5399.05	0	990.71	10568.5	185.152	2121.44	947.367	0	63.7766	5863.48	8594.96	0.00054997	306.519	1150.47	
3.295	352.796	63.393	320.078	184.676	609.628	0	1358.61	9555.53	306.014	141.342	758.256	2432.64	3030.4	15876.6	0	334.109	314.602	15480.6	4635.38	701.294	3001.07	3192.72	3214.15	255.424	1398.61	259.326	2171.78	670.07	1333.16	149.45	1173.07	6503.2	2211.75	28903.6	168.558	402.128	3161.96	49.5611	256.531	113.306	199.582	257.193	25.3646	40.6124	0	204.996	1657.31	38.5174	499.448	1223.76	961.791	2605.3	1256.08	2.20911e-08	908.91	1880.88	1264.88	227.191	83.8519	95.6934	17.6018	32.4453	80.5844	101.179	312.721	2486.41	5399.06	9.4726e-05	867.237	10531.7	176.932	2553.17	1084.23	0	38.3084	5862.25	8579.04	63.982	1231.08	1313.61	
3.3	392.049	68.3576	315.725	169.941	633.619	0	1300.8	9717.37	298.096	137.442	760.683	2448.42	3173.01	16495.6	0	281.875	289.194	13091.2	4185.78	620.768	2997.58	3189.3	2905	261.982	1460.86	260.612	2184.66	626.142	1407.83	134.757	1187.77	6282.01	2171.96	29757.8	166.491	389.417	3178.62	38.321	219.209	95.1086	190.862	185.038	28.7669	44.2226	0	208.303	2044.41	50.3876	475.74	1191.72	974.933	2663.03	1346.71	2.11446e-08	873.187	1791.14	1262.98	251.988	85.2314	102.478	15.529	33.7792	81.5731	115.715	264.628	2503.46	5398.74	0.0297795	765.732	10498.6	169.745	3075.49	1198.98	0	25.0109	5861.66	8562.89	173.445	2798.27	1563.95	
3.305	438.934	75.5364	313.968	158.079	662.66	4.5296e-06	1259.01	9898.17	293.39	135.178	762.403	2459.96	3301.6	17053.4	0	230.517	267.354	11021.1	3748.21	535.646	2994.64	3186.2	2554.08	270.215	1523.99	261.385	2194.05	576.677	1484.4	119.606	1199.24	6121.67	2144.53	30391.9	163.38	383.602	3190.54	26.0006	177.343	74.7999	186.563	123.239	31.9787	47.4365	0	216.181	2363.56	64.7671	453.183	1158.87	986.421	2719.22	1450.81	1.98405e-08	834.294	1700.19	1257.07	274.482	85.1318	107.773	13.0617	35.6213	80.0784	134.139	226.411	2518.4	5398.1	0	680.338	10468.1	163.661	3579.73	1269.93	0	19.5538	5861.74	8546.97	247.154	4363.41	1818.35	
3.31	495.061	86.4559	314.469	148.702	696.146	0	1231.61	10098.6	292.074	134.635	763.369	2466.71	3411.54	17531.3	0	178.966	248.094	9290.45	3325.48	446.192	2992.27	3183.45	2190.95	280.177	1588.77	261.589	2199.42	522.228	1562.88	103.269	1207.63	6017.32	2128.87	30764.4	159.318	384.987	3197.24	13.2691	131.847	52.9112	186.838	71.2239	34.8779	50.1238	0	229.042	2473.23	82.1186	431.969	1125.72	996.218	2773.04	1565.94	1.88939e-08	792.535	1608.58	1247.49	293.443	83.4853	111.302	10.2134	37.4995	77.2214	157.834	194.774	2531.21	5397.18	0.000444941	610.617	10439.9	158.865	3733.02	1292.19	0	15.738	5862.46	8531.56	295.391	4543.24	2009.84	
3.315	561.705	101.452	316.886	141.388	734.883	0	1216.41	10317.4	294.309	135.884	763.533	2468.19	3498.15	17912.2	0	128.56	230.519	7861.34	2921.77	353.216	2944.49	3181.09	1852.77	291.89	1656.17	261.174	2200.33	463.407	1643.34	85.4145	1213.03	5962.74	2124.06	30840	154.432	393.822	3198.24	1.93392	84.525	30.4819	191.736	31.8178	37.346	52.1677	0	247.684	2471.86	102.644	412.252	1092.95	1004.32	2824.09	1689.03	1.82167e-08	752.262	1518.25	1235.04	307.807	80.3025	112.879	7.04036	38.9703	73.0558	187.429	164.237	2541.94	5396.02	0.0252248	555.075	10414.6	155.674	3679.57	1287.79	0.000101035	9.353	5863.85	8516.86	324.829	4015.7	2120.54	
3.32	639.806	120.48	320.865	135.718	777.79	0	1211.1	10551.9	300.255	138.995	762.833	2463.97	3556.91	18179.6	0	78.9152	213.802	6679.5	2541.73	258.12	2676.91	3165.69	1558.23	305.354	1726.8	260.093	2196.4	400.016	1725.85	66.2603	1215.55	5951.41	2129.04	30590.3	148.872	410.286	3193.09	0	38.3653	9.49528	201.266	9.1939	39.2772	53.4757	0	273.597	2454	126.232	394.139	1060.98	1010.77	2872.29	1816.13	1.76325e-08	710.499	1431.26	1220.15	316.755	75.6877	112.429	3.64307	39.6591	67.4891	220.081	136.388	2550.67	5394.66	0	512.473	10392.7	154.395	3625.3	1276.65	0	0.229258	5865.91	8502.98	338.883	3600.77	2169.36	
3.325	730.111	143.446	326.038	131.284	825.292	0	1213	10797.2	310.104	144.061	761.184	2453.62	3583.32	18315.8	0	30.8898	197.267	5671.41	2190.49	162.852	2275.35	2947.68	1307.78	320.518	1801.52	258.304	2187.31	333.043	1810.48	46.6691	1215.66	5975.79	2142.38	29995.5	142.809	434.517	3181.28	0	1.42043	0	215.381	0	40.6241	55.0049	26.1845	309.453	2437.03	152.731	377.667	1030.2	1015.62	2917.07	1942.87	1.70561e-08	666.939	1345.35	1202.2	319.791	69.8203	109.991	0.197457	39.2836	60.6973	251.5	113.744	2557.48	5393.16	0.00126646	480.787	10374.6	155.513	3631.64	1265.3	3.29569e-05	0	5868.67	8489.97	339.429	3429.81	2174.72	
3.33	833.115	170.15	332.048	127.7	877.186	0	1219.42	11047.5	324.108	151.206	758.478	2436.74	3573.41	18305.9	0	0.0010639	180.363	4783.72	1873.16	70.1175	1850.22	2556.07	1097.08	337.287	1881.12	255.766	2172.82	265.885	1897.21	27.9878	1215.51	6027.89	2162.48	29045.3	136.432	466.652	3162.26	0.0185474	0	0	233.922	0	42.5143	58.5954	30.3424	323.628	2413.73	181.29	362.843	1001.06	1018.98	2958.42	2064.07	1.6465e-08	623.265	1262.39	1183.35	316.824	62.9539	105.717	8.38519e-05	80.3269	53.0025	277.427	96.3274	2562.51	5391.55	0.0119936	458.337	10360.8	159.637	3699.93	1256	0	0	5872.15	8477.81	329.295	3518.45	2147.97	
3.335	949.034	200.288	338.532	124.604	933.385	101.277	1227.55	11294.8	342.591	160.605	754.583	2412.98	3523.84	18136.7	0	0	162.681	4014.19	1592.25	0	1486.86	2103.92	918.51	355.576	1966.36	252.451	2152.75	200.681	1985.97	11.9991	1215.37	6099.06	2187.46	27741.7	129.943	507.02	3135.47	0.0166731	0	0	243.843	0	45.7006	64.5583	27.0757	295.555	2380.09	210.541	349.636	973.715	1021.04	2996.39	2172.83	1.58669e-08	579.907	1182.7	1167.36	308.734	55.4626	99.8815	0	313.578	44.7641	294.257	83.086	2565.93	5389.87	0	444.141	10351.4	167.558	3827.56	1250.63	0	0.0593287	5876.22	8466.51	311.899	3798.53	2097.48	
3.34	1081.02	233.405	345.115	121.688	993.592	138.304	1234.84	11531.5	365.92	172.466	749.35	2381.96	3432.59	17798.6	0	0	144.033	3361.52	1345.39	0	1209.66	1689.25	760.622	375.156	2057.95	248.339	2127.04	137.072	2076.85	1.02167	1215.23	6180.64	2215.37	26101.7	123.54	556.308	3100.36	0.00637173	0.0988876	0.053745	216.576	0.0472649	50.0015	72.1813	29.7208	236.749	2340.12	239.524	337.985	948.425	1022.17	3030.83	2259.71	1.52663e-08	537.375	1106.02	1153.45	298.636	49.0145	92.7376	0.00655145	420.344	36.3621	299.865	73.1432	2567.99	5388.17	0	437.969	10347	180.408	4019.41	1250.29	0	0.017798	5880.32	8456.07	290.507	4307.4	2031.28	
3.345	1236.6	268.973	351.451	118.652	1057.47	92.536	1238.41	11749.3	394.495	187.025	742.625	2343.4	3298.79	17288.1	0	0.100023	124.246	2819.91	1130.53	0	1000.98	1364.87	621.254	395.726	2156.58	243.431	2095.76	75.1345	2170.16	0	1215.08	6262.33	2243.86	24160.1	117.416	616.123	3056.46	2.89065e-05	0.0485404	0.0144767	158.665	0.0420872	55.1245	80.7873	30.8477	165.213	2296.48	268.435	327.788	925.298	1022.89	3061.74	2314.43	1.4669e-08	496.18	1033.98	1140.42	284.144	44.2003	84.7263	0.00404344	416.993	28.933	295.656	65.5098	2569.02	5386.47	0.00149265	439.338	10347.1	199.453	4276.54	1255.6	0	0.000847489	5882.04	8446.52	268.488	4834.16	1959.53	
3.35	1421.78	306.208	357.176	115.268	1124.22	106.531	1235.86	11941.4	428.701	204.525	734.274	2297.42	3123.81	16434.6	0	0.0401909	103.432	2381.71	944.515	0.220567	841.918	1119.53	502.29	417.013	2262.77	237.747	2059.1	19.1797	2265.93	0	1214.91	6334.33	2270.69	21971.3	111.754	688.656	3003.48	0	0.0156319	0.00242997	100.751	0.020986	60.708	89.7781	30.3281	105.16	2255.36	297.889	318.956	904.467	1023.67	3089.19	2330.92	1.40759e-08	456.356	968.841	1127.45	267.333	41.9419	76.1509	0.00197316	380.456	22.8331	285.793	59.33	2569.38	5384.8	0.00257141	448.064	10352	226.271	4595.59	1266.83	9.7216e-05	0	5865.11	8437.92	249.108	5322.01	1892.74	
3.355	1639.87	344.347	361.968	111.327	1192.9	103.111	1224.69	12102	468.846	225.175	724.196	2244.06	2910.98	15386.6	0	0.00894613	81.6869	2029.73	781.465	0.0832945	715.38	932.868	404.226	438.736	2376.99	231.339	2017.44	0.00130522	2364.12	0.0174889	1214.74	6385.97	2293.41	19608.4	106.732	775.994	2941.38	0	0	0	57.9324	0.0178029	66.4272	98.6624	29.1406	63.8167	2221.85	326.992	311.39	885.887	1024.79	3113.34	2313.93	0	417.852	909.196	1114.33	249.305	40.7183	67.4133	0.000268205	342.016	17.5895	273.635	53.7721	2569.42	5383.17	0.00135281	463.752	10360.7	262.518	4986.98	1284.26	0	0	5831.68	8430.31	234.74	5641.41	1837.72	
3.36	1890.95	382.763	365.5	106.669	1262.11	97.7387	1202.63	12228.4	515.015	249.068	712.348	2183.61	2666.12	14231.9	0	0	59.289	1748.85	636.036	0.0155513	611.29	786.104	326.029	460.516	2499.51	224.284	1971.32	0	2464.94	0.0257021	1214.54	6406.72	2309.62	17196.4	102.526	880.079	2870.49	0	0	0	30.8594	0	71.9375	107.005	27.3732	38.1457	2195.2	352.88	304.999	869.635	1026.3	3134.38	2279.92	0	380.506	852.958	1100.36	231.01	38.8789	61.5342	0	305.416	23.648	260.47	48.8306	2569.43	5381.59	0	486.385	10372.8	301.451	5467.2	1307.98	2.84008e-05	0	5791.63	8423.68	226.596	5816.49	1796.14	
3.365	2161.93	421.827	367.5	101.175	1330.14	91.882	1167.74	12320.2	567.035	276.155	698.767	2116.99	2398	12994.6	0	0	36.6044	1526.11	506.088	0	527.3	665.31	263.867	481.844	2630.46	216.693	1921.46	0.0374223	2567.9	0.00538316	1214.33	6386.72	2317.04	14857.5	99.3085	1002.95	2791.52	0	0	0	14.6933	0	76.9304	114.455	25.0033	22.9599	2172.19	372.629	299.7	855.6	1028.03	3152.44	2243.88	4.82649e-07	344.278	798.636	1082.83	213.469	37.0771	58.9038	0	261.812	72.7878	246.678	45.0843	2569.56	5380.08	0	517.102	10387.2	274.149	6038.88	1337.99	1.26248e-05	0	5750.93	8417.97	224.801	5849.68	1765.58	
3.37	2422.71	462.348	367.723	94.781	1394.88	85.3703	1118.36	12380	624.496	306.261	683.58	2045.11	2118.7	11720.8	0	0	14.2274	1348.57	392.689	0	461.112	567.277	215.534	502.09	2769.81	208.714	1868.75	0.0898125	2672.55	0	1214.1	6317.18	2313.58	12573.7	97.2385	1145.1	2705.67	0	0	0	5.16387	0	81.1577	120.75	22.1363	13.7917	2150.22	385.889	295.413	843.757	1029.69	3167.6	2211.61	0.0216374	309.151	745.246	1058.84	197.606	35.4762	57.2525	0	227.879	154.233	232.548	43.1312	2569.91	5378.63	0.000178797	558.329	10403	156.669	6693.29	1374.26	2.46293e-05	0	5712.78	8413.06	228.332	5779.46	1740.79	
3.375	2649.66	504.489	365.977	87.4597	1454.18	78.1739	1053.32	12412.9	686.798	339.125	667.01	1969.34	1842.8	10456.4	0	0	0	1206.82	296.696	0	410.346	489.824	177.742	520.517	2917.35	200.524	1814.2	0.0250182	2778.26	0	1213.86	6191.06	2297.5	10372.4	96.4569	1305.4	2614.68	0	0	0	0	0	84.4256	125.698	18.8863	8.08193	2127.97	394.473	292.068	834.042	1031.22	3179.99	2183.99	0	275.183	691.85	1026.49	184.16	34.0734	176.247	0	150.111	233.999	218.318	43.4455	2570.4	5377.26	0.000446036	613.249	10419.1	62.3596	7414.6	1417.8	2.95552e-05	0	5679.2	8408.81	235.456	5625.56	1714.77	
3.38	2828.69	547.736	362.136	79.2509	1505.95	70.4764	971.929	12425.5	753.236	374.44	649.397	1891.23	1580.36	9260.88	0	0	0	1094.3	218.186	0	372.797	430.342	147.509	536.344	3071.91	192.31	1758.92	0	2884.26	0	1213.6	6003.75	2267.51	8346.98	97.0815	1482	2520.72	0	0	0	0.000650563	0	86.595	129.175	15.3535	4.30358	2105.16	400.457	289.597	826.368	1032.57	3189.73	2161.15	0	242.457	637.94	984.813	173.681	32.9543	477.087	0	33.3832	292.904	204.15	47.2827	2570.94	5375.95	0.000225909	685.817	10434.6	28.0187	8171.26	1470.69	2.31745e-05	0	5651.58	8405.06	244.393	5400.68	1680.95	
3.385	2954.02	591.203	356.144	70.2399	1548.35	62.3858	874.13	12424.4	822.979	411.69	631.161	1812.58	1328.69	8168.49	0	0	0	1007.73	156.627	0	346.424	386.289	123.262	548.795	3230.85	184.267	1704.11	0	2989.72	0	1213.31	5753.63	2222.42	6615.59	99.2016	1672.81	2426.17	0	0	0	0	0	87.5777	131.116	11.6351	1.59451	2082.06	405.26	287.937	820.632	1033.6	3196.96	2144.04	0.00245098	211.115	583.161	934.176	166.493	32.2216	925.304	0	1.88413	183.045	190.148	56.5042	2571.47	5374.71	0	782.485	10450.5	21.1476	8925.72	1534.5	8.36671e-06	0	5630.73	8401.72	254.882	5119.34	1637.9	
3.39	3027	633.771	348.02	60.5841	1579.86	54.0179	760.476	12414.4	894.563	450.054	612.786	1735.16	1091.87	7161	0	0	0.0458841	945.84	110.943	0	329.37	355.203	104.613	557.175	3391.27	176.58	1651	0	3093.71	0.520303	1213	5442.9	2161.69	5201	102.875	1873.71	2333.34	0	0	0	0.0084858	0	87.329	131.504	7.83214	0	2060.11	409.082	287.023	816.721	1034.27	3201.87	2134.51	0.093259	181.315	527.654	875.741	162.724	31.9218	1447.74	0.000565639	0.872843	47.4301	176.406	72.3193	2572.07	5373.54	0	909.693	10467.7	20.7394	9644.66	1610.02	3.56356e-05	0	5616.96	8398.74	268.548	4804.43	1590.19	
3.395	3054.78	674.126	337.869	50.5088	1599.46	45.5061	632.179	12396.8	966.406	488.962	594.762	1660.76	880.604	6239.2	0	0	0.0195533	907.37	79.7588	0	320.167	334.761	91.2607	560.918	3550.41	169.417	1600.67	0	3195.24	60.8152	1212.65	5077.74	2085.37	3998.5	108.128	2080.97	2244.18	0	0	0	0.00300417	0	85.8467	130.364	4.05776	0	2042.32	411.246	286.787	814.511	1034.63	3204.6	2134.8	0	157.597	475.412	809.291	162.317	32.0399	1886.51	0.0242841	2.21825	1.9164	162.981	87.051	2572.58	5372.46	0	1068.25	10473.7	22.2925	10289.3	1697.05	0	0	5610.16	8396.11	286.834	4480.62	1543.57	
3.4	3052.75	710.818	325.871	40.2831	1606.58	36.9923	491.274	12368.1	1037.3	527.975	577.549	1590.94	694.594	5417.42	0	0	0.0052851	890.812	61.2829	0	317.745	323.128	82.7304	559.647	3705.67	162.911	1554.03	0	3293.33	152.125	1212.25	4666.6	1994.04	3054.22	114.949	2294.08	2160.35	0	0	0	0.00135792	0	83.1594	127.743	0.543828	0	2031.48	411.161	287.153	813.861	1034.6	3205.37	2147.05	0.000103059	143.38	433.25	738.067	165.062	32.5108	2134.46	0	4.26649	0.0828383	149.923	68.2283	2572.81	5371.47	0	901.076	10481.3	25.0203	10796.1	1794.28	0.000298608	0	5609.9	8393.79	306.126	4167.78	1498.37	
3.405	3047.78	742.622	312.287	30.2228	1601.26	28.6099	341.164	12319	1106.01	566.141	561.533	1527.07	527.107	4705.93	0	0	0	894.573	53.6695	0	321.304	318.935	78.481	553.203	3854.63	157.171	1511.78	0	3386.92	232.256	1211.8	4216.94	1888.92	2341.82	123.292	2508.84	2083.29	0	0	0	0	0	79.3196	123.708	0	0.00571571	2028.71	408.606	288.036	814.602	1034.16	3204.38	2172.88	0.0880858	135.032	400.137	665.625	170.649	33.2281	2219.04	0.0080247	6.90781	4.39934	137.219	34.7061	2572.78	5370.58	0	293.719	10489.7	28.3444	11011.9	1899.28	0	0	5615.44	8391.82	316.731	3822.84	1429.47	
3.41	3043.14	768.589	297.442	20.6784	1584.02	20.4911	187.437	12234.4	1170.69	602.29	547.029	1470.18	374.558	4108.83	0	0	0	916.666	55.1578	0	330.298	321.077	77.9479	541.669	3995.03	152.27	1474.39	0	3475	304.046	1211.28	3731.3	1771.6	1791.63	133.078	2717.43	2014.26	0	0	0	0	0	92.7927	118.339	0	0.00130187	2033.13	402.648	289.337	816.536	1033.53	3201.8	2212.86	0	135.643	380.547	594.956	178.701	34.0523	2194.83	0.00751263	9.9792	10.1846	124.815	20.0662	2572.59	5369.82	0	34.3002	10497.9	32.009	10983.3	2008.58	0.000244305	0	5625.78	8390.21	321.364	3443.13	1343.57	
3.415	3038.56	788.078	281.714	12.0379	1555.88	12.7528	47.8485	12095.3	1229.48	635.311	534.291	1421.03	237.975	3621.83	1.47635e-05	0	0	955.136	64.0784	0	344.425	328.609	80.5631	525.363	4124.99	148.253	1442.19	0	3556.5	380.552	1210.7	3216.53	1643.93	1368.31	144.186	2911.75	1954.3	0	0	0	0	0	204.086	175.145	0.00492086	0.000408435	2040.13	393.826	290.938	819.424	1032.46	3197.94	2265.85	0.00246389	149.113	375.644	528.499	188.817	34.8241	2110.36	0.00443433	13.2591	13.0123	112.636	21.1612	2572.23	5369.21	0	13.2963	10507.9	35.9554	10907.9	2116.28	0	0	5639.66	8389.01	323.143	3067.26	1253.33	
3.42	3034.17	800.754	265.511	4.77267	1518.25	5.52181	0	11879.8	1280.8	664.231	523.508	1380.12	120.428	3228.07	9.88412e-06	0	0	1008.35	78.7065	0	363.618	340.878	85.7093	504.817	4242.78	145.143	1415.38	0	3630.26	471.398	1210.05	2691.32	1508.7	1062.11	156.468	3084.57	1904.12	0	0	0	0	0	360.977	270.804	0.00468353	0	2041.98	384.412	292.705	822.986	1030.88	3193.17	2329.34	0.0700981	171.252	379.565	467.821	200.568	283.97	1992.75	0.00549763	16.6712	15.3423	100.707	27.3172	2571.71	5368.77	0	28.4491	10520.8	40.1609	10855.5	2215.32	1.00063e-05	0	5655.67	8388.24	324.68	2735.11	1168.4	
3.425	3030.03	806.538	249.271	0	1472.86	0	0	11566.3	1323.37	688.275	514.814	1347.67	30.1712	2840.47	2.12558e-06	0	0	1075.04	97.4283	0	388.017	357.525	92.8191	480.73	4347.31	142.94	1394.06	0	3695.39	580.725	1209.33	2171.56	1369.07	866.337	169.828	3229.83	1864.16	0	387.49	144.636	0	0	491.704	360.778	0.00219498	0	2031.41	374.299	294.483	826.894	1029.05	3187.89	2400.18	0	195.926	386.13	412.82	213.521	574.317	1855.27	0	20.1627	18.1931	89.1162	33.8061	2570.98	5368.52	0	37.7751	10536.8	44.605	10813.2	2299.9	0	0	5672.21	8387.9	327.648	2468.8	1094.95	
3.43	3026.16	805.587	233.411	0	1421.58	0.000165546	0.0960246	11136.3	1356.28	706.923	508.278	1323.6	0	2370.13	0	0	0	1154.24	119.062	0	417.95	378.427	101.464	453.892	4437.58	141.626	1378.23	0	3750.72	709.791	1208.54	1660.57	1228.68	769.897	184.244	3343.23	1834.56	148.023	592.959	293.637	0	0	556.787	432.803	0.000412413	0	2003.48	363.741	296.098	830.778	1027	3182.62	2475.33	0.00147582	219.268	391.971	363.193	227.216	768.767	1702.99	0	23.6889	21.0863	77.9271	40.0843	2570.07	5368.49	0	42.0236	10558.2	49.2645	10770.2	2366.53	0	0	5687.65	8388	334.744	2277.67	1041.01	
3.435	3022.59	798.237	218.343	0	1366.35	0	0.243928	10577.3	1379.01	719.818	503.915	1307.7	0	2015.8	0	0	0	1245.24	142.907	0	453.902	403.708	111.393	425.117	4513.35	141.168	1367.81	0	3795.2	858.097	1207.69	1153.84	1091.56	760.202	199.837	3422.4	1815.23	219.197	643.674	317.335	0	0	567.191	469.257	0	1.62857e-05	1954.76	353.37	297.36	834.221	1024.78	3177.87	2552.35	0.0472099	239.683	396.202	318.45	241.18	901.417	1540.09	0.0162418	27.1988	23.5181	67.1915	46.2553	2569.06	5368.69	0	48.0963	10584.8	54.1126	10727.9	2413.2	0	0	5700.31	8388.57	348.882	2169.02	1014.31	
3.44	3019.33	784.964	204.443	0.0173322	1309.04	0.0211131	0.0802692	9886.69	1391.41	726.887	501.687	1299.63	0.0697044	1717.66	0	0	0	1347.67	168.692	0	496.343	433.637	122.448	394.981	4574.55	141.519	1362.61	0	3827.87	1021.63	1206.8	658.472	961.469	826.441	216.725	3466	1805.88	231.876	739.35	358.76	0	0	551.184	480.067	0	2.48953e-05	1883.74	344.8	298.066	836.777	1022.31	3174.25	2629.56	0	256.776	399.133	278.668	254.92	968.186	1371.21	0	30.6296	25.3642	58.8053	52.0821	2567.95	5369.16	0	54.6106	10613.7	59.1182	10688.8	2439.49	0	0	5708.55	8389.57	370.366	2141.48	1016.2	
3.445	3016.36	766.33	192.032	0.0059097	1251.39	0.00645615	0	9075.26	1393.63	728.222	501.514	1299	0.13837	1447.49	0	0	0	1461.31	196.518	0	545.636	468.607	134.589	363.967	4621.65	142.618	1362.41	0	3847.76	1193.49	1205.88	205.252	839.854	959.284	234.838	3474.4	1806.05	263.257	882.77	428.957	0	0	524.895	473.831	0	1.31015e-05	1792.26	337.989	298.01	837.976	1019.66	3172.35	2706.12	0.00125677	270.524	401.226	243.253	267.929	984.661	1205.08	0.0042967	33.8963	26.5818	54.9064	57.3613	2566.71	5369.88	0	60.0792	10643.6	64.2457	10652.1	2446.1	0	0	5710.72	8390.93	397.545	2184.31	1043.39	
3.45	3013.66	742.947	181.392	0.00140759	1194.93	0.00290127	0	8171.52	1386.11	724.063	503.281	1305.36	0.0317557	1194.95	0	0	0	1586.01	226.764	0	602.041	509.061	147.842	332.482	4655.21	144.397	1366.91	0	3853.96	1367.93	1204.94	0	727.106	1148.82	253.909	3449.06	1815.15	312.412	1036.56	506.802	0	0.000243296	496.209	457.38	0	0	1684.68	332.062	296.991	837.351	1016.56	3172.79	2782.04	0.0282568	281.133	403.019	211.135	279.701	939.741	1055.1	0.0137757	36.8963	27.057	56.0661	62.0109	2565.26	5370.86	3.39207e-05	64.542	10671.6	69.4552	10615.6	2434.01	0	0	5705.17	8392.52	426.936	2278.64	1087.96	
3.455	3011.26	715.434	172.753	0	1140.91	0	0	7227.71	1369.52	714.794	506.844	1318.22	0	959.134	0	0	0	1721.66	260.017	0	665.707	555.347	162.289	300.899	4675.85	146.78	1375.8	0	3845.65	1551.76	1204	0	625.103	1385.1	273.532	3392.32	1832.52	368.149	1200.55	590.161	0	0.00554786	468.976	435.263	4.02713e-06	0	1566.15	326.381	294.824	834.451	1012.48	3176.14	2858.45	0	289.037	405.171	181.706	289.755	846.732	923.207	0	39.5158	26.6539	61.4429	65.9816	2563.62	5372.09	0	68.2339	10699.2	74.707	10578.5	2404.38	0.000146552	0	5690.08	8394.16	456.861	2413.51	1145.34	
3.46	2999.81	684.402	166.297	0	1090.33	0	0	6318.53	1344.72	700.877	512.037	1337.08	0	740.125	0	0	0	1868.42	297.073	0	736.696	607.78	178.06	269.882	4683.99	149.692	1388.71	0	3822.15	1757.68	1203.08	0	534.418	1661.1	293.253	3307.46	1857.4	430.031	1386.46	685.73	0	0	445.495	411.066	0	0	1441.72	320.515	291.358	828.873	1002.38	3182.91	2937.84	0	294.837	408.168	154.755	297.658	712.667	809.081	0.00196533	41.634	25.2713	69.551	69.225	2561.4	5373.53	3.98944e-07	71.1616	10725.9	79.9615	10542	2358.33	0.00015582	0	5687.11	8395.35	487.466	2226.78	1214.7	
3.465	2968.69	650.421	162.178	0	1043.91	0	0	5486.43	1312.71	682.91	518.679	1361.38	0	538.504	0	0	0	2028.16	338.884	0	815.032	666.683	195.322	240.089	4679.49	153.052	1405.27	0	3782.9	1989.28	1202.18	0.81618	453.976	1974.4	312.475	3198.36	1889.01	499.531	1593.11	793.446	0	0	426.986	387.599	2.94638e-06	0	1317.35	314.163	322.882	831.204	982.19	3193.55	3021.83	0.00393689	299.159	412.03	130.275	303.036	545.356	715.137	1.28401	43.1423	22.8639	78.965	71.7116	2558.54	5375.14	0	73.3101	10751.1	85.1782	10508.4	2297.17	4.19767e-05	0	5687.35	8395.7	519.775	1702.01	1297.85	
3.47	2915.64	614.056	160.52	0	1002.06	0	0	4745.51	1274.6	661.543	526.576	1390.53	0	356.165	0	0	0	2203.94	386.53	0	900.69	732.432	214.275	212.11	4661.47	156.781	1425.08	0	3727.52	2234.06	1201.32	0.251285	382.488	2326.37	330.524	3069.18	1926.5	569.995	1797.03	900.933	0	0.00170849	413.891	366.769	2.88818e-07	0	1198.47	307.186	385.072	836.559	972.57	3208.34	3111.18	0.00356633	302.561	417.202	108.34	305.602	331.61	643.179	26.6006	43.9463	19.4472	88.7199	73.437	2555.31	5376.87	1.24081e-05	74.7213	10774.4	90.3324	10479.4	2222.12	0.000123742	4.73478e-08	5660.45	8395.14	554.717	1245.63	1397.87	
3.475	2839.75	575.847	161.436	0	965.087	1.46912e-06	0	4099.35	1231.58	637.438	535.53	1423.9	0	196.334	5.28432e-05	0	0	2399.91	441.166	0	994.25	805.5	235.161	186.462	4628.07	160.799	1447.72	0	3655.87	2477.59	1199.45	0	319.406	2719.71	346.715	2924.47	1969.02	636.712	1984.65	1001.29	3.20673e-06	0.00185395	406.204	349.647	0	0	1087.86	299.657	454.305	836.097	975.15	3227.47	3206.43	0.000910139	305.463	423.713	89.1053	305.172	148.061	592.321	5.66936	43.9803	15.1076	98.3893	74.4169	2551.92	5378.65	9.87914e-06	75.4515	10795.3	95.4385	10455.1	2134.86	0.000102775	0	5594.07	8393.73	592.678	871.525	1517.87	
3.48	2740.88	536.326	165.044	0	933.134	1.36739e-05	0	3541.54	1184.87	611.304	545.341	1460.84	0	69.8521	4.81748e-05	1.19618e-05	0	2621.15	504.028	0	1098.63	886.497	258.245	163.555	4576.39	165.034	1472.77	0	3568.23	2707.57	1188.05	0	265.489	3156.15	360.416	2769.12	2015.7	699.58	2156.76	1095.04	0	0.00085444	403.8	336.67	7.20476e-06	0	985.672	291.946	501.687	821.984	980.818	3250.94	3308.52	0	307.605	430.668	72.7584	301.649	201.826	556.454	8.32518	43.2082	10.05	107.733	74.686	2548.4	5380.4	3.49341e-07	75.5636	10813.2	100.515	10435.5	2037.6	0.000355955	0	5488.8	8391.63	633.278	1079.37	1658.57	
3.485	2619.79	496.055	171.472	8.58375	906.34	7.52046e-06	0	3055.04	1135.66	583.829	555.806	1500.68	0	0	0	1.79766e-05	0	2873.28	576.396	0	1217.38	976.118	283.789	143.638	4502.66	169.412	1499.8	0	3464.9	2912.87	1164.85	0	221.57	3634.08	371.079	2607.66	2065.68	759.424	2316.1	1183.68	0	0.000114419	406.618	322.164	0	0	891.516	284.615	491.422	787.339	986.894	3278.59	3418.69	0	308.969	437.754	59.5365	295.048	290.061	525.413	6.19296	41.6277	4.68052	116.795	74.3007	2544.67	5382.06	0	75.1272	10827.7	105.57	10420.3	1933.09	0.000282291	0	5353.08	8388.97	675.412	992.24	1816.02	
3.49	2478.14	455.434	180.864	47.4804	884.768	2.02897e-06	0	2623.36	1085.09	555.68	566.726	1542.78	0	0	0	6.95543e-06	0	3162.5	659.614	0	1353.58	1076.17	312.265	126.601	4402.4	173.873	1528.37	0	3346.91	3081.76	1130.11	0	188.056	4146.96	378.232	2444.52	2118.11	814.512	2458.34	1264.66	1.66516	0	402.027	297.386	7.05017e-08	0	805.952	278.225	379.664	740.11	993.394	3310	3537.42	0	310.018	445.333	49.6647	285.472	403.828	500.947	4.01088	39.2656	14.9681	125.824	73.3292	2540.56	5383.53	0	74.2169	10838.6	110.609	10409.8	1824.98	0.000275051	0	5194.52	8385.92	717.442	897.311	1983.44	
3.495	2318.59	414.68	193.401	64.1719	868.539	5.55887e-06	0	2259.03	1034.19	527.456	577.909	1586.49	0	0	0	1.85785e-06	0	3495.43	754.988	0	1509.88	1191.01	344.568	112.136	4271.18	178.357	1558.06	0	3215.42	3206.36	1084.57	0	164.98	4686.12	381.499	2283.58	2172.17	864.595	2591.38	1337.84	33.6697	0	379.188	260.858	0	0	729.991	273.27	261.896	703.249	1008.06	3344.53	3664.94	0	311.38	453.214	43.3278	391.503	520.71	483.711	1.92608	36.1804	50.6259	135.176	71.8551	2537.56	5384.76	0	72.9082	10845.7	115.63	10404	1717.39	0.000205483	4.01029e-06	5011.95	8383.88	757.456	907.093	2152.97	
3.5	2145.03	373.867	209.281	76.4088	857.789	1.6835e-05	0	1952.88	983.874	499.686	589.18	1631.18	0	0.252837	0	0	0	3878.53	863.682	0	1688.32	1325.9	381.984	100.062	4105.12	182.812	1588.48	0	3072.08	3281.32	1029.51	0	152.108	5244.05	380.602	2128.04	2227.09	914.605	2746.1	1416.77	23.2356	0	356.937	222.053	3.21648e-08	0	664.155	270.177	212.05	674.247	1028.18	3381.38	3801.23	0	313.655	461.337	40.6723	531.674	562.143	472.905	0	33.2439	94.6554	145.224	69.9678	2538.46	5385.67	0	71.2816	10849.2	120.63	10403.4	1614.72	0.000129956	0	4799.77	8385.71	793.64	958.345	2316.47	
3.505	1963.07	333.274	228.734	94.5104	852.711	2.75293e-05	0	1704.84	934.901	472.801	600.376	1676.25	0	0.0722986	0	0	0	4315.24	986.586	1.1045e-05	1890.09	1486.19	426.057	90.1517	3901.79	187.195	1619.23	0	2918.9	3309.07	966.694	0	149.011	5825.82	375.364	1980.3	2282.12	969.462	2893.4	1499.31	25.7018	65.6659	363.779	200.737	5.01955e-08	0	607.78	269.317	200.228	645.576	1047.68	3419.69	3946.02	0	317.492	470.401	41.7948	664.41	559.795	467.105	0	171.61	142.555	156.227	67.7604	2544.67	5386.22	0	69.412	10849.1	125.607	10407.2	1519.82	0.000199392	5.39962e-08	4571.48	8391.94	824.259	1004.67	2465.96	
3.51	1780.35	293.4	251.993	117.389	853.522	0	0	1509.13	887.995	447.126	611.355	1721.12	0	0	0	0	0	4806.8	1124.11	8.10712e-06	2110.57	1677.14	478.526	82.1168	3661.27	191.467	1649.93	0	2758.17	3299.58	898.304	0	155.129	6449.42	365.722	1841.98	2336.55	1020	3029.47	1575.26	29.4511	94.469	401.227	208.247	8.67577e-08	0	559.945	271.021	192.809	616.722	1066.04	3458.7	4097.73	0	323.676	481.586	46.2148	829.749	530.137	464.993	0	265.665	176.602	168.32	65.3317	2554.88	5386.37	0	67.3745	10845.7	130.557	10276.5	1434.18	0	0	4342.35	8399.06	847.819	896.757	2594.37	
3.515	1606.31	254.527	279.306	143.342	860.508	0	0	1358.58	843.712	422.947	621.985	1765.26	0	0	0	5.17979e-05	419.647	5352.65	1276.14	0	2335.06	1903.46	541.415	75.718	3387.18	195.592	1680.23	0	2592.35	3245.23	826.942	0	169.698	7129.41	351.73	1714.42	2389.76	1067.36	3158.47	1646.99	31.5013	91.407	455.252	237.496	1.30684e-07	0	520.218	275.58	181.593	588.878	1081.19	3497.35	4254.34	0	333.011	496.239	52.4437	1001.11	498.074	465.426	0.00468668	276.555	189.248	181.512	62.7751	2566.18	5386.09	0	65.2363	10839.3	135.482	9972.04	1358.67	0	0	4119.91	8403.07	863.278	643.875	2695.76	
3.52	1445.65	216.652	310.893	173.172	873.954	0	0	1245.09	802.31	400.47	632.16	1808.2	0	0	0	417.591	303.867	5950.03	1442.16	0	2548.79	2166.82	616.952	70.7754	3087.82	199.544	1709.81	0	2423.93	3147.79	755.563	0	191.725	7864.83	333.575	1597.64	2441.26	1113.5	3283.42	1717.06	33.1501	90.8034	513.164	275.746	1.85598e-07	1.18669e-05	488.577	283.237	169.833	562.871	1093.73	3534.39	4413.01	0	346.003	515.238	59.7724	1042.58	470.021	467.351	0.00195716	334.482	187.941	195.718	60.1805	2576.03	5385.37	0	63.0644	10830.3	140.387	9583.4	1293.73	0	1.44352	3909.46	8402.68	870.046	400.265	2765.85	
3.525	1299.39	179.601	346.959	208.005	894.184	0	0	1160.97	763.772	379.739	641.798	1849.53	0	0	0	550.498	366.459	6593.62	1625.38	0	2738.91	2450.74	706.636	67.1614	2777.88	203.299	1738.4	0	2255.17	3012.12	687.468	0	220.252	8645.06	311.607	1490.49	2490.61	1158.75	3404.87	1785.78	34.8979	95.7818	569.694	315.939	2.47672e-07	18.722	464.667	294.193	160.246	539.336	1104	3568.9	4569.24	0	362.526	538.166	68.1753	977.064	446.573	469.725	0.00677361	371.029	178.789	210.733	57.63	2583.06	5384.22	0	60.9137	10819	145.282	9180.88	1239.41	0	15.0503	3719.08	8399.05	867.91	250.113	2801.97	
3.53	1167.97	143.349	387.61	248.352	921.758	0	0	1099.9	728.032	360.665	650.835	1888.92	0	0	0	446.578	449.637	7275.07	1832.71	426.228	2894.88	2729.05	811.231	64.8079	2476.46	206.84	1765.77	0	2088.09	2842.05	625.434	0	254.561	9459.26	286.366	1392.25	2537.44	1201.74	3519.85	1851.19	36.5486	100.917	625.221	355.552	3.14898e-07	39.0574	448.102	308.567	152.851	518.886	1112.2	3599.96	4719.67	0	381.625	563.851	77.6269	889.031	426.403	471.507	0	359.617	167.126	226.139	55.1918	2587.07	5382.64	0	58.8347	10806.1	150.179	8792.67	1195.45	0	20.4015	3557.34	8393.91	856.866	200.484	2803.08	
3.535	1051.11	108.441	432.823	294.324	955.95	0	0	1056.78	695.07	343.159	659.23	1926.12	0	0	0	547.369	531.687	7991.31	2071.43	464.693	3009.32	2976.18	931.101	63.6632	2193.42	210.153	1791.73	0	1923.83	2641.53	569.878	0	294.236	10291.8	258.679	1302.85	2581.47	1241.44	3625.83	1911.75	38.0758	104.367	681.335	393.419	3.85604e-07	30.5958	438.738	326.353	147.31	502.043	1118.5	3626.57	4859.19	0	401.588	590.358	87.9231	818.511	408.498	471.706	0.00193452	328.819	155.18	241.346	52.9262	2588.51	5380.64	0	56.8666	10791.7	155.096	8429.46	1161.32	0	19.2407	3432.68	8388.29	837.054	211.376	2769.57	
3.54	947.762	75.649	482.419	345.835	998.483	0	0	1027.57	664.889	327.177	666.963	1960.93	0	0	7.75916	625.929	628.649	8747.83	2347.86	434.831	3078.92	3168.73	1066.23	63.6555	1933.89	213.229	1816.14	143.435	1759.61	2415.91	520.624	0	339.182	11125.7	229.689	1222.21	2622.5	1276.88	3720.26	1965.9	39.5051	109.188	739.019	429.653	4.59063e-07	33.2715	436.532	347.325	143.753	489.226	1123.01	3647.87	4983.9	0	420.233	614.984	98.7185	767.956	392.263	469.49	0.00172265	301.765	143.756	255.612	50.8805	2588.08	5378.26	0	55.0414	10776.6	160.052	8098.54	1136.34	0	16.4099	3350.35	8382.51	808.715	248.546	2702.97	
3.545	856.269	45.7875	535.969	402.617	1048.54	0	0	1009.13	637.459	312.691	674.027	1993.21	0	0	545.507	710.69	740.954	9542.17	2667.2	552.878	3105.11	3286.66	1216.03	64.6918	1700.65	216.065	1838.91	226.817	1596.89	2171.82	477.37	0	389.412	11944.6	200.68	1150.05	2660.42	1306.57	3799.18	2011.34	40.8347	120.629	759.004	451.939	6.17085e-06	36.6317	441.383	370.992	142.493	480.789	1125.86	3663.09	5088.87	0	431.295	633.406	109.611	727.372	377.309	464.205	0.00091658	283.355	133.06	268.197	49.1901	2586.43	5375.53	0	53.3805	10760.9	165.065	7805.56	1119.64	0	13.9912	3315.05	8376.65	772.172	290.449	2605.66	
3.55	774.351	19.7658	592.831	464.098	1106.49	0	0	999.2	612.695	299.653	680.431	2022.92	0	0	244.39	811.702	864.968	10359.8	3030.17	657.226	3102.63	3316.58	1384.87	66.6756	1493.54	218.658	1859.97	264.414	1437.36	1918.13	439.717	0	444.88	12735.9	172.008	1085.99	2695.16	1328.88	3858.31	2045.57	42.0589	140.545	688.646	443.451	7.52344e-08	38.1993	452.99	396.746	143.755	477.047	1127.13	3671.57	5170.25	0	431.281	642.631	120.156	693.155	363.332	265.879	0	269.423	123.123	278.479	198.613	2584.03	5372.45	0	51.8952	10745.2	170.153	7553.97	1110.14	0	15.5796	3328.83	8370.71	727.731	324.994	2480.73	
3.555	700.144	0.756549	652.139	529.264	1172.11	0	0	996.288	590.506	287.996	686.194	2050.03	0	0	306.572	924.355	998.14	11178	3431.35	774.113	3098.23	3312.52	1579.36	69.5136	1307.12	221.012	1879.28	312.53	1283.79	1666.56	407.198	0	505.371	13490.1	143.445	1029.58	2726.75	1342.4	3893.93	2066.44	43.1668	168.128	530.886	404.184	1.97557e-07	39.2847	470.813	423.849	147.676	478.316	1126.86	3672.65	5223.84	9.20246e-09	424.463	643.553	129.945	665.399	350.124	13.4149	0	257.908	100.441	286.143	457.381	2581.17	5369.06	0	50.5805	10729.7	175.326	7343.88	1106.56	0	19.0786	3391.13	8364.72	675.617	343.717	2331.99	
3.56	633.439	0	712.982	596.784	1245.24	0	0	999.739	570.761	277.647	691.343	2074.59	0	0	328.625	1049.11	1137.62	11970.5	3863.32	907.14	3094.27	3308.4	1801.83	73.1322	1137.02	223.134	1896.88	385.835	1138.94	1427.08	379.321	0	570.55	14199.9	116.231	980.281	2755.25	1346.01	3903.13	2072.22	137.452	202.347	395.612	350.832	1.22074e-07	40.3732	493.982	451.511	154.352	484.943	1125.03	3665.69	5245.58	1.62923e-07	412.297	636.519	138.53	643.829	299.181	0.205707	0	248.64	31.2951	291.202	784.984	2578.03	5365.37	0	49.4447	10714.8	180.592	7172	1107.45	0	20.1776	3497.19	8358.59	616.632	337.52	2164.16	
3.565	574.129	0	775.084	665.096	1324.96	0	0	1009.52	553.319	268.525	695.914	2096.66	0	0	341.195	1180.83	1279.61	12712	4317.16	1050.42	3090.37	3304.52	2050.72	77.4549	981.366	225.03	1912.76	472.43	1005.36	1196.75	355.641	0	639.822	14860.4	91.5007	937.537	2780.77	1339.12	3884.39	2062.04	227.379	242.576	325.033	299.858	2.08743e-07	41.2385	521.474	479.005	163.864	497.335	1121.55	3649.97	5231.87	2.1496e-07	395.259	622.095	145.622	627.949	229.195	0	0	241.803	0	293.934	1168.27	2574.71	5361.38	0	48.4455	10700.8	185.951	7035.62	1111.57	0	17.9812	3638.08	8352.23	552.402	298.301	1982.97	
3.57	521.75	0.052935	838.635	732.721	1409.91	0	0	1026.33	538.02	260.538	699.944	2116.34	0	0	363.919	1314.23	1420.83	13382.8	4784.26	1199.8	3086.87	3300.65	2321.84	82.4336	841.939	226.712	1927	567.104	885.094	975.008	335.76	492.455	712.749	15468.2	69.1029	900.724	2803.45	1321.65	3837.58	2035.78	278.875	288.311	283.53	255.632	2.4122e-07	41.8617	552.05	505.598	176.272	516.002	1116.24	3624.75	5179.35	2.08949e-07	373.746	600.821	150.938	616.837	157.128	0.0491869	0	236.673	0.108755	294.617	1566.68	2571.25	5357.1	0	47.6191	10688	191.399	6928.78	1117.62	0	14.1033	3802.54	8345.48	485.612	214.227	1795.55	
3.575	475.677	0.0208264	903.545	799.251	1498	0	174.223	1051.4	524.695	253.594	703.474	2133.77	0	0	395.196	1448.23	1557.76	13972.1	5256.51	1351.42	3083.99	3297.17	2601.3	88.0258	720.291	228.193	1939.65	675.301	779.593	773.977	319.384	1373.83	789.186	16021.9	48.563	869.231	2823.46	1294.19	3764.31	1994.32	287.581	338.785	242.262	216.053	2.76894e-07	42.2635	584.472	530.685	191.608	541.581	1108.87	3589.25	5085.35	1.71272e-07	348.633	573.638	154.361	609.939	88.9799	0	0	232.363	0	293.588	1942.12	2567.64	5352.55	0	47.1345	10676.5	196.923	6846.19	1124.53	0	10.3608	3988.97	8338.22	419.082	78.1094	1610.47	
3.58	435.159	0.00251287	969.264	865.156	1586.68	0	864.493	1086.46	513.167	247.598	706.545	2149.08	0	146.24	430.987	1579.74	1688.06	14479.4	5735.59	1501.82	3081.89	3294.26	2868.49	94.2031	616.963	229.486	1950.82	802.918	689.096	597.09	306.384	1655.09	870.736	16521.1	30.069	842.47	2840.99	1257.82	3667.54	1939.38	256.366	393.229	211.759	184.607	3.05721e-07	42.461	617.714	553.775	209.873	574.853	1099.16	3542.73	4947.84	1.19406e-07	321.036	541.808	155.924	606.716	23.4452	0	0	226.504	0.0180105	291.413	2210.86	2563.86	5347.72	0	46.7101	10666.5	274.582	6782.53	1131.45	1.22769e-15	7.3099	4217.12	8330.32	355.02	0	1435.67	
3.585	399.462	0	1034.76	930.622	1673	0	1037.91	1133.69	503.26	242.453	709.201	2162.43	0	485.109	470.106	1706.25	1812.18	14912.4	6225.71	1649.01	3080.67	3292.06	3109.92	100.955	531.671	230.606	1960.59	953.987	612.095	438.887	296.739	1842.65	960.2	16966.5	14.3455	819.867	2856.24	1214.04	3551.11	1873.2	205.063	452.838	211.231	166.771	3.31555e-07	42.4648	650.797	574.57	231.055	616.725	1086.81	3484.29	4766.2	6.6359e-08	292.058	506.746	155.793	606.54	0.000807846	0	7.47569e-07	220.41	0	288.963	2356.26	2559.93	5342.66	0	46.3222	10658.1	447.802	6732.27	1137.78	0	4.90979	4505.29	8321.73	294.37	0	1273.3	
3.59	367.802	0	1098.65	994.836	1753.88	2.60886e-05	1096.21	1195.71	494.798	238.065	711.483	2174	0	711.148	511.036	1825.85	1930.31	15287.7	6727.04	1795.49	3080.39	3290.68	3318.31	108.322	462.779	231.57	1969.08	1125.67	547.039	295.785	290.402	2164.7	1060.55	17360	2.94562	800.87	2869.41	1164.35	3418.99	1798.15	154.031	521.756	194.283	154.582	3.52329e-07	42.2905	682.669	592.907	255.319	668.141	1071.59	3412.98	4541.8	5.67689e-08	262.619	469.885	154.237	608.726	0	0	1.03977e-07	217.974	0	287.092	2451.4	2555.87	5337.39	0	45.9853	10651.2	576.394	6690.55	1143.09	2.01561e-15	3.03768	4852.19	8312.46	237.368	0.498531	1118.72	
3.595	339.483	0	1159.32	1056.45	1826.29	2.85879e-05	1243.3	1275.7	487.612	234.343	713.433	2183.95	0	886.075	552.475	1937.06	2041.51	15631.1	7237.14	1943.85	3081.06	3290.13	3489.53	116.387	407.538	232.394	1976.41	1313.25	492.777	169.11	287.279	2617.65	1174.42	17704.8	0	784.975	2880.72	1110.02	3274.32	1716.19	115.076	603.309	145.24	133.67	3.67275e-07	41.9627	712.215	608.768	283.16	729.978	1053.15	3328.26	4279.7	5.87107e-08	233.547	432.602	151.588	612.442	0.13952	0	0	215.03	0	286.198	2511.94	2551.76	5331.97	0	45.6795	10645.7	613.673	6653.37	1147.15	0	1.603	5240.63	8302.64	184.524	0	969.117	
3.6	313.812	0	1215.15	1114.01	1887.59	0	1483.34	1377.66	481.534	231.199	715.09	2192.47	5.92568e-05	1085.58	593.393	2038.92	2144.21	15988.1	7753.66	2094.94	3082.58	3290.37	3620.27	125.269	363.703	233.096	1982.69	1514.33	447.67	63.7912	287.243	3136.09	1304.53	18004.9	0	771.71	2890.37	1051.7	3118.62	1628.41	88.4882	699.884	92.6516	100.6	0	41.507	738.46	622.224	315.631	802.922	1031.18	3229.43	3986.76	5.99655e-08	205.606	396.079	148.194	616.022	0.296279	0.000371919	4.26024e-08	209.839	0	285.948	2515.97	2546.52	5326.46	0	45.3759	10641.5	607.204	6617.65	1149.91	0	1.21576	5634.66	8292.43	136.923	1.45179	829.67	
3.605	290.203	0	1264.7	1166.16	1935.77	1.10284e-07	1762.9	1506.54	476.405	228.548	716.496	2199.73	0	1345	633.107	2130.98	2236.73	16375.3	8275.11	2248.54	3084.85	3291.31	3706.37	135.131	329.09	233.692	1988.05	1722.47	410.063	0.868849	290.146	3696.03	1453.97	18264.5	0.0155089	760.646	2898.59	989.69	2952.39	1535.28	71.3782	813.528	55.2719	63.6325	0	40.953	760.735	633.408	353.776	886.989	1005.53	3116.37	3671.34	6.04293e-08	179.391	361.2	144.394	617.254	0	0.000224075	1.5567e-07	203.282	0.00030931	285.193	2473.01	2536.1	5320.93	0	45.0654	10638.4	596.609	6581.2	1151.43	0	2.48355	5965.17	8282.02	95.848	0	706.569	
3.61	268.21	0	1306.89	1211.84	1969.62	0	2060.97	1668.59	472.069	226.309	717.687	2205.91	55.213	1667.8	671.25	2213.63	2317.74	16814.1	8802.36	2403.95	3087.68	3292.79	3740.71	146.161	301.642	234.2	1992.63	1936.87	378.492	0	295.82	4306.9	1625.27	18488.5	0.0162135	751.383	2905.57	923.735	2774.66	1436.58	60.7305	944.487	33.2774	33.6574	2.63187e-07	40.3339	778.803	642.506	398.265	980.069	976.039	2989	3344.11	6.0506e-08	155.396	328.657	140.502	614.664	0	6.87415e-05	2.30356e-07	195.903	0.000323102	282.013	2410.36	2517.52	5315.48	5.30117e-09	44.7392	10636.1	592.209	6542.7	1151.93	0	6.64788	6082.87	8271.62	62.0501	0.230525	601.599	
3.615	247.526	0	1341.15	1250.49	1988.91	0	2380.11	1871.49	468.379	224.404	718.701	2211.19	325.383	2049.73	707.736	2287.88	2386.61	17317.2	9352.37	2560.43	3090.84	3294.64	3740.76	158.555	279.699	234.638	1996.55	2159.86	351.69	0	304.076	5012.79	1820.25	18682.2	0.00293235	743.543	2911.53	853.279	2583.46	1331.37	54.182	1092.61	20.5944	15.4817	0.00522365	39.685	792.89	649.738	449.711	1078.26	942.573	2847.8	3016.06	6.04289e-08	133.939	298.932	136.814	607.544	0.233586	1.26982e-06	2.72104e-07	187.802	0.000129237	275.625	2340.37	2489.74	5310.19	7.70399e-09	44.4005	10634.4	589.842	6501.65	1152.34	0	14.7296	6080.57	8261.49	35.6549	0	513.02	
3.62	227.952	0	1367.61	1282.08	1994.35	0	2724.11	2123.65	465.188	222.758	719.574	2215.75	457.218	2481.87	742.735	2355	2443.54	17890.1	9926.09	2717.45	3094.08	3296.62	3739.86	172.507	261.872	235.022	1999.93	2388.24	328.56	0.203099	314.696	5869.97	2040.74	18851.4	0	736.783	2916.68	779.655	2381.94	1221.54	50.1895	1259.13	13.1602	6.50141	0	39.0403	803.64	655.385	508.567	1177.04	905.208	2693.59	2696.94	6.02756e-08	115.141	272.32	133.6	595.499	0.312034	0	2.94111e-07	178.997	2.11553e-05	266.585	2247.48	2452.36	5305.15	7.64332e-09	44.0481	10633	586.36	6458.31	1152.69	3.61584e-18	25.8587	6080.34	8251.86	16.4567	1.36866	437.86	
3.625	209.35	0	1387	1307.16	1987.57	0	3105.61	2432.02	462.358	221.297	720.34	2219.76	528.22	2952.81	776.667	2416.41	2489.74	18530.5	10526.8	2877.17	3097.16	3298.54	3740.14	188.21	246.982	235.371	2002.92	2618.73	308.252	0.0648391	327.409	6913.31	2288.89	19002.1	0	730.768	2921.22	706.08	2178.78	1111.94	49.1679	1444.4	9.01993	2.13322	0	38.4384	812.033	659.755	574.669	1270.76	864.244	2527.93	2394.33	6.00771e-08	98.9641	249.066	131.095	578.411	0	0	3.0708e-07	169.67	0	255.81	2103.07	2405.36	5300.45	5.92947e-09	43.6897	10631.6	581.892	6413.66	1153.05	2.42377e-18	39.0921	6086.53	8242.98	3.70113	0	373.464	
3.63	191.621	0	1400.58	1326.81	1970.96	0	3547.51	2801.86	459.75	219.95	721.035	2223.39	614.45	3466.56	810.168	2473.87	2527.21	19226.6	11149.8	3044.99	3099.79	3300.17	3740.19	205.848	234.032	235.702	2005.65	2849.75	289.985	0	341.889	8178.82	2567.32	19140.7	0	725.182	2925.34	633.031	1978.61	1004.76	51.2532	1649.78	6.91537	0.0299573	0.000198441	38.7694	819.293	663.193	647.47	1351.24	820.135	2352.92	2117.67	5.98476e-08	85.2829	229.307	129.5	556.532	0	0	3.14461e-07	159.997	0	244.02	1892.21	2348.9	5296.18	5.23665e-09	43.3329	10630	577.362	6369.37	1153.85	9.5757e-19	53.0756	6088.81	8235.02	0	0.629264	317.787	
3.635	174.681	0	1410.04	1342.54	1947.51	0	4064.82	3236.4	457.23	218.648	721.692	2226.82	738.66	4059.09	844.082	2529.27	2558.67	19958.1	11786.8	3215.73	3101.77	3301.33	3740.1	225.499	222.158	236.033	2008.23	3081.03	272.94	0	357.744	9689.01	2878.27	19273.6	0	719.726	2929.26	547.316	1766.67	881.347	55.8753	1883.58	6.04683	0	0.0283205	40.8664	826.786	666.058	726.49	1402.76	773.376	2171.15	1865.37	5.95928e-08	73.8923	213.063	128.999	530.506	0.249175	7.27313e-07	3.16724e-07	150.031	0	231.691	1618	2283.8	5292.42	5.16749e-09	42.9842	10627.9	573.118	6328.76	1155.56	1.06856e-19	65.9878	6087.92	8228.07	0	0	269.012	
3.64	158.453	0	1417.36	1356.12	1920.59	0	4667.79	3730.01	454.665	217.322	722.346	2230.23	890.252	4751.57	879.397	2585.21	2587.3	20697.4	12430.5	3394.78	3102.86	3301.85	3739.85	247.143	210.503	236.381	2010.81	3311.88	256.295	0	374.587	11456	3226.39	19407.6	0	714.103	2933.17	455.528	1509.34	744.343	62.5622	2149.66	5.93316	0.660386	0	44.7027	835.917	668.665	811.495	1411.28	721.547	1985.32	1608.2	5.93219e-08	64.3099	199.793	129.78	501.318	0.32452	1.34793e-06	3.13598e-07	139.76	0	219.17	1704.14	2210.6	5289.24	5.1155e-09	42.6519	10625	569.074	6293.98	1158.54	0	76.3457	6085.79	8221.8	0.000550511	0.162722	225.409	
3.645	142.87	0	1424.72	1369.51	1893.72	9.13114e-06	5364.87	4272.02	451.928	215.905	723.028	2233.78	1056.83	5550.78	917.195	2644.01	2616.62	21411.9	13073.4	3584.46	3102.9	3301.58	3739.31	270.704	198.252	236.764	2013.52	3542.26	239.256	0	391.977	13514.2	3624.37	19549.3	0	708.036	2937.27	361.638	1241.13	604.041	71.0135	2447.55	6.29517	1.20133	0	50.0809	848.064	671.291	901.681	1407.99	667.431	1798.44	1395.23	5.90369e-08	56.4123	189.761	132.042	470.066	0	1.21857e-06	3.05043e-07	129.243	3.75157e-07	206.733	1702.22	2130.65	5286.71	5.05747e-09	42.337	10621.1	565.107	6267.06	1163.12	0	83.0652	6081.29	8216.16	0.0209033	0	185.612	
