CEINMS output
datacolumns 81
datarows 92
endheader
time	addbrev_r	addlong_r	addmagDist_r	addmagIsch_r	addmagMid_r	addmagProx_r	bflh_r	bfsh_r	edl_r	ehl_r	fdl_r	fhl_r	gaslat_r	gasmed_r	glmax1_r	glmax2_r	glmax3_r	glmed1_r	glmed2_r	glmed3_r	glmin1_r	glmin2_r	glmin3_r	grac_r	iliacus_r	perbrev_r	perlong_r	piri_r	psoas_r	recfem_r	sart_r	semimem_r	semiten_r	soleus_r	tfl_r	tibant_r	tibpost_r	vasint_r	vaslat_r	vasmed_r	addbrev_l	addlong_l	addmagDist_l	addmagIsch_l	addmagMid_l	addmagProx_l	bflh_l	bfsh_l	edl_l	ehl_l	fdl_l	fhl_l	gaslat_l	gasmed_l	glmax1_l	glmax2_l	glmax3_l	glmed1_l	glmed2_l	glmed3_l	glmin1_l	glmin2_l	glmin3_l	grac_l	iliacus_l	perbrev_l	perlong_l	piri_l	psoas_l	recfem_l	sart_l	semimem_l	semiten_l	soleus_l	tfl_l	tibant_l	tibpost_l	vasint_l	vaslat_l	vasmed_l	
3.19	0.0129968	0.000592877	0.0230361	0.0232967	0.0284493	0	0.0241391	0.0374142	0.0221239	0.0222317	0.0385102	0.0496496	0.00964731	0.0229832	0.00815624	0.0137444	0.0188356	0.0833961	0.0777083	0.0235867	0.0844028	0.0847468	0.0846967	0.0270969	0.0106325	0.0157891	0.0399591	0.0528093	0.0086565	5.56437e-05	0.0352597	0.0354926	0.0418818	0.0361552	0.000195299	0.0185356	0.0383767	0.00900172	0.00944193	0.0089739	0.00364802	0.0505597	0.0182458	0.0178508	0.0179906	0.00298217	0.00464982	0.00871077	0.0320082	0.084131	0.0413468	0.045604	0.025903	0	0.00192228	0.0020215	0.00123845	0.0407759	0.0232669	4.3606e-13	0.022465	0.0390867	0	0.00270105	0.000235311	0.0751616	0.0839077	0	0.00061383	0.0848205	0.0411594	0.0555829	0.0364286	1.64281e-11	1.02921e-17	0.0842831	0.0841847	0	0.000191685	1.30939e-06	
3.195	0.0116408	1.49402e-10	0.0210246	0.0214904	0.0256116	0	0.0236454	0.0399366	0.0227039	0.0228703	0.038396	0.0493799	0.0106273	0.0241584	0.00701431	0.0125686	0.0169808	0.083932	0.0770538	0.0221223	0.0853427	0.0854004	0.0848618	0.0270817	0.0129093	0.0156471	0.0397821	0.0501339	0.0102966	0.00100603	0.0376253	0.0356819	0.0419385	0.035287	0.00378558	0.0193567	0.0382027	0.00749173	0.00809599	0.007597	0.00252243	0.0494417	0.0190708	0.0182502	0.0175087	0.0060984	0.00172808	0.00645194	0.0321543	0.0841988	0.0412274	0.0454684	0.023955	0	0.00200926	0.00203858	0	0.0476832	0.0279561	3.78461e-10	0.0242933	0.0178645	0	0	0.00202129	0.0751838	0.0838756	0	0.00145285	0.0871147	0.0404054	0.0504532	0.0337487	0	0	0.0843629	0.0844381	1.43635e-14	0.00385788	0.00398116	
3.2	0.0113357	8.22671e-11	0.0198432	0.0202863	0.0239303	0	0.0232112	0.0419488	0.0231296	0.0233353	0.0382969	0.0491374	0.0112973	0.0250768	0.00656162	0.0120655	0.0160077	0.0839005	0.0763017	0.0211975	0.0853159	0.0853481	0.0847987	0.027107	0.0139959	0.0155685	0.0396352	0.0475456	0.0110859	0.00181289	0.0395021	0.0357738	0.0419248	0.0345797	0.00567312	0.0198976	0.0380555	0.00661484	0.00729972	0.00680437	0.00217365	0.0484205	0.0242159	0.0207836	0.0217938	0.00929617	0.00273713	0.008965	0.032253	0.084202	0.0409014	0.045527	0.0245209	2.70404e-11	0.0161066	0.017038	0.0045767	0.0457688	0.0199695	3.10903e-10	0.0243436	0.01203	2.92436e-14	0.00664082	0.00201865	0.075927	0.0839985	8.56556e-12	0.00163579	0.0870574	0.0396991	0.0463849	0.0341779	0	8.05975e-12	0.0844104	0.0851293	0	0.00498064	0.00519475	
3.205	0.0110419	3.57962e-11	0.0187628	0.0192212	0.0223853	0	0.0227464	0.0439605	0.0234426	0.0236743	0.0382071	0.0489187	0.0117739	0.0258874	0.00614805	0.0116054	0.0151094	0.0838177	0.0753414	0.0202855	0.0852102	0.085245	0.0847126	0.0270705	0.0148105	0.0155135	0.0395044	0.0449819	0.0116383	0.00202136	0.0414048	0.0357704	0.0418275	0.0339859	0.00664448	0.020256	0.0379257	0.00603634	0.00675223	0.00627114	0.00854137	0.0483226	0.0273751	0.0229476	0.0239	0.0101942	0.00526868	0.0105047	0.0334999	0.0846423	0.0391944	0.0455667	0.0251514	3.07176e-12	0.0273919	0.0296312	0.015407	0.0351621	0.00577671	4.13671e-10	0.0382917	0.0396625	2.49495e-13	0.0131787	0.00825249	0.0761331	0.0840866	0	0.0114743	0.087023	0.0389884	0.0425982	0.0333228	0	5.44296e-12	0.0844319	0.0857572	3.44572e-11	0.00508008	0.00528081	
3.21	0.0107753	1.23982e-11	0.0176718	0.0181321	0.0209314	0	0.0222098	0.0460459	0.0236932	0.0239464	0.0381285	0.0487299	0.0122024	0.0267024	0.00570104	0.0111206	0.0142292	0.0837348	0.0741232	0.0193446	0.0851053	0.085142	0.0846283	0.0269983	0.0156951	0.0154666	0.0393911	0.0424449	0.0122249	0.00200138	0.0434699	0.0356669	0.0416384	0.0334876	0.00724059	0.0205381	0.0378136	0.00551986	0.00625077	0.0057871	0.0163676	0.048328	0.0258027	0.0232678	0.021394	0.00987723	0.00680526	0.00997183	0.0345026	0.0848215	0.0378713	0.0455521	0.0250193	3.35511e-12	0.0312679	0.0350875	0.0182326	0.0195322	0.0016896	4.21107e-10	0.0505345	0.0628693	1.17618e-14	0.0154581	0.0172381	0.0759767	0.0841119	9.25292e-09	0.0237056	0.0869794	0.0382266	0.0390245	0.0315936	0	4.77819e-12	0.0843939	0.0861331	7.58276e-11	0.00499386	0.00519047	
3.215	0.0105824	2.05486e-07	0.0166078	0.0170356	0.0195821	1.96317e-06	0.0215977	0.0481515	0.0238824	0.0241517	0.038067	0.0485827	0.012653	0.0275469	0.00523868	0.0106307	0.0133982	0.0836322	0.0726055	0.0183925	0.0849724	0.0850185	0.0845348	0.026895	0.0166258	0.0154337	0.0393035	0.0399896	0.0128376	0.00209777	0.0456976	0.0354442	0.0413414	0.0331082	0.00785023	0.0207471	0.0377269	0.00502372	0.00577851	0.00532937	0.0220455	0.0477406	0.020625	0.0213656	0.015902	0.00995065	0.00742912	0.00862313	0.0341368	0.0845474	0.0375221	0.0455537	0.0243935	1.85003e-07	0.0310225	0.0362025	0.0177766	0.00797343	0.00200946	0	0.0571006	0.0662803	0	0.0151758	0.025376	0.0758554	0.0841228	0	0.0323849	0.0869178	0.0373861	0.0358262	0.0299746	7.70675e-07	1.90563e-07	0.0843252	0.0863142	7.70464e-07	0.00497998	0.00522557	
3.22	0.0104597	1.9726e-07	0.0155866	0.0159518	0.0183224	1.88714e-06	0.0209126	0.0502331	0.023991	0.0242685	0.0380275	0.0484865	0.0131346	0.0284181	0.00474987	0.0101314	0.0126086	0.0835148	0.0707746	0.0174369	0.0848185	0.084881	0.0844356	0.0267546	0.0175792	0.0154208	0.0392479	0.0376725	0.0134645	0.00232232	0.0480896	0.0350871	0.0409267	0.0328751	0.00855958	0.0208546	0.037672	0.00457947	0.00536179	0.00492017	0.0252245	0.0465584	0.0143777	0.0174993	0.0101474	0.0102386	0.00758834	0.0073237	0.032985	0.0842133	0.0374988	0.0456184	0.023612	1.77739e-07	0.0300718	0.0361631	0.017417	0.0068274	0.00234267	3.64452e-06	0.0604358	0.0502805	4.24834e-06	0.0140556	0.0319086	0.0758205	0.0841433	3.50732e-06	0.0380292	0.0868344	0.036465	0.0329802	0.0285611	8.02892e-07	1.82956e-07	0.0842545	0.08639	7.06187e-07	0.0049749	0.00543974	
3.225	0.0104102	7.06494e-08	0.0146311	0.0148997	0.0171463	6.75939e-07	0.0201559	0.0522515	0.0240063	0.0242831	0.038013	0.0484484	0.0136471	0.0293204	0.00425772	0.00962084	0.0118512	0.0833866	0.0686225	0.0164962	0.0846491	0.084734	0.0843349	0.0265771	0.0185501	0.0154301	0.0392282	0.0355318	0.0141183	0.0026455	0.0506419	0.0345894	0.0403933	0.0328059	0.00931924	0.0208455	0.0376532	0.00422217	0.00500277	0.00457244	0.0264576	0.0449355	0.00926025	0.012637	0.00595416	0.0102094	0.00766863	0.00622308	0.0321483	0.084054	0.0378309	0.0457649	0.0229032	6.36581e-08	0.029703	0.0365329	0.0183265	0.00434077	0.00232706	0	0.0622134	0.0349098	0	0.0131335	0.036186	0.0758445	0.0841717	0	0.040461	0.0867283	0.0354752	0.030331	0.0272686	3.48625e-07	6.5533e-08	0.0841863	0.0864117	8.05964e-07	0.00492203	0.00582001	
3.23	0.010437	1.06322e-08	0.0137563	0.0139027	0.0160665	9.87866e-08	0.0193319	0.0541666	0.0239213	0.0241882	0.0380259	0.0484736	0.0141955	0.0302627	0.00381387	0.00910184	0.0111177	0.0832509	0.0661734	0.0156004	0.0844683	0.0845812	0.0842352	0.0263665	0.0195382	0.0154614	0.0392471	0.0335663	0.0148079	0.00299483	0.0533466	0.0339519	0.0397478	0.0329119	0.0100656	0.0207119	0.0376734	0.00394953	0.004694	0.00428961	0.026588	0.0430853	0.0059325	0.00828302	0.00355171	0.00989373	0.00782801	0.00519699	0.0318423	0.0839949	0.0383823	0.0459945	0.022305	9.53474e-09	0.0297103	0.0373179	0.0199545	0.00358902	0.00241917	0	0.0632489	0.0124644	3.15204e-06	0.0124724	0.0387698	0.0759452	0.0842021	0	0.0414342	0.0866345	0.0344296	0.0278196	0.0260908	7.56305e-08	9.81114e-09	0.0841205	0.0863923	8.45013e-08	0.00485954	0.0063764	
3.235	0.0105415	0	0.0129598	0.0129693	0.0151092	0	0.0184471	0.0559482	0.0237329	0.0239803	0.0380672	0.0485651	0.0147887	0.0312519	0.00335834	0.00857891	0.0104024	0.0831109	0.0634668	0.0147811	0.0842802	0.084426	0.0841387	0.0261296	0.0205505	0.0155146	0.0393063	0.0317481	0.0155368	0.00328421	0.0561876	0.0331797	0.0390038	0.0331986	0.0107725	0.0204498	0.0377341	0.00373749	0.00443678	0.00406594	0.0260134	0.041108	0.00399229	0.00531076	0.00200145	0.0109155	0.00808877	0.00417911	0.0316063	0.0839453	0.0389821	0.0463077	0.0217935	0	0.0297291	0.0381628	0.0217954	0.00370215	0.00268634	5.79257e-06	0.0639406	0.00464729	2.4494e-05	0.0119204	0.0399988	0.0761506	0.0842322	3.8605e-07	0.0415071	0.0865513	0.0333396	0.0255064	0.0250746	0	0	0.084058	0.0863445	0	0.00483195	0.00710768	
3.24	0.0107244	0	0.0122323	0.0120936	0.0142906	0	0.0175102	0.0575625	0.0234412	0.0236596	0.0381367	0.0487235	0.0154335	0.0322904	0.00274082	0.00805779	0.00969983	0.0829694	0.060573	0.0140354	0.0840889	0.0842716	0.0840469	0.0258754	0.0215927	0.0155891	0.0394064	0.0300708	0.0163014	0.00350782	0.0591287	0.0322825	0.0381806	0.033666	0.0114333	0.0200597	0.0378354	0.00355963	0.00423266	0.00389552	0.0249499	0.0390348	0.00278774	0.00372472	0.000454287	0.0129251	0.00845528	0.00334882	0.0312564	0.0838904	0.0396475	0.0467069	0.0213483	0	0.0296697	0.038854	0.0236847	0.00382253	0.00298988	0.000617558	0.0533941	0.00396306	0	0.0114065	0.04011	0.0764731	0.0842621	1.03788e-05	0.0409806	0.0864684	0.0322148	0.0234716	0.0242559	0	0.00357173	0.0839968	0.0863006	0	0.00483791	0.00796926	
3.245	0.0109853	0.00192027	0.0115642	0.0112637	0.0136055	0	0.0165352	0.0589981	0.0230504	0.0232311	0.0382329	0.0489467	0.0161315	0.0333775	0.00215061	0.00754414	0.00900824	0.0828285	0.0575725	0.0133244	0.0838976	0.0841205	0.083961	0.0256152	0.022665	0.0156831	0.0395462	0.0285595	0.0170925	0.00368255	0.0620843	0.0312742	0.0373013	0.0343084	0.0120443	0.0195476	0.0379756	0.00340698	0.00407595	0.00376346	0.0235655	0.0368875	0.00203151	0.00288722	1.29645e-06	0.0147006	0.00894512	0.00240373	0.0308196	0.083836	0.0403102	0.0471942	0.0209655	0	0.0295735	0.0393209	0.0256247	0.00393959	0.00326965	0.00235624	0.03883	0.00395546	2.62987e-05	0.0109482	0.0392608	0.0769092	0.0842921	0	0.0399597	0.08633	0.0310649	0.0217706	0.0236628	0	0.00723708	0.0839352	0.0862941	0	0.00479777	0.00885658	
3.25	0.0113242	0.00222997	0.0109492	0.0104708	0.0130417	0	0.0155465	0.0602491	0.0225695	0.0227049	0.0383531	0.0492298	0.0168786	0.0345133	0.00201506	0.00704254	0.00833537	0.0826899	0.0545668	0.0126934	0.0837097	0.0839747	0.0838811	0.0253614	0.0237623	0.0157942	0.0397232	0.027237	0.0179008	0.00382068	0.0649772	0.0301762	0.0363907	0.0351158	0.0125995	0.0189241	0.0381512	0.00327661	0.00395665	0.0036566	0.0220337	0.0346859	0.00202118	0.00240111	0	0.015683	0.00958509	0.00200488	0.0303197	0.0837832	0.0409874	0.0477684	0.0206513	0	0.0294419	0.0395045	0.0275777	0.00406817	0.0035276	0.00229544	0.0252769	0.00401338	2.49441e-06	0.0105786	0.0375892	0.0774506	0.0843214	9.78123e-08	0.0385301	0.0861447	0.0299055	0.020434	0.023327	0	0.0106422	0.0838744	0.0863452	5.57881e-08	0.00466898	0.00970232	
3.255	0.0117403	0.00241301	0.0103834	0.00970821	0.0125885	1.68866e-09	0.0145783	0.0613338	0.0220113	0.0220954	0.0384933	0.0495655	0.0176668	0.0357034	0.0016789	0.00655757	0.00769218	0.0825546	0.0516033	0.01211	0.0835278	0.0838356	0.083807	0.025127	0.0248773	0.015919	0.0399334	0.026105	0.018721	0.00392723	0.0677466	0.0290185	0.0354701	0.0360773	0.0130938	0.0182036	0.0383573	0.00316449	0.00386302	0.00356673	0.0204973	0.0323779	0.0019677	0.00225773	9.01675e-06	0.0158793	0.0104063	0.00200737	0.0297576	0.0837318	0.0416768	0.0484251	0.0204164	1.94114e-10	0.0292453	0.0393623	0.0293985	0.00421009	0.00377029	0.00261017	0.0155089	0.00412685	4.02045e-06	0.010314	0.035233	0.078079	0.0843492	1.07381e-05	0.0367749	0.0859223	0.0287572	0.0194777	0.023293	0	0.0136696	0.0838152	0.0864433	5.31278e-07	0.00446421	0.0104846	
3.26	0.0122338	0.00258202	0.00986426	0.00897387	0.0122385	1.60507e-09	0.0136636	0.0622699	0.0213927	0.0214215	0.0386484	0.0499444	0.0184872	0.0369585	0	0.00609588	0.00708694	0.0824233	0.0487282	0.0115661	0.0833542	0.0837042	0.0837379	0.0249253	0.0260014	0.0160537	0.0401713	0.025148	0.0195531	0.00400081	0.0703495	0.0278353	0.0345559	0.0371816	0.0135246	0.0174044	0.0385874	0.00306367	0.00378397	0.00348677	0.0190373	0.0298838	0.00197196	0.0022995	5.0224e-06	0.0155867	0.0114598	0.0016893	0.0291343	0.083623	0.0423735	0.0491576	0.0202754	1.59013e-10	0.0289774	0.0389285	0.0308446	0.00445421	0.00401666	0.00313853	0.00948666	0.00425721	0	0.0101596	0.0323266	0.0787705	0.0843749	0	0.0347758	0.0856916	0.0276396	0.0189143	0.0236217	0	0.0159375	0.0837587	0.0865532	1.75265e-08	0.00423909	0.011221	
3.265	0.0128065	0.00289271	0.00939317	0.00827522	0.0119865	6.08798e-10	0.0128209	0.063091	0.0207327	0.0207041	0.0388128	0.0503552	0.0193328	0.0382854	1.57913e-07	0.00566197	0.00652628	0.0822964	0.0459792	0.0110513	0.0831904	0.083581	0.0836725	0.0247692	0.0271255	0.0161941	0.0404304	0.0243382	0.0204008	0.00403693	0.0727503	0.0266614	0.033661	0.0384139	0.0138911	0.0165524	0.0388343	0.00296443	0.00371052	0.00340921	0.0176804	0.0272062	0.00201786	0.00248532	1.55887e-06	0.0150717	0.0128258	0.00116136	0.0284575	0.0832602	0.0430713	0.0499573	0.0202457	6.05568e-11	0.0286496	0.0382854	0.0317673	0.00484732	0.00429028	0.00353151	0.00629713	0.00438208	1.58484e-08	0.0101212	0.028998	0.0794971	0.0843982	2.29455e-07	0.0325984	0.0854406	0.0265695	0.0187605	0.0243908	0	0.0174041	0.0837059	0.0866368	0	0.00401465	0.0119011	
3.27	0.0134654	0.00319501	0.00897686	0.00762365	0.0118293	0	0.0120564	0.0638312	0.0200526	0.0199663	0.0389807	0.0507847	0.0201991	0.0396797	0	0.00524931	0.00601958	0.0821737	0.04337	0.0105529	0.0830376	0.0834658	0.0836092	0.0246707	0.0282402	0.0163356	0.040703	0.023641	0.0212678	0.00403182	0.0749337	0.0255292	0.0327984	0.0397495	0.0141921	0.0156833	0.0390896	0.00285567	0.00363429	0.00332544	0.0164303	0.0244281	0.00200768	0.00278579	0	0.0144951	0.0146054	0.00116195	0.0277376	0.0826028	0.0437599	0.0508142	0.0203461	9.53109e-12	0.0282702	0.0375081	0.0322632	0.00536394	0.0045817	0.00385515	0.00480564	0.00449424	0.00202093	0.0102095	0.0254188	0.0802313	0.0844186	1.14525e-05	0.0302933	0.0851795	0.0255584	0.0190628	0.0256899	0	0.0178644	0.0836578	0.0866684	0	0.00379843	0.0125175	
3.275	0.0142224	0.00342633	0.00861736	0.00702661	0.0117642	0	0.0113701	0.0645212	0.0193749	0.0192325	0.039146	0.0512185	0.0210817	0.0411271	7.92063e-06	0.00485002	0.00557035	0.0807764	0.0409113	0.0100566	0.0828965	0.0833584	0.0835465	0.0246409	0.0293368	0.0164737	0.0409807	0.0230159	0.0221547	0.00398471	0.0768876	0.0244668	0.0319828	0.0411537	0.0144248	0.014842	0.039345	0.00272763	0.00354658	0.0032257	0.0152997	0.0216469	0.00202496	0.00312033	0	0.0139427	0.0168996	0.00191526	0.0269849	0.0816942	0.0444294	0.0517162	0.0205945	0	0.0278442	0.0366517	0.0325148	0.00597417	0.00487015	0.00420154	0.00414222	0.00458299	0.00785988	0.0104399	0.0218361	0.0809526	0.0844357	0	0.0279205	0.0849133	0.0246138	0.0199053	0.0276098	0	0.0169168	0.0836152	0.0866415	0	0.00360312	0.0130811	
3.28	0.0150999	0.00362082	0.00831732	0.00648933	0.0117883	0	0.0107614	0.0651976	0.0187225	0.0185272	0.0393032	0.0516422	0.0219725	0.0426066	2.9276e-06	0.00446986	0.00516994	0.0771729	0.0386044	0.00954828	0.0827674	0.0832582	0.0834827	0.0246896	0.030407	0.016604	0.0412545	0.0224192	0.0230609	0.00389778	0.0786099	0.0234971	0.0312307	0.0425825	0.0145862	0.014071	0.039592	0.00257334	0.00343769	0.00309836	0.0143058	0.0189207	0.00218573	0.00341541	0	0.0134656	0.0197668	0.00202436	0.0262104	0.0805693	0.0450705	0.0526503	0.0210058	0	0.0273745	0.0357542	0.0326496	0.0066741	0.00513455	0.00459085	0.00386419	0.00463793	0.00785742	0.0108321	0.0185356	0.081645	0.0844489	2.63872e-07	0.0255616	0.0846423	0.0237406	0.0213764	0.0302108	0	0.0141573	0.0835789	0.0865653	8.94313e-08	0.00350716	0.0136964	
3.285	0.0161077	0.00380067	0.00807687	0.0060187	0.0118983	0	0.0102306	0.0658956	0.0181182	0.017875	0.0394474	0.0520425	0.0228589	0.0440924	6.64036e-07	0.00412633	0.00481232	0.0717892	0.0364413	0.00901631	0.0826503	0.0831646	0.0828169	0.0248253	0.0314446	0.0167224	0.0415154	0.0218067	0.0239844	0.00377282	0.0801041	0.0226375	0.0305598	0.0439845	0.0146737	0.0133996	0.0398226	0.0023938	0.00329523	0.00292884	0.013452	0.0162312	0.002474	0.0036682	0	0.0131023	0.0232212	0.00271283	0.0254253	0.0792637	0.045675	0.0536034	0.0215903	1.05421e-12	0.0268609	0.0348337	0.0327495	0.00743125	0.00536114	0.00498578	0.00370251	0.00464962	0.00748246	0.011413	0.015729	0.0822947	0.084458	9.39002e-06	0.0233118	0.0843902	0.022941	0.0235414	0.0334058	0	0.0104193	0.0835493	0.086456	2.16127e-07	0.00340745	0.0142959	
3.29	0.0172396	0.00397783	0.00789437	0.00561535	0.0120901	0	0.00977804	0.0666416	0.0175849	0.0173011	0.0395746	0.0524065	0.0237242	0.0455539	0	0.00382667	0.00450307	0.0651935	0.0343823	0.00844944	0.0825454	0.0830775	0.0799882	0.0250552	0.0324455	0.0168251	0.0417544	0.021136	0.0249238	0.00361526	0.0813793	0.0218995	0.0299847	0.0453032	0.0146863	0.0128458	0.0400295	0.0022058	0.00310231	0.00270796	0.0127413	0.0136032	0.00282608	0.00389606	0	0.0128861	0.027234	0.00352808	0.0246405	0.0778075	0.0462353	0.0545621	0.0223522	2.51778e-12	0.0262991	0.0338897	0.0328267	0.00820414	0.00554148	0.0053518	0.00355349	0.0046171	0.00774475	0.0122167	0.0135206	0.0828919	0.0844626	0	0.0212599	0.0841895	0.0222147	0.0264235	0.0368961	0	0.007243	0.083527	0.0863284	1.28776e-07	0.00382945	0.0148579	
3.295	0.0184869	0.00416204	0.00776691	0.00527088	0.0123594	0	0.00940521	0.0674614	0.0171449	0.0168305	0.0396815	0.052722	0.0245495	0.0469576	0	0.00353383	0.00424683	0.058042	0.032331	0.00783863	0.0824528	0.0829966	0.0753117	0.0253853	0.0334104	0.0169087	0.0419628	0.0203674	0.0258775	0.00343231	0.0824455	0.0212897	0.0295152	0.0464805	0.0146246	0.0124224	0.0402065	0.00205102	0.00283663	0.00244862	0.0121859	0.0111213	0.00315366	0.00412051	0	0.0128433	0.0316795	0.00416172	0.0238661	0.0762388	0.0467458	0.0555144	0.0232883	2.81816e-12	0.0256824	0.0329071	0.0328578	0.00895829	0.0056673	0.00567591	0.00336796	0.00465329	0.00808129	0.0132849	0.0118388	0.0834326	0.0844628	3.65592e-08	0.0194618	0.0839425	0.0215614	0.0299455	0.0402958	0	0.00507224	0.0835122	0.0861929	0.00288921	0.00991817	0.0164151	
3.3	0.0198597	0.00436242	0.00769009	0.00497891	0.0127055	0	0.00911294	0.0683782	0.0168183	0.016485	0.0397657	0.0529779	0.0253143	0.0482677	0	0.00318833	0.00403896	0.0511482	0.0302146	0.00717564	0.0823725	0.082922	0.0693548	0.02582	0.0343485	0.0169703	0.0421325	0.0194663	0.026844	0.00322017	0.0833109	0.0208099	0.0291555	0.0474592	0.0144909	0.0121407	0.0403479	0.00200312	0.00250726	0.00219273	0.0118038	0.00877105	0.00341467	0.00434276	0	0.012992	0.0362293	0.00497002	0.0231111	0.0745945	0.0472019	0.0564494	0.0243882	2.69742e-12	0.0250029	0.0318749	0.032826	0.00965766	0.00573089	0.00594937	0.0031047	0.00478332	0.00815335	0.0146627	0.0105088	0.0839143	0.0844585	1.1473e-05	0.01786	0.08372	0.0209811	0.0338396	0.0431466	0	0.00387285	0.0835052	0.0860555	0.00540304	0.0180199	0.0186098	
3.305	0.0214009	0.00466152	0.00765902	0.0047369	0.0131219	9.606e-10	0.00889902	0.0694026	0.0166214	0.0162819	0.0398254	0.0531647	0.0259971	0.0494469	0	0.00274256	0.00386973	0.0451723	0.0280432	0.00645457	0.082305	0.0828544	0.0625892	0.0263625	0.0352768	0.0170072	0.0422561	0.0184017	0.0278216	0.00295948	0.083988	0.0204572	0.028906	0.0481859	0.0142895	0.0120111	0.0404491	0.00199948	0.00218722	0.00202041	0.0116137	0.00653488	0.0036222	0.00454726	0	0.0133454	0.0397998	0.00590129	0.0223832	0.0729047	0.0476006	0.0573563	0.0256306	2.53104e-12	0.0242558	0.0307917	0.0327264	0.0102714	0.00572631	0.00616184	0.00271929	0.00496161	0.00804433	0.0163838	0.00939144	0.0843353	0.0844501	0	0.0163837	0.0835153	0.0204813	0.037252	0.0449085	0	0.00338909	0.0835061	0.0859202	0.00692053	0.0242448	0.0205959	
3.31	0.0231644	0.00511477	0.00766788	0.00454444	0.0135999	0	0.00875754	0.0705374	0.016566	0.0162329	0.0398589	0.0532739	0.0265763	0.0504588	0	0.00227965	0.00372147	0.0401776	0.0258692	0.00568318	0.0822505	0.0827945	0.0555919	0.0270136	0.0362152	0.0170169	0.0423268	0.0171463	0.0288086	0.0026359	0.0844816	0.0202252	0.028763	0.0486129	0.0140263	0.012042	0.0405059	0.00155328	0.00200534	0.00201964	0.0116259	0.00448101	0.00379101	0.0047203	0	0.0139203	0.0410265	0.0069817	0.0216887	0.0712047	0.0479407	0.058227	0.0269814	2.41029e-12	0.0234447	0.0296672	0.0325643	0.0107746	0.00565035	0.00630314	0.00227472	0.00513989	0.00783461	0.0184261	0.0084172	0.0846956	0.084438	1.7172e-07	0.0151043	0.0833258	0.0200809	0.0382751	0.0454615	0	0.00292357	0.0835148	0.0857894	0.00787369	0.0249053	0.0219992	
3.315	0.0251901	0.00570475	0.0077106	0.00439571	0.0141511	0	0.00867869	0.0717763	0.01666	0.0163454	0.0398646	0.0532979	0.0270294	0.0512656	0	0.00201384	0.00357919	0.0360515	0.0237315	0.00484317	0.0811487	0.0827433	0.0490736	0.0277715	0.0371854	0.0169971	0.0423388	0.0156866	0.0298022	0.00229855	0.0847992	0.0201031	0.0287191	0.0486995	0.0137095	0.0122385	0.0405145	0.000317589	0.00201382	0.00183965	0.0118423	0.00270597	0.00393021	0.00485177	0	0.0147513	0.0410111	0.00820728	0.0210323	0.0695195	0.0482222	0.0590546	0.0283976	2.3239e-12	0.0226519	0.0285308	0.0323523	0.0111485	0.00550252	0.00636618	0.00200448	0.00527684	0.00752561	0.0206889	0.00743597	0.0849974	0.0844228	9.72083e-06	0.0140689	0.0831557	0.019811	0.0379183	0.0453522	6.48215e-09	0.00208414	0.0835314	0.0856647	0.00843751	0.022949	0.0227894	
3.32	0.0274948	0.0064304	0.00778079	0.0042822	0.0147604	0	0.00865103	0.0731022	0.0169079	0.0166233	0.0398403	0.0532296	0.0273351	0.0518304	0	0.00201317	0.00343136	0.0325044	0.0216498	0.00396883	0.0749896	0.0824081	0.0433969	0.028632	0.0382013	0.0169454	0.0422871	0.0140531	0.0307987	0.00205005	0.0849468	0.0200777	0.0287646	0.0484134	0.0133482	0.0126021	0.0404708	0	0.00151007	0.000861671	0.0122592	0.00195624	0.00404131	0.00493534	0	0.0158977	0.0408114	0.00954012	0.0204172	0.0678754	0.0484462	0.0598332	0.0298245	2.24937e-12	0.0218166	0.0274144	0.0320968	0.0113787	0.00528495	0.00634818	0.00194256	0.00534029	0.0071063	0.0229956	0.00650508	0.0852427	0.084405	0	0.0132717	0.0830091	0.019702	0.0375562	0.0450756	0	0.000214058	0.0835562	0.0855469	0.00870201	0.0213602	0.0231339	
3.325	0.0300607	0.00728912	0.00787171	0.00419499	0.0154327	0	0.00866095	0.0744931	0.0173113	0.0170677	0.0397831	0.053062	0.027472	0.0521185	0	0.00137174	0.00326741	0.0291468	0.0196197	0.00303192	0.0657464	0.0776525	0.0385696	0.0295854	0.0392762	0.0168596	0.0421674	0.0123083	0.031793	0.00201384	0.0849535	0.0201323	0.0288864	0.0477316	0.0129531	0.013133	0.0403705	0	8.0028e-05	0	0.0128688	0	0.00412121	0.00503212	0.00322144	0.0174147	0.0406215	0.01094	0.0198457	0.0662968	0.0486146	0.0605587	0.0312032	2.17584e-12	0.0209273	0.0262937	0.0317858	0.0114563	0.00500078	0.00625068	0.000203058	0.00530575	0.00658457	0.025124	0.00573052	0.0854343	0.0843851	4.88753e-07	0.0126753	0.082888	0.0197973	0.0375985	0.0447936	2.11443e-09	0	0.0835893	0.0854367	0.00871222	0.0206863	0.0231716	
3.33	0.0328041	0.00825099	0.00797696	0.00412572	0.0161576	0	0.00869433	0.0759072	0.0178687	0.017676	0.0396892	0.0527886	0.0274207	0.0520976	0	6.47428e-08	0.00307575	0.0259822	0.0176071	0.00200056	0.0559593	0.0691128	0.0344852	0.0306174	0.0404211	0.0167372	0.0419765	0.010481	0.0327797	0.00190621	0.0849444	0.0202488	0.0290694	0.0466428	0.0125353	0.0138327	0.040209	3.20831e-06	0	0	0.0136621	0	0.00423631	0.00525483	0.00352013	0.017981	0.0403609	0.0123626	0.0193193	0.0647971	0.0487309	0.0612288	0.0324711	2.10044e-12	0.0200091	0.0251953	0.0314556	0.0113805	0.00465734	0.00607938	8.90963e-08	0.00882233	0.00598455	0.0268345	0.00511593	0.0855758	0.0843639	4.6256e-06	0.0122492	0.0827955	0.0201457	0.0380542	0.0445626	0	0	0.0836311	0.0853337	0.00852191	0.0210375	0.0229832	
3.335	0.0356334	0.0092911	0.00809	0.00406691	0.0169209	0.00364021	0.0087365	0.0773093	0.0185762	0.0184432	0.039554	0.052403	0.0271632	0.0517397	0	0	0.00284446	0.0231207	0.0156121	0	0.0475932	0.0592507	0.0307254	0.0317116	0.0416473	0.0165761	0.0417122	0.0085498	0.0337561	0.00119988	0.0849367	0.0204071	0.0292959	0.0451492	0.0121065	0.0147086	0.0399816	2.88424e-06	0	0	0.0140849	0	0.00443626	0.00561376	0.00329139	0.0168403	0.0399847	0.0137723	0.0188382	0.0633923	0.0488027	0.061842	0.0335641	2.02413e-12	0.0190622	0.0241246	0.0311728	0.0111725	0.00428494	0.00584502	0	0.0232257	0.00533105	0.0279236	0.00462206	0.0856721	0.0843419	0	0.0119773	0.0827327	0.0208023	0.0389059	0.0444294	0	5.6836e-05	0.0836799	0.085238	0.00819147	0.0221241	0.0226258	
3.34	0.0387347	0.0103758	0.00820423	0.0040125	0.0177054	0.00433371	0.00877427	0.0786499	0.0194296	0.0193642	0.0393723	0.0519005	0.0266866	0.0510255	0	0	0.00258312	0.0205713	0.0137703	0	0.0412118	0.0502054	0.0270529	0.0328417	0.0429647	0.0163746	0.0413737	0.00648921	0.0347261	0.000129337	0.0849284	0.0205874	0.0295477	0.0432704	0.0116781	0.0157711	0.0396835	1.10254e-06	5.63693e-06	5.74046e-06	0.0129202	2.04251e-05	0.00471242	0.00606192	0.00347948	0.0142642	0.0395376	0.0151566	0.0184028	0.0620931	0.0488416	0.0623979	0.0344102	1.94752e-12	0.0180841	0.0230785	0.0309249	0.0109105	0.00398259	0.00555565	6.95381e-06	0.0282592	0.00462291	0.0282826	0.00425296	0.08573	0.0843195	0	0.0118585	0.0827032	0.0218389	0.0401863	0.044421	0	1.71567e-05	0.083729	0.0851496	0.0077789	0.0240378	0.0221533	
3.345	0.0423865	0.0114822	0.0083137	0.00395688	0.0184987	0.00346421	0.00879274	0.0798828	0.0204294	0.020441	0.0391389	0.0512778	0.0259823	0.0499431	0	6.08112e-06	0.00232238	0.0182669	0.0121473	0	0.0364071	0.0431317	0.0236296	0.033984	0.0443833	0.0161318	0.0409617	0.00430244	0.0357007	0	0.0849194	0.0207668	0.0298034	0.0410457	0.0112625	0.0170183	0.0393108	5.0027e-09	2.7682e-06	1.54725e-06	0.010345	1.8194e-05	0.00503963	0.00656372	0.00355237	0.0110099	0.0390494	0.0165116	0.0180121	0.0609063	0.0488666	0.0628975	0.0349334	1.87132e-12	0.017078	0.0220773	0.030691	0.0105293	0.00376992	0.00522373	4.29354e-06	0.0281065	0.00400656	0.0280133	0.00398567	0.0857589	0.0842972	5.76035e-07	0.0118849	0.0827039	0.0233309	0.0419023	0.0445527	0	8.19024e-07	0.0837497	0.0850687	0.00734686	0.0259615	0.0216358	
3.35	0.0467323	0.0125951	0.00841217	0.00389581	0.0192897	0.00373825	0.00877953	0.0809684	0.0215807	0.0216823	0.0388491	0.0505331	0.0250513	0.0481384	0	2.44488e-06	0.00210921	0.0161565	0.0106854	2.15487e-05	0.0326181	0.0377805	0.0205419	0.0351271	0.0459106	0.0158478	0.040479	0.00200304	0.0366895	0	0.0849098	0.020924	0.0300429	0.0385376	0.0108723	0.0184257	0.038861	0	8.91727e-07	2.59763e-07	0.00744113	9.08495e-06	0.00538332	0.00708078	0.00351921	0.00794038	0.0385895	0.0178131	0.0176658	0.0598341	0.0488939	0.0633424	0.0350899	1.79566e-12	0.0160493	0.0211528	0.0304568	0.0100784	0.00366791	0.00485442	2.09592e-06	0.026419	0.00353191	0.027378	0.00378114	0.0857692	0.0842751	9.92283e-07	0.0120527	0.0827364	0.0253711	0.0440315	0.0448317	6.23713e-09	0	0.0835466	0.0849959	0.00695991	0.0276998	0.021148	
3.355	0.0518504	0.0137104	0.00849426	0.00382508	0.0200716	0.00367492	0.00872165	0.08188	0.0228897	0.0230993	0.0384992	0.0496687	0.0239027	0.0459209	0	5.44368e-07	0.0020026	0.0143302	0.00932202	8.15458e-06	0.0292674	0.0336527	0.0177119	0.0362701	0.0475534	0.0155248	0.0399303	5.0371e-07	0.0377004	2.25908e-06	0.0848992	0.0210363	0.0302447	0.035828	0.0105206	0.0199809	0.0383338	0	0	0	0.00505014	7.70858e-06	0.00572431	0.00758103	0.00344043	0.00556968	0.0382147	0.0190065	0.0173633	0.0588807	0.0489326	0.0637343	0.0349286	0	0.0150187	0.0202831	0.0302184	0.00958316	0.00361064	0.00446928	2.84971e-07	0.0246009	0.00298729	0.0265867	0.0035901	0.0857704	0.0842537	5.22075e-07	0.0123523	0.0827948	0.0280413	0.0466431	0.0452647	0	0	0.0831456	0.0849315	0.00666896	0.028814	0.0207406	
3.36	0.0577418	0.0148264	0.0085546	0.00374077	0.0208358	0.00357134	0.00860693	0.0825947	0.0243571	0.0246956	0.038088	0.0486921	0.0225557	0.0434779	0	0	0.0020215	0.0128553	0.00802433	1.52404e-06	0.0263176	0.030072	0.0151006	0.0374079	0.0493154	0.0151668	0.0393229	0	0.0387384	3.31946e-06	0.0848878	0.0210813	0.030388	0.0329667	0.0102217	0.021713	0.037732	0	0	0	0.00346158	0	0.00604766	0.00804145	0.00331393	0.00397575	0.0379165	0.0200063	0.0171034	0.0580436	0.0489851	0.0640751	0.0346043	0	0.0140086	0.0194362	0.0299631	0.00906758	0.00352076	0.00421622	0	0.0228252	0.00360008	0.02572	0.00340037	0.0857705	0.084233	0	0.012781	0.0828755	0.0307822	0.0498464	0.0458538	1.82213e-09	0	0.0826665	0.0848754	0.00650282	0.0294154	0.020429	
3.365	0.0641043	0.0159511	0.00858868	0.00363828	0.0215684	0.00345016	0.0084242	0.0831138	0.0259741	0.0264634	0.0376166	0.047614	0.021037	0.0408595	0	0	0.0018493	0.0116629	0.00680109	0	0.0238449	0.0268663	0.0129252	0.0385215	0.0512001	0.0147801	0.0386663	1.44109e-05	0.0397983	6.95523e-07	0.0848755	0.0210379	0.0304535	0.0299282	0.0099899	0.0236654	0.0370616	0	0	0	0.00210863	0	0.00633939	0.00844552	0.00312268	0.00293342	0.0376593	0.0207419	0.0168849	0.057323	0.0490447	0.0643668	0.0342577	6.15714e-11	0.0130245	0.0185836	0.0296405	0.00856086	0.00342704	0.00410686	0	0.0206242	0.00750559	0.0248016	0.0032364	0.0857742	0.084213	0	0.0133585	0.0829721	0.0288761	0.0536639	0.0465994	8.09977e-10	0	0.0821805	0.084827	0.00646611	0.0295287	0.0201978	
3.37	0.0702237	0.0170767	0.00859248	0.00351141	0.0222529	0.00330148	0.00816317	0.0834531	0.0277206	0.0283792	0.0370895	0.0464511	0.0193736	0.0381642	0	0	0.00104131	0.0106779	0.00569151	0	0.0218271	0.0241476	0.0111863	0.0395787	0.0532055	0.0143728	0.0379722	3.44776e-05	0.0408756	0	0.0848622	0.0208867	0.030423	0.0267364	0.00983933	0.0258502	0.0363323	0	0	0	0.00184406	0	0.00658521	0.00878155	0.00285097	0.00209532	0.0374135	0.0212255	0.0167063	0.0567161	0.0491024	0.0646115	0.0339445	2.75911e-06	0.0120584	0.0177021	0.0291956	0.00809255	0.00333794	0.00403985	0	0.0187897	0.0128972	0.0238482	0.00314209	0.0857841	0.084194	6.9006e-08	0.0141296	0.0830778	0.0198955	0.0580281	0.0475003	1.58015e-09	0	0.0817236	0.0847854	0.0065383	0.0292889	0.0200086	
3.375	0.0755488	0.018178	0.00856273	0.00335104	0.0228713	0.00311497	0.00781502	0.0836402	0.0295619	0.0304001	0.0365141	0.0452251	0.0175846	0.0354837	0	0	0	0.00985948	0.00469744	0	0.0202109	0.0219185	0.00974207	0.0405408	0.0553254	0.0139542	0.0372538	9.64136e-06	0.0419639	0	0.0848479	0.0206103	0.0302809	0.0235125	0.00978218	0.0282386	0.035556	0	0	0	0	0	0.00677413	0.00904203	0.00251641	0.00202149	0.0371645	0.0215349	0.0165658	0.0562176	0.0491555	0.0648116	0.0336741	0	0.0110983	0.0167707	0.0285893	0.0076885	0.00325456	0.00878605	0	0.0138333	0.0175516	0.0228741	0.00315772	0.085798	0.0841759	1.72143e-07	0.0151532	0.0831859	0.0102421	0.0628418	0.0485822	1.89619e-09	0	0.0813207	0.0847494	0.00668354	0.0287592	0.0198086	
3.38	0.0797528	0.0192369	0.00849715	0.00314459	0.0234054	0.00288384	0.00737234	0.0837117	0.0314478	0.0324609	0.0359011	0.0439617	0.0156954	0.0328504	0	0	0	0.00918485	0.00388806	0	0.0189485	0.0201242	0.00850791	0.0413672	0.0575476	0.0135336	0.0365256	0	0.0430552	0	0.0848324	0.0201949	0.0300146	0.0203767	0.00982787	0.0307608	0.034746	0	0	0	4.13133e-07	0	0.00689888	0.00922315	0.00219822	0.00174256	0.0369094	0.021749	0.0164614	0.055823	0.049202	0.0649691	0.0334487	0	0.0101368	0.0157839	0.0277986	0.00736887	0.00318404	0.0181164	0	0.00474475	0.0204691	0.021886	0.00333509	0.0858132	0.0841586	8.71883e-08	0.016482	0.08329	0.00576392	0.0678914	0.0498943	1.48682e-09	0	0.0809895	0.0847177	0.00686477	0.0279761	0.019546	
3.385	0.0826933	0.0202461	0.00839445	0.00287625	0.0238391	0.00261821	0.00682912	0.0837053	0.0333169	0.0344929	0.0352626	0.0426891	0.0137911	0.0302358	0	0	0	0.00865012	0.00322858	0	0.0180081	0.0187099	0.00746651	0.0420174	0.0598344	0.0131208	0.0358017	0	0.0441408	0	0.0848156	0.0196296	0.0296111	0.0173656	0.00998215	0.0333036	0.0339159	0	0	0	0	0	0.00695518	0.00932354	0.00201117	0.000893681	0.036651	0.0219201	0.016391	0.0555275	0.0492378	0.0650862	0.0332787	3.12655e-07	0.00917129	0.0147534	0.0268249	0.00714711	0.00313576	0.0282134	0	0.00137985	0.0146191	0.0208865	0.003686	0.0858279	0.0841423	0	0.0181351	0.0833973	0.00475384	0.0729263	0.0514808	5.36787e-10	0	0.08074	0.0846894	0.00707589	0.0269828	0.0192069	
3.39	0.084408	0.0211979	0.00825449	0.00255924	0.0241597	0.00235484	0.00618463	0.0836484	0.0351258	0.0364869	0.0346124	0.0414366	0.0119733	0.0276632	0	0	4.13983e-06	0.00825969	0.00248874	0	0.0173699	0.0176403	0.00663373	0.0424549	0.0621422	0.0127245	0.0350948	0	0.045211	6.65352e-05	0.0847971	0.0189059	0.0290622	0.0145132	0.0102466	0.0357819	0.0330802	0	0	0	5.38468e-06	0	0.00694095	0.00934355	0.00202103	0	0.0364052	0.0220557	0.0163521	0.055326	0.0492612	0.0651657	0.0331837	1.18752e-05	0.00820926	0.0137019	0.0256847	0.00702998	0.0031155	0.0377713	6.00968e-07	0.000763114	0.00554544	0.0198729	0.00422321	0.085845	0.084127	0	0.020094	0.0835129	0.00469084	0.0777246	0.0533581	2.28629e-09	0	0.0805754	0.0846642	0.00734806	0.0258542	0.018824	
3.395	0.0850584	0.0220758	0.00807846	0.00225702	0.0243584	0.00213842	0.00544599	0.0835488	0.0368836	0.0384863	0.0339648	0.0402328	0.0102689	0.0252141	0	0	1.76482e-06	0.00801372	0.00207354	0	0.0170151	0.0168971	0.00602378	0.0426503	0.0644319	0.0123529	0.0344165	0	0.0462563	0.00201506	0.0847764	0.0180161	0.0283639	0.0119946	0.010619	0.0382647	0.0322546	0	0	0	1.90733e-06	0	0.00685591	0.00928468	0.00169434	0	0.0362058	0.0221324	0.016342	0.0552122	0.0492736	0.0652099	0.0331866	0	0.00741449	0.0127063	0.0243669	0.00701727	0.00312352	0.0451688	2.57004e-05	0.0015281	0.00128369	0.0188385	0.00477151	0.0858593	0.0841127	0	0.0223396	0.0835528	0.00492963	0.0820277	0.0555184	0	0	0.0804941	0.0846418	0.00770735	0.024676	0.0184415	
3.4	0.0850109	0.0228595	0.00786878	0.00204886	0.0244304	0.00201459	0.00458252	0.0833859	0.0386092	0.0404908	0.0333343	0.0391032	0.00864726	0.0229589	0	0	4.77111e-07	0.00790711	0.0020008	0	0.0169205	0.0164602	0.00563068	0.0425839	0.066666	0.0120125	0.0337773	0	0.047266	0.00346753	0.0847531	0.016953	0.0275176	0.00989281	0.0110933	0.0408148	0.0314566	0	0	0	8.62273e-07	0	0.00670106	0.00914875	0.000341893	0	0.0360842	0.0221293	0.0163576	0.0551788	0.0492724	0.0652225	0.0333087	1.31472e-08	0.00692507	0.0118907	0.0229261	0.0071027	0.00315503	0.0493484	0	0.00198555	7.2855e-05	0.0177714	0.00407853	0.0858658	0.0840997	0	0.019967	0.0836038	0.00533551	0.0854085	0.0579319	1.91579e-08	0	0.080491	0.0846222	0.00808079	0.0235191	0.0180622	
3.405	0.0848946	0.0235295	0.00762925	0.00200672	0.0243766	0.00201316	0.00370189	0.083107	0.0402815	0.0424519	0.0327356	0.0380698	0.00707724	0.0209275	0	0	0	0.00793136	0.00201457	0	0.0170593	0.0163005	0.00543185	0.0422475	0.0688082	0.0117093	0.033187	0	0.0482297	0.00439828	0.0847267	0.0157184	0.0265301	0.00815657	0.0116615	0.0433848	0.0307049	0	0	0	0	0	0.00647849	0.00893764	0	3.80105e-06	0.0360531	0.0220388	0.0163952	0.0552169	0.0492574	0.0652063	0.0335646	1.12176e-05	0.00663306	0.0112356	0.0214198	0.00727558	0.00320164	0.0507755	8.51547e-06	0.00200014	0.00194783	0.0166629	0.00266146	0.0858651	0.084088	0	0.00889824	0.0836606	0.00580979	0.0868503	0.060542	0	0	0.0805572	0.0846055	0.0082837	0.0222172	0.0174663	
3.41	0.0847859	0.0240711	0.00736472	0.0019922	0.0242019	0.00198938	0.00245884	0.0826288	0.0418556	0.0443092	0.0321826	0.0371494	0.0055658	0.0191162	0	0	0	0.00807338	0.00201146	0	0.0174053	0.0163822	0.00540668	0.0416453	0.0708284	0.0114478	0.0326546	0	0.0491361	0.00528221	0.0846965	0.0143409	0.0254124	0.00671953	0.0123142	0.0458805	0.0300185	0	0	0	0	0	0.00725173	0.00865343	0	8.6616e-07	0.0361028	0.0218271	0.0164503	0.0553165	0.0492355	0.0651646	0.0339567	0	0.0066545	0.0108403	0.0198871	0.00752252	0.00325327	0.0503663	7.97276e-06	0.00217928	0.00208574	0.0155204	0.00201338	0.0858597	0.084078	0	0.00212915	0.0837155	0.00632334	0.0866585	0.0632559	1.5674e-08	0	0.0806807	0.0845919	0.00837183	0.0207393	0.0166926	
3.415	0.0846788	0.0244749	0.00708117	0.00164665	0.0239159	0.00169572	0.00180616	0.0818418	0.0432866	0.0460056	0.0316881	0.0363537	0.00411404	0.0175037	1.28405e-09	0	0	0.00831875	0.0020003	0	0.0179346	0.0166672	0.00552964	0.0407938	0.0726953	0.0112317	0.0321881	0	0.0499739	0.00616247	0.0846624	0.0128691	0.0241766	0.00556601	0.013043	0.048206	0.0294131	0	0	0	0	0	0.0128023	0.0114779	3.27273e-06	2.71765e-07	0.0361813	0.0215116	0.0165181	0.0554653	0.0491984	0.0651021	0.0344693	3.14303e-07	0.00712367	0.0107403	0.0183476	0.00782919	0.00329984	0.0489429	4.7083e-06	0.0026364	0.0023715	0.0143714	0.0020315	0.0858496	0.0840699	0	0.00191965	0.0837829	0.00687081	0.0861542	0.0659336	0	0	0.0808468	0.0845817	0.00840557	0.0191994	0.0158469	
3.42	0.084576	0.0247362	0.00678538	0.000859604	0.0235315	0.000968049	0	0.0806199	0.0445355	0.0474915	0.0312632	0.0356891	0.00268188	0.0160795	8.5967e-10	0	0	0.00865404	0.00206499	0	0.0186272	0.0171229	0.00576857	0.0397211	0.0743917	0.0110631	0.031794	0	0.0507351	0.00718095	0.0846241	0.0113308	0.0228428	0.00467933	0.0138415	0.050273	0.0289006	0	0	0	0	0	0.0193869	0.0157754	3.11496e-06	0	0.036202	0.021172	0.0165926	0.0556488	0.0491437	0.0650247	0.035075	8.93005e-06	0.00787517	0.0108202	0.0168098	0.00818071	0.013592	0.0469599	5.83628e-06	0.0031414	0.00268332	0.01324	0.00224725	0.0858348	0.084064	0	0.00201754	0.0838696	0.00744217	0.0858044	0.0683918	6.41981e-10	0	0.0810385	0.0845752	0.00843469	0.0177303	0.0150311	
3.425	0.084479	0.0248552	0.00648577	0	0.0230646	0	0	0.0788472	0.0455713	0.0487273	0.0309165	0.0351583	0.00187147	0.0146058	1.84872e-10	0	0	0.00906711	0.00227759	0	0.0194693	0.0177227	0.00609525	0.0384633	0.0758924	0.010943	0.0314769	0	0.0514054	0.00835486	0.0845815	0.00971541	0.0214292	0.00410576	0.0147068	0.0520115	0.0284888	0	0.00369611	0.00296049	0	0	0.0237825	0.0193797	1.46023e-06	0	0.0360834	0.0208033	0.0166673	0.0558501	0.0490801	0.0649394	0.0357429	0	0.00868621	0.0109536	0.015306	0.00856237	0.0223778	0.0446421	0	0.00353044	0.00306233	0.0121279	0.002607	0.0858142	0.0840608	0	0.00223393	0.0839771	0.00803135	0.0855222	0.0704937	0	0	0.0812368	0.0845723	0.00849081	0.0164519	0.0143204	
3.43	0.0843883	0.0248356	0.00619111	0	0.0225322	3.51075e-08	6.23499e-06	0.0764112	0.0463723	0.0496839	0.0306537	0.0347616	0	0.0127959	0	0	0	0.00954707	0.00262742	0	0.0204586	0.0184459	0.00649055	0.037062	0.0771929	0.0108711	0.0312394	0	0.0519741	0.0096673	0.0845351	0.00799347	0.0199497	0.00384714	0.0156355	0.0533706	0.0281818	0.00399607	0.00476652	0.00453051	0	0	0.0258367	0.0218641	2.74411e-07	0	0.0357695	0.0204133	0.0167349	0.0560499	0.0490092	0.0648541	0.0364462	1.88264e-07	0.00942701	0.0110716	0.0139137	0.00895902	0.0271751	0.0420749	0	0.00384515	0.00337394	0.0110216	0.00298068	0.0857887	0.0840603	0	0.00238986	0.0841202	0.00863423	0.085236	0.0721484	0	0	0.0814221	0.0845731	0.00862444	0.0154856	0.0137972	
3.435	0.0843046	0.0246844	0.00591007	0	0.0219525	0	1.5815e-05	0.0732465	0.0469256	0.0503471	0.0304771	0.0344975	0	0.0113988	0	0	0	0.0100846	0.0030302	0	0.0216023	0.019281	0.00693979	0.0355554	0.078282	0.010846	0.031082	0	0.0524328	0.0110775	0.0844853	0.00615327	0.0184094	0.00382169	0.0166171	0.0543159	0.0279805	0.00515725	0.00504372	0.00477563	0	0	0.0261599	0.0230595	0	1.08366e-08	0.0352192	0.0200248	0.0167876	0.0562268	0.0489322	0.0647775	0.0371648	6.01695e-06	0.0100532	0.0111567	0.0126493	0.00935582	0.0302602	0.0393284	1.72118e-05	0.00415274	0.0035894	0.00991066	0.00328989	0.0857602	0.0840631	0	0.00264424	0.0842985	0.00924459	0.084954	0.0733071	0	0	0.0815741	0.084578	0.00888829	0.0149265	0.0135379	
3.44	0.084228	0.0244105	0.00564929	3.67358e-06	0.0213429	4.47439e-06	5.2128e-06	0.0693378	0.0472273	0.0507113	0.0303867	0.0343629	7.88478e-06	0.0101662	0	0	0	0.0106728	0.00338157	0	0.0229107	0.0202264	0.00743078	0.0339434	0.0791641	0.0108653	0.0310033	0	0.0527701	0.0125452	0.0844328	0.0042098	0.0168084	0.00399653	0.0176307	0.0548369	0.0278829	0.00535912	0.00554445	0.00519602	0	0	0.0256621	0.0234088	0	1.65655e-08	0.0344072	0.0196992	0.0168171	0.056358	0.0488465	0.0647189	0.0378848	0	0.0105627	0.0112155	0.0115002	0.00973875	0.0317358	0.0364808	0	0.00447686	0.0037358	0.00899806	0.00352797	0.0857289	0.0840692	0	0.00292372	0.0844919	0.00985609	0.084694	0.0739619	0	0	0.0816729	0.0845864	0.00928296	0.0147844	0.0135563	
3.445	0.0841583	0.0240242	0.00541316	1.25304e-06	0.0207188	1.36888e-06	0	0.0647428	0.0472813	0.05078	0.0303797	0.0343524	1.56333e-05	0.00898201	0	0	0	0.0113078	0.00368094	0	0.0243919	0.0212897	0.0079585	0.0322013	0.0798406	0.0109254	0.0310002	0	0.0529752	0.0140419	0.0843785	0.00206104	0.0151881	0.00437264	0.0186534	0.0549375	0.0278847	0.0058445	0.00626702	0.00587067	0	0	0.0248374	0.0232076	0	8.71783e-09	0.0333348	0.0194371	0.0168147	0.0564196	0.0487547	0.0646883	0.0385988	1.60322e-07	0.0109639	0.0112574	0.0104364	0.0100945	0.0320898	0.0336219	4.56227e-06	0.00479471	0.00382826	0.00855952	0.00371519	0.085694	0.0840787	0	0.00313542	0.0846919	0.0104634	0.0844495	0.0741262	0	0	0.081699	0.084598	0.00977143	0.0150054	0.0138204	
3.45	0.0840951	0.0235363	0.00520669	2.98496e-07	0.0200944	6.15219e-07	0	0.0596263	0.0470984	0.0505658	0.0304514	0.0344586	3.59451e-06	0.0078117	0	0	0	0.0119874	0.00396961	0	0.0260493	0.0224809	0.00852191	0.0303243	0.080322	0.0110225	0.0310685	0	0.0530391	0.0155482	0.0843233	0	0.0136477	0.00493868	0.0196687	0.0546344	0.0279797	0.00659082	0.00702941	0.00660055	0	1.05471e-07	0.0239266	0.0226732	0	0	0.0320229	0.0192062	0.0167722	0.0563875	0.0486472	0.0646953	0.0393068	3.6027e-06	0.0112689	0.0112932	0.00942369	0.0104111	0.0311148	0.0308239	1.46044e-05	0.00508307	0.00386403	0.00869089	0.00386962	0.0856532	0.0840917	1.30916e-08	0.00328706	0.0848791	0.011063	0.0842063	0.0738253	0	0	0.0816323	0.0846115	0.0102863	0.0154906	0.0142527	
3.455	0.0840387	0.0229573	0.00503546	0	0.0194823	0	0	0.0542829	0.0466947	0.0500883	0.0305957	0.0346725	0	0.00666474	0	0	0	0.0127115	0.00430477	0	0.0278766	0.0238098	0.00912052	0.0283486	0.0806184	0.011152	0.0312027	0	0.0529535	0.0170817	0.0842681	0	0.0122396	0.00561253	0.0206669	0.0539568	0.0281606	0.00741828	0.00781803	0.00736569	0	2.40418e-06	0.0230504	0.0219457	2.67969e-09	0	0.0305088	0.0189823	0.0166816	0.0562386	0.0485054	0.0647494	0.0400193	0	0.0114939	0.0113362	0.00844876	0.0106777	0.0290098	0.0281701	0	0.00532712	0.00383369	0.00928959	0.00400158	0.085607	0.0841078	0	0.00340052	0.0850638	0.0116532	0.0839586	0.0730876	9.40238e-09	0	0.0814513	0.0846253	0.0107976	0.0161757	0.0148082	
3.46	0.0837695	0.0222965	0.00490504	0	0.0188925	0	0	0.0491359	0.046091	0.0493738	0.0308051	0.0349842	0	0.0055619	0	0	0	0.0134849	0.00470152	0	0.0298529	0.0252829	0.00975466	0.0263406	0.0807353	0.0113093	0.0313968	0	0.052711	0.0186615	0.0842138	0	0.0109454	0.0063666	0.0216364	0.0529425	0.0284188	0.00830479	0.0086821	0.00821388	0	0	0.0222836	0.0211358	0	0	0.0288532	0.0187481	0.0165358	0.0559519	0.0481548	0.0648589	0.0407597	0	0.0116578	0.0113959	0.00751786	0.010885	0.0258236	0.0257719	2.0876e-06	0.0055201	0.00372865	0.01016	0.00411328	0.0855445	0.0841268	1.53972e-10	0.00348408	0.0852422	0.0122318	0.083714	0.0719452	9.997e-09	0	0.0814156	0.0846354	0.0113089	0.0152242	0.0154774	
3.465	0.0830374	0.0215625	0.00482095	0	0.0183334	0	0	0.0444251	0.0453119	0.0484516	0.0310711	0.0353831	0	0.00447683	0	0	0	0.014322	0.00514706	0	0.0319338	0.0269037	0.0104261	0.0243586	0.0806707	0.0114897	0.0316441	0	0.0523058	0.0202856	0.084161	3.45235e-05	0.00973605	0.00720662	0.0225589	0.0516354	0.0287452	0.00926183	0.00960429	0.00913476	0	0	0.0216706	0.0203308	1.96055e-09	0	0.0271454	0.0184909	0.0178206	0.0560718	0.0474538	0.0650309	0.041543	5.02189e-07	0.0117793	0.0114727	0.00663992	0.011025	0.0216294	0.0237375	0.00109084	0.00565576	0.00353454	0.0111261	0.0042014	0.0854641	0.084148	0	0.00354236	0.0854108	0.0127977	0.0834896	0.0704257	2.69312e-09	0	0.0814185	0.0846384	0.0118382	0.0125024	0.0162677	
3.47	0.0817935	0.0207609	0.00478699	0	0.0178128	0	0	0.0402304	0.0443846	0.0473534	0.0313846	0.0358585	0	0.00353965	0	0	0	0.0152399	0.00563037	0	0.0340607	0.02867	0.0111396	0.0224435	0.0804119	0.0116885	0.0319372	0	0.0517355	0.0218985	0.0841105	1.06687e-05	0.00859667	0.00811736	0.0234099	0.0500884	0.0291298	0.0101884	0.0104743	0.0100145	0	7.40568e-07	0.0212313	0.0195956	1.92182e-10	0	0.0254726	0.0182038	0.0201042	0.0563469	0.0471199	0.0652706	0.0423762	4.54924e-07	0.0118746	0.0115751	0.00583322	0.0110915	0.015249	0.0221343	0.00423402	0.00572762	0.00320641	0.0120894	0.00426361	0.0853731	0.0841708	4.78888e-09	0.00357944	0.0855663	0.013352	0.0832954	0.0685615	7.93899e-09	4.57633e-11	0.0810958	0.0846336	0.0124006	0.0100025	0.0171857	
3.475	0.0800117	0.0198945	0.00480576	0	0.0173385	3.1156e-10	0	0.0365718	0.0433378	0.046115	0.0317366	0.0364002	0	0.00232565	4.59603e-09	0	0	0.0162489	0.00616848	0	0.0362519	0.0305681	0.0119032	0.0206183	0.0799326	0.0119012	0.0322688	0	0.0509991	0.023443	0.0839999	0	0.00754038	0.00909555	0.024163	0.0483582	0.0295624	0.0110284	0.0112444	0.0108023	2.03653e-09	8.03612e-07	0.0209708	0.0189722	0	0	0.0238818	0.0178881	0.0224197	0.0563232	0.0472095	0.065581	0.0432645	1.16104e-07	0.0119557	0.0117036	0.00510418	0.0110804	0.00850642	0.0209671	0.00201396	0.00573065	0.00265076	0.0130191	0.00429928	0.0852778	0.0841942	3.81284e-09	0.0035983	0.0857061	0.0138987	0.0831332	0.0663952	6.59379e-09	0	0.0803019	0.0846217	0.0130036	0.00771664	0.018227	
3.48	0.0776907	0.0189636	0.00487951	0	0.0169176	2.89984e-09	0	0.0333393	0.0422009	0.0447722	0.0321175	0.0369982	0	0.00195778	4.18999e-09	7.27934e-10	0	0.017341	0.00678119	0	0.0386557	0.0325661	0.0127268	0.0188839	0.0791906	0.0121239	0.0326313	0	0.0500948	0.0248656	0.0833274	0	0.00659936	0.0101295	0.024794	0.0464991	0.0300329	0.0117941	0.0119311	0.0115145	0	3.70391e-07	0.0208889	0.0184852	4.79411e-09	0	0.0223767	0.0175583	0.0239369	0.0555972	0.0474062	0.0659616	0.0442165	0	0.0120154	0.0118402	0.00444602	0.010989	0.0106432	0.0201179	0.00206936	0.00566167	0.00207639	0.013907	0.00430911	0.085179	0.0842173	1.34828e-10	0.00360118	0.0858261	0.0144409	0.083002	0.0639785	2.28371e-08	0	0.0790445	0.0846039	0.0136437	0.00901676	0.0193705	
3.485	0.0748494	0.0179634	0.00500974	0.00134266	0.016557	1.59488e-09	0	0.0302499	0.0410031	0.0433608	0.0325185	0.0376428	0	0	0	1.09396e-09	0	0.0185067	0.00747074	0	0.0413894	0.0346334	0.0136251	0.0172319	0.078128	0.0123526	0.0330174	0	0.0490324	0.0261123	0.0819618	0	0.00581312	0.0112048	0.0252812	0.0445671	0.030531	0.0125056	0.012554	0.0121715	0	4.96017e-08	0.0209849	0.0179234	0	0	0.0209469	0.0172385	0.0236115	0.0538177	0.047617	0.066409	0.0452435	0	0.0120534	0.0119787	0.00394014	0.0108167	0.0138044	0.0193596	0.00200387	0.00551954	0.00197441	0.0147648	0.00429504	0.085074	0.0842391	0	0.00358995	0.0859234	0.0149798	0.0829008	0.0613829	1.81111e-08	0	0.0774191	0.0845814	0.0143055	0.00848056	0.0205784	
3.49	0.0715262	0.016889	0.00519633	0.00218187	0.0162621	4.30287e-10	0	0.0272917	0.0397722	0.0419144	0.0329311	0.0383239	0	0	0	4.23271e-10	0	0.0197532	0.00823983	0	0.044525	0.0368349	0.0146208	0.0156875	0.0766866	0.0125844	0.0334201	0	0.0478177	0.0271228	0.0799152	0	0.00519736	0.0123107	0.0256063	0.042615	0.0310466	0.0131511	0.0131034	0.0127614	0.000891268	0	0.0208283	0.016917	4.69125e-11	0	0.0195889	0.0169549	0.0199157	0.0513907	0.0478427	0.066916	0.0463509	0	0.0120826	0.0121262	0.00358064	0.0105645	0.0176492	0.0187413	0.00198291	0.0053041	0.00263144	0.0156149	0.0042597	0.0849587	0.0842585	0	0.00356629	0.0859964	0.0155147	0.0828303	0.0586963	1.76465e-08	0	0.0755202	0.0845555	0.014964	0.00788181	0.0218089	
3.495	0.0677788	0.0157472	0.00543942	0.00267719	0.0160379	1.17888e-09	0	0.0246859	0.0385334	0.0404642	0.0333477	0.0390312	0	0	0	1.13059e-10	0	0.0211085	0.00909152	0	0.0481233	0.0393398	0.0157431	0.0143241	0.0747994	0.0128163	0.0338331	0	0.046464	0.0278591	0.0772336	0	0.00475001	0.0134423	0.0257544	0.0406891	0.0315704	0.0137341	0.0136143	0.0132897	0.00363164	0	0.0200365	0.0153366	0	0	0.0183077	0.0167317	0.0152633	0.0494955	0.0483521	0.0674733	0.04754	0	0.0121204	0.012279	0.00330888	0.0132412	0.0209812	0.0182923	0.00144905	0.00501511	0.00579821	0.0164782	0.00420654	0.0848743	0.0842747	0	0.00353164	0.0860446	0.0160423	0.0827921	0.0560248	1.31832e-08	3.87609e-09	0.0733367	0.0845382	0.015588	0.00794419	0.0230185	
3.5	0.0637072	0.0145683	0.00574039	0.00306501	0.0158884	3.57022e-09	0	0.0224189	0.0373088	0.0390373	0.0337617	0.0397543	0	1.44443e-05	0	0	0	0.0226027	0.0100212	0	0.0522309	0.0422819	0.0170009	0.0131785	0.0724099	0.0130459	0.0342507	0	0.0449884	0.0282982	0.0739921	0	0.00449608	0.0146025	0.0257138	0.0388279	0.0320937	0.0143145	0.0142065	0.0138568	0.00285506	0	0.01924	0.0136082	2.14028e-11	0	0.0171126	0.0165912	0.0130625	0.0480062	0.0490501	0.0680693	0.0488112	0	0.0121835	0.0124358	0.00317619	0.0166234	0.0220647	0.0180044	0	0.00473117	0.00908632	0.0173697	0.00413939	0.0848996	0.0842867	0	0.0034874	0.0860679	0.0165581	0.0827877	0.0534748	8.33766e-09	0	0.0707994	0.0845538	0.0161451	0.00826847	0.0241602	
3.505	0.0594363	0.0133878	0.00610396	0.00350581	0.0158176	5.83818e-09	0	0.020501	0.0361159	0.0376559	0.0341678	0.0404835	0	4.13694e-06	0	0	0	0.024254	0.0110233	1.08268e-09	0.0568761	0.0457775	0.0183809	0.0122283	0.0694861	0.0132712	0.034668	0	0.0434118	0.02846	0.0702917	0	0.00443548	0.0158036	0.0254762	0.0370599	0.0326088	0.0149498	0.0147692	0.0144483	0.00308103	0.00425282	0.0194881	0.0126512	3.34006e-11	0	0.016022	0.0165519	0.0125351	0.0465331	0.0497257	0.0686908	0.0501601	0	0.0122897	0.0126102	0.00323392	0.0194574	0.022004	0.0178478	0	0.0152816	0.0121903	0.0182952	0.00406234	0.0850742	0.0842939	0	0.00343477	0.0860673	0.0170594	0.0828134	0.0511168	1.27924e-08	5.21893e-11	0.0680652	0.0846065	0.0166078	0.00855788	0.0251877	
3.51	0.055147	0.0122162	0.00653618	0.003934	0.0158289	0	0	0.0188906	0.0349631	0.0363363	0.0345614	0.0412094	0	0	0	0	0	0.0260663	0.012098	7.94695e-10	0.0619519	0.0499409	0.019891	0.011441	0.0660279	0.0134904	0.0350805	0	0.0417571	0.0284047	0.0662658	0	0.00455546	0.017047	0.0250369	0.0353989	0.0331094	0.0155326	0.0152876	0.0149913	0.00336806	0.00543388	0.0208009	0.0129895	5.77294e-11	0	0.0150628	0.0166296	0.0122015	0.0450505	0.0503636	0.069322	0.051576	0	0.0124603	0.0128245	0.0034394	0.0225379	0.0212306	0.0177903	0	0.0208242	0.0142353	0.0192564	0.00397969	0.085361	0.0842959	0	0.00337497	0.0860444	0.0175445	0.0819423	0.0489888	0	0	0.0653243	0.0846668	0.0169571	0.00787828	0.026059	
3.515	0.0510641	0.011039	0.00703743	0.00443522	0.0159263	0	0	0.0175497	0.0338506	0.0350843	0.034939	0.0419236	0	0	0	3.15214e-09	0.00515269	0.028028	0.0132506	0	0.0671199	0.0548772	0.0215828	0.0107976	0.0620835	0.0137018	0.0354847	0	0.04005	0.0280872	0.0620615	0	0.00484302	0.0183137	0.0243946	0.0338305	0.0335909	0.0160726	0.0157757	0.0155023	0.00350216	0.00531319	0.0226036	0.0142975	8.69581e-11	0	0.0142584	0.0168361	0.0116911	0.0436202	0.0508907	0.0699462	0.053038	0	0.0127166	0.0131044	0.00368601	0.0255267	0.0203739	0.0178021	4.97604e-06	0.0213825	0.0149881	0.020254	0.00389479	0.085679	0.0842922	0	0.00330916	0.0860014	0.0180134	0.0799101	0.0471129	0	0	0.0626613	0.0847008	0.0171827	0.00620887	0.0267401	
3.52	0.0472925	0.00983459	0.00760453	0.00504384	0.0161129	0	0	0.016463	0.0327753	0.0338946	0.0352978	0.0426183	0	0	0	0.00397832	0.00415764	0.0301049	0.0144944	0	0.0720406	0.0606226	0.0235213	0.0102881	0.0577761	0.013904	0.0358771	0	0.0383162	0.027514	0.0578565	0	0.00526643	0.0195843	0.0235524	0.0323276	0.0340497	0.0165888	0.0162423	0.0159965	0.00360154	0.00528923	0.0244663	0.0159915	1.23498e-10	7.89633e-09	0.0136159	0.0171778	0.0111462	0.0422839	0.0513257	0.0705466	0.0545151	0	0.0130715	0.013466	0.00394859	0.0262314	0.0196016	0.0178544	2.07893e-06	0.0242393	0.0149104	0.0212875	0.0038093	0.0859565	0.0842827	0	0.00323875	0.0859408	0.0184673	0.0773166	0.0454998	0	0.00110954	0.0601438	0.0846975	0.0172806	0.00448301	0.0272072	
3.525	0.0438601	0.00858251	0.00823615	0.0057164	0.0163913	0	0	0.0156209	0.0317378	0.0327585	0.0356357	0.043287	0	0	0	0.0047346	0.0046943	0.0322313	0.0158562	0	0.0764166	0.0668153	0.0257454	0.00990746	0.0533216	0.0140961	0.036255	0	0.0365787	0.0267079	0.0538489	0	0.00578935	0.020855	0.0225176	0.0308783	0.0344836	0.0170832	0.0166878	0.0164734	0.00370096	0.00548521	0.0262374	0.0176763	1.64803e-10	0.00249991	0.0131289	0.0176551	0.0106932	0.0410746	0.0516816	0.0711062	0.0559739	0	0.013521	0.0139013	0.00426423	0.025115	0.0189346	0.0179187	7.18935e-06	0.0259772	0.0143656	0.0223476	0.00372427	0.0861551	0.0842676	0	0.00316511	0.0858654	0.0189082	0.0746309	0.0441508	0	0.00282293	0.0578647	0.0846668	0.0172497	0.00343183	0.0274467	
3.53	0.0407756	0.00728554	0.00892853	0.00646875	0.0167653	0	0	0.0149981	0.0307433	0.0316729	0.0359512	0.0439244	0	0	0	0.00413429	0.0054013	0.0343327	0.0173321	0.00550841	0.0800078	0.0728834	0.028257	0.00965551	0.0489843	0.014277	0.036616	0	0.0348445	0.0256845	0.0501941	0	0.0064047	0.022127	0.021301	0.0294957	0.034891	0.0175405	0.0171006	0.0169181	0.00379128	0.00568416	0.0279368	0.0191894	2.09536e-10	0.00402845	0.0127902	0.018261	0.0103375	0.0400238	0.0519659	0.0716082	0.0573745	0	0.014039	0.014388	0.00464285	0.0235875	0.0183405	0.0179668	0	0.0254389	0.0136698	0.0234115	0.00364054	0.0862683	0.0842467	0	0.0030899	0.0857784	0.0193387	0.0720398	0.0430588	0	0.0034737	0.0559321	0.0846232	0.0170895	0.00296248	0.0274541	
3.535	0.0380327	0.00597224	0.00967281	0.00730878	0.0172192	0	0	0.0145564	0.0298015	0.0306419	0.0362437	0.044526	0	0	0	0.00471615	0.0060594	0.0364276	0.0188915	0.00584367	0.0826423	0.0782741	0.031006	0.00953178	0.044913	0.0144463	0.036958	0	0.0330759	0.02446	0.0469234	0	0.0071057	0.0233918	0.019915	0.0282013	0.035271	0.0179518	0.0174728	0.0173204	0.00387346	0.00581659	0.0296087	0.0205325	2.56585e-10	0.00353638	0.0125979	0.0189812	0.0100669	0.0391584	0.0521845	0.0720377	0.0586767	0	0.0145793	0.0148894	0.00505762	0.0223365	0.0177946	0.0179722	2.05489e-06	0.0239662	0.0129542	0.0244433	0.00355932	0.0863089	0.0842205	0	0.00301475	0.0856826	0.0197618	0.0696157	0.0422111	0	0.00335641	0.0544385	0.0845756	0.0167983	0.00308021	0.0272319	
3.54	0.0356033	0.00466626	0.0104583	0.00821671	0.0177675	0	0	0.0142565	0.0289214	0.0296753	0.0365125	0.045089	0	0	0.000606178	0.0051717	0.00682412	0.0386114	0.0205471	0.00558397	0.0842463	0.0824741	0.0338677	0.00953095	0.0411802	0.0146033	0.0372794	0.00670312	0.0311989	0.0230561	0.044023	0	0.00787643	0.0246318	0.0183692	0.0270092	0.035623	0.0183104	0.0177975	0.0176723	0.00395056	0.00600072	0.0312663	0.0217594	3.05465e-10	0.00369888	0.0125526	0.0197956	0.00989118	0.0384999	0.0523416	0.0723814	0.0598389	0	0.0150829	0.0153539	0.00547399	0.0214197	0.0172833	0.0179124	1.8299e-06	0.022645	0.0122636	0.0253978	0.00348217	0.086297	0.0841892	0	0.00294147	0.0855809	0.0201805	0.0674066	0.0415905	0	0.00301757	0.0534557	0.0845266	0.0163741	0.00341928	0.0267883	
3.545	0.0333882	0.00348674	0.0112751	0.00917862	0.01839	0	0	0.0140672	0.0281085	0.0287811	0.0367579	0.0456114	0	0	0.0060105	0.00563971	0.00768491	0.0409042	0.0223465	0.00660197	0.0848482	0.0850462	0.0368011	0.00964299	0.0378252	0.014748	0.0375792	0.00934631	0.0292311	0.0214956	0.0414757	0	0.0087098	0.0258292	0.016669	0.0259251	0.0359469	0.0186048	0.018064	0.0179619	0.00402356	0.00643604	0.031823	0.0224952	4.10613e-09	0.00388987	0.0126523	0.0206817	0.00982854	0.0380663	0.0524407	0.0726272	0.0608195	0	0.0153808	0.0156993	0.00588023	0.0206669	0.0167984	0.0177688	9.73774e-07	0.0217266	0.0116058	0.0262299	0.00341507	0.0862504	0.0841531	0	0.00287227	0.0854762	0.0205974	0.0654525	0.0411756	0	0.00266376	0.0530335	0.0844769	0.0158157	0.0037234	0.0261351	
3.55	0.0312673	0.00205048	0.0121153	0.0101717	0.0190829	0	0	0.0139652	0.0273654	0.0279634	0.0369802	0.046092	0	0	0.0036201	0.00618196	0.00860105	0.043264	0.0243117	0.00747809	0.0847912	0.0856974	0.0400554	0.00985571	0.0348315	0.0148802	0.0378565	0.0104394	0.0272227	0.0197996	0.0392583	0	0.0095946	0.0269685	0.0148477	0.0249496	0.0362429	0.0188227	0.0182609	0.0181766	0.00409239	0.00718227	0.0298225	0.0222163	5.00617e-11	0.00397882	0.0128903	0.0216163	0.00989129	0.0378741	0.052485	0.0727643	0.0615784	0	0.0153804	0.0158713	0.00626904	0.0200168	0.0163338	0.0118096	0	0.0210179	0.0109809	0.026903	0.0085378	0.0861824	0.0841126	0	0.00280894	0.0853709	0.0210143	0.0637738	0.0409395	0	0.00290072	0.0531984	0.0844266	0.0151249	0.0039504	0.0252885	
3.555	0.0292231	0.000311545	0.0129713	0.0111743	0.0198378	0	0	0.0139353	0.0266926	0.0272234	0.0371802	0.0465307	0	0	0.00408821	0.00678052	0.00954467	0.0456252	0.0264199	0.00842307	0.0846902	0.0856089	0.0438043	0.0101561	0.0319763	0.0150002	0.0381109	0.0117627	0.0252318	0.0179813	0.0373432	0	0.0105167	0.0280376	0.0129946	0.0240799	0.0365115	0.0189535	0.0183783	0.0183061	0.0041559	0.00817946	0.0250261	0.020902	1.31456e-10	0.00404175	0.0132543	0.0225764	0.0100849	0.0379393	0.0524757	0.0727818	0.0620769	1.17396e-12	0.0151969	0.0158884	0.00662788	0.0194769	0.0158863	0.00201216	0	0.0204201	0.00948617	0.0274006	0.0156316	0.0861016	0.084068	0	0.00275216	0.0852672	0.0214326	0.0623703	0.0408506	0	0.00333917	0.0539426	0.0843758	0.0143087	0.00407646	0.0242676	
3.56	0.0273096	0	0.0138396	0.0121729	0.0206515	0	0	0.0139707	0.0260886	0.0265596	0.0373589	0.046928	0	0	0.00426353	0.00742918	0.0104874	0.0479128	0.0286232	0.00945308	0.0845993	0.0855192	0.048092	0.0105326	0.0291297	0.0151083	0.0383426	0.0136858	0.0233032	0.0160517	0.0356983	0	0.0114682	0.0290276	0.0111814	0.0233105	0.0367536	0.0189882	0.0184085	0.0183419	0.00932718	0.00936029	0.0206082	0.019016	8.12295e-11	0.00410618	0.0137258	0.0235378	0.0104102	0.0382798	0.0524119	0.0726692	0.0622791	2.0784e-11	0.0148687	0.0157575	0.00693957	0.0190474	0.0141222	9.24878e-05	0	0.0199294	0.00419481	0.0277272	0.0227312	0.0860129	0.0840193	0	0.00270282	0.0851681	0.0218535	0.0612258	0.0408729	0	0.00345187	0.0552105	0.0843239	0.0133817	0.00403414	0.0230973	
3.565	0.0255614	0	0.0147221	0.0131568	0.0215132	0	0	0.0140712	0.0255512	0.0259695	0.0375176	0.0472851	0	0	0.00436635	0.0080954	0.0114064	0.0500516	0.0308467	0.0105065	0.0845096	0.0854347	0.0528904	0.0109739	0.0263716	0.0152047	0.0385518	0.0159161	0.0214662	0.0140702	0.0342771	0	0.0124448	0.029932	0.00941582	0.0226352	0.0369703	0.0189219	0.0183469	0.0182789	0.0133828	0.0106662	0.0180361	0.0170202	1.389e-10	0.00415828	0.0142838	0.0244786	0.0108652	0.0389165	0.0522906	0.0724154	0.0621516	2.74224e-11	0.0144081	0.0154875	0.0071941	0.0187248	0.0116541	0	0	0.019561	0	0.0279028	0.0296678	0.0859194	0.0839667	0	0.00265939	0.0850743	0.0222777	0.0603139	0.0409752	0	0.00321611	0.0568972	0.0842699	0.0123636	0.00377553	0.0218055	
3.57	0.0239828	2.28667e-05	0.0156204	0.0141204	0.0224103	0	0	0.0142439	0.0250766	0.0254492	0.0376575	0.0476035	0	0	0.00455567	0.00875197	0.0122903	0.0519883	0.0330008	0.0115527	0.0844293	0.0853505	0.058113	0.0114724	0.0238072	0.0152902	0.0387393	0.0181879	0.0197298	0.0121335	0.0330418	0.00359135	0.0134509	0.0307483	0.00767625	0.0220464	0.0371628	0.0187524	0.0181921	0.0181155	0.0155712	0.0120647	0.0163288	0.0151048	1.6051e-10	0.00419622	0.0149032	0.025377	0.0114459	0.0398757	0.052106	0.0720083	0.0616631	2.66555e-11	0.0138254	0.015087	0.0073831	0.0184955	0.00888284	2.23616e-05	0	0.0192804	9.53059e-05	0.0279467	0.0358962	0.0858218	0.0839103	0	0.00262356	0.0849888	0.0227052	0.0596009	0.0411253	0	0.00268067	0.0588655	0.0842126	0.0112782	0.00310949	0.0204246	
3.575	0.0225626	9.01595e-06	0.016519	0.0150646	0.0233237	0	0.00233672	0.0145011	0.0246607	0.0249939	0.03778	0.0478855	0	0	0.0048189	0.00939208	0.013129	0.0536907	0.0350353	0.0125765	0.0843631	0.0852747	0.0635006	0.0120219	0.0214811	0.0153654	0.038906	0.0204726	0.0180879	0.0102894	0.0319843	0.00696805	0.014497	0.0314765	0.00596584	0.0215367	0.0373327	0.0184826	0.0179468	0.017854	0.015936	0.0135485	0.0145099	0.0133397	1.84247e-10	0.00422087	0.0155571	0.0262147	0.0121472	0.0411899	0.0518503	0.0714351	0.0607866	2.18491e-11	0.0131432	0.0145733	0.00750396	0.0183515	0.00590287	0	0	0.0190416	0	0.0278806	0.0412986	0.0857201	0.0838501	0	0.00260263	0.0849121	0.0231351	0.0590506	0.041297	0	0.00217587	0.0610974	0.084151	0.01015	0.00201386	0.0189877	
3.58	0.0212796	1.08918e-06	0.0173927	0.015991	0.0242289	0	0.00677492	0.0148604	0.024299	0.0245984	0.0378866	0.0481333	0	0.00203882	0.00511525	0.0100011	0.0139199	0.055153	0.0370224	0.0135718	0.0843146	0.0852114	0.068651	0.0126187	0.0193834	0.015431	0.039053	0.0229443	0.0165406	0.00852579	0.0311173	0.00797427	0.015607	0.0321191	0.00430852	0.0210982	0.0374816	0.0181185	0.017617	0.0175009	0.0146177	0.0151295	0.0131472	0.0119165	2.0343e-10	0.00423303	0.0162181	0.0269777	0.0129657	0.0428996	0.0515137	0.0706821	0.0595032	1.52327e-11	0.0123875	0.0139704	0.00755896	0.0182838	0.00245839	0	0	0.0187117	1.59823e-05	0.0277408	0.0451638	0.0856138	0.0837865	0	0.00258436	0.0848454	0.028907	0.0586252	0.0414691	7.87654e-20	0.00200001	0.0638266	0.0840839	0.00900182	0	0.0175208	
3.585	0.0201091	0	0.0182211	0.016884	0.025099	0	0.00773185	0.0153434	0.0239866	0.0242574	0.0379788	0.0483494	0	0.00418893	0.00542789	0.0105697	0.0146707	0.0564047	0.0390442	0.0145393	0.0842866	0.0851637	0.0733034	0.0132635	0.017477	0.0154877	0.0391817	0.025729	0.0151318	0.00682037	0.0304593	0.00862281	0.016792	0.0326809	0.00271721	0.0207232	0.037611	0.017669	0.0172113	0.0170654	0.012424	0.016818	0.0131235	0.0110839	2.2062e-10	0.00423326	0.0168595	0.0276578	0.0139042	0.0450506	0.0510861	0.0697352	0.0578078	8.46541e-12	0.0115793	0.0133045	0.00755437	0.0182801	4.19628e-07	0	7.94335e-10	0.0183618	0	0.0275829	0.0472553	0.0855031	0.0837196	0	0.00256773	0.084789	0.0397344	0.0582889	0.0416262	0	0.00201116	0.0672737	0.0840109	0.0078539	0	0.0160365	
3.59	0.0190236	0	0.0189907	0.0177212	0.0259048	5.53265e-09	0.00804517	0.0159717	0.0237187	0.0239652	0.038058	0.0485366	0	0.00541255	0.00574611	0.0110939	0.0153827	0.0574852	0.0411123	0.0154978	0.0842802	0.0851336	0.0773207	0.0139629	0.0157705	0.0155365	0.0392935	0.0287682	0.0139187	0.00518376	0.0300207	0.00969321	0.0180417	0.0331684	0.00173789	0.0204043	0.0377228	0.0171435	0.016739	0.0165583	0.0101271	0.0186086	0.0123589	0.0104987	2.34443e-10	0.00422252	0.0174575	0.0282519	0.0149742	0.0476924	0.0505567	0.0685819	0.0557176	7.242e-12	0.0107341	0.0126003	0.00749962	0.0183261	0	0	1.10481e-10	0.0182199	0	0.027462	0.0486242	0.0853889	0.08365	0	0.00255333	0.0847426	0.0473071	0.0580098	0.041758	1.29316e-19	0.00176235	0.0714269	0.0839321	0.0067224	3.82542e-05	0.0145507	
3.595	0.017996	0	0.0196928	0.0184863	0.0266193	6.06269e-09	0.00881801	0.0167625	0.0234904	0.0237164	0.0381256	0.0486977	0	0.00629938	0.00606381	0.0115715	0.0160456	0.0584773	0.0432165	0.0164501	0.0842955	0.0851216	0.0806191	0.0147262	0.0143369	0.0155782	0.0393899	0.0318976	0.0129015	0.0036736	0.0298029	0.0111088	0.0193548	0.0335891	0	0.0201345	0.0378188	0.0165503	0.0162086	0.0159905	0.00819553	0.02052	0.0100392	0.00945487	2.44388e-10	0.00420241	0.0179936	0.0287612	0.0161872	0.0508704	0.0499155	0.0672106	0.0532746	7.48971e-12	0.0098671	0.011878	0.00740609	0.0184039	7.16672e-05	0	0	0.0180467	0	0.0274042	0.0494938	0.0852735	0.0835784	0	0.00254031	0.0847059	0.0495015	0.0577616	0.0418591	0	0.00119924	0.0760719	0.0838486	0.00563599	0	0.0130978	
3.6	0.0170056	0	0.0203197	0.0191709	0.0272188	0	0.0100216	0.0177258	0.0232965	0.0235055	0.0381832	0.0488355	6.71115e-09	0.00728665	0.00637619	0.012002	0.0166447	0.0595079	0.0453468	0.0173806	0.0843307	0.0851269	0.0831398	0.0155629	0.0131912	0.0156136	0.0394727	0.0349499	0.0120451	0.00203183	0.0298005	0.0126373	0.0207583	0.0339505	0	0.0199073	0.0379008	0.015895	0.0156255	0.0153703	0.00677582	0.0226272	0.00724376	0.00768876	0	0.00417458	0.0184553	0.0291896	0.0175335	0.0546165	0.049154	0.0656127	0.0505411	7.64979e-12	0.00899665	0.0111542	0.00728574	0.0184785	0.000150269	1.69667e-07	4.52675e-11	0.0177366	0	0.027388	0.0495516	0.0851261	0.0835056	0	0.00252744	0.0846778	0.0491214	0.0575235	0.0419276	0	0.000970724	0.0807869	0.0837617	0.00459522	0.000110134	0.0117198	
3.605	0.0160451	0	0.020864	0.0197704	0.0276863	2.33882e-11	0.0113396	0.0188685	0.0231324	0.0233271	0.038232	0.0489528	0	0.00851419	0.00667755	0.0123864	0.01717	0.0606261	0.0474978	0.0182772	0.0843829	0.0851473	0.0848005	0.016474	0.0122775	0.0156437	0.0395433	0.037931	0.0113149	0.00011033	0.0300029	0.0142404	0.0222937	0.03426	1.49552e-05	0.0197161	0.0379705	0.0151835	0.0149941	0.0147056	0.00582423	0.0249987	0.00504889	0.00555872	0	0.00414101	0.0188373	0.0295429	0.0189904	0.0589373	0.0482642	0.0637834	0.0475997	7.70895e-12	0.00814573	0.0104431	0.00715025	0.0185041	0	1.02222e-07	1.65409e-10	0.0173364	2.75148e-07	0.0273391	0.0489348	0.0848333	0.0834327	0	0.00251433	0.084657	0.0484979	0.0572808	0.0419654	0	0.00159276	0.0847443	0.0836731	0.00372537	0	0.0104503	
3.61	0.0151204	0	0.0213198	0.0202829	0.0280129	0	0.0126769	0.0202109	0.0229934	0.0231759	0.0382733	0.0490527	0.00200962	0.00995297	0.00696438	0.0127284	0.0176173	0.0618924	0.0496715	0.0191376	0.0844478	0.0851796	0.0854608	0.0174506	0.0115383	0.0156694	0.0396036	0.0409892	0.0106859	0	0.0303959	0.0159702	0.0239942	0.0345249	1.5633e-05	0.0195548	0.0380298	0.0144204	0.0143157	0.0139988	0.00521599	0.0276373	0.00369923	0.00372126	1.75127e-10	0.00410384	0.0191412	0.0298283	0.0205585	0.0637196	0.0472403	0.0617228	0.0445482	7.71874e-12	0.0073394	0.00975732	0.00701061	0.0184502	0	3.13601e-08	2.44766e-10	0.0168744	2.87416e-07	0.0271329	0.0480335	0.0843107	0.0833607	2.04598e-12	0.00250063	0.084642	0.0482386	0.0570245	0.0419777	0	0.00200643	0.0861508	0.0835845	0.00282026	1.77459e-05	0.00930567	
3.615	0.0142417	0	0.0216857	0.0207089	0.0281982	0	0.0140736	0.0218001	0.0228747	0.0230471	0.0383085	0.049138	0.00505577	0.0115353	0.00723561	0.013034	0.0179882	0.0633435	0.051941	0.019966	0.0845205	0.0852197	0.0854617	0.0184845	0.0109333	0.0156914	0.0396552	0.0441697	0.0101379	0	0.030961	0.0178526	0.0258778	0.0347526	2.83298e-06	0.0194173	0.0380804	0.0136026	0.0135839	0.0132431	0.00482255	0.0304938	0.00269196	0.00220794	3.474e-06	0.00406529	0.0193747	0.0300539	0.0222702	0.0687651	0.0460788	0.0594378	0.0414892	7.7089e-12	0.00659461	0.00910939	0.00687752	0.0183012	0.000119076	5.79299e-10	2.89126e-10	0.0163538	1.14966e-07	0.0267168	0.0470268	0.0835267	0.0832908	2.97335e-12	0.00248647	0.0846307	0.0480991	0.0567512	0.041988	0	0.00277501	0.0861233	0.0834983	0.00203746	0	0.0082869	
3.62	0.0134073	0	0.0219658	0.0210526	0.0282504	0	0.0155673	0.0236936	0.0227719	0.0229354	0.0383388	0.0492116	0.00639126	0.0132279	0.00749282	0.0133093	0.0182885	0.0649972	0.0543076	0.0207699	0.084595	0.0852629	0.0854444	0.0195779	0.0104302	0.0157108	0.0396998	0.0474269	0.00965252	2.61376e-05	0.0316744	0.0198942	0.0279518	0.0349505	0	0.019298	0.0381241	0.0127434	0.0128088	0.0124482	0.00457716	0.0334688	0.002063	0.00198794	0	0.00402746	0.0195511	0.0302293	0.0241541	0.0738403	0.0447819	0.0569427	0.0385131	7.68934e-12	0.00592876	0.00851144	0.006761	0.018046	0.000158057	0	3.1251e-10	0.0157748	1.88195e-08	0.0261238	0.0456906	0.082473	0.0832243	2.94993e-12	0.00247184	0.0846213	0.047894	0.0564626	0.0419966	2.31983e-22	0.00394239	0.0861205	0.0834163	0.00194032	0.000103932	0.00738609	
3.625	0.0126092	0	0.0221701	0.0213227	0.0281853	0	0.0171644	0.0259343	0.0226805	0.0228362	0.0383654	0.0492763	0.00708803	0.0150359	0.00773956	0.0135607	0.0185282	0.0668466	0.0567861	0.0215658	0.0846656	0.0853046	0.0854498	0.0207458	0.0100007	0.0157284	0.0397392	0.0507148	0.00921629	8.36749e-06	0.0325073	0.022163	0.0302046	0.0351262	0	0.0191912	0.0381626	0.0118721	0.0120178	0.0116409	0.00451457	0.0365036	0.00201436	0.00112406	0	0.00399256	0.0196879	0.0303645	0.0262086	0.0786555	0.0433603	0.0542623	0.035688	7.66403e-12	0.0053456	0.00797573	0.00666981	0.0176767	0	0	3.26291e-10	0.0151513	0	0.025411	0.0436138	0.0811471	0.0831623	2.28847e-12	0.00245706	0.0846116	0.0476309	0.0561649	0.0420055	1.55503e-22	0.00514316	0.0861948	0.0833407	0.00075419	0	0.0065865	
3.63	0.0118372	0	0.0223126	0.021533	0.0280257	0	0.0188554	0.0285342	0.0225962	0.0227445	0.0383895	0.0493349	0.00790862	0.0169548	0.00798076	0.0137955	0.0187202	0.0688561	0.0593558	0.0223847	0.0847261	0.0853401	0.0854507	0.0220055	0.00961939	0.015745	0.039775	0.0540097	0.00881573	0	0.0334279	0.0247685	0.0325905	0.0352872	0	0.0190916	0.0381977	0.0109828	0.01122	0.010829	0.00464252	0.0397943	0.00200494	1.98725e-05	1.32042e-07	0.0040117	0.0198054	0.0304706	0.0284065	0.0827897	0.0418293	0.0514314	0.0330149	7.63474e-12	0.00482681	0.0075112	0.00661163	0.0171916	0	0	3.34133e-10	0.0145004	0	0.0246232	0.0405806	0.0795583	0.0831061	2.02108e-12	0.00244245	0.0846009	0.0473641	0.0558691	0.0420254	6.14353e-23	0.00634895	0.0862221	0.083273	0	4.82104e-05	0.00588014	
3.635	0.0110814	0	0.0224117	0.0217004	0.0277998	0	0.020657	0.0314373	0.0225146	0.0226557	0.0384123	0.0493903	0.00904335	0.0189584	0.00822259	0.0140217	0.0188797	0.0709682	0.0619835	0.0232041	0.0847714	0.0853653	0.0854491	0.0233677	0.00926311	0.0157617	0.0398091	0.057307	0.00843506	0	0.0344051	0.0277555	0.0350543	0.0354413	0	0.0189937	0.0382309	0.00989492	0.0103472	0.0098571	0.00492597	0.0435402	0.00196042	0	1.87899e-05	0.00413579	0.0199262	0.0305587	0.0306997	0.0854363	0.0402063	0.0484905	0.0303659	7.60224e-12	0.00438314	0.00712242	0.00659334	0.0165963	0.000126863	3.31804e-10	3.36537e-10	0.0138279	0	0.02379	0.0366362	0.077722	0.0830565	1.99439e-12	0.00242828	0.0845868	0.0471142	0.0555975	0.0420678	6.85559e-24	0.00742383	0.0862115	0.0832139	0	0	0.00524746	
3.64	0.0103351	0	0.0224882	0.0218444	0.0275393	0	0.0226257	0.0344568	0.0224314	0.0225651	0.038435	0.0494453	0.0103495	0.0210611	0.00847186	0.0142499	0.0190236	0.0730994	0.0646385	0.0240508	0.0847966	0.0853766	0.0854441	0.0248327	0.0089072	0.0157792	0.0398431	0.0606011	0.00805717	0	0.0354171	0.031073	0.0376896	0.0355963	0	0.0188922	0.0382641	0.00866081	0.00923546	0.00871976	0.00532286	0.0478027	0.00195192	0.000410056	0	0.00437301	0.0200725	0.0306388	0.0330172	0.0858735	0.0384073	0.0454837	0.027471	7.56768e-12	0.00402774	0.00679989	0.00662185	0.0159083	0.000164214	6.14934e-10	3.33216e-10	0.0131326	0	0.0229328	0.0378754	0.0756582	0.0830146	1.97432e-12	0.00241488	0.0845673	0.0468761	0.0553647	0.0421419	0	0.00825331	0.0861859	0.0831605	1.28902e-07	1.25365e-05	0.00464768	
3.645	0.0095922	0	0.022565	0.0219859	0.0272784	1.93646e-09	0.0248096	0.0375496	0.0223424	0.0224682	0.0384587	0.0495026	0.0116981	0.0233303	0.00873569	0.0144896	0.0191699	0.0751616	0.0672897	0.0249366	0.0847975	0.0853708	0.0854337	0.0263946	0.0085265	0.0157984	0.0398787	0.0638873	0.00766429	0	0.0364465	0.0345817	0.0406904	0.0357598	0	0.0187821	0.0382989	0.0073231	0.00800924	0.00749074	0.00580377	0.0525758	0.00197668	0.000703465	0	0.00471754	0.0202659	0.0307192	0.0353014	0.0857048	0.0365288	0.0424605	0.02497	7.53132e-12	0.00375531	0.00655351	0.00670432	0.0151552	0	5.55919e-10	3.24126e-10	0.0124152	3.33736e-10	0.0220676	0.0378477	0.0734064	0.0829813	1.95193e-12	0.00240229	0.0845412	0.0466424	0.0551846	0.0422557	0	0.00877654	0.0861319	0.0831126	4.89092e-06	0	0.00410459	
