CEINMS output
datacolumns 7
datarows 92
endheader
time	addbrev_r	addlong_r	addmagDist_r	addmagIsch_r	addmagMid_r	addmagProx_r	bflh_r	bfsh_r	edl_r	ehl_r	fdl_r	fhl_r	gaslat_r	gasmed_r	glmax1_r	glmax2_r	glmax3_r	glmed1_r	glmed2_r	glmed3_r	glmin1_r	glmin2_r	glmin3_r	grac_r	iliacus_r	perbrev_r	perlong_r	piri_r	psoas_r	recfem_r	sart_r	semimem_r	semiten_r	soleus_r	tfl_r	tibant_r	tibpost_r	vasint_r	vaslat_r	vasmed_r	addbrev_l	addlong_l	addmagDist_l	addmagIsch_l	addmagMid_l	addmagProx_l	bflh_l	bfsh_l	edl_l	ehl_l	fdl_l	fhl_l	gaslat_l	gasmed_l	glmax1_l	glmax2_l	glmax3_l	glmed1_l	glmed2_l	glmed3_l	glmin1_l	glmin2_l	glmin3_l	grac_l	iliacus_l	perbrev_l	perlong_l	piri_l	psoas_l	recfem_l	sart_l	semimem_l	semiten_l	soleus_l	tfl_l	tibant_l	tibpost_l	vasint_l	vaslat_l	vasmed_l	
3.19	75811.9	16.5272	8.8756	100	1000	2500	
3.195	94660.5	10.9747	7.10629	100	1000	2500	
3.2	73459.6	4.4466	2.79621	100	1000	2500	
3.205	77514.3	7.66171	2.25981	100	1000	2500	
3.21	85255	7.62773	2.33773	100	1000	2500	
3.215	80049.5	7.16069	1.88618	100	1000	2500	
3.22	71519.7	6.33454	1.65129	100	1000	2500	
3.225	66570.8	6.12978	1.66863	100	1000	2500	
3.23	67255.7	6.15292	1.7517	100	1000	2500	
3.235	72861.6	7.23756	2.75615	100	1000	2500	
3.24	79773	7.03607	3.27444	100	1000	2500	
3.245	82349.2	6.96139	3.29551	100	1000	2500	
3.25	78491.2	7.1198	3.36919	100	1000	2500	
3.255	70700	7.15568	3.30775	100	1000	2500	
3.26	61139	7.14236	3.21518	100	1000	2500	
3.265	50804	7.1514	3.17013	100	1000	2500	
3.27	41390.7	7.11802	3.11488	100	1000	2500	
3.275	34755	7.09224	3.09251	100	1000	2500	
3.28	29635.7	7.08073	3.10039	100	1000	2500	
3.285	27614.9	7.06539	3.12181	100	1000	2500	
3.29	28519.7	7.11066	3.19918	100	1000	2500	
3.295	32494.8	9.09897	5.13932	100	1000	2500	
3.3	39165.9	9.3188	5.37703	100	1000	2500	
3.305	44877.3	8.88825	5.00382	100	1000	2500	
3.31	38566.6	8.08479	4.32327	100	1000	2500	
3.315	27425.4	7.8189	4.10879	100	1000	2500	
3.32	18082.2	7.16949	3.53566	100	1000	2500	
3.325	11624	6.15209	2.58423	100	1000	2500	
3.33	7615.17	5.1883	1.67317	100	1000	2500	
3.335	5179.35	5.16646	1.38723	100	1000	2500	
3.34	3732.78	4.91967	1.19544	100	1000	2500	
3.345	2870.15	5.61452	1.58678	100	1000	2500	
3.35	2527.29	5.78348	1.66545	100	1000	2500	
3.355	3090.38	6.14168	1.83673	100	1000	2500	
3.36	5157.84	6.06856	2.07273	100	1000	2500	
3.365	9185.26	5.84399	2.29999	100	1000	2500	
3.37	14994.5	6.25019	2.46438	100	1000	2500	
3.375	22517.1	6.27117	2.55298	100	1000	2500	
3.38	31522.1	6.10417	2.68139	100	1000	2500	
3.385	43050.1	6.15708	2.86003	100	1000	2500	
3.39	55666.5	6.79206	3.05913	100	1000	2500	
3.395	62628.9	6.81095	3.03213	100	1000	2500	
3.4	65462.5	5.4781	3.09262	100	1000	2500	
3.405	57967.4	5.31179	3.20331	100	1000	2500	
3.41	46617.1	6.22536	3.73158	100	1000	2500	
3.415	37808.8	8.91831	6.28019	100	1000	2500	
3.42	31267.7	9.61809	6.35416	100	1000	2500	
3.425	25768.6	8.80486	6.21228	100	1000	2500	
3.43	22110.2	8.8439	5.89552	100	1000	2500	
3.435	19610.8	8.83437	5.49376	100	1000	2500	
3.44	17599.6	9.14909	4.68495	100	1000	2500	
3.445	15289.6	9.35132	4.0981	100	1000	2500	
3.45	12700.1	9.58846	3.70308	100	1000	2500	
3.455	10729.3	9.64622	3.46845	100	1000	2500	
3.46	9710.9	8.12223	2.82358	100	1000	2500	
3.465	8490.76	7.51367	2.79497	100	1000	2500	
3.47	6986.94	7.33975	2.73938	100	1000	2500	
3.475	5114.44	7.37846	2.75904	100	1000	2500	
3.48	836.601	7.30892	2.49573	100	1000	2500	
3.485	317.756	5.73314	2.19673	100	1000	2500	
3.49	96.2699	5.74264	1.24349	100	1000	2500	
3.495	80.5334	5.82925	0.966857	100	1000	2500	
3.5	271.506	7.06984	1.29848	100	1000	2500	
3.505	1044.26	9.24763	2.33988	100	1000	2500	
3.51	2901.48	10.3446	2.81166	100	1000	2500	
3.515	6130.21	11.8246	3.08318	100	1000	2500	
3.52	9741.4	13.1165	3.36782	100	1000	2500	
3.525	12326	13.2297	3.46893	100	1000	2500	
3.53	13067.9	13.0797	3.48307	100	1000	2500	
3.535	12546	12.5067	3.3425	100	1000	2500	
3.54	12106.8	11.7836	3.21215	100	1000	2500	
3.545	12739.8	9.48672	1.5427	100	1000	2500	
3.55	14443	8.10089	1.29433	100	1000	2500	
3.555	16188.8	7.42834	1.25631	100	1000	2500	
3.56	17851	6.78021	1.42085	100	1000	2500	
3.565	19025.1	6.54907	1.2677	100	1000	2500	
3.57	19466.3	6.43529	1.18859	100	1000	2500	
3.575	19124.3	6.16066	1.14646	100	1000	2500	
3.58	18331.5	5.90347	1.12868	100	1000	2500	
3.585	17502.1	6.67955	1.11231	100	1000	2500	
3.59	16907.7	6.79603	1.04081	100	1000	2500	
3.595	16864	6.60058	0.93674	100	1000	2500	
3.6	17597.2	6.34519	0.911581	100	1000	2500	
3.605	18982.7	6.16564	0.948981	100	1000	2500	
3.61	20367.6	6.04661	1.14042	100	1000	2500	
3.615	23647.4	5.77834	1.12802	100	1000	2500	
3.62	30360.6	5.61088	1.2504	100	1000	2500	
3.625	40582	5.74087	1.65923	100	1000	2500	
3.63	54061.2	5.63052	1.82071	100	1000	2500	
3.635	70549.9	5.53289	1.96903	100	1000	2500	
3.64	84114.1	6.0771	1.93386	100	1000	2500	
3.645	105772	5.58508	2.48079	100	1000	2500	
