CEINMS output
datacolumns 7
datarows 645
endheader
time	addbrev_r	addlong_r	addmagDist_r	addmagIsch_r	addmagMid_r	addmagProx_r	bflh_r	bfsh_r	edl_r	ehl_r	fdl_r	fhl_r	gaslat_r	gasmed_r	glmax1_r	glmax2_r	glmax3_r	glmed1_r	glmed2_r	glmed3_r	glmin1_r	glmin2_r	glmin3_r	grac_r	iliacus_r	perbrev_r	perlong_r	piri_r	psoas_r	recfem_r	sart_r	semimem_r	semiten_r	soleus_r	tfl_r	tibant_r	tibpost_r	vasint_r	vaslat_r	vasmed_r	addbrev_l	addlong_l	addmagDist_l	addmagIsch_l	addmagMid_l	addmagProx_l	bflh_l	bfsh_l	edl_l	ehl_l	fdl_l	fhl_l	gaslat_l	gasmed_l	glmax1_l	glmax2_l	glmax3_l	glmed1_l	glmed2_l	glmed3_l	glmin1_l	glmin2_l	glmin3_l	grac_l	iliacus_l	perbrev_l	perlong_l	piri_l	psoas_l	recfem_l	sart_l	semimem_l	semiten_l	soleus_l	tfl_l	tibant_l	tibpost_l	vasint_l	vaslat_l	vasmed_l	
0.015	2442.67	6.33307	0.846796	10	1	500	
0.015	2353.81	4.21572	0.0424272	10	1	500	
0.015	2273.87	5.16544	0.175416	10	1	500	
0.02	2201.27	2.36752	0.0667663	10	1	500	
0.025	2116.93	4.13497	0.110034	10	1	500	
0.03	2068	3.9536	0.0639348	10	1	500	
0.035	2043.75	4.02298	0.0358471	10	1	500	
0.04	2024.21	3.69589	0.0432817	10	1	500	
0.045	2006.16	3.6146	0.0478687	10	1	500	
0.05	1989.51	3.49217	0.0420741	10	1	500	
0.055	1975.36	3.49345	0.0401518	10	1	500	
0.06	1962.73	3.49302	0.0406475	10	1	500	
0.065	1951.07	3.56753	0.0405524	10	1	500	
0.07	1941.5	3.47115	0.0398092	10	1	500	
0.075	1934.2	3.45655	0.0393353	10	1	500	
0.08	1928.83	3.46007	0.0390894	10	1	500	
0.085	1924.21	3.46034	0.0391669	10	1	500	
0.09	1919.62	3.4954	0.0391215	10	1	500	
0.095	1914.61	3.50009	0.0391169	10	1	500	
0.1	1909.26	3.50102	0.0391644	10	1	500	
0.105	1904.15	3.6835	0.0392092	10	1	500	
0.11	1900.03	3.51045	0.0393916	10	1	500	
0.115	1896.74	3.5682	0.0396703	10	1	500	
0.12	1894.1	3.66129	0.0396947	10	1	500	
0.125	1892.43	3.61375	0.0396653	10	1	500	
0.13	1891.47	3.61392	0.0397539	10	1	500	
0.135	1891.31	3.61499	0.0399765	10	1	500	
0.14	1890.73	3.73088	0.0396328	10	1	500	
0.145	1889.35	3.72958	0.0389444	10	1	500	
0.15	1887.4	3.72874	0.0382027	10	1	500	
0.155	1885.81	3.72853	0.0378914	10	1	500	
0.16	1884.34	3.72792	0.0375195	10	1	500	
0.165	1883.04	3.81812	0.0372545	10	1	500	
0.17	1881.01	3.81766	0.0366881	10	1	500	
0.175	1877.61	3.7468	0.0362076	10	1	500	
0.18	1873.17	3.85172	0.0356663	10	1	500	
0.185	1868.86	3.8538	0.0354562	10	1	500	
0.19	1865.93	3.98145	0.0355155	10	1	500	
0.195	1864.25	3.98165	0.0354857	10	1	500	
0.2	1863.13	3.98161	0.035704	10	1	500	
0.205	1862.06	3.98121	0.036193	10	1	500	
0.21	1861.31	3.87695	0.03683	10	1	500	
0.215	1861.77	3.89076	0.0376551	10	1	500	
0.22	1864.25	3.89275	0.0381008	10	1	500	
0.225	1868.26	3.89235	0.038096	10	1	500	
0.23	1873.18	3.89288	0.0379141	10	1	500	
0.235	1878.43	3.89152	0.0377451	10	1	500	
0.24	1882.54	3.8915	0.0376639	10	1	500	
0.245	1884.96	3.89195	0.0374576	10	1	500	
0.25	1885.64	3.89153	0.0371144	10	1	500	
0.255	1885.87	3.89217	0.0375274	10	1	500	
0.26	1885.73	3.89098	0.0368803	10	1	500	
0.265	1886.31	3.89148	0.0373483	10	1	500	
0.27	1888.35	3.89071	0.0378392	10	1	500	
0.275	1890.63	3.87595	0.037119	10	1	500	
0.28	1892.48	3.8745	0.037948	10	1	500	
0.285	1892.47	3.80938	0.0375052	10	1	500	
0.29	1891.72	3.8104	0.0384515	10	1	500	
0.295	1891.42	3.80933	0.0383791	10	1	500	
0.3	1893.18	3.81054	0.0394339	10	1	500	
0.305	1896.88	3.75761	0.0405036	10	1	500	
0.31	1901.76	3.7584	0.0411557	10	1	500	
0.315	1907.24	3.75881	0.0416333	10	1	500	
0.32	1912.73	3.75867	0.0418528	10	1	500	
0.325	1918.54	3.75848	0.0419834	10	1	500	
0.33	1925.48	3.75783	0.0421357	10	1	500	
0.335	1933.82	3.66403	0.0421157	10	1	500	
0.34	1942.97	3.66435	0.041827	10	1	500	
0.345	1952.59	3.66457	0.041344	10	1	500	
0.35	1961.62	3.66501	0.0410834	10	1	500	
0.355	1969.22	3.66589	0.0410186	10	1	500	
0.36	1975.02	3.77057	0.0410132	10	1	500	
0.365	1978.13	3.77171	0.0413602	10	1	500	
0.37	1978.43	3.85422	0.0414737	10	1	500	
0.375	1977.49	3.85515	0.0417226	10	1	500	
0.38	1976.12	3.85581	0.0417144	10	1	500	
0.385	1974.31	3.8567	0.0417731	10	1	500	
0.39	1972.23	4.04651	0.0420885	10	1	500	
0.395	1970.27	3.97091	0.0421893	10	1	500	
0.4	1968.98	3.971	0.0420965	10	1	500	
0.405	1968.26	3.97265	0.0414028	10	1	500	
0.41	1967.6	3.97509	0.0402409	10	1	500	
0.415	1966.79	4.08078	0.039596	10	1	500	
0.42	1965.05	4.08165	0.0391299	10	1	500	
0.425	1963.2	4.08125	0.0389038	10	1	500	
0.43	1962.45	3.99755	0.0387046	10	1	500	
0.435	1964.04	4.00506	0.0384192	10	1	500	
0.44	1968.77	4.02365	0.0381176	10	1	500	
0.445	1976.83	4.02586	0.0386034	10	1	500	
0.45	1987.48	4.03505	0.0391449	10	1	500	
0.455	1999.53	4.03434	0.0397834	10	1	500	
0.46	2011.61	4.04587	0.0403394	10	1	500	
0.465	2022.95	4.04249	0.0405987	10	1	500	
0.47	2033.76	4.04391	0.0411228	10	1	500	
0.475	2044.2	4.04982	0.0417759	10	1	500	
0.48	2054.48	4.04845	0.0424361	10	1	500	
0.485	2064.46	4.04839	0.043054	10	1	500	
0.49	2073.77	4.04891	0.0436047	10	1	500	
0.495	2082.99	4.0512	0.044209	10	1	500	
0.5	2092.77	4.05304	0.044539	10	1	500	
0.505	2103.57	4.12146	0.0452238	10	1	500	
0.51	2115.54	4.12604	0.0463693	10	1	500	
0.515	2127.66	4.13095	0.0478721	10	1	500	
0.52	2140.07	4.13684	0.0495662	10	1	500	
0.525	2153.46	4.14513	0.0511826	10	1	500	
0.53	2167.7	4.15593	0.0526226	10	1	500	
0.535	2182.41	4.16678	0.0541447	10	1	500	
0.54	2196.58	4.17675	0.0599529	10	1	500	
0.545	2209.44	4.17517	0.062686	10	1	500	
0.55	2221.17	4.13327	0.0638164	10	1	500	
0.555	2230.8	4.14369	0.066827	10	1	500	
0.56	2236.96	4.12732	0.0710368	10	1	500	
0.565	2239.19	4.12893	0.0754914	10	1	500	
0.57	2237.6	4.12772	0.0800643	10	1	500	
0.575	2231.78	4.12868	0.0838892	10	1	500	
0.58	2220.84	4.12836	0.086794	10	1	500	
0.585	2204.2	4.12489	0.0891998	10	1	500	
0.59	2181.58	4.11914	0.090762	10	1	500	
0.595	2152.65	4.11113	0.0912976	10	1	500	
0.6	2117.78	3.77123	0.0912377	10	1	500	
0.605	2078.31	3.6059	0.0909632	10	1	500	
0.61	2035.93	3.42718	0.0902533	10	1	500	
0.615	1991.48	3.33102	0.0896072	10	1	500	
0.62	1945.78	3.28327	0.0909316	10	1	500	
0.625	1898.73	3.21161	0.0912855	10	1	500	
0.63	1851.34	3.15815	0.0906921	10	1	500	
0.635	1799.7	4.13912	0.0948304	10	1	500	
0.64	1748.43	2.22428	0.107849	10	1	500	
0.645	1697.33	2.89687	0.10974	10	1	500	
0.65	1646.72	3.13138	0.101293	10	1	500	
0.655	1596.81	3.13968	0.0973115	10	1	500	
0.66	1546.63	2.84527	0.0961421	10	1	500	
0.665	1495.7	2.87634	0.0966535	10	1	500	
0.67	1444.42	3.06452	0.0946974	10	1	500	
0.675	1393.38	2.91282	0.0935322	10	1	500	
0.68	1343.13	2.98428	0.0899548	10	1	500	
0.685	1295.04	3.02266	0.0860768	10	1	500	
0.69	1250.15	3.11561	0.0822523	10	1	500	
0.695	1210.32	3.43675	0.0783396	10	1	500	
0.7	1173.71	2.90921	0.0777407	10	1	500	
0.705	1142.95	2.86553	0.0796718	10	1	500	
0.71	1118.64	2.32393	0.0807438	10	1	500	
0.715	1107.83	1.99646	0.0855526	10	1	500	
0.72	1083.11	2.43405	0.0830063	10	1	500	
0.725	1110.88	2.35844	0.0836501	10	1	500	
0.73	1125.15	2.53572	0.0844775	10	1	500	
0.735	1146.95	2.41547	0.0838544	10	1	500	
0.74	1139.33	3.20452	0.0821089	10	1	500	
0.745	1107.95	2.8804	0.0756282	10	1	500	
0.75	1140.96	3.40326	0.0755711	10	1	500	
0.755	1157.66	3.32477	0.0644423	10	1	500	
0.76	1182.78	2.69609	0.0634874	10	1	500	
0.765	1204.04	2.38544	0.061773	10	1	500	
0.77	1220.86	2.32916	0.0625327	10	1	500	
0.775	1234.7	2.47531	0.0645888	10	1	500	
0.78	1244.69	2.43746	0.0663288	10	1	500	
0.785	1249.49	2.34057	0.0680258	10	1	500	
0.79	1248.55	2.33595	0.0688773	10	1	500	
0.795	1242.57	2.28488	0.0700354	10	1	500	
0.8	1233	2.31493	0.0732443	10	1	500	
0.805	1221.87	2.32323	0.0771631	10	1	500	
0.81	1211.39	2.35679	0.0823978	10	1	500	
0.815	1202.8	2.37265	0.0890252	10	1	500	
0.82	1196.01	2.39867	0.0966444	10	1	500	
0.825	1190.37	2.41874	0.104718	10	1	500	
0.83	1184.79	2.44051	0.111923	10	1	500	
0.835	1178.5	2.45539	0.118585	10	1	500	
0.84	1171.54	2.46543	0.124849	10	1	500	
0.845	1164.44	2.47156	0.130426	10	1	500	
0.85	1158	2.47796	0.135368	10	1	500	
0.855	1153.88	2.48881	0.139954	10	1	500	
0.86	1153.43	2.50264	0.145132	10	1	500	
0.865	1157.25	2.52569	0.150552	10	1	500	
0.87	1165.08	2.55464	0.155688	10	1	500	
0.875	1175.79	3.18071	0.158603	10	1	500	
0.88	1186.67	3.18418	0.158298	10	1	500	
0.885	1196.89	3.22312	0.15491	10	1	500	
0.89	1205.12	3.22674	0.148595	10	1	500	
0.895	1210.23	3.23617	0.140609	10	1	500	
0.9	1211.53	3.22445	0.132838	10	1	500	
0.905	1209.16	3.20784	0.126625	10	1	500	
0.91	1203.89	3.18932	0.123143	10	1	500	
0.915	1196.93	3.17397	0.122722	10	1	500	
0.92	1190.94	3.29884	0.126149	10	1	500	
0.925	1189.25	3.2932	0.132943	10	1	500	
0.93	1193.96	3.45315	0.140933	10	1	500	
0.935	1206.18	3.46677	0.148422	10	1	500	
0.94	1226.29	3.49036	0.157193	10	1	500	
0.945	1254.28	3.63118	0.16634	10	1	500	
0.95	1289.62	3.65031	0.175628	10	1	500	
0.955	1330.88	3.66097	0.184465	10	1	500	
0.96	1376.15	3.74723	0.191986	10	1	500	
0.965	1424.15	3.76874	0.198641	10	1	500	
0.97	1475.21	3.79853	0.204858	10	1	500	
0.975	1529.86	3.83271	0.209092	10	1	500	
0.98	1587.66	3.86469	0.208943	10	1	500	
0.985	1646.8	3.88309	0.205509	10	1	500	
0.99	1704.64	3.95731	0.19871	10	1	500	
0.995	1759.08	3.93338	0.190945	10	1	500	
1	1809.64	3.97166	0.186027	10	1	500	
1.005	1857.49	3.96224	0.185796	10	1	500	
1.01	1904.76	3.98305	0.190651	10	1	500	
1.015	1953.6	3.98727	0.199797	10	1	500	
1.02	2005.32	4.02774	0.21118	10	1	500	
1.025	2058.69	4.05665	0.220251	10	1	500	
1.03	2110.77	3.90828	0.223818	10	1	500	
1.035	2158.57	3.67047	0.223846	10	1	500	
1.04	2200.65	3.97114	0.222425	10	1	500	
1.045	2237.38	3.93756	0.220909	10	1	500	
1.05	2270.7	4.09953	0.220671	10	1	500	
1.055	2303.24	4.11826	0.221997	10	1	500	
1.06	2337.55	4.26917	0.224973	10	1	500	
1.065	2376	4.3404	0.228553	10	1	500	
1.07	2419.66	4.46312	0.230938	10	1	500	
1.075	2466.53	4.57856	0.229796	10	1	500	
1.08	2512.29	4.70799	0.223767	10	1	500	
1.085	2552.82	4.78463	0.215296	10	1	500	
1.09	2585.87	4.83043	0.206011	10	1	500	
1.095	2611.49	4.79877	0.19888	10	1	500	
1.1	2630.94	4.76973	0.194902	10	1	500	
1.105	2646.27	4.57305	0.193335	10	1	500	
1.11	2660.93	4.61477	0.1952	10	1	500	
1.115	2679.23	4.52038	0.200594	10	1	500	
1.12	2703.37	4.26876	0.206719	10	1	500	
1.125	2732.47	4.19845	0.211201	10	1	500	
1.13	2763.62	4.2889	0.213133	10	1	500	
1.135	2794.5	4.07658	0.214009	10	1	500	
1.14	2823.75	4.12243	0.214287	10	1	500	
1.145	2851.61	4.24179	0.214172	10	1	500	
1.15	2878.27	4.41169	0.205501	10	1	500	
1.155	2904.41	4.52388	0.20738	10	1	500	
1.16	2932.35	4.77575	0.209647	10	1	500	
1.165	2963.6	4.79661	0.20948	10	1	500	
1.17	2997.93	5.42786	0.208501	10	1	500	
1.175	3034.18	5.43255	0.205741	10	1	500	
1.18	3071.55	5.65191	0.202866	10	1	500	
1.185	3108.82	5.66176	0.199203	10	1	500	
1.19	3145.07	6.01245	0.195078	10	1	500	
1.195	3179.87	6.10202	0.190182	10	1	500	
1.2	3212.87	6.52065	0.185698	10	1	500	
1.205	3244.92	6.6256	0.181785	10	1	500	
1.21	3278.36	6.8783	0.179566	10	1	500	
1.215	3316.05	7.08436	0.178673	10	1	500	
1.22	3359.45	7.49212	0.179148	10	1	500	
1.225	3409.49	7.59055	0.180823	10	1	500	
1.23	3465.48	7.60143	0.182756	10	1	500	
1.235	3524.56	7.55539	0.184835	10	1	500	
1.24	3583.43	7.47183	0.18732	10	1	500	
1.245	3640.27	7.46738	0.191361	10	1	500	
1.25	3695.85	7.39052	0.196994	10	1	500	
1.255	3751	7.41507	0.204023	10	1	500	
1.26	3806.64	7.3908	0.211897	10	1	500	
1.265	3863.85	6.44384	0.212156	10	1	500	
1.27	3921.65	6.90005	0.212499	10	1	500	
1.275	3978.49	6.70462	0.212193	10	1	500	
1.28	4032.88	6.59256	0.209266	10	1	500	
1.285	4089.08	6.6049	0.210001	10	1	500	
1.29	4149.46	6.89227	0.211729	10	1	500	
1.295	4212.52	6.61587	0.215373	10	1	500	
1.3	4277.83	7.06251	0.219703	10	1	500	
1.305	4350.24	7.16541	0.223564	10	1	500	
1.31	4427.39	7.16533	0.228842	10	1	500	
1.315	4507.05	7.17529	0.236871	10	1	500	
1.32	4585.72	7.23	0.243869	10	1	500	
1.325	4663.22	7.23716	0.251028	10	1	500	
1.33	4742.24	7.24716	0.261017	10	1	500	
1.335	4819.96	7.25698	0.271959	10	1	500	
1.34	4890.53	6.89932	0.2808	10	1	500	
1.345	4958.23	7.14824	0.288885	10	1	500	
1.35	5021.55	6.97048	0.295413	10	1	500	
1.355	5078.92	6.35918	0.298449	10	1	500	
1.36	5129.21	6.4684	0.296803	10	1	500	
1.365	5172.77	6.46353	0.294272	10	1	500	
1.37	5211.46	6.28888	0.292833	10	1	500	
1.375	5248.03	6.08946	0.293218	10	1	500	
1.38	5286.03	6.09061	0.294331	10	1	500	
1.385	5329.98	5.64142	0.295648	10	1	500	
1.39	5381.27	5.71839	0.298496	10	1	500	
1.395	5440.77	5.73589	0.302092	10	1	500	
1.4	5506.77	5.71084	0.307286	10	1	500	
1.405	5576.33	5.80026	0.313199	10	1	500	
1.41	5648.07	5.76691	0.317081	10	1	500	
1.415	5718.99	5.85416	0.319089	10	1	500	
1.42	5788.78	5.932	0.32126	10	1	500	
1.425	5855.22	6.07217	0.321116	10	1	500	
1.43	5915.76	6.28638	0.319449	10	1	500	
1.435	5968.79	6.31173	0.317965	10	1	500	
1.44	6011.64	6.31017	0.316516	10	1	500	
1.445	6042.63	6.31775	0.313538	10	1	500	
1.45	6066.31	6.31417	0.310215	10	1	500	
1.455	6086.64	6.34384	0.307413	10	1	500	
1.46	6097.08	6.37451	0.301922	10	1	500	
1.465	6107.26	6.36929	0.297251	10	1	500	
1.47	6117.85	6.36448	0.292296	10	1	500	
1.475	6126.76	6.45167	0.28582	10	1	500	
1.48	6133.02	6.44311	0.27854	10	1	500	
1.485	6137.63	6.43457	0.271322	10	1	500	
1.49	6141.85	6.42649	0.265157	10	1	500	
1.495	6145.86	6.48114	0.259325	10	1	500	
1.5	6154.27	6.50729	0.253735	10	1	500	
1.505	6171.71	6.63331	0.251115	10	1	500	
1.51	6193.19	6.62759	0.246042	10	1	500	
1.515	6215.88	6.71208	0.241139	10	1	500	
1.52	6236.86	6.70611	0.237102	10	1	500	
1.525	6254.87	6.70092	0.233475	10	1	500	
1.53	6266.11	6.67399	0.228665	10	1	500	
1.535	6271.22	6.64768	0.223631	10	1	500	
1.54	6271.65	7.04528	0.219456	10	1	500	
1.545	6266.99	7.00479	0.21597	10	1	500	
1.55	6256.98	6.97957	0.213012	10	1	500	
1.555	6240.83	6.96904	0.209618	10	1	500	
1.56	6215.24	7.06176	0.205237	10	1	500	
1.565	6200.73	7.00936	0.200352	10	1	500	
1.57	6180.7	6.73311	0.19603	10	1	500	
1.575	6174.55	6.53701	0.193247	10	1	500	
1.58	6167.65	6.9737	0.191798	10	1	500	
1.585	6160.49	6.90412	0.190032	10	1	500	
1.59	6153.34	6.79289	0.18863	10	1	500	
1.595	6138.02	6.37254	0.181629	10	1	500	
1.6	6128.32	6.32635	0.178712	10	1	500	
1.605	6121.61	6.29613	0.174519	10	1	500	
1.61	6117.93	6.5305	0.169507	10	1	500	
1.615	6121.19	6.73815	0.166149	10	1	500	
1.62	6126.75	6.86511	0.161227	10	1	500	
1.625	6133.09	6.78806	0.157494	10	1	500	
1.63	6141.18	6.13962	0.156664	10	1	500	
1.635	6150.47	6.01924	0.154105	10	1	500	
1.64	6157.95	6.38361	0.149358	10	1	500	
1.645	6161.92	6.50499	0.143757	10	1	500	
1.65	6161.25	6.4003	0.138217	10	1	500	
1.655	6165.13	6.25762	0.133663	10	1	500	
1.66	6162.66	6.50445	0.127166	10	1	500	
1.665	6154.93	6.50701	0.119384	10	1	500	
1.67	6149.5	6.58905	0.113231	10	1	500	
1.675	6149.76	6.57199	0.10849	10	1	500	
1.68	6156.42	6.2411	0.105313	10	1	500	
1.685	6172.59	5.28312	0.103303	10	1	500	
1.69	6198.13	6.17714	0.103538	10	1	500	
1.695	6232.72	6.14196	0.102519	10	1	500	
1.7	6262.74	5.88069	0.0998148	10	1	500	
1.705	6290.99	5.69428	0.0972643	10	1	500	
1.71	6323.95	5.73426	0.0969599	10	1	500	
1.715	6361.52	5.75843	0.0976265	10	1	500	
1.72	6401.58	5.01136	0.0984253	10	1	500	
1.725	6443.33	5.14596	0.098183	10	1	500	
1.73	6487.3	5.46236	0.0978494	10	1	500	
1.735	6541.9	5.04608	0.0986493	10	1	500	
1.74	6594.73	5.32339	0.0982252	10	1	500	
1.745	6646.53	5.08659	0.0968583	10	1	500	
1.75	6705.95	4.99527	0.0969525	10	1	500	
1.755	6765.39	4.93683	0.0960488	10	1	500	
1.76	6822.67	4.9322	0.0946568	10	1	500	
1.765	6881.38	4.72679	0.0943478	10	1	500	
1.77	6944.3	4.89398	0.0954284	10	1	500	
1.775	7015.38	5.08009	0.0938793	10	1	500	
1.78	7097.74	4.56875	0.0936551	10	1	500	
1.785	7181.05	4.65167	0.0931386	10	1	500	
1.79	7264.51	4.6138	0.0924873	10	1	500	
1.795	7352.17	4.51303	0.092434	10	1	500	
1.8	7444.04	4.54856	0.0925642	10	1	500	
1.805	7542.2	4.37189	0.0929386	10	1	500	
1.81	7647.42	4.49023	0.0940241	10	1	500	
1.815	7752.5	4.58809	0.0945253	10	1	500	
1.82	7857.24	4.55018	0.0952568	10	1	500	
1.825	7950.58	4.68719	0.0951839	10	1	500	
1.83	8041.96	4.49197	0.0960307	10	1	500	
1.835	8134.89	4.45881	0.0972577	10	1	500	
1.84	8229.62	4.3222	0.0988812	10	1	500	
1.845	8323.76	4.32094	0.0998904	10	1	500	
1.85	8418.06	4.21809	0.0999597	10	1	500	
1.855	8513.5	4.26156	0.100163	10	1	500	
1.86	8607.34	4.15303	0.100112	10	1	500	
1.865	8695.38	4.12211	0.0994214	10	1	500	
1.87	8773.19	4.30236	0.0988094	10	1	500	
1.875	8845.55	4.19145	0.0981649	10	1	500	
1.88	8913.58	4.03926	0.0972933	10	1	500	
1.885	8981.29	4.11768	0.0969271	10	1	500	
1.89	9050.21	4.18766	0.0961724	10	1	500	
1.895	9123.15	4.02939	0.0947302	10	1	500	
1.9	9202.48	4.06592	0.0939367	10	1	500	
1.905	9284.71	4.08761	0.0928966	10	1	500	
1.91	9366.99	4.07501	0.0915018	10	1	500	
1.915	9445.86	4.10086	0.0896766	10	1	500	
1.92	9528.26	4.11257	0.088721	10	1	500	
1.925	9598.25	4.20406	0.0865951	10	1	500	
1.93	9661.6	4.13562	0.08422	10	1	500	
1.935	9728.42	4.06135	0.0820126	10	1	500	
1.94	9800.48	4.07309	0.0800773	10	1	500	
1.945	9876.99	4.23227	0.0776715	10	1	500	
1.95	9956.51	4.082	0.0757656	10	1	500	
1.955	10040.7	4.11137	0.0740731	10	1	500	
1.96	10131.8	4.03726	0.0726736	10	1	500	
1.965	10233.1	4.00956	0.0717758	10	1	500	
1.97	10337.9	4.0522	0.0705474	10	1	500	
1.975	10440.5	4.4273	0.0694545	10	1	500	
1.98	10521.7	6.5161	0.0686066	10	1	500	
1.985	10582.3	6.64243	0.0683385	10	1	500	
1.99	10636.6	7.27446	0.0691113	10	1	500	
1.995	10687.1	6.28579	0.0705555	10	1	500	
2	10738.4	6.29112	0.071574	10	1	500	
2.005	10788.9	6.26347	0.0717545	10	1	500	
2.01	10836.5	6.45891	0.0717281	10	1	500	
2.015	10874.8	6.4095	0.0713708	10	1	500	
2.02	10903.3	6.37833	0.0709428	10	1	500	
2.025	10922.6	6.28563	0.0707205	10	1	500	
2.03	10930.1	6.17193	0.0704151	10	1	500	
2.035	10937	6.05461	0.0715492	10	1	500	
2.04	10931	6.47025	0.0708723	10	1	500	
2.045	10919.2	6.44195	0.0694767	10	1	500	
2.05	10913.2	6.46661	0.0688538	10	1	500	
2.055	10912.5	5.89088	0.0682227	10	1	500	
2.06	10916.7	6.14506	0.070765	10	1	500	
2.065	10928.4	6.42568	0.0701039	10	1	500	
2.07	10950.3	6.47997	0.0691806	10	1	500	
2.075	10982.3	6.27531	0.0682434	10	1	500	
2.08	11024.2	6.34667	0.0673543	10	1	500	
2.085	11076.1	6.34654	0.0662312	10	1	500	
2.09	11136.9	6.64806	0.0648071	10	1	500	
2.095	11204.5	6.69596	0.0634075	10	1	500	
2.1	11280	6.70457	0.0623014	10	1	500	
2.105	11359.3	7.04166	0.061415	10	1	500	
2.11	11433.3	6.6865	0.0607166	10	1	500	
2.115	11496.6	7.0863	0.0602568	10	1	500	
2.12	11500.6	7.94898	0.0591655	10	1	500	
2.125	11458.5	8.23106	0.0589029	10	1	500	
2.13	11434.3	7.94596	0.0619889	10	1	500	
2.135	11434.8	8.39538	0.066019	10	1	500	
2.14	11459.1	8.20943	0.0672045	10	1	500	
2.145	11497.7	8.47033	0.0672259	10	1	500	
2.15	11550	8.47005	0.0672064	10	1	500	
2.155	11614.8	9.04265	0.067081	10	1	500	
2.16	11690	8.76809	0.0673722	10	1	500	
2.165	11773.1	9.37909	0.0675385	10	1	500	
2.17	11862.6	9.41686	0.0682953	10	1	500	
2.175	11959.3	9.75649	0.0696876	10	1	500	
2.18	12063.8	9.75687	0.0717986	10	1	500	
2.185	12176.4	9.79732	0.0754413	10	1	500	
2.19	12293.4	9.85315	0.0815747	10	1	500	
2.195	12414.2	9.9003	0.0902839	10	1	500	
2.2	12539.5	9.95765	0.101896	10	1	500	
2.205	12666	10.0371	0.116356	10	1	500	
2.21	12788.9	10.1442	0.133373	10	1	500	
2.215	12901.8	10.271	0.153519	10	1	500	
2.22	12999.3	9.73183	0.1738	10	1	500	
2.225	13081.9	10.433	0.194619	10	1	500	
2.23	13152.7	10.2334	0.218673	10	1	500	
2.235	13210.4	9.38518	0.241497	10	1	500	
2.24	13249.2	8.61577	0.260346	10	1	500	
2.245	13264.3	8.53746	0.272533	10	1	500	
2.25	13256.8	8.63283	0.286796	10	1	500	
2.255	13226.5	8.59629	0.305426	10	1	500	
2.26	13172.2	7.87013	0.324745	10	1	500	
2.265	13088.9	8.50661	0.339767	10	1	500	
2.27	12981.7	9.0998	0.356224	10	1	500	
2.275	12859.2	8.49796	0.374053	10	1	500	
2.28	12726.3	8.58388	0.390608	10	1	500	
2.285	12586.1	8.25144	0.404257	10	1	500	
2.29	12437.4	8.52338	0.419047	10	1	500	
2.295	12277.1	8.4046	0.434726	10	1	500	
2.3	12103.1	8.43958	0.452371	10	1	500	
2.305	11915	8.42138	0.471983	10	1	500	
2.31	11744.6	7.14411	0.500755	10	1	500	
2.315	11578.4	7.03325	0.474512	10	1	500	
2.32	11461.1	7.10524	0.495443	10	1	500	
2.325	11353.4	7.22694	0.530208	10	1	500	
2.33	11257.5	7.23695	0.569125	10	1	500	
2.335	11181.5	7.19461	0.608912	10	1	500	
2.34	11130.3	7.25517	0.649466	10	1	500	
2.345	11103.5	7.32303	0.69106	10	1	500	
2.35	11095	7.37471	0.73265	10	1	500	
2.355	11099.3	7.42257	0.772424	10	1	500	
2.36	11110.2	7.46591	0.810426	10	1	500	
2.365	11119.8	7.49483	0.865023	10	1	500	
2.37	11116.6	7.59249	0.927522	10	1	500	
2.375	11096.8	7.60546	0.98219	10	1	500	
2.38	11061.4	7.69278	1.03294	10	1	500	
2.385	11011.5	7.74661	1.12102	10	1	500	
2.39	10945.9	7.85167	1.21069	10	1	500	
2.395	10870.7	8.11565	1.28444	10	1	500	
2.4	10794.7	8.12299	1.33519	10	1	500	
2.405	10725	8.38119	1.38373	10	1	500	
2.41	10662	7.62668	1.41878	10	1	500	
2.415	10600	7.77988	1.44813	10	1	500	
2.42	10535	7.92758	1.46167	10	1	500	
2.425	10463.8	8.32811	1.4831	10	1	500	
2.43	10393.1	7.71617	1.47587	10	1	500	
2.435	10310	8.26514	1.47174	10	1	500	
2.44	10208.7	8.06445	1.49061	10	1	500	
2.445	10103.2	8.1897	1.48843	10	1	500	
2.45	9982.06	8.28695	1.49677	10	1	500	
2.455	9854.63	8.01962	1.46214	10	1	500	
2.46	9687.02	8.94218	1.48183	10	1	500	
2.465	9491.59	8.28774	1.48949	10	1	500	
2.47	9274.26	8.67668	1.46922	10	1	500	
2.475	9038.52	8.46982	1.43615	10	1	500	
2.48	8779.06	8.56541	1.40347	10	1	500	
2.485	8501.6	8.40621	1.35466	10	1	500	
2.49	8194.73	8.68184	1.33214	10	1	500	
2.495	7860.9	8.47611	1.29898	10	1	500	
2.5	7514.68	8.62765	1.25958	10	1	500	
2.505	7170.99	8.68809	1.21256	10	1	500	
2.51	6834.05	9.11927	1.16682	10	1	500	
2.515	6486.76	9.02433	1.11932	10	1	500	
2.52	6139.43	8.87412	1.06036	10	1	500	
2.525	5818.25	8.92213	1.00702	10	1	500	
2.53	5493.38	8.81622	0.947221	10	1	500	
2.535	5129.89	9.47777	0.811071	10	1	500	
2.54	4806.19	8.54778	0.670627	10	1	500	
2.545	4519	9.17077	0.559884	10	1	500	
2.55	4236.07	8.797	0.440202	10	1	500	
2.555	3984.45	8.95845	0.342347	10	1	500	
2.56	3778.21	8.92153	0.241294	10	1	500	
2.565	3606.41	8.9298	0.152926	10	1	500	
2.57	3460.89	8.57311	0.0911076	10	1	500	
2.575	3332.62	7.80304	0.0614997	10	1	500	
2.58	3216.42	4.55905	0.0460683	10	1	500	
2.585	3103.35	7.37431	0.0333607	10	1	500	
2.59	2991.68	5.21714	0.0237519	10	1	500	
2.595	2881.27	5.79267	0.0153283	10	1	500	
2.6	2771.71	4.72288	0.00751327	10	1	500	
2.605	2664.07	5.6113	0.00248931	10	1	500	
2.61	2559.65	4.6702	0.00108033	10	1	500	
2.615	2458.89	5.6821	0.000913306	10	1	500	
2.62	2361.26	4.64453	0.00080395	10	1	500	
2.625	2266.68	5.51289	0.000678028	10	1	500	
2.63	2174.98	4.87864	0.000592912	10	1	500	
2.635	2085.64	5.62723	0.000543658	10	1	500	
2.64	1998.53	5.23561	0.000544364	10	1	500	
2.645	1913.75	5.53474	0.000505653	10	1	500	
2.65	1831.24	5.11074	0.000550316	10	1	500	
2.655	1750.23	5.25887	0.000625594	10	1	500	
2.66	1670.02	4.82714	0.000701602	10	1	500	
2.665	1590.34	4.89449	0.00075784	10	1	500	
2.67	1511.19	4.76293	0.000786783	10	1	500	
2.675	1432.86	4.74383	0.000814178	10	1	500	
2.68	1356.13	4.49601	0.000870538	10	1	500	
2.685	1282.68	4.46961	0.000906977	10	1	500	
2.69	1214.48	4.27406	0.000922287	10	1	500	
2.695	1153.23	4.14205	0.000904053	10	1	500	
2.7	1100.05	4.06778	0.000885575	10	1	500	
2.705	1055.81	3.97567	0.000850906	10	1	500	
2.71	1020.26	3.93548	0.00107351	10	1	500	
2.715	991.67	3.79738	0.00135049	10	1	500	
2.72	968.788	3.66269	0.00104776	10	1	500	
2.725	950.826	3.58114	0.00121725	10	1	500	
2.73	937.048	3.41567	0.00135724	10	1	500	
2.735	926.65	3.23953	0.00125873	10	1	500	
2.74	918.716	3.08533	0.000832593	10	1	500	
2.745	912.383	2.52911	0.0010488	10	1	500	
2.75	907.113	2.30227	0.00360525	10	1	500	
2.755	902.088	2.16506	0.00493969	10	1	500	
2.76	896.632	2.05122	0.00672674	10	1	500	
2.765	890.863	2.09965	0.00885481	10	1	500	
2.77	885.477	2.08171	0.0106921	10	1	500	
2.775	881.991	2.29464	0.0146795	10	1	500	
2.78	881.2	2.27533	0.0183442	10	1	500	
2.785	883.701	2.22355	0.0216919	10	1	500	
2.79	889.942	2.15383	0.0247569	10	1	500	
2.795	900.082	2.10191	0.0269533	10	1	500	
2.8	913.774	2.06206	0.0277524	10	1	500	
2.805	929.988	1.99014	0.0275983	10	1	500	
2.81	948.043	1.9569	0.0267887	10	1	500	
2.815	967.904	1.9493	0.0252627	10	1	500	
2.82	989.651	1.82752	0.0231201	10	1	500	
2.825	1013.45	1.74739	0.020633	10	1	500	
2.83	1040.04	1.68549	0.0180376	10	1	500	
2.835	1070.4	2.16141	0.0155499	10	1	500	
2.84	1106.07	2.75469	0.0132895	10	1	500	
2.845	1147.91	2.63065	0.0117537	10	1	500	
2.85	1196.17	2.53004	0.0104516	10	1	500	
2.855	1250.13	2.64501	0.0097329	10	1	500	
2.86	1308.71	2.58087	0.00946749	10	1	500	
2.865	1371.24	2.76868	0.00952659	10	1	500	
2.87	1436.44	2.88884	0.00986834	10	1	500	
2.875	1503.06	3.01667	0.0101486	10	1	500	
2.88	1570.69	3.14709	0.0100627	10	1	500	
2.885	1638.66	3.33861	0.00975896	10	1	500	
2.89	1706.55	3.59692	0.00986572	10	1	500	
2.895	1774.38	3.42412	0.0101275	10	1	500	
2.9	1842.11	4.31208	0.0112413	10	1	500	
2.905	1908.5	3.87353	0.0125812	10	1	500	
2.91	1973.44	4.37256	0.0145818	10	1	500	
2.915	2036.78	4.32095	0.0176954	10	1	500	
2.92	2098.2	4.45074	0.0216153	10	1	500	
2.925	2157.8	4.29226	0.0247681	10	1	500	
2.93	2215.41	4.25038	0.0262641	10	1	500	
2.935	2270.8	4.11494	0.0262486	10	1	500	
2.94	2324.24	4.16487	0.0245257	10	1	500	
2.945	2376.72	4.12043	0.0214114	10	1	500	
2.95	2428.88	4.19052	0.0192042	10	1	500	
2.955	2479.28	4.2239	0.0189261	10	1	500	
2.96	2532.3	4.2504	0.0198726	10	1	500	
2.965	2569.62	4.47943	0.0214707	10	1	500	
2.97	2633.76	4.52859	0.0236371	10	1	500	
2.975	2685.87	4.70881	0.0261052	10	1	500	
2.98	2742.25	4.76802	0.0284825	10	1	500	
2.985	2802.07	4.75927	0.0304983	10	1	500	
2.99	2865.98	4.79624	0.0321878	10	1	500	
2.995	2933.13	4.86084	0.033666	10	1	500	
3	3004.81	4.8167	0.0357552	10	1	500	
3.005	3083.17	4.77022	0.0387964	10	1	500	
3.01	3170.27	4.74725	0.0416662	10	1	500	
3.015	3269.23	4.73088	0.0444391	10	1	500	
3.02	3380.28	4.72117	0.0476995	10	1	500	
3.025	3500.25	4.66296	0.0540914	10	1	500	
3.03	3624.23	4.69112	0.0622368	10	1	500	
3.035	3746.15	4.73214	0.0692855	10	1	500	
3.04	3860.71	4.72499	0.0739189	10	1	500	
3.045	3964.95	4.82568	0.0756963	10	1	500	
3.05	4057.31	4.62762	0.0749253	10	1	500	
3.055	4137.92	4.67209	0.0714955	10	1	500	
3.06	4205.36	4.66302	0.0661587	10	1	500	
3.065	4257.89	4.62979	0.0608744	10	1	500	
3.07	4294.5	4.59215	0.0558614	10	1	500	
3.075	4315.54	4.50039	0.0514739	10	1	500	
3.08	4322.3	4.24077	0.0475981	10	1	500	
3.085	4319.49	4.2119	0.0457045	10	1	500	
3.09	4310.04	4.19948	0.0482728	10	1	500	
3.095	4293.98	4.0557	0.053758	10	1	500	
3.1	4272.77	4.03718	0.0596778	10	1	500	
3.105	4247.31	4.0583	0.065095	10	1	500	
3.11	4217.47	3.92133	0.0693689	10	1	500	
3.115	4184.01	3.95402	0.0718193	10	1	500	
3.12	4149.5	3.89512	0.0718193	10	1	500	
3.125	4116.97	3.92786	0.0694449	10	1	500	
3.13	4090.01	3.9311	0.0657662	10	1	500	
3.135	4071.46	3.93417	0.0623907	10	1	500	
3.14	4062.48	3.89824	0.0601773	10	1	500	
3.145	4061.54	3.88198	0.0598873	10	1	500	
3.15	4067.2	3.87571	0.0603181	10	1	500	
3.155	4076.67	3.86985	0.0607582	10	1	500	
3.16	4085.52	4.01236	0.059452	10	1	500	
3.165	4094.38	3.97037	0.0582761	10	1	500	
3.17	4102.29	4.07109	0.0565618	10	1	500	
3.175	4109.83	4.05143	0.0547944	10	1	500	
3.18	4116.38	4.04029	0.0531453	10	1	500	
3.185	4120.09	4.2113	0.0519784	10	1	500	
3.19	4118.73	4.18919	0.0511306	10	1	500	
3.195	4110.77	4.2392	0.0503804	10	1	500	
3.2	4095.6	4.17017	0.0496718	10	1	500	
3.205	4073.93	4.20894	0.0493273	10	1	500	
3.21	4046.69	4.18971	0.0495877	10	1	500	
3.215	4015.67	4.29308	0.0500922	10	1	500	
3.22	3987.5	4.28491	0.0506721	10	1	500	
3.225	3968.98	4.2996	0.0512491	10	1	500	
