glmax3_l.sto
version=1
nRows=475
nColumns=4
in_degrees=yes
endheader
time	hip_flexion_l	hip_adduction_l	hip_rotation_l
3.600000	0.04104729673532018	-0.03455273461955547	-0.004760584523611725
3.605000	0.0410472962750546	-0.034552712709787325	-0.004760584638799588
3.610000	0.041047296275335744	-0.034552693702846506	-0.004760584444310104
3.615000	0.04104729627557415	-0.034552676704358076	-0.004760584051361667
3.620000	0.04104729627577246	-0.03455266120001776	-0.004760583517856198
3.625000	0.0410472962759347	-0.03455264686597117	-0.004760582878533769
3.630000	0.04104729627606274	-0.034552633472120196	-0.004760582156097603
3.635000	0.04104729627616034	-0.034552620857523295	-0.004760581366316248
3.640000	0.04104729627622861	-0.03455260890213356	-0.004760580520657132
3.645000	0.041047296276271066	-0.034552597513647566	-0.004760579627701614
3.650000	0.04104729627628898	-0.03455258661932625	-0.0047605786941930656
3.655000	0.04104729627628457	-0.034552576160677945	-0.004760577725447055
3.660000	0.041047296276259276	-0.03455256608982671	-0.004760576725759299
3.665000	0.04104729627621491	-0.03455255636703373	-0.00476057569865708
3.670000	0.041047296276152584	-0.03455254695886164	-0.004760574647083241
3.675000	0.04104729627607407	-0.03455253783689246	-0.0047605735735212484
3.680000	0.04104729627598049	-0.0345525289767162	-0.004760572480083554
3.685000	0.04104729627587321	-0.03455252035719558	-0.004760571368594955
3.690000	0.041047296275752564	-0.03455251195987181	-0.004760570240631316
3.695000	0.041047296275620766	-0.03455250376852985	-0.0047605690975774315
3.700000	0.04104729627547789	-0.034552495768825034	-0.004760567940645544
3.705000	0.04104729627532524	-0.034552487947999026	-0.0047605667709167306
3.710000	0.04104729627516264	-0.034552480294639046	-0.004760565589344356
3.715000	0.04104729627499252	-0.034552472798493376	-0.0047605643967892144
3.720000	0.04104729627481405	-0.034552465450315935	-0.004760563194019185
3.725000	0.04104729627462835	-0.034552458241728125	-0.004760561981733153
3.730000	0.04104729627443655	-0.03455245116510668	-0.004760560760557447
3.735000	0.0410472962742382	-0.034552444213501184	-0.004760559531069929
3.740000	0.041047296274034945	-0.03455243738054482	-0.004760558293790049
3.745000	0.04104729627382589	-0.034552430660396725	-0.004760557049196989
3.750000	0.04104729627361268	-0.03455242404767287	-0.004760555797731842
3.755000	0.04104729627339449	-0.03455241753740898	-0.004760554539797554
3.760000	0.0410472962731726	-0.03455241112500422	-0.004760553275769814
3.765000	0.04104729627294694	-0.034552404806195154	-0.004760552005990723
3.770000	0.04104729627271798	-0.034552398577019694	-0.004760550730782246
3.775000	0.04104729627248576	-0.0345523924337815	-0.004760549450441527
3.780000	0.04104729627225034	-0.03455238637304067	-0.004760548165244072
3.785000	0.04104729627201275	-0.0345523803915683	-0.004760546875449776
3.790000	0.04104729627177286	-0.03455237448634942	-0.004760545581298091
3.795000	0.04104729627153016	-0.03455236652106216	-0.004760544283016626
3.800000	0.04104729627128551	-0.03455236076498159	-0.004760542980814679
3.805000	0.041047296271038966	-0.03455235507670574	-0.004760541674891261
3.810000	0.04104729627079066	-0.0345523494538966	-0.004760540365434909
3.815000	0.04104729627054058	-0.03455234389435752	-0.004760539052618716
3.820000	0.041047296270288997	-0.034552338396006826	-0.004760537736608828
3.825000	0.04104729627003596	-0.034552332956873356	-0.004760536417562987
3.830000	0.04104729626978162	-0.03455232757509273	-0.004760535095627273
3.835000	0.04104729626952573	-0.03455232224889927	-0.004760533770941339
3.840000	0.041047296269269215	-0.03455231697661269	-0.004760532443638093
3.845000	0.04104729626901127	-0.034552311756631364	-0.004760531113842323
3.850000	0.041047296268752795	-0.03455230658743626	-0.004760529781673049
3.855000	0.04104729626849269	-0.034552301467576846	-0.004760528447242462
3.860000	0.04104728303886116	-0.03455229639567864	-0.004760527110660776
3.865000	0.04104728303759685	-0.034552291370418924	-0.004760525772026077
3.870000	0.04104728303636913	-0.0345522863905449	-0.004760524431438304
3.875000	0.041047283035174235	-0.03455228145484941	-0.00476052308898919
3.880000	0.04104728303401252	-0.0345522765621809	-0.004760521744767394
3.885000	0.041047283032881896	-0.03455227171144214	-0.0047605203988569204
3.890000	0.04104728303178046	-0.03455226690157248	-0.0047605190513390246
3.895000	0.04104728303070744	-0.034552262131565516	-0.004760517702289555
3.900000	0.04104728302966177	-0.034552257400444965	-0.004760516351783414
3.905000	0.04104728302864133	-0.03455225270727928	-0.004760514999891045
3.910000	0.041047283027646056	-0.03455224805117926	-0.004760513646678514
3.915000	0.041047283026674576	-0.03455224343127703	-0.004760512292211739
3.920000	0.04104728302572539	-0.03455223884674883	-0.0047605109365541805
3.925000	0.0410472830247983	-0.03455223429679596	-0.004760509579761717
3.930000	0.04104728302389207	-0.034552229780646884	-0.004760508221895051
3.935000	0.04104728302300575	-0.03455222529756984	-0.004760506863005689
3.940000	0.04104728302213873	-0.034552220846843916	-0.004760505503148771
3.945000	0.04104728302129005	-0.03455221642778575	-0.004760504142375485
3.950000	0.041047283020458986	-0.034552212039730995	-0.004760502780732853
3.955000	0.041047283019645005	-0.03455220768203805	-0.004760501418268264
3.960000	0.04104728301884707	-0.034552203354086465	-0.004760500055026418
3.965000	0.04104728301806544	-0.03455219905528034	-0.00476049869105143
3.970000	0.041047283017298576	-0.03455219478503862	-0.004760497326386236
3.975000	0.04104728301654584	-0.03455219054280353	-0.004760495961068697
3.980000	0.041047283015807255	-0.034552186328031705	-0.004760494595140101
3.985000	0.04104728301508259	-0.034552182140197465	-0.004760493228636451
3.990000	0.041047283014370245	-0.03455217797879154	-0.004760491861594492
3.995000	0.04104728301367011	-0.034552173843326824	-0.004760490494049176
4.000000	0.041047283012982334	-0.03455216973332228	-0.004760489126034682
4.005000	0.04104728301230573	-0.03455216564831787	-0.004760487757583594
4.010000	0.04104728301164056	-0.03455216158786367	-0.00476048638872726
4.015000	0.04104728301098587	-0.03455215755151851	-0.0047604850194956465
4.020000	0.04104728301034111	-0.03455215353886584	-0.00476048364991942
4.025000	0.04104728300970682	-0.034552149549490846	-0.004760482280025995
4.030000	0.041047283009081774	-0.03455214558299739	-0.004760480909842806
4.035000	0.041047283008465926	-0.03455214163899712	-0.0047604795393978196
4.040000	0.04104728300785906	-0.034552137717110354	-0.004760478168716064
4.045000	0.04104728300726065	-0.034552133816975056	-0.004760476797822228
4.050000	0.04104728300667007	-0.034552129938226164	-0.004760475426741642
4.055000	0.041047283006087884	-0.03455212608052744	-0.004760474055497087
4.060000	0.04104728300551368	-0.03455212224353181	-0.004760472684111047
4.065000	0.04104728300494645	-0.034552118426919756	-0.004760471312606242
4.070000	0.04104728300438629	-0.03455211463036515	-0.004760469941003216
4.075000	0.041047283003832924	-0.03455211085355345	-0.00476046856932396
4.080000	0.04104728300328652	-0.03455210709618884	-0.00476046719758812
4.085000	0.0410472830027464	-0.0345521033579642	-0.004760465825813829
4.090000	0.041047283002212755	-0.03455209963860047	-0.004760464454020966
4.095000	0.04104728300168488	-0.034552095937811104	-0.004760463082228956
4.100000	0.041047283001162595	-0.034552092255322644	-0.0047604617104553965
4.105000	0.041047283000645904	-0.034552088590867135	-0.004760460338715657
4.110000	0.04104728300013495	-0.03455208494418412	-0.004760458967028664
4.115000	0.04104728299962929	-0.034552081315016976	-0.004760457595410245
4.120000	0.04104728299912859	-0.03455207770311602	-0.004760456223876591
4.125000	0.041047282998632924	-0.03455207410823764	-0.004760454852441424
4.130000	0.04104728299814169	-0.03455207053014484	-0.004760453481121734
4.135000	0.04104728299765534	-0.034552066968608665	-0.004760452109930254
4.140000	0.0410472829971737	-0.03455206342339682	-0.0047604507388834295
4.145000	0.04104728299669557	-0.0345520598942859	-0.004760449367992345
4.150000	0.04104728299622253	-0.03455205638106728	-0.004760447997273227
4.155000	0.0410472829957529	-0.03455205288352174	-0.004760446626737795
4.160000	0.04104728299528707	-0.03455204940144688	-0.004760445256398564
4.165000	0.04104728299482553	-0.03455204593463709	-0.00476044388626665
4.170000	0.041047282994368245	-0.0345520424828933	-0.004760442516355993
4.175000	0.04104728299391378	-0.034552039046018	-0.004760441146678111
4.180000	0.041047282993462615	-0.03455203562383011	-0.004760439777244985
4.185000	0.04104728299301523	-0.03455203221613989	-0.004760438408064546
4.190000	0.041047282992571404	-0.034552028822758526	-0.004760437039150089
4.195000	0.041047282992129966	-0.034552025443518444	-0.004760435670512108
4.200000	0.041047282991692434	-0.03455202207823616	-0.004760434302159982
4.205000	0.041047282991257344	-0.03455201872674451	-0.004760432934105854
4.210000	0.04104728299082549	-0.03455201538887284	-0.004760431566355257
4.215000	0.04104728299039646	-0.034552012064463254	-0.004760430198920702
4.220000	0.041047282989970325	-0.034552008753349524	-0.004760428831810503
4.225000	0.04104728298954667	-0.034552005455373104	-0.004760427465033707
4.230000	0.041047282989126035	-0.03455200217037962	-0.00476042609859836
4.235000	0.04104728298870756	-0.034551998898220054	-0.004760424732513525
4.240000	0.041047282988291786	-0.03455199563874185	-0.004760423366788016
4.245000	0.04104728298787859	-0.03455199239180362	-0.0047604220014301896
4.250000	0.04104728298746735	-0.03455198915725931	-0.004760420636445911
4.255000	0.04104728298705862	-0.034551985934968964	-0.0047604192718461065
4.260000	0.04104728298665204	-0.03455198272479246	-0.004760417907633346
4.265000	0.04104728298624823	-0.034551979526596055	-0.004760416543819351
4.270000	0.04104728298584609	-0.034551976340247315	-0.004760415180409507
4.275000	0.04104728298544597	-0.03455197316561517	-0.0047604138174110015
4.280000	0.041047282985047756	-0.03455197000257293	-0.004760412454830609
4.285000	0.041047282984652045	-0.03455196685099538	-0.004760411092673653
4.290000	0.041047282984257784	-0.034551963710756695	-0.004760409730948566
4.295000	0.04104728298386608	-0.03455196058173533	-0.004760408369661094
4.300000	0.041047282983476104	-0.034551957463816195	-0.0047604070088147835
4.305000	0.0410472829830875	-0.03455195435687662	-0.004760405648419962
4.310000	0.04104728298270114	-0.03455195126080454	-0.00476040428847874
4.315000	0.04104728298231625	-0.03455194817548603	-0.00476040292899858
4.320000	0.041047282981932894	-0.03455194510081244	-0.004760401569985417
4.325000	0.04104728298155181	-0.03455194203667239	-0.004760400211442729
4.330000	0.041047282981171634	-0.03455193898295976	-0.004760398853376747
4.335000	0.041047282980793756	-0.034551935939567235	-0.004760397495793683
4.340000	0.04104728298041717	-0.034551932906393044	-0.004760396138696582
4.345000	0.04104728298004246	-0.03455192988333303	-0.0047603947820918265
4.350000	0.04104728297966861	-0.034551926870291405	-0.004760393425983035
4.355000	0.04104728297929678	-0.03455192386716082	-0.0047603920703757005
4.360000	0.041047282978926146	-0.03455192087385313	-0.004760390715274242
4.365000	0.0410472829785569	-0.03455191789026888	-0.004760389360682824
4.370000	0.041047282978189194	-0.03455191491631183	-0.004760388006604662
4.375000	0.04104728297782275	-0.034551911951895956	-0.004760386653045727
4.380000	0.041047282977457494	-0.0345519089969227	-0.004760385300009738
4.385000	0.04104728297709408	-0.03455190605131043	-0.004760383947500467
4.390000	0.04104728297673148	-0.03455190311496103	-0.0047603825955219135
4.395000	0.041047282976370135	-0.03455190018779897	-0.004760381244076049
4.400000	0.04104728297601098	-0.03455189726973229	0.007837927096817661
4.405000	0.04104728297565174	-0.0345518943606743	0.007921826129066938
4.410000	0.0410472829752943	-0.03455189146054889	0.007601656894658497
4.415000	0.04104728297493792	-0.03455188856926914	0.006643429332672558
4.420000	0.041047282974582995	-0.034551885686757586	0.005003272273289174
4.425000	0.04104728297422902	-0.034551882812932755	0.0027911622910956188
4.430000	0.04104728297387617	-0.034551879947719924	0.0027911559922286343
4.435000	0.04104728297352441	-0.034551877091038005	0.0027911497022913368
4.440000	0.04104728297317397	-0.034551874242816666	0.0027911434279855266
4.445000	0.04104728297282424	-0.03455187140297797	0.0027911371691799
4.450000	0.041047282972475715	-0.03455186857144819	0.002791130925745464
4.455000	0.04104728297212836	-0.03455186574815533	0.002791124697553816
4.460000	0.04104728297178163	-0.0345518629330279	0.002791118484479887
4.465000	0.04104728297143645	-0.03455186012599741	0.0027911122863985404
4.470000	0.04104728297109231	-0.03455185732699331	0.0027911061031882034
4.475000	0.041047282970748916	-0.03455185453594421	0.0027910999347289713
4.480000	0.04104728297040625	-0.03455185175278866	0.002791093780901359
4.485000	0.041047282970064526	-0.034551848977457895	0.0027910876415882706
4.490000	0.0410472829697239	-0.03455184620988234	0.0027910815166745755
4.495000	0.04104728296938463	-0.03455184345000259	0.002791075406044556
4.500000	0.041047282969045425	-0.03455184069775061	0.002791069309588919
4.505000	0.04104728296870755	-0.03455183795306856	0.002791063227193416
4.510000	0.04104728296837085	-0.03455183521589128	0.0027910571587516867
4.515000	0.04104728296803467	-0.034551832486157175	0.002791051104153154
4.520000	0.04104728296769892	-0.03455182976380564	0.002791045063293196
4.525000	0.041047282967364325	-0.03455182704877956	0.0027910390360647297
4.530000	0.04104728296703108	-0.034551824341020144	0.002791033022366647
4.535000	0.0410472829666982	-0.03455182164046685	0.0027910270220951276
4.540000	0.041047282966365894	-0.034551818947062954	0.0027910210351488815
4.545000	0.04104728296603507	-0.03455181626075668	0.002791015061428416
4.550000	0.041047282965704555	-0.03455181358148537	0.002791009100836242
4.555000	0.04104728296537478	-0.03455181090919943	0.0027910031532744854
4.560000	0.041047282965045694	-0.034551808243842415	0.002790997218646546
4.565000	0.04104728296471778	-0.03455180558536179	0.0027909912968591324
4.570000	0.041047282964390024	-0.0345518029337021	0.002790985387818067
4.575000	0.04104728296406363	-0.03455180028881181	0.0027909794914312515
4.580000	0.041047282963737615	-0.03455179765064059	0.002790973607606901
4.585000	0.04104728296341217	-0.03455179501913817	0.002790967736255116
4.590000	0.04104728296308775	-0.034551792394254134	0.0027909618772888178
4.595000	0.04104728296276388	-0.034551789775936634	0.002790956030617093
4.600000	0.04104728296244052	-0.034551787164142096	0.002790950196155854
4.605000	0.04104728296211789	-0.03455178455881597	0.002790944373818662
4.610000	0.04104728296179624	-0.034551781959910655	0.0027909385635197046
4.615000	0.041047282961474744	-0.03455177936738126	0.0027909327651760704
4.620000	0.04104728296115444	-0.03455177678118424	0.002790926978705966
4.625000	0.04104728296083454	-0.034551774201268176	0.0027909212040270522
4.630000	0.04104728296051501	-0.03455177162758857	0.0027909154410583467
4.635000	0.04104728296019608	-0.03455176906010363	0.0027909096897210627
4.640000	0.04104728295987873	-0.034551766498765034	0.0027909039499363145
4.645000	0.04104728295956072	-0.03455176394353148	0.002790898221625172
4.650000	0.04104728295924423	-0.03455176139436042	0.0027908925047120843
4.655000	0.041047282958927296	-0.03455175885120557	0.0027908867991192667
4.660000	0.04104728295861186	-0.03455175631402489	0.002790881104772781
4.665000	0.04104728295829665	-0.034551753782779346	0.0027908754215986995
4.670000	0.04104728295798219	-0.03455175125742604	0.002790869749522782
4.675000	0.041047282957668144	-0.034551748737921155	0.0027908640884727297
4.680000	0.04104728295735433	-0.03455174622423053	0.0027908584383764742
4.685000	0.04104728295704141	-0.03455174371631097	0.002790852799163166
4.690000	0.04104728295672889	-0.03455174121412231	0.0027908471707624137
4.695000	0.041047282956417526	-0.034551738717626033	0.0027908415531052782
4.700000	0.04104728295610553	-0.03455173622678141	0.002790835946123351
4.705000	0.04104728295579512	-0.03455173374155341	0.0027908303497474213
4.710000	0.041047282955484564	-0.03455173126190344	0.0027908247639112788
4.715000	0.0410472829551746	-0.034551728787794604	0.002790819188548681
4.720000	0.0410472829548654	-0.0345517263191865	0.0027908136235946755
4.725000	0.04104728295455628	-0.034551723856047156	0.0027908080689820324
4.730000	0.0410472829542479	-0.03455172139833976	0.0027908025246482712
4.735000	0.041047282953940285	-0.03455171894602662	0.0027907969905296964
4.740000	0.04104728295363222	-0.034551716499069185	0.0027907914665625845
4.745000	0.04104728295332583	-0.03455171405744151	0.0027907859526857433
4.750000	0.04104728295301892	-0.034551711621103355	0.0027907804488367573
4.755000	0.04104728295271275	-0.03455170919002046	0.002790774954955005
4.760000	0.04104728295240699	-0.03455170676415769	0.002790769470980328
4.765000	0.0410472829521024	-0.03455170434348455	0.0027907639968533975
4.770000	0.041047282951797257	-0.034551701927969754	0.0027907585325154067
4.775000	0.04104728295149275	-0.034551699517574516	0.002790753077906336
4.780000	0.04104728295118889	-0.034551697112271414	0.002790747632969188
4.785000	0.041047282950885396	-0.034551694712026834	0.0027907421976477572
4.790000	0.04104728295058226	-0.034551692316807936	0.0027907367718849148
4.795000	0.041047282950279235	-0.034551689926585076	0.002790731355624048
4.800000	0.04104728294997706	-0.03455168754132255	0.002790725948810094
4.805000	0.0410472829496752	-0.034551685160995965	0.0027907205513888218
4.810000	0.041047282949373425	-0.03455168278557229	0.0027907151633042877
4.815000	0.04104728294907242	-0.034551680415020485	0.002790709784504102
4.820000	0.04104728294877147	-0.03455167804931151	0.0027907044149344546
4.825000	0.04104728294847106	-0.034551675688417	0.0027906990545425864
4.830000	0.041047282948171164	-0.034551673332306555	0.0027906937032758147
4.835000	0.041047282947871286	-0.03455167098094924	0.0027906883610835133
4.840000	0.04104728294757166	-0.03455166863432008	0.0027906830279143813
4.845000	0.041047282947272515	-0.03455166629238689	0.002790677703716462
4.850000	0.04104728294697433	-0.034551663955127494	0.002790672388440609
4.855000	0.04104728294667588	-0.034551661622504413	0.002790667082037023
4.860000	0.041047282946377876	-0.03455165929450103	0.002790661784455698
4.865000	0.04104728294608007	-0.034551656971086704	0.0027906564956492585
4.870000	0.04104728294578272	-0.03455165465222889	0.0027906512155681457
4.875000	0.04104728294548579	-0.0345516523379025	0.00279064594416587
4.880000	0.041047282945189036	-0.03455165002808995	0.002790640681392835
4.885000	0.041047282944892904	-0.034551647722754326	0.0027906354272052283
4.890000	0.041047282944596704	-0.034551645421871544	0.0027906301815531272
4.895000	0.04104728294430113	-0.034551643125422374	0.0027906249443931915
4.900000	0.04104728294400566	-0.034551640833377646	0.0027906197156781706
4.905000	0.041047282943710586	-0.03455163854570765	0.002790614495364418
4.910000	0.041047282943415156	-0.03455163626239289	0.002790609283405925
4.915000	0.041047282943121044	-0.034551633983408034	0.0027906040797580035
4.920000	0.041047282942826765	-0.03455163170872857	0.0027905988843783154
4.925000	0.04104728294253259	-0.034551629438326764	0.0027905936972216737
4.930000	0.04104728294223899	-0.034551627172182436	0.002790588518245705
4.935000	0.04104728294194571	-0.034551624910270855	0.0027905833474081744
4.940000	0.04104728294165247	-0.03455162265256838	0.002790578184665226
4.945000	0.04104728294135932	-0.03455162039904791	0.0027905730299758475
4.950000	0.041047282941066694	-0.03455161814969276	0.002790567883299391
4.955000	0.04104728294077434	-0.03455161590447506	0.002790562744593092
4.960000	0.04104728294048254	-0.034551613663374475	0.0027905576138160726
4.965000	0.04104728294018978	-0.03455161142637026	0.002790552490928794
4.970000	0.04104728293989899	-0.03455160919343722	0.0027905473758903804
4.975000	0.041047282939606994	-0.03455160696455226	0.002790542268661045
4.980000	0.04104728293931596	-0.03455160473969204	0.002790537169202398
4.985000	0.041047282939025216	-0.03455160251884345	0.002790532077473688
4.990000	0.04104728293873466	-0.03455160030197551	0.002790526993437531
4.995000	0.041047282938444105	-0.034551598089068825	0.0027905219170549275
5.000000	0.041047282938153275	-0.0345515958801064	0.0027905168482885104
5.005000	0.04104728293786364	-0.03455159367506406	0.0027905117870990776
5.010000	0.04104728293757373	-0.034551591473922616	0.0027905067334507575
5.015000	0.04104728293728377	-0.03455158927665974	0.002790501687304634
5.020000	0.04104728293699449	-0.03455158708325809	0.0027904966486258717
5.025000	0.0410472829367054	-0.034551584893691985	0.0027904916173770652
5.030000	0.04104728293641626	-0.03455158270794599	0.0027904865935221733
5.035000	0.04104728293612778	-0.03455158052599898	0.00279048157702483
5.040000	0.0410472829358392	-0.034551578347828016	0.0027904765678495556
5.045000	0.041047282935550815	-0.03455157617342068	0.002790471565962247
5.050000	0.04104728293526282	-0.03455157400275339	0.002790466571326703
5.055000	0.04104728293497449	-0.03455157183580477	0.002790461583908885
5.060000	0.04104728293468705	-0.034551569672559984	0.002790456603674907
5.065000	0.04104728293439898	-0.03455156751299567	0.002790451630588801
5.070000	0.04104728293411155	-0.03455156535709753	0.0027904466646186876
5.075000	0.041047282933824245	-0.03455156320484422	0.0027904417057299036
5.080000	0.041047282933537314	-0.034551561056218164	0.00279043675388991
5.085000	0.04104728293325026	-0.034551558911204	0.0027904318090646012
5.090000	0.041047282932963315	-0.034551556769775366	0.0027904268712224973
5.095000	0.041047282932677225	-0.034551554631923	0.0027904219403302975
5.100000	0.04104728293239022	-0.0345515524976266	0.0027904170163565983
5.105000	0.04104728293210456	-0.03455155036686556	0.002790412099268162
5.110000	0.041047282931818745	-0.03455154823962692	0.0027904071890349083
5.115000	0.04104728293153251	-0.034551546115888114	0.002790402285624431
5.120000	0.041047282931246626	-0.03455154399563561	0.0027903973890052395
5.125000	0.04104728293096103	-0.03455154187885158	0.002790392499147469
5.130000	0.04104728293067552	-0.034551539765519196	0.00279038761601898
5.135000	0.04104728293039032	-0.03455153765562135	0.002790382739590997
5.140000	0.04104728293010473	-0.034551535549141935	0.002790377869832439
5.145000	0.04104728292981988	-0.0345515334460606	0.0027903730067131514
5.150000	0.04104728292953484	-0.03455153134636603	0.0027903681502033737
5.155000	0.04104728292925011	-0.03455152925004269	0.002790363300274535
5.160000	0.04104728292896544	-0.0345515271570666	0.00279035845689621
5.165000	0.04104728292868078	-0.0345515250674297	0.00279035362003994
5.170000	0.04104728292839665	-0.03455152298111552	0.0027903487896768914
5.175000	0.04104728292811208	-0.03455152089810336	0.002790343965777941
5.180000	0.04104728292782826	-0.03455151881838157	0.002790339148315611
5.185000	0.04104728292754467	-0.034551516741934234	0.002790334337260875
5.190000	0.041047282927260405	-0.03455151466874259	0.002790329532585874
5.195000	0.04104728292697639	-0.03455151259879821	0.002790324734263652
5.200000	0.04104728292669313	-0.03455151053207634	0.002790319942265477
5.205000	0.04104728292640938	-0.03455150846856944	0.0027903151565650012
5.210000	0.04104728292612635	-0.03455150640826034	0.0027903103771348293
5.215000	0.04104728292584283	-0.03455150435113559	0.0027903056039477615
5.220000	0.04104728292555979	-0.034551502297177523	0.0027903008369777327
5.225000	0.04104728292527626	-0.03455150024637487	0.002790296076197651
5.230000	0.0410472829249937	-0.0345514981987095	0.0027902913215808456
5.235000	0.04104728292471089	-0.034551496154170996	0.002790286573101569
5.240000	0.041047282924428025	-0.0345514941127421	0.0027902818307340175
5.245000	0.04104728292414493	-0.03455149207440921	0.002790277094453319
5.250000	0.04104728292386277	-0.03455149003916128	0.002790272364231801
5.255000	0.04104728292358056	-0.03455148800698038	0.0027902676400461766
5.260000	0.041047282923298095	-0.03455148597785351	0.0027902629218694228
5.265000	0.04104728292301534	-0.034551483951769	0.0027902582096781424
5.270000	0.04104728292273327	-0.03455148192870942	0.0027902535034466432
5.275000	0.041047282922451425	-0.034551479908666666	0.0027902488031506852
5.280000	0.041047282922169255	-0.03455147789162163	0.0027902441087654523
5.285000	0.04104728292188728	-0.03455147587756699	0.002790239420266339
5.290000	0.041047282921605754	-0.03455147386648452	0.0027902347376301487
5.295000	0.04104728292132343	-0.03455147185836255	0.00279023006083165
5.300000	0.04104728292104228	-0.034551469853187806	0.002790225389848782
5.305000	0.04104728292076034	-0.03455146785095082	0.002790220724656959
5.310000	0.04104728292047928	-0.03455146585163659	0.0027902160652320176
5.315000	0.04104728292019771	-0.03455146385522584	0.002790211411551978
5.320000	0.04104728291991602	-0.03455146186171523	0.002790206763593076
5.325000	0.04104728291963502	-0.0345514598710905	0.002790202121332474
5.330000	0.04104728291935392	-0.034551457883334434	0.0027901974847475437
5.335000	0.04104728291907275	-0.0345514558984405	0.0027901928538151093
5.340000	0.041047282918791256	-0.0345514539163897	0.0027901882285134173
5.345000	0.041047282918510654	-0.03455145193717378	0.0027901836088194097
5.350000	0.04104728291822946	-0.03455144996078279	0.00662183979852043
5.355000	0.04104728291794869	-0.03455144798720268	0.006689076971281923
5.360000	0.041047282917667564	-0.034551446016421815	0.0076665360031871925
5.365000	0.04104728291738734	-0.034551444048424425	0.007927372143005864
5.370000	0.041047282917106256	-0.03455144208320528	-0.004760129711152927
5.375000	0.041047282916825814	-0.03455144012074682	-0.00476012850390407
5.380000	0.04104728291654527	-0.03455143816104214	-0.0047601272772554645
5.385000	0.041047282916264624	-0.034551436204077385	-0.004760126051225843
5.390000	0.041047282915984355	-0.034551434249842555	-0.004760124825812173
5.395000	0.041047282915703975	-0.034551432298320806	-0.0047601236010142225
5.400000	0.04104728291542347	-0.034551430349507195	-0.004760122376832661
5.405000	0.041047282915143125	-0.034551428403389865	-0.0047601211532648895
5.410000	0.04104728291486289	-0.03455142645995677	-0.004760119930312279
5.415000	0.04104728291458277	-0.03455142451919447	-0.004760118707972834
5.420000	0.041047282914302534	-0.034551422581094574	-0.004760117486246423
5.425000	0.041047282914022445	-0.03455142064564331	-0.004760116265133105
5.430000	0.04104728291374246	-0.034551418712836034	-0.004760115044631103
5.435000	0.041047282913462824	-0.034551416782653166	-0.004760113824739884
5.440000	0.04104728291318255	-0.034551414855092555	-0.004760112605459353
5.445000	0.04104728291290243	-0.03455141293013561	-0.004760111386789893
5.450000	0.04104728291262266	-0.03455141100777981	-0.004760110168729185
5.455000	0.04104728291234271	-0.03455140908801302	-0.0047601089512772365
5.460000	0.04104728291206291	-0.03455140717081631	-0.004760107734432278
5.465000	0.04104728291178345	-0.034551405256189355	-0.004760106518196531
5.470000	0.04104728291150384	-0.03455140334411818	-0.0047601053025663476
5.475000	0.041047282911223844	-0.03455140143459284	-0.004760104087543581
5.480000	0.04104728291094396	-0.03455139952760042	-0.004760102873126049
5.485000	0.041047282910664395	-0.03455139762313599	-0.004760101659312989
5.490000	0.041047282910384945	-0.034551395721185076	-0.00476010044610424
5.495000	0.04104728291010534	-0.034551393821741105	-0.004760099233500129
5.500000	0.04104728290982582	-0.034551391924794596	-0.004760098021498266
5.505000	0.04104728290954665	-0.034551390030332065	-0.00476009681009764
5.510000	0.041047282909267305	-0.03455138813834516	-0.004760095599300657
5.515000	0.04104728290898781	-0.034551386248824006	-0.0047600943891047895
5.520000	0.04104728290870814	-0.034551384361760015	-0.004760093179509119
5.525000	0.04104728290842906	-0.03455138247714446	-0.0047600919705142325
5.530000	0.04104728290814957	-0.03455138059496572	-0.004760090762116368
5.535000	0.04104728290787015	-0.03455137871521613	-0.004760089554319238
5.540000	0.04104728290759131	-0.03455137683788387	-0.004760088347119433
5.545000	0.041047282907311335	-0.03455137496296371	-0.00476008714051656
5.550000	0.04104728290703263	-0.0345513730904408	-0.0047600859345110665
5.555000	0.041047282906753045	-0.03455137122031238	-0.004760084729100854
5.560000	0.04104728290647426	-0.03455136935256335	-0.004760083524286689
5.565000	0.041047282906195075	-0.034551367487190655	-0.004760082320067926
5.570000	0.04104728290591568	-0.03455136562417907	-0.004760081116443247
5.575000	0.04104728290563664	-0.03455136376352515	-0.004760079913410504
5.580000	0.04104728290535762	-0.03455136190521479	-0.004760078710972022
5.585000	0.04104728290507821	-0.034551360049241676	-0.004760077509124872
5.590000	0.0410472829047991	-0.034551358195599485	-0.0047600763078700335
5.595000	0.04104728290452053	-0.0345513563442763	-0.0047600751072065794
5.600000	0.04104728290424107	-0.03455135449526418	-0.004760073907132657
5.605000	0.04104728290396239	-0.034551352648552344	-0.004760072707648964
5.610000	0.041047282903683285	-0.03455135080413669	-0.004760071508753048
5.615000	0.04104728290340425	-0.03455134896200615	-0.004760070310446268
5.620000	0.04104728290312571	-0.03455134712215096	-0.0047600691127274546
5.625000	0.0410472829028468	-0.03455134528456665	-0.004760067915596026
5.630000	0.04104728290256742	-0.03455134344924453	-0.004760066719050587
5.635000	0.04104728290228882	-0.0345513416161692	-0.004760065523089958
5.640000	0.041047282902009576	-0.03455133978533707	-0.004760064327715641
5.645000	0.0410472829017306	-0.03455133795674459	-0.004760063132925669
5.650000	0.041047282901451924	-0.03455133613037991	-0.004760061938719227
5.655000	0.04104728290117306	-0.03455133430623124	-0.004760060745095253
5.660000	0.04104728290089426	-0.034551332484291916	-0.004760059552054902
5.665000	0.04104728290061546	-0.03455133066455924	-0.004760058359596656
5.670000	0.04104720961736652	-0.03455132884702101	-0.004760057167719045
5.675000	0.04104720961764845	-0.034551327031670284	-0.004760055976422324
5.680000	0.04104720961792607	-0.03455132521849605	-0.004760054785704782
5.685000	0.04104720961819953	-0.03455132340749512	-0.004760053595567904
5.690000	0.04104720961846838	-0.03455132159865625	-0.004760052406008037
5.695000	0.04104720961873346	-0.03455131979197616	-0.00476005121702644
5.700000	0.04104720961899393	-0.03455131798744199	-0.004760050028622738
5.705000	0.041047209619250596	-0.03455131618505157	-0.004760048840796036
5.710000	0.041047209619502305	-0.03455131438479328	-0.004760047653544982
5.715000	0.04104720961975064	-0.034551312586659354	-0.004760046466869575
5.720000	0.0410472096199947	-0.03455131079064327	-0.004760045280768906
5.725000	0.041047209620234844	-0.03455130899673984	-0.00476004409524124
5.730000	0.04104720962047087	-0.03455130720493567	-0.004760042910288559
5.735000	0.041047209620703164	-0.03455130541523061	-0.004760041725907941
5.740000	0.04104720962093129	-0.0345513036276098	-0.004760040542099435
5.745000	0.041047209621155836	-0.03455130184207437	-0.004760039358862288
5.750000	0.041047209621376604	-0.034551300058611845	-0.004760038176195167
5.755000	0.04104720962159303	-0.03455129827721369	-0.00476003699409944
5.760000	0.04104720962180634	-0.03455129649787678	-0.0047600358125733586
5.765000	0.0410472096220154	-0.03455129472059109	-0.004760034631615964
5.770000	0.04104720962222085	-0.034551292945353196	-0.004760033451226348
5.775000	0.04104720962242293	-0.03455129117215295	-0.00476003227140441
5.780000	0.04104720962262128	-0.03455128940098402	-0.004760031092150275
5.785000	0.04104720962281597	-0.03455128763183754	-0.004760029913461538
5.790000	0.0410472096230073	-0.03455128586471095	-0.004760028735338977
5.795000	0.04104720962319466	-0.034551284099591136	-0.004760027557779711
5.800000	0.04104720962337879	-0.03455128233647817	-0.004760026380787052
5.805000	0.04104720962355984	-0.03455128057536271	-0.004760025204357653
5.810000	0.041047209623737355	-0.03455127881623531	-0.00476002402849084
5.815000	0.04104720962391115	-0.034551277059093166	-0.00476002285318582
5.820000	0.041047209624081836	-0.03455127530392663	-0.004760021678442691
5.825000	0.04104720962424918	-0.034551273550727415	-0.004760020504261334
5.830000	0.041047209624412814	-0.03455127179949643	-0.004760019330641033
5.835000	0.041047209624574275	-0.03455127005021982	-0.004760018157578781
5.840000	0.04104720962473139	-0.03455126830289034	-0.004760016985077116
5.845000	0.041047209624885485	-0.03455126655750735	-0.004760015813132925
5.850000	0.04104720962503709	-0.03455126481406213	-0.0047600146417479255
5.855000	0.04104720962518508	-0.03455126307254988	-0.004760013470918187
5.860000	0.0410472096253295	-0.03455126133296171	-0.004760012300646221
5.865000	0.0410472096254714	-0.034551259595288576	-0.0047600111309302195
5.870000	0.041047209625610606	-0.03455125785953227	-0.004760009961770072
5.875000	0.04104720962574619	-0.03455125612567687	-0.004760008793163448
5.880000	0.04104720962587874	-0.034551254393721226	-0.004760007625111983
5.885000	0.04104720962600878	-0.034551252663660104	-0.004760006457613292
5.890000	0.04104720962613562	-0.034551250935485514	-0.004760005290667217
5.895000	0.04104720962625961	-0.03455124920919069	-0.004760004124272577
5.900000	0.04104720962638054	-0.03455124748477151	-0.004760002958429682
5.905000	0.041047209626498736	-0.034551245762218394	-0.004760001793138523
5.910000	0.04104720962661372	-0.03455124404153111	-0.004760000628396169
5.915000	0.041047209626726824	-0.03455124232269859	-0.0047599994642045645
5.920000	0.04104720962683636	-0.034551240605716446	-0.004759998300561778
5.925000	0.041047209626943415	-0.03455123889058012	-0.004759997137465746
5.930000	0.041047209627047485	-0.034551237177282465	-0.004759995974917788
5.935000	0.04104720962714896	-0.034551235465817474	-0.004759994812918139
5.940000	0.0410472096272483	-0.03455123375617777	-0.0047599936514637654
5.945000	0.04104720962734413	-0.03455123204835859	-0.0047599924905555036
5.950000	0.04104720962743772	-0.03455123034235648	-0.0047599913301919206
5.955000	0.04104720962752891	-0.03455122863816114	-0.004759990170372812
5.960000	0.04104720962761723	-0.034551226935771666	-0.0047599890110967755
5.965000	0.041047209627702974	-0.03455122523517898	-0.004759987852364315
5.970000	0.04104720962778672	-0.034551223536378	-0.0047599866941751695
