grac_l.sto
version=1
nRows=475
nColumns=8
in_degrees=yes
endheader
time	hip_flexion_l	hip_adduction_l	hip_rotation_l	knee_angle_l	knee_rotation_l	knee_adduction_l	knee_angle_l_beta
3.600000	-0.023587288706488914	0.004394402527060271	0.002191919127232338	0.01723545989636833	-0.032858253345069977	-0.026513402425015868	0.021935354676866452
3.605000	-0.023587291857721404	0.004394459792585638	0.0021919216603410365	0.01723545227562144	-0.032858253345069977	-0.026513525792949345	0.021935354676866452
3.610000	-0.0235872940703032	0.004394509450446271	0.0021919239901973288	0.017235445539557755	-0.032858253345069977	-0.026513629124757673	0.021935354676866452
3.615000	-0.023587296217886848	0.00439455383459432	0.002191926188421605	0.017235439410536204	-0.032858253345069977	-0.026513719528514404	0.021935354676866452
3.620000	-0.023587298305837584	0.004394594288797061	0.002191928292801253	0.017235433703136488	-0.032858253345069977	-0.026513800750595992	0.021935354676866452
3.625000	-0.023587300338823603	0.004394631678425812	0.002191930325991645	0.01723542831502381	-0.032858253345069977	-0.026513875036321237	0.021935354676866452
3.630000	-0.023587302320937007	0.004394666598893863	0.0021919323027827942	0.017235423179138423	-0.032858253345069977	-0.02651394385182201	0.021935354676866452
3.635000	-0.023587304255788064	0.004394699473029106	0.002191934233435869	0.01723541824880935	-0.032858253345069977	-0.026514008215026412	0.021935354676866452
3.640000	-0.023587306146581413	0.004394730616198028	0.002191936125402789	0.0172354134900847	-0.032858253345069977	-0.026514068866027175	0.021935354676866452
3.645000	-0.02358730799617625	0.004394760270851762	0.002191937984303326	0.01723540887741496	-0.032858253345069977	-0.02651412636245304	0.021935354676866452
3.650000	-0.023587309807136886	0.004394788628037208	0.002191939814477909	0.017235404391052075	-0.032858253345069977	-0.026514181136423155	0.021935354676866452
3.655000	-0.02358731158177355	0.004394815841399163	0.002191941619367024	0.01723540001538776	-0.032858253345069977	-0.02651423349979594	0.021935354676866452
3.660000	-0.0235873133221754	0.0043948420366532095	0.0021919434017522096	0.017235395737839276	-0.032858253345069977	-0.026514283744233095	0.021935354676866452
3.665000	-0.02358731503023994	0.00439486731818504	0.0021919451639194846	0.017235391548079806	-0.032858253345069977	-0.02651433209751116	0.021935354676866452
3.670000	-0.02358731670769587	0.004394891773777456	0.002191946907774585	0.01723538743749846	-0.032858253345069977	-0.02651437875103082	0.021935354676866452
3.675000	-0.02358731835612399	0.004394915478074884	0.002191948634926012	0.017235383398816743	-0.032858253345069977	-0.026514423954987425	0.021935354676866452
3.680000	-0.02358731997697375	0.004394938495172146	0.0021919503467458506	0.017235379425811347	-0.032858253345069977	-0.02651446776422093	0.021935354676866452
3.685000	-0.023587321571578418	0.0043949608805826795	0.0021919520444160182	0.017235375513109153	-0.032858253345069977	-0.02651451029619912	0.021935354676866452
3.690000	-0.023587323141167238	0.004394982682762628	0.0021919537289629455	0.01723537165603198	-0.032858253345069977	-0.026514551652205988	0.021935354676866452
3.695000	-0.023587324686876746	0.004395003944301705	0.002191955401285018	0.017235367850477076	-0.032858253345069977	-0.02651459192087472	0.021935354676866452
3.700000	-0.023587326209760232	0.00439502470286738	0.002191957062173804	0.01723536409282286	-0.032858253345069977	-0.02651463118030017	0.021935354676866452
3.705000	-0.02358732771079594	0.004395044991967114	0.0021919587123310578	0.017235360379854313	-0.032858253345069977	-0.026514669499712984	0.021935354676866452
3.710000	-0.023587329190893992	0.0043950648415601755	0.002191960352382654	0.017235356708702625	-0.032858253345069977	-0.026514706940824	0.021935354676866452
3.715000	-0.023587330650903723	0.004395084278561543	0.002191961982889127	0.017235353076796144	-0.032858253345069977	-0.02651474355891665	0.021935354676866452
3.720000	-0.023587332091618198	0.004395103327257618	0.0021919636043554423	0.01723534948182018	-0.032858253345069977	-0.02610775015940274	0.021935354676866452
3.725000	-0.023587333513779993	0.004395122009651288	0.0021919652172379227	0.017235345928948667	-0.032858253345069977	-0.024386032328555254	0.021935354676866452
3.730000	-0.023587334918085144	0.00439514034575121	0.002191966821951094	0.017235342404834167	-0.032858253345069977	-0.02438606196093607	0.021935354676866452
3.735000	-0.023587336305187306	0.004395158353813678	0.0021919684188724618	0.01723533891155459	-0.032858253345069977	-0.024386091026005443	0.021935354676866452
3.740000	-0.02358733767570159	0.004395176050551627	0.002191970008347229	0.01723533544755807	-0.032858253345069977	-0.024386119552946336	0.021935354676866452
3.745000	-0.02358733903020703	0.004395193451310082	0.0021919715906921506	0.017235332011424843	-0.032858253345069977	-0.024386147568924064	0.021935354676866452
3.750000	-0.02358734036924979	0.004395210570219072	0.0021919731661984732	0.01723532860185219	-0.032858253345069977	-0.024386175098907	0.021935354676866452
3.755000	-0.023587341693345983	0.004395227420321886	0.0021919747351348794	0.017235325217641394	-0.032858253345069977	-0.024386202165907013	0.021935354676866452
3.760000	-0.02358734300298335	0.004395244013688553	0.0021919762977499757	0.017235321857686718	-0.032858253345069977	-0.024386228791186865	0.021935354676866452
3.765000	-0.023587344298624056	0.004395260361516265	0.0021919778542743486	0.017235318520965624	-0.032858253345069977	-0.02438625499444045	0.021935354676866452
3.770000	-0.02358734558070584	0.004395276474213217	0.002191979404921959	0.017235315206530284	-0.032858253345069977	-0.024386280793949885	0.021935354676866452
3.775000	-0.02358734684964448	0.0043952923614752285	0.0021919809498926086	0.017235311913500327	-0.032858253345069977	-0.024386306206722705	0.021935354676866452
3.780000	-0.02358734810583467	0.004395308032351291	0.002191982489372229	0.017235308641056206	-0.032858253345069977	-0.02438633124861278	0.021935354676866452
3.785000	-0.023587349349651825	0.004395323495303765	0.002191984023535142	0.01723530538667903	-0.032858253345069977	-0.024386355934426524	0.021935354676866452
3.790000	-0.023587350581453503	0.004395338758257891	0.0021919855525443736	0.01723530215369674	-0.032858253345069977	-0.024386380203578154	0.021935354676866452
3.795000	-0.023587351801580194	0.004395356140789943	0.0021919870765530827	0.01723529893939399	-0.032858253345069977	-0.024386404145038666	0.021935354676866452
3.800000	-0.023587353010356648	0.004395371013200207	0.0021919885957051525	0.017235295743135023	-0.032858253345069977	-0.024386427771556286	0.021935354676866452
3.805000	-0.023587354208093103	0.004395385707755932	0.002191990110136297	0.017235292564321887	-0.032858253345069977	-0.024386451094479948	0.021935354676866452
3.810000	-0.023587355395085455	0.004395400230580119	0.002191991619974158	0.01723528940239131	-0.032858253345069977	-0.024386474124493813	0.021935354676866452
3.815000	-0.023587356571617084	0.004395414587453027	0.002191993125339492	0.0172352862568119	-0.032858253345069977	-0.0243864968716705	0.021935354676866452
3.820000	-0.02358735773795902	0.004395428783838466	0.0021919946263465172	0.017235283127081544	-0.032858253345069977	-0.024386519345519414	0.021935354676866452
3.825000	-0.023587358894370674	0.004395442824908743	0.0021919961231032497	0.017235280012725205	-0.032858253345069977	-0.024386541555030092	0.021935354676866452
3.830000	-0.023587360041100798	0.004395456715562291	0.0021919976157122826	0.017235276913292828	-0.032858253345069977	-0.02438656350871136	0.021935354676866452
3.835000	-0.02358736117838794	0.0043954704604479405	0.002191999104270939	0.017235273828357593	-0.032858253345069977	-0.024386585214626947	0.021935354676866452
3.840000	-0.0235873623064608	0.004395484063979318	0.002192000588871661	0.017235270757514222	-0.032858253345069977	-0.0243866066804276	0.021935354676866452
3.845000	-0.02358736342553936	0.004395497530353501	0.0021920020696023917	0.01723526770037736	-0.032858253345069977	-0.024386627913380247	0.021935354676866452
3.850000	-0.02358736453583465	0.0043955108635631394	0.0021920035465470573	0.01723526465658042	-0.032858253345069977	-0.02438664892039486	0.021935354676866452
3.855000	-0.023587365637550026	0.0043955240674112325	0.0021920050197855867	0.017235261625774163	-0.032858253345069977	-0.02438666970804844	0.021935354676866452
3.860000	-0.023587391644245437	0.004395537145524791	0.002192006489394209	0.01723525860762566	-0.032858253345069977	-0.024386690282607343	0.021935354676866452
3.865000	-0.023587392729809947	0.004395550101363318	0.002192007955445909	0.017235255601817136	-0.032858253345069977	-0.024386710650047456	0.021935354676866452
3.870000	-0.02358739380734718	0.004395562938232094	0.0021920094180102687	0.017235252608045103	-0.032858253345069977	-0.024386730816072812	0.021935354676866452
3.875000	-0.023587394877032267	0.00439557565929017	0.002192010877154026	0.017235249626019508	-0.032858253345069977	-0.024386750786132623	0.021935354676866452
3.880000	-0.023587395939033768	0.004395588267559983	0.0021920123329411054	0.01723524665546277	-0.032858253345069977	-0.024386770565436852	0.021935354676866452
3.885000	-0.023587396993514764	0.004395600765933575	0.0021920137854327584	0.017235243696109195	-0.032858253345069977	-0.02438679015897087	0.021935354676866452
3.890000	-0.02358739804063205	0.004395613157183901	0.0021920152346877296	0.017235240747704144	-0.032858253345069977	-0.02438680957150857	0.021935354676866452
3.895000	-0.0235873990805377	0.004395625443967631	0.002192016680762519	0.01723523781000347	-0.032858253345069977	-0.024386828807624737	0.021935354676866452
3.900000	-0.023587400113378322	0.004395637628835473	0.0021920181237113437	0.017235234882772954	-0.032858253345069977	-0.02438684787170647	0.021935354676866452
3.905000	-0.023587401139295427	0.004395649714234745	0.0021920195635864153	0.017235231965787662	-0.032858253345069977	-0.024386866767963714	0.021935354676866452
3.910000	-0.023587402158426377	0.004395661702517321	0.0021920210004378396	0.01723522905883144	-0.032858253345069977	-0.02438688550043909	0.021935354676866452
3.915000	-0.023587403170903503	0.004395673595944327	0.002192022434313946	0.01723522616169653	-0.032858253345069977	-0.02438690407301696	0.021935354676866452
3.920000	-0.023587404176855332	0.004395685396690698	0.002192023865261409	0.01723522327418304	-0.032858253345069977	-0.024386922489431972	0.021935354676866452
3.925000	-0.023587405176405923	0.004395697106849039	0.0021920252933251613	0.017235220396098486	-0.032858253345069977	-0.024386940753276923	0.021935354676866452
3.930000	-0.023587406169676	0.00439570872843544	0.0021920267185484357	0.01723521752725758	-0.032858253345069977	-0.024386958868010098	0.021935354676866452
3.935000	-0.023587407156781936	0.0043957202633917525	0.0021920281409731346	0.01723521466748164	-0.032858253345069977	-0.024386976836962282	0.021935354676866452
3.940000	-0.02358740813783711	0.004395731713591157	0.00219202956063954	0.017235211816598456	-0.032858253345069977	-0.024386994663343108	0.021935354676866452
3.945000	-0.023587409112950923	0.00439574308083966	0.0021920309775869794	0.017235208974441803	-0.032858253345069977	-0.02438701235024713	0.021935354676866452
3.950000	-0.023587410082230104	0.004395754366880538	0.0021920323918529494	0.01723520614085125	-0.032858253345069977	-0.02438702990065943	0.021935354676866452
3.955000	-0.0235874110457778	0.0043957655733972475	0.0021920338034741773	0.017235203315671927	-0.032858253345069977	-0.024387047317460993	0.021935354676866452
3.960000	-0.02358741200369421	0.0043957767020150074	0.002192035212486043	0.017235200498754037	-0.032858253345069977	-0.02438706460343366	0.021935354676866452
3.965000	-0.02358741295607689	0.004395787754305804	0.0021920366189227616	0.017235197689952842	-0.032858253345069977	-0.024387081761264747	0.021935354676866452
3.970000	-0.02358741390302041	0.004395798731789395	0.0021920380228176474	0.017235194889128346	-0.032858253345069977	-0.024387098793551616	0.021935354676866452
3.975000	-0.023587414844616815	0.0043958096359361706	0.0021920394242027075	0.017235192096145078	-0.032858253345069977	-0.024387115702805617	0.021935354676866452
3.980000	-0.023587415780955273	0.004395820468167857	0.0021920408231093542	0.017235189310871854	-0.032858253345069977	-0.02438713249145607	0.021935354676866452
3.985000	-0.023587416712123055	0.004395831229862614	0.0021920422195678656	0.01723518653318166	-0.032858253345069977	-0.024387149161853992	0.021935354676866452
3.990000	-0.023587417638204662	0.004395841922353977	0.002192043613607709	0.017235183762951405	-0.032858253345069977	-0.024387165716275576	0.021935354676866452
3.995000	-0.02358741855928222	0.004395852546935404	0.0021920450052573485	0.017235181000061762	-0.032858253345069977	-0.024387182156925355	0.021935354676866452
4.000000	-0.023587419475436043	0.0043958631048595246	0.0021920463945446986	0.01723517824439697	-0.032858253345069977	-0.02438719848593939	0.021935354676866452
4.005000	-0.023587420386744003	0.004395873597341808	0.0021920477814967136	0.017235175495844843	-0.032858253345069977	-0.02438721470538825	0.021935354676866452
4.010000	-0.023587421293282146	0.004395884025561086	0.0021920491661396296	0.01723517275429634	-0.032858253345069977	-0.024387230817279608	0.021935354676866452
4.015000	-0.023587422195124497	0.004395894390661193	0.002192050548499077	0.01723517001964573	-0.032858253345069977	-0.024387246866478373	0.021935354676866452
4.020000	-0.02358742309234309	0.0043959046937530315	0.002192051928599831	0.017235167291790275	-0.032858253345069977	-0.02438726281147857	0.021935354676866452
4.025000	-0.023587423985008217	0.004395914935914541	0.0021920533064661643	0.017235164570630124	-0.032858253345069977	-0.02438727865391281	0.021935354676866452
4.030000	-0.02358742487318846	0.004395925118194428	0.0021920546821217034	0.01723516185606825	-0.032858253345069977	-0.024387294395576607	0.021935354676866452
4.035000	-0.02358742575695067	0.0043959352416106075	0.002192056055589293	0.01723515914801029	-0.032858253345069977	-0.024387310038214108	0.021935354676866452
4.040000	-0.02358742663636	0.004395945307152338	0.002192057426891528	0.017235156446364537	-0.032858253345069977	-0.024387325583520074	0.021935354676866452
4.045000	-0.023587427511479957	0.00439595531578237	0.0021920587960500594	0.01723515375104167	-0.032858253345069977	-0.02438734103314197	0.021935354676866452
4.050000	-0.023587428382372783	0.00439596526843717	0.002192060163086351	0.017235151061954817	-0.032858253345069977	-0.024387356388681627	0.021935354676866452
4.055000	-0.02358742924909896	0.0043959751660274495	0.0021920615280210005	0.01723514837901938	-0.032858253345069977	-0.024387371651697118	0.021935354676866452
4.060000	-0.02358743011171776	0.004395985009439379	0.002192062890874447	0.01723514570215299	-0.032858253345069977	-0.02438738682370436	0.021935354676866452
4.065000	-0.023587430970286753	0.004395994799536905	0.002192064251666452	0.01723514303127543	-0.032858253345069977	-0.02438740190617864	0.021935354676866452
4.070000	-0.02358743182486244	0.00439600453716002	0.0021920656104162523	0.017235140366308424	-0.032858253345069977	-0.024387416900556257	0.021935354676866452
4.075000	-0.023587432675500074	0.00439601422312704	0.0021920669671429763	0.017235137707175812	-0.032858253345069977	-0.02438743180823582	0.021935354676866452
4.080000	-0.02358743352225349	0.004396023858236852	0.0021920683218648977	0.01723513505380327	-0.032858253345069977	-0.02438744663057967	0.021935354676866452
4.085000	-0.023587434365175276	0.004396033443266216	0.0021920696746000595	0.01723513240611832	-0.032858253345069977	-0.024387461368915234	0.021935354676866452
4.090000	-0.023587435204316887	0.004396042978973645	0.0021920710253661834	0.01723512976405026	-0.032858253345069977	-0.024387476024536135	0.021935354676866452
4.095000	-0.023587436039728935	0.0043960524660977655	0.0021920723741806186	0.017235127127530107	-0.032858253345069977	-0.024387490598703515	0.021935354676866452
4.100000	-0.023587436871460345	0.004396061905359884	0.0021920737210600286	0.01723512449649051	-0.032858253345069977	-0.024387505092647074	0.021935354676866452
4.105000	-0.023587437699559295	0.004396071297463812	0.002192075066021107	0.017235121870865736	-0.032858253345069977	-0.02438751950756623	0.021935354676866452
4.110000	-0.023587438524073065	0.004396080643095574	0.0021920764090798493	0.017235119250591593	-0.032858253345069977	-0.024387533844631056	0.021935354676866452
4.115000	-0.023587439345047742	0.004396089942925119	0.0021920777502523296	0.017235116635605393	-0.032858253345069977	-0.02438754810498339	0.021935354676866452
4.120000	-0.023587440162528405	0.004396099197606295	0.002192079089553824	0.017235114025845846	-0.032858253345069977	-0.024387562289737676	0.021935354676866452
4.125000	-0.023587440976559182	0.004396108407778387	0.0021920804269996673	0.01723511142125311	-0.032858253345069977	-0.02438757639998194	0.021935354676866452
4.130000	-0.02358744178718351	0.004396117574065131	0.0021920817626047157	0.01723510882176867	-0.032858253345069977	-0.024387590436778617	0.021935354676866452
4.135000	-0.02358744259444356	0.004396126697076268	0.0021920830963834716	0.01723510622733532	-0.032858253345069977	-0.02438760440116542	0.021935354676866452
4.140000	-0.0235874433983809	0.004396135777407146	0.002192084428350248	0.01723510363789709	-0.032858253345069977	-0.02438761829415615	0.021935354676866452
4.145000	-0.023587444199036196	0.004396144815640114	0.002192085758519105	0.01723510105339929	-0.032858253345069977	-0.02438763211674132	0.021935354676866452
4.150000	-0.023587444996449245	0.004396153812344213	0.0021920870869038753	0.017235098473788374	-0.032858253345069977	-0.024387645869889108	0.021935354676866452
4.155000	-0.023587445790659092	0.004396162768076075	0.002192088413517812	0.017235095899011968	-0.032858253345069977	-0.024387659554545922	0.021935354676866452
4.160000	-0.023587446581703985	0.0043961716833789905	0.0021920897383743195	0.01723509332901879	-0.032858253345069977	-0.024387673171637043	0.021935354676866452
4.165000	-0.023587447369621435	0.004396180558786905	0.0021920910614863197	0.017235090763758634	-0.032858253345069977	-0.024387686722067443	0.021935354676866452
4.170000	-0.023587448154448125	0.00439618939481938	0.0021920923828665628	0.017235088203182373	-0.032858253345069977	-0.02438770020672223	0.021935354676866452
4.175000	-0.02358744893622022	0.004396198191986372	0.002192093702527551	0.01723508564724186	-0.032858253345069977	-0.024387713626467338	0.021935354676866452
4.180000	-0.02358744971497301	0.0043962069507869645	0.0021920950204815763	0.01723508309589	-0.032858253345069977	-0.024387726982150082	0.021935354676866452
4.185000	-0.0235874504907412	0.004396215671709368	0.002192096336740607	0.017235080549080524	-0.032858253345069977	-0.02438774027459972	0.021935354676866452
4.190000	-0.023587451263558764	0.004396224355230765	0.00219209765131664	0.0172350780067682	-0.032858253345069977	-0.024387753504627966	0.021935354676866452
4.195000	-0.02358745203345906	0.00439623300182014	0.0021920989642212445	0.01723507546890867	-0.032858253345069977	-0.02438776667302954	0.021935354676866452
4.200000	-0.0235874528004749	0.004396241611935719	0.0021921002754658	0.01723507293545842	-0.032858253345069977	-0.02438777978058263	0.021935354676866452
4.205000	-0.02358745356463843	0.00439625018602641	0.0021921015850616104	0.017235070406374845	-0.032858253345069977	-0.02438779282804939	0.021935354676866452
4.210000	-0.023587454325981146	0.004396258724532668	0.002192102893019788	0.017235067881616058	-0.032858253345069977	-0.024387805816176347	0.021935354676866452
4.215000	-0.02358745508453399	0.004396267227885238	0.0021921041993510065	0.017235065361141076	-0.032858253345069977	-0.0243878187456949	0.021935354676866452
4.220000	-0.0235874558403275	0.004396275696507168	0.0021921055040661098	0.017235062844909617	-0.032858253345069977	-0.024387831617321762	0.021935354676866452
4.225000	-0.02358745659339149	0.004396284130812212	0.002192106807175657	0.01723506033288223	-0.032858253345069977	-0.02438784443175929	0.021935354676866452
4.230000	-0.023587457343755208	0.004396292531206745	0.002192108108689788	0.017235057825020113	-0.032858253345069977	-0.024387857189695907	0.021935354676866452
4.235000	-0.02358745809144757	0.004396300898089013	0.0021921094086188326	0.017235055321285195	-0.032858253345069977	-0.024387869891806586	0.021935354676866452
4.240000	-0.023587458836496784	0.004396309231848826	0.0021921107069727205	0.017235052821640222	-0.032858253345069977	-0.024387882538753024	0.021935354676866452
4.245000	-0.02358745957893076	0.0043963175328704356	0.0021921120037613206	0.017235050326048402	-0.032858253345069977	-0.024387895131184216	0.021935354676866452
4.250000	-0.023587460318776763	0.004396325801528504	0.0021921132989942953	0.01723504783447374	-0.032858253345069977	-0.024387907669736607	0.021935354676866452
4.255000	-0.023587461056061607	0.0043963340381924535	0.0021921145926812984	0.01723504534688087	-0.032858253345069977	-0.02438792015503454	0.021935354676866452
4.260000	-0.0235874617908116	0.004396342243223233	0.0021921158848315914	0.017235042863234983	-0.032858253345069977	-0.02438793258769057	0.021935354676866452
4.265000	-0.02358746252305287	0.004396350416976362	0.0021921171754544725	0.01723504038350194	-0.032858253345069977	-0.024387944968305684	0.021935354676866452
4.270000	-0.023587463252810855	0.004396358559800055	0.0021921184645590664	0.017235037907648167	-0.032858253345069977	-0.024387957297469714	0.021935354676866452
4.275000	-0.023587463980110628	0.004396366672036652	0.0021921197521544006	0.017235035435640603	-0.032858253345069977	-0.02438796957576156	0.021935354676866452
4.280000	-0.023587464704976656	0.004396374754021684	0.0021921210382492267	0.01723503296744683	-0.032858253345069977	-0.024387981803749497	0.021935354676866452
4.285000	-0.0235874654274334	0.004396382806085229	0.0021921223228523225	0.0172350305030349	-0.032858253345069977	-0.024387993981991374	0.021935354676866452
4.290000	-0.023587466147504708	0.004396390828550941	0.002192123605972311	0.017235028042373507	-0.032858253345069977	-0.024388006111035025	0.021935354676866452
4.295000	-0.023587466865213756	0.0043963988217362955	0.002192124887617537	0.01723502558543171	-0.032858253345069977	-0.024388018191418382	0.021935354676866452
4.300000	-0.023587467580583953	0.004396406785954822	0.0021921261677964998	0.017235023132179193	-0.032858253345069977	-0.024388030223669765	0.021935354676866452
4.305000	-0.02358746829363783	0.004396414721512486	0.0021921274465173356	0.017235020682586012	-0.032858253345069977	-0.024388042208308147	0.021935354676866452
4.310000	-0.023587469004397746	0.0043964226287117976	0.0021921287237880744	0.017235018236622816	-0.032858253345069977	-0.024388054145843368	0.021935354676866452
4.315000	-0.023587469712885445	0.004396430507848385	0.002192129999616963	0.017235015794260657	-0.032858253345069977	-0.02438806603677634	0.021935354676866452
4.320000	-0.02358747041912302	0.004396438359214185	0.0021921312740116224	0.017235013355471073	-0.032858253345069977	-0.02438807788159927	0.021935354676866452
4.325000	-0.023587471123131476	0.004396446183094985	0.002192132546980004	0.017235010920225988	-0.032858253345069977	-0.024388089680795866	0.021935354676866452
4.330000	-0.023587471824931736	0.004396453979772192	0.002192133818529776	0.017235008488497815	-0.032858253345069977	-0.024388101434841596	0.021935354676866452
4.335000	-0.023587472524544562	0.004396461749523385	0.002192135088668402	0.017235006060259357	-0.032858253345069977	-0.024388113144203808	0.021935354676866452
4.340000	-0.023587473221989955	0.004396469492619232	0.0021921363574034253	0.017235003635483914	-0.032858253345069977	-0.024388124809341976	0.021935354676866452
4.345000	-0.023587473917288403	0.004396477209328489	0.0021921376247422495	0.01723500121414505	-0.032858253345069977	-0.02438813643070775	0.021935354676866452
4.350000	-0.02358747461045919	0.004396484899913572	0.002192138890692117	0.01723499879621681	-0.032858253345069977	-0.024388148008745433	0.021935354676866452
4.355000	-0.023587475301521985	0.004396492564633499	0.0021921401552602946	0.017234996381673657	-0.032858253345069977	-0.02438815954389177	0.021935354676866452
4.360000	-0.02358747599049565	0.004396500203742935	0.0021921414184536744	0.017234993970490352	-0.032858253345069977	-0.024388171036576506	0.021935354676866452
4.365000	-0.023587476677399057	0.004396507817492084	0.0021921426802794432	0.017234991562642046	-0.032858253345069977	-0.024388182487222184	0.021935354676866452
4.370000	-0.02358747736225086	0.004396515406127503	0.0021921439407445314	0.01723498915810434	-0.032858253345069977	-0.024388193896244612	0.021935354676866452
4.375000	-0.023587478045069197	0.004396522969891687	0.002192145199855602	0.017234986756853088	-0.032858253345069977	-0.02438820526405279	0.021935354676866452
4.380000	-0.023587478725872038	0.0043965305090231605	0.00219214645761953	0.01723498435886456	-0.032858253345069977	-0.02438821659104923	0.021935354676866452
4.385000	-0.023587479404677265	0.004396538023756862	0.0021921477140430124	0.017234981964115312	-0.032858253345069977	-0.024388227877629984	0.021935354676866452
4.390000	-0.023587480081502146	0.004396545514324201	0.0021921489691325118	0.017234979572582264	-0.032858253345069977	-0.024388239124184804	0.021935354676866452
4.395000	-0.02358748075636392	0.004396552980951578	0.002192150222894625	0.017234977184242713	-0.032858253345069977	-0.024388250331097396	0.021935354676866452
4.400000	-0.02358748142927978	0.004396560423865003	0.002185236691813898	0.017234974799074196	-0.032858253345069977	-0.024388261498745366	0.021935354676866452
4.405000	-0.023587482100266143	0.00439656784328338	0.0020789044885358137	0.017234972417054607	-0.032858253345069977	-0.02438827262750048	0.021935354676866452
4.410000	-0.023587482769339765	0.004396575239424201	0.0018304483657931633	0.0172349700381622	-0.032858253345069977	-0.02438828371772879	0.021935354676866452
4.415000	-0.023587483436516694	0.004396582612501733	0.0014545495678293507	0.017234967662375478	-0.032858253345069977	-0.024388294769790687	0.021935354676866452
4.420000	-0.02358748410181297	0.004396589962726352	0.0010193495857942474	0.017234965289673256	-0.032858253345069977	-0.02438830578404106	0.021935354676866452
4.425000	-0.023587484765244554	0.0043965972903058466	0.0005810147937004746	0.017234962920034666	-0.032858253345069977	-0.024388316760829434	0.021935354676866452
4.430000	-0.023587485426826805	0.004396604595444396	0.0005810114813807679	0.01723496055343912	-0.032858253345069977	-0.024388327700500048	0.021935354676866452
4.435000	-0.023587486086575245	0.004396611878343022	0.0005810081770631567	0.017234958189866312	-0.032858253345069977	-0.024388338603391974	0.021935354676866452
4.440000	-0.023587486744505084	0.0043966191392005045	0.0005810048818661543	0.017234955829296256	-0.032858253345069977	-0.02438834946983921	0.021935354676866452
4.445000	-0.023587487400631012	0.0043966263782123215	0.0005810015957102149	0.01723495347170921	-0.032858253345069977	-0.024388360300170876	0.021935354676866452
4.450000	-0.023587488054967853	0.004396633595570799	0.0005809983185168718	0.017234951117085732	-0.032858253345069977	-0.02438837109471114	0.021935354676866452
4.455000	-0.02358748870753031	0.0043966407914655115	0.0005809950502088882	0.017234948765406582	-0.032858253345069977	-0.024388381853779523	0.021935354676866452
4.460000	-0.023587489358332634	0.00439664796608447	0.0005809917907103751	0.01723494641665291	-0.032858253345069977	-0.0243883925776908	0.021935354676866452
4.465000	-0.023587490007388925	0.004396655119610849	0.0005809885399461895	0.017234944070806037	-0.032858253345069977	-0.024388403266755232	0.021935354676866452
4.470000	-0.0235874906547133	0.004396662252226593	0.0005809852978426681	0.017234941727847525	-0.032858253345069977	-0.024388413921278634	0.021935354676866452
4.475000	-0.023587491300319376	0.00439666936411152	0.000580982064326472	0.01723493938775928	-0.032858253345069977	-0.024388424541562394	0.021935354676866452
4.480000	-0.023587491944220787	0.004396676455441622	0.0005809788393261166	0.017234937050523418	-0.032858253345069977	-0.024388435127903646	0.021935354676866452
4.485000	-0.02358749258643091	0.004396683526391337	0.0005809756227706069	0.017234934716122245	-0.032858253345069977	-0.02438844568059528	0.021935354676866452
4.490000	-0.023587493226963175	0.004396690577132601	0.000580972414590061	0.017234932384538392	-0.032858253345069977	-0.02438845619992609	0.021935354676866452
4.495000	-0.023587493865830464	0.004396697607834275	0.0005809692147157597	0.01723493005575468	-0.032858253345069977	-0.024388466686180832	0.021935354676866452
4.500000	-0.023587494503045807	0.004396704618663104	0.0005809660230797348	0.017234927729754178	-0.032858253345069977	-0.024388477139640263	0.021935354676866452
4.505000	-0.023587495138621753	0.004396711609784592	0.0005809628396148264	0.0172349254065202	-0.032858253345069977	-0.02438848756058131	0.021935354676866452
4.510000	-0.023587495772571118	0.004396718581360496	0.0005809596642552279	0.017234923086036257	-0.032858253345069977	-0.024388497949277037	0.021935354676866452
4.515000	-0.023587496404906174	0.0043967255335515005	0.000580956496935502	0.017234920768286116	-0.032858253345069977	-0.024388508305996755	0.021935354676866452
4.520000	-0.02358749703563929	0.004396732466515595	0.0005809533375914621	0.0172349184532537	-0.032858253345069977	-0.02438851863100615	0.021935354676866452
4.525000	-0.0235874976647824	0.004396739380408145	0.0005809501861596487	0.01723491614092328	-0.032858253345069977	-0.024388528924567325	0.021935354676866452
4.530000	-0.023587498292347478	0.0043967462753834435	0.0005809470425774434	0.017234913831279158	-0.032858253345069977	-0.02438853918693873	0.021935354676866452
4.535000	-0.023587498918346522	0.004396753151593933	0.0005809439067831247	0.017234911524305986	-0.032858253345069977	-0.024388549418375514	0.021935354676866452
4.540000	-0.023587499542791063	0.0043967600091882626	0.000580940778715627	0.017234909219988583	-0.032858253345069977	-0.024388559619129283	0.021935354676866452
4.545000	-0.023587500165692686	0.004396766848314483	0.0005809376583150987	0.017234906918311928	-0.032858253345069977	-0.024388569789448374	0.021935354676866452
4.550000	-0.023587500787062562	0.004396773669119582	0.0005809345455219592	0.017234904619261235	-0.032858253345069977	-0.02438857992957788	0.021935354676866452
4.555000	-0.02358750140691203	0.004396780471746117	0.0005809314402775434	0.0172349023228219	-0.032858253345069977	-0.024388590039759593	0.021935354676866452
4.560000	-0.023587502025252418	0.004396787256337577	0.0005809283425242274	0.017234900028979542	-0.032858253345069977	-0.02438860012023218	0.021935354676866452
4.565000	-0.023587502642094263	0.004396794023032467	0.000580925252204767	0.01723489773771989	-0.032858253345069977	-0.024388610171231253	0.021935354676866452
4.570000	-0.02358750325744872	0.004396800771971196	0.0005809221692629329	0.01723489544902893	-0.032858253345069977	-0.02438862019298927	0.021935354676866452
4.575000	-0.02358750387132643	0.00439680750328904	0.0005809190936429676	0.017234893162892752	-0.032858253345069977	-0.024388630185735862	0.021935354676866452
4.580000	-0.02358750448373792	0.004396814217122071	0.0005809160252899688	0.017234890879297714	-0.032858253345069977	-0.024388640149697553	0.021935354676866452
4.585000	-0.023587505094693605	0.004396820913603294	0.0005809129641497577	0.01723488859823025	-0.032858253345069977	-0.02438865008509805	0.021935354676866452
4.590000	-0.023587505704203905	0.004396827592863426	0.0005809099101688631	0.017234886319677047	-0.032858253345069977	-0.024388659992158276	0.021935354676866452
4.595000	-0.02358750631227889	0.004396834255033122	0.0005809068632942321	0.017234884043624915	-0.032858253345069977	-0.02438866987109628	0.021935354676866452
4.600000	-0.023587506918928806	0.0043968409002410665	0.000580903823473651	0.01723488177006079	-0.032858253345069977	-0.024388679722127462	0.021935354676866452
4.605000	-0.02358750752416354	0.0043968475286140125	0.0005809007906555658	0.01723487949897181	-0.032858253345069977	-0.024388689545464432	0.021935354676866452
4.610000	-0.02358750812799292	0.004396854140276224	0.0005808977647890259	0.017234877230345322	-0.032858253345069977	-0.02438869934131724	0.021935354676866452
4.615000	-0.023587508730426636	0.00439686073535207	0.0005808947458236929	0.017234874964168662	-0.032858253345069977	-0.02438870910989336	0.021935354676866452
4.620000	-0.023587509331474483	0.004396867313963614	0.0005808917337098516	0.01723487270042951	-0.032858253345069977	-0.024388718851397626	0.021935354676866452
4.625000	-0.023587509931145743	0.004396873876231329	0.0005808887283984248	0.017234870439115518	-0.032858253345069977	-0.024388728566032428	0.021935354676866452
4.630000	-0.02358751052945005	0.004396880422274681	0.0005808857298406547	0.017234868180214608	-0.032858253345069977	-0.024388738253997653	0.021935354676866452
4.635000	-0.023587511126396617	0.004396886952211	0.0005808827379890236	0.01723486592371478	-0.032858253345069977	-0.02438874791549081	0.021935354676866452
4.640000	-0.02358751172199465	0.004396893466157794	0.0005808797527958199	0.01723486366960416	-0.032858253345069977	-0.024388757550706963	0.021935354676866452
4.645000	-0.02358751231625318	0.004396899964228554	0.0005808767742144887	0.017234861417871047	-0.032858253345069977	-0.02438876715983891	0.021935354676866452
4.650000	-0.02358751290918118	0.004396906446537757	0.0005808738021983659	0.01723485916850387	-0.032858253345069977	-0.02438877674307707	0.021935354676866452
4.655000	-0.023587513500787773	0.004396912913197245	0.0005808708367022325	0.017234856921491112	-0.032858253345069977	-0.024388786300609637	0.021935354676866452
4.660000	-0.023587514091081462	0.004396919364318252	0.0005808678776806821	0.017234854676821457	-0.032858253345069977	-0.024388795832622576	0.021935354676866452
4.665000	-0.023587514680071114	0.004396925800010949	0.0005808649250891446	0.01723485243448372	-0.032858253345069977	-0.024388805339299657	0.021935354676866452
4.670000	-0.023587515267765286	0.004396932220382144	0.0005808619788833305	0.0172348501944668	-0.032858253345069977	-0.0243888148208225	0.021935354676866452
4.675000	-0.02358751585417239	0.004396938625540499	0.0005808590390196048	0.017234847956759707	-0.032858253345069977	-0.02438882427737055	0.021935354676866452
4.680000	-0.023587516439300946	0.004396945015591401	0.000580856105455255	0.01723484572135157	-0.032858253345069977	-0.02438883370912123	0.021935354676866452
4.685000	-0.02358751702315933	0.004396951390639187	0.0005808531781470311	0.017234843488231663	-0.032858253345069977	-0.024388843116249923	0.021935354676866452
4.690000	-0.023587517605755764	0.004396957750787758	0.0005808502570535112	0.017234841257389305	-0.032858253345069977	-0.024388852498929924	0.021935354676866452
4.695000	-0.023587518187098203	0.004396964096138862	0.0005808473421324619	0.01723483902881402	-0.032858253345069977	-0.024388861857332605	0.021935354676866452
4.700000	-0.02358751876719475	0.004396970426793951	0.0005808444333428586	0.01723483680249536	-0.032858253345069977	-0.024388871191627335	0.021935354676866452
4.705000	-0.02358751934605361	0.004396976742853728	0.0005808415306438938	0.017234834578422998	-0.032858253345069977	-0.024388880501981593	0.021935354676866452
4.710000	-0.02358751992368252	0.004396983044416129	0.0005808386339955732	0.017234832356586717	-0.032858253345069977	-0.02438888978856091	0.021935354676866452
4.715000	-0.023587520500089144	0.004396989331578991	0.0005808357433578319	0.017234830136976412	-0.032858253345069977	-0.024388899051529023	0.021935354676866452
4.720000	-0.023587521075281385	0.004396995604439235	0.0005808328586912586	0.017234827919582068	-0.032858253345069977	-0.024388908291047805	0.021935354676866452
4.725000	-0.023587521649266918	0.004397001863092705	0.0005808299799570198	0.017234825704393743	-0.032858253345069977	-0.02438891750727728	0.021935354676866452
4.730000	-0.023587522222053216	0.004397008107633045	0.0005808271071166844	0.01723482349140161	-0.032858253345069977	-0.024388926700375756	0.021935354676866452
4.735000	-0.023587522793647717	0.0043970143381547745	0.0005808242401320347	0.017234821280595978	-0.032858253345069977	-0.024388935870499784	0.021935354676866452
4.740000	-0.02358752336405784	0.004397020554750405	0.0005808213789653179	0.017234819071967153	-0.032858253345069977	-0.024388945017804135	0.021935354676866452
4.745000	-0.023587523933291	0.004397026757510624	0.0005808185235793434	0.017234816865505587	-0.032858253345069977	-0.024388954142441924	0.021935354676866452
4.750000	-0.023587524501354373	0.00439703294652613	0.0005808156739371979	0.017234814661201837	-0.032858253345069977	-0.02438896324456459	0.021935354676866452
4.755000	-0.023587525068255236	0.0043970391218868775	0.0005808128300023151	0.017234812459046497	-0.032858253345069977	-0.024388972324321898	0.021935354676866452
4.760000	-0.02358752563400052	0.004397045283681325	0.0005808099917387621	0.017234810259030328	-0.032858253345069977	-0.02438898138186202	0.021935354676866452
4.765000	-0.02358752619859736	0.004397051431996698	0.0005808071591108174	0.017234808061144066	-0.032858253345069977	-0.024388990417331585	0.021935354676866452
4.770000	-0.023587526762052863	0.004397057566919386	0.0005808043320832262	0.01723480586537861	-0.032858253345069977	-0.02438899943087553	0.021935354676866452
4.775000	-0.023587527324373702	0.004397063688536407	0.0005808015106205603	0.01723480367172491	-0.032858253345069977	-0.024389008422637297	0.021935354676866452
4.780000	-0.023587527885566704	0.004397069796931458	0.0005807986946889526	0.017234801480174	-0.032858253345069977	-0.024389017392758807	0.021935354676866452
4.785000	-0.023587528445638783	0.0043970758921887225	0.000580795884253759	0.017234799290716973	-0.032858253345069977	-0.02438902634138048	0.021935354676866452
4.790000	-0.023587529004596524	0.00439708197439173	0.0005807930792810327	0.01723479710334507	-0.032858253345069977	-0.02438903526864124	0.021935354676866452
4.795000	-0.023587529562446523	0.004397088043622108	0.000580790279737408	0.017234794918049492	-0.032858253345069977	-0.02438904417467854	0.021935354676866452
4.800000	-0.023587530119195503	0.0043970940999617115	0.0005807874855898384	0.017234792734821636	-0.032858253345069977	-0.024389053059628407	0.021935354676866452
4.805000	-0.02358753067484972	0.0043971001434902224	0.0005807846968052654	0.017234790553652894	-0.032858253345069977	-0.024389061923625478	0.021935354676866452
4.810000	-0.023587531229415742	0.004397106174288252	0.0005807819133514542	0.01723478837453478	-0.032858253345069977	-0.024389070766802946	0.021935354676866452
4.815000	-0.023587531782900045	0.004397112192434502	0.000580779135195884	0.017234786197458815	-0.032858253345069977	-0.02438907958929263	0.021935354676866452
4.820000	-0.023587532335308598	0.004397118198006861	0.0005807763623068667	0.01723478402241664	-0.032858253345069977	-0.024389088391225	0.021935354676866452
4.825000	-0.02358753288664802	0.004397124191082442	0.0005807735946532777	0.017234781849399965	-0.032858253345069977	-0.02438909717272922	0.021935354676866452
4.830000	-0.023587533436924293	0.004397130171737246	0.0005807708322032867	0.017234779678400546	-0.032858253345069977	-0.024389105933933057	0.021935354676866452
4.835000	-0.02358753398614352	0.00439713614004805	0.0005807680749265048	0.017234777509410285	-0.032858253345069977	-0.024389114674963075	0.021935354676866452
4.840000	-0.023587534534311796	0.004397142096089306	0.0005807653227921164	0.01723477534242099	-0.032858253345069977	-0.024389123395944463	0.021935354676866452
4.845000	-0.023587535081435202	0.004397148039935239	0.0005807625757697117	0.01723477317742467	-0.032858253345069977	-0.024389132097001227	0.021935354676866452
4.850000	-0.023587535627519716	0.0043971539716589295	0.0005807598338298282	0.017234771014413383	-0.032858253345069977	-0.024389140778256057	0.021935354676866452
4.855000	-0.023587536172571075	0.0043971598913332514	0.0005807570969423911	0.01723476885337921	-0.032858253345069977	-0.024389149439830414	0.021935354676866452
4.860000	-0.023587536716595178	0.004397165799030757	0.0005807543650780955	0.017234766694314303	-0.032858253345069977	-0.024389158081844657	0.021935354676866452
4.865000	-0.023587537259597953	0.004397171694822315	0.0005807516382080082	0.017234764537210918	-0.032858253345069977	-0.02438916670441777	0.021935354676866452
4.870000	-0.023587537801585002	0.004397177578778352	0.0005807489163031625	0.01723476238206134	-0.032858253345069977	-0.02438917530766773	0.021935354676866452
4.875000	-0.02358753834256186	0.004397183450969179	0.0005807461993349132	0.01723476022885784	-0.032858253345069977	-0.024389183891711214	0.021935354676866452
4.880000	-0.023587538882534446	0.004397189311463324	0.0005807434872752721	0.01723475807759295	-0.032858253345069977	-0.024389192456663874	0.021935354676866452
4.885000	-0.023587539421508125	0.004397195160330064	0.0005807407800963293	0.017234755928259068	-0.032858253345069977	-0.02438920100264012	0.021935354676866452
4.890000	-0.023587539959488486	0.00439720099763689	0.0005807380777700898	0.017234753780848697	-0.032858253345069977	-0.024389209529753302	0.021935354676866452
4.895000	-0.023587540496481003	0.004397206823451166	0.0005807353802691605	0.017234751635354494	-0.032858253345069977	-0.02438921803811567	0.021935354676866452
4.900000	-0.023587541032491187	0.004397212637839548	0.000580732687566414	0.017234749491769043	-0.032858253345069977	-0.0243892265278384	0.021935354676866452
4.905000	-0.023587541567524243	0.004397218440867488	0.0005807299996348492	0.017234747350085088	-0.032858253345069977	-0.024389234999031537	0.021935354676866452
4.910000	-0.023587542101585673	0.004397224232600588	0.000580727316448048	0.017234745210295332	-0.032858253345069977	-0.024389243451804137	0.021935354676866452
4.915000	-0.023587542634680467	0.004397230013104204	0.0005807246379794812	0.01723474307239263	-0.032858253345069977	-0.024389251886264205	0.021935354676866452
4.920000	-0.023587543166814162	0.004397235782441116	0.0005807219642026875	0.017234740936369813	-0.032858253345069977	-0.0243892603025186	0.021935354676866452
4.925000	-0.023587543697991754	0.004397241540676014	0.0005807192950921577	0.017234738802219828	-0.032858253345069977	-0.024389268700673365	0.021935354676866452
4.930000	-0.02358754422821841	0.004397247287871126	0.0005807166306221398	0.017234736669935635	-0.032858253345069977	-0.02438927708083337	0.021935354676866452
4.935000	-0.023587544757499402	0.004397253024088733	0.0005807139707668021	0.017234734539510244	-0.032858253345069977	-0.0243892854431026	0.021935354676866452
4.940000	-0.023587545285839468	0.004397258749390738	0.0005807113155014386	0.017234732410936763	-0.032858253345069977	-0.024389293787583987	0.021935354676866452
4.945000	-0.023587545813243786	0.004397264463838408	0.0005807086648008473	0.0172347302842083	-0.032858253345069977	-0.024389302114379587	0.021935354676866452
4.950000	-0.023587546339717286	0.004397270167492003	0.0005807060186400776	0.017234728159318053	-0.032858253345069977	-0.02438931042359044	0.021935354676866452
4.955000	-0.023587546865264805	0.004397275860411285	0.0005807033769950516	0.017234726036259203	-0.032858253345069977	-0.024389318715316643	0.021935354676866452
4.960000	-0.023587547389891297	0.004397281542656526	0.0005807007398411727	0.017234723915025115	-0.032858253345069977	-0.024389326989657376	0.021935354676866452
4.965000	-0.02358754791360166	0.004397287214286238	0.000580698107154479	0.01723472179560904	-0.032858253345069977	-0.024389335246710976	0.021935354676866452
4.970000	-0.02358754843640046	0.004397292875358735	0.000580695478910884	0.017234719678004398	-0.032858253345069977	-0.024389343486574743	0.021935354676866452
4.975000	-0.023587548958292577	0.004397298525931528	0.0005806928550870869	0.017234717562204578	-0.032858253345069977	-0.02438935170934519	0.021935354676866452
4.980000	-0.023587549479282814	0.004397304166062681	0.0005806902356594278	0.017234715448203104	-0.032858253345069977	-0.024389359915117922	0.021935354676866452
4.985000	-0.023587549999375616	0.00439730979580877	0.0005806876206047307	0.017234713335993444	-0.032858253345069977	-0.024389368103987646	0.021935354676866452
4.990000	-0.023587550518575702	0.0043973154152258526	0.0005806850099000869	0.01723471122556923	-0.032858253345069977	-0.02438937627604828	0.021935354676866452
4.995000	-0.023587551036887797	0.004397321024369719	0.0005806824035224801	0.017234709116924013	-0.032858253345069977	-0.02438938443139279	0.021935354676866452
5.000000	-0.0235875515543161	0.0043973266232959106	0.0005806798014494456	0.01723470701005145	-0.032858253345069977	-0.02438939257011344	0.021935354676866452
5.005000	-0.023587552070865412	0.004397332212059472	0.0005806772036586246	0.01723470490494531	-0.032858253345069977	-0.024389400692301527	0.021935354676866452
5.010000	-0.0235875525865401	0.004397337790713775	0.0005806746101276843	0.017234702801599302	-0.032858253345069977	-0.02438940879804761	0.021935354676866452
5.015000	-0.023587553101344434	0.004397343359313247	0.0005806720208346022	0.017234700700007204	-0.032858253345069977	-0.02438941688744144	0.021935354676866452
5.020000	-0.023587553615283217	0.0043973489179116605	0.0005806694357576095	0.01723469860016289	-0.032858253345069977	-0.024389424960571983	0.021935354676866452
5.025000	-0.023587554128360354	0.004397354466561389	0.0005806668548750445	0.017234696502060224	-0.032858253345069977	-0.024389433017527336	0.021935354676866452
5.030000	-0.02358755464058053	0.0043973600053153405	0.0005806642781654246	0.01723469440569312	-0.032858253345069977	-0.024389441058394957	0.021935354676866452
5.035000	-0.023587555151947784	0.004397365534224571	0.0005806617056076015	0.017234692311055566	-0.032858253345069977	-0.02438944908326141	0.021935354676866452
5.040000	-0.02358755566246634	0.004397371053341665	0.0005806591371803581	0.017234690218141516	-0.032858253345069977	-0.024389457092212567	0.021935354676866452
5.045000	-0.023587556172140676	0.004397376562717117	0.0005806565728629	0.017234688126945116	-0.032858253345069977	-0.024389465085333545	0.021935354676866452
5.050000	-0.023587556680974685	0.004397382062401611	0.0005806540126345808	0.017234686037460364	-0.032858253345069977	-0.024389473062708677	0.021935354676866452
5.055000	-0.02358755718897264	0.004397387552445431	0.0005806514564746183	0.01723468394968146	-0.032858253345069977	-0.024389481024421632	0.021935354676866452
5.060000	-0.023587557696138628	0.004397393032898096	0.000580648904362803	0.017234681863602528	-0.032858253345069977	-0.024389488970555342	0.021935354676866452
5.065000	-0.023587558202476676	0.004397398503809717	0.0005806463562789028	0.017234679779217787	-0.032858253345069977	-0.024389496901191965	0.021935354676866452
5.070000	-0.023587558707991	0.0043974039652285475	0.0005806438122028541	0.01723467769652151	-0.032858253345069977	-0.02438950481641304	0.021935354676866452
5.075000	-0.023587559212685343	0.004397409417202913	0.0005806412721147142	0.017234675615508	-0.032858253345069977	-0.02438951271629934	0.021935354676866452
5.080000	-0.02358755971656389	0.004397414859781661	0.0005806387359951152	0.017234673536171523	-0.032858253345069977	-0.024389520600931004	0.021935354676866452
5.085000	-0.023587560219630516	0.004397420293012679	0.0005806362038240816	0.017234671458506504	-0.032858253345069977	-0.024389528470387452	0.021935354676866452
5.090000	-0.02358756072188924	0.004397425716941841	0.0005806336755826771	0.01723466938250731	-0.032858253345069977	-0.024389536324747448	0.021935354676866452
5.095000	-0.023587561223343656	0.004397431131617506	0.0005806311512512579	0.017234667308168472	-0.032858253345069977	-0.024389544164089075	0.021935354676866452
5.100000	-0.02358756172399794	0.004397436537085197	0.00058062863081112	0.017234665235484344	-0.032858253345069977	-0.0243895519884898	0.021935354676866452
5.105000	-0.023587562223855583	0.004397441933392162	0.0005806261142433239	0.017234663164449535	-0.032858253345069977	-0.024389559798026407	0.021935354676866452
5.110000	-0.02358756272292075	0.004397447320583153	0.0005806236015289557	0.017234661095058577	-0.032858253345069977	-0.02438956759277504	0.021935354676866452
5.115000	-0.02358756322119686	0.00439745269870367	0.0005806210926497003	0.01723465902730604	-0.032858253345069977	-0.02438957537281124	0.021935354676866452
5.120000	-0.023587563718687983	0.004397458067799054	0.000580618587586814	0.01723465696118657	-0.032858253345069977	-0.024389583138209867	0.021935354676866452
5.125000	-0.023587564215397542	0.004397463427913841	0.0005806160863222106	0.017234654896694828	-0.032858253345069977	-0.024389590889045236	0.021935354676866452
5.130000	-0.023587564711329247	0.004397468779092291	0.0005806135888377795	0.01723465283382553	-0.032858253345069977	-0.02438959862539096	0.021935354676866452
5.135000	-0.023587565206486742	0.004397474121377729	0.0005806110951154051	0.017234650772573384	-0.032858253345069977	-0.02438960634732014	0.021935354676866452
5.140000	-0.023587565700873853	0.004397479454814961	0.000580608605137381	0.017234648712933155	-0.032858253345069977	-0.024389614054905185	0.021935354676866452
5.145000	-0.02358756619449391	0.0043974847794464355	0.0005806061188857389	0.01723464665489964	-0.032858253345069977	-0.024389621748217984	0.021935354676866452
5.150000	-0.023587566687350542	0.004397490095314676	0.0005806036363431109	0.017234644598467727	-0.032858253345069977	-0.02438962942732986	0.021935354676866452
5.155000	-0.02358756717944744	0.0043974954024624925	0.0005806011574921773	0.017234642543632193	-0.032858253345069977	-0.02438963709231145	0.021935354676866452
5.160000	-0.02358756767078782	0.004397500700932385	0.0005805986823154644	0.017234640490388035	-0.032858253345069977	-0.0243896447432329	0.021935354676866452
5.165000	-0.02358756816137546	0.004397505990765629	0.0005805962107960482	0.017234638438730118	-0.032858253345069977	-0.024389652380163815	0.021935354676866452
5.170000	-0.023587568651213583	0.004397511272004443	0.0005805937429167358	0.017234636388653482	-0.032858253345069977	-0.024389660003173174	0.021935354676866452
5.175000	-0.02358756914030559	0.00439751654468918	0.0005805912786606381	0.01723463434015303	-0.032858253345069977	-0.024389667612329427	0.021935354676866452
5.180000	-0.02358756962865519	0.004397521808860848	0.0005805888180110495	0.017234632293223882	-0.032858253345069977	-0.02438967520770051	0.021935354676866452
5.185000	-0.023587570116265492	0.004397527064560507	0.0005805863609513653	0.017234630247861073	-0.032858253345069977	-0.024389682789353766	0.021935354676866452
5.190000	-0.023587570603139783	0.004397532311827989	0.0005805839074651663	0.01723462820355017	-0.032858253345069977	-0.02438969035735602	0.021935354676866452
5.195000	-0.02358757108928162	0.0043975375507030005	0.0005805814575361116	0.017234626160669175	-0.032858253345069977	-0.0243896979117736	0.021935354676866452
5.200000	-0.02358757157469418	0.004397542781225169	0.0005805790111478547	0.017234624119356192	-0.032858253345069977	-0.024389705452672283	0.021935354676866452
5.205000	-0.023587572059380755	0.004397548003434261	0.0005805765682841343	0.017234622079606406	-0.032858253345069977	-0.024389712980117332	0.021935354676866452
5.210000	-0.02358757254334457	0.004397553217368909	0.0005805741289293242	0.017234620041415002	-0.032858253345069977	-0.02438972049417351	0.021935354676866452
5.215000	-0.023587573026588926	0.004397558423067417	0.0005805716930674734	0.017234618004777207	-0.032858253345069977	-0.024389727994905047	0.021935354676866452
5.220000	-0.023587573509116833	0.004397563620568432	0.0005805692606826954	0.01723461596968834	-0.032858253345069977	-0.02438973548237569	0.021935354676866452
5.225000	-0.023587573990931598	0.004397568809910046	0.0005805668317593708	0.017234613936143655	-0.032858253345069977	-0.024389742956648718	0.021935354676866452
5.230000	-0.02358757447203659	0.004397573991129877	0.0005805644062822097	0.01723461190413842	-0.032858253345069977	-0.024389750417786852	0.021935354676866452
5.235000	-0.023587574952434444	0.00439757916426594	0.0005805619842356811	0.017234609873668025	-0.032858253345069977	-0.024389757865852398	0.021935354676866452
5.240000	-0.023587575432128687	0.004397584329354451	0.0005805595656045281	0.017234607844727814	-0.032858253345069977	-0.024389765300907185	0.021935354676866452
5.245000	-0.023587575911122198	0.004397589486433701	0.0005805571503736343	0.01723460581731318	-0.032858253345069977	-0.024389772723012453	0.021935354676866452
5.250000	-0.02358757638941819	0.004397594635538918	0.0005805547385279077	0.017234603791419535	-0.032858253345069977	-0.024389780132229134	0.021935354676866452
5.255000	-0.02358757686701954	0.004397599776707405	0.0005805523300525511	0.01723460176704232	-0.032858253345069977	-0.024389787528617583	0.021935354676866452
5.260000	-0.02358757734392942	0.004397604909974319	0.0005805499249326631	0.01723459974417699	-0.032858253345069977	-0.02438979491223776	0.021935354676866452
5.265000	-0.02358757782015059	0.004397610035376409	0.0005805475231532835	0.017234597722819073	-0.032858253345069977	-0.024389802283149093	0.021935354676866452
5.270000	-0.023587578295686328	0.004397615152949095	0.0005805451247003508	0.01723459570296405	-0.032858253345069977	-0.024389809641410666	0.021935354676866452
5.275000	-0.023587578770539363	0.00439762026272705	0.0005805427295590051	0.017234593684607488	-0.032858253345069977	-0.024389816987081026	0.021935354676866452
5.280000	-0.023587579244712716	0.0043976253647458555	0.0005805403377149229	0.017234591667744933	-0.032858253345069977	-0.024389824320218363	0.021935354676866452
5.285000	-0.023587579718209364	0.004397630459040057	0.0005805379491538622	0.017234589652371995	-0.032858253345069977	-0.024389831640880315	0.021935354676866452
5.290000	-0.02358758019103205	0.004397635545644102	0.0005805355638617022	0.01723458763848429	-0.032858253345069977	-0.02438983894912419	0.021935354676866452
5.295000	-0.023587580663183776	0.0043976406245922585	0.0005805331818242825	0.017234585626077444	-0.032858253345069977	-0.02438984624500687	0.021935354676866452
5.300000	-0.023587581134667236	0.004397645695918589	0.0005805308030276766	0.017234583615147153	-0.032858253345069977	-0.024389853528584724	0.021935354676866452
5.305000	-0.023587581605485405	0.004397650759656693	0.0005805284274581161	0.017234581605689088	-0.032858253345069977	-0.024389860799913798	0.021935354676866452
5.310000	-0.02358758207564109	0.004397655815840264	0.0005805260551016225	0.017234579597698942	-0.032858253345069977	-0.024389868059049694	0.021935354676866452
5.315000	-0.02358758254513699	0.004397660864502395	0.0005805236859447761	0.017234577591172473	-0.032858253345069977	-0.024389875306047557	0.021935354676866452
5.320000	-0.023587583013975864	0.004397665905676485	0.000580521319973732	0.017234575586105486	-0.032858253345069977	-0.024389882540962235	0.021935354676866452
5.325000	-0.023587583482160685	0.004397670939394732	0.0005805189571753775	0.017234573582493716	-0.032858253345069977	-0.02438988976384805	0.021935354676866452
5.330000	-0.023587583949693913	0.004397675965689711	0.0005805165975360429	0.017234571580332987	-0.032858253345069977	-0.024389896974759028	0.021935354676866452
5.335000	-0.023587584416578298	0.004397680984594168	0.000580514241042468	0.01723456957961916	-0.032858253345069977	-0.024389904173748703	0.021935354676866452
5.340000	-0.023587584882816752	0.004397685996140283	0.0005805118876816198	0.017234567580348057	-0.032858253345069977	-0.02438991136087035	0.021935354676866452
5.345000	-0.02358758534841167	0.004397691000358792	0.0005805095374403473	0.01723456558251557	-0.032858253345069977	-0.024389918536176714	0.021935354676866452
5.350000	-0.02358758581336587	0.004397695997282319	0.0014477795140547516	0.017234563586117607	-0.032858253345069977	-0.02438992569972027	0.021935354676866452
5.355000	-0.023587586277682034	0.004397700986942046	0.0014693163602151355	0.017234561591150124	-0.032858253345069977	-0.024389932851553095	0.021935354676866452
5.360000	-0.023587586741362618	0.004397705969368893	0.0018663495939622715	0.017234559597609042	-0.032858253345069977	-0.024389939991726815	0.021935354676866452
5.365000	-0.023587587204410287	0.004397710944594204	0.0021123338170563194	0.017234557605490322	-0.032858253345069977	-0.02438994712029282	0.021935354676866452
5.370000	-0.023587587666827843	0.004397715912648051	0.0021923746651248046	0.01723455561479001	-0.032858253345069977	-0.02438995423730198	0.021935354676866452
5.375000	-0.02358758812861747	0.004397720873561696	0.0021923757323539118	0.01723455362550407	-0.032858253345069977	-0.024389961342804908	0.021935354676866452
5.380000	-0.02358758858978202	0.004397725827365064	0.0021923767991384076	0.017234551637628596	-0.032858253345069977	-0.02438996843685185	0.021935354676866452
5.385000	-0.02358758905032396	0.0043977307740880826	0.0021923778652111377	0.017234549651159586	-0.032858253345069977	-0.02438997551949266	0.021935354676866452
5.390000	-0.023587589510245796	0.004397735713761019	0.0021923789305737327	0.01723454766609319	-0.032858253345069977	-0.02438998259077684	0.021935354676866452
5.395000	-0.0235875899695498	0.004397740646412938	0.002192379995227641	0.017234545682425502	-0.032858253345069977	-0.024389989650753598	0.021935354676866452
5.400000	-0.023587590428238835	0.0043977455720736955	0.002192381059174549	0.01723454370015261	-0.032858253345069977	-0.024389996699471752	0.021935354676866452
5.405000	-0.023587590886315114	0.0043977504907725335	0.0021923821224160943	0.017234541719270736	-0.032858253345069977	-0.024390003736979762	0.021935354676866452
5.410000	-0.023587591343781165	0.0043977554025386445	0.002192383184953746	0.017234539739775984	-0.032858253345069977	-0.024390010763325788	0.021935354676866452
5.415000	-0.023587591800639456	0.004397760307400562	0.002192384246789001	0.0172345377616646	-0.032858253345069977	-0.02439001777855762	0.021935354676866452
5.420000	-0.023587592256892304	0.004397765205387094	0.002192385307923648	0.017234535784932746	-0.032858253345069977	-0.024390024782722786	0.021935354676866452
5.425000	-0.02358759271254214	0.004397770096526394	0.002192386368359103	0.017234533809576735	-0.032858253345069977	-0.024390031775868373	0.021935354676866452
5.430000	-0.023587593167591427	0.004397774980847213	0.0021923874280969126	0.017234531835592752	-0.032858253345069977	-0.024390038758041244	0.021935354676866452
5.435000	-0.023587593622042588	0.004397779858377475	0.002192388487138661	0.017234529862977147	-0.032858253345069977	-0.024390045729287883	0.021935354676866452
5.440000	-0.023587594075897857	0.004397784729144264	0.002192389545485847	0.017234527891726137	-0.032858253345069977	-0.024390052689654485	0.021935354676866452
5.445000	-0.02358759452915943	0.004397789593176619	0.0021923906031399883	0.017234525921836094	-0.032858253345069977	-0.024390059639186876	0.021935354676866452
5.450000	-0.023587594981829933	0.004397794450500919	0.0021923916601026515	0.017234523953303355	-0.032858253345069977	-0.024390066577930664	0.021935354676866452
5.455000	-0.02358759543391145	0.004397799301145363	0.002192392716375346	0.017234521986124282	-0.032858253345069977	-0.02439007350593104	0.021935354676866452
5.460000	-0.023587595885406376	0.004397804145136559	0.002192393771959523	0.01723452002029524	-0.032858253345069977	-0.024390080423232974	0.021935354676866452
5.465000	-0.02358759633631701	0.004397808982501134	0.0021923948268567656	0.01723451805581262	-0.032858253345069977	-0.024390087329881065	0.021935354676866452
5.470000	-0.023587596786645616	0.004397813813266626	0.0021923958810684627	0.01723451609267288	-0.032858253345069977	-0.024390094225919652	0.021935354676866452
5.475000	-0.023587597236394288	0.00439781863745894	0.002192396934596259	0.017234514130872437	-0.032858253345069977	-0.024390101111392802	0.021935354676866452
5.480000	-0.023587597685565478	0.004397823455105048	0.0021923979874415057	0.017234512170407768	-0.032858253345069977	-0.024390107986344167	0.021935354676866452
5.485000	-0.023587598134161256	0.00439782826623057	0.0021923990396057226	0.01723451021127532	-0.032858253345069977	-0.02439011485081727	0.021935354676866452
5.490000	-0.023587598582183806	0.00439783307086225	0.002192400091090391	0.017234508253471618	-0.032858253345069977	-0.024390121704855203	0.021935354676866452
5.495000	-0.02358759902963551	0.00439783786902536	0.0021924011418969803	0.017234506296993152	-0.032858253345069977	-0.024390128548500832	0.021935354676866452
5.500000	-0.02358759947651835	0.0043978426607458425	0.002192402192026892	0.017234504341836498	-0.032858253345069977	-0.02439013538179674	0.021935354676866452
5.505000	-0.02358759992283469	0.004397847446049831	0.002192403241481608	0.017234502387998157	-0.032858253345069977	-0.024390142204785248	0.021935354676866452
5.510000	-0.0235876003685864	0.004397852224961505	0.002192404290262597	0.01723450043547476	-0.032858253345069977	-0.024390149017508345	0.021935354676866452
5.515000	-0.023587600813775873	0.004397856997506732	0.0021924053383712873	0.017234498484262874	-0.032858253345069977	-0.02439015582000776	0.021935354676866452
5.520000	-0.02358760125840511	0.00439786176371109	0.0021924063858090957	0.017234496534359125	-0.032858253345069977	-0.024390162612324944	0.021935354676866452
5.525000	-0.023587601702476355	0.004397866523598724	0.002192407432577528	0.017234494585760096	-0.032858253345069977	-0.024390169394501084	0.021935354676866452
5.530000	-0.023587602145991465	0.00439787127719466	0.0021924084786779183	0.017234492638462506	-0.032858253345069977	-0.02439017616657715	0.021935354676866452
5.535000	-0.023587602588952705	0.0043978760245231945	0.0021924095241117256	0.017234490692462936	-0.032858253345069977	-0.02439018292859372	0.021935354676866452
5.540000	-0.023587603031362005	0.004397880765609401	0.0021924105688803514	0.01723448874775813	-0.032858253345069977	-0.02439018968059121	0.021935354676866452
5.545000	-0.023587603473221672	0.004397885500476094	0.0021924116129851783	0.01723448680434479	-0.032858253345069977	-0.024390196422609776	0.021935354676866452
5.550000	-0.023587603914533524	0.004397890229149265	0.0021924126564275975	0.017234484862219568	-0.032858253345069977	-0.024390203154689254	0.021935354676866452
5.555000	-0.023587604355299663	0.004397894951651235	0.00219241369920907	0.017234482921379288	-0.032858253345069977	-0.024390209876869223	0.021935354676866452
5.560000	-0.023587604795522108	0.0043978996680065705	0.002192414741330903	0.017234480981820625	-0.032858253345069977	-0.024390216589189044	0.021935354676866452
5.565000	-0.02358760523520287	0.00439790437823918	0.0021924157827945424	0.017234479043540408	-0.032858253345069977	-0.02439022329168787	0.021935354676866452
5.570000	-0.02358760567434392	0.004397909082372176	0.0021924168236013824	0.017234477106535365	-0.032858253345069977	-0.024390229984404467	0.021935354676866452
5.575000	-0.023587606112947315	0.0043979137804289175	0.00219241786375266	0.017234475170802403	-0.032858253345069977	-0.02439023666737748	0.021935354676866452
5.580000	-0.02358760655101492	0.004397918472432037	0.0021924189032499087	0.017234473236338217	-0.032858253345069977	-0.02439024334064522	0.021935354676866452
5.585000	-0.02358760698854882	0.0043979231584051716	0.002192419942094348	0.017234471303139702	-0.032858253345069977	-0.024390250004245828	0.021935354676866452
5.590000	-0.023587607425550862	0.0043979278383718574	0.002192420980287487	0.017234469371203723	-0.032858253345069977	-0.02439025665821714	0.021935354676866452
5.595000	-0.023587607862022977	0.004397932512353144	0.002192422017830549	0.01723446744052711	-0.032858253345069977	-0.02439026330259679	0.021935354676866452
5.600000	-0.02358760829796717	0.004397937180373517	0.0021924230547248885	0.017234465511106807	-0.032858253345069977	-0.02439026993742218	0.021935354676866452
5.605000	-0.02358760873338531	0.004397941842454546	0.002192424090971888	0.017234463582939653	-0.032858253345069977	-0.024390276562730406	0.021935354676866452
5.610000	-0.023587609168279382	0.004397946498618164	0.002192425126572854	0.017234461656022635	-0.032858253345069977	-0.024390283178558455	0.021935354676866452
5.615000	-0.023587609602650918	0.004397951148886853	0.002192426161529166	0.017234459730352616	-0.032858253345069977	-0.024390289784942953	0.021935354676866452
5.620000	-0.023587610036502425	0.004397955793283165	0.0021924271958420824	0.017234457805926584	-0.032858253345069977	-0.024390296381920362	0.021935354676866452
5.625000	-0.023587610469835173	0.0043979604318283875	0.002192428229512978	0.01723445588274149	-0.032858253345069977	-0.02439030296952694	0.021935354676866452
5.630000	-0.023587610902651383	0.004397965064544847	0.00219242926254303	0.017234453960794326	-0.032858253345069977	-0.024390309547798656	0.021935354676866452
5.635000	-0.023587611334952612	0.004397969691454046	0.002192430294933696	0.017234452040082088	-0.032858253345069977	-0.024390316116771286	0.021935354676866452
5.640000	-0.02358761176674099	0.004397974312576815	0.002192431326686256	0.0172344501206018	-0.032858253345069977	-0.02439032267648039	0.021935354676866452
5.645000	-0.023587612198018203	0.004397978927935001	0.0021924323578020564	0.017234448202350455	-0.032858253345069977	-0.024390329226961313	0.021935354676866452
5.650000	-0.023587612628785958	0.004397983537550608	0.002192433388282178	0.017234446285325077	-0.032858253345069977	-0.02439033576824913	0.021935354676866452
5.655000	-0.02358761305904622	0.004397988141443824	0.0021924344181281155	0.017234444369522813	-0.032858253345069977	-0.024390342300378797	0.021935354676866452
5.660000	-0.023587613488800726	0.004397992739636082	0.002192435447341129	0.01723444245494062	-0.032858253345069977	-0.02439034882338495	0.021935354676866452
5.665000	-0.023587613918051278	0.0043979973321477	0.002192436475922358	0.017234440541575663	-0.032858253345069977	-0.02439035533730207	0.021935354676866452
5.670000	-0.023587752360900858	0.004398001919000214	0.002192437503873228	0.01723443862942503	-0.032858253345069977	-0.024390361842164456	0.021935354676866452
5.675000	-0.023587752788858666	0.004398006500213438	0.0021924385311949523	0.017234436718485818	-0.032858253345069977	-0.024390368338006112	0.021935354676866452
5.680000	-0.023587753216319784	0.004398011075808287	0.0021924395578887222	0.01723443480875514	-0.032858253345069977	-0.024390374824860925	0.021935354676866452
5.685000	-0.023587753643286136	0.004398015645805357	0.002192440583955917	0.01723443290023018	-0.032858253345069977	-0.024390381302762488	0.021935354676866452
5.690000	-0.023587754069759582	0.004398020210224868	0.0021924416093977474	0.017234430992908056	-0.032858253345069977	-0.024390387771744265	0.021935354676866452
5.695000	-0.023587754495741582	0.004398024769085952	0.0021924426342154624	0.017234429086785963	-0.032858253345069977	-0.02439039423183953	0.021935354676866452
5.700000	-0.0235877549212339	0.004398029322409716	0.0021924436584102487	0.01723442718186107	-0.032858253345069977	-0.02439040068308123	0.021935354676866452
5.705000	-0.02358775534623836	0.004398033870216127	0.0021924446819833934	0.01723442527813058	-0.032858253345069977	-0.024390407125502243	0.021935354676866452
5.710000	-0.02358775577075651	0.004398038412524107	0.0021924457049361575	0.01723442337559172	-0.032858253345069977	-0.024390413559135224	0.021935354676866452
5.715000	-0.023587756194790012	0.004398042949353377	0.002192446727269693	0.017234421474241687	-0.032858253345069977	-0.024390419984012576	0.021935354676866452
5.720000	-0.02358775661834065	0.004398047480724292	0.002192447748985355	0.017234419574077738	-0.032858253345069977	-0.02439042640016658	0.021935354676866452
5.725000	-0.02358775704141005	0.0043980520066557805	0.002192448770084194	0.017234417675097116	-0.032858253345069977	-0.024390432807629293	0.021935354676866452
5.730000	-0.023587757463999787	0.004398056527167444	0.0021924497905675324	0.017234415777297087	-0.032858253345069977	-0.024390439206432562	0.021935354676866452
5.735000	-0.023587757886111588	0.0043980610422779945	0.0021924508104366348	0.017234413880674943	-0.032858253345069977	-0.02439044559660804	0.021935354676866452
5.740000	-0.02358775830774701	0.004398065552006658	0.0021924518296925627	0.01723441198522798	-0.032858253345069977	-0.02439045197818728	0.021935354676866452
5.745000	-0.02358775872890772	0.004398070056372554	0.0021924528483366085	0.017234410090953462	-0.032858253345069977	-0.02439045835120154	0.021935354676866452
5.750000	-0.02358775914959529	0.004398074555394252	0.002192453866369971	0.017234408197848723	-0.032858253345069977	-0.024390464715681952	0.021935354676866452
5.755000	-0.023587759569811465	0.004398079049091146	0.0021924548837938818	0.017234406305911124	-0.032858253345069977	-0.02439047107165944	0.021935354676866452
5.760000	-0.02358775998955766	0.00439808353748102	0.0021924559006094163	0.01723440441513796	-0.032858253345069977	-0.02439047741916477	0.021935354676866452
5.765000	-0.023587760408835444	0.004398088020583123	0.0021924569168178913	0.0172344025255266	-0.032858253345069977	-0.02439048375822849	0.021935354676866452
5.770000	-0.02358776082764653	0.004398092498415062	0.0021924579324203615	0.01723440063707443	-0.032858253345069977	-0.024390490088881063	0.021935354676866452
5.775000	-0.023587761245992413	0.004398096970996421	0.0021924589474180915	0.0172343987497788	-0.032858253345069977	-0.024390496411152644	0.021935354676866452
5.780000	-0.023587761663874635	0.004398101438343805	0.002192459961812235	0.017234396863637112	-0.032858253345069977	-0.02439050272507332	0.021935354676866452
5.785000	-0.023587762081294858	0.004398105900476889	0.0021924609756038896	0.0172343949786468	-0.032858253345069977	-0.024390509030672906	0.021935354676866452
5.790000	-0.023587762498254408	0.004398110357412864	0.002192461988794336	0.017234393094805213	-0.032858253345069977	-0.024390515327981165	0.021935354676866452
5.795000	-0.023587762914754933	0.004398114809169269	0.0021924630013846463	0.01723439121210984	-0.032858253345069977	-0.024390521617027573	0.021935354676866452
5.800000	-0.02358776333079813	0.004398119255765157	0.002192464013375946	0.017234389330558084	-0.032858253345069977	-0.024390527897841498	0.021935354676866452
5.805000	-0.023587763746385267	0.004398123697216844	0.0021924650247695885	0.0172343874501474	-0.032858253345069977	-0.024390534170452147	0.021935354676866452
5.810000	-0.023587764161517873	0.004398128133542551	0.0021924660355665364	0.017234385570875248	-0.032858253345069977	-0.0243905404348885	0.021935354676866452
5.815000	-0.023587764576197597	0.004398132564760202	0.0021924670457678947	0.017234383692739122	-0.032858253345069977	-0.02439054669117944	0.021935354676866452
5.820000	-0.023587764990425752	0.004398136990886708	0.0021924680553748865	0.01723438181573648	-0.032858253345069977	-0.02439055293935363	0.021935354676866452
5.825000	-0.02358776540420396	0.004398141411938842	0.002192469064388688	0.017234379939864836	-0.032858253345069977	-0.02439055917943964	0.021935354676866452
5.830000	-0.02358776581753366	0.004398145827935178	0.002192470072810402	0.017234378065121684	-0.032858253345069977	-0.024390565411465788	0.021935354676866452
5.835000	-0.023587766230416363	0.004398150238891668	0.002192471080641174	0.01723437619150455	-0.032858253345069977	-0.02439057163546028	0.021935354676866452
5.840000	-0.02358776664285333	0.004398154644825643	0.002192472087882003	0.017234374319010953	-0.032858253345069977	-0.024390577851451184	0.021935354676866452
5.845000	-0.023587767054846213	0.004398159045754255	0.002192473094534148	0.017234372447638424	-0.032858253345069977	-0.024390584059466387	0.021935354676866452
5.850000	-0.023587767466396327	0.004398163441694022	0.0021924741005986317	0.017234370577384542	-0.032858253345069977	-0.02439059025953358	0.021935354676866452
5.855000	-0.023587767877505335	0.00439816783266191	0.0021924751060766606	0.01723436870824686	-0.032858253345069977	-0.024390596451680385	0.021935354676866452
5.860000	-0.023587768288174372	0.00439817221867411	0.0021924761109692464	0.017234366840222937	-0.032858253345069977	-0.024390602635934178	0.021935354676866452
5.865000	-0.02358776869840507	0.004398176599748099	0.0021924771152775305	0.01723436497331038	-0.032858253345069977	-0.024390608812322218	0.021935354676866452
5.870000	-0.023587769108198677	0.004398180975899533	0.0021924781190026613	0.017234363107506742	-0.032858253345069977	-0.024390614980871667	0.021935354676866452
5.875000	-0.023587769517556686	0.0043981853471450685	0.0021924791221456293	0.017234361242809644	-0.032858253345069977	-0.02439062114160942	0.021935354676866452
5.880000	-0.023587769926480547	0.004398189713500356	0.0021924801247076003	0.017234359379216718	-0.032858253345069977	-0.024390627294562345	0.021935354676866452
5.885000	-0.02358777033497159	0.004398194074982816	0.0021924811266897	0.017234357516725564	-0.032858253345069977	-0.024390633439757066	0.021935354676866452
5.890000	-0.023587770743031016	0.004398198431607337	0.002192482128092834	0.017234355655333856	-0.032858253345069977	-0.024390639577220107	0.021935354676866452
5.895000	-0.023587771150660596	0.004398202783391048	0.002192483128918272	0.017234353795039188	-0.032858253345069977	-0.02439064570697786	0.021935354676866452
5.900000	-0.023587771557861344	0.004398207130348822	0.0021924841291670917	0.017234351935839207	-0.032858253345069977	-0.024390651829056486	0.021935354676866452
5.905000	-0.02358777196463486	0.004398211472496845	0.002192485128840257	0.01723435007773163	-0.032858253345069977	-0.026118199577974257	0.021935354676866452
5.910000	-0.023587772370982297	0.004398215809851325	0.0021924861279388926	0.017234348220714134	-0.032858253345069977	-0.026520310404620287	0.021935354676866452
5.915000	-0.023587772776905144	0.004398220142427681	0.002192487126463964	0.017234346364784343	-0.032858253345069977	-0.026520317781879018	0.021935354676866452
5.920000	-0.023587773182404684	0.004398224470240895	0.0021924881244166777	0.01723434450993998	-0.032858253345069977	-0.02652032515043777	0.021935354676866452
5.925000	-0.023587773587482257	0.004398228793307193	0.0021924891217980896	0.017234342656178757	-0.032858253345069977	-0.026520332510181294	0.021935354676866452
5.930000	-0.023587773992139238	0.004398233111641569	0.002192490118609095	0.017234340803498373	-0.032858253345069977	-0.0265203398611389	0.021935354676866452
5.935000	-0.02358777439637682	0.004398237425260189	0.00219249111485092	0.017234338951896532	-0.032858253345069977	-0.026520347203339692	0.021935354676866452
5.940000	-0.02358777480019642	0.004398241734177092	0.0021924921105244705	0.017234337101371004	-0.032858253345069977	-0.02652035453681262	0.021935354676866452
5.945000	-0.023587775203599316	0.004398246038407898	0.002192493105630945	0.017234335251919558	-0.032858253345069977	-0.02652036186158647	0.021935354676866452
5.950000	-0.023587775606586855	0.004398250337967992	0.0021924941001712564	0.01723433340353987	-0.032858253345069977	-0.02652036917768988	0.021935354676866452
5.955000	-0.023587776009160327	0.004398254632872044	0.002192495094146525	0.017234331556229707	-0.032858253345069977	-0.02652037648515136	0.021935354676866452
5.960000	-0.02358777641132094	0.004398258923135157	0.002192496087557753	0.017234329709986857	-0.032858253345069977	-0.026520383783999242	0.021935354676866452
5.965000	-0.023587776813069894	0.004398263208772307	0.002192497080405949	0.017234327864809103	-0.032858253345069977	-0.026520391074261702	0.021935354676866452
5.970000	-0.023587777214408707	0.004398267489798043	0.002192498072692001	0.01723432602069422	-0.032858253345069977	-0.02652039835596678	0.021935354676866452
