semimem_r.sto
version=1
nRows=475
nColumns=8
in_degrees=yes
endheader
time	hip_flexion_r	hip_adduction_r	hip_rotation_r	knee_angle_r	knee_rotation_r	knee_adduction_r	knee_angle_r_beta
3.600000	0.04336650082833413	-0.017652093849453692	-0.004254574674040057	0.012354801813592439	-0.01714783569657271	0.016362526484544036	0.010095947302703828
3.605000	0.043366501132433045	-0.01765217792986121	-0.004254569846667014	0.012354809111221797	-0.01714783569657271	0.016362579699351138	0.010095947302703828
3.610000	0.04336650133268308	-0.017652250875854546	-0.004254565861087002	0.012354815115032752	-0.01714783569657271	0.016362624538970978	0.010095947302703828
3.615000	0.043366501527090096	-0.017652316089177073	-0.004254562419174924	0.012354820317457854	-0.01714783569657271	0.01636266397332864	0.010095947302703828
3.620000	0.04336650171613598	-0.017652375529680513	-0.004254559363482208	0.012354824941290669	-0.01714783569657271	0.016362699565567795	0.010095947302703828
3.625000	0.043366501900238726	-0.017652430488291702	-0.00425455659957533	0.012354829128792606	-0.01714783569657271	0.0163627322552825	0.010095947302703828
3.630000	0.04336650207976642	-0.01765248182569447	-0.004254554065764502	0.012354832972604635	-0.01714783569657271	0.01636276265598012	0.010095947302703828
3.635000	0.0433665022550425	-0.017652530162144898	-0.0042545517192226524	0.012354836536865369	-0.01714783569657271	0.01636279119333224	0.010095947302703828
3.640000	0.0433665024263554	-0.017652575960219383	-0.004254549528824508	0.012354839868087955	-0.01714783569657271	0.016362818176692787	0.010095947302703828
3.645000	0.04336650259396032	-0.017652619575516313	-0.0042545474711264165	0.012354843001258156	-0.01714783569657271	0.016362843839187728	0.010095947302703828
3.650000	0.04336650275808771	-0.017652661288215972	-0.004254545527983544	0.012354845963483237	-0.01714783569657271	0.016362868361571116	0.010095947302703828
3.655000	0.04336650291894516	-0.017652701323638144	-0.00425454368499548	0.012354848776280802	-0.01714783569657271	0.01636289188994347	0.010095947302703828
3.660000	0.043366503076718924	-0.017652739866135917	-0.004254541930519749	0.012354851457070862	-0.01714783569657271	0.0163629145216908	0.010095947302703828
3.665000	0.04336650323158008	-0.017652777068772264	-0.004254540254987203	0.012354854020183815	-0.01714783569657271	0.016362936361842644	0.010095947302703828
3.670000	0.04336650338368341	-0.01765281306026755	-0.00425453865042057	0.012354856477567969	-0.01714783569657271	0.016362957490221375	0.010095947302703828
3.675000	0.04336650353317001	-0.01765284795007301	-0.004254537110090512	0.012354858839303137	-0.01714783569657271	0.016362977989096007	0.010095947302703828
3.680000	0.043366503680170594	-0.0176528818321643	-0.004254535628255538	0.0123548611139826	-0.01714783569657271	0.016362997917224086	0.010095947302703828
3.685000	0.04336650382480411	-0.017652914787941534	-0.004254534199976349	0.012354863309001258	-0.01714783569657271	0.016363017309765138	0.010095947302703828
3.690000	0.04336650396718151	-0.01765294688845118	-0.004254532820961211	0.012354865430777491	-0.01714783569657271	0.016363036209085455	0.010095947302703828
3.695000	0.0433665041074041	-0.01765297819613895	-0.004254531487459915	0.01235486748492386	-0.01714783569657271	0.016363054652262326	0.010095947302703828
3.700000	0.04336650424556687	-0.01765300876623401	-0.004254530196167717	0.012354869476381957	-0.01714783569657271	0.016363072671966877	0.010095947302703828
3.705000	0.04336650438175721	-0.01765303864786329	-0.004254528944157569	0.012354871409529167	-0.01714783569657271	0.01636309029716388	0.010095947302703828
3.710000	0.04336650451605744	-0.017653067884954257	-0.004254527728822864	0.012354873288263993	-0.01714783569657271	0.01636310755367331	0.010095947302703828
3.715000	0.04336650464854296	-0.017653096516970314	-0.00425452654782826	0.01235487511607599	-0.01714783569657271	0.016363124464626816	0.010095947302703828
3.720000	0.04336650477928605	-0.01765312457952055	-0.004254525399074147	0.012354876896102228	-0.01714783569657271	0.0163631410508429	0.010095947302703828
3.725000	0.04336650490835289	-0.017653152104863835	-0.004254524280663367	0.012354878633768496	-0.01714783569657271	0.01636315733113701	0.010095947302703828
3.730000	0.043366505035805886	-0.017653179122336625	-0.0042545231908757385	0.012354880325493176	-0.01714783569657271	0.016363173322580585	0.010095947302703828
3.735000	0.04336650516170426	-0.017653205658706737	-0.0042545221281447415	0.012354881977327224	-0.01714783569657271	0.016363189040718856	0.010095947302703828
3.740000	0.043366505286102926	-0.01765323173848059	-0.00425452109104078	0.012354883591382985	-0.01714783569657271	0.016363204499754893	0.010095947302703828
3.745000	0.04336650540905451	-0.017653257384155192	-0.004254520078253186	0.012354885169595828	-0.01714783569657271	0.01636321971270579	0.010095947302703828
3.750000	0.04336650553060809	-0.017653282616448135	-0.004254519088578913	0.012354886713744	-0.01714783569657271	0.016363234691536825	0.010095947302703828
3.755000	0.04336650565080961	-0.01765330745448259	-0.0042545181209072795	0.012354888225466026	-0.01714783569657271	0.016363249447276216	0.010095947302703828
3.760000	0.04336650576970359	-0.017653331915957558	-0.004254517174214111	0.012354889706275777	-0.01714783569657271	0.016363263990114455	0.010095947302703828
3.765000	0.043366505887331555	-0.017653356017291174	-0.004254516247550806	0.012354891157575484	-0.01714783569657271	0.016363278329490603	0.010095947302703828
3.770000	0.04336650600373301	-0.017653379773742685	-0.0042545153400363744	0.012354892580666584	-0.01714783569657271	0.01636329247416713	0.010095947302703828
3.775000	0.04336650611894484	-0.017653403199528135	-0.004254514450851687	0.012354893976759946	-0.01714783569657271	0.016363306432296037	0.010095947302703828
3.780000	0.04336650623300355	-0.017653426307916522	-0.004254513579233864	0.012354895346984382	-0.01714783569657271	0.016363320211476167	0.010095947302703828
3.785000	0.04336650634594235	-0.017653449111312912	-0.0042545127244694655	0.0123548966902355	-0.01714783569657271	0.01636333381880437	0.010095947302703828
3.790000	0.04336650645779397	-0.01765347162134192	-0.00425451188589222	0.012354898011608228	-0.01714783569657271	0.016363347235082232	0.010095947302703828
3.795000	0.04336650656858862	-0.01765349263374126	-0.004254511062876849	0.012354899310016779	-0.01714783569657271	0.01636336049165837	0.010095947302703828
3.800000	0.04336650667835633	-0.017653514570549974	-0.004254510254837106	0.0123549005863338	-0.01714783569657271	0.016363373595753843	0.010095947302703828
3.805000	0.04336650678712446	-0.017653536246480632	-0.00425450946122265	0.01235490184137983	-0.01714783569657271	0.016363386552796347	0.010095947302703828
3.810000	0.043366506894920095	-0.017653557670510012	-0.004254508681513017	0.012354903075927797	-0.01714783569657271	0.01636339936789604	0.010095947302703828
3.815000	0.04336650700176838	-0.01765357885111526	-0.004254507915220269	0.012354904290706093	-0.01714783569657271	0.01636341204587112	0.010095947302703828
3.820000	0.04336650710769448	-0.01765359979630722	-0.004254507161881738	0.012354905486403042	-0.01714783569657271	0.01636342459127093	0.010095947302703828
3.825000	0.04336650721272121	-0.017653620513667836	-0.004254506421060539	0.012354906663668862	-0.01714783569657271	0.016363437008397038	0.010095947302703828
3.830000	0.043366507316871694	-0.01765364101038144	-0.0042545056923443195	0.012354907823119387	-0.01714783569657271	0.016363449301321702	0.010095947302703828
3.835000	0.04336650742016667	-0.01765366129326279	-0.004254504975342223	0.012354908965337898	-0.01714783569657271	0.01636346147390523	0.010095947302703828
3.840000	0.04336650752262734	-0.01765368136878384	-0.004254504269681034	0.01235491009087775	-0.01714783569657271	0.016363473529811278	0.010095947302703828
3.845000	0.04336650762427336	-0.017653701243096655	-0.004254503575009526	0.012354911200264485	-0.01714783569657271	0.016363485472520933	0.010095947302703828
3.850000	0.043366507725123835	-0.017653720922056387	-0.004254502890992107	0.012354912293997683	-0.01714783569657271	0.016363497305345254	0.010095947302703828
3.855000	0.0433665078251974	-0.01765374041123831	-0.004254502217310403	0.012354913372552406	-0.01714783569657271	0.016363509031436966	0.010095947302703828
3.860000	0.04336651072412361	-0.017653759715960587	-0.004254501553659203	0.012354914436381332	-0.01714783569657271	0.016363520653801266	0.010095947302703828
3.865000	0.043366510823534536	-0.017653778841294793	-0.004254500899750928	0.012354915485916067	-0.01714783569657271	0.01636353217530498	0.010095947302703828
3.870000	0.04336651092218939	-0.01765379779208713	-0.004254500255307554	0.012354916521568008	-0.01714783569657271	0.016363543598685644	0.010095947302703828
3.875000	0.04336651102010584	-0.017653816572969768	-0.00425449962006658	0.012354917543730349	-0.01714783569657271	0.016363554926559463	0.010095947302703828
3.880000	0.043366511117300124	-0.0176538351883707	-0.004254498993774922	0.01235491855277851	-0.01714783569657271	0.016363566161429012	0.010095947302703828
3.885000	0.04336651121378798	-0.017653853642534523	-0.004254498376191806	0.012354919549071872	-0.01714783569657271	0.016363577305689554	0.010095947302703828
3.890000	0.0433665113095849	-0.017653871939524415	-0.004254497767086515	0.012354920532954112	-0.01714783569657271	0.01636358836163569	0.010095947302703828
3.895000	0.04336651140470591	-0.017653890083234737	-0.004254497166237044	0.012354921504754495	-0.01714783569657271	0.016363599331467207	0.010095947302703828
3.900000	0.04336651149916499	-0.017653908077407018	-0.004254496573432354	0.012354922464788686	-0.01714783569657271	0.016363610217294003	0.010095947302703828
3.905000	0.04336651159297609	-0.017653925925628543	-0.004254495988468731	0.012354923413359453	-0.01714783569657271	0.016363621021141736	0.010095947302703828
3.910000	0.04336651168615242	-0.01765394363134628	-0.004254495411150222	0.012354924350757192	-0.01714783569657271	0.016363631744955802	0.010095947302703828
3.915000	0.04336651177870634	-0.017653961197876985	-0.004254494841290434	0.012354925277260913	-0.01714783569657271	0.016363642390605955	0.010095947302703828
3.920000	0.04336651187065142	-0.017653978628407906	-0.004254494278708339	0.012354926193138997	-0.01714783569657271	0.01636365295989032	0.010095947302703828
3.925000	0.04336651196199899	-0.017653995926008026	-0.004254493723230512	0.01235492709864891	-0.01714783569657271	0.016363663454539067	0.010095947302703828
3.930000	0.04336651205276027	-0.017654013093633368	-0.004254493174690805	0.01235492799403896	-0.01714783569657271	0.016363673876217833	0.010095947302703828
3.935000	0.04336651214294704	-0.01765403013413042	-0.004254492632927816	0.012354928879547915	-0.01714783569657271	0.016363684226531162	0.010095947302703828
3.940000	0.04336651223256999	-0.01765404705024646	-0.00425449209778728	0.012354929755405685	-0.01714783569657271	0.01636369450702533	0.010095947302703828
3.945000	0.043366512321639836	-0.017654063844627494	-0.004254491569120243	0.012354930621834063	-0.01714783569657271	0.01636370471919143	0.010095947302703828
3.950000	0.04336651241016645	-0.017654080519832024	-0.00425449104678223	0.012354931479046791	-0.01714783569657271	0.016363714864467964	0.010095947302703828
3.955000	0.04336651249816048	-0.017654097078325274	-0.004254490530634907	0.012354932327249919	-0.01714783569657271	0.016363724944243357	0.010095947302703828
3.960000	0.04336651258563093	-0.017654113522492645	-0.004254490020543903	0.012354933166642663	-0.01714783569657271	0.016363734959858222	0.010095947302703828
3.965000	0.04336651267258701	-0.017654129854640318	-0.004254489516380293	0.012354933997417139	-0.01714783569657271	0.016363744912607954	0.010095947302703828
3.970000	0.04336651275903802	-0.017654146076991895	-0.004254489018018403	0.01235493481975892	-0.01714783569657271	0.016363754803744395	0.010095947302703828
3.975000	0.043366512844993245	-0.017654162191704927	-0.004254488525338017	0.012354935633847576	-0.01714783569657271	0.01636376463447793	0.010095947302703828
3.980000	0.043366512930460156	-0.017654178200865792	-0.004254488038221312	0.012354936439856544	-0.01714783569657271	0.016363774405979806	0.010095947302703828
3.985000	0.043366513015448326	-0.01765419410649486	-0.004254487556556118	0.012354937237953788	-0.01714783569657271	0.01636378411938331	0.010095947302703828
3.990000	0.043366513099964255	-0.017654209910546288	-0.004254487080231836	0.012354938028301742	-0.01714783569657271	0.01636379377578554	0.010095947302703828
3.995000	0.04336651318401715	-0.0176542256149164	-0.004254486609143696	0.01235493881105774	-0.01714783569657271	0.016363803376249254	0.010095947302703828
4.000000	0.04336651326761401	-0.017654241221442796	-0.004254486143188189	0.012354939586374	-0.01714783569657271	0.01636381292180423	0.010095947302703828
4.005000	0.04336651335076235	-0.01765425673190747	-0.004254485682265673	0.012354940354398262	-0.01714783569657271	0.01636382241344859	0.010095947302703828
4.010000	0.04336651343346969	-0.017654272148038264	-0.004254485226279768	0.01235494111527364	-0.01714783569657271	0.016363831852150186	0.010095947302703828
4.015000	0.043366513515742534	-0.017654287471512535	-0.004254484775137013	0.01235494186913872	-0.01714783569657271	0.01636384126428924	0.010095947302703828
4.020000	0.04336651359758795	-0.017654302703960262	-0.00425448432874621	0.01235494261612827	-0.01714783569657271	0.016363850625621835	0.010095947302703828
4.025000	0.04336651367901272	-0.017654317846962045	-0.004254483887020068	0.012354943356372754	-0.01714783569657271	0.016363859936569955	0.010095947302703828
4.030000	0.043366513760023304	-0.017654332902052757	-0.00425448344987182	0.012354944089999053	-0.01714783569657271	0.016363869197994683	0.010095947302703828
4.035000	0.043366513840625585	-0.01765434787072771	-0.0042544830172189345	0.012354944817130162	-0.01714783569657271	0.016363878410732353	0.010095947302703828
4.040000	0.043366513920826195	-0.017654362754436156	-0.004254482588980833	0.012354945537885707	-0.01714783569657271	0.01636388757559581	0.010095947302703828
4.045000	0.04336651400063144	-0.01765437755459192	-0.004254482165078968	0.012354946252381947	-0.01714783569657271	0.01636389669337528	0.010095947302703828
4.050000	0.04336651408004652	-0.01765439227256539	-0.004254481745436165	0.012354946960731724	-0.01714783569657271	0.016363905764839294	0.010095947302703828
4.055000	0.04336651415907746	-0.017654406909693842	-0.004254481329979468	0.012354947663044766	-0.01714783569657271	0.01636391479073544	0.010095947302703828
4.060000	0.043366514237729935	-0.017654421467276884	-0.004254480918635992	0.01235494835942803	-0.01714783569657271	0.016363923771790988	0.010095947302703828
4.065000	0.043366514316009006	-0.01765443594658056	-0.004254480511335031	0.012354949049985237	-0.01714783569657271	0.016363932708714227	0.010095947302703828
4.070000	0.043366514393920134	-0.017654450348834932	-0.004254480108009575	0.01235494973481754	-0.01714783569657271	0.016363941602194593	0.010095947302703828
4.075000	0.04336651447146923	-0.017654464675244622	-0.004254479708591882	0.012354950414023362	-0.01714783569657271	0.01636395045290339	0.010095947302703828
4.080000	0.043366514548660286	-0.017654478926976132	-0.004254479313018294	0.012354951087698502	-0.01714783569657271	0.016363959261494844	0.010095947302703828
4.085000	0.043366514625499	-0.01765449310517157	-0.004254478921224568	0.012354951755936205	-0.01714783569657271	0.01636396802860641	0.010095947302703828
4.090000	0.04336651470198962	-0.017654507210941618	-0.0042544785331493015	0.012354952418827404	-0.01714783569657271	0.01636397675485939	0.010095947302703828
4.095000	0.043366514778137535	-0.017654521245371032	-0.00425447814873282	0.01235495307646069	-0.01714783569657271	0.01636398544085961	0.010095947302703828
4.100000	0.04336651485394656	-0.017654535209517153	-0.004254477767916889	0.012354953728922386	-0.01714783569657271	0.01636399408719775	0.010095947302703828
4.105000	0.043366514929421424	-0.017654549104409768	-0.004254477390644586	0.01235495437629666	-0.01714783569657271	0.01636400269445025	0.010095947302703828
4.110000	0.0433665150045678	-0.017654562931056914	-0.004254477016859874	0.012354955018665546	-0.01714783569657271	0.016364011263179344	0.010095947302703828
4.115000	0.04336651507938783	-0.01765457669044198	-0.0042544766465085655	0.01235495565610921	-0.01714783569657271	0.016364019793933808	0.010095947302703828
4.120000	0.043366515153887654	-0.01765459038352278	-0.004254476279537716	0.012354956288705704	-0.01714783569657271	0.016364028287249456	0.010095947302703828
4.125000	0.04336651522807012	-0.017654604011237217	-0.004254475915896231	0.012354956916531167	-0.01714783569657271	0.01636403674364928	0.010095947302703828
4.130000	0.04336651530194045	-0.017654617574498883	-0.004254475555533262	0.01235495753966011	-0.01714783569657271	0.016364045163644148	0.010095947302703828
4.135000	0.04336651537550174	-0.01765463107420331	-0.004254475198399197	0.012354958158165	-0.01714783569657271	0.01636405354773312	0.010095947302703828
4.140000	0.043366515448757886	-0.017654644511222204	-0.0042544748444471245	0.01235495877211698	-0.01714783569657271	0.01636406189640384	0.010095947302703828
4.145000	0.043366515521712785	-0.017654657886411077	-0.003995648884027182	0.012354959381585129	-0.01714783569657271	0.01636407021013263	0.010095947302703828
4.150000	0.04336651559437053	-0.017654671200603742	-0.0042544737479968675	0.012354959986637229	-0.01714783569657271	0.016364078489385397	0.010095947302703828
4.155000	0.04336651566673455	-0.01765468445461625	-0.004008951710372414	0.01235496058733931	-0.01714783569657271	0.01636408673461759	0.010095947302703828
4.160000	0.04336651573880813	-0.017654697649246775	-0.0027855844253182674	0.012354961183756067	-0.01714783569657271	0.01636409494627435	0.010095947302703828
4.165000	0.04336651581059486	-0.017654710785276216	0.0016244060479920705	0.012354961775950676	-0.01714783569657271	0.016364103124791324	0.010095947302703828
4.170000	0.043366515882098756	-0.017654723863468724	0.00010541658552645772	0.012354962363984725	-0.01714783569657271	0.016364111270594492	0.010095947302703828
4.175000	0.043366515953321715	-0.01765473688457107	0.0018564623643133743	0.012354962947918775	-0.01714783569657271	0.016364119384100838	0.010095947302703828
4.180000	0.04336651602426895	-0.01765474984931462	0.00279812625315054	0.012354963527811813	-0.01714783569657271	0.016364127465718324	0.010095947302703828
4.185000	0.043366516094942235	-0.017654762758415758	0.002798125221626025	0.01235496410372158	-0.01714783569657271	0.016364135515846277	0.010095947302703828
4.190000	0.043366516165345724	-0.017654775612576105	0.002798124200554312	0.012354964675704707	-0.01714783569657271	0.016364143534875586	0.010095947302703828
4.195000	0.043366516235481475	-0.017654788412481505	0.0027981231868176547	0.01235496524381636	-0.01714783569657271	0.01636415152318922	0.010095947302703828
4.200000	0.04336651630535344	-0.017654801158804533	0.002798122180317792	0.012354965808110779	-0.01714783569657271	0.016364159481161922	0.010095947302703828
4.205000	0.04336651637496468	-0.01765481385220378	0.0027981211809583705	0.012354966368640878	-0.01714783569657271	0.016364167409160933	0.010095947302703828
4.210000	0.0433665164443168	-0.01765482649332551	0.0027981201886454754	0.012354966925458507	-0.01714783569657271	0.016364175307546112	0.010095947302703828
4.215000	0.04336651651341358	-0.017654839082801535	0.002798119203286275	0.012354967478614526	-0.01714783569657271	0.01636418317666989	0.010095947302703828
4.220000	0.04336651658225835	-0.01765485162125169	0.0027981182247908756	0.012354968028158768	-0.01714783569657271	0.016364191016877864	0.010095947302703828
4.225000	0.04336651665085363	-0.017654864109282534	0.0027981172530704423	0.012354968574139761	-0.01714783569657271	0.016364198828508356	0.010095947302703828
4.230000	0.04336651671920115	-0.017654876547489987	0.002798116288038135	0.01235496911660545	-0.01714783569657271	0.016364206611893542	0.010095947302703828
4.235000	0.043366516787305076	-0.01765488893646077	0.002798115329608844	0.01235496965560244	-0.01714783569657271	0.01636421436735887	0.010095947302703828
4.240000	0.04336651685516635	-0.01765490127676552	0.002798114377699182	0.012354970191176672	-0.01714783569657271	0.016364222095223438	0.010095947302703828
4.245000	0.04336651692278926	-0.017654913568965213	0.0027981134322274982	0.012354970723372969	-0.01714783569657271	0.01636422979580027	0.010095947302703828
4.250000	0.043366516990175005	-0.01765492581361304	0.002798112493113434	0.012354971252235489	-0.01714783569657271	0.016364237469396494	0.010095947302703828
4.255000	0.043366517057326644	-0.017654938011247748	0.002798111560278399	0.012354971777807311	-0.01714783569657271	0.01636424511631331	0.010095947302703828
4.260000	0.04336651712424691	-0.017654950162401165	0.0027981106336454203	0.012354972300130667	-0.01714783569657271	0.01636425273684619	0.010095947302703828
4.265000	0.04336651719093764	-0.017654962267593655	0.0027981097131385135	0.012354972819247311	-0.01714783569657271	0.016364260331285355	0.010095947302703828
4.270000	0.043366517257401205	-0.017654974327336724	0.002798108798683842	0.012354973335197717	-0.01714783569657271	0.016364267899915436	0.010095947302703828
4.275000	0.04336651732364074	-0.017654986342131272	0.0027981078902081756	0.012354973848021894	-0.01714783569657271	0.016364275443015913	0.010095947302703828
4.280000	0.043366517389657085	-0.01765499831246952	0.002798106987640256	0.012354974357759075	-0.01714783569657271	0.016364282960861135	0.010095947302703828
4.285000	0.04336651745545354	-0.017655010238838153	0.0027981060909100346	0.012354974864447463	-0.01714783569657271	0.016364290453720537	0.010095947302703828
4.290000	0.043366517521032474	-0.017655022121708466	0.002798105199948324	0.012354975368124917	-0.01714783569657271	0.016364297921858752	0.010095947302703828
4.295000	0.04336651758639485	-0.01765503396154896	0.0027981043146877646	0.012354975868828477	-0.01714783569657271	0.01636430536553545	0.010095947302703828
4.300000	0.043366517651544194	-0.017655045758817926	0.0027981034350618578	0.012354976366594377	-0.01714783569657271	0.016364312785006	0.010095947302703828
4.305000	0.04336651771648167	-0.01765505751396612	0.002798102561005416	0.012354976861458124	-0.01714783569657271	0.01636432018052118	0.010095947302703828
4.310000	0.043366517781210076	-0.01765506922743457	0.0027981016924545146	0.01235497735345489	-0.01714783569657271	0.016364327552327217	0.010095947302703828
4.315000	0.04336651784573127	-0.017655080899658004	0.0027981008293459786	0.012354977842618858	-0.01714783569657271	0.016364334900666286	0.010095947302703828
4.320000	0.04336651791004638	-0.01765509253106528	0.0027980999716183536	0.012354978328983886	-0.01714783569657271	0.01636434222577636	0.010095947302703828
4.325000	0.043366517974157894	-0.017655104122075205	0.002798099119210761	0.012354978812583	-0.01714783569657271	0.01636434952789123	0.010095947302703828
4.330000	0.04336651803806812	-0.0176551156731015	0.0027980982720635234	0.012354979293448688	-0.01714783569657271	0.016364356807240764	0.010095947302703828
4.335000	0.043366518101779016	-0.017655127184548473	0.0027980974301182356	0.012354979771612953	-0.01714783569657271	0.016364364064051007	0.010095947302703828
4.340000	0.04336651816529169	-0.017655138656817736	0.002798096593317031	0.012354980247107123	-0.01714783569657271	0.01636437129854418	0.010095947302703828
4.345000	0.0433665182286084	-0.01765515009030049	0.002798095761603371	0.012354980719962055	-0.01714783569657271	0.016364378510938804	0.010095947302703828
4.350000	0.04336651829173071	-0.017655161485382008	0.0027980949349217174	0.012354981190207885	-0.01714783569657271	0.016364385701449803	0.010095947302703828
4.355000	0.04336651835466119	-0.01765517284244318	0.002798094113217079	0.012354981657874442	-0.01714783569657271	0.01636439287028848	0.010095947302703828
4.360000	0.043366518417400676	-0.017655184161856945	0.002798093296435763	0.012354982122990906	-0.01714783569657271	0.016364400017662834	0.010095947302703828
4.365000	0.04336651847995146	-0.01765519544399016	0.002798092484524964	0.012354982585586111	-0.01714783569657271	0.016364407143777345	0.010095947302703828
4.370000	0.04336651854231494	-0.017655206689205085	0.002798091677432585	0.012354983045688108	-0.01714783569657271	0.016364414248833496	0.010095947302703828
4.375000	0.043366518604493	-0.01765521789785718	0.0027980908751072293	0.012354983503324826	-0.01714783569657271	0.01636442133302904	0.010095947302703828
4.380000	0.04336651866648725	-0.01765522907029674	0.002798090077498684	0.012354983958523337	-0.01714783569657271	0.016364428396558987	0.010095947302703828
4.385000	0.04336651872829923	-0.017655240206868213	0.0027980892845575547	0.012354984411310612	-0.01714783569657271	0.01636443543961521	0.010095947302703828
4.390000	0.043366518789930676	-0.0176552513079101	0.002798088496234998	0.012354984861712937	-0.01714783569657271	0.01636444246238645	0.010095947302703828
4.395000	0.04336651885138308	-0.017655262373757825	0.0027980877124828968	0.012354985309756218	-0.01714783569657271	0.016364449465058658	0.010095947302703828
4.400000	0.04336651891265779	-0.01765527340473925	0.0027980869332543123	0.012354985755466024	-0.01714783569657271	0.01636445644781471	0.010095947302703828
4.405000	0.04336651897375656	-0.017655284401176623	0.0027980861585025947	0.0123549861988673	-0.01714783569657271	0.01636446341083489	0.010095947302703828
4.410000	0.04336651903468137	-0.017655295363390472	0.002798085388182138	0.012354986639984815	-0.01714783569657271	0.016364470354296598	0.010095947302703828
4.415000	0.04336651909543328	-0.01765530629169497	0.0027980846222477734	0.012354987078842765	-0.01714783569657271	0.01636447727837444	0.010095947302703828
4.420000	0.043366519156013354	-0.017655317186397502	0.0027980838606554495	0.012354987515465172	-0.01714783569657271	0.01636448418324059	0.010095947302703828
4.425000	0.043366519216423524	-0.017655328047802205	0.0027980831033614373	0.012354987949875298	-0.01714783569657271	0.016364491069064492	0.010095947302703828
4.430000	0.04336651927666513	-0.0176553388762108	0.0027980823503226115	0.012354988382096343	-0.01714783569657271	0.016364497936013175	0.010095947302703828
4.435000	0.04336651933673956	-0.017655349671916773	0.002798081601497013	0.012354988812151064	-0.01714783569657271	0.016364504784251034	0.010095947302703828
4.440000	0.04336651939664837	-0.01765536043521195	0.0027980808568428724	0.012354989240061898	-0.01714783569657271	0.01636451161394019	0.010095947302703828
4.445000	0.04336651945639255	-0.017655371166384527	0.002798080116319022	0.012354989665850802	-0.01714783569657271	0.016364518425240324	0.010095947302703828
4.450000	0.043366519515974165	-0.01765538186571566	0.0027980793798852467	0.012354990089539435	-0.01714783569657271	0.016364525218308737	0.010095947302703828
4.455000	0.04336651957539332	-0.017655392533484044	0.002798078647501586	0.012354990511149301	-0.01714783569657271	0.016364531993300614	0.010095947302703828
4.460000	0.04336651963465252	-0.017655403169964057	0.002798077919128967	0.012354990930701323	-0.01714783569657271	0.01636453875036874	0.010095947302703828
4.465000	0.04336651969375286	-0.01765541377542642	0.0027980771947286667	0.012354991348216288	-0.01714783569657271	0.0163645454896637	0.010095947302703828
4.470000	0.04336651975269482	-0.017655424350136752	0.002798076474262716	0.012354991763714641	-0.01714783569657271	0.01636455221133409	0.010095947302703828
4.475000	0.04336651981148066	-0.017655434894359282	0.0027980757576936133	0.012354992177216272	-0.01714783569657271	0.01636455891552634	0.010095947302703828
4.480000	0.04336651987011075	-0.01765544540835283	0.0027980750449842252	0.012354992588741256	-0.01714783569657271	0.016364565602384803	0.010095947302703828
4.485000	0.04336651992858718	-0.0176554558923716	0.0027980743360983343	0.012354992998308962	-0.01714783569657271	0.016364572272051712	0.010095947302703828
4.490000	0.043366519986910886	-0.017655466346670295	0.002798073630999983	0.012354993405938566	-0.01714783569657271	0.016364578924667503	0.010095947302703828
4.495000	0.04336652004508241	-0.017655476771494424	0.002798072929653766	0.012354993811649173	-0.01714783569657271	0.016364585560370577	0.010095947302703828
4.500000	0.04336652010310375	-0.01765548716709219	0.002798072232024839	0.012354994215459368	-0.01714783569657271	0.01636459217929748	0.010095947302703828
4.505000	0.04336652016097573	-0.017655497533702037	0.0027980715380786746	0.012354994617387585	-0.01714783569657271	0.016364598781582827	0.010095947302703828
4.510000	0.04336652021869946	-0.01765550787156342	0.002798070847781574	0.012354995017452006	-0.01714783569657271	0.01636460536735943	0.010095947302703828
4.515000	0.04336652027627622	-0.017655518180912343	0.0027980701611000462	0.012354995415670504	-0.01714783569657271	0.016364611936758266	0.010095947302703828
4.520000	0.04336652033370748	-0.017655528461981092	0.002798069478000896	0.012354995812060732	-0.01714783569657271	0.01636461848990864	0.010095947302703828
4.525000	0.043366520390993264	-0.01765553871499725	0.002798068798451892	0.012354996206640122	-0.01714783569657271	0.016364625026938102	0.010095947302703828
4.530000	0.043366520448135534	-0.017655548940186252	0.0027980681224209006	0.012354996599425839	-0.01714783569657271	0.016364631547972436	0.010095947302703828
4.535000	0.04336652050513558	-0.017655559137773284	0.0027980674498762487	0.012354996990434804	-0.01714783569657271	0.01636463805313581	0.010095947302703828
4.540000	0.04336652056199334	-0.01765556930797428	0.002798066780786944	0.012354997379683739	-0.01714783569657271	0.016364644542550797	0.010095947302703828
4.545000	0.04336652061871105	-0.017655579451009575	0.002798066115121959	0.012354997767189138	-0.01714783569657271	0.016364651016338338	0.010095947302703828
4.550000	0.04336652067528965	-0.01765558956709261	0.00279806545285112	0.012354998152967265	-0.01714783569657271	0.016364657474617704	0.010095947302703828
4.555000	0.043366520731729204	-0.01765559965643364	0.002798064793944375	0.012354998537034171	-0.01714783569657271	0.016364663917506832	0.010095947302703828
4.560000	0.04336652078803163	-0.017655609719242384	0.0027980641383723096	0.012354998919405686	-0.01714783569657271	0.016364670345121936	0.010095947302703828
4.565000	0.043366520844197454	-0.0176556197557236	0.002798063486105607	0.012354999300097473	-0.01714783569657271	0.016364676757577832	0.010095947302703828
4.570000	0.04336652090022831	-0.01765562976608102	0.0027980628371157	0.012354999679124996	-0.01714783569657271	0.01636468315498796	0.010095947302703828
4.575000	0.04336652095612438	-0.017655639750516282	0.0027980621913739692	0.012355000056503435	-0.01714783569657271	0.01636468953746406	0.010095947302703828
4.580000	0.04336652101188702	-0.017655649709225354	0.0027980615488527177	0.0123550004322478	-0.01714783569657271	0.01636469590511675	0.010095947302703828
4.585000	0.043366521067517164	-0.01765565964240627	0.0027980609095241103	0.012355000806373084	-0.01714783569657271	0.016364702258055093	0.010095947302703828
4.590000	0.043366521123015825	-0.017655669550250597	0.002798060273360853	0.012355001178893783	-0.01714783569657271	0.016364708596386897	0.010095947302703828
4.595000	0.04336652117838363	-0.01765567943294957	0.002798059640336109	0.01235500154982454	-0.01714783569657271	0.01636471492021845	0.010095947302703828
4.600000	0.04336652123362167	-0.017655689290691307	0.00279805901042322	0.012355001919179539	-0.01714783569657271	0.016364721229655068	0.010095947302703828
4.605000	0.04336652128873116	-0.01765569912366276	0.0027980583835959805	0.01235500228697294	-0.01714783569657271	0.01636472752480031	0.010095947302703828
4.610000	0.043366521343713146	-0.017655708932046977	0.002798057759828332	0.012355002653218667	-0.01714783569657271	0.016364733805756874	0.010095947302703828
4.615000	0.043366521398567434	-0.017655718716024657	0.0027980571390949574	0.012355003017930485	-0.01714783569657271	0.016364740072626005	0.010095947302703828
4.620000	0.04336652145329598	-0.017655728475777004	0.0027980565213705094	0.012355003381122078	-0.01714783569657271	0.016364746325507842	0.010095947302703828
4.625000	0.043366521507898964	-0.017655738211479578	0.0027980559066299766	0.012355003742806873	-0.01714783569657271	0.01636475256450107	0.010095947302703828
4.630000	0.04336652156237747	-0.01765574792330587	0.002798055294848733	0.012355004102998054	-0.01714783569657271	0.016364758789703553	0.010095947302703828
4.635000	0.04336652161673309	-0.017655757611433943	0.002798054686002527	0.01235500446170884	-0.01714783569657271	0.0163647650012117	0.010095947302703828
4.640000	0.04336652167096528	-0.01765576727602957	0.002798054080067277	0.012355004818952103	-0.01714783569657271	0.016364771199120862	0.010095947302703828
4.645000	0.043366521725076136	-0.017655776917262972	0.00279805347701937	0.012355005174740686	-0.01714783569657271	0.016364777383525386	0.010095947302703828
4.650000	0.04336652177906547	-0.017655786535301272	0.0027980528768351276	0.012355005529087259	-0.01714783569657271	0.016364783554518317	0.010095947302703828
4.655000	0.043366521832934844	-0.01765579613030921	0.0027980522794918174	0.012355005882004303	-0.01714783569657271	0.01636478971219165	0.010095947302703828
4.660000	0.04336652188668503	-0.017655805702449914	0.002798051684966177	0.012355006233504159	-0.01714783569657271	0.01636479585663657	0.010095947302703828
4.665000	0.043366521940316156	-0.017655815251883963	0.002798051093235908	0.01235500658359902	-0.01714783569657271	0.016364801987942785	0.010095947302703828
4.670000	0.04336652199382947	-0.01765582477877066	0.002798050504278459	0.012355006932300985	-0.01714783569657271	0.01636480810619922	0.010095947302703828
4.675000	0.04336652204722557	-0.017655834283267086	0.002798049918071994	0.012355007279621978	-0.01714783569657271	0.016364814211493807	0.010095947302703828
4.680000	0.0433665221005057	-0.017655843765528624	0.002798049334594592	0.012355007625573636	-0.01714783569657271	0.016364820303913303	0.010095947302703828
4.685000	0.043366522153670636	-0.017655853225708684	0.002798048753824698	0.012355007970167687	-0.01714783569657271	0.016364826383543703	0.010095947302703828
4.690000	0.04336652220671986	-0.01765586266395936	0.0027980481757411656	0.012355008313415742	-0.01714783569657271	0.016364832450469803	0.010095947302703828
4.695000	0.04336652225965543	-0.017655872080431713	0.002798047600323081	0.012355008655328945	-0.01714783569657271	0.016364838504775672	0.010095947302703828
4.700000	0.0433665223124778	-0.017655881475273284	0.002798047027549568	0.012355008995918746	-0.01714783569657271	0.01636484454654417	0.010095947302703828
4.705000	0.043366522365187496	-0.017655890848630153	0.0027980464573999775	0.01235500933519595	-0.01714783569657271	0.01636485057585751	0.010095947302703828
4.710000	0.04336652241778543	-0.017655900200649218	0.002798045889854082	0.012355009673171866	-0.01714783569657271	0.01636485659279668	0.010095947302703828
4.715000	0.04336652247027229	-0.01765590953147224	0.0027980453248920185	0.012355010009857169	-0.01714783569657271	0.01636486259744221	0.010095947302703828
4.720000	0.043366522522648124	-0.01765591884124203	0.002798044762493696	0.012355010345262563	-0.01714783569657271	0.016364868589873228	0.010095947302703828
4.725000	0.04336652257491515	-0.0176559281300988	0.0027980442026397344	0.012355010679398606	-0.01714783569657271	0.016364874570168424	0.010095947302703828
4.730000	0.04336652262707195	-0.017655937398182154	0.002798043645310763	0.01235501101227587	-0.01714783569657271	0.016364880538405333	0.010095947302703828
4.735000	0.04336652267912121	-0.017655946645627096	0.0027980430904874475	0.012355011343904545	-0.01714783569657271	0.01636488649466092	0.010095947302703828
4.740000	0.04336652273106233	-0.01765595587257195	0.0027980425381509653	0.01235501167429511	-0.01714783569657271	0.016364892439011142	0.010095947302703828
4.745000	0.043366522782896856	-0.017655965079150987	0.0027980419882828317	0.012355012003457462	-0.01714783569657271	0.016364898371531045	0.010095947302703828
4.750000	0.04336652283462488	-0.0176559742654951	0.0027980414408641484	0.012355012331401601	-0.01714783569657271	0.016364904292295104	0.010095947302703828
4.755000	0.043366522886247184	-0.0176559834317373	0.0027980408958768674	0.012355012658137432	-0.01714783569657271	0.016364910201376967	0.010095947302703828
4.760000	0.0433665229377642	-0.017655992578005666	0.00279804035330292	0.012355012983674838	-0.01714783569657271	0.01636491609884923	0.010095947302703828
4.765000	0.04336652298917702	-0.01765600170443101	0.002798039813124393	0.012355013308023178	-0.01714783569657271	0.016364921984783995	0.010095947302703828
4.770000	0.04336652304048562	-0.017656010811139856	0.0027980392753235474	0.01235501363119232	-0.01714783569657271	0.016364927859252615	0.010095947302703828
4.775000	0.043366523091691464	-0.017656019898258053	0.002798038739882828	0.012355013953191451	-0.01714783569657271	0.016364933722325514	0.010095947302703828
4.780000	0.04336652314279476	-0.017656028965910082	0.0027980382067850362	0.012355014274030122	-0.01714783569657271	0.016364939574072555	0.010095947302703828
4.785000	0.04336652319379631	-0.017656038014218556	0.002798037676013096	0.012355014593717288	-0.01714783569657271	0.016364945414562716	0.010095947302703828
4.790000	0.043366523244696274	-0.017656047043305645	0.0027980371475500344	0.01235501491226217	-0.01714783569657271	0.01636495124386441	0.010095947302703828
4.795000	0.043366523295495625	-0.017656056053294254	0.0027980366213791116	0.012355015229673836	-0.01714783569657271	0.01636495706204521	0.010095947302703828
4.800000	0.04336652334619494	-0.017656065044300902	0.0027980360974837713	0.012355015545961167	-0.01714783569657271	0.016364962869172103	0.010095947302703828
4.805000	0.04336652339679456	-0.017656074016444697	0.0027980355758476343	0.01235501586113289	-0.01714783569657271	0.016364968665311366	0.010095947302703828
4.810000	0.04336652344729508	-0.017656082969843667	0.002798035056454453	0.01235501617519765	-0.01714783569657271	0.016364974450528584	0.010095947302703828
4.815000	0.04336652349769793	-0.017656091904612658	0.0027980345392882716	0.012355016488164233	-0.01714783569657271	0.016364980224888578	0.010095947302703828
4.820000	0.043366523548002606	-0.017656100820864738	0.0027980340243332624	0.012355016800041151	-0.01714783569657271	0.01636498598845583	0.010095947302703828
4.825000	0.04336652359821004	-0.017656109718717707	0.0027980335115736395	0.0123550171108365	-0.01714783569657271	0.016364991741293744	0.010095947302703828
4.830000	0.04336652364832079	-0.017656118598279417	0.002798033000993981	0.012355017420558941	-0.01714783569657271	0.016364997483465496	0.010095947302703828
4.835000	0.043366523698335505	-0.01765612745966332	0.0027980324925787857	0.012355017729216555	-0.01714783569657271	0.016365003215033293	0.010095947302703828
4.840000	0.04336652374825511	-0.01765613630297889	0.002798031986313062	0.012355018036817433	-0.01714783569657271	0.01636500893605903	0.010095947302703828
4.845000	0.043366523798079065	-0.017656145128335823	0.0027980314821816274	0.012355018343369679	-0.01714783569657271	0.016365014646603657	0.010095947302703828
4.850000	0.043366523847808744	-0.017656153935839858	0.0027980309801695497	0.012355018648881248	-0.01714783569657271	0.01636502034672781	0.010095947302703828
4.855000	0.043366523897445164	-0.017656162725599923	0.002798030480262302	0.012355018953359964	-0.01714783569657271	0.016365026036491512	0.010095947302703828
4.860000	0.04336652394698768	-0.017656171497720634	0.0027980299824450147	0.01235501925681359	-0.01714783569657271	0.016365031715953948	0.010095947302703828
4.865000	0.043366523996437284	-0.017656180252307044	0.0027980294867035634	0.012355019559249811	-0.01714783569657271	0.01636503738517401	0.010095947302703828
4.870000	0.04336652404579479	-0.017656188989462727	0.0027980289930235706	0.01235501986067625	-0.01714783569657271	0.016365043044209816	0.010095947302703828
4.875000	0.043366524095060595	-0.017656197709290035	0.00279802850139077	0.012355020161100422	-0.01714783569657271	0.01636504869311919	0.010095947302703828
4.880000	0.043366524144234884	-0.017656206411891657	0.0027980280117914542	0.012355020460529739	-0.01714783569657271	0.01636505433195901	0.010095947302703828
4.885000	0.04336652419331851	-0.017656215097366885	0.0027980275242115715	0.012355020758971599	-0.01714783569657271	0.016365059960785907	0.010095947302703828
4.890000	0.04336652424231189	-0.017656223765816142	0.002798027038637397	0.012355021056433216	-0.01714783569657271	0.016365065579655932	0.010095947302703828
4.895000	0.04336652429121557	-0.01765623241733769	0.00279802655505541	0.012355021352921798	-0.01714783569657271	0.016365071188624562	0.010095947302703828
4.900000	0.04336652434002966	-0.01765624105203044	0.0027980260734523955	0.012355021648444417	-0.01714783569657271	0.016365076787746603	0.010095947302703828
4.905000	0.04336652438875533	-0.017656249669989958	0.0027980255938146736	0.012355021943008271	-0.01714783569657271	0.016365082377076675	0.010095947302703828
4.910000	0.04336652443739282	-0.017656258271313008	0.0027980251161293136	0.012355022236620081	-0.01714783569657271	0.016365087956668623	0.010095947302703828
4.915000	0.043366524485941964	-0.017656266856095074	0.002798024640383253	0.012355022529287024	-0.01714783569657271	0.016365093526575916	0.010095947302703828
4.920000	0.04336652453440425	-0.017656275424427072	0.002798024166563648	0.01235502282101568	-0.01714783569657271	0.016365099086851354	0.010095947302703828
4.925000	0.043366524582779335	-0.017656283976406145	0.0027980236946576163	0.012355023111812824	-0.01714783569657271	0.01636510463754745	0.010095947302703828
4.930000	0.043366524631068375	-0.017656292512122536	0.0027980232246526335	0.012355023401685171	-0.01714783569657271	0.016365110178716266	0.010095947302703828
4.935000	0.04336652467927138	-0.017656301031667977	0.0027980227565360567	0.012355023690639316	-0.01714783569657271	0.016365115710409057	0.010095947302703828
4.940000	0.04336652472738879	-0.017656309535134213	0.002798022290295587	0.012355023978681807	-0.01714783569657271	0.016365121232676912	0.010095947302703828
4.945000	0.04336652477542058	-0.01765631802260997	0.0027980218259189213	0.01235502426581903	-0.01714783569657271	0.016365126745570408	0.010095947302703828
4.950000	0.043366524823368856	-0.017656326494183673	0.002798021363393799	0.012355024552057448	-0.01714783569657271	0.016365132249139627	0.010095947302703828
4.955000	0.04336652487123244	-0.017656334949944875	0.002798020902708219	0.012355024837403297	-0.01714783569657271	0.016365137743434	0.010095947302703828
4.960000	0.04336652491901234	-0.017656343389980532	0.0027980204438504443	0.012355025121862949	-0.01714783569657271	0.016365143228502917	0.010095947302703828
4.965000	0.04336652496670951	-0.017656351814375776	0.0027980199868082624	0.012355025405442513	-0.01714783569657271	0.01636514870439507	0.010095947302703828
4.970000	0.04336652501432339	-0.017656360223218207	0.002798019531570429	0.012355025688148068	-0.01714783569657271	0.016365154171158688	0.010095947302703828
4.975000	0.04336652506185505	-0.017656368616591925	0.002798019078125085	0.01235502596998573	-0.01714783569657271	0.01636515962884163	0.010095947302703828
4.980000	0.04336652510930478	-0.01765637699458238	0.002798018626460789	0.012355026250961616	-0.01714783569657271	0.01636516507749135	0.010095947302703828
4.985000	0.043366525156672886	-0.017656385357270064	0.0027980181765662575	0.012355026531081533	-0.01714783569657271	0.016365170517154914	0.010095947302703828
4.990000	0.04336652520395984	-0.01765639370474065	0.002798017728430014	0.012355026810351328	-0.01714783569657271	0.016365175947878854	0.010095947302703828
4.995000	0.04336652525116651	-0.01765640203707451	0.0027980172820412028	0.012355027088776874	-0.01714783569657271	0.01636518136970938	0.010095947302703828
5.000000	0.043366525298292935	-0.01765641035435343	0.0027980168373884957	0.012355027366363977	-0.01714783569657271	0.016365186782692193	0.010095947302703828
5.005000	0.04336652534533894	-0.017656418656657537	0.0027980163944612384	0.012355027643118193	-0.01714783569657271	0.0163651921868728	0.010095947302703828
5.010000	0.0433665253923062	-0.017656426944067632	0.0027980159532482937	0.012355027919045308	-0.01714783569657271	0.016365197582296213	0.010095947302703828
5.015000	0.043366525439193976	-0.017656435216661652	0.0027980155137391043	0.012355028194150958	-0.01714783569657271	0.01636520296900687	0.010095947302703828
5.020000	0.043366525486002755	-0.017656443474518686	0.002798015075923057	0.012355028468440474	-0.01714783569657271	0.016365208347049135	0.010095947302703828
5.025000	0.04336652553273417	-0.017656451717714766	0.0027980146397893688	0.012355028741919422	-0.01714783569657271	0.016365213716466764	0.010095947302703828
5.030000	0.04336652557938703	-0.017656459946329306	0.00279801420532785	0.012355029014593302	-0.01714783569657271	0.0163652190773032	0.010095947302703828
5.035000	0.04336652562596262	-0.017656468160437616	0.0027980137725280643	0.012355029286467435	-0.01714783569657271	0.01636522442960162	0.010095947302703828
5.040000	0.0433665256724613	-0.01765647636011537	0.0027980133413795932	0.012355029557546974	-0.01714783569657271	0.016365229773404644	0.010095947302703828
5.045000	0.04336652571888291	-0.017656484545438163	0.002798012911872552	0.012355029827837458	-0.01714783569657271	0.01636523510875469	0.010095947302703828
5.050000	0.04336652576522883	-0.01765649271647927	0.0027980124839965433	0.012355030097343896	-0.01714783569657271	0.01636524043569363	0.010095947302703828
5.055000	0.043366525811498434	-0.017656500873313552	0.0027980120577418797	0.012355030366071457	-0.01714783569657271	0.016365245754263263	0.010095947302703828
5.060000	0.04336652585769242	-0.017656509016013375	0.002798011633098677	0.012355030634025372	-0.01714783569657271	0.016365251064504812	0.010095947302703828
5.065000	0.043366525903811334	-0.017656517144651787	0.0027980112100568846	0.01235503090121059	-0.01714783569657271	0.01636525636645922	0.010095947302703828
5.070000	0.04336652594985544	-0.01765652525930078	0.0027980107886068813	0.012355031167632173	-0.01714783569657271	0.016365261660167087	0.010095947302703828
5.075000	0.04336652599582517	-0.017656533360030157	0.00279801036873914	0.012355031433295036	-0.01714783569657271	0.016365266945668762	0.010095947302703828
5.080000	0.04336652604172071	-0.017656541446912588	0.002798009950444026	0.012355031698204228	-0.01714783569657271	0.016365272223004015	0.010095947302703828
5.085000	0.04336652608754217	-0.017656549520015895	0.00279800953371211	0.012355031962364402	-0.01714783569657271	0.01636527749221263	0.010095947302703828
5.090000	0.043366526133291006	-0.01765655757941228	0.0027980091185340096	0.01235503222578054	-0.01714783569657271	0.016365282753333654	0.010095947302703828
5.095000	0.043366526178966164	-0.017656565625168822	0.002798008704900521	0.012355032488457346	-0.01714783569657271	0.01636528800640625	0.010095947302703828
5.100000	0.04336652622456906	-0.017656573657354464	0.0027980082928021864	0.01235503275039954	-0.01714783569657271	0.016365293251469053	0.010095947302703828
5.105000	0.04336652627009938	-0.017656581676037952	0.002798007882230266	0.01235503301161194	-0.01714783569657271	0.016365298488560297	0.010095947302703828
5.110000	0.043366526315557805	-0.01765658968128347	0.0027980074731754796	0.012355033272099039	-0.01714783569657271	0.01636530371771793	0.010095947302703828
5.115000	0.043366526360944624	-0.017656597673161384	0.0027980070656286535	0.012355033531865466	-0.01714783569657271	0.016365308938979847	0.010095947302703828
5.120000	0.043366526406260354	-0.017656605651734446	0.0027980066595813292	0.012355033790915874	-0.01714783569657271	0.016365314152383254	0.010095947302703828
5.125000	0.043366526451504746	-0.017656613617070216	0.0027980062550244204	0.012355034049254627	-0.01714783569657271	0.01636531935796538	0.010095947302703828
5.130000	0.043366526496678715	-0.017656621569233734	0.002798005851949309	0.012355034306886295	-0.01714783569657271	0.016365324555762926	0.010095947302703828
5.135000	0.043366526541782434	-0.017656629508291024	0.0027980054503471442	0.012355034563815287	-0.01714783569657271	0.01636532974581247	0.010095947302703828
5.140000	0.043366526586816334	-0.01765663743430141	0.0027980050502095996	0.012355034820045935	-0.01714783569657271	0.01636533492815018	0.010095947302703828
5.145000	0.04336652663178037	-0.01765664534733246	0.002798004651528012	0.012355035075582695	-0.01714783569657271	0.016365340102812088	0.010095947302703828
5.150000	0.043366526676674864	-0.017656653247445666	0.00279800425429394	0.012355035330429863	-0.01714783569657271	0.016365345269833704	0.010095947302703828
5.155000	0.043366526721500855	-0.017656661134702947	0.0027980038584989528	0.012355035584591686	-0.01714783569657271	0.016365350429250417	0.010095947302703828
5.160000	0.043366526766257504	-0.017656669009167913	0.0027980034641349634	0.01235503583807219	-0.01714783569657271	0.016365355581097373	0.010095947302703828
5.165000	0.04336652681094643	-0.01765667687089943	0.0027980030711935375	0.012355036090876018	-0.01714783569657271	0.016365360725409384	0.010095947302703828
5.170000	0.0433665268555674	-0.017656684719961752	0.0027980026796666953	0.012355036343006926	-0.01714783569657271	0.01636536586222086	0.010095947302703828
5.175000	0.043366526900120474	-0.01765669255641355	0.0027980022895461414	0.012355036594469243	-0.01714783569657271	0.016365370991566246	0.010095947302703828
5.180000	0.04336652694460552	-0.01765670038031441	0.002798001900824073	0.012355036845267026	-0.01714783569657271	0.016365376113479435	0.010095947302703828
5.185000	0.04336652698902412	-0.01765670819172487	0.002798001513492295	0.012355037095404264	-0.01714783569657271	0.016365381227994226	0.010095947302703828
5.190000	0.04336652703337584	-0.017656715990703002	0.0027980011275431337	0.012355037345329258	-0.01714783569657271	0.01636538633514404	0.010095947302703828
5.195000	0.043366527077661025	-0.017656723777309112	0.0027980007429686607	0.012355037594455904	-0.01714783569657271	0.0163653914349621	0.010095947302703828
5.200000	0.04336652712187961	-0.017656731551597898	0.002798000359761098	0.012355037842929507	-0.01714783569657271	0.016365396527481445	0.010095947302703828
5.205000	0.043366527166032724	-0.0176567393136322	0.0027979999779128746	0.012355038090753891	-0.01714783569657271	0.016365401612734806	0.010095947302703828
5.210000	0.04336652721012051	-0.017656747063463638	0.0027979995974162578	0.012355038337933073	-0.01714783569657271	0.016365406690754498	0.010095947302703828
5.215000	0.04336652725414227	-0.017656754801154213	0.0027979992182637324	0.012355038584470724	-0.01714783569657271	0.01636541176157291	0.010095947302703828
5.220000	0.04336652729809973	-0.01765676252675675	0.002797998840447631	0.012355038830370594	-0.01714783569657271	0.016365416825221996	0.010095947302703828
5.225000	0.04336652734199166	-0.017656770240327888	0.0027979984639607894	0.012355039075636495	-0.01714783569657271	0.016365421881733365	0.010095947302703828
5.230000	0.043366527385819455	-0.017656777941924447	0.002797998088795564	0.012355039320272107	-0.01714783569657271	0.016365426931138613	0.010095947302703828
5.235000	0.04336652742958323	-0.017656785631600308	0.002797997714944791	0.012355039564281139	-0.01714783569657271	0.016365431973469055	0.010095947302703828
5.240000	0.043366527473283116	-0.017656793309410244	0.0027979973424011734	0.012355039807667199	-0.01714783569657271	0.01636543700875566	0.010095947302703828
5.245000	0.04336652751691961	-0.01765680097540921	0.0027979969711574328	0.012355040050434071	-0.01714783569657271	0.01636544203702913	0.010095947302703828
5.250000	0.04336652756049205	-0.017656808629649513	0.0027979966012064567	0.012355040292585088	-0.01714783569657271	0.01636544705832011	0.010095947302703828
5.255000	0.04336652760400233	-0.017656816272186758	0.002797996232541313	0.01235504053412413	-0.01714783569657271	0.016365452072659117	0.010095947302703828
5.260000	0.04336652764744939	-0.0176568239030723	0.0027979958651547857	0.012355040775054494	-0.01714783569657271	0.01636545708007593	0.010095947302703828
5.265000	0.04336652769083424	-0.0176568315223597	0.00279799549903997	0.012355041015379873	-0.01714783569657271	0.016365462080600777	0.010095947302703828
5.270000	0.043366527734156335	-0.017656839130099494	0.002797995134189865	0.01235504125510361	-0.01714783569657271	0.01636546707426311	0.010095947302703828
5.275000	0.04336652777741677	-0.01765684672634575	0.0027979947705977296	0.012355041494229179	-0.01714783569657271	0.016365472061092467	0.010095947302703828
5.280000	0.0433665278206151	-0.017656854311148554	0.0027979944082566835	0.012355041732760008	-0.01714783569657271	0.016365477041118136	0.010095947302703828
5.285000	0.04336652786375235	-0.017656861884559394	0.0027979940471598956	0.012355041970699582	-0.01714783569657271	0.01636548201436911	0.010095947302703828
5.290000	0.043366527906829135	-0.01765686944662962	0.0027979936873008017	0.012355042208051248	-0.01714783569657271	0.016365486980874186	0.010095947302703828
5.295000	0.04336652794984364	-0.017656876997408238	0.0027979933286726363	0.012355042444818297	-0.01714783569657271	0.016365491940662023	0.010095947302703828
5.300000	0.043366527992798325	-0.017656884536946176	0.0027979929712689776	0.012355042681004026	-0.01714783569657271	0.016365496893761017	0.010095947302703828
5.305000	0.04336652803569241	-0.017656892065292685	0.0027979926150831745	0.012355042916611865	-0.01714783569657271	0.016365501840199317	0.010095947302703828
5.310000	0.043366528078526555	-0.01765689958249801	0.00279799226010859	0.012355043151644957	-0.01714783569657271	0.016365506780005007	0.010095947302703828
5.315000	0.04336652812130072	-0.01765690708860876	0.0027979919063390035	0.012355043386106622	-0.01714783569657271	0.01636551171320588	0.010095947302703828
5.320000	0.043366528164015226	-0.017656914583674892	0.0027979915537677813	0.012355043619999995	-0.01714783569657271	0.016365516639829544	0.010095947302703828
5.325000	0.04336652820667033	-0.01765692206774501	0.0027979912023888345	0.012355043853328364	-0.01714783569657271	0.01636552155990336	0.010095947302703828
5.330000	0.0433665282492662	-0.01765692954086682	0.002797990852195748	0.012355044086094924	-0.01714783569657271	0.016365526473454562	0.010095947302703828
5.335000	0.043366528291803805	-0.017656937003085894	0.0027979905031822634	0.012355044318302692	-0.01714783569657271	0.01636553138051022	0.010095947302703828
5.340000	0.04336652833428194	-0.017656944454451828	0.0027979901553421387	0.012355044549954931	-0.01714783569657271	0.01636553628109705	0.010095947302703828
5.345000	0.04336652837670232	-0.01765695189501059	0.0027979898086693267	0.012355044781054569	-0.01714783569657271	0.016365541175241846	0.010095947302703828
5.350000	0.04336652841906447	-0.01765695932480754	0.0027979894631577386	0.012355045011604837	-0.01714783569657271	0.01636554606297095	0.010095947302703828
5.355000	0.043366528461368466	-0.017656966743890064	0.0027979891188010843	0.012355045241608754	-0.01714783569657271	0.016365550944310733	0.010095947302703828
5.360000	0.04336652850361501	-0.017656974152303728	0.002797988775593646	0.012355045471069291	-0.01714783569657271	0.016365555819287173	0.010095947302703828
5.365000	0.043366528545803674	-0.017656981550093553	0.002797988433529325	0.012355045699989426	-0.01714783569657271	0.016365560687926217	0.010095947302703828
5.370000	0.04336652858793537	-0.017656988937305204	0.002797988092602184	0.012355045928372244	-0.01714783569657271	0.016365565550253695	0.010095947302703828
5.375000	0.043366528630010094	-0.017656996313983497	0.0027979877528063225	0.012355046156220652	-0.01714783569657271	0.016365570406295073	0.010095947302703828
5.380000	0.04336652867202796	-0.01765700368017261	0.0027979874141358108	0.012355046383537599	-0.01714783569657271	0.01636557525607572	0.010095947302703828
5.385000	0.043366528713989876	-0.01765701103591687	0.0027979870765852503	0.012355046610326026	-0.01714783569657271	0.016365580099620865	0.010095947302703828
5.390000	0.043366528755895084	-0.017657018381260797	0.002797986740148438	0.012355046836588817	-0.01714783569657271	0.01636558493695554	0.010095947302703828
5.395000	0.043366528797744365	-0.017657025716247474	0.0027979864048199715	0.012355047062328792	-0.01714783569657271	0.016365589768104604	0.010095947302703828
5.400000	0.04336652883953751	-0.01765703304091928	0.0027979860705940503	0.012355047287548836	-0.01714783569657271	0.01636559459309267	0.010095947302703828
5.405000	0.04336652888127565	-0.017657040355320546	0.002797985737465189	0.012355047512251737	-0.01714783569657271	0.016365599411944452	0.010095947302703828
5.410000	0.043366528922958	-0.017657047659494083	0.0027979854054276873	0.012355047736440437	-0.01714783569657271	0.01636560422468415	0.010095947302703828
5.415000	0.043366528964584934	-0.017657054953481802	0.002797985074475956	0.012355047960117561	-0.01714783569657271	0.016365609031336006	0.010095947302703828
5.420000	0.043366529006157485	-0.017657062237325463	0.0027979847446045897	0.012355048183286008	-0.01714783569657271	0.016365613831924024	0.010095947302703828
5.425000	0.043366529047675316	-0.017657069511066756	0.002797984415808228	0.012355048405948393	-0.01714783569657271	0.016365618626472133	0.010095947302703828
5.430000	0.043366529089138385	-0.017657076774747517	0.002797984088081254	0.012355048628107575	-0.01714783569657271	0.016365623415004013	0.010095947302703828
5.435000	0.04336652913054711	-0.017657084028409792	0.0027979837614184704	0.012355048849766188	-0.01714783569657271	0.016365628197543208	0.010095947302703828
5.440000	0.043366529171901896	-0.017657091272093303	0.0027979834358144197	0.012355049070926957	-0.01714783569657271	0.01636563297411312	0.010095947302703828
5.445000	0.043366529213202956	-0.017657098505839318	0.0015125802692842714	0.012355049291592483	-0.01714783569657271	0.016365637744736986	0.010095947302703828
5.450000	0.0433665292544501	-0.0176571057296885	0.002797982761656239	0.012355049511765472	-0.01714783569657271	0.016365642509437867	0.010095947302703828
5.455000	0.04336652929564387	-0.017657112943680338	-0.0013865246126375935	0.012355049731448615	-0.01714783569657271	0.016365647268238793	0.010095947302703828
5.460000	0.043366529336784636	-0.017657120147856267	-0.002728563349022526	0.012355049950644372	-0.01714783569657271	0.01636565202116249	0.010095947302703828
5.465000	0.043366529377872116	-0.017657127342254674	-0.00046552053594531295	0.012355050169355414	-0.01714783569657271	0.016365656768231554	0.010095947302703828
5.470000	0.043366529418907	-0.01765713452691432	-0.004254431684473415	0.012355050387584374	-0.01714783569657271	0.016365661509468454	0.010095947302703828
5.475000	0.0433665294598891	-0.017657141701874886	-0.003086829430630683	0.012355050605333703	-0.01714783569657271	0.01636566624489568	0.010095947302703828
5.480000	0.043366529500818686	-0.017657148867174857	-0.004254431813147944	0.012355050822605945	-0.01714783569657271	0.01636567097453522	0.010095947302703828
5.485000	0.04336652954169636	-0.017657156022854892	-0.004254431752169212	0.012355051039403674	-0.01714783569657271	0.016365675698409375	0.010095947302703828
5.490000	0.04336652958252194	-0.01765716316895184	-0.004254431685477504	0.012355051255729346	-0.01714783569657271	0.0163656804165398	0.010095947302703828
5.495000	0.04336652962329592	-0.01765717030550198	-0.00425443161914036	0.012355051471585447	-0.01714783569657271	0.01636568512894842	0.010095947302703828
5.500000	0.04336652966401788	-0.017657177432545555	-0.0042544315531557846	0.01235505168697447	-0.01714783569657271	0.01636568983565682	0.010095947302703828
5.505000	0.04336652970468844	-0.017657184550119387	-0.004254431487521845	0.012355051901898877	-0.01714783569657271	0.016365694536686487	0.010095947302703828
5.510000	0.0433665297453082	-0.017657191658260567	-0.004254431422236873	0.012355052116361002	-0.01714783569657271	0.016365699232058724	0.010095947302703828
5.515000	0.04336652978587635	-0.017657198757006602	-0.0042544313572991654	0.012355052330363363	-0.01714783569657271	0.016365703921794813	0.010095947302703828
5.520000	0.04336652982639389	-0.01765720584639358	-0.004254431292707136	0.012355052543908255	-0.01714783569657271	0.01636570860591582	0.010095947302703828
5.525000	0.04336652986686137	-0.017657212926459078	-0.004254431228458835	0.01235505275699813	-0.01714783569657271	0.016365713284442703	0.010095947302703828
5.530000	0.043366529907277955	-0.01765721999723831	-0.004254431164552642	0.012355052969635311	-0.01714783569657271	0.0163657179573962	0.010095947302703828
5.535000	0.04336652994764391	-0.01765722705876887	-0.004254431100986975	0.012355053181822194	-0.01714783569657271	0.01636572262479705	0.010095947302703828
5.540000	0.0433665299879604	-0.01765723411108488	-0.004254431037759809	0.012355053393561044	-0.01714783569657271	0.016365727286665875	0.010095947302703828
5.545000	0.04336653002822676	-0.017657241154223232	-0.004254430974869126	0.012355053604854206	-0.01714783569657271	0.016365731943022946	0.010095947302703828
5.550000	0.04336653006844359	-0.01765724818821911	-0.0042544309123138425	0.012355053815703922	-0.01714783569657271	0.016365736593888614	0.010095947302703828
5.555000	0.04336653010861073	-0.017657255213109187	-0.004254430850092646	0.012355054026112604	-0.01714783569657271	0.016365741239283093	0.010095947302703828
5.560000	0.04336653014872827	-0.017657262228924563	-0.004254430788202947	0.012355054236082358	-0.01714783569657271	0.016365745879226363	0.010095947302703828
5.565000	0.0433665301887968	-0.017657269235702776	-0.004254430726643308	0.012355054445615464	-0.01714783569657271	0.01636575051373841	0.010095947302703828
5.570000	0.0433665302288166	-0.017657276233479482	-0.004254430665412676	0.01235505465471419	-0.01714783569657271	0.016365755142838945	0.010095947302703828
5.575000	0.04336653026878763	-0.017657283222285047	-0.0042544306045090505	0.012355054863380847	-0.01714783569657271	0.016365759766547677	0.010095947302703828
5.580000	0.043366530308710474	-0.017657290202158397	-0.004254430543930352	0.012355055071617407	-0.01714783569657271	0.016365764384884136	0.010095947302703828
5.585000	0.04336653034858394	-0.01765729717313061	-0.0042544304836761235	0.012355055279426201	-0.01714783569657271	0.016365768997867798	0.010095947302703828
5.590000	0.04336653038840938	-0.017657304135234628	-0.00425443042374362	0.012355055486809388	-0.01714783569657271	0.01636577360551796	0.010095947302703828
5.595000	0.04336653042818707	-0.017657311088504737	-0.00425443036413185	0.012355055693769107	-0.01714783569657271	0.016365778207853777	0.010095947302703828
5.600000	0.043366530467916664	-0.017657318032976575	-0.004254430304838821	0.012355055900307573	-0.01714783569657271	0.016365782804894306	0.010095947302703828
5.605000	0.04336653050759888	-0.017657324968678882	-0.0042544302458636905	0.012355056106426749	-0.01714783569657271	0.016365787396658553	0.010095947302703828
5.610000	0.04336653054723301	-0.01765733189564756	-0.004254430187204502	0.012355056312128836	-0.01714783569657271	0.01636579198316534	0.010095947302703828
5.615000	0.04336653058682021	-0.017657338813914708	-0.004254430128859753	0.012355056517415967	-0.01714783569657271	0.01636579656443346	0.010095947302703828
5.620000	0.043366530626360436	-0.017657345723512054	-0.004254430070827705	0.012355056722290144	-0.01714783569657271	0.016365801140481428	0.010095947302703828
5.625000	0.043366530665852956	-0.01765735262447328	-0.004254430013107151	0.012355056926753434	-0.01714783569657271	0.01636580571132775	0.010095947302703828
5.630000	0.04336653070529869	-0.017657359516828033	-0.004254429955696137	0.012355057130807996	-0.01714783569657271	0.01636581027699089	0.010095947302703828
5.635000	0.04336653074469796	-0.017657366400610733	-0.004254429898593981	0.012355057334455799	-0.01714783569657271	0.016365814837489067	0.010095947302703828
5.640000	0.04336653078405096	-0.017657373275851186	-0.004254429841798187	0.012355057537698845	-0.01714783569657271	0.0163658193928405	0.010095947302703828
5.645000	0.04336653082335677	-0.017657380142580874	-0.004254429785307674	0.012355057740539122	-0.01714783569657271	0.016365823943063185	0.010095947302703828
5.650000	0.04336653086261725	-0.017657387000832598	-0.0042544297291214235	0.012355057942978694	-0.01714783569657271	0.016365828488175124	0.010095947302703828
5.655000	0.04336653090183119	-0.017657393850635167	-0.004254429673237806	0.012355058145019516	-0.01714783569657271	0.016365833028194172	0.010095947302703828
5.660000	0.04336653094099915	-0.01765740069202215	-0.004254429617654938	0.012355058346663526	-0.01714783569657271	0.016365837563138	0.010095947302703828
5.665000	0.04336653098012182	-0.017657407525022345	-0.0042544295623721945	0.012355058547912818	-0.01714783569657271	0.016365842093024396	0.010095947302703828
5.670000	0.04336654652325657	-0.01765741434966637	-0.0042544295073869	0.01235505874876918	-0.01714783569657271	0.016365846617870737	0.010095947302703828
5.675000	0.043366546561794915	-0.017657421165985815	-0.004254429452698598	0.012355058949234629	-0.01714783569657271	0.01636585113769452	0.010095947302703828
5.680000	0.04336654660029115	-0.01765742797401003	-0.004254429398305528	0.012355059149310961	-0.01714783569657271	0.016365855652513087	0.010095947302703828
5.685000	0.04336654663874619	-0.017657434773767404	-0.004254429344206244	0.012355059349000256	-0.01714783569657271	0.01636586016234363	0.010095947302703828
5.690000	0.043366546677160285	-0.017657441565289943	-0.004254429290399913	0.012355059548304235	-0.01714783569657271	0.01636586466720328	0.010095947302703828
5.695000	0.04336654671553278	-0.01765744834860622	-0.0042544292368842385	0.012355059747224928	-0.01714783569657271	0.016365869167109047	0.010095947302703828
5.700000	0.04336654675386399	-0.01765745512374683	-0.004254429183658759	0.012355059945764097	-0.01714783569657271	0.016365873662077913	0.010095947302703828
5.705000	0.043366546792154306	-0.017657461890739624	-0.004254429130721864	0.012355060143923586	-0.01714783569657271	0.016365878152126683	0.010095947302703828
5.710000	0.04336654683040378	-0.017657468649614233	-0.004254429078071231	0.012355060341705318	-0.01714783569657271	0.016365882637272015	0.010095947302703828
5.715000	0.043366546868612986	-0.01765747540040028	-0.004254429025707319	0.012355060539111139	-0.01714783569657271	0.016365887117530616	0.010095947302703828
5.720000	0.04336654690678037	-0.017657482143124528	-0.004254428973626642	0.012355060736142738	-0.01714783569657271	0.016365891592919075	0.010095947302703828
5.725000	0.043366546944908685	-0.017657488877817373	-0.004254428921830332	0.012355060932801993	-0.01714783569657271	0.016365896063453796	0.010095947302703828
5.730000	0.043366546982995295	-0.01765749560450777	-0.004254428870314766	0.012355061129090626	-0.01714783569657271	0.016365900529150983	0.010095947302703828
5.735000	0.04336654702104241	-0.01765750232322054	-0.00425442881908001	0.01235506132501062	-0.01714783569657271	0.016365904990027078	0.010095947302703828
5.740000	0.043366547059048986	-0.017657509033986742	-0.004254428768124183	0.0123550615205636	-0.01714783569657271	0.01636590944609819	0.010095947302703828
5.745000	0.043366547097015665	-0.017657515736834897	-0.004254428717446274	0.012355061715751207	-0.01714783569657271	0.016365913897380336	0.010095947302703828
5.750000	0.043366547134942125	-0.017657522431789814	-0.004254428667045368	0.012355061910575426	-0.01714783569657271	0.016365918343889563	0.010095947302703828
5.755000	0.04336654717282939	-0.017657529118881302	-0.004254428616919086	0.012355062105037798	-0.01714783569657271	0.01636592278564179	0.010095947302703828
5.760000	0.04336654721067642	-0.017657535798136635	-0.004254428567067113	0.012355062299140155	-0.01714783569657271	0.016365927222652635	0.010095947302703828
5.765000	0.04336654724848405	-0.01765754246958148	-0.004254428517487641	0.012355062492884178	-0.01714783569657271	0.016365931654938104	0.010095947302703828
5.770000	0.0433665472862518	-0.017657549133245545	-0.004254428468179798	0.012355062686271553	-0.01714783569657271	0.01636593608251353	0.010095947302703828
5.775000	0.04336654732398075	-0.01765755578915293	-0.004254428419141934	0.012355062879303998	-0.01714783569657271	0.016365940505394586	0.010095947302703828
5.780000	0.04336654736167027	-0.017657562437332817	-0.004254428370373396	0.012355063071983186	-0.01714783569657271	0.016365944923596738	0.010095947302703828
5.785000	0.043366547399320526	-0.017657569077810534	-0.004254428321872818	0.012355063264310722	-0.01714783569657271	0.01636594933713523	0.010095947302703828
5.790000	0.04336654743693181	-0.01765757571061227	-0.004254428273638117	0.012355063456288347	-0.01714783569657271	0.01636595374602548	0.010095947302703828
5.795000	0.0433665474745043	-0.01765758233576575	-0.00425442822566947	0.012355063647917696	-0.01714783569657271	0.016365958150282637	0.010095947302703828
5.800000	0.043366547512038	-0.017657588953296	-0.004254428177964897	0.012355063839200316	-0.01714783569657271	0.01636596254992176	0.010095947302703828
5.805000	0.04336654754953308	-0.017657595563229187	-0.004254428130522386	0.012355064030137917	-0.01714783569657271	0.01636596694495788	0.010095947302703828
5.810000	0.04336654758698907	-0.017657602165591736	-0.004254428083342202	0.01235506422073206	-0.01714783569657271	0.01636597133540596	0.010095947302703828
5.815000	0.04336654762440622	-0.0176576087604094	-0.004254428036422592	0.012355064410984433	-0.01714783569657271	0.016365975721280852	0.010095947302703828
5.820000	0.04336654766178592	-0.01765761534770773	-0.0042544279897621905	0.012355064600896524	-0.01714783569657271	0.01636598010259732	0.010095947302703828
5.825000	0.04336654769912738	-0.01765762192751083	-0.004254427943360187	0.012355064790469987	-0.01714783569657271	0.016365984479370096	0.010095947302703828
5.830000	0.04336654773643033	-0.01765762849984568	-0.004254427897215182	0.012355064979706287	-0.01714783569657271	0.01636598885161375	0.010095947302703828
5.835000	0.0433665477736953	-0.017657635064737658	-0.0042544278513261015	0.012355065168607161	-0.01714783569657271	0.016365993219342786	0.010095947302703828
5.840000	0.04336654781092262	-0.017657641622210507	-0.004254427805691453	0.012355065357174058	-0.01714783569657271	0.016365997582571772	0.010095947302703828
5.845000	0.04336654784811115	-0.017657648172289153	-0.004254427760310538	0.01235506554540854	-0.01714783569657271	0.016366001941314975	0.010095947302703828
5.850000	0.043366547885262334	-0.017657654714999797	-0.004254427715182307	0.012355065733312081	-0.01714783569657271	0.0163660062955868	0.010095947302703828
5.855000	0.04336654792237633	-0.01765766125036499	-0.004254427670305198	0.012355065920886244	-0.01714783569657271	0.016366010645401396	0.010095947302703828
5.860000	0.04336654795945262	-0.017657667778411355	-0.00425442762567858	0.012355066108132563	-0.01714783569657271	0.016366014990772816	0.010095947302703828
5.865000	0.043366547996491325	-0.017657674299161572	-0.004254427581300617	0.012355066295052584	-0.01714783569657271	0.01636601933171535	0.010095947302703828
5.870000	0.04336654803349294	-0.01765768081264093	-0.004254427537171181	0.012355066481647678	-0.01714783569657271	0.016366023668242833	0.010095947302703828
5.875000	0.04336654807045706	-0.017657687318873617	-0.004254427493288065	0.012355066667919428	-0.01714783569657271	0.016366028000369168	0.010095947302703828
5.880000	0.043366548107384356	-0.017657693817881435	-0.004254427449651373	0.012355066853869275	-0.01714783569657271	0.016366032328108293	0.010095947302703828
5.885000	0.04336654814427448	-0.017657700309691084	-0.004254427406258837	0.012355067039498669	-0.01714783569657271	0.016366036651473907	0.010095947302703828
5.890000	0.04336654818112806	-0.01765770679432492	-0.004254427363110557	0.012355067224809054	-0.01714783569657271	0.01636604097047974	0.010095947302703828
5.895000	0.04336654821794457	-0.01765771327180619	-0.004254427320204677	0.012355067409801938	-0.01714783569657271	0.016366045285139425	0.010095947302703828
5.900000	0.04336654825472402	-0.017657719742159555	-0.004254427277539916	0.012355067594478733	-0.01714783569657271	0.01636604959546647	0.010095947302703828
5.905000	0.04336654829146718	-0.017657726205406916	-0.004254427235115651	0.012355067778840824	-0.01714783569657271	0.016366053901474435	0.010095947302703828
5.910000	0.0433665483281739	-0.017657732661571765	-0.004254427192931284	0.012355067962889649	-0.01714783569657271	0.016366058203176628	0.010095947302703828
5.915000	0.04336654836484433	-0.01765773911067793	-0.004254427150984511	0.012355068146626697	-0.01714783569657271	0.016366062500586503	0.010095947302703828
5.920000	0.04336654840147793	-0.01765774555274749	-0.004254427109275646	0.012355068330053343	-0.01714783569657271	0.01636606679371713	0.010095947302703828
5.925000	0.04336654843807602	-0.01765775198780449	-0.004254427067803164	0.012355068513170794	-0.01714783569657271	0.016366071082581937	0.010095947302703828
5.930000	0.04336654847463751	-0.01765775841586869	-0.004254427026565415	0.012355068695980728	-0.01714783569657271	0.016366075367193884	0.010095947302703828
5.935000	0.043366548511162915	-0.0176577648369664	-0.00425442698556212	0.012355068878484352	-0.01714783569657271	0.016366079647566152	0.010095947302703828
5.940000	0.04336654854765304	-0.017657771251117463	-0.004254426944792038	0.012355069060683043	-0.01714783569657271	0.01636608392371166	0.010095947302703828
5.945000	0.043366548584106865	-0.017657777658345006	-0.004254426904253969	0.012355069242578169	-0.01714783569657271	0.016366088195643336	0.010095947302703828
5.950000	0.043366548620525365	-0.01765778405867216	-0.004254426863947752	0.012355069424171078	-0.01714783569657271	0.016366092463374077	0.010095947302703828
5.955000	0.04336654865690772	-0.0176577904521195	-0.004254426823870706	0.012355069605463138	-0.01714783569657271	0.016366096726916614	0.010095947302703828
5.960000	0.043366548693255035	-0.017657796838709786	-0.004254426784023511	0.012355069786455765	-0.01714783569657271	0.016366100986283716	0.010095947302703828
5.965000	0.04336654872956667	-0.01765780321846462	-0.0042544267444040995	0.012355069967150047	-0.01714783569657271	0.01636610524148813	0.010095947302703828
5.970000	0.04336654876584298	-0.017657809591406146	-0.004254426705012443	0.01235507014754749	-0.01714783569657271	0.01636610949254225	0.010095947302703828
