CEINMS output
datacolumns 81
datarows 92
endheader
time	addbrev_r	addlong_r	addmagDist_r	addmagIsch_r	addmagMid_r	addmagProx_r	bflh_r	bfsh_r	edl_r	ehl_r	fdl_r	fhl_r	gaslat_r	gasmed_r	glmax1_r	glmax2_r	glmax3_r	glmed1_r	glmed2_r	glmed3_r	glmin1_r	glmin2_r	glmin3_r	grac_r	iliacus_r	perbrev_r	perlong_r	piri_r	psoas_r	recfem_r	sart_r	semimem_r	semiten_r	soleus_r	tfl_r	tibant_r	tibpost_r	vasint_r	vaslat_r	vasmed_r	addbrev_l	addlong_l	addmagDist_l	addmagIsch_l	addmagMid_l	addmagProx_l	bflh_l	bfsh_l	edl_l	ehl_l	fdl_l	fhl_l	gaslat_l	gasmed_l	glmax1_l	glmax2_l	glmax3_l	glmed1_l	glmed2_l	glmed3_l	glmin1_l	glmin2_l	glmin3_l	grac_l	iliacus_l	perbrev_l	perlong_l	piri_l	psoas_l	recfem_l	sart_l	semimem_l	semiten_l	soleus_l	tfl_l	tibant_l	tibpost_l	vasint_l	vaslat_l	vasmed_l	
3.19	0.123773	0.111947	0.246093	0.243034	0.182064	0.124365	0.154048	0.201637	0.131601	0.137664	0.0681252	0.0901427	0.0987311	0.099096	0.236091	0.270475	0.3009	0.130851	0.143645	0.135125	0.0911868	0.0965152	0.0916739	0.345528	0.136227	0.0665146	0.0848894	0.0434779	0.127345	0.0778642	0.52141	0.144405	0.333534	0.0787089	0.108773	0.124683	0.0715409	0.154879	0.15578	0.145389	0.135182	0.12493	0.200244	0.175954	0.137705	0.0983187	0.150547	0.151592	0.152304	0.190688	0.0587501	0.0499161	0.149608	0.0627361	0.129694	0.161251	0.168889	0.0870448	0.0533676	0.0507762	0.06676	0.0584516	0.0237274	0.301484	0.107491	0.110106	0.109085	0.0207691	0.133696	0.322711	0.529715	0.168673	0.392462	0.0342004	0.0880887	0.192051	0.0977174	0.114186	0.0759184	0.0957799	
3.195	0.123101	0.111884	0.244326	0.241474	0.180406	0.124359	0.153773	0.20304	0.131872	0.137979	0.0681021	0.090097	0.0990936	0.0994948	0.235078	0.269234	0.298909	0.131421	0.143476	0.134435	0.091845	0.0969866	0.0917929	0.345501	0.13751	0.0664755	0.0848492	0.0432794	0.128178	0.0779127	0.525175	0.144482	0.333567	0.0784999	0.109995	0.125069	0.0715046	0.153997	0.154968	0.144595	0.134714	0.124678	0.199337	0.175275	0.13685	0.0978027	0.148945	0.150307	0.152372	0.190793	0.0587166	0.0499012	0.148623	0.0627311	0.129645	0.16114	0.168871	0.0877392	0.0537129	0.0507754	0.0675891	0.0594241	0.023727	0.299977	0.107778	0.110087	0.109055	0.0207674	0.133778	0.326139	0.528629	0.167267	0.389271	0.0341928	0.0880817	0.192166	0.097681	0.114183	0.0774867	0.0973081	
3.2	0.122462	0.111812	0.242474	0.23974	0.178732	0.124245	0.153423	0.204425	0.132169	0.138318	0.0680751	0.0900469	0.099558	0.0999688	0.233987	0.267921	0.296834	0.131957	0.143262	0.133691	0.0924863	0.0974312	0.0918802	0.345464	0.138854	0.0664297	0.0848032	0.0430389	0.129087	0.0779551	0.528928	0.144547	0.333561	0.0782659	0.111739	0.125481	0.0714637	0.152942	0.153988	0.143645	0.134204	0.124393	0.198187	0.174211	0.135885	0.0972369	0.146939	0.148713	0.152443	0.190901	0.0586916	0.0498836	0.147273	0.0627192	0.129259	0.160286	0.167879	0.0886065	0.0541939	0.0507746	0.0684269	0.0602131	0.0237265	0.295315	0.10814	0.110067	0.109019	0.0207636	0.133879	0.329504	0.527455	0.165518	0.385772	0.0341579	0.088065	0.192284	0.097624	0.114146	0.0795791	0.0992908	
3.205	0.121883	0.111736	0.240604	0.237944	0.177071	0.124083	0.153013	0.205748	0.132463	0.13865	0.0680493	0.0899993	0.100089	0.100468	0.232838	0.266565	0.294712	0.132422	0.142994	0.132901	0.0930758	0.0978218	0.0919186	0.345411	0.140215	0.066385	0.0847597	0.0427671	0.130028	0.0780452	0.532624	0.144575	0.333489	0.0780377	0.113873	0.12588	0.0714245	0.151816	0.152939	0.142636	0.133672	0.124083	0.197171	0.173227	0.134967	0.0966956	0.14491	0.14708	0.152501	0.190988	0.0586745	0.0498696	0.145924	0.0627043	0.129038	0.159707	0.166449	0.0894758	0.0548103	0.0507738	0.0692791	0.0610083	0.023726	0.290786	0.108521	0.110053	0.108988	0.0207589	0.133978	0.332809	0.526269	0.163657	0.382313	0.0341153	0.0880441	0.192379	0.0975811	0.114092	0.0819371	0.101504	
3.21	0.121368	0.111659	0.23873	0.236124	0.175433	0.12391	0.152543	0.206988	0.13272	0.138938	0.0680269	0.0899581	0.10064	0.100957	0.231628	0.265169	0.29255	0.132792	0.142666	0.13207	0.093592	0.0981411	0.0918979	0.345317	0.141572	0.0663464	0.0847226	0.0424694	0.130983	0.078215	0.536243	0.144542	0.333324	0.0778379	0.116101	0.126226	0.0713903	0.150704	0.151898	0.141639	0.133113	0.12374	0.196366	0.172555	0.134103	0.0962278	0.143052	0.145432	0.152534	0.191037	0.0586605	0.0498618	0.144668	0.0626886	0.128947	0.159412	0.164928	0.0903777	0.055529	0.0507729	0.0701273	0.0617502	0.0237255	0.287244	0.108871	0.110045	0.10897	0.0207539	0.134053	0.336047	0.52507	0.161701	0.378854	0.034078	0.0880221	0.192433	0.0975599	0.114035	0.0843259	0.103742	
3.215	0.120926	0.111582	0.236853	0.234276	0.173825	0.123739	0.152	0.208136	0.132923	0.139166	0.0680088	0.0899249	0.101196	0.101435	0.230352	0.263732	0.290349	0.133051	0.142273	0.131202	0.0940176	0.0983755	0.0918112	0.345166	0.142924	0.0663153	0.0846928	0.0421475	0.131952	0.0784726	0.539773	0.144436	0.333047	0.0776775	0.118215	0.126499	0.0713627	0.149636	0.150893	0.140681	0.132517	0.123349	0.195667	0.17216	0.133252	0.0958406	0.141377	0.143708	0.152535	0.191038	0.0586479	0.0498613	0.143445	0.0626732	0.128914	0.159209	0.163434	0.0913273	0.0563317	0.0507721	0.0709762	0.0624787	0.023725	0.284198	0.109165	0.110045	0.108967	0.0207489	0.134093	0.339199	0.523789	0.159618	0.375354	0.0340501	0.0880004	0.192435	0.0975567	0.113978	0.0866701	0.105935	
3.22	0.120563	0.111505	0.234978	0.232395	0.172257	0.123571	0.151376	0.209184	0.133064	0.139323	0.0679958	0.0899018	0.10176	0.10191	0.229011	0.262257	0.288113	0.133183	0.141815	0.130307	0.0943376	0.098514	0.0916541	0.34495	0.144266	0.0662932	0.0846719	0.0418045	0.132937	0.0788199	0.543203	0.144247	0.332641	0.0775646	0.120159	0.126687	0.0713433	0.148623	0.149937	0.139772	0.13188	0.122899	0.195003	0.17192	0.132406	0.0955201	0.139828	0.141883	0.152499	0.190981	0.0586397	0.0498691	0.142212	0.0626579	0.128962	0.159095	0.16198	0.0923258	0.0572031	0.0507713	0.0718317	0.0632188	0.0237245	0.281106	0.109395	0.110055	0.108983	0.020744	0.13409	0.342237	0.52236	0.157444	0.37183	0.0340309	0.087979	0.192373	0.0975716	0.113922	0.0889725	0.108054	
3.225	0.120287	0.111429	0.233111	0.230479	0.17074	0.123404	0.150666	0.210128	0.133135	0.139401	0.0679891	0.0898905	0.10234	0.10239	0.227608	0.260747	0.285849	0.133179	0.141296	0.129396	0.0945406	0.0985488	0.0914243	0.344665	0.145593	0.0662815	0.0846614	0.0414465	0.133937	0.0792614	0.546526	0.143966	0.332096	0.0775072	0.121952	0.126779	0.0713335	0.147677	0.14904	0.138924	0.131273	0.122373	0.194384	0.171764	0.131572	0.0952495	0.138346	0.13997	0.152419	0.190859	0.0586397	0.0498866	0.14097	0.0626428	0.129124	0.159129	0.160948	0.093402	0.0578543	0.0507704	0.0726986	0.063977	0.023724	0.277776	0.10955	0.110076	0.109019	0.0207392	0.134042	0.345129	0.520748	0.155255	0.368305	0.0340186	0.0879577	0.192239	0.0976082	0.113866	0.0912308	0.110085	
3.23	0.120105	0.111352	0.231258	0.228528	0.169283	0.123239	0.149869	0.210969	0.13313	0.139392	0.0679895	0.0898923	0.102942	0.102879	0.226147	0.259207	0.283565	0.133032	0.140719	0.128483	0.094618	0.0984747	0.091122	0.344312	0.1469	0.0662816	0.0846626	0.0410846	0.134949	0.0798031	0.549734	0.14359	0.331408	0.0775118	0.123617	0.126766	0.0713345	0.146808	0.148214	0.138145	0.130738	0.121759	0.193836	0.171686	0.130814	0.0950157	0.136892	0.138112	0.152292	0.190664	0.0586494	0.0499146	0.139734	0.0626277	0.129421	0.159345	0.160359	0.0945558	0.0584415	0.0507696	0.073575	0.0647598	0.0237235	0.274238	0.109443	0.110109	0.109079	0.0207344	0.133977	0.347869	0.518932	0.153076	0.364803	0.0340113	0.0879365	0.192025	0.0976692	0.113809	0.0934396	0.112032	
3.235	0.120022	0.111276	0.229431	0.226546	0.167898	0.123073	0.14899	0.211707	0.133042	0.13929	0.0679974	0.0899081	0.103568	0.103384	0.224637	0.257643	0.281271	0.132738	0.14009	0.127582	0.0945648	0.0982895	0.090749	0.3439	0.148182	0.0662943	0.0846761	0.0407322	0.13597	0.0804476	0.552821	0.14312	0.330578	0.0775826	0.125162	0.12664	0.071347	0.14602	0.147463	0.137438	0.130283	0.121041	0.193359	0.171686	0.130197	0.0948102	0.135447	0.136421	0.152114	0.190393	0.0586689	0.0499534	0.138513	0.0626126	0.129873	0.159761	0.160043	0.0957752	0.0591091	0.0507688	0.0744739	0.0655742	0.023723	0.270552	0.10917	0.110154	0.109163	0.0207296	0.133909	0.350468	0.516897	0.150909	0.36135	0.0340076	0.0879104	0.191728	0.0977562	0.11375	0.0956093	0.11392	
3.24	0.120044	0.1112	0.22764	0.224546	0.166595	0.122908	0.148035	0.21235	0.13287	0.139093	0.0680129	0.0899381	0.104219	0.103907	0.223089	0.256063	0.278979	0.132298	0.139416	0.126701	0.0943784	0.0979931	0.0903086	0.34344	0.149434	0.0663198	0.0847023	0.0403992	0.136998	0.0811923	0.555783	0.142561	0.329613	0.0777215	0.126584	0.126399	0.0713711	0.145312	0.146787	0.136804	0.129892	0.120206	0.192939	0.171741	0.129739	0.0946271	0.134007	0.134901	0.151884	0.190041	0.058698	0.0500029	0.137312	0.0625976	0.130499	0.1604	0.159963	0.0970834	0.0598764	0.0507679	0.0754025	0.0664272	0.0237225	0.266745	0.108862	0.110212	0.109271	0.0207248	0.133843	0.352937	0.51463	0.148763	0.357981	0.0340065	0.0881769	0.191344	0.0978695	0.113687	0.097761	0.115782	
3.245	0.120176	0.111243	0.225899	0.222542	0.165387	0.122743	0.147016	0.212905	0.132613	0.1388	0.0680356	0.0899817	0.104899	0.104453	0.221517	0.254476	0.276703	0.131714	0.138704	0.125834	0.0940593	0.0975877	0.0898051	0.34295	0.15065	0.0663579	0.0847407	0.0400901	0.138029	0.0820296	0.558621	0.141922	0.328525	0.0779271	0.127883	0.126043	0.0714063	0.144683	0.146185	0.136241	0.129551	0.11924	0.192564	0.171803	0.129418	0.0944625	0.132572	0.133508	0.151601	0.18961	0.0587363	0.0500628	0.136133	0.0625826	0.131318	0.161284	0.160167	0.0984829	0.0607444	0.0510459	0.0763561	0.0673249	0.023722	0.262825	0.108573	0.110282	0.109405	0.02072	0.133778	0.355234	0.512127	0.146668	0.354737	0.0340072	0.088921	0.190872	0.098009	0.113621	0.0998902	0.117616	
3.25	0.120422	0.111589	0.224221	0.220551	0.164284	0.122578	0.145942	0.21338	0.132274	0.138414	0.0680649	0.0900378	0.105607	0.105023	0.219936	0.252891	0.274456	0.13099	0.137957	0.124985	0.0936101	0.0970772	0.0892432	0.342452	0.151826	0.0664077	0.0847906	0.0398069	0.139059	0.0829481	0.561337	0.141213	0.327334	0.0781948	0.129057	0.125576	0.0714518	0.14413	0.145655	0.135746	0.129249	0.118137	0.192231	0.171856	0.129196	0.0943131	0.131144	0.132192	0.151266	0.189098	0.0587835	0.0501321	0.134982	0.0625676	0.132345	0.16243	0.160692	0.0998918	0.0617267	0.051595	0.0773347	0.0682727	0.0237215	0.258811	0.108265	0.110365	0.109563	0.0207152	0.133714	0.357292	0.50939	0.144664	0.351661	0.0340091	0.0899384	0.190312	0.0981739	0.113551	0.101958	0.11939	
3.255	0.120786	0.112155	0.222618	0.21859	0.163298	0.122413	0.144821	0.213787	0.131858	0.137941	0.0680997	0.0901046	0.106342	0.105611	0.218365	0.251317	0.272256	0.130134	0.137169	0.12416	0.0930356	0.0964665	0.0886277	0.341969	0.152959	0.0664679	0.0848506	0.0395513	0.140084	0.0839331	0.56393	0.140449	0.326064	0.0785162	0.130108	0.125008	0.0715061	0.143647	0.145191	0.135314	0.12898	0.116901	0.191958	0.171935	0.129041	0.0941767	0.129724	0.130919	0.150879	0.188509	0.058839	0.0502097	0.133869	0.0625526	0.133592	0.163851	0.161561	0.101308	0.0628377	0.0522921	0.0783388	0.0692743	0.023721	0.254737	0.107844	0.11046	0.109744	0.0207104	0.133649	0.359045	0.506418	0.14279	0.348803	0.0340118	0.0909417	0.189667	0.0983626	0.113476	0.103914	0.121061	
3.26	0.121271	0.112841	0.221103	0.216674	0.16244	0.122249	0.143666	0.214135	0.131373	0.137391	0.0681388	0.09018	0.1071	0.106209	0.216825	0.249764	0.270118	0.129154	0.136332	0.123362	0.0923421	0.0957615	0.0879629	0.341526	0.154046	0.0665368	0.084919	0.0393236	0.141099	0.084967	0.566403	0.139641	0.324744	0.0788786	0.131035	0.124349	0.0715673	0.143225	0.144786	0.134936	0.128737	0.115526	0.191771	0.172086	0.128927	0.0940513	0.128312	0.129661	0.150442	0.18786	0.0589023	0.0502943	0.132807	0.0625377	0.135068	0.165554	0.162796	0.102784	0.0640868	0.0531312	0.0793663	0.0703314	0.0237205	0.250644	0.107368	0.110565	0.109945	0.0207056	0.133585	0.360459	0.503216	0.141082	0.346214	0.0340149	0.0917686	0.188941	0.0985731	0.113394	0.105723	0.122606	
3.265	0.121878	0.113629	0.219687	0.214819	0.161717	0.122085	0.142496	0.214438	0.13083	0.136775	0.0681806	0.0902613	0.107876	0.106806	0.215445	0.24824	0.268057	0.128056	0.135448	0.122591	0.0915372	0.0949685	0.0872523	0.341151	0.155085	0.0666121	0.0849937	0.0391226	0.1421	0.0860296	0.568759	0.138806	0.323406	0.0792669	0.131838	0.123616	0.0716332	0.142855	0.144429	0.134604	0.128517	0.113995	0.191703	0.172349	0.128835	0.0939354	0.126909	0.12841	0.149959	0.187202	0.0589727	0.0503844	0.131807	0.0625228	0.136776	0.167541	0.164412	0.104326	0.0654803	0.0541414	0.0804129	0.0714426	0.02372	0.246581	0.106958	0.11068	0.110165	0.0207009	0.133521	0.361505	0.499794	0.139573	0.343942	0.0340183	0.0923737	0.188138	0.0988027	0.113306	0.107371	0.124018	
3.27	0.122609	0.114536	0.218381	0.213036	0.161139	0.121921	0.141332	0.214708	0.130244	0.13611	0.0682235	0.0903456	0.108658	0.107391	0.214273	0.24675	0.26609	0.126852	0.134518	0.121842	0.0906294	0.0940939	0.0864984	0.340869	0.156075	0.0666913	0.0850722	0.0389446	0.143082	0.0870992	0.571001	0.137962	0.322083	0.079666	0.132517	0.122828	0.0717014	0.142522	0.144109	0.134306	0.128317	0.112295	0.191785	0.172764	0.128757	0.0938278	0.125514	0.127161	0.149434	0.18655	0.0590497	0.0504784	0.130881	0.062508	0.138716	0.16981	0.16642	0.105921	0.0670205	0.055338	0.0814707	0.0726036	0.0237195	0.242601	0.106658	0.110804	0.110401	0.0206961	0.133457	0.362167	0.496173	0.138287	0.342037	0.0340217	0.0927575	0.187267	0.0990486	0.11321	0.108853	0.125295	
3.275	0.123465	0.115571	0.217192	0.211339	0.160712	0.121757	0.140198	0.214959	0.12963	0.135416	0.068266	0.0904304	0.109434	0.107957	0.213284	0.245299	0.264228	0.125581	0.133541	0.12111	0.0896277	0.0931438	0.0857025	0.340707	0.157017	0.0667719	0.085152	0.0387837	0.144042	0.0881531	0.573134	0.137126	0.320807	0.0800611	0.133075	0.122003	0.0717697	0.142214	0.143812	0.13403	0.128133	0.110424	0.19203	0.173346	0.128686	0.0937275	0.124128	0.125917	0.148871	0.185903	0.059132	0.0505746	0.130039	0.0624931	0.140881	0.172349	0.168822	0.107557	0.0687048	0.056729	0.0825293	0.0738063	0.0244405	0.238759	0.106459	0.110934	0.11065	0.0206914	0.133392	0.362432	0.49241	0.137242	0.340544	0.0340249	0.0929314	0.186335	0.0993074	0.113105	0.11018	0.12644	
3.28	0.124449	0.116733	0.21613	0.209738	0.16044	0.121594	0.139119	0.215202	0.129009	0.134713	0.0683067	0.0905129	0.110192	0.108495	0.212438	0.243889	0.262483	0.12427	0.132516	0.120385	0.0885417	0.092124	0.0848647	0.340686	0.157912	0.0668511	0.0852306	0.0386326	0.144979	0.0891686	0.575164	0.136317	0.319608	0.0804391	0.133514	0.121167	0.0718357	0.141916	0.143525	0.133762	0.127964	0.108401	0.192476	0.17412	0.12862	0.0936336	0.122751	0.124677	0.148274	0.185262	0.0592185	0.0506717	0.129288	0.0624783	0.143258	0.175145	0.171611	0.109211	0.0705249	0.058319	0.0835744	0.0750384	0.025726	0.235112	0.106327	0.111069	0.110908	0.0206867	0.133328	0.362295	0.488492	0.136449	0.339507	0.0340279	0.0929466	0.185352	0.0995758	0.11299	0.111402	0.127494	
3.285	0.125561	0.118025	0.215198	0.208242	0.160326	0.121431	0.138112	0.21545	0.128401	0.134025	0.0683441	0.0905903	0.11092	0.109	0.211697	0.242518	0.260861	0.122918	0.131441	0.119656	0.0873808	0.0910399	0.0839991	0.340827	0.158765	0.0669265	0.0853053	0.0384823	0.145891	0.0901238	0.577098	0.135555	0.318511	0.0807886	0.133838	0.120345	0.0718974	0.141614	0.143232	0.133489	0.127807	0.10622	0.193153	0.175118	0.128555	0.0935453	0.121385	0.123442	0.147651	0.18463	0.0593077	0.0507682	0.128636	0.0624636	0.145829	0.178174	0.174773	0.110862	0.0724664	0.0601067	0.0845893	0.0762841	0.0271601	0.231715	0.106234	0.111209	0.111172	0.0206819	0.13326	0.361768	0.484242	0.135918	0.338973	0.0340305	0.092907	0.18433	0.0998501	0.112861	0.112552	0.128482	
3.29	0.126801	0.119447	0.2144	0.206861	0.160372	0.121268	0.137193	0.215714	0.127828	0.133377	0.0683775	0.0906603	0.111607	0.109466	0.21104	0.241182	0.259366	0.121521	0.130312	0.11891	0.0861547	0.0898967	0.0831428	0.341149	0.159578	0.0669956	0.0853738	0.0383228	0.146778	0.0909933	0.578943	0.134856	0.31754	0.0811003	0.13405	0.119569	0.0719529	0.141292	0.14292	0.133198	0.127662	0.103863	0.194077	0.176364	0.128492	0.093462	0.12003	0.122213	0.147006	0.184009	0.0593987	0.0508632	0.128091	0.0624488	0.14857	0.181409	0.178283	0.112482	0.0745085	0.062083	0.0855542	0.0775238	0.0286046	0.228618	0.106162	0.11135	0.111439	0.0206772	0.133186	0.360904	0.479707	0.135676	0.338986	0.0340327	0.0928632	0.183278	0.100127	0.112716	0.113628	0.129396	
3.295	0.128165	0.121	0.213737	0.205598	0.160575	0.121106	0.136375	0.216006	0.12731	0.132793	0.0684058	0.0907208	0.112244	0.109887	0.210449	0.239873	0.257997	0.120072	0.129131	0.118134	0.0848732	0.0886991	0.082286	0.341663	0.160356	0.0670563	0.0854339	0.0381439	0.147641	0.0917499	0.580709	0.134236	0.316713	0.0813666	0.134154	0.118871	0.0720007	0.140939	0.142575	0.132877	0.127526	0.101367	0.195285	0.17789	0.12843	0.0933832	0.118849	0.120989	0.146348	0.183401	0.05949	0.0509553	0.127656	0.0624341	0.151451	0.184816	0.18211	0.114041	0.0766243	0.0642311	0.0864476	0.0787332	0.0300763	0.225866	0.1061	0.111492	0.111706	0.0206725	0.133114	0.359696	0.47499	0.135779	0.339581	0.0340344	0.0928263	0.18221	0.100402	0.112566	0.114616	0.130224	
3.3	0.129651	0.122681	0.213208	0.204457	0.160934	0.120944	0.135664	0.216332	0.126869	0.132297	0.0684287	0.0907703	0.112821	0.110261	0.209914	0.238583	0.256749	0.118561	0.127894	0.117312	0.083546	0.0874521	0.081413	0.342377	0.161104	0.0671065	0.0854836	0.0379358	0.148482	0.0923762	0.582404	0.133706	0.316044	0.0815816	0.134155	0.118279	0.0720396	0.140542	0.142186	0.132515	0.127399	0.0987846	0.196834	0.179799	0.128368	0.0933084	0.118563	0.119771	0.145682	0.182809	0.0595803	0.0510438	0.127339	0.0624194	0.154436	0.188358	0.18621	0.115507	0.0787819	0.0665267	0.087247	0.0798874	0.0315766	0.223498	0.106043	0.111633	0.111969	0.0206678	0.133046	0.358148	0.470146	0.136351	0.34077	0.0340357	0.0927944	0.181137	0.100674	0.112878	0.115505	0.130959	
3.305	0.131249	0.124475	0.212808	0.203439	0.161443	0.120782	0.135063	0.2167	0.126526	0.131911	0.0684456	0.0908072	0.113331	0.110584	0.209425	0.2373	0.255614	0.116983	0.126599	0.116434	0.0821829	0.0861608	0.0805105	0.343294	0.161829	0.0671447	0.085521	0.0376895	0.149301	0.0928662	0.584037	0.133274	0.315539	0.0817405	0.134057	0.117822	0.0720687	0.140093	0.141743	0.132103	0.127279	0.0961703	0.198735	0.182144	0.128306	0.0932372	0.119805	0.118559	0.145015	0.182235	0.0596685	0.0511282	0.127145	0.0624048	0.157488	0.191991	0.190534	0.116848	0.0809451	0.0689381	0.0879304	0.0809616	0.0330737	0.221545	0.10599	0.111772	0.112226	0.0206632	0.132981	0.356283	0.465222	0.137605	0.342539	0.0340365	0.0927641	0.18007	0.100938	0.113614	0.116298	0.131608	
3.31	0.132953	0.126368	0.212532	0.202539	0.162092	0.12062	0.134573	0.217114	0.126298	0.131657	0.0684562	0.0908301	0.113764	0.110852	0.208975	0.236007	0.254579	0.115347	0.125244	0.115487	0.0807941	0.0848308	0.0795639	0.344412	0.162534	0.0671692	0.0855447	0.0373979	0.150103	0.0932212	0.585615	0.132946	0.315203	0.0818388	0.133866	0.117526	0.0720868	0.13959	0.141239	0.131636	0.127167	0.093873	0.200939	0.184958	0.128244	0.0931692	0.12227	0.117354	0.144355	0.181681	0.0597535	0.0512083	0.127077	0.0623901	0.160566	0.195668	0.195022	0.118034	0.0830755	0.0712125	0.0884772	0.0819315	0.0345322	0.220032	0.105938	0.111908	0.112475	0.0206585	0.132917	0.354123	0.460263	0.139415	0.344828	0.034037	0.092734	0.17902	0.101192	0.114435	0.116998	0.132173	
3.315	0.134749	0.128352	0.212372	0.201755	0.162871	0.120459	0.13419	0.217575	0.126204	0.131555	0.0684601	0.0908379	0.114114	0.111062	0.208558	0.234694	0.253629	0.113667	0.123827	0.114464	0.0794038	0.0834682	0.0785565	0.34572	0.163228	0.0671789	0.0855532	0.0370549	0.150888	0.0934462	0.587147	0.13272	0.315029	0.0818721	0.133586	0.117413	0.0720934	0.139042	0.140671	0.131112	0.12706	0.0921122	0.203391	0.188269	0.128182	0.0931042	0.125296	0.116156	0.143708	0.18115	0.0598343	0.0512836	0.127138	0.0623755	0.163687	0.199353	0.199612	0.119037	0.0851342	0.0734059	0.0888701	0.0827748	0.0359231	0.218976	0.105886	0.112039	0.112714	0.0206538	0.132853	0.351697	0.45532	0.141549	0.347563	0.034037	0.0927037	0.177998	0.101435	0.115132	0.117603	0.132654	
3.32	0.136625	0.130418	0.212316	0.201076	0.163764	0.120298	0.133908	0.218083	0.126257	0.131622	0.068457	0.0908292	0.114372	0.111211	0.208169	0.233349	0.252747	0.111963	0.12235	0.113358	0.0780759	0.0820838	0.0774817	0.347205	0.163914	0.0671723	0.0855451	0.0366524	0.15166	0.0935484	0.588637	0.132592	0.315008	0.0818358	0.133226	0.117501	0.0720873	0.138506	0.140044	0.130539	0.126958	0.0908428	0.206062	0.191968	0.128121	0.0930417	0.128566	0.114966	0.14308	0.180643	0.0599102	0.0513539	0.127326	0.062361	0.166852	0.203029	0.204236	0.119836	0.0870838	0.0756546	0.0890961	0.0834727	0.0372204	0.218397	0.105835	0.112165	0.112941	0.0206492	0.13279	0.349038	0.450452	0.143888	0.350664	0.0340368	0.0926734	0.177013	0.101665	0.115667	0.118111	0.133046	
3.325	0.138565	0.132555	0.212353	0.200494	0.164757	0.120137	0.133715	0.218635	0.12647	0.13187	0.0684461	0.0908028	0.114529	0.111294	0.207803	0.231968	0.251916	0.110256	0.120818	0.112169	0.0767947	0.0807365	0.0763433	0.348846	0.164599	0.0671483	0.0855192	0.0361817	0.152421	0.0935381	0.590088	0.132554	0.315123	0.081724	0.132793	0.117805	0.0720677	0.138025	0.139379	0.129954	0.126862	0.0899191	0.208926	0.195901	0.128059	0.0929816	0.132033	0.113785	0.142477	0.180162	0.0599807	0.0514193	0.127638	0.0623464	0.170016	0.20666	0.208827	0.120416	0.0888909	0.0779115	0.0891495	0.0840113	0.0384004	0.218326	0.105784	0.112284	0.113154	0.0206445	0.132725	0.346182	0.445721	0.146381	0.354057	0.0340363	0.0926431	0.176073	0.101879	0.116057	0.118514	0.133342	
3.33	0.140553	0.13475	0.212468	0.199997	0.165829	0.119977	0.133599	0.219224	0.12685	0.132309	0.0684266	0.0907573	0.114576	0.111306	0.207458	0.230596	0.251116	0.10856	0.119238	0.110899	0.075537	0.0794272	0.07515	0.350617	0.165284	0.0671056	0.0854744	0.0356413	0.15317	0.0934297	0.591496	0.132594	0.315352	0.0815299	0.132297	0.118334	0.0720332	0.137607	0.138754	0.129423	0.12677	0.0892153	0.211968	0.199998	0.128196	0.0929237	0.135679	0.112612	0.141903	0.17971	0.0600458	0.0514795	0.128069	0.0623319	0.173133	0.210203	0.213303	0.120768	0.0905274	0.0800608	0.0891166	0.0843822	0.0394436	0.218795	0.105733	0.112396	0.113354	0.0206399	0.132661	0.343169	0.441195	0.148979	0.357667	0.0340357	0.0926128	0.175188	0.102079	0.116305	0.118808	0.13353	
3.335	0.142571	0.136989	0.212645	0.199571	0.166961	0.120702	0.133543	0.219844	0.127403	0.132941	0.0683974	0.0906913	0.114504	0.111242	0.207131	0.22935	0.250328	0.106883	0.117619	0.109597	0.074287	0.078135	0.0739196	0.352494	0.165975	0.0670431	0.0854097	0.0350385	0.15391	0.0932435	0.592861	0.132695	0.315669	0.0812447	0.131751	0.11909	0.0719824	0.137242	0.138208	0.128966	0.126681	0.0886538	0.215151	0.204236	0.129081	0.0928676	0.139437	0.111449	0.141362	0.179286	0.0601051	0.0515347	0.128612	0.0623174	0.176159	0.213624	0.217602	0.120899	0.0919725	0.0820759	0.0890619	0.0845838	0.0403363	0.2198	0.105682	0.112501	0.113538	0.0206353	0.132597	0.340045	0.436943	0.151629	0.361427	0.0340349	0.0925826	0.174363	0.102262	0.116405	0.118988	0.133605	
3.34	0.144595	0.139256	0.212869	0.199202	0.168132	0.122365	0.133528	0.220484	0.128126	0.133766	0.0683571	0.0906028	0.114303	0.111094	0.206818	0.228277	0.249537	0.105239	0.11597	0.108449	0.0730482	0.0768445	0.0726676	0.354444	0.166671	0.0669596	0.0853239	0.0343841	0.154639	0.0930067	0.594181	0.132839	0.316045	0.0808578	0.131169	0.120069	0.0719136	0.136919	0.13774	0.128573	0.126597	0.0881921	0.218338	0.208439	0.13038	0.0928134	0.143178	0.110296	0.140857	0.178892	0.0601588	0.051585	0.129261	0.062303	0.179057	0.216888	0.221676	0.120842	0.0932086	0.0840521	0.0890094	0.0846214	0.0410709	0.221304	0.105632	0.112598	0.113708	0.0206307	0.132533	0.336858	0.433036	0.154278	0.365278	0.0340341	0.0925524	0.173605	0.102429	0.116355	0.119058	0.133564	
3.345	0.146599	0.141531	0.213122	0.198874	0.16932	0.124023	0.133534	0.221133	0.129012	0.134772	0.068304	0.0904901	0.113964	0.110855	0.206518	0.227358	0.248726	0.103641	0.114299	0.107522	0.0718361	0.0755524	0.0714008	0.356432	0.167374	0.0668539	0.0852165	0.0336863	0.155355	0.0927592	0.595455	0.133004	0.316448	0.0803569	0.130567	0.121259	0.0718252	0.13663	0.137336	0.12823	0.126515	0.0878053	0.221431	0.212462	0.131832	0.0927606	0.146815	0.109155	0.140391	0.17853	0.0602073	0.0516304	0.130013	0.0622885	0.181795	0.219964	0.225483	0.120619	0.0942308	0.0859301	0.0889619	0.0845067	0.0416429	0.223236	0.105581	0.112687	0.113862	0.020626	0.132469	0.333654	0.429537	0.156875	0.369175	0.0340334	0.0925223	0.172919	0.10258	0.116158	0.119009	0.133412	
3.35	0.148558	0.143793	0.213386	0.198572	0.170501	0.125606	0.133539	0.221778	0.130042	0.135941	0.0682367	0.0903519	0.11348	0.110453	0.206229	0.226561	0.247883	0.102103	0.112624	0.106786	0.0706687	0.0742736	0.0701294	0.358417	0.168084	0.0667252	0.0850867	0.0329574	0.156055	0.0925295	0.59668	0.133169	0.316843	0.0797279	0.129962	0.12265	0.0717153	0.136368	0.136981	0.127926	0.126436	0.0874769	0.22438	0.216265	0.13336	0.0927094	0.150321	0.108025	0.139966	0.178199	0.060251	0.0516709	0.130865	0.0622741	0.184346	0.222824	0.22899	0.120249	0.0950677	0.087688	0.088917	0.084258	0.0420579	0.225515	0.105531	0.112768	0.114	0.0206215	0.132406	0.330482	0.426508	0.159387	0.373081	0.0340327	0.0924922	0.172326	0.102715	0.115823	0.1182	0.133151	
3.355	0.150449	0.146018	0.213646	0.198282	0.171655	0.127126	0.133523	0.222403	0.131193	0.137245	0.0681534	0.0901867	0.112843	0.109888	0.205949	0.225856	0.246997	0.100633	0.110962	0.106187	0.0695636	0.0730265	0.0688687	0.360355	0.168799	0.0665732	0.0849344	0.0322879	0.156736	0.0923228	0.597852	0.133312	0.317198	0.0789571	0.129374	0.124217	0.0715824	0.136129	0.136664	0.127654	0.12636	0.0871945	0.227159	0.219802	0.134907	0.0926593	0.153696	0.106907	0.139582	0.177901	0.0602905	0.0517068	0.13182	0.0622598	0.186691	0.225454	0.232172	0.119759	0.0957539	0.0893116	0.0888727	0.0838983	0.0423323	0.22807	0.10548	0.112841	0.114124	0.0206169	0.132342	0.327384	0.423998	0.161765	0.376969	0.0340322	0.0924622	0.171823	0.102835	0.11536	0.116996	0.132791	
3.36	0.152251	0.148181	0.213884	0.197988	0.172759	0.128564	0.133464	0.222995	0.13244	0.138655	0.068053	0.0899931	0.112051	0.109194	0.205676	0.225225	0.24606	0.0992421	0.109331	0.105684	0.0685306	0.0718319	0.067634	0.362202	0.169517	0.0663977	0.0847598	0.0317556	0.157396	0.0921354	0.598966	0.13341	0.317479	0.0780449	0.128822	0.125923	0.0714253	0.13591	0.13638	0.127407	0.126287	0.0869489	0.229728	0.223023	0.136419	0.0926105	0.156945	0.105801	0.13924	0.177636	0.0603258	0.0517381	0.132879	0.0622454	0.188818	0.227842	0.235014	0.11918	0.0963026	0.0908419	0.0888284	0.0834549	0.0424875	0.230844	0.105429	0.112905	0.114233	0.0206123	0.132278	0.324399	0.422046	0.163964	0.380819	0.0340318	0.0924323	0.171393	0.102941	0.114776	0.115766	0.132336	
3.365	0.153951	0.150256	0.214085	0.197678	0.173795	0.129905	0.133342	0.223536	0.133753	0.140139	0.0679345	0.0897709	0.111103	0.108373	0.205409	0.224653	0.245066	0.0979412	0.107748	0.10525	0.0675779	0.0707041	0.0664343	0.363918	0.170237	0.0661995	0.0845639	0.0313602	0.158034	0.0919627	0.600018	0.133445	0.317655	0.0770177	0.128325	0.127724	0.0712435	0.135708	0.136122	0.127183	0.126215	0.0867328	0.232054	0.225919	0.137855	0.0925626	0.160072	0.104708	0.13894	0.177403	0.0603571	0.0517652	0.134046	0.0622311	0.190718	0.229979	0.237509	0.118545	0.0967244	0.092222	0.0887839	0.0829575	0.0425461	0.233786	0.105379	0.112961	0.114327	0.0206077	0.132214	0.321555	0.420679	0.165973	0.384621	0.0340315	0.0924024	0.171029	0.103032	0.114078	0.114614	0.131793	
3.37	0.155541	0.152224	0.214234	0.19734	0.174743	0.131137	0.133138	0.22401	0.135104	0.141665	0.0677976	0.0895205	0.110006	0.107419	0.205146	0.224131	0.244014	0.0967417	0.106228	0.10487	0.0667141	0.0696537	0.0652841	0.365468	0.170955	0.0659801	0.0843482	0.031065	0.158647	0.0918016	0.601004	0.133395	0.317697	0.0758958	0.127904	0.129574	0.0710373	0.135522	0.135887	0.126978	0.126146	0.0865409	0.234115	0.228505	0.139178	0.0925157	0.163081	0.104163	0.138682	0.177204	0.0603841	0.0517882	0.135319	0.0622168	0.192391	0.231864	0.239659	0.117889	0.0970362	0.0934144	0.0887393	0.0824366	0.042532	0.236852	0.105328	0.113009	0.114408	0.0206032	0.13215	0.31887	0.419909	0.167803	0.388368	0.0340314	0.0923726	0.170725	0.103109	0.113272	0.113506	0.131165	
3.375	0.157017	0.154067	0.21432	0.196963	0.175588	0.132251	0.132834	0.224402	0.136466	0.143205	0.0676427	0.0892431	0.108777	0.106332	0.204888	0.223652	0.242943	0.0956532	0.104788	0.104533	0.0659474	0.068692	0.064201	0.366819	0.171668	0.0657419	0.0841151	0.0308346	0.159234	0.0916502	0.601918	0.133244	0.317579	0.0746816	0.127577	0.131434	0.0708082	0.135348	0.135671	0.126789	0.126078	0.086369	0.23591	0.230801	0.140343	0.0924696	0.165974	0.1051	0.138466	0.177037	0.0604071	0.0518073	0.136692	0.0622026	0.193837	0.233496	0.24147	0.117247	0.0972581	0.0943861	0.0886948	0.0819221	0.0424687	0.239997	0.105278	0.113049	0.114474	0.0205986	0.132086	0.316353	0.419733	0.169476	0.39205	0.0340313	0.0923428	0.170477	0.103174	0.11236	0.112387	0.130455	
3.38	0.158372	0.15577	0.214332	0.196539	0.176317	0.13324	0.132415	0.224694	0.137817	0.144736	0.0674716	0.0889413	0.107435	0.105139	0.204631	0.223208	0.241948	0.0946836	0.103441	0.104232	0.0652852	0.0678298	0.0632	0.367944	0.172374	0.0654885	0.0838681	0.0306463	0.159792	0.0915071	0.602755	0.132976	0.317279	0.0733821	0.127364	0.133271	0.0705597	0.135185	0.135472	0.126614	0.126011	0.0862139	0.237427	0.232748	0.141329	0.0924241	0.168745	0.106849	0.138291	0.176903	0.0604262	0.0518225	0.138151	0.0621883	0.195062	0.234878	0.242953	0.116648	0.0974107	0.0950965	0.0886503	0.0814416	0.0423782	0.243177	0.105227	0.113081	0.114528	0.0205941	0.132022	0.314003	0.420133	0.171048	0.395653	0.0340313	0.0923131	0.170281	0.103226	0.111345	0.111232	0.129662	
3.385	0.159597	0.157319	0.214261	0.196061	0.176919	0.134098	0.131866	0.224873	0.139142	0.146238	0.0672867	0.0886189	0.105983	0.103893	0.204376	0.222794	0.241067	0.0938389	0.102201	0.10396	0.0647333	0.0670767	0.0622929	0.368819	0.17307	0.0652243	0.0836113	0.0304876	0.160319	0.0913712	0.60351	0.132576	0.316778	0.0720298	0.127281	0.135062	0.0702966	0.135033	0.135288	0.126452	0.125946	0.0860731	0.23862	0.234241	0.1421	0.0923793	0.171376	0.108813	0.138155	0.1768	0.0604416	0.0518342	0.13968	0.0621741	0.196071	0.236013	0.244123	0.116123	0.0975142	0.0955497	0.0886058	0.0810176	0.042279	0.246353	0.105177	0.113106	0.11457	0.0205895	0.131958	0.31182	0.42108	0.172585	0.399161	0.0340313	0.0922835	0.170133	0.103266	0.110226	0.11003	0.128783	
3.39	0.160686	0.158705	0.214101	0.195527	0.177387	0.134822	0.131175	0.224923	0.140419	0.147677	0.0670921	0.088281	0.104419	0.102627	0.20412	0.222406	0.240295	0.0931238	0.10108	0.103713	0.0642963	0.0664402	0.0614888	0.369426	0.173755	0.0649544	0.0833503	0.0303513	0.160815	0.0912431	0.604174	0.132033	0.316055	0.0706591	0.127343	0.136781	0.0700249	0.134889	0.135117	0.1263	0.125882	0.0859444	0.23947	0.235269	0.142632	0.092335	0.173848	0.110938	0.138058	0.176728	0.0604536	0.0518424	0.141255	0.06216	0.196871	0.236906	0.244997	0.115693	0.0975866	0.0957998	0.0885613	0.0806646	0.0421842	0.249483	0.105126	0.113124	0.114599	0.020585	0.131895	0.30981	0.422533	0.174139	0.402551	0.0340312	0.0922539	0.17003	0.103296	0.109009	0.108779	0.127822	
3.395	0.161632	0.15992	0.21385	0.194934	0.177715	0.135411	0.130334	0.224835	0.141615	0.149009	0.0668926	0.0879344	0.102767	0.101353	0.203865	0.22204	0.239611	0.0925418	0.100087	0.103487	0.0639769	0.0659256	0.0607946	0.369749	0.174426	0.0646847	0.0830909	0.0302329	0.161277	0.0912963	0.604739	0.131337	0.315098	0.0692688	0.127563	0.138381	0.0697514	0.134753	0.134957	0.126158	0.12582	0.0858262	0.239994	0.23589	0.142927	0.0922911	0.176143	0.113251	0.137997	0.176684	0.0604628	0.0518474	0.142851	0.0621458	0.19747	0.237562	0.245586	0.115375	0.0976432	0.0959148	0.0885168	0.080404	0.0421045	0.252524	0.105076	0.113134	0.114618	0.0205805	0.131831	0.307917	0.424445	0.175766	0.4058	0.0340308	0.0922243	0.169954	0.103315	0.107707	0.107499	0.126791	
3.4	0.162426	0.160963	0.213507	0.194285	0.177904	0.135866	0.129334	0.2246	0.142698	0.150207	0.0666935	0.0875866	0.101071	0.100079	0.20361	0.221693	0.238996	0.0920946	0.0992281	0.103277	0.0637765	0.0655359	0.0602151	0.369775	0.175082	0.0644212	0.0828394	0.0301288	0.161706	0.0917397	0.605193	0.130482	0.313894	0.0678782	0.127949	0.139818	0.0694828	0.134624	0.134806	0.126024	0.125758	0.0857171	0.240218	0.236167	0.143001	0.0922476	0.178247	0.115711	0.13797	0.176668	0.0604689	0.0518495	0.144442	0.0621317	0.197874	0.237988	0.245896	0.115182	0.0976955	0.0959456	0.0884723	0.0802497	0.0420545	0.255437	0.105025	0.113139	0.114626	0.020576	0.131767	0.306111	0.426764	0.177562	0.408879	0.03403	0.0921948	0.169895	0.103324	0.106327	0.106202	0.125703	
3.405	0.16306	0.161835	0.213075	0.193586	0.177953	0.136189	0.128175	0.22421	0.143654	0.15126	0.0665002	0.0872462	0.0993722	0.0988244	0.203356	0.221363	0.238436	0.0917827	0.0985067	0.103083	0.0636945	0.0652719	0.0597525	0.369494	0.175719	0.0641698	0.0826015	0.0300363	0.1621	0.0926243	0.605521	0.129462	0.312437	0.0665355	0.128503	0.141077	0.0692253	0.1345	0.134664	0.125897	0.125697	0.0856159	0.240129	0.236113	0.142878	0.0922044	0.180144	0.118259	0.137973	0.176676	0.0604722	0.0518489	0.146002	0.0621176	0.198089	0.238187	0.245933	0.115118	0.0977508	0.095921	0.0884279	0.0802062	0.0420501	0.258181	0.104975	0.113138	0.114625	0.0205715	0.131703	0.304388	0.429435	0.179778	0.411757	0.0340288	0.0921654	0.169855	0.103324	0.104864	0.104872	0.124544	
3.41	0.163536	0.162538	0.212559	0.192845	0.177868	0.136385	0.126859	0.223663	0.144479	0.152167	0.0663181	0.0869222	0.0976927	0.0976113	0.203101	0.221046	0.237921	0.0916051	0.0979237	0.102901	0.0637283	0.0651319	0.0594063	0.3689	0.176334	0.0639361	0.0823823	0.0299534	0.162458	0.0938709	0.605707	0.128262	0.310721	0.0652887	0.129223	0.142157	0.0689844	0.134382	0.13453	0.125777	0.125637	0.0855217	0.239728	0.235699	0.14268	0.0921613	0.181826	0.120828	0.138004	0.176705	0.060473	0.051846	0.14751	0.0621035	0.198123	0.238169	0.245707	0.115182	0.0975813	0.0958647	0.0883834	0.0802732	0.0420996	0.260721	0.104924	0.113132	0.114616	0.020567	0.131632	0.302751	0.432403	0.182409	0.414404	0.0340268	0.092136	0.169839	0.103317	0.103312	0.103495	0.123294	
3.415	0.163859	0.163077	0.211968	0.192073	0.177656	0.136459	0.125419	0.222956	0.145176	0.152932	0.0661517	0.0866235	0.0960437	0.0964614	0.202846	0.220741	0.237446	0.091559	0.0974781	0.10273	0.0638736	0.0651119	0.0591737	0.367989	0.176923	0.0637249	0.082186	0.0298784	0.162779	0.0953751	0.605732	0.126866	0.308743	0.064167	0.1301	0.143061	0.0687652	0.134269	0.134402	0.125662	0.125577	0.0854336	0.239075	0.234998	0.142499	0.0921184	0.183284	0.123339	0.138057	0.176751	0.0604721	0.0518412	0.148951	0.0620895	0.19798	0.237939	0.245227	0.115367	0.0973292	0.095787	0.088339	0.0804458	0.0422015	0.263026	0.104874	0.113121	0.1146	0.0205625	0.131536	0.301212	0.435616	0.185	0.416798	0.034024	0.0921067	0.169848	0.103304	0.101694	0.10206	0.12195	
3.42	0.164035	0.163458	0.211314	0.191287	0.177326	0.136419	0.124034	0.222091	0.145748	0.153559	0.066005	0.0863585	0.0944359	0.0953868	0.202592	0.220445	0.237004	0.0916399	0.0971665	0.102568	0.0641239	0.0652056	0.0590493	0.366758	0.177483	0.0635404	0.082016	0.02981	0.163063	0.0970651	0.605577	0.125268	0.306502	0.0631852	0.131117	0.1438	0.0685724	0.134161	0.13428	0.125553	0.125518	0.085351	0.238228	0.234099	0.142361	0.0920755	0.184511	0.12575	0.138127	0.176809	0.0604702	0.051835	0.150313	0.0620755	0.197666	0.237507	0.244504	0.115662	0.0971055	0.0956827	0.0882946	0.0807151	0.0423485	0.265074	0.104823	0.113108	0.114579	0.0205581	0.131418	0.299792	0.439023	0.18731	0.418921	0.0340202	0.0920774	0.169878	0.103286	0.10005	0.100559	0.120529	
3.425	0.164074	0.163688	0.210608	0.190513	0.176891	0.136276	0.12286	0.221067	0.146202	0.154056	0.0658808	0.0861343	0.0928993	0.0943336	0.202337	0.220158	0.23659	0.0918419	0.0969836	0.102414	0.064471	0.0654045	0.0590262	0.36521	0.178007	0.0633858	0.0818747	0.029747	0.163309	0.0989036	0.605221	0.123479	0.304003	0.0623526	0.132249	0.144381	0.0684098	0.134056	0.134952	0.125993	0.125459	0.0852731	0.237212	0.233048	0.142258	0.0920326	0.185501	0.128028	0.138207	0.176874	0.0604678	0.051828	0.15159	0.0620615	0.197187	0.23688	0.243549	0.116051	0.0969216	0.0955412	0.0882502	0.0810683	0.0425314	0.26685	0.104773	0.113094	0.114554	0.0205536	0.131314	0.298522	0.442578	0.189316	0.420753	0.0340151	0.0920482	0.169926	0.103265	0.0984036	0.0989956	0.119054	
3.43	0.163984	0.163775	0.209866	0.189806	0.176365	0.136095	0.121922	0.219887	0.146545	0.15443	0.0657818	0.0859561	0.0915478	0.0931606	0.202083	0.219878	0.236201	0.0921579	0.096922	0.102266	0.0649051	0.0656988	0.0590955	0.36335	0.17849	0.0632633	0.0817637	0.0296887	0.163515	0.10087	0.604645	0.121524	0.301259	0.0616774	0.133469	0.144817	0.0682805	0.134851	0.13653	0.12734	0.125401	0.0851995	0.236036	0.231853	0.142173	0.0919897	0.186252	0.130151	0.138289	0.17694	0.0604657	0.0518208	0.152778	0.0620476	0.196547	0.236068	0.242376	0.116516	0.0967728	0.0953534	0.0882058	0.08149	0.0427393	0.268345	0.104721	0.113079	0.114529	0.0205492	0.131234	0.297444	0.446238	0.191014	0.422271	0.0340087	0.0920191	0.169985	0.103243	0.0967635	0.0973854	0.117556	
3.435	0.163776	0.163728	0.209104	0.189187	0.175761	0.135908	0.12117	0.21855	0.146781	0.154688	0.0657092	0.085827	0.0904651	0.0919026	0.201829	0.219603	0.235832	0.0925794	0.0969732	0.102124	0.0654152	0.0660774	0.0592475	0.361187	0.178926	0.0631742	0.0816836	0.0296344	0.16368	0.102946	0.603831	0.119425	0.298289	0.0611659	0.134748	0.145116	0.0681863	0.136631	0.138496	0.129143	0.125342	0.0851298	0.234704	0.230513	0.142097	0.0919468	0.186762	0.132093	0.138365	0.176999	0.0604647	0.0518142	0.153879	0.0620337	0.195752	0.235081	0.240994	0.117034	0.0966516	0.0951132	0.0881615	0.0819627	0.0429601	0.269557	0.104665	0.113065	0.114506	0.0205447	0.131167	0.296609	0.449966	0.192377	0.423458	0.0340008	0.09199	0.170048	0.103222	0.0951348	0.0957565	0.116071	
3.44	0.163459	0.163556	0.20834	0.188647	0.175096	0.135726	0.120549	0.217058	0.146919	0.154837	0.065664	0.0857483	0.0896301	0.0906414	0.201575	0.219333	0.235481	0.0930975	0.0971283	0.101987	0.0659897	0.0665288	0.0594722	0.358731	0.179307	0.0631187	0.0816347	0.0295835	0.163802	0.105103	0.602766	0.117196	0.29512	0.0608217	0.13606	0.145288	0.0681281	0.138788	0.140537	0.13104	0.125284	0.0850635	0.233224	0.229027	0.142025	0.0919039	0.187028	0.133838	0.138426	0.177045	0.0604657	0.0518091	0.154894	0.0620198	0.194807	0.23393	0.23941	0.117583	0.0965476	0.0948157	0.0881171	0.0824676	0.0431811	0.270489	0.104608	0.113055	0.114488	0.0205403	0.131047	0.296053	0.453726	0.193386	0.424298	0.0339914	0.0919609	0.170106	0.103206	0.0935206	0.094146	0.114633	
3.445	0.163045	0.163265	0.207591	0.188171	0.174385	0.135547	0.12002	0.215408	0.146963	0.154884	0.0656459	0.0857195	0.0889786	0.0894156	0.201322	0.219065	0.235145	0.093703	0.0973786	0.101855	0.0666169	0.0670414	0.0597601	0.355994	0.179628	0.0630965	0.0816164	0.0295354	0.16388	0.107295	0.601438	0.114865	0.291779	0.0606458	0.137381	0.14534	0.0681057	0.140973	0.142608	0.132962	0.125225	0.0850002	0.231609	0.227398	0.141955	0.091861	0.18705	0.135385	0.138462	0.17707	0.0604696	0.0518063	0.155826	0.0620059	0.19372	0.232626	0.237637	0.118141	0.0964498	0.0944534	0.0880728	0.0829856	0.0433894	0.271145	0.104553	0.113049	0.114476	0.0205359	0.13093	0.295796	0.45749	0.194034	0.424781	0.0339805	0.0919319	0.170148	0.103197	0.0919234	0.0925976	0.11327	
3.45	0.162544	0.162865	0.206874	0.187745	0.173645	0.135369	0.119561	0.213598	0.146919	0.154834	0.065654	0.0857388	0.0884524	0.0882277	0.201068	0.218799	0.234822	0.0943868	0.0977167	0.101725	0.0672854	0.0676044	0.0601025	0.353004	0.17988	0.0631063	0.0816273	0.0294899	0.163912	0.109465	0.599843	0.112665	0.288281	0.0606374	0.13868	0.14528	0.0681178	0.143146	0.144707	0.134913	0.125167	0.0849398	0.229871	0.225634	0.141886	0.0918182	0.186829	0.136739	0.138465	0.177066	0.0604777	0.0518066	0.156679	0.061992	0.192499	0.231183	0.235687	0.118684	0.0963469	0.0940165	0.0880285	0.0834977	0.0435731	0.271536	0.104496	0.113051	0.114475	0.0205314	0.130839	0.295831	0.461229	0.194319	0.424907	0.0339679	0.091903	0.170162	0.103197	0.0903443	0.0911508	0.111994	
3.455	0.161963	0.162361	0.206206	0.187361	0.172891	0.135192	0.119156	0.211619	0.146792	0.154693	0.0656868	0.0858033	0.0880135	0.0870689	0.200814	0.218533	0.234511	0.0951405	0.0981363	0.101599	0.0679849	0.0682081	0.0604924	0.349787	0.180055	0.063146	0.0816657	0.0294464	0.163894	0.111572	0.597979	0.110875	0.284663	0.0607923	0.139927	0.145112	0.0681622	0.145334	0.146812	0.136881	0.125109	0.0848818	0.228028	0.223743	0.141817	0.0917754	0.186367	0.137908	0.138424	0.177026	0.0604911	0.0518109	0.15746	0.0619782	0.191156	0.229614	0.233577	0.119191	0.0962286	0.0934976	0.0879842	0.0839861	0.0437212	0.271676	0.104436	0.113061	0.114488	0.020527	0.130768	0.296148	0.46492	0.194247	0.424684	0.0339537	0.0918741	0.170133	0.10321	0.0887838	0.0898277	0.110807	
3.46	0.161315	0.161759	0.205603	0.187012	0.172136	0.135014	0.118796	0.209463	0.146587	0.154465	0.0657422	0.0859089	0.087639	0.0859313	0.200561	0.218268	0.234208	0.0959565	0.0986333	0.101474	0.0687063	0.0688443	0.0609242	0.34637	0.180145	0.0632134	0.0817295	0.0294048	0.163826	0.113597	0.595849	0.109528	0.28098	0.0611018	0.141095	0.144843	0.0682361	0.147544	0.148916	0.138859	0.12505	0.0848261	0.226097	0.221739	0.141749	0.0917325	0.185665	0.138903	0.138332	0.176942	0.0605107	0.05182	0.15818	0.0619644	0.189702	0.227935	0.231322	0.119644	0.096085	0.0928969	0.0879399	0.0844344	0.0438244	0.271584	0.104377	0.113081	0.114516	0.0205226	0.13066	0.296737	0.468542	0.193829	0.424128	0.0339377	0.0918453	0.170046	0.103237	0.0872413	0.088634	0.109708	
3.465	0.160609	0.161063	0.205082	0.186692	0.171396	0.134837	0.118473	0.207134	0.146307	0.154156	0.0658174	0.0860508	0.0873149	0.0848112	0.200308	0.218002	0.233913	0.0968283	0.0992056	0.101351	0.0694424	0.0695066	0.0613947	0.342783	0.180143	0.0633056	0.081816	0.0293648	0.163703	0.115528	0.59346	0.108517	0.277298	0.0615524	0.14216	0.144478	0.0683362	0.149776	0.151022	0.140854	0.124992	0.0847724	0.224099	0.219638	0.141681	0.0916897	0.184726	0.139736	0.138179	0.176809	0.0605364	0.0518345	0.158849	0.0619507	0.18815	0.226158	0.228943	0.120023	0.0959095	0.0922242	0.0878956	0.0848284	0.0438752	0.271282	0.10432	0.113114	0.114563	0.0205182	0.130555	0.297583	0.472077	0.193084	0.423263	0.0339195	0.0918165	0.169887	0.103282	0.0857252	0.0875701	0.1087	
3.47	0.159853	0.160276	0.204656	0.186397	0.170681	0.13466	0.118181	0.204648	0.145957	0.15377	0.0659098	0.0862235	0.0870312	0.0837087	0.200055	0.217737	0.233625	0.0977504	0.0998533	0.101229	0.0701874	0.0701905	0.0619025	0.339066	0.180043	0.0634193	0.0819226	0.029326	0.163523	0.117323	0.590823	0.107726	0.27368	0.0621272	0.143109	0.144021	0.0684587	0.151994	0.1531	0.142836	0.124934	0.0847206	0.222055	0.217457	0.141613	0.0916469	0.183562	0.140421	0.137942	0.17662	0.0605702	0.0518549	0.159482	0.061937	0.186517	0.2243	0.226458	0.120317	0.0957023	0.0914906	0.0878513	0.0851561	0.0438683	0.270796	0.104264	0.113159	0.114629	0.0205139	0.130471	0.298669	0.475509	0.192039	0.422118	0.0338988	0.0917878	0.169648	0.103345	0.0843883	0.0866396	0.107781	
3.475	0.15905	0.159399	0.204339	0.186124	0.170004	0.134482	0.117914	0.202032	0.145541	0.153311	0.0660162	0.0864209	0.0867807	0.0826285	0.199802	0.217472	0.233341	0.098719	0.100579	0.101108	0.0709363	0.0708934	0.062448	0.335263	0.179839	0.0635512	0.0820463	0.0292884	0.163283	0.118918	0.587956	0.10708	0.270188	0.0628087	0.14393	0.143478	0.0685997	0.154131	0.155082	0.144741	0.124875	0.0846704	0.219986	0.215216	0.141545	0.0916041	0.182195	0.140969	0.137421	0.176331	0.0605997	0.0518814	0.160087	0.0619233	0.184816	0.222376	0.223889	0.120512	0.0954562	0.0906993	0.0878071	0.0854082	0.0438	0.270156	0.104208	0.113217	0.114717	0.0205095	0.130402	0.299973	0.478822	0.19073	0.420728	0.033875	0.0917591	0.169323	0.103427	0.0833108	0.0858474	0.106951	
3.48	0.158202	0.158432	0.204146	0.185871	0.169374	0.134305	0.117668	0.199319	0.145065	0.152786	0.0661337	0.086637	0.0865572	0.0815874	0.199549	0.217207	0.233061	0.0997316	0.101385	0.100986	0.0716835	0.0716143	0.0630333	0.331424	0.179525	0.0636978	0.082184	0.0292516	0.162978	0.120272	0.584904	0.106535	0.266878	0.0635797	0.144615	0.142852	0.0687552	0.156127	0.15691	0.146513	0.124817	0.0846218	0.217928	0.212955	0.141477	0.0915613	0.180651	0.141395	0.136814	0.175993	0.0606263	0.0519141	0.160673	0.0619096	0.183064	0.220402	0.22126	0.120602	0.0950473	0.0898483	0.0877628	0.0855777	0.0436697	0.269391	0.104154	0.11329	0.114827	0.0205051	0.130319	0.301466	0.482007	0.189193	0.419127	0.0338474	0.0917305	0.168914	0.103529	0.0824604	0.0851136	0.106208	
3.485	0.15731	0.157375	0.204088	0.185718	0.168802	0.134128	0.117441	0.196557	0.144533	0.152198	0.0662593	0.0868655	0.0863563	0.0806303	0.199296	0.216942	0.232783	0.100786	0.102278	0.100865	0.072425	0.0723534	0.0636615	0.327603	0.179099	0.0638557	0.0823328	0.0292156	0.162606	0.121381	0.581692	0.106066	0.263806	0.0644237	0.145157	0.142151	0.0689215	0.157955	0.158558	0.148129	0.124759	0.0845744	0.215897	0.210706	0.14141	0.0915186	0.178958	0.141711	0.136283	0.17562	0.0606558	0.0519528	0.161248	0.0618959	0.181277	0.218392	0.218591	0.12058	0.0944766	0.0889272	0.0879606	0.0856603	0.0434719	0.268535	0.104102	0.113377	0.114958	0.0205008	0.130236	0.303116	0.485054	0.187466	0.417351	0.0338151	0.0917019	0.168424	0.103649	0.0817745	0.0844544	0.105548	
3.49	0.156372	0.156227	0.204179	0.186017	0.168298	0.133951	0.11723	0.193795	0.143951	0.151555	0.0663901	0.0871009	0.0861742	0.0798302	0.199043	0.216678	0.232506	0.101881	0.103263	0.100744	0.0731581	0.0731105	0.064336	0.323846	0.178557	0.0640216	0.0824897	0.0291801	0.162162	0.122253	0.578337	0.105658	0.26103	0.0653233	0.145553	0.141381	0.0690948	0.159608	0.160022	0.149582	0.124701	0.0845283	0.213901	0.208587	0.141342	0.0914758	0.177146	0.14193	0.135909	0.175202	0.0606894	0.051997	0.161815	0.0618823	0.179472	0.216362	0.215905	0.120446	0.0937871	0.0879386	0.0881682	0.0856543	0.0431654	0.267622	0.10405	0.113477	0.115109	0.0204964	0.130162	0.304888	0.487958	0.185589	0.415436	0.0337768	0.0916734	0.16786	0.103785	0.0812072	0.0838981	0.104967	
3.495	0.155387	0.154984	0.204429	0.186741	0.167869	0.133775	0.117031	0.191117	0.143325	0.150863	0.0665235	0.0873383	0.0860079	0.079193	0.198791	0.216413	0.23223	0.103013	0.104345	0.100622	0.0738806	0.0738841	0.0650605	0.320192	0.177899	0.0641922	0.0826519	0.029145	0.161642	0.122901	0.574854	0.1053	0.258603	0.0662602	0.145796	0.14055	0.0692721	0.161085	0.161316	0.150874	0.124642	0.0844833	0.211953	0.206796	0.141274	0.0914331	0.175249	0.142065	0.135607	0.174711	0.0607213	0.052046	0.162376	0.0618687	0.177663	0.214327	0.213224	0.120095	0.0930434	0.0869067	0.0882714	0.0855597	0.0427928	0.266686	0.103999	0.113587	0.115277	0.0204921	0.130087	0.306744	0.490716	0.183603	0.413413	0.0337313	0.091645	0.167233	0.103935	0.0807346	0.0834548	0.10446	
3.5	0.154352	0.153639	0.20485	0.187726	0.167526	0.133598	0.116844	0.18857	0.142663	0.150129	0.066657	0.0875734	0.0858551	0.0786848	0.198539	0.216149	0.231953	0.104178	0.105529	0.100501	0.0745902	0.074673	0.0658382	0.316685	0.177124	0.0643645	0.0828164	0.0291101	0.161044	0.123334	0.571255	0.10498	0.256576	0.0672146	0.145883	0.139667	0.0694502	0.162412	0.16251	0.152047	0.124584	0.0844393	0.21007	0.205397	0.141207	0.0913904	0.173297	0.142132	0.135091	0.174147	0.0607464	0.0520986	0.16293	0.0618551	0.175864	0.212301	0.210562	0.119632	0.0922615	0.0858497	0.0882732	0.0853535	0.0423878	0.265761	0.103949	0.113704	0.115459	0.0204878	0.130009	0.308648	0.493329	0.181546	0.411316	0.0336773	0.0916166	0.166552	0.104095	0.0803429	0.0831258	0.104018	
3.505	0.153264	0.152186	0.205453	0.188916	0.167277	0.133421	0.116667	0.186194	0.141973	0.149363	0.0667883	0.0878028	0.0857138	0.0782684	0.198286	0.215885	0.231677	0.105371	0.106817	0.10038	0.0752842	0.075475	0.066672	0.313376	0.176231	0.064536	0.0829807	0.0290754	0.160363	0.123566	0.567553	0.104694	0.25499	0.068166	0.14581	0.138743	0.0696266	0.163648	0.163637	0.153148	0.124526	0.0843961	0.208263	0.204361	0.141139	0.0913477	0.171316	0.142143	0.134386	0.173529	0.0607682	0.0521537	0.163475	0.0618416	0.174089	0.210296	0.207934	0.119098	0.0914218	0.0847769	0.0882305	0.0850453	0.0420884	0.264879	0.103898	0.113826	0.115652	0.0204835	0.129935	0.310561	0.495801	0.179459	0.409179	0.0336131	0.0915882	0.165832	0.104261	0.0800211	0.0829198	0.103631	
3.51	0.152121	0.150624	0.206245	0.190328	0.167133	0.133245	0.116498	0.184019	0.141265	0.148574	0.0669157	0.0880235	0.0855825	0.0779173	0.198034	0.215621	0.231401	0.106584	0.108208	0.100259	0.0759609	0.0762869	0.0675623	0.310314	0.17522	0.0647043	0.0831425	0.0290407	0.159596	0.12363	0.563756	0.104435	0.253883	0.0690978	0.145571	0.137791	0.0697991	0.164801	0.164686	0.154178	0.124468	0.0843537	0.206539	0.20362	0.141071	0.091305	0.169328	0.142115	0.13362	0.172873	0.0607905	0.0522098	0.164006	0.0618281	0.172346	0.208321	0.205359	0.118492	0.0905104	0.0836947	0.0881792	0.0846685	0.0419263	0.264072	0.103848	0.113949	0.115849	0.0204791	0.129867	0.312451	0.498137	0.177662	0.407041	0.0335376	0.09156	0.165087	0.104428	0.079757	0.0830309	0.103292	
3.515	0.15092	0.148956	0.207233	0.191976	0.167102	0.133069	0.116336	0.182068	0.14055	0.147772	0.0670375	0.0882335	0.0854597	0.0776149	0.197782	0.215357	0.233639	0.107809	0.109699	0.100138	0.0766205	0.0771035	0.068506	0.307544	0.17409	0.0648676	0.0832999	0.029006	0.158741	0.123536	0.559874	0.104198	0.253278	0.0700004	0.145162	0.136827	0.0699657	0.165859	0.165642	0.155122	0.12441	0.084312	0.2049	0.203104	0.141004	0.0912623	0.167353	0.14206	0.132852	0.172194	0.0608144	0.0522656	0.164517	0.0618146	0.170644	0.206382	0.202864	0.117812	0.0895368	0.0826154	0.0881305	0.084236	0.0418322	0.263367	0.103798	0.114071	0.116047	0.0204748	0.129769	0.314286	0.500346	0.176269	0.404937	0.0334497	0.0915317	0.164332	0.104592	0.0795368	0.0836191	0.102993	
3.52	0.149663	0.147194	0.208422	0.193853	0.167192	0.132893	0.11618	0.180355	0.139842	0.146972	0.0671525	0.0884313	0.0853443	0.0773508	0.19753	0.216641	0.236773	0.109036	0.11128	0.100017	0.0772617	0.0779191	0.0694973	0.3051	0.17284	0.0650243	0.083451	0.0289712	0.157796	0.12328	0.555915	0.10398	0.25319	0.0708661	0.144575	0.13587	0.0701246	0.166817	0.166507	0.15598	0.124352	0.0842709	0.203358	0.20275	0.140936	0.0912196	0.165418	0.141995	0.132095	0.171511	0.0608392	0.0523196	0.165004	0.0618011	0.168988	0.204484	0.200466	0.117058	0.0885264	0.0815544	0.0880848	0.0837473	0.0417657	0.262791	0.103748	0.114187	0.116239	0.0204706	0.129673	0.316037	0.502438	0.175131	0.402901	0.0333485	0.0915035	0.163586	0.104749	0.0793462	0.0837895	0.102728	
3.525	0.148356	0.145348	0.209811	0.195947	0.167411	0.132717	0.11603	0.178882	0.139149	0.146187	0.06726	0.0886158	0.0852355	0.0771178	0.197278	0.219489	0.240124	0.110251	0.11294	0.0998965	0.0778817	0.0787306	0.0705281	0.303015	0.171464	0.065173	0.0835948	0.0289366	0.156762	0.122864	0.551888	0.103778	0.253621	0.0716854	0.143806	0.134934	0.0702745	0.167688	0.167292	0.15676	0.124293	0.0842303	0.201931	0.202503	0.140869	0.091177	0.163545	0.141932	0.131362	0.170847	0.0608637	0.05237	0.165458	0.0617877	0.167381	0.202627	0.198174	0.116238	0.0875016	0.0805224	0.0880404	0.0832035	0.0417127	0.262367	0.103698	0.114294	0.116421	0.0204663	0.129594	0.317682	0.504424	0.174122	0.400963	0.0332338	0.0914754	0.162869	0.104894	0.0791713	0.0845445	0.102489	
3.53	0.147005	0.143433	0.211396	0.198246	0.167765	0.132541	0.115883	0.177643	0.138478	0.145426	0.0673594	0.0887867	0.0851323	0.0769103	0.197027	0.222544	0.243714	0.111443	0.114662	0.100959	0.0784759	0.079536	0.0715888	0.30131	0.16996	0.0653131	0.0837301	0.0289019	0.15564	0.122291	0.547807	0.10359	0.254559	0.0724496	0.142848	0.134027	0.0704145	0.16848	0.168006	0.157473	0.124235	0.0841902	0.20063	0.202322	0.140801	0.0911344	0.161755	0.141885	0.130678	0.170227	0.0608866	0.0524157	0.165874	0.0617743	0.165822	0.200813	0.195987	0.115352	0.0864731	0.0795217	0.0879963	0.0826101	0.0416663	0.262115	0.103648	0.114391	0.116586	0.020462	0.129526	0.319199	0.506316	0.173207	0.399148	0.0331056	0.0914473	0.162204	0.105023	0.0789991	0.0845924	0.102268	
3.535	0.145621	0.14146	0.213168	0.200731	0.168252	0.132365	0.115741	0.176628	0.137834	0.144696	0.0674505	0.0889438	0.085034	0.0767239	0.196775	0.225648	0.247514	0.112593	0.116429	0.102898	0.0790381	0.080332	0.0726685	0.3	0.16833	0.0654438	0.0838564	0.0288662	0.154435	0.121564	0.543698	0.103414	0.255975	0.0731541	0.141699	0.133154	0.0705441	0.169193	0.16865	0.158117	0.124177	0.0843838	0.199464	0.20218	0.140734	0.0910917	0.16006	0.141868	0.130072	0.169675	0.0609066	0.0524551	0.166246	0.0617609	0.16431	0.199037	0.193907	0.114405	0.08544	0.0785471	0.0879521	0.0819706	0.0416234	0.262054	0.103598	0.114473	0.11673	0.0204577	0.129423	0.320575	0.508129	0.172382	0.397477	0.0329645	0.0914193	0.161619	0.105134	0.078818	0.0842004	0.102055	
3.54	0.144217	0.139446	0.215111	0.203378	0.168874	0.132189	0.115601	0.17582	0.13722	0.144001	0.0675333	0.0890872	0.08494	0.0765552	0.19656	0.228831	0.25147	0.113683	0.118218	0.104943	0.0795614	0.081114	0.0737568	0.299093	0.166583	0.0655648	0.0839733	0.0292684	0.153143	0.12068	0.53959	0.103247	0.257832	0.0737988	0.140365	0.132319	0.0706629	0.169822	0.169221	0.158687	0.124119	0.0856484	0.198436	0.20206	0.140666	0.0910491	0.158463	0.14189	0.129566	0.169219	0.0609231	0.052487	0.166568	0.0617475	0.16284	0.197295	0.191929	0.113399	0.0843917	0.0775867	0.0879079	0.0812841	0.041583	0.262196	0.103548	0.114538	0.116847	0.0204535	0.129322	0.321798	0.509875	0.171641	0.395965	0.0328115	0.0913914	0.161155	0.105223	0.0786183	0.0847816	0.10184	
3.545	0.142808	0.137409	0.217204	0.206159	0.169625	0.132014	0.115464	0.175199	0.136639	0.143344	0.0676081	0.0892172	0.0848499	0.0764013	0.199105	0.232046	0.255528	0.114696	0.120004	0.10703	0.0800378	0.0818769	0.07484	0.29859	0.164731	0.065676	0.0840806	0.0301879	0.151767	0.119642	0.535522	0.103089	0.260081	0.0743851	0.138857	0.131528	0.0707709	0.170361	0.16971	0.159177	0.124061	0.0875832	0.197544	0.201951	0.140599	0.0910065	0.156969	0.141962	0.129185	0.168884	0.0609354	0.0525101	0.166835	0.0617342	0.161398	0.195579	0.190047	0.112352	0.0833387	0.0766433	0.0878636	0.080566	0.0415447	0.262551	0.103498	0.114585	0.116934	0.0204492	0.12924	0.322863	0.511564	0.170979	0.39462	0.0326479	0.0913635	0.16086	0.105288	0.0783913	0.0846979	0.101614	
3.55	0.141409	0.135378	0.219417	0.209039	0.170493	0.131838	0.115328	0.174745	0.136094	0.142728	0.0676752	0.0893343	0.084763	0.0762599	0.201922	0.235251	0.259635	0.115621	0.121763	0.109161	0.0804572	0.0826146	0.0758971	0.298483	0.162792	0.0657774	0.0841786	0.0313443	0.150314	0.11845	0.531535	0.102938	0.262669	0.0749154	0.13718	0.130785	0.0708685	0.170798	0.170108	0.159574	0.124003	0.0896	0.196786	0.201849	0.140531	0.0909639	0.155575	0.142089	0.128949	0.168693	0.0609428	0.0525234	0.167041	0.0617209	0.159961	0.193876	0.188253	0.111277	0.0822866	0.0757201	0.0878194	0.0798193	0.0415085	0.263125	0.103448	0.114611	0.116987	0.020445	0.129172	0.323765	0.513209	0.170389	0.393446	0.0324751	0.0913356	0.160733	0.105326	0.07813	0.0840706	0.101368	
3.555	0.140035	0.133416	0.221718	0.21198	0.17146	0.131663	0.115193	0.174439	0.135586	0.142154	0.067735	0.0894394	0.084679	0.0761293	0.204587	0.238408	0.263735	0.116447	0.123472	0.111303	0.0808078	0.0833049	0.0769101	0.298758	0.160773	0.0658693	0.0842673	0.0325071	0.148794	0.117117	0.527677	0.102794	0.265539	0.0753927	0.13532	0.130092	0.0709561	0.171121	0.170403	0.159869	0.123945	0.0915397	0.196157	0.201751	0.140464	0.0909214	0.154279	0.142276	0.128877	0.168665	0.0609446	0.0525258	0.16718	0.0617076	0.158514	0.192175	0.186534	0.110175	0.0812293	0.0748176	0.0877751	0.0790419	0.0414741	0.263914	0.103398	0.114614	0.117001	0.0204407	0.129109	0.324509	0.514818	0.169868	0.392443	0.0322943	0.0913078	0.160762	0.105335	0.0778283	0.0834195	0.101094	
3.56	0.138696	0.131745	0.22407	0.214938	0.172506	0.131488	0.115059	0.174268	0.135116	0.141624	0.0677879	0.0895329	0.0845974	0.0760079	0.20724	0.241498	0.267774	0.117171	0.125113	0.113426	0.0810882	0.0839332	0.0778658	0.299393	0.158694	0.0659521	0.0843472	0.033621	0.147221	0.11566	0.524001	0.102655	0.268635	0.0758203	0.133277	0.129451	0.0710341	0.171319	0.170585	0.160049	0.123887	0.0934684	0.195655	0.201655	0.140397	0.0908788	0.153078	0.142524	0.128988	0.168816	0.0609397	0.0525163	0.167246	0.0616944	0.15705	0.190468	0.184879	0.109051	0.0801572	0.0739396	0.0877309	0.0782362	0.0414415	0.264911	0.103348	0.114592	0.116973	0.0204365	0.129047	0.325097	0.516399	0.169412	0.391604	0.0321071	0.09128	0.160958	0.105313	0.0774813	0.0839425	0.100788	
3.565	0.137403	0.130432	0.226429	0.217866	0.173606	0.131313	0.114925	0.174222	0.134686	0.141139	0.0678345	0.0896159	0.0845181	0.0758944	0.20986	0.244502	0.271697	0.117791	0.126669	0.115504	0.0813011	0.0844975	0.0787553	0.300364	0.156577	0.066026	0.0844186	0.0347035	0.145612	0.114079	0.520565	0.102521	0.271901	0.0762015	0.131091	0.128865	0.0711032	0.171385	0.170647	0.16011	0.123829	0.0954333	0.195281	0.201559	0.140329	0.0908363	0.151965	0.142835	0.129295	0.169155	0.0609272	0.0524941	0.167231	0.0616811	0.155563	0.188745	0.183274	0.10791	0.0790613	0.073122	0.0876867	0.0774062	0.0414104	0.266104	0.103298	0.114543	0.1169	0.0204323	0.128984	0.32554	0.517955	0.169019	0.39092	0.0319155	0.0912523	0.161342	0.105257	0.0770853	0.0837763	0.100443	
3.57	0.136161	0.129417	0.228755	0.220718	0.174731	0.131138	0.114791	0.174301	0.134295	0.140698	0.0678754	0.0896889	0.0844405	0.0757878	0.212404	0.247394	0.275455	0.118313	0.12813	0.117514	0.0814523	0.0849989	0.0795745	0.301642	0.154447	0.0660917	0.0844821	0.0357678	0.143987	0.112358	0.517429	0.102942	0.275288	0.0765399	0.128825	0.128333	0.0711641	0.171316	0.170585	0.160047	0.123771	0.0974303	0.195008	0.201465	0.140262	0.0907937	0.150936	0.143205	0.129808	0.169685	0.0609065	0.0524583	0.167128	0.0616679	0.154046	0.186997	0.181706	0.106765	0.0782627	0.0726148	0.0876425	0.0765629	0.0413807	0.267472	0.103248	0.114465	0.116779	0.0204281	0.128921	0.325846	0.518885	0.168684	0.390378	0.0317218	0.0912247	0.161922	0.105164	0.0766378	0.0830152	0.100057	
3.575	0.134974	0.128611	0.231007	0.223446	0.175852	0.130964	0.114989	0.174512	0.133943	0.140302	0.067911	0.0897529	0.0843644	0.0756871	0.214851	0.250148	0.279005	0.118744	0.12949	0.119437	0.0815506	0.0854419	0.0803266	0.303197	0.152331	0.0661496	0.084538	0.0368015	0.142368	0.110511	0.51465	0.104745	0.278753	0.0768388	0.12653	0.127855	0.0712173	0.171111	0.1704	0.15986	0.123713	0.0992844	0.194787	0.20137	0.140195	0.0907512	0.149982	0.143631	0.130531	0.170403	0.0608764	0.0524079	0.166929	0.0616548	0.152492	0.185215	0.18016	0.105617	0.0778918	0.0724042	0.0875983	0.0759638	0.0413522	0.268994	0.103198	0.114356	0.116607	0.0204239	0.128859	0.32603	0.519558	0.168403	0.389961	0.026389	0.0911971	0.162694	0.105029	0.0761381	0.0822359	0.0996272	
3.58	0.13384	0.12795	0.233149	0.226011	0.176939	0.130789	0.116815	0.174871	0.133629	0.139948	0.0679418	0.0898086	0.0842896	0.0757488	0.217179	0.252744	0.282311	0.119096	0.130742	0.121256	0.0816077	0.0858341	0.0810222	0.304999	0.15026	0.0662004	0.084587	0.0377721	0.140777	0.108589	0.512283	0.107462	0.282261	0.0771014	0.124242	0.127429	0.0712636	0.170775	0.170095	0.159554	0.123655	0.101004	0.194593	0.201276	0.140127	0.0907087	0.149097	0.144106	0.131465	0.171297	0.0608356	0.0523425	0.166624	0.0616416	0.150895	0.183392	0.178627	0.104452	0.077775	0.0723362	0.0875541	0.0756787	0.0413248	0.270643	0.103148	0.114213	0.116381	0.0204197	0.128796	0.326106	0.520522	0.168168	0.389649	0.022853	0.0911696	0.16365	0.104849	0.0755869	0.0823185	0.0991535	
3.585	0.132757	0.127391	0.235148	0.228382	0.177962	0.130615	0.119853	0.1754	0.133352	0.139636	0.0679684	0.0898567	0.0842158	0.0762913	0.219374	0.255167	0.285344	0.119385	0.131886	0.12296	0.0816375	0.0861857	0.081671	0.307021	0.148261	0.0662446	0.0846297	0.0386553	0.139229	0.106644	0.510374	0.11034	0.285792	0.0773306	0.121996	0.127052	0.0713036	0.170317	0.16968	0.159137	0.123598	0.102799	0.194423	0.201182	0.14006	0.0906662	0.148275	0.144623	0.132602	0.17235	0.0607826	0.0522608	0.166204	0.0616285	0.14925	0.18152	0.177094	0.103272	0.0777401	0.0723032	0.08751	0.075576	0.0412985	0.272395	0.103098	0.114034	0.1161	0.0204155	0.128733	0.326089	0.521739	0.167974	0.389423	0.0216745	0.0911421	0.164784	0.104619	0.0749858	0.0819462	0.0986362	
3.59	0.131717	0.126911	0.236979	0.230536	0.178896	0.130441	0.123107	0.176125	0.133108	0.139361	0.0679911	0.0898982	0.0841428	0.0773288	0.221424	0.257406	0.288085	0.119626	0.132925	0.124544	0.0816547	0.0865088	0.0822826	0.309238	0.146361	0.0662828	0.0846667	0.0394504	0.137739	0.104714	0.508963	0.113076	0.28934	0.0775295	0.11986	0.126721	0.0713381	0.169746	0.169164	0.158618	0.12354	0.104777	0.194281	0.201088	0.139993	0.0906237	0.147507	0.145173	0.133924	0.173536	0.0607156	0.0521624	0.165653	0.0616154	0.147555	0.179595	0.175555	0.102092	0.07771	0.0722663	0.0874658	0.0755392	0.041273	0.274225	0.103048	0.113817	0.11576	0.0204114	0.12867	0.325996	0.523029	0.167813	0.389263	0.0216006	0.0911146	0.166096	0.104335	0.074337	0.0815011	0.0980754	
3.595	0.130711	0.126494	0.238619	0.232459	0.179718	0.130266	0.126128	0.177077	0.132896	0.139122	0.0680105	0.0899337	0.0840702	0.0786797	0.223323	0.259455	0.290522	0.11984	0.133868	0.126004	0.0816747	0.086816	0.0828668	0.311627	0.144576	0.0663157	0.0846984	0.0401721	0.136322	0.102816	0.508075	0.115719	0.292908	0.0777006	0.118018	0.126434	0.0713675	0.169072	0.168555	0.158007	0.123482	0.106916	0.194167	0.200994	0.139926	0.0905813	0.146789	0.145746	0.135412	0.174827	0.0606327	0.0520463	0.164955	0.0616023	0.145806	0.177614	0.174002	0.10092	0.0776685	0.0722211	0.0874217	0.075514	0.0412484	0.276111	0.102998	0.113558	0.115362	0.0204072	0.128607	0.325841	0.524308	0.167677	0.38915	0.0217674	0.0910873	0.167597	0.103991	0.0736435	0.0806792	0.0974717	
3.6	0.129731	0.126128	0.240055	0.234143	0.180413	0.130093	0.128952	0.178284	0.132712	0.138916	0.068027	0.0899639	0.0839979	0.0801927	0.225072	0.261313	0.292654	0.120053	0.134726	0.127344	0.0817119	0.0871202	0.083434	0.31417	0.142922	0.0663438	0.0847255	0.0408376	0.134993	0.100972	0.507722	0.118357	0.296499	0.0778469	0.116565	0.126186	0.0713925	0.168302	0.16786	0.15731	0.123424	0.109113	0.194079	0.2009	0.139858	0.0905388	0.146115	0.146333	0.137047	0.17619	0.0605321	0.0519119	0.164095	0.0615893	0.144003	0.175575	0.172433	0.0997499	0.0776196	0.0721718	0.0873776	0.075485	0.0412245	0.278036	0.102948	0.113258	0.114903	0.020403	0.127953	0.325638	0.525584	0.167558	0.389067	0.0218839	0.0910599	0.16932	0.103584	0.0729094	0.0798425	0.0968273	
3.605	0.128765	0.125804	0.241283	0.235588	0.180969	0.129919	0.131705	0.179772	0.132555	0.138739	0.0680409	0.0899896	0.0839257	0.0818144	0.226672	0.262983	0.294486	0.12028	0.13551	0.12857	0.0817788	0.0874329	0.0839953	0.316854	0.141411	0.0663677	0.0847486	0.0414466	0.133761	0.0992653	0.507899	0.121018	0.300116	0.0779714	0.115455	0.125973	0.0714138	0.167437	0.167079	0.156529	0.123366	0.111241	0.194019	0.200806	0.139791	0.0904964	0.145477	0.146927	0.138811	0.177597	0.0604121	0.0517586	0.163055	0.0615763	0.142146	0.17348	0.170847	0.0985858	0.0775684	0.0721215	0.0873335	0.075452	0.0412013	0.279983	0.102603	0.112928	0.114384	0.0203989	0.127459	0.325399	0.526871	0.16745	0.389	0.021929	0.0910327	0.171349	0.10311	0.0721402	0.0789409	0.0961477	
3.61	0.127804	0.125514	0.242303	0.236801	0.18138	0.129745	0.134432	0.181554	0.13242	0.138587	0.0680526	0.0900113	0.0839913	0.083547	0.228129	0.26447	0.296033	0.120534	0.136234	0.129688	0.0818858	0.0877641	0.0845625	0.319667	0.140051	0.066388	0.0847682	0.0419844	0.132633	0.0978607	0.508584	0.123697	0.303768	0.0780771	0.114591	0.125791	0.0714317	0.16647	0.166207	0.155659	0.123308	0.113254	0.193986	0.200712	0.139724	0.090454	0.14487	0.147519	0.140676	0.179042	0.0602725	0.0515851	0.161823	0.0615633	0.140239	0.17133	0.169247	0.0974477	0.077517	0.0720715	0.0872894	0.0754172	0.0411787	0.281942	0.102453	0.112574	0.113807	0.0203948	0.128333	0.325134	0.528137	0.167348	0.388938	0.0219412	0.0910054	0.173901	0.102566	0.0713432	0.0779993	0.095441	
3.615	0.126841	0.125253	0.243126	0.237797	0.181649	0.129572	0.137127	0.18363	0.132304	0.138457	0.0680626	0.0900298	0.0848545	0.0853985	0.229454	0.265788	0.297313	0.120822	0.136922	0.130708	0.0820394	0.0881207	0.0851345	0.3226	0.138841	0.0664053	0.084785	0.0424495	0.131607	0.0967805	0.509741	0.126398	0.307465	0.078167	0.113892	0.125635	0.071447	0.16539	0.165232	0.154691	0.123961	0.115172	0.193985	0.200618	0.139657	0.0904115	0.14429	0.148105	0.142601	0.180539	0.0601119	0.0513902	0.16039	0.0615503	0.138283	0.169131	0.167638	0.0963241	0.0774661	0.0720218	0.0872453	0.0753823	0.0411566	0.283903	0.102642	0.112201	0.113173	0.0203906	0.130235	0.32485	0.52934	0.167245	0.388877	0.0219462	0.0909783	0.176823	0.101953	0.0705268	0.0772223	0.0947164	
3.62	0.12587	0.125017	0.243766	0.238595	0.181783	0.129399	0.139791	0.185986	0.132204	0.138344	0.0680711	0.0900457	0.0865093	0.0873577	0.230659	0.26695	0.298352	0.12115	0.137587	0.131641	0.0822428	0.0885067	0.0857008	0.325639	0.137774	0.0664201	0.0847993	0.0428524	0.130682	0.0959534	0.511316	0.12913	0.311214	0.078244	0.113308	0.1255	0.0714601	0.164187	0.164143	0.153615	0.125685	0.117028	0.194018	0.200525	0.13959	0.0909667	0.143733	0.148679	0.144549	0.182107	0.059926	0.0511718	0.158759	0.0615374	0.136284	0.166887	0.166025	0.0951945	0.0774154	0.0719722	0.0872013	0.0753474	0.041135	0.285862	0.103121	0.111809	0.112485	0.0203865	0.131648	0.324552	0.530476	0.167141	0.388816	0.0219529	0.0909512	0.179844	0.101271	0.0697011	0.0766766	0.0939831	
3.625	0.124887	0.124801	0.244245	0.23922	0.181795	0.129225	0.142427	0.18859	0.132117	0.138246	0.0680785	0.0900595	0.0885358	0.0893939	0.231758	0.267974	0.299182	0.121519	0.138235	0.132503	0.0824948	0.0889229	0.086264	0.328767	0.136839	0.066433	0.0848118	0.0432046	0.129847	0.0952988	0.513244	0.131873	0.315023	0.0783111	0.112808	0.125382	0.0714714	0.162871	0.162948	0.15244	0.127518	0.118841	0.194091	0.200431	0.139523	0.0921454	0.143197	0.149239	0.146488	0.183779	0.0597094	0.0509263	0.156945	0.0615245	0.134247	0.164605	0.164419	0.0940463	0.0773649	0.0719228	0.0871572	0.0753127	0.0411139	0.287815	0.103845	0.111402	0.111748	0.0203824	0.132519	0.32424	0.531552	0.167033	0.388757	0.0219616	0.0909241	0.18289	0.100521	0.068878	0.0763876	0.0932489	
3.63	0.123891	0.124603	0.244589	0.239702	0.181704	0.129052	0.145046	0.191401	0.132038	0.138157	0.0680851	0.0900719	0.090621	0.0914748	0.23277	0.268882	0.299838	0.121927	0.13887	0.133319	0.0827901	0.0893663	0.0868265	0.331965	0.136016	0.0664445	0.0848231	0.0435161	0.12909	0.0947598	0.515446	0.134588	0.318899	0.0783711	0.112375	0.125275	0.0714816	0.161457	0.161664	0.151185	0.129256	0.120581	0.194208	0.200337	0.139456	0.0933843	0.142679	0.149783	0.148399	0.185618	0.0594581	0.050648	0.154991	0.0615116	0.132178	0.162291	0.16283	0.0928718	0.0773144	0.0718734	0.0871132	0.075278	0.0410931	0.289766	0.104826	0.110982	0.110968	0.0203783	0.133277	0.323914	0.532567	0.166923	0.388703	0.0219711	0.0908971	0.18593	0.0997079	0.0680725	0.0762881	0.0925195	
3.635	0.122885	0.12442	0.244829	0.240074	0.181533	0.12888	0.147642	0.194364	0.131965	0.138074	0.0680912	0.0900834	0.0926788	0.0935728	0.233713	0.269699	0.300358	0.122368	0.139499	0.134102	0.0831196	0.089831	0.0873879	0.335211	0.135281	0.0664553	0.0848335	0.0437956	0.128395	0.0943032	0.517837	0.13725	0.322847	0.078427	0.111996	0.125176	0.0714911	0.159897	0.160287	0.149813	0.130969	0.122217	0.194373	0.200243	0.139389	0.0945528	0.142182	0.150313	0.150267	0.187777	0.0591699	0.050332	0.15295	0.0614987	0.130085	0.159955	0.161271	0.0916628	0.0772639	0.0718241	0.0870692	0.0752434	0.0410727	0.291719	0.10609	0.110551	0.110149	0.0203742	0.134059	0.323571	0.533514	0.166812	0.388659	0.0219806	0.0908701	0.188934	0.0988368	0.0673116	0.0762688	0.0917979	
3.64	0.12187	0.12425	0.245	0.240369	0.18131	0.128707	0.150191	0.197406	0.131893	0.137993	0.0680972	0.0900947	0.0947253	0.095644	0.23461	0.270452	0.300785	0.122833	0.140124	0.134865	0.0834705	0.0903081	0.0879462	0.338483	0.134608	0.0664657	0.0848438	0.0440529	0.127743	0.0939092	0.520326	0.139863	0.326827	0.0784815	0.111659	0.125078	0.0715003	0.158146	0.158741	0.14827	0.132666	0.123741	0.194593	0.20015	0.139322	0.0957003	0.141707	0.150829	0.152089	0.190394	0.058849	0.0499741	0.150793	0.0614859	0.127978	0.157604	0.159755	0.0904097	0.0772134	0.0717749	0.0870252	0.0752088	0.0410525	0.293682	0.107158	0.110112	0.1093	0.0203701	0.13484	0.323203	0.534386	0.166707	0.388635	0.02199	0.0908432	0.191884	0.0979145	0.0666336	0.0762649	0.0910845	
3.645	0.120851	0.124092	0.245137	0.240625	0.181064	0.128535	0.152669	0.200411	0.131818	0.137909	0.0681033	0.0901064	0.0967693	0.0976252	0.235484	0.271169	0.301163	0.12331	0.14075	0.135619	0.0838272	0.0907863	0.088498	0.341759	0.133964	0.0664763	0.0848543	0.0442985	0.127113	0.0935651	0.522818	0.142461	0.330772	0.0785374	0.111358	0.124977	0.0715098	0.156205	0.156993	0.146547	0.134338	0.125155	0.194873	0.200056	0.139255	0.0968411	0.141257	0.151334	0.153859	0.193078	0.0584867	0.0495698	0.148566	0.061473	0.125876	0.155247	0.158297	0.0891027	0.077163	0.0717257	0.0869812	0.0751742	0.0410326	0.295665	0.108264	0.109667	0.108428	0.020366	0.135604	0.322803	0.535193	0.166611	0.388641	0.0219991	0.0908163	0.194748	0.0969494	0.0660486	0.0762565	0.0903769	
