CEINMS output
datacolumns 6
datarows 92
endheader
time	hip_flexion_l	hip_adduction_l	hip_rotation_l	knee_angle_l	ankle_angle_l	
3.19	50.5136	-119.747	30.9549	-191.322	5.07022	
3.195	84.8489	-167.226	37.221	-257.65	11.6846	
3.2	80.6344	-155.539	18.657	-275.48	10.4707	
3.205	84.0051	-137.928	19.0546	-284.938	9.84149	
3.21	123.85	-139.389	17.82	-296.512	11.8933	
3.215	178.551	-148.592	17.5594	-306.473	15.2331	
3.22	222.634	-154.024	13.844	-310.658	18.7347	
3.225	257.865	-155.222	9.8131	-310.487	21.957	
3.23	285.157	-152.978	6.34087	-314.165	24.9987	
3.235	306.694	-148.887	3.34092	-323.381	28.0047	
3.24	320.918	-142.051	-0.322536	-333.128	31.0456	
3.245	325.094	-132.12	-6.05813	-332.6	34.1516	
3.25	321.107	-119.186	-11.1428	-319.298	37.3553	
3.255	310.154	-106.317	-15.5911	-298.106	40.6824	
3.26	292.836	-97.1176	-17.1595	-273.423	44.0971	
3.265	270.458	-84.1463	-18.2296	-245.9	47.436	
3.27	243.68	-67.4537	-18.7706	-216.708	50.6309	
3.275	210.998	-51.3424	-18.8568	-186.501	53.6445	
3.28	176.388	-30.1816	-16.9069	-155.027	56.4311	
3.285	139.575	-9.49917	-14.1916	-130.633	58.9313	
3.29	103.086	4.93393	-11.8196	-106.722	61.1161	
3.295	72.7893	11.87	-10.2093	-79.4106	62.9706	
3.3	48.4501	15.4943	-8.67581	-55.7153	64.5029	
3.305	31.7128	17.9664	-6.88225	-38.686	65.7485	
3.31	26.624	22.7842	-4.65463	-35.5533	66.7622	
3.315	22.5537	25.0816	-1.55694	-39.0606	67.6337	
3.32	15.1895	19.0824	1.53469	-41.003	68.4915	
3.325	9.85151	10.0803	2.95949	-40.3349	69.2548	
3.33	6.1167	1.53008	4.09382	-37.9935	69.4696	
3.335	3.51648	-6.12052	5.45185	-34.7001	69.4322	
3.34	1.40986	-12.2483	6.66013	-31.2597	69.6857	
3.345	-1.44089	-16.0328	7.35668	-24.9993	70.1193	
3.35	-5.83774	-17.2859	7.38374	-14.4274	69.693	
3.355	-12.8059	-15.8838	6.62752	3.87654	68.3021	
3.36	-23.2114	-11.9029	5.12021	27.5937	66.3299	
3.365	-38.8145	-5.19759	2.86906	55.8004	64.0469	
3.37	-61.2978	4.31935	0.31437	90.2601	61.6367	
3.375	-90.4258	15.6002	-1.89982	130.067	59.2046	
3.38	-124.25	27.0326	-3.05627	173.543	56.7552	
3.385	-160.657	37.295	-2.62138	222.233	54.2455	
3.39	-197.988	45.3479	-0.584504	271.256	51.6252	
3.395	-235.415	50.8999	2.37762	306.473	48.8435	
3.4	-268.821	53.1225	6.48778	334.118	45.8516	
3.405	-291.093	51.4872	10.333	343.423	42.6139	
3.41	-303.921	51.7102	12.0999	339.161	39.1297	
3.415	-314.896	56.7839	11.8045	331.183	35.4345	
3.42	-326.162	60.7083	15.6887	323.329	31.57	
3.425	-335.901	62.4714	21.9613	314.703	27.5773	
3.43	-342.333	63.6976	26.6455	308.177	23.4969	
3.435	-345.272	64.4051	29.4599	301.881	19.3654	
3.44	-344.838	64.8199	30.501	293.86	15.1988	
3.445	-341.302	65.0695	29.9212	280.164	14.4881	
3.45	-335.047	65.3261	27.8113	258.568	14.5321	
3.455	-326.352	65.6872	24.5238	231.396	11.0986	
3.46	-315.72	66.2479	20.4274	200.318	3.59944	
3.465	-303.284	67.1723	16.2885	173.004	-4.19889	
3.47	-290.346	68.0346	11.3589	158.289	-7.41208	
3.475	-277.101	68.6541	6.1461	148.915	-9.31388	
3.48	-265.992	60.3501	6.42272	124.71	-13.9415	
3.485	-255.398	49.5362	7.28837	100.194	-22.2254	
3.49	-245.535	39.2022	7.30969	83.5238	-36.3225	
3.495	-236.802	29.983	6.82481	66.1646	-51.8528	
3.5	-227.65	15.9368	14.6062	49.8772	-65.0403	
3.505	-225.358	1.83161	21.8151	37.2707	-77.1681	
3.51	-217.575	-12.4311	27.5866	28.7234	-89.4389	
3.515	-202.268	-25.1406	29.0079	20.2383	-101.771	
3.52	-184.303	-37.271	27.2835	9.90456	-113.62	
3.525	-167.28	-44.9223	22.2056	-2.98899	-124.422	
3.53	-152.268	-45.9836	13.8741	-17.0061	-133.724	
3.535	-137.489	-43.1878	5.66606	-30.588	-141.12	
3.54	-119.309	-37.389	-0.685513	-42.1156	-146.448	
3.545	-106.24	-34.5945	-6.78707	-51.3445	-149.561	
3.55	-96.3244	-35.8324	-12.6098	-57.2367	-150.431	
3.555	-80.2063	-27.3854	-12.5289	-60.9108	-149.12	
3.56	-58.5193	-18.0448	-10.8987	-60.492	-145.831	
3.565	-29.656	-10.4291	-11.4214	-59.2425	-140.912	
3.57	-1.56308	-4.87799	-9.9467	-52.6478	-134.763	
3.575	21.3753	-1.69671	-8.12853	-47.7227	-127.271	
3.58	41.2967	-1.7635	-7.26842	-40.8759	-117.259	
3.585	57.4638	-5.1739	-7.63665	-37.7864	-103.639	
3.59	69.326	-9.46272	-7.59514	-38.6208	-86.2865	
3.595	78.2422	-10.7622	-6.80766	-44.451	-65.9766	
3.6	85.4337	-8.91158	-5.87981	-53.7904	-44.4289	
3.605	91.8382	-5.13007	-5.16848	-64.9176	-24.9352	
3.61	98.2954	-0.0867163	-4.6513	-77.6341	-14.4481	
3.615	105.001	6.22045	-4.26124	-91.0858	-8.71559	
3.62	112.085	16.9812	-4.6452	-105.747	-2.9526	
3.625	117.165	25.2024	-4.91049	-120.554	2.55127	
3.63	121.045	36.1514	-5.98838	-134.108	6.6395	
3.635	123.874	49.9662	-7.8202	-145.476	8.79911	
3.64	138.124	63.166	-6.79687	-156.398	9.99996	
3.645	148.66	79.2642	-7.06383	-165.619	9.29078	
