CEINMS output
datacolumns 81
datarows 92
endheader
time	addbrev_r	addlong_r	addmagDist_r	addmagIsch_r	addmagMid_r	addmagProx_r	bflh_r	bfsh_r	edl_r	ehl_r	fdl_r	fhl_r	gaslat_r	gasmed_r	glmax1_r	glmax2_r	glmax3_r	glmed1_r	glmed2_r	glmed3_r	glmin1_r	glmin2_r	glmin3_r	grac_r	iliacus_r	perbrev_r	perlong_r	piri_r	psoas_r	recfem_r	sart_r	semimem_r	semiten_r	soleus_r	tfl_r	tibant_r	tibpost_r	vasint_r	vaslat_r	vasmed_r	addbrev_l	addlong_l	addmagDist_l	addmagIsch_l	addmagMid_l	addmagProx_l	bflh_l	bfsh_l	edl_l	ehl_l	fdl_l	fhl_l	gaslat_l	gasmed_l	glmax1_l	glmax2_l	glmax3_l	glmed1_l	glmed2_l	glmed3_l	glmin1_l	glmin2_l	glmin3_l	grac_l	iliacus_l	perbrev_l	perlong_l	piri_l	psoas_l	recfem_l	sart_l	semimem_l	semiten_l	soleus_l	tfl_l	tibant_l	tibpost_l	vasint_l	vaslat_l	vasmed_l	
3.19	5.25622e-05	0.000773534	0.00016652	8.78867e-05	4.43359e-05	5.80862e-05	0.000914131	0.000462873	0.000262921	0.000135634	0.000424936	0.000438306	0.000917762	0.00140491	0.00213725	0.00204146	0.00195583	0.00213877	0.00212431	0.00190726	0.000448302	0.00213027	0.00188348	0.000181635	0.000348778	0.00041468	0.000219886	0.00202193	0.000132482	0.000116513	6.46323e-05	0.00216718	0.0011681	0.000901844	5.62209e-05	8.96996e-05	0.000568391	0.000261346	0.000128386	0.000122691	0.000248659	0.000248659	0.247057	0.247057	0.247057	0.000248659	0.00271504	0.00186232	0.000968885	0.000739262	0.684207	0.00137574	0.0062404	0.000248659	0.0122172	0.00921544	0.00231798	0.872914	0.924278	0.00133329	0.445186	0.821272	0.000862863	0.0146918	0.000284681	0.0121553	0.000314953	0.000267727	0.000776532	0.000752928	0.65495	0.0101508	0.00270619	0.0206693	0.000248659	0.00040344	0.0624161	2.55801e-05	0.000998959	3.03582e-05	
3.195	0.000143169	0.00119938	0.0003875	0.000222473	0.000117934	0.000157914	0.00168795	0.00101731	0.000562033	0.000321892	0.000796865	0.000787985	0.0014989	0.00191979	0.0027885	0.00268745	0.00260659	0.00285819	0.00272277	0.00259835	0.000793858	0.00286018	0.00258216	0.000430155	0.000799858	0.00075472	0.000470716	0.0026465	0.000313226	0.000301267	0.000174491	0.00269349	0.00182472	0.0014769	0.000151563	0.000225198	0.000976726	0.000559261	0.000307226	0.000294488	0.000500749	0.000500749	0.494782	0.494782	0.494782	0.247307	0.00786184	0.00542442	0.00106577	0.0009611	0.771226	0.0110648	0.0177345	0.000500749	0.0339374	0.0258762	0.00463511	0.742468	0.993503	0.00149903	0.312617	0.15406	0.0010073	0.0301397	0.00055606	0.0735985	0.00250074	0.000532862	0.000993041	0.00101606	0.887549	0.0284059	0.0078367	0.0391364	0.000500749	0.000698711	0.168994	6.86385e-05	0.00109884	8.10598e-05	
3.2	0.00280274	0.00147286	0.00147114	0.00160169	0.00154203	0.00297016	0.00274905	0.00287831	0.00141435	0.00138138	0.00134373	0.00121313	0.00196544	0.00210627	0.00297486	0.0028816	0.0028146	0.00309139	0.00287842	0.00284492	0.0011869	0.00310268	0.00283922	0.00182083	0.00279444	0.00119134	0.00119131	0.00282847	0.00131167	0.00271723	0.0029309	0.00280785	0.00226037	0.00194393	0.00244934	0.00149871	0.00138435	0.00141335	0.00139406	0.00136473	0.0130006	0.00102267	0.999022	0.999022	0.999022	0.626617	0.998462	0.997962	0.00107355	0.00102332	0.466011	0.3539	0.993574	0.00102267	0.999	0.999	0.548749	0.66647	0.554501	0.00151596	0.303626	0.0898526	0.0010277	0.651659	0.00103947	0.524076	0.205689	0.00105049	0.0010485	0.00110554	0.988949	0.98887	0.9963	0.105208	0.00102267	0.00100354	0.913403	0.00103384	0.00110687	0.00113001	
3.205	0.00280274	0.00147286	0.00147114	0.00160169	0.00154203	0.00297016	0.00274905	0.00287831	0.00141435	0.00138138	0.00134373	0.00121313	0.00196544	0.00210627	0.00297486	0.0028816	0.0028146	0.00309139	0.00287842	0.00284492	0.0011869	0.00310268	0.00283922	0.00182083	0.00279444	0.00119134	0.00119131	0.00282847	0.00131167	0.00271723	0.0029309	0.00280785	0.00226037	0.00194393	0.00244934	0.00149871	0.00138435	0.00141335	0.00139406	0.00136473	0.259834	0.247823	0.760478	0.760478	0.760478	0.661562	0.996336	0.996376	0.468265	0.550686	0.753147	0.347304	0.985983	0.00102267	0.986808	0.989803	0.547348	0.463737	0.0659991	0.00396979	0.584373	0.833748	0.0010277	0.660767	0.282125	0.488656	0.204191	0.00105049	0.749243	0.00110554	0.994219	0.970651	0.991179	0.0962645	0.00102267	0.11341	0.879006	0.00103384	0.00110687	0.00113001	
3.21	0.00280274	0.00147286	0.00147114	0.00160169	0.00154203	0.00297016	0.00274905	0.00287831	0.00141435	0.00138138	0.00134373	0.00121313	0.00196544	0.00210627	0.00297486	0.0028816	0.0028146	0.00309139	0.00287842	0.00284492	0.0011869	0.00310268	0.00283922	0.00182083	0.00279444	0.00119134	0.00119131	0.00282847	0.00131167	0.00271723	0.0029309	0.00280785	0.00226037	0.00194393	0.00244934	0.00149871	0.00138435	0.00141335	0.00139406	0.00136473	0.504326	0.495293	0.515962	0.515962	0.515962	0.753029	0.991875	0.994296	0.0895141	0.235817	0.217594	0.337875	0.978014	0.00102267	0.96513	0.973175	0.544815	0.217388	0.00657943	0.00360253	0.796648	0.975943	0.0010277	0.672773	0.544558	0.443941	0.201965	0.00105049	0.948608	0.00110554	0.997405	0.946076	0.983899	0.0854476	0.00102267	0.126037	0.829056	0.00103384	0.00110687	0.00113001	
3.215	0.00280274	0.00147286	0.00147114	0.00160169	0.00154203	0.00297016	0.00274905	0.00287831	0.00141435	0.00138138	0.00134373	0.00121313	0.00196544	0.00210627	0.00297486	0.0028816	0.0028146	0.00309139	0.00287842	0.00284492	0.0011869	0.00310268	0.00283922	0.00182083	0.00279444	0.00119134	0.00119131	0.00282847	0.00131167	0.00271723	0.0029309	0.00280785	0.00226037	0.00194393	0.00244934	0.00149871	0.00138435	0.00141335	0.00139406	0.00136473	0.687686	0.681632	0.328222	0.328222	0.328222	0.836473	0.985526	0.991783	0.0744912	0.135786	0.0532472	0.326324	0.970441	0.00102267	0.936223	0.950628	0.541266	0.0955724	0.0017583	0.00239755	0.908481	0.996112	0.00747946	0.686839	0.728956	0.395314	0.199124	0.0155421	0.989809	0.00110554	0.998676	0.916611	0.974699	0.0741084	0.00102267	0.148468	0.76901	0.00328827	0.00110687	0.00113001	
3.22	0.00280274	0.00147286	0.00147114	0.00160169	0.00154203	0.00297016	0.00274905	0.00287831	0.00141435	0.00138138	0.00134373	0.00121313	0.00196544	0.00210627	0.00297486	0.0028816	0.0028146	0.00309139	0.00287842	0.00284492	0.0011869	0.00310268	0.00283922	0.00182083	0.00279444	0.00119134	0.00119131	0.00282847	0.00131167	0.00271723	0.0029309	0.00280785	0.00226037	0.00194393	0.00244934	0.00149871	0.00138435	0.00141335	0.00139406	0.00136473	0.810501	0.709109	0.200434	0.200434	0.200434	0.897459	0.977795	0.988882	0.0543909	0.0910944	0.235857	0.313289	0.963513	0.00102267	0.901956	0.923451	0.536808	0.014916	0.00141323	0.00206835	0.960505	0.945028	0.016115	0.702289	0.844774	0.34712	0.195776	0.0251467	0.99745	0.00110554	0.999121	0.883491	0.963995	0.0628946	0.00102267	0.218626	0.702792	0.00643753	0.00110687	0.00113001	
3.225	0.00280274	0.00147286	0.00147114	0.00160169	0.00154203	0.00297016	0.00274905	0.00287831	0.00141435	0.00138138	0.00134373	0.00121313	0.00196544	0.00210627	0.00297486	0.0028816	0.0028146	0.00309139	0.00287842	0.00284492	0.0011869	0.00310268	0.00283922	0.00182083	0.00279444	0.00119134	0.00119131	0.00282847	0.00131167	0.00271723	0.0029309	0.00280785	0.00226037	0.00194393	0.00244934	0.00149871	0.00138435	0.00141335	0.00139406	0.00136473	0.88787	0.721176	0.119087	0.119087	0.119087	0.937822	0.968701	0.985621	0.0371568	0.0660702	0.23139	0.29922	0.957377	0.00102267	0.863874	0.892741	0.531538	0.0027938	0.00139001	0.205126	0.983192	0.620208	0.0141312	0.718581	0.913283	0.301286	0.192005	0.0287573	0.998781	0.00110554	0.999268	0.850106	0.952156	0.0524801	0.00102267	0.251593	0.633652	0.00973552	0.00110687	0.00113001	
3.23	0.00280274	0.00147286	0.00147114	0.00160169	0.00154203	0.00297016	0.00274905	0.00287831	0.00141435	0.00138138	0.00134373	0.00121313	0.00196544	0.00210627	0.00297486	0.0028816	0.0028146	0.00309139	0.00287842	0.00284492	0.0011869	0.00310268	0.00283922	0.00182083	0.00279444	0.00119134	0.00119131	0.00282847	0.00131167	0.00271723	0.0029309	0.00280785	0.00226037	0.00194393	0.00244934	0.00149871	0.00138435	0.00141335	0.00139406	0.00136473	0.934759	0.736634	0.0694605	0.0694605	0.0694605	0.963071	0.957904	0.98206	0.00455604	0.0292563	0.117922	0.284498	0.952433	0.00102267	0.823241	0.859427	0.525548	0.0013828	0.0013885	0.0282878	0.99269	0.281195	0.00311619	0.735284	0.952308	0.259332	0.187883	0.0225888	0.999004	0.00110554	0.999315	0.821328	0.939431	0.0425996	0.00102267	0.260937	0.564194	0.0118681	0.00110687	0.00113001	
3.235	0.00280274	0.00147286	0.00147114	0.00160169	0.00154203	0.00297016	0.00274905	0.00287831	0.00141435	0.00138138	0.00134373	0.00121313	0.00196544	0.00210627	0.00297486	0.0028816	0.0028146	0.00309139	0.00287842	0.00284492	0.0011869	0.00310268	0.00283922	0.00182083	0.00279444	0.00119134	0.00119131	0.00282847	0.00131167	0.00271723	0.0029309	0.00280785	0.00226037	0.00194393	0.00244934	0.00149871	0.00138435	0.00141335	0.00139406	0.00136473	0.962425	0.754878	0.0400608	0.0400608	0.0400608	0.978298	0.945606	0.978292	0.00133145	0.00803465	0.230244	0.269543	0.948531	0.00102267	0.78109	0.824291	0.518921	0.00123488	0.00138841	0.00404041	0.996555	0.0479776	0.00128561	0.752057	0.973961	0.223784	0.183494	0.0155901	0.99904	0.00110554	0.99933	0.798336	0.92603	0.0338744	0.00102267	0.310959	0.496628	0.0131181	0.00110687	0.00113001	
3.24	0.00280274	0.00147286	0.00147114	0.00160169	0.00154203	0.00297016	0.00274905	0.00287831	0.00141435	0.00138138	0.00134373	0.00121313	0.00196544	0.00210627	0.00297486	0.0028816	0.0028146	0.00309139	0.00287842	0.00284492	0.0011869	0.00310268	0.00283922	0.00182083	0.00279444	0.00119134	0.00119131	0.00282847	0.00131167	0.00271723	0.0029309	0.00280785	0.00226037	0.00194393	0.00244934	0.00149871	0.00138435	0.00141335	0.00139406	0.00136473	0.97843	0.777437	0.0230115	0.0230115	0.0230115	0.987249	0.931992	0.974412	0.00109063	0.00249214	0.425081	0.25504	0.945536	0.00102267	0.738254	0.787991	0.511734	0.00122022	0.0013884	0.00172693	0.92138	0.0073688	0.00105626	0.768639	0.985745	0.202189	0.178968	0.0101693	0.999046	0.00110554	0.999334	0.781127	0.912176	0.0265581	0.247823	0.36228	0.432633	0.0144487	0.00110687	0.00113001	
3.245	0.00280274	0.00147286	0.00147114	0.00160169	0.00154203	0.00297016	0.00274905	0.00287831	0.00141435	0.00138138	0.00134373	0.00121313	0.00196544	0.00210627	0.00297486	0.0028816	0.0028146	0.00309139	0.00287842	0.00284492	0.0011869	0.00310268	0.00283922	0.00182083	0.00279444	0.00119134	0.00119131	0.00282847	0.00131167	0.00271723	0.0029309	0.00280785	0.00226037	0.00194393	0.00244934	0.00149871	0.00138435	0.00141335	0.00139406	0.00136473	0.987548	0.802843	0.013283	0.013283	0.0242865	0.992411	0.917234	0.970397	0.00107461	0.00130637	0.529542	0.242465	0.94333	0.00102267	0.6954	0.751073	0.504057	0.00121882	0.0013884	0.00153253	0.590453	0.00178698	0.250043	0.78483	0.992061	0.211487	0.174544	0.0248157	0.999047	0.00110554	0.999336	0.766625	0.897971	0.0206739	0.495293	0.461295	0.381931	0.0152242	0.00110687	0.00113001	
3.25	0.00280274	0.00147286	0.00147114	0.00160169	0.00154203	0.00297016	0.00274905	0.00287831	0.00141435	0.00138138	0.00134373	0.00121313	0.00196544	0.00210627	0.00297486	0.0028816	0.0028146	0.00309139	0.00287842	0.00284492	0.0011869	0.00310268	0.00283922	0.00182083	0.00279444	0.00119134	0.00119131	0.00282847	0.00131167	0.00271723	0.0029309	0.00280785	0.00226037	0.00194393	0.00244934	0.00149871	0.00138435	0.00141335	0.00139406	0.00136473	0.99268	0.833509	0.00780188	0.00780188	0.0189599	0.995345	0.901487	0.966212	0.00107361	0.00107522	0.560709	0.232022	0.941806	0.00102267	0.653054	0.713991	0.495957	0.00121869	0.0013884	0.00151721	0.303028	0.00109279	0.0429438	0.800479	0.995407	0.235613	0.170289	0.0223543	0.999047	0.191039	0.999336	0.749879	0.883179	0.0164227	0.681632	0.425295	0.350747	0.0163334	0.00110687	0.00113001	
3.255	0.00280274	0.00147286	0.00147114	0.00160169	0.00154203	0.00297016	0.00274905	0.00287831	0.00141435	0.00138138	0.00134373	0.00121313	0.00196544	0.00210627	0.00297486	0.0028816	0.0028146	0.00309139	0.00287842	0.00284492	0.0011869	0.00310268	0.00283922	0.00182083	0.00279444	0.00119134	0.00119131	0.00282847	0.00131167	0.00271723	0.0029309	0.00280785	0.00226037	0.00194393	0.00244934	0.00149871	0.00138435	0.00141335	0.00139406	0.00136473	0.995541	0.868662	0.00474504	0.00474504	0.0132308	0.996993	0.884896	0.961755	0.00107355	0.00103253	0.619113	0.224572	0.940871	0.00102267	0.611629	0.677116	0.487492	0.00121868	0.0013884	0.00151605	0.139815	0.00101099	0.00629744	0.815482	0.997161	0.271645	0.166364	0.0163252	0.999047	0.761033	0.999337	0.728736	0.867578	0.0135998	0.806687	0.445749	0.342978	0.0177892	0.00110687	0.00113001	
3.26	0.00280274	0.00147286	0.00147114	0.00160169	0.00154203	0.00297016	0.00274905	0.00287831	0.00141435	0.00138138	0.00134373	0.00121313	0.00196544	0.00210627	0.00297486	0.0028816	0.0028146	0.00309139	0.00287842	0.00284492	0.0011869	0.00310268	0.00283922	0.00182083	0.00279444	0.00119134	0.00119131	0.00282847	0.00131167	0.00271723	0.0029309	0.00280785	0.00226037	0.00194393	0.00244934	0.00149871	0.00138435	0.00141335	0.00139406	0.00136473	0.997123	0.908602	0.00305446	0.00305446	0.00879053	0.99791	0.86759	0.956903	0.00107355	0.00102492	0.666089	0.220577	0.940441	0.00102267	0.571436	0.64075	0.478717	0.00121868	0.0013884	0.00151596	0.0609303	0.00100167	0.00161635	0.829763	0.998074	0.31279	0.162885	0.0143579	0.999047	0.940332	0.999337	0.704252	0.851214	0.0120191	0.885558	0.474521	0.348813	0.0194635	0.00110687	0.00113001	
3.265	0.00280274	0.00147286	0.00147114	0.00160169	0.00154203	0.00297016	0.00274905	0.00287831	0.00141435	0.00138138	0.00134373	0.00121313	0.00196544	0.00210627	0.00297486	0.0028816	0.0028146	0.00309139	0.00287842	0.00284492	0.0011869	0.00310268	0.00283922	0.00182083	0.00279444	0.00119134	0.00119131	0.00282847	0.00131167	0.00271723	0.0029309	0.00280785	0.00226037	0.00194393	0.00244934	0.00149871	0.00138435	0.00141335	0.00139406	0.00136473	0.997991	0.940862	0.00212604	0.00212604	0.0057609	0.998416	0.849689	0.951536	0.00107355	0.0010236	0.692971	0.220401	0.940442	0.00102267	0.532708	0.605135	0.469683	0.00121868	0.0013884	0.00151596	0.0258885	0.00100063	0.00108936	0.843279	0.998545	0.351722	0.159966	0.0104855	0.999047	0.985755	0.999337	0.677315	0.834209	0.0114626	0.933395	0.505149	0.354909	0.0201931	0.00110687	0.00113001	
3.27	0.00280274	0.00147286	0.00147114	0.00160169	0.00154203	0.00297016	0.00274905	0.00287831	0.00141435	0.00138138	0.00134373	0.00121313	0.00196544	0.00210627	0.00297486	0.0028816	0.0028146	0.00309139	0.00287842	0.00284492	0.0011869	0.00310268	0.00283922	0.00182083	0.00279444	0.00119134	0.00119131	0.00282847	0.00131167	0.00271723	0.0029309	0.00280785	0.00226037	0.00194393	0.00244934	0.00149871	0.00138435	0.00141335	0.00139406	0.00136473	0.998465	0.963294	0.0016192	0.0016192	0.00383035	0.998693	0.831302	0.945513	0.00107355	0.00102337	0.714097	0.22386	0.940808	0.00102267	0.495611	0.570463	0.460436	0.00121868	0.0013884	0.00151596	0.0110879	0.00100051	0.0010339	0.856004	0.998787	0.382933	0.15765	0.00713187	0.999047	0.996224	0.999337	0.648667	0.816673	0.0117331	0.961636	0.538201	0.354754	0.0202794	0.00110687	0.00113001	
3.275	0.00280274	0.00147286	0.00147114	0.00160169	0.00154203	0.00297016	0.00274905	0.00287831	0.00141435	0.00138138	0.00134373	0.00121313	0.00196544	0.00210627	0.00297486	0.0028816	0.0028146	0.00309139	0.00287842	0.00284492	0.0011869	0.00310268	0.00283922	0.00182083	0.00279444	0.00119134	0.00119131	0.00282847	0.00131167	0.00271723	0.0029309	0.00280785	0.00226037	0.00194393	0.00244934	0.00149871	0.00138435	0.00141335	0.00139406	0.00136473	0.998722	0.977744	0.00134392	0.00134392	0.00297573	0.998845	0.812529	0.938704	0.00107355	0.00102333	0.730661	0.230255	0.940564	0.00102267	0.460255	0.536879	0.451017	0.00121868	0.0013884	0.00151596	0.00503904	0.0010005	0.00102831	0.867932	0.998911	0.404746	0.155895	0.023299	0.999047	0.998501	0.999337	0.618927	0.798708	0.0126303	0.97798	0.573803	0.348781	0.0199209	0.00110687	0.00113001	
3.28	0.00280274	0.00147286	0.00147114	0.00160169	0.00154203	0.00297016	0.00274905	0.00287831	0.00141435	0.00138138	0.00134373	0.00121313	0.00196544	0.00210627	0.00297486	0.0028816	0.0028146	0.00309139	0.00287842	0.00284492	0.0011869	0.00310268	0.00283922	0.00182083	0.00279444	0.00119134	0.00119131	0.00282847	0.00131167	0.00271723	0.0029309	0.00280785	0.00226037	0.00194393	0.00244934	0.00149871	0.00138435	0.00141335	0.00139406	0.00136473	0.998861	0.98663	0.00119508	0.00119508	0.00228127	0.998927	0.79346	0.930971	0.00107355	0.00102333	0.734967	0.238796	0.937867	0.00102267	0.426708	0.504496	0.441466	0.00121868	0.0013884	0.00151596	0.0026234	0.0010005	0.00102776	0.879069	0.998974	0.416417	0.154618	0.0215958	0.999047	0.998978	0.999337	0.588605	0.780407	0.0140058	0.987295	0.610491	0.33998	0.0192001	0.00110687	0.00113001	
3.285	0.00280274	0.00147286	0.00147114	0.00160169	0.00154203	0.00297016	0.00274905	0.00287831	0.00141435	0.00138138	0.00134373	0.00121313	0.00196544	0.00210627	0.00297486	0.0028816	0.0028146	0.00309139	0.00287842	0.00284492	0.0011869	0.00310268	0.00283922	0.00182083	0.00279444	0.00119134	0.00119131	0.00282847	0.00131167	0.00271723	0.0029309	0.00280785	0.00226037	0.00194393	0.00244934	0.00149871	0.00138435	0.00141335	0.00139406	0.00136473	0.998936	0.991926	0.00111491	0.00111491	0.0017968	0.998971	0.774176	0.922215	0.00107355	0.00102332	0.735365	0.248602	0.931355	0.00102267	0.394999	0.473391	0.431817	0.00121868	0.0013884	0.00151596	0.00167504	0.0010005	0.0010277	0.889431	0.999006	0.420199	0.153708	0.0159458	0.999047	0.999075	0.999337	0.558122	0.761852	0.0156794	0.992539	0.648476	0.330663	0.0183749	0.00499838	0.0012059	
3.29	0.00280274	0.00147286	0.00147114	0.00160169	0.00154203	0.00297016	0.00274905	0.00287831	0.00141435	0.00138138	0.00134373	0.00121313	0.00196544	0.00210627	0.00297486	0.0028816	0.0028146	0.00309139	0.00287842	0.00284492	0.0011869	0.00310268	0.00283922	0.00182083	0.00279444	0.00119134	0.00119131	0.00282847	0.00131167	0.00271723	0.0029309	0.00280785	0.00226037	0.00194393	0.00244934	0.00149871	0.00138435	0.00141335	0.00139406	0.00136473	0.998976	0.995013	0.00107188	0.00107188	0.00148409	0.998995	0.754752	0.912491	0.00107355	0.00102332	0.737287	0.258378	0.921011	0.00102267	0.365131	0.443618	0.422102	0.00121868	0.0013884	0.00151596	0.0013076	0.0010005	0.0010277	0.899043	0.999022	0.417656	0.152954	0.0270485	0.999047	0.999094	0.999337	0.527816	0.74312	0.0174535	0.995463	0.688384	0.321364	0.0428409	0.910929	0.0314446	
3.295	0.00280274	0.00147286	0.00147114	0.00160169	0.00154203	0.00297016	0.00274905	0.00287831	0.00141435	0.00138138	0.00134373	0.00121313	0.00196544	0.00210627	0.00297486	0.0028816	0.0028146	0.00309139	0.00287842	0.00284492	0.0011869	0.00310268	0.00283922	0.00182083	0.00279444	0.00119134	0.00119131	0.00282847	0.00131167	0.00271723	0.0029309	0.00280785	0.00226037	0.00194393	0.00244934	0.00149871	0.00138435	0.00141335	0.00139406	0.00136473	0.998998	0.99678	0.00104886	0.00104886	0.00129155	0.999008	0.735254	0.901899	0.00107355	0.00102332	0.727501	0.267307	0.907227	0.00102267	0.337081	0.415208	0.41235	0.00121868	0.0013884	0.00151596	0.00116672	0.0010005	0.0010277	0.907934	0.99903	0.410897	0.152209	0.0231512	0.999047	0.999098	0.999337	0.497962	0.724279	0.0192746	0.99708	0.727707	0.311965	0.0845183	0.992604	0.081445	
3.3	0.00280274	0.00147286	0.00147114	0.00160169	0.00154203	0.00297016	0.00274905	0.00287831	0.00141435	0.00138138	0.00134373	0.00121313	0.00196544	0.00210627	0.00297486	0.0028816	0.0028146	0.00309139	0.00287842	0.00284492	0.0011869	0.00310268	0.00283922	0.00182083	0.00279444	0.00119134	0.00119131	0.00282847	0.00131167	0.00271723	0.0029309	0.00280785	0.00226037	0.00194393	0.00244934	0.00149871	0.00138435	0.00141335	0.00139406	0.00136473	0.999009	0.99778	0.00103658	0.00103658	0.0011767	0.999015	0.715743	0.890534	0.00107355	0.00102332	0.711475	0.274403	0.890371	0.00102267	0.310812	0.388174	0.402586	0.00121868	0.0013884	0.00151596	0.00111317	0.0010005	0.0010277	0.905556	0.999034	0.40082	0.151292	0.016567	0.999047	0.999098	0.999337	0.468776	0.705392	0.0209663	0.997967	0.76682	0.302382	0.137225	0.998669	0.143279	
3.305	0.00280274	0.00147286	0.00147114	0.00160169	0.00154203	0.00297016	0.00274905	0.00287831	0.00141435	0.00138138	0.00134373	0.00121313	0.00196544	0.00210627	0.00297486	0.0028816	0.0028146	0.00309139	0.00287842	0.00284492	0.0011869	0.00310268	0.00283922	0.00182083	0.00279444	0.00119134	0.00119131	0.00282847	0.00131167	0.00271723	0.0029309	0.00280785	0.00226037	0.00194393	0.00244934	0.00149871	0.00138435	0.00141335	0.00139406	0.00136473	0.999015	0.998339	0.00103004	0.00103004	0.00110974	0.999018	0.696274	0.878483	0.00107355	0.00102332	0.680095	0.279171	0.871194	0.00102267	0.286269	0.362512	0.392836	0.00121868	0.0013884	0.00151596	0.00109296	0.0010005	0.0010277	0.890429	0.999036	0.387434	0.150111	0.0420199	0.999047	0.999099	0.999337	0.440427	0.686514	0.0225096	0.998452	0.803948	0.291909	0.196312	0.999073	0.211125	
3.31	0.00280274	0.00147286	0.00147114	0.00160169	0.00154203	0.00297016	0.00274905	0.00287831	0.00141435	0.00138138	0.00134373	0.00121313	0.00196544	0.00210627	0.00297486	0.0028816	0.0028146	0.00309139	0.00287842	0.00284492	0.0011869	0.00310268	0.00283922	0.00182083	0.00279444	0.00119134	0.00119131	0.00282847	0.00131167	0.00271723	0.0029309	0.00280785	0.00226037	0.00194393	0.00244934	0.00149871	0.00138435	0.00141335	0.00139406	0.00136473	0.999019	0.998649	0.00102657	0.00102657	0.00107136	0.99902	0.676895	0.865861	0.00107355	0.00102332	0.613421	0.280515	0.850207	0.00102267	0.263392	0.33821	0.38312	0.00121868	0.0013884	0.00151596	0.00108538	0.0010005	0.0010277	0.86568	0.999037	0.367358	0.148508	0.0378316	0.999047	0.999099	0.999337	0.413042	0.667695	0.0238618	0.998715	0.83321	0.278844	0.233769	0.409113	0.252864	
3.315	0.00280274	0.00147286	0.00147114	0.00160169	0.00154203	0.00297016	0.00274905	0.00287831	0.00141435	0.00138138	0.00134373	0.00121313	0.00196544	0.00210627	0.00297486	0.0028816	0.0028146	0.00309139	0.00287842	0.00284492	0.0011869	0.00310268	0.00283922	0.00182083	0.00279444	0.00119134	0.00119131	0.00282847	0.00131167	0.00271723	0.0029309	0.00280785	0.00226037	0.00194393	0.00244934	0.00149871	0.00138435	0.00141335	0.00139406	0.00136473	0.99902	0.998819	0.00102473	0.00102473	0.00104966	0.999021	0.657649	0.852755	0.00107355	0.101674	0.397091	0.278651	0.827371	0.00102267	0.24211	0.315241	0.373457	0.00121868	0.0013884	0.00151596	0.00108255	0.0010005	0.0010277	0.833864	0.999038	0.340897	0.146494	0.0274421	0.999047	0.991162	0.999337	0.386715	0.64898	0.0250505	0.998857	0.641359	0.261815	0.255025	0.328283	0.275656	
3.32	0.00280274	0.00147286	0.00147114	0.00160169	0.00154203	0.00297016	0.00274905	0.00287831	0.00141435	0.00138138	0.00134373	0.00121313	0.00196544	0.00210627	0.00297486	0.0028816	0.0028146	0.00309139	0.00287842	0.00284492	0.0011869	0.00310268	0.00283922	0.00182083	0.00279444	0.00119134	0.00119131	0.00282847	0.00131167	0.00271723	0.0029309	0.00280785	0.00226037	0.00194393	0.00244934	0.00149871	0.00138435	0.00141335	0.00139406	0.00136473	0.999021	0.998912	0.00102375	0.00102375	0.00103752	0.999022	0.638575	0.839213	0.844126	0.418347	0.097058	0.273736	0.802844	0.00176256	0.222348	0.293575	0.363864	0.00121868	0.0013884	0.00151596	0.0010815	0.0010005	0.0010277	0.797059	0.999038	0.308081	0.144079	0.0400003	0.999047	0.898923	0.999337	0.361511	0.63041	0.0260491	0.998934	0.370938	0.239741	0.264709	0.340949	0.285218	
3.325	0.00280274	0.00147286	0.00147114	0.00160169	0.00154203	0.00297016	0.00274905	0.00287831	0.00141435	0.00138138	0.00134373	0.00121313	0.00196544	0.00210627	0.00297486	0.0028816	0.0028146	0.00309139	0.00287842	0.00284492	0.0011869	0.00310268	0.00283922	0.00182083	0.00279444	0.00119134	0.00119131	0.00282847	0.00131167	0.00271723	0.0029309	0.00280785	0.00226037	0.00194393	0.00244934	0.00149871	0.00138435	0.00141335	0.00139406	0.00136473	0.999022	0.998963	0.00102324	0.00102324	0.00103079	0.999022	0.619708	0.825295	0.986066	0.514458	0.0195843	0.266485	0.777037	0.00433586	0.204028	0.273173	0.354358	0.00121868	0.0013884	0.00151596	0.445766	0.0010005	0.0010277	0.756941	0.999038	0.272907	0.141331	0.0331674	0.999047	0.788361	0.999337	0.33747	0.612019	0.0268155	0.998975	0.353355	0.215392	0.266283	0.375707	0.285622	
3.33	0.00280274	0.00147286	0.00147114	0.00160169	0.00154203	0.00297016	0.00274905	0.00287831	0.00141435	0.00138138	0.00134373	0.00121313	0.00196544	0.00210627	0.00297486	0.0028816	0.0028146	0.00309139	0.00287842	0.00284492	0.0011869	0.00310268	0.00283922	0.00182083	0.00279444	0.00119134	0.00119131	0.00282847	0.00131167	0.00271723	0.0029309	0.00280785	0.00226037	0.00194393	0.00244934	0.00149871	0.00138435	0.00141335	0.00139406	0.00136473	0.999022	0.99899	0.00102297	0.00102297	0.00102709	0.760477	0.601077	0.811058	0.998154	0.547134	0.00442162	0.257482	0.750305	0.00732352	0.187073	0.253991	0.344951	0.00121868	0.0013884	0.00151596	0.737345	0.0010005	0.0010277	0.714855	0.999038	0.237955	0.138309	0.0233144	0.999047	0.66201	0.999337	0.314614	0.59384	0.0273367	0.760452	0.376906	0.190622	0.26274	0.664484	0.280896	
3.335	0.00280274	0.00147286	0.00147114	0.00160169	0.00154203	0.00297016	0.00274905	0.00287831	0.00141435	0.00138138	0.00134373	0.00121313	0.00196544	0.00210627	0.00297486	0.0028816	0.0028146	0.00309139	0.00287842	0.00284492	0.0011869	0.00310268	0.00283922	0.00182083	0.00279444	0.00119134	0.00119131	0.00282847	0.00131167	0.00271723	0.0029309	0.00280785	0.00226037	0.00194393	0.00244934	0.00149871	0.00138435	0.00141335	0.00139406	0.00136473	0.999022	0.999005	0.00102283	0.00102283	0.00102506	0.515962	0.58271	0.796556	0.999011	0.563005	0.00173362	0.247207	0.722955	0.00705633	0.171402	0.235984	0.335657	0.00121868	0.0013884	0.00151596	0.883874	0.231641	0.0010277	0.671867	0.999038	0.204828	0.135065	0.0152263	0.999047	0.575135	0.999337	0.292948	0.5759	0.0276132	0.515949	0.394629	0.166641	0.255999	0.816635	0.273231	
3.34	0.00280274	0.00147286	0.00147114	0.00160169	0.00154203	0.00297016	0.00274905	0.00287831	0.00141435	0.00138138	0.00134373	0.00121313	0.00196544	0.00210627	0.00297486	0.0028816	0.0028146	0.00309139	0.00287842	0.00284492	0.0011869	0.00310268	0.00283922	0.00182083	0.00279444	0.00119134	0.00119131	0.00282847	0.00131167	0.00271723	0.0029309	0.00280785	0.00226037	0.00194393	0.00244934	0.00149871	0.00138435	0.00141335	0.00139406	0.00136473	0.760477	0.999013	0.00102275	0.00102275	0.00102396	0.328222	0.564629	0.78181	0.999066	0.573819	0.00127745	0.236053	0.695251	0.00552077	0.156938	0.219103	0.326485	0.00121868	0.0013884	0.00151596	0.950512	0.571592	0.0010277	0.628813	0.999038	0.174445	0.131646	0.0156328	0.999047	0.435706	0.999337	0.272465	0.558224	0.0274769	0.347682	0.40939	0.144198	0.270068	0.981998	0.289236	
3.345	0.00280274	0.00147286	0.00147114	0.00160169	0.00154203	0.00297016	0.00274905	0.00287831	0.00141435	0.00138138	0.00134373	0.00121313	0.00196544	0.00210627	0.00297486	0.0028816	0.0028146	0.00309139	0.00287842	0.00284492	0.0011869	0.00310268	0.00283922	0.00182083	0.00279444	0.00119134	0.00119131	0.00282847	0.00131167	0.00271723	0.0029309	0.00280785	0.00226037	0.00194393	0.00244934	0.00149871	0.00138435	0.00141335	0.00139406	0.00136473	0.515962	0.760473	0.00102271	0.00102271	0.00102336	0.200434	0.546854	0.766869	0.99907	0.582753	0.00120172	0.224338	0.667421	0.00850279	0.143603	0.203297	0.317445	0.00121868	0.0013884	0.00151596	0.979206	0.691029	0.0010277	0.586342	0.999038	0.147249	0.128091	0.0128565	0.999047	0.410807	0.999337	0.253146	0.540832	0.0272172	0.240913	0.422579	0.123713	0.298483	0.99784	0.321122	
3.35	0.00280274	0.00147286	0.00147114	0.00160169	0.00154203	0.00297016	0.00274905	0.00287831	0.00141435	0.00138138	0.00134373	0.00121313	0.00196544	0.00210627	0.00297486	0.0028816	0.0028146	0.00309139	0.00287842	0.00284492	0.0011869	0.00310268	0.00283922	0.00182083	0.00279444	0.00119134	0.00119131	0.00282847	0.00131167	0.00271723	0.0029309	0.00280785	0.00226037	0.00194393	0.00244934	0.00149871	0.00138435	0.00141335	0.00139406	0.00136473	0.328222	0.51596	0.00102269	0.00102269	0.00102304	0.119087	0.529403	0.751778	0.99907	0.590257	0.00118929	0.212324	0.639656	0.00973705	0.131325	0.188516	0.308545	0.00121868	0.0013884	0.00151596	0.991124	0.937767	0.0010277	0.544944	0.999038	0.123362	0.124436	0.00985207	0.999047	0.397798	0.999337	0.234965	0.523743	0.0271769	0.172	0.434177	0.105373	0.336281	0.999016	0.362915	
3.355	0.00280274	0.00147286	0.00147114	0.00160169	0.00154203	0.00297016	0.00274905	0.00287831	0.00141435	0.00138138	0.00134373	0.00121313	0.00196544	0.00210627	0.00297486	0.0028816	0.0028146	0.00309139	0.00287842	0.00284492	0.0011869	0.00310268	0.00283922	0.00182083	0.00279444	0.00119134	0.00119131	0.00282847	0.00131167	0.00271723	0.0029309	0.00280785	0.00226037	0.00194393	0.00244934	0.00149871	0.00138435	0.00141335	0.00139406	0.00136473	0.200434	0.32822	0.00102268	0.00102268	0.00102287	0.0694605	0.512289	0.736576	0.99907	0.596866	0.00118726	0.200218	0.61212	0.0101464	0.120031	0.174708	0.299792	0.00121868	0.0013884	0.00151596	0.995948	0.99021	0.0010277	0.504984	0.999038	0.102695	0.120712	0.00753916	0.999047	0.393238	0.999337	0.217888	0.506972	0.0272282	0.129043	0.443724	0.0892043	0.379716	0.999095	0.410176	
3.36	0.00280274	0.00147286	0.00147114	0.00160169	0.00154203	0.00297016	0.00274905	0.00287831	0.00141435	0.00138138	0.00134373	0.00121313	0.00196544	0.00210627	0.00297486	0.0028816	0.0028146	0.00309139	0.00287842	0.00284492	0.0011869	0.00310268	0.00283922	0.00182083	0.00279444	0.00119134	0.00119131	0.00282847	0.00131167	0.00271723	0.0029309	0.00280785	0.00226037	0.00194393	0.00244934	0.00149871	0.00138435	0.00141335	0.00139406	0.00136473	0.119087	0.200434	0.00102267	0.00102267	0.00102277	0.0400608	0.495526	0.721303	0.99907	0.601151	0.00118694	0.188189	0.584951	0.00991225	0.109653	0.161824	0.291193	0.00121868	0.0013884	0.00151596	0.963583	0.997884	0.0010277	0.46672	0.999038	0.0850347	0.116946	0.00612079	0.999047	0.39076	0.999337	0.201877	0.490532	0.0272857	0.10089	0.451343	0.075129	0.426001	0.999099	0.459703	
3.365	0.00280274	0.00147286	0.00147114	0.00160169	0.00154203	0.00297016	0.00274905	0.00287831	0.00141435	0.00138138	0.00134373	0.00121313	0.00196544	0.00210627	0.00297486	0.0028816	0.0028146	0.00309139	0.00287842	0.00284492	0.0011869	0.00310268	0.00283922	0.00182083	0.00279444	0.00119134	0.00119131	0.00282847	0.00131167	0.00271723	0.0029309	0.00280785	0.00226037	0.00194393	0.00244934	0.00149871	0.00138435	0.00141335	0.00139406	0.00136473	0.0694605	0.119086	0.00102267	0.00102267	0.00102272	0.0230115	0.479123	0.705992	0.99907	0.603101	0.00118688	0.176366	0.558261	0.00781255	0.100126	0.149812	0.282753	0.00121868	0.0013884	0.00151596	0.598398	0.998867	0.797868	0.430329	0.999038	0.0700976	0.113161	0.00465008	0.999047	0.416316	0.999337	0.186891	0.474435	0.0261542	0.0709371	0.457153	0.0630036	0.473103	0.9991	0.509256	
3.37	0.00280274	0.00147286	0.00147114	0.00160169	0.00154203	0.00297016	0.00274905	0.00287831	0.00141435	0.00138138	0.00134373	0.00121313	0.00196544	0.00210627	0.00297486	0.0028816	0.0028146	0.00309139	0.00287842	0.00284492	0.0011869	0.00310268	0.00283922	0.00182083	0.00279444	0.00119134	0.00119131	0.00282847	0.00131167	0.00271723	0.0029309	0.00280785	0.00226037	0.00194393	0.00244934	0.00149871	0.00138435	0.00141335	0.00139406	0.00136473	0.0400608	0.0694603	0.00102267	0.00102267	0.0010227	0.013283	0.463088	0.690676	0.99907	0.596363	0.00118687	0.164852	0.532146	0.00562223	0.0913863	0.138625	0.274475	0.00121868	0.0013884	0.00151596	0.303169	0.998985	0.972317	0.395919	0.999038	0.0575728	0.109376	0.00340391	0.999047	0.441896	0.532286	0.172885	0.458689	0.0255702	0.04679	0.459499	0.0526502	0.519575	0.9991	0.557325	
3.375	0.00280274	0.00147286	0.00147114	0.00160169	0.00154203	0.00297016	0.00274905	0.00287831	0.00141435	0.00138138	0.00134373	0.00121313	0.00196544	0.00210627	0.00297486	0.0028816	0.0028146	0.00309139	0.00287842	0.00284492	0.0011869	0.00310268	0.00283922	0.00182083	0.00279444	0.00119134	0.00119131	0.00282847	0.00131167	0.00271723	0.0029309	0.00280785	0.00226037	0.00194393	0.00244934	0.00149871	0.00138435	0.00141335	0.00139406	0.00136473	0.0230115	0.0400607	0.00102267	0.00102267	0.00102268	0.00780188	0.447427	0.675382	0.738813	0.435298	0.00118687	0.153725	0.50668	0.0230933	0.0833766	0.128214	0.266363	0.00121868	0.0013884	0.00151596	0.138889	0.998999	0.995959	0.363544	0.999038	0.0471478	0.105611	0.0024986	0.999047	0.51415	0.214984	0.159816	0.443302	0.025189	0.0294586	0.406154	0.0438762	0.564417	0.9991	0.602946	
3.38	0.00280274	0.00147286	0.00147114	0.00160169	0.00154203	0.00297016	0.00274905	0.00287831	0.00141435	0.00138138	0.00134373	0.00121313	0.00196544	0.00210627	0.00297486	0.0028816	0.0028146	0.00309139	0.00287842	0.00284492	0.0011869	0.00310268	0.00283922	0.00182083	0.00279444	0.00119134	0.00119131	0.00282847	0.00131167	0.00271723	0.0029309	0.00280785	0.00226037	0.00194393	0.00244934	0.00149871	0.00138435	0.00141335	0.00139406	0.00136473	0.0202959	0.0230114	0.00102267	0.00102267	0.00102268	0.00474504	0.432145	0.660139	0.217889	0.187595	0.00118687	0.143129	0.481924	0.0222171	0.0760414	0.118533	0.25842	0.00121868	0.0013884	0.00151596	0.0602626	0.846013	0.9987	0.333216	0.999038	0.0408833	0.101879	0.00190758	0.999047	0.589799	0.0761343	0.147635	0.428278	0.0250328	0.0180911	0.286232	0.0392329	0.606971	0.9991	0.645546	
3.385	0.00280274	0.00147286	0.00147114	0.00160169	0.00154203	0.00297016	0.00274905	0.00287831	0.00141435	0.00138138	0.00134373	0.00121313	0.00196544	0.00210627	0.00297486	0.0028816	0.0028146	0.00309139	0.00287842	0.00284492	0.0011869	0.00310268	0.00283922	0.00182083	0.00279444	0.00119134	0.00119131	0.00282847	0.00131167	0.00271723	0.0029309	0.00280785	0.00226037	0.00194393	0.00244934	0.00149871	0.00138435	0.00141335	0.00139406	0.00136473	0.020639	0.013283	0.00102267	0.00102267	0.00102267	0.00305446	0.417244	0.644969	0.233687	0.22576	0.00118687	0.133034	0.457924	0.0168405	0.0693286	0.109539	0.250648	0.00121868	0.0013884	0.920972	0.025536	0.206479	0.998994	0.304915	0.999038	0.0361909	0.0981944	0.00154423	0.999047	0.702807	0.025936	0.136296	0.413621	0.0252208	0.0110198	0.208009	0.0359146	0.646834	0.9991	0.684834	
3.39	0.00280274	0.00147286	0.00147114	0.00160169	0.00154203	0.00297016	0.00274905	0.00287831	0.00141435	0.00138138	0.00134373	0.00121313	0.00196544	0.00210627	0.00297486	0.0028816	0.0028146	0.00309139	0.00287842	0.00284492	0.0011869	0.00310268	0.00283922	0.00182083	0.00279444	0.00119134	0.00119131	0.00282847	0.00131167	0.00271723	0.0029309	0.00280785	0.00226037	0.00194393	0.00244934	0.00149871	0.00138435	0.00141335	0.00139406	0.00136473	0.0162212	0.0298596	0.00102267	0.00102267	0.00102267	0.00212604	0.402727	0.629895	0.138499	0.112096	0.00118687	0.123428	0.434717	0.0349472	0.0631897	0.101189	0.243049	0.00121868	0.0013884	0.700539	0.0109236	0.032108	0.24971	0.278595	0.999038	0.0319677	0.0945663	0.00132931	0.999047	0.838505	0.00923314	0.125755	0.399333	0.0256714	0.00677196	0.165745	0.0327545	0.683794	0.9991	0.720717	
3.395	0.00280274	0.00147286	0.00147114	0.00160169	0.00154203	0.00297016	0.00274905	0.00287831	0.00141435	0.00138138	0.00134373	0.00121313	0.00196544	0.00210627	0.00297486	0.0028816	0.0028146	0.00309139	0.00287842	0.00284492	0.0011869	0.00310268	0.00283922	0.00182083	0.00279444	0.00119134	0.00119131	0.00282847	0.00131167	0.00271723	0.0029309	0.00280785	0.00226037	0.00194393	0.00244934	0.00149871	0.00138435	0.00141335	0.00139406	0.00136473	0.0115924	0.0430007	0.00102267	0.00102267	0.00102267	0.0016192	0.388594	0.614937	0.1193	0.0454555	0.126669	0.114424	0.412325	0.0313553	0.0575794	0.0934413	0.235623	0.00121868	0.0013884	0.968128	0.00496749	0.00504715	0.0577865	0.254191	0.999038	0.0315518	0.0910076	0.00120556	0.999047	0.894732	0.00388011	0.115964	0.385417	0.0264583	0.0042825	0.115241	0.0353969	0.717774	0.9991	0.753237	
3.4	0.00280274	0.00147286	0.00147114	0.00160169	0.00154203	0.00297016	0.00274905	0.00287831	0.00141435	0.00138138	0.00134373	0.00121313	0.00196544	0.00210627	0.00297486	0.0028816	0.0028146	0.00309139	0.00287842	0.00284492	0.0011869	0.00310268	0.00283922	0.00182083	0.00279444	0.00119134	0.00119131	0.00282847	0.00131167	0.00271723	0.0029309	0.00280785	0.00226037	0.00194393	0.00244934	0.00149871	0.00138435	0.00141335	0.00139406	0.00136473	0.0451826	0.0361781	0.00102267	0.00102267	0.00102267	0.00134392	0.374844	0.600112	0.0250688	0.0447022	0.0405896	0.105905	0.390766	0.0230605	0.0646594	0.0916342	0.228371	0.00121868	0.0013884	0.996525	0.00259351	0.00148952	0.00879007	0.231626	0.999038	0.0296807	0.087522	0.00113569	0.999047	0.967753	0.00219547	0.106879	0.371871	0.0274145	0.0028502	0.134535	0.0354746	0.748799	0.9991	0.782522	
3.405	0.00280274	0.00147286	0.00147114	0.00160169	0.00154203	0.00297016	0.00274905	0.00287831	0.00141435	0.00138138	0.00134373	0.00121313	0.00196544	0.00210627	0.00297486	0.0028816	0.0028146	0.00309139	0.00287842	0.00284492	0.0011869	0.00310268	0.00283922	0.00182083	0.00279444	0.00119134	0.00119131	0.00282847	0.00131167	0.00271723	0.0029309	0.00280785	0.00226037	0.00194393	0.00244934	0.00149871	0.00138435	0.00141335	0.00139406	0.00136473	0.0430805	0.0258812	0.00102267	0.00102267	0.00102267	0.00498454	0.361476	0.585437	0.00317871	0.01314	0.0187246	0.0978744	0.370047	0.0543297	0.0816793	0.0985273	0.221293	0.00121868	0.0013884	0.999145	0.0424813	0.00105714	0.00192961	0.210812	0.733404	0.0273513	0.0841157	0.00109685	0.324866	0.991325	0.0016703	0.0984589	0.358696	0.0289697	0.00203781	0.0842389	0.0343762	0.77696	0.9991	0.808755	
3.41	0.00280274	0.00147286	0.00147114	0.00160169	0.00154203	0.00297016	0.00274905	0.00287831	0.00141435	0.00138138	0.00134373	0.00121313	0.00196544	0.00210627	0.00297486	0.0028816	0.0028146	0.00309139	0.00287842	0.00284492	0.0011869	0.00310268	0.00283922	0.00182083	0.00279444	0.00119134	0.00119131	0.00282847	0.00131167	0.00271723	0.0029309	0.00280785	0.00226037	0.00194393	0.00244934	0.00149871	0.00138435	0.00141335	0.00139406	0.00136473	0.0323212	0.0171923	0.00102267	0.00102267	0.00102267	0.00495671	0.348487	0.570927	0.00122401	0.00367672	0.131272	0.0905155	0.35017	0.0494123	0.106344	0.112466	0.214389	0.00121868	0.0013884	0.999364	0.0296634	0.00100689	0.00112436	0.191656	0.474848	0.0303259	0.0807981	0.00107551	0.0721335	0.997338	0.00150744	0.0906605	0.345888	0.0315725	0.00158223	0.0440452	0.0408851	0.802394	0.9991	0.83215	
3.415	0.00280274	0.00147286	0.00147114	0.00160169	0.00154203	0.00297016	0.00274905	0.00287831	0.00141435	0.00138138	0.00134373	0.00121313	0.00196544	0.00210627	0.00297486	0.0028816	0.0028146	0.00309139	0.00287842	0.00284492	0.0011869	0.00310268	0.00283922	0.00182083	0.00279444	0.00119134	0.00119131	0.00282847	0.00131167	0.00271723	0.0029309	0.00280785	0.00226037	0.00194393	0.00244934	0.00149871	0.00138435	0.00141335	0.00139406	0.00136473	0.0219487	0.0110282	0.0313927	0.00102267	0.00291367	0.00399309	0.335874	0.556594	0.00108333	0.00154699	0.23761	0.084117	0.331131	0.0363918	0.136747	0.132034	0.209451	0.00121868	0.0013884	0.999382	0.015947	0.00100121	0.00103757	0.174062	0.28673	0.0443277	0.0775943	0.0010639	0.0145381	0.915434	0.00145708	0.0834443	0.333446	0.0347265	0.00132912	0.0213599	0.0616807	0.825266	0.9991	0.852935	
3.42	0.00280274	0.00147286	0.00147114	0.00160169	0.00154203	0.00297016	0.00274905	0.00287831	0.00141435	0.00138138	0.00134373	0.00121313	0.00196544	0.00210627	0.00297486	0.0028816	0.0028146	0.00309139	0.00287842	0.00284492	0.0011869	0.00310268	0.00283922	0.00182083	0.00279444	0.00119134	0.00119131	0.00282847	0.00131167	0.00271723	0.0029309	0.00280785	0.00226037	0.00194393	0.00244934	0.00149871	0.00138435	0.00141335	0.00139406	0.00136473	0.0141959	0.00701156	0.278278	0.247823	0.00656814	0.00806802	0.323633	0.54245	0.00107415	0.00112078	0.319793	0.0788497	0.312922	0.0764738	0.171311	0.15602	0.206822	0.00121868	0.576729	0.999383	0.00795954	0.00100058	0.00102867	0.157933	0.165734	0.0678165	0.0745245	0.00105764	0.00342604	0.739225	0.00144154	0.0767722	0.321367	0.0389307	0.00118957	0.0101387	0.0907428	0.845759	0.9991	0.871343	
3.425	0.00280274	0.00147286	0.00147114	0.00160169	0.00154203	0.00297016	0.00274905	0.00287831	0.00141435	0.00138138	0.00134373	0.00121313	0.00196544	0.00210627	0.00297486	0.0028816	0.0028146	0.00309139	0.00287842	0.00284492	0.0011869	0.00310268	0.00283922	0.00182083	0.00279444	0.00119134	0.00119131	0.00282847	0.00131167	0.00271723	0.0029309	0.00280785	0.00226037	0.00194393	0.00244934	0.00149871	0.00138435	0.00141335	0.00139406	0.00136473	0.00900081	0.00452327	0.518198	0.495293	0.00784782	0.00975031	0.311759	0.528506	0.00107358	0.00104079	0.292486	0.0744496	0.295531	0.0926268	0.20874	0.183396	0.206285	0.00121868	0.354976	0.999383	0.00406569	0.00100051	0.00102779	0.143171	0.0930981	0.0911768	0.0715808	0.00105428	0.0014492	0.720977	0.00143675	0.0706078	0.309645	0.0433824	0.00111313	0.00496364	0.116336	0.864059	0.9991	0.887598	
3.43	0.00280274	0.00147286	0.00147114	0.00160169	0.00154203	0.00297016	0.00274905	0.00287831	0.00141435	0.00138138	0.00134373	0.00121313	0.00196544	0.00210627	0.00297486	0.0028816	0.0028146	0.00309139	0.00287842	0.00284492	0.0011869	0.00310268	0.00283922	0.00182083	0.00279444	0.00119134	0.00119131	0.00282847	0.00131167	0.00271723	0.0029309	0.00280785	0.00226037	0.00194393	0.00244934	0.00149871	0.00138435	0.00141335	0.00139406	0.00136473	0.00572604	0.00303273	0.696985	0.681632	0.00769412	0.0096969	0.300248	0.514769	0.00107355	0.00102637	0.296628	0.0706767	0.278941	0.0913874	0.247974	0.213289	0.207639	0.00121868	0.545813	0.999383	0.00232455	0.0010005	0.00102771	0.129684	0.0513633	0.110663	0.0687526	0.00105249	0.00111402	0.711628	0.00143528	0.0649165	0.298276	0.0478009	0.00107149	0.00267868	0.135911	0.880353	0.9991	0.901917	
3.435	0.00280274	0.00147286	0.00147114	0.00160169	0.00154203	0.00297016	0.00274905	0.00287831	0.00141435	0.00138138	0.00134373	0.00121313	0.00196544	0.00210627	0.00297486	0.0028816	0.0028146	0.00309139	0.00287842	0.00284492	0.0011869	0.00310268	0.00283922	0.00182083	0.00279444	0.00119134	0.00119131	0.00282847	0.00131167	0.00271723	0.0029309	0.00280785	0.00226037	0.00194393	0.00244934	0.00149871	0.00138435	0.00141335	0.00139406	0.00136473	0.00374096	0.002161	0.816361	0.806687	0.00711755	0.00908271	0.289093	0.501248	0.00107355	0.00102385	0.281222	0.0673962	0.263135	0.0846653	0.288154	0.244962	0.210698	0.00121868	0.531839	0.999383	0.0015848	0.0010005	0.0010277	0.117377	0.028092	0.125994	0.0660344	0.00105154	0.00105898	0.710374	0.00143482	0.0596656	0.287256	0.0516875	0.00104892	0.00169929	0.150204	0.894825	0.9991	0.914502	
3.44	0.00280274	0.00147286	0.00147114	0.00160169	0.00154203	0.00297016	0.00274905	0.00287831	0.00141435	0.00138138	0.00134373	0.00121313	0.00196544	0.00210627	0.00297486	0.0028816	0.0028146	0.00309139	0.00287842	0.00284492	0.0011869	0.00310268	0.00283922	0.00182083	0.00279444	0.00119134	0.00119131	0.00282847	0.00131167	0.00271723	0.0029309	0.00280785	0.00226037	0.00194393	0.00244934	0.00149871	0.00138435	0.00141335	0.00139406	0.00136473	0.00343291	0.00166022	0.891422	0.885558	0.00641134	0.00838832	0.278289	0.48795	0.0263786	0.0269792	0.267762	0.0645169	0.248093	0.0794827	0.328591	0.277799	0.215291	0.00121868	0.637637	0.999383	0.00128095	0.0010005	0.0010277	0.106164	0.0153939	0.137605	0.0634221	0.00105104	0.00105015	0.702305	0.00143468	0.054824	0.276579	0.0549603	0.00103674	0.0086425	0.160229	0.907648	0.9991	0.925542	
3.445	0.00280274	0.00147286	0.00147114	0.00160169	0.00154203	0.00297016	0.00274905	0.00287831	0.00141435	0.00138138	0.00134373	0.00121313	0.00196544	0.00210627	0.00297486	0.0028816	0.0028146	0.00309139	0.00287842	0.00284492	0.0011869	0.00310268	0.00283922	0.00182083	0.00279444	0.00119134	0.00119131	0.00282847	0.00131167	0.00271723	0.0029309	0.00280785	0.00226037	0.00194393	0.00244934	0.00149871	0.00138435	0.00141335	0.00139406	0.00136473	0.00583027	0.00137653	0.936856	0.933395	0.00491976	0.00641919	0.26971	0.47488	0.00360792	0.00881554	0.125405	0.0615861	0.233792	0.067128	0.368735	0.311283	0.221257	0.00121868	0.546018	0.999383	0.00115909	0.0010005	0.0010277	0.09596	0.00857734	0.139767	0.060885	0.00105078	0.00104875	0.397815	0.00143464	0.0503626	0.266239	0.058981	0.00103019	0.0730184	0.161227	0.918987	0.9991	0.935208	
3.45	0.00280274	0.00147286	0.00147114	0.00160169	0.00154203	0.00297016	0.00274905	0.00287831	0.00141435	0.00138138	0.00134373	0.00121313	0.00196544	0.00210627	0.00297486	0.0028816	0.0028146	0.00309139	0.00287842	0.00284492	0.0011869	0.00310268	0.00283922	0.00182083	0.00279444	0.00119134	0.00119131	0.00282847	0.00131167	0.00271723	0.0029309	0.00280785	0.00226037	0.00194393	0.00244934	0.00149871	0.00138435	0.00141335	0.00139406	0.00136473	0.00619999	0.00121759	0.963638	0.961636	0.00358898	0.00460115	0.263983	0.462044	0.00126366	0.00277781	0.0648447	0.0585427	0.220209	0.0478947	0.408158	0.344986	0.228451	0.00121868	0.544862	0.999383	0.00111108	0.0010005	0.0010277	0.0966766	0.00496428	0.134449	0.0584204	0.00105064	0.00104854	0.120828	0.00143463	0.0563941	0.257942	0.0632047	0.00102668	0.162261	0.15507	0.928995	0.9991	0.943659	
3.455	0.00280274	0.00147286	0.00147114	0.00160169	0.00154203	0.00297016	0.00274905	0.00287831	0.00141435	0.00138138	0.00134373	0.00121313	0.00196544	0.00210627	0.00297486	0.0028816	0.0028146	0.00309139	0.00287842	0.00284492	0.0011869	0.00310268	0.00283922	0.00182083	0.00279444	0.00119134	0.00119131	0.00282847	0.00131167	0.00271723	0.0029309	0.00280785	0.00226037	0.00194393	0.00244934	0.00149871	0.00138435	0.00141335	0.00139406	0.00136473	0.00503627	0.00112936	0.979121	0.97798	0.00262305	0.00326393	0.260836	0.449445	0.0314745	0.0121757	0.0164753	0.0554161	0.207321	0.0315599	0.446528	0.378559	0.236737	0.00121868	0.465068	0.999383	0.00109243	0.0010005	0.0010277	0.110499	0.00306861	0.124308	0.05603	0.00105057	0.0010485	0.0307557	0.00143462	0.0708484	0.252495	0.0679246	0.00103265	0.279781	0.144227	0.937812	0.9991	0.951036	
3.46	0.00280274	0.00147286	0.00147114	0.00160169	0.00154203	0.00297016	0.00274905	0.00287831	0.00141435	0.00138138	0.00134373	0.00121313	0.00196544	0.00210627	0.00297486	0.0028816	0.0028146	0.00309139	0.00287842	0.00284492	0.0011869	0.00310268	0.00283922	0.00182083	0.00279444	0.00119134	0.00119131	0.00282847	0.00131167	0.00271723	0.0029309	0.00280785	0.00226037	0.00194393	0.00244934	0.00149871	0.00138435	0.00141335	0.00139406	0.00136473	0.250532	0.00108075	0.987937	0.987295	0.00198573	0.00237538	0.260015	0.437714	0.198445	0.119169	0.00412359	0.0522645	0.195101	0.0199777	0.483597	0.411714	0.245991	0.00121868	0.746779	0.999383	0.00108526	0.0010005	0.0010277	0.134239	0.00208227	0.11182	0.0537148	0.00105053	0.0010485	0.00779565	0.00143462	0.091966	0.249622	0.0731717	0.00103176	0.377899	0.130968	0.929003	0.9991	0.942336	
3.465	0.00280274	0.00147286	0.00147114	0.00160169	0.00154203	0.00297016	0.00274905	0.00287831	0.00141435	0.00138138	0.00134373	0.00121313	0.00196544	0.00210627	0.00297486	0.0028816	0.0028146	0.00309139	0.00287842	0.00284492	0.0011869	0.00310268	0.00283922	0.00182083	0.00279444	0.00119134	0.00119131	0.00282847	0.00131167	0.00271723	0.0029309	0.00280785	0.00226037	0.00194393	0.00244934	0.00149871	0.00138435	0.00141335	0.00139406	0.00136473	0.290351	0.00105413	0.992897	0.992539	0.00158781	0.00181816	0.261285	0.426956	0.58535	0.316122	0.00170477	0.049134	0.183613	0.0123928	0.519185	0.444223	0.256096	0.00121868	0.917874	0.999383	0.00108253	0.0010005	0.0010277	0.165285	0.00157263	0.0985761	0.0514752	0.00105051	0.0010485	0.00253708	0.00143462	0.118257	0.24907	0.0790766	0.00102932	0.452955	0.116801	0.904782	0.137639	0.918027	
3.47	0.00280274	0.00147286	0.00147114	0.00160169	0.00154203	0.00297016	0.00274905	0.00287831	0.00141435	0.00138138	0.00134373	0.00121313	0.00196544	0.00210627	0.00297486	0.0028816	0.0028146	0.00309139	0.00287842	0.00284492	0.0011869	0.00310268	0.00283922	0.00182083	0.00279444	0.00119134	0.00119131	0.00282847	0.00131167	0.00271723	0.0029309	0.00280785	0.00226037	0.00194393	0.00244934	0.00149871	0.00138435	0.00141335	0.00139406	0.00136473	0.351875	0.00103964	0.995661	0.995463	0.00134815	0.00148156	0.264431	0.417131	0.960742	0.528765	0.0012746	0.0460603	0.17273	0.00803551	0.553169	0.475903	0.266948	0.00121868	0.560809	0.999383	0.0010815	0.0010005	0.0010277	0.201517	0.00131085	0.0855688	0.0493115	0.0010505	0.0010485	0.0014015	0.00143462	0.148462	0.250605	0.0856707	0.00102708	0.481177	0.102708	0.870656	0.231968	0.883726	
3.475	0.00280274	0.00147286	0.00147114	0.00160169	0.00154203	0.00297016	0.00274905	0.00287831	0.00141435	0.00138138	0.00134373	0.00121313	0.00196544	0.00210627	0.00297486	0.0028816	0.0028146	0.00309139	0.00287842	0.00284492	0.0011869	0.00310268	0.00283922	0.00182083	0.00279444	0.00119134	0.00119131	0.00282847	0.00131167	0.00271723	0.0029309	0.00280785	0.00226037	0.00194393	0.00244934	0.00149871	0.00138435	0.00141335	0.00139406	0.00136473	0.372001	0.00103179	0.997188	0.99708	0.00120743	0.0012835	0.269253	0.408204	0.996251	0.600351	0.00120142	0.0430709	0.162428	0.00683191	0.585468	0.506615	0.278449	0.00121868	0.581536	0.999383	0.00108111	0.0010005	0.0010277	0.24122	0.00117706	0.0733812	0.0472234	0.0010505	0.0010485	0.00116526	0.00143462	0.180617	0.254012	0.0935355	0.00124527	0.488322	0.0893004	0.830798	0.0748454	0.843637	
3.48	0.00280274	0.00147286	0.00147114	0.00160169	0.00154203	0.00297016	0.00274905	0.00287831	0.00141435	0.00138138	0.00134373	0.00121313	0.00196544	0.00210627	0.00297486	0.0028816	0.0028146	0.00309139	0.00287842	0.00284492	0.0011869	0.00310268	0.00283922	0.00182083	0.00279444	0.00119134	0.00119131	0.00282847	0.00131167	0.00271723	0.0029309	0.00280785	0.00226037	0.00194393	0.00244934	0.00149871	0.00138435	0.00141335	0.00139406	0.00136473	0.287551	0.00102756	0.998027	0.997967	0.00112635	0.00116918	0.274835	0.400142	0.998884	0.578878	0.00118926	0.0401861	0.152682	0.00548085	0.616042	0.536252	0.289515	0.00121868	0.962193	0.999383	0.00108097	0.0010005	0.0010277	0.27729	0.00110899	0.0623213	0.0452102	0.00105049	0.0010485	0.00111737	0.00143462	0.210053	0.257949	0.102915	0.00124722	0.494971	0.0769324	0.788423	0.680164	0.801056	
3.485	0.00280274	0.00147286	0.00147114	0.00160169	0.00154203	0.00297016	0.00274905	0.00287831	0.00141435	0.00138138	0.00134373	0.00121313	0.00196544	0.00210627	0.00297486	0.0028816	0.0028146	0.00309139	0.00287842	0.00284492	0.0011869	0.00310268	0.00283922	0.00182083	0.00279444	0.00119134	0.00119131	0.00282847	0.00131167	0.00271723	0.0029309	0.00280785	0.00226037	0.00194393	0.00244934	0.00149871	0.00138435	0.00141335	0.00139406	0.00136473	0.1964	0.00102528	0.998484	0.998452	0.00108031	0.00110419	0.280816	0.393106	0.326118	0.238923	0.00118726	0.0374445	0.148032	0.00404976	0.64301	0.564736	0.299559	0.00121868	0.900351	0.999383	0.00108091	0.0010005	0.0010277	0.309795	0.00107449	0.0531702	0.043271	0.00105049	0.0010485	0.00110785	0.0339497	0.236689	0.262222	0.113866	0.00119312	0.492273	0.0666281	0.739319	0.073051	0.751415	
3.49	0.00280274	0.00147286	0.00147114	0.00160169	0.00154203	0.00297016	0.00274905	0.00287831	0.00141435	0.00138138	0.00134373	0.00121313	0.00196544	0.00210627	0.00297486	0.0028816	0.0028146	0.00309139	0.00287842	0.00284492	0.0011869	0.00310268	0.00283922	0.00182083	0.00279444	0.00119134	0.00119131	0.00282847	0.00131167	0.00271723	0.0029309	0.00280785	0.00226037	0.00194393	0.00244934	0.00149871	0.00138435	0.00141335	0.00139406	0.00136473	0.12552	0.00102406	0.760185	0.760167	0.00105446	0.00106766	0.286774	0.386841	0.107366	0.06528	0.00118693	0.0348268	0.143943	0.00294604	0.661049	0.586578	0.30839	0.00121868	0.989222	0.999383	0.00108089	0.0010005	0.542541	0.334207	0.00105706	0.0449834	0.0414048	0.00105049	0.0010485	0.0256567	0.0642518	0.260127	0.266499	0.126593	0.00113777	0.482345	0.0572459	0.693283	0.0730887	0.704908	
3.495	0.00280274	0.00147286	0.00147114	0.00160169	0.00154203	0.00297016	0.00274905	0.00287831	0.00141435	0.00138138	0.00134373	0.00121313	0.00196544	0.00210627	0.00297486	0.0028816	0.0028146	0.00309139	0.00287842	0.00284492	0.0011869	0.00310268	0.00283922	0.00182083	0.00279444	0.00119134	0.00119131	0.00282847	0.00131167	0.00271723	0.0029309	0.00280785	0.00226037	0.00194393	0.00244934	0.00149871	0.00138435	0.00141335	0.00139406	0.00136473	0.0770389	0.00102341	0.591226	0.563126	0.00104009	0.00104734	0.29271	0.381309	0.0109418	0.0149493	0.0854751	0.0324897	0.140732	0.00219478	0.670664	0.601763	0.316111	0.00121868	0.9985	0.999383	0.00108089	0.221951	0.698493	0.352246	0.00104829	0.0410415	0.0396149	0.00105049	0.0010485	0.0345628	0.0308975	0.28068	0.270753	0.141205	0.00109557	0.31867	0.0531858	0.650885	0.11452	0.662125	
3.5	0.00280274	0.00147286	0.00147114	0.00160169	0.00154203	0.00297016	0.00274905	0.00287831	0.00141435	0.00138138	0.00134373	0.00121313	0.00196544	0.00210627	0.00297486	0.0028816	0.0028146	0.00309139	0.00287842	0.00284492	0.0011869	0.00310268	0.00283922	0.00182083	0.00279444	0.00119134	0.00119131	0.00282847	0.00131167	0.00271723	0.0029309	0.00280785	0.00226037	0.00194393	0.00244934	0.00149871	0.00138435	0.00141335	0.00139406	0.00136473	0.0460953	0.00102306	0.647652	0.619241	0.00103216	0.00103612	0.298737	0.376467	0.00179335	0.00375596	0.375503	0.033327	0.142967	0.00171675	0.676642	0.614406	0.322982	0.0508123	0.99925	0.999383	0.00108088	0.424	0.952234	0.36548	0.00104388	0.0829562	0.0381184	0.00105049	0.0010485	0.0120729	0.012413	0.298841	0.275021	0.157554	0.001067	0.169099	0.0971055	0.612403	0.115374	0.623352	
3.505	0.00280274	0.00147286	0.00147114	0.00160169	0.00154203	0.00297016	0.00274905	0.00287831	0.00141435	0.00138138	0.00134373	0.00121313	0.00196544	0.00210627	0.00297486	0.0028816	0.0028146	0.00309139	0.00287842	0.00284492	0.0011869	0.00310268	0.00283922	0.00182083	0.00279444	0.00119134	0.00119131	0.00282847	0.00131167	0.00271723	0.0029309	0.00280785	0.00226037	0.00194393	0.00244934	0.00149871	0.00138435	0.00141335	0.00139406	0.00136473	0.0271827	0.00102288	0.748024	0.726524	0.00102781	0.00102996	0.305039	0.37227	0.00112085	0.00153005	0.521466	0.0407388	0.150208	0.00142516	0.685306	0.628284	0.32939	0.15101	0.999304	0.999383	0.00156249	0.898412	0.993289	0.375095	0.00104167	0.170975	0.0371933	0.00105049	0.0010485	0.00391699	0.00516857	0.315389	0.279392	0.17592	0.00104888	0.0814965	0.160381	0.577895	0.103883	0.58864	
3.51	0.00280274	0.00147286	0.00147114	0.00160169	0.00154203	0.00297016	0.00274905	0.00287831	0.00141435	0.00138138	0.00134373	0.00121313	0.00196544	0.00210627	0.00297486	0.0028816	0.0028146	0.00309139	0.00287842	0.00284492	0.0011869	0.00310268	0.00283922	0.00182083	0.00279444	0.00119134	0.00119131	0.00282847	0.00131167	0.00271723	0.0029309	0.00280785	0.00226037	0.00194393	0.00244934	0.00149871	0.00138435	0.00141335	0.00139406	0.00136473	0.0159613	0.00102278	0.834963	0.820493	0.00102545	0.00102661	0.312177	0.368668	0.00107648	0.00111392	0.589292	0.0567216	0.161652	0.00125237	0.695986	0.643043	0.336284	0.512891	0.999308	0.999383	0.00141519	0.661158	0.998394	0.384644	0.00104057	0.268697	0.0370566	0.00105049	0.0010485	0.00175311	0.00264968	0.332644	0.284264	0.195207	0.00103785	0.0374059	0.197571	0.547216	0.0614839	0.557809	
3.515	0.00280274	0.00147286	0.00147114	0.00160169	0.00154203	0.00297016	0.00274905	0.00287831	0.00141435	0.00138138	0.00134373	0.00121313	0.00196544	0.00210627	0.00297486	0.0028816	0.0028146	0.00309139	0.00287842	0.00284492	0.0011869	0.00310268	0.00283922	0.00182083	0.00279444	0.00119134	0.00119131	0.00282847	0.00131167	0.00271723	0.0029309	0.00280785	0.00226037	0.00194393	0.00244934	0.00149871	0.00138435	0.00141335	0.00139406	0.00136473	0.00944528	0.00102273	0.89721	0.888068	0.00102416	0.00102479	0.320457	0.365606	0.00107372	0.00103911	0.626377	0.0810198	0.176588	0.00115212	0.708128	0.658386	0.344049	0.933982	0.999308	0.999383	0.00398558	0.54611	0.998961	0.398753	0.00104002	0.342807	0.0378093	0.00105049	0.0010485	0.001246	0.00182082	0.353365	0.290269	0.21675	0.00103132	0.0168673	0.210934	0.52019	0.0372234	0.530626	
3.52	0.00280274	0.00147286	0.00147114	0.00160169	0.00154203	0.00297016	0.00274905	0.00287831	0.00141435	0.00138138	0.00134373	0.00121313	0.00196544	0.00210627	0.00297486	0.0028816	0.0028146	0.00309139	0.00287842	0.00284492	0.0011869	0.00310268	0.00283922	0.00182083	0.00279444	0.00119134	0.00119131	0.00282847	0.00131167	0.00271723	0.0029309	0.00280785	0.00226037	0.00194393	0.00244934	0.00149871	0.00138435	0.00141335	0.00139406	0.00136473	0.0057229	0.0010227	0.937956	0.932406	0.00102347	0.0010238	0.329738	0.363024	0.00107356	0.00102602	0.643312	0.111811	0.194393	0.00109489	0.721278	0.674064	0.352583	0.991733	0.999308	0.999383	0.00305701	0.917428	0.999021	0.416484	0.00103974	0.381241	0.0394166	0.00105049	0.0010485	0.00113485	0.00155576	0.376678	0.297584	0.238361	0.00102754	0.00773958	0.209604	0.496486	0.032023	0.506682	
3.525	0.00280274	0.00147286	0.00147114	0.00160169	0.00154203	0.00297016	0.00274905	0.00287831	0.00141435	0.00138138	0.00134373	0.00121313	0.00196544	0.00210627	0.00297486	0.0028816	0.0028146	0.00309139	0.00287842	0.00284492	0.0011869	0.00310268	0.00283922	0.00182083	0.00279444	0.00119134	0.00119131	0.00282847	0.00131167	0.00271723	0.0029309	0.00280785	0.00226037	0.00194393	0.00244934	0.00149871	0.00138435	0.00141335	0.00139406	0.00136473	0.00362354	0.00102268	0.96327	0.959992	0.0010231	0.00102328	0.339895	0.360859	0.00107355	0.00102378	0.652293	0.146836	0.214519	0.00106262	0.735062	0.689872	0.361791	0.998411	0.999308	0.999383	0.00210294	0.987654	0.999027	0.433456	0.00103961	0.391259	0.0417526	0.00105049	0.0010485	0.0011115	0.00147233	0.40185	0.306057	0.26255	0.00102539	0.00380935	0.1994	0.475718	0.0435229	0.4855	
3.53	0.00280274	0.00147286	0.00147114	0.00160169	0.00154203	0.00297016	0.00274905	0.00287831	0.00141435	0.00138138	0.00134373	0.00121313	0.00196544	0.00210627	0.00297486	0.0028816	0.0028146	0.00309139	0.00287842	0.00284492	0.0011869	0.00310268	0.00283922	0.00182083	0.00279444	0.00119134	0.00119131	0.00282847	0.00131167	0.00271723	0.0029309	0.00280785	0.00226037	0.00194393	0.00244934	0.00149871	0.00138435	0.00141335	0.00139406	0.00136473	0.00245171	0.00102268	0.978466	0.976568	0.0010229	0.00102299	0.350811	0.359047	0.00107355	0.0010234	0.657216	0.183751	0.236489	0.00104461	0.749179	0.70564	0.371586	0.999114	0.999308	0.999383	0.00155242	0.997581	0.999027	0.442427	0.00103954	0.386218	0.0446411	0.00105049	0.0010485	0.00110673	0.00144631	0.428269	0.315547	0.28577	0.00102417	0.00215511	0.186677	0.457525	0.0695813	0.46665	
3.535	0.00280274	0.00147286	0.00147114	0.00160169	0.00154203	0.00297016	0.00274905	0.00287831	0.00141435	0.00138138	0.00134373	0.00121313	0.00196544	0.00210627	0.00297486	0.0028816	0.0028146	0.00309139	0.00287842	0.00284492	0.0011869	0.00310268	0.00283922	0.00182083	0.00279444	0.00119134	0.00119131	0.00282847	0.00131167	0.00271723	0.0029309	0.00280785	0.00226037	0.00194393	0.00244934	0.00149871	0.00138435	0.00141335	0.00139406	0.00136473	0.00180313	0.00102267	0.987368	0.986286	0.00102279	0.00102284	0.362101	0.357525	0.00107355	0.00102334	0.659953	0.220522	0.259885	0.00103465	0.763387	0.721231	0.381891	0.999183	0.999308	0.999383	0.00128515	0.998833	0.999027	0.442866	0.00103951	0.378192	0.0478806	0.00105049	0.0010485	0.00110577	0.00143823	0.452619	0.325272	0.311588	0.00102349	0.00147066	0.180997	0.441516	0.100072	0.449676	
3.54	0.00280274	0.00147286	0.00147114	0.00160169	0.00154203	0.00297016	0.00274905	0.00287831	0.00141435	0.00138138	0.00134373	0.00121313	0.00196544	0.00210627	0.00297486	0.0028816	0.0028146	0.00309139	0.00287842	0.00284492	0.0011869	0.00310268	0.00283922	0.00182083	0.00279444	0.00119134	0.00119131	0.00282847	0.00131167	0.00271723	0.0029309	0.00280785	0.00226037	0.00194393	0.00244934	0.00149871	0.00138435	0.00141335	0.00139406	0.00136473	0.00144671	0.00102267	0.810532	0.991879	0.00102273	0.00102276	0.372688	0.356229	0.00107355	0.00102333	0.661944	0.255386	0.284344	0.00102918	0.777493	0.736531	0.391175	0.99919	0.999308	0.999383	0.0011659	0.998981	0.999027	0.436712	0.00103949	0.37295	0.051259	0.00105049	0.0010485	0.00110558	0.00143573	0.471843	0.334251	0.335745	0.247824	0.00119122	0.178514	0.427339	0.131716	0.434188	
3.545	0.00280274	0.00147286	0.00147114	0.00160169	0.00154203	0.00297016	0.00274905	0.00287831	0.00141435	0.00138138	0.00134373	0.00121313	0.00196544	0.00210627	0.00297486	0.0028816	0.0028146	0.00309139	0.00287842	0.00284492	0.0011869	0.00310268	0.00283922	0.00182083	0.00279444	0.00119134	0.00119131	0.00282847	0.00131167	0.00271723	0.0029309	0.00280785	0.00226037	0.00194393	0.00244934	0.00149871	0.00138435	0.00141335	0.00139406	0.00136473	0.00125203	0.00102267	0.570326	0.993108	0.0010227	0.00102272	0.382218	0.355098	0.00107355	0.00102333	0.663052	0.287359	0.309552	0.00102619	0.783854	0.744363	0.39897	0.999191	0.999308	0.437252	0.00111531	0.998998	0.999027	0.425556	0.282125	0.370987	0.0546174	0.0012857	0.0010485	0.042004	0.00143496	0.4855	0.342154	0.362685	0.495293	0.00107835	0.177488	0.414597	0.163392	0.419774	
3.55	0.00280274	0.00147286	0.00147114	0.00160169	0.00154203	0.00297016	0.00274905	0.00287831	0.00141435	0.00138138	0.00134373	0.00121313	0.00196544	0.00210627	0.00297486	0.0028816	0.0028146	0.00309139	0.00287842	0.00284492	0.0011869	0.00310268	0.00283922	0.00182083	0.00279444	0.00119134	0.00119131	0.00282847	0.00131167	0.00271723	0.0029309	0.00280785	0.00226037	0.00194393	0.00244934	0.00149871	0.00138435	0.00141335	0.00139406	0.00136473	0.00114623	0.00102267	0.3707	0.994862	0.00102269	0.00102269	0.390797	0.354078	0.00107355	0.00102332	0.664008	0.315798	0.335237	0.00102456	0.785393	0.748219	0.405622	0.999191	0.999308	0.0742596	0.00109454	0.999	0.999027	0.410703	0.269129	0.370882	0.0578351	0.00136539	0.0010485	0.0352249	0.00143473	0.494692	0.349154	0.386466	0.605704	0.00103317	0.176662	0.402865	0.193864	0.406021	
3.555	0.00280274	0.00147286	0.00147114	0.00160169	0.00154203	0.00297016	0.00274905	0.00287831	0.00141435	0.00138138	0.00134373	0.00121313	0.00196544	0.00210627	0.00297486	0.0028816	0.0028146	0.00309139	0.00287842	0.00284492	0.0011869	0.00310268	0.00283922	0.00182083	0.00279444	0.00119134	0.00119131	0.00282847	0.00131167	0.00271723	0.0029309	0.00280785	0.00226037	0.00194393	0.00244934	0.00149871	0.00138435	0.00141335	0.00139406	0.00136473	0.0264544	0.00102267	0.39399	0.996324	0.00102268	0.00102268	0.398355	0.353115	0.00107355	0.00102332	0.663972	0.340547	0.361168	0.00102369	0.777023	0.744483	0.411123	0.999191	0.999308	0.00881983	0.00108622	0.999	0.999027	0.393618	0.470309	0.371426	0.0608513	0.00130468	0.0010485	0.085133	0.00143465	0.499794	0.355219	0.413556	0.605443	0.00101521	0.176265	0.392036	0.214139	0.393064	
3.56	0.00280274	0.00147286	0.00147114	0.00160169	0.00154203	0.00297016	0.00274905	0.00287831	0.00141435	0.00138138	0.00134373	0.00121313	0.00196544	0.00210627	0.00297486	0.0028816	0.0028146	0.00309139	0.00287842	0.00284492	0.0011869	0.00310268	0.00283922	0.00182083	0.00279444	0.00119134	0.00119131	0.00282847	0.00131167	0.00271723	0.0029309	0.00280785	0.00226037	0.00194393	0.00244934	0.00149871	0.00138435	0.00141335	0.00139406	0.00136473	0.0751736	0.0120188	0.305079	0.910433	0.00106017	0.00102267	0.404873	0.352157	0.00107355	0.00102332	0.66498	0.361382	0.387143	0.00102321	0.760929	0.734578	0.415509	0.999191	0.999308	0.0021418	0.00108294	0.999	0.911502	0.374656	0.662071	0.372084	0.0636083	0.00122501	0.0010485	0.122953	0.00143463	0.501365	0.360372	0.440882	0.591163	0.00100811	0.176557	0.381452	0.221809	0.380233	
3.565	0.00280274	0.00147286	0.00147114	0.00160169	0.00154203	0.00297016	0.00274905	0.00287831	0.00141435	0.00138138	0.00134373	0.00121313	0.00196544	0.00210627	0.00297486	0.0028816	0.0028146	0.00309139	0.00287842	0.00284492	0.0011869	0.00310268	0.00283922	0.00182083	0.00279444	0.00119134	0.00119131	0.00282847	0.00131167	0.00271723	0.0029309	0.00280785	0.00226037	0.00194393	0.00244934	0.00149871	0.00138435	0.00141335	0.00139406	0.00136473	0.111624	0.0121706	0.208549	0.796589	0.00106068	0.00102267	0.410403	0.351163	0.00107355	0.00102332	0.664974	0.378201	0.412996	0.00102296	0.739032	0.719723	0.418887	0.999191	0.999308	0.00156581	0.00108167	0.999	0.539363	0.354986	0.798101	0.372954	0.0660773	0.00185266	0.0010485	0.128825	0.00143462	0.500152	0.364717	0.469157	0.542351	0.00100532	0.177689	0.370704	0.213892	0.367081	
3.57	0.00280274	0.00147286	0.00147114	0.00160169	0.00154203	0.00297016	0.00274905	0.00287831	0.00141435	0.00138138	0.00134373	0.00121313	0.00196544	0.00210627	0.00297486	0.0028816	0.0028146	0.00309139	0.00287842	0.00284492	0.0011869	0.00310268	0.00283922	0.00182083	0.00279444	0.00119134	0.00119131	0.00282847	0.00131167	0.00271723	0.0029309	0.00280785	0.00226037	0.00194393	0.00244934	0.00149871	0.00138435	0.00141335	0.00139406	0.00136473	0.14404	0.00949957	0.139822	0.685189	0.00105157	0.00102267	0.414978	0.350098	0.00107355	0.00102332	0.66987	0.391338	0.438581	0.00102282	0.713634	0.701511	0.421335	0.999191	0.999308	0.00151976	0.00108118	0.999	0.220315	0.335974	0.884014	0.374321	0.0682792	0.00218915	0.0010485	0.127496	0.00143462	0.496811	0.368356	0.492361	0.443085	0.00100423	0.180648	0.35925	0.187022	0.353248	
3.575	0.00280274	0.00147286	0.00147114	0.00160169	0.00154203	0.00297016	0.00274905	0.00287831	0.00141435	0.00138138	0.00134373	0.00121313	0.00196544	0.00210627	0.00297486	0.0028816	0.0028146	0.00309139	0.00287842	0.00284492	0.0011869	0.00310268	0.00283922	0.00182083	0.00279444	0.00119134	0.00119131	0.00282847	0.00131167	0.00271723	0.0029309	0.00280785	0.00226037	0.00194393	0.00244934	0.00149871	0.00138435	0.00141335	0.00139406	0.00136473	0.153324	0.0147812	0.0884329	0.549396	0.0010422	0.00102267	0.418638	0.348941	0.00107355	0.00102332	0.668292	0.401073	0.463781	0.00102275	0.685651	0.680626	0.422888	0.999191	0.857988	0.00151624	0.001081	0.999	0.0632805	0.317499	0.935005	0.376188	0.0702557	0.00198148	0.0010485	0.128437	0.00143462	0.491761	0.371343	0.516021	0.376552	0.00100381	0.183672	0.347134	0.145446	0.338894	
3.58	0.00280274	0.00147286	0.00147114	0.00160169	0.00154203	0.00297016	0.00274905	0.00287831	0.00141435	0.00138138	0.00134373	0.00121313	0.00196544	0.00210627	0.00297486	0.0028816	0.0028146	0.00309139	0.00287842	0.00284492	0.0011869	0.00310268	0.00283922	0.00182083	0.00279444	0.00119134	0.00119131	0.00282847	0.00131167	0.00271723	0.0029309	0.00280785	0.00226037	0.00194393	0.00244934	0.00149871	0.00138435	0.00141335	0.00139406	0.00136473	0.130426	0.0127938	0.0539748	0.443534	0.00103505	0.00102267	0.421417	0.347673	0.00107355	0.00102332	0.670233	0.407826	0.488497	0.00102271	0.655752	0.657584	0.423568	0.999191	0.67742	0.00151598	0.00108093	0.999	0.0161984	0.299732	0.964112	0.378829	0.0720671	0.0016933	0.0211865	0.121643	0.00143462	0.485456	0.373756	0.536678	0.324872	0.00100365	0.187701	0.334062	0.093966	0.32385	
3.585	0.00280274	0.00147286	0.00147114	0.00160169	0.00154203	0.00297016	0.00274905	0.00287831	0.00141435	0.00138138	0.00134373	0.00121313	0.00196544	0.00210627	0.00297486	0.0028816	0.0028146	0.00309139	0.00287842	0.00284492	0.0011869	0.00310268	0.00283922	0.00182083	0.00279444	0.00119134	0.00119131	0.00282847	0.00131167	0.00271723	0.0029309	0.00280785	0.00226037	0.00194393	0.00244934	0.00149871	0.00138435	0.00141335	0.00139406	0.00136473	0.0931354	0.00942156	0.0322436	0.369225	0.0010302	0.00102267	0.423358	0.346275	0.00107355	0.00102332	0.673147	0.412082	0.512647	0.00102269	0.624157	0.632703	0.423406	0.999191	0.694435	0.00151596	0.0010809	0.999	0.00462702	0.282117	0.980284	0.382193	0.0737785	0.00177961	0.045232	0.114457	0.00143462	0.478163	0.375638	0.552251	0.294308	0.00100358	0.193079	0.320136	0.0285177	0.308283	
3.59	0.00280274	0.00147286	0.00147114	0.00160169	0.00154203	0.00297016	0.00274905	0.00287831	0.00141435	0.00138138	0.00134373	0.00121313	0.00196544	0.00210627	0.00297486	0.0028816	0.0028146	0.00309139	0.00287842	0.00284492	0.0011869	0.00310268	0.00283922	0.00182083	0.00279444	0.00119134	0.00119131	0.00282847	0.00131167	0.00271723	0.0029309	0.00280785	0.00226037	0.00194393	0.00244934	0.00149871	0.00138435	0.00141335	0.00139406	0.00136473	0.0611718	0.00651304	0.0468977	0.464745	0.00102712	0.00102267	0.424616	0.3449	0.00107355	0.00102332	0.676229	0.414313	0.536166	0.00102268	0.591578	0.606548	0.422443	0.999191	0.824489	0.00151596	0.00108089	0.999	0.00273163	0.273489	0.989092	0.386465	0.0755016	0.00214939	0.0129947	0.0464995	0.655356	0.471718	0.377338	0.561617	0.215463	0.00100356	0.199807	0.302448	0.0342697	0.289406	
3.595	0.00280274	0.00147286	0.00147114	0.00160169	0.00154203	0.00297016	0.00274905	0.00287831	0.00141435	0.00138138	0.00134373	0.00121313	0.00196544	0.00210627	0.00297486	0.0028816	0.0028146	0.00309139	0.00287842	0.00284492	0.0011869	0.00310268	0.00283922	0.00182083	0.00279444	0.00119134	0.00119131	0.00282847	0.00131167	0.00271723	0.0029309	0.00280785	0.00226037	0.00194393	0.00244934	0.00149871	0.00138435	0.00141335	0.00139406	0.00136473	0.0383359	0.00443076	0.0395178	0.377475	0.00173714	0.00102267	0.425477	0.343969	0.00107355	0.00102332	0.680016	0.415007	0.559004	0.00102267	0.562095	0.581628	0.420614	0.999191	0.982624	0.00151596	0.00108089	0.999	0.00801125	0.277495	0.969077	0.391719	0.0773266	0.00281509	0.00352068	0.0135254	0.887668	0.469644	0.379502	0.564131	0.14316	0.00100355	0.208328	0.28252	0.00436378	0.268678	
3.6	0.00280274	0.00147286	0.00147114	0.00160169	0.00154203	0.00297016	0.00274905	0.00287831	0.00141435	0.00138138	0.00134373	0.00121313	0.00196544	0.00210627	0.00297486	0.0028816	0.0028146	0.00309139	0.00287842	0.00284492	0.0011869	0.00310268	0.00283922	0.00182083	0.00279444	0.00119134	0.00119131	0.00282847	0.00131167	0.00271723	0.0029309	0.00280785	0.00226037	0.00194393	0.00244934	0.00149871	0.00138435	0.00141335	0.00139406	0.00136473	0.0233953	0.00306706	0.0282665	0.26395	0.00807191	0.00102267	0.426199	0.344012	0.00107355	0.00102332	0.684964	0.414616	0.580756	0.00102267	0.543989	0.562434	0.417988	0.999191	0.997992	0.00151596	0.00108088	0.999	0.00218496	0.285988	0.947255	0.397598	0.0793883	0.00252954	0.00150562	0.00405846	0.963317	0.473344	0.382724	0.559858	0.33587	0.00100354	0.218274	0.261486	0.0802228	0.247172	
3.605	0.00280274	0.00147286	0.00147114	0.00160169	0.00154203	0.00297016	0.00274905	0.00287831	0.00141435	0.00138138	0.00134373	0.00121313	0.00196544	0.00210627	0.00297486	0.0028816	0.0028146	0.00309139	0.00287842	0.00284492	0.0011869	0.00310268	0.00283922	0.00182083	0.00279444	0.00119134	0.00119131	0.00282847	0.00131167	0.00271723	0.0029309	0.00280785	0.00226037	0.00194393	0.00244934	0.00149871	0.00138435	0.00141335	0.00139406	0.00136473	0.0141161	0.00221957	0.0187526	0.170956	0.00798571	0.00102267	0.427012	0.345272	0.00107355	0.00102332	0.689663	0.413411	0.601261	0.00102267	0.535248	0.550775	0.41465	0.999191	0.999214	0.00151596	0.00108088	0.999	0.00117255	0.288357	0.916155	0.403829	0.0817324	0.0020826	0.00112791	0.00175813	0.987846	0.481676	0.387288	0.549019	0.547844	0.00100354	0.229515	0.240179	0.00906347	0.225664	
3.61	0.00280274	0.00147286	0.00147114	0.00160169	0.00154203	0.00297016	0.00274905	0.00287831	0.00141435	0.00138138	0.00134373	0.00121313	0.00196544	0.00210627	0.00297486	0.0028816	0.0028146	0.00309139	0.00287842	0.00284492	0.0011869	0.00310268	0.00283922	0.00182083	0.00279444	0.00119134	0.00119131	0.00282847	0.00131167	0.00271723	0.0029309	0.00280785	0.00226037	0.00194393	0.00244934	0.00149871	0.00138435	0.00141335	0.00139406	0.00136473	0.00854792	0.00171078	0.0119972	0.105754	0.00627074	0.00102267	0.428046	0.347643	0.00107355	0.00102332	0.693352	0.411443	0.620422	0.00102267	0.534011	0.545382	0.410675	0.999191	0.999302	0.00151596	0.00108088	0.999	0.0411361	0.285963	0.877742	0.409296	0.0843255	0.00170999	0.00106176	0.00124343	0.980951	0.493668	0.393046	0.532371	0.712272	0.00100354	0.242848	0.219197	0.0401637	0.204706	
3.615	0.00280274	0.00147286	0.00147114	0.00160169	0.00154203	0.00297016	0.00274905	0.00287831	0.00141435	0.00138138	0.00134373	0.00121313	0.00196544	0.00210627	0.00297486	0.0028816	0.0028146	0.00309139	0.00287842	0.00284492	0.0011869	0.00310268	0.00283922	0.00182083	0.00279444	0.00119134	0.00119131	0.00282847	0.00131167	0.00271723	0.0029309	0.00280785	0.00226037	0.00194393	0.00244934	0.00149871	0.00138435	0.00141335	0.00139406	0.00136473	0.00528735	0.00141274	0.00759298	0.0635311	0.0175933	0.00102267	0.429309	0.351026	0.00107355	0.00102332	0.694613	0.408736	0.638266	0.00102267	0.538719	0.545158	0.406135	0.999191	0.999308	0.00151596	0.00108088	0.999	0.0753184	0.279926	0.84195	0.41347	0.0871054	0.00145055	0.00105065	0.0011338	0.973046	0.508497	0.399861	0.513266	0.824259	0.00100354	0.256656	0.198958	0.00500555	0.184673	
3.62	0.00280274	0.00147286	0.00147114	0.00160169	0.00154203	0.00297016	0.00274905	0.00287831	0.00141435	0.00138138	0.00134373	0.00121313	0.00196544	0.00210627	0.00297486	0.0028816	0.0028146	0.00309139	0.00287842	0.00284492	0.0011869	0.00310268	0.00283922	0.00182083	0.00279444	0.00119134	0.00119131	0.00282847	0.00131167	0.00271723	0.0029309	0.00280785	0.00226037	0.00194393	0.00244934	0.00149871	0.00138435	0.00141335	0.00139406	0.00136473	0.00341257	0.00124131	0.00486374	0.0374791	0.0164744	0.00102267	0.430789	0.355327	0.00107355	0.00102332	0.694749	0.404769	0.654733	0.00102267	0.548066	0.54916	0.401094	0.999191	0.999308	0.00151596	0.00108088	0.999	0.03306	0.271166	0.806098	0.414487	0.089946	0.00128499	0.00104884	0.00111121	0.965989	0.525471	0.407607	0.484775	0.895508	0.00100354	0.271136	0.179741	0.0192706	0.165807	
3.625	0.00280274	0.00147286	0.00147114	0.00160169	0.00154203	0.00297016	0.00274905	0.00287831	0.00141435	0.00138138	0.00134373	0.00121313	0.00196544	0.00210627	0.00297486	0.0028816	0.0028146	0.00309139	0.00287842	0.00284492	0.0011869	0.00310268	0.00283922	0.00182083	0.00279444	0.00119134	0.00119131	0.00282847	0.00131167	0.00271723	0.0029309	0.00280785	0.00226037	0.00194393	0.00244934	0.00149871	0.00138435	0.00141335	0.00139406	0.00136473	0.00234974	0.0011441	0.0032285	0.0219188	0.0124308	0.00102267	0.432451	0.360461	0.00107355	0.00102332	0.693901	0.399799	0.669948	0.00102267	0.560964	0.556579	0.395613	0.999191	0.999308	0.00151596	0.00108088	0.999	0.0248265	0.26043	0.761576	0.413483	0.0928124	0.00118463	0.00104855	0.00110666	0.959095	0.544005	0.416169	0.456195	0.938971	0.00100354	0.285325	0.161767	0.00291627	0.148253	
3.63	0.00280274	0.00147286	0.00147114	0.00160169	0.00154203	0.00297016	0.00274905	0.00287831	0.00141435	0.00138138	0.00134373	0.00121313	0.00196544	0.00210627	0.00297486	0.0028816	0.0028146	0.00309139	0.00287842	0.00284492	0.0011869	0.00310268	0.00283922	0.00182083	0.00279444	0.00119134	0.00119131	0.00282847	0.00131167	0.00271723	0.0029309	0.00280785	0.00226037	0.00194393	0.00244934	0.00149871	0.00138435	0.00141335	0.00139406	0.00136473	0.00175397	0.0010896	0.00227198	0.0128389	0.0276281	0.00102267	0.434151	0.366346	0.00107355	0.00102332	0.688971	0.393854	0.684079	0.00102267	0.57651	0.566721	0.389747	0.999191	0.999308	0.00151596	0.00108088	0.999	0.0829091	0.248328	0.705202	0.410698	0.0956365	0.00112584	0.00104851	0.00110576	0.951937	0.563612	0.425441	0.427905	0.964734	0.00100354	0.298966	0.145144	0.00124235	0.132076	
3.635	0.00280274	0.00147286	0.00147114	0.00160169	0.00154203	0.00297016	0.00274905	0.00287831	0.00141435	0.00138138	0.00134373	0.00121313	0.00196544	0.00210627	0.00297486	0.0028816	0.0028146	0.00309139	0.00287842	0.00284492	0.0011869	0.00310268	0.00283922	0.00182083	0.00279444	0.00119134	0.00119131	0.00282847	0.00131167	0.00271723	0.0029309	0.00280785	0.00226037	0.00194393	0.00244934	0.00149871	0.00138435	0.00141335	0.00139406	0.00136473	0.00142307	0.00105932	0.00172244	0.00763248	0.0375489	0.00102267	0.435361	0.372908	0.00107355	0.00102332	0.678454	0.386368	0.6974	0.00102267	0.593957	0.578996	0.383546	0.999191	0.999308	0.00151596	0.00108088	0.999	0.0878685	0.235347	0.634306	0.404056	0.0982179	0.00109222	0.0010485	0.00110558	0.946382	0.583889	0.435044	0.392165	0.979688	0.00100354	0.311952	0.129958	0.00111589	0.117289	
3.64	0.00280274	0.00147286	0.00147114	0.00160169	0.00154203	0.00297016	0.00274905	0.00287831	0.00141435	0.00138138	0.00134373	0.00121313	0.00196544	0.00210627	0.00297486	0.0028816	0.0028146	0.00309139	0.00287842	0.00284492	0.0011869	0.00310268	0.00283922	0.00182083	0.00279444	0.00119134	0.00119131	0.00282847	0.00131167	0.00271723	0.0029309	0.00280785	0.00226037	0.00194393	0.00244934	0.00149871	0.00138435	0.00141335	0.00139406	0.00136473	0.00124069	0.00104263	0.00141108	0.00468743	0.0312227	0.00102267	0.435269	0.380076	0.00107355	0.00102332	0.47095	0.376247	0.709099	0.00102267	0.612694	0.592899	0.377058	0.999191	0.999308	0.00151596	0.00108088	0.999	0.0255667	0.22188	0.719221	0.384351	0.100101	0.00107334	0.0010485	0.00110555	0.94072	0.599486	0.442532	0.353232	0.988231	0.00100354	0.311587	0.116165	0.00110743	0.103865	
3.645	0.00280274	0.00147286	0.00147114	0.00160169	0.00154203	0.00297016	0.00274905	0.00287831	0.00141435	0.00138138	0.00134373	0.00121313	0.00196544	0.00210627	0.00297486	0.0028816	0.0028146	0.00309139	0.00287842	0.00284492	0.0011869	0.00310268	0.00283922	0.00182083	0.00279444	0.00119134	0.00119131	0.00282847	0.00131167	0.00271723	0.0029309	0.00280785	0.00226037	0.00194393	0.00244934	0.00149871	0.00138435	0.00141335	0.00139406	0.00136473	0.00114082	0.00103349	0.00123664	0.0030396	0.0222571	0.00102267	0.434007	0.387786	0.00107355	0.00102332	0.415969	0.363995	0.719957	0.00102267	0.632221	0.608006	0.370326	0.999191	0.999308	0.00151596	0.00108088	0.999	0.00822777	0.208234	0.65402	0.356836	0.101325	0.00106289	0.0010485	0.00110554	0.935594	0.611403	0.448314	0.314118	0.993049	0.00100354	0.302966	0.103686	0.0011069	0.0917499	
