CEINMS output
datacolumns 80
datarows 95
endheader
time	addbrev_r	addlong_r	addmagDist_r	addmagIsch_r	addmagMid_r	addmagProx_r	bflh_r	bfsh_r	edl_r	ehl_r	fdl_r	fhl_r	gaslat_r	gasmed_r	glmax1_r	glmax2_r	glmax3_r	glmed1_r	glmed2_r	glmed3_r	glmin1_r	glmin2_r	glmin3_r	grac_r	iliacus_r	perbrev_r	perlong_r	psoas_r	recfem_r	sart_r	semimem_r	semiten_r	soleus_r	tfl_r	tibant_r	tibpost_r	vasint_r	vaslat_r	vasmed_r	addbrev_l	addlong_l	addmagDist_l	addmagIsch_l	addmagMid_l	addmagProx_l	bflh_l	bfsh_l	edl_l	ehl_l	fdl_l	fhl_l	gaslat_l	gasmed_l	glmax1_l	glmax2_l	glmax3_l	glmed1_l	glmed2_l	glmed3_l	glmin1_l	glmin2_l	glmin3_l	grac_l	iliacus_l	perbrev_l	perlong_l	psoas_l	recfem_l	sart_l	semimem_l	semiten_l	soleus_l	tfl_l	tibant_l	tibpost_l	vasint_l	vaslat_l	vasmed_l	piri_r	
2.075	0.0434207	0.173155	0.126212	0.287089	0.0626528	0.0467425	0.302309	0.0998624	0.384835	0.346038	0.401764	0.384069	0.362014	0.42555	0.0361142	0.0477505	0.0583887	0.0417153	0.0572779	0.0397752	0.000851205	0.0203771	0.0491297	0.198949	0.0774791	0.14478	0.358364	0.0832721	0.530828	0.102423	0.342502	0.235149	0.297999	0.4366	0.241274	0.290022	0.236819	0.285479	0.264427	0.0290224	0.121322	0.0793704	0.225163	-0.00717188	-0.0574977	0.317167	0.0759643	0.340602	0.312678	0.380972	0.354106	0.350606	0.363694	0.0339295	0.0476046	0.0513585	0.0348703	0.0462383	0.0340494	-0.0140866	0.0208965	0.0447373	0.152153	0.0173843	0.149266	0.336552	0.0378714	0.469786	0.0943122	0.343786	0.189533	0.261293	0.421382	0.201735	0.275597	0.231622	0.249621	0.227002	0.113205	
2.08	0.043566	0.173227	0.126143	0.286843	0.0628904	0.0470666	0.301443	0.0996574	0.384124	0.345338	0.401565	0.383767	0.361167	0.424559	0.036177	0.04785	0.0584337	0.0422524	0.0574946	0.0399324	0.0013392	0.0205096	0.0493592	0.198704	0.0774864	0.144682	0.358222	0.0832727	0.532747	0.102377	0.341273	0.234098	0.297339	0.437808	0.24172	0.290127	0.239494	0.288193	0.265157	0.0290155	0.121354	0.0791201	0.224594	-0.00844537	-0.058149	0.317625	0.0763005	0.340967	0.313045	0.380888	0.353962	0.351283	0.364678	0.0338993	0.0475529	0.0512656	0.0363149	0.046281	0.0340282	-0.0127313	0.0210723	0.0449146	0.152388	0.0191821	0.149219	0.336453	0.0390855	0.469414	0.0946041	0.34482	0.189777	0.260885	0.424835	0.202025	0.275477	0.231133	0.249175	0.226582	0.113348	
2.085	0.0438942	0.174045	0.126205	0.286768	0.0631976	0.0474136	0.30139	0.0996651	0.383217	0.344463	0.40138	0.383475	0.360511	0.423651	0.0365623	0.04846	0.0589712	0.042814	0.0578661	0.0402465	0.00185122	0.0207814	0.0496373	0.199632	0.0775497	0.144609	0.358126	0.0838134	0.535323	0.102643	0.340481	0.234537	0.296871	0.439223	0.242637	0.290404	0.242136	0.290911	0.265459	0.0290167	0.121383	0.0788863	0.224079	-0.00971959	-0.0587682	0.318047	0.0764843	0.341261	0.313315	0.380818	0.35385	0.351842	0.365504	0.0338867	0.0475311	0.0512004	0.0376864	0.0462864	0.0340143	-0.011427	0.0212256	0.0450583	0.152558	0.0209827	0.149188	0.336376	0.0403042	0.468908	0.094733	0.345806	0.18991	0.260535	0.428168	0.20222	0.275362	0.230791	0.248866	0.226291	0.113486	
2.09	0.0441586	0.174823	0.126197	0.286815	0.0634646	0.0477197	0.301445	0.0996422	0.381506	0.342801	0.401209	0.383201	0.360102	0.422755	0.0366898	0.0487713	0.059269	0.0433962	0.0579486	0.040341	0.00237229	0.0208428	0.0496295	0.200333	0.0776196	0.14455	0.358052	0.0844446	0.538233	0.102979	0.339773	0.235048	0.296508	0.44047	0.243575	0.290732	0.244753	0.293473	0.26508	0.0290177	0.121405	0.0786404	0.223581	-0.0109966	-0.0593585	0.318442	0.0766625	0.341523	0.313541	0.380759	0.353762	0.352342	0.366262	0.0338755	0.0475114	0.0511367	0.0382671	0.0462868	0.034002	-0.0101879	0.0213626	0.0451918	0.15272	0.0227746	0.149167	0.336317	0.0415209	0.468296	0.0948565	0.346745	0.190021	0.260212	0.430972	0.202385	0.275248	0.230514	0.248597	0.226053	0.113515	
2.095	0.0443088	0.175266	0.125781	0.286951	0.0636258	0.0479175	0.30129	0.0995616	0.379896	0.341272	0.401056	0.382953	0.35965	0.421828	0.0366285	0.0487294	0.0592297	0.0439977	0.0577111	0.0401876	0.00289209	0.0208062	0.0493469	0.200484	0.0776606	0.144501	0.357984	0.0849188	0.54116	0.103263	0.338987	0.235125	0.296196	0.441436	0.24431	0.291032	0.24736	0.29474	0.264546	0.0290183	0.121424	0.0783844	0.223092	-0.0122783	-0.059923	0.318798	0.0768617	0.341779	0.313762	0.380706	0.353684	0.352836	0.36702	0.0338636	0.0474907	0.0510726	0.0382725	0.0462871	0.0339875	-0.00902632	0.0214702	0.0453128	0.152882	0.0245475	0.149149	0.336266	0.0427301	0.467608	0.0949917	0.347614	0.190131	0.259898	0.432385	0.202551	0.275136	0.230232	0.248322	0.225809	0.11342	
2.1	0.0443938	0.175442	0.124863	0.287158	0.0636989	0.0480138	0.300968	0.0994527	0.379019	0.340472	0.400925	0.38274	0.359063	0.420273	0.0365585	0.0486078	0.0590861	0.044622	0.0574219	0.0399815	0.0034061	0.020839	0.0490596	0.200367	0.0776648	0.144463	0.357923	0.0851981	0.543905	0.103473	0.338164	0.234968	0.295925	0.442234	0.244818	0.291284	0.249988	0.294965	0.26423	0.029019	0.121443	0.0781259	0.222617	-0.0135664	-0.0604646	0.319097	0.0770676	0.342029	0.313981	0.380656	0.35361	0.35333	0.367778	0.0338516	0.0474699	0.051009	0.0382485	0.0462853	0.0339684	-0.00795273	0.0215381	0.0454146	0.15304	0.0262923	0.149131	0.336219	0.0439266	0.466879	0.0951331	0.348374	0.190232	0.259599	0.432763	0.202717	0.275027	0.22994	0.248034	0.225556	0.113276	
2.105	0.044453	0.175484	0.123891	0.28743	0.0637352	0.0480459	0.300602	0.0992121	0.378745	0.340237	0.400821	0.382567	0.358361	0.418545	0.0365104	0.0485237	0.0589679	0.0452816	0.057208	0.0398116	0.00391275	0.0208597	0.0488514	0.200236	0.07765	0.144439	0.357875	0.0853357	0.546384	0.103611	0.33737	0.234809	0.29571	0.442963	0.245162	0.291498	0.252658	0.29489	0.264128	0.0290194	0.12146	0.0778712	0.222158	-0.014862	-0.0609858	0.319324	0.0772703	0.342264	0.314189	0.380609	0.35354	0.353807	0.368515	0.0338394	0.047449	0.0509468	0.0382565	0.0462812	0.0339036	-0.00697578	0.0215609	0.0454947	0.153188	0.0280009	0.149115	0.336174	0.0451064	0.466155	0.0952801	0.348994	0.190321	0.259322	0.43287	0.202876	0.274924	0.229658	0.24775	0.22531	0.113143	
2.11	0.0444958	0.175472	0.123302	0.28776	0.0637687	0.0480416	0.300261	0.0987532	0.378709	0.340207	0.400748	0.382443	0.357595	0.416775	0.0364649	0.0484568	0.0588739	0.0459892	0.0570572	0.0396845	0.00441155	0.0208174	0.0487047	0.200157	0.0776307	0.144432	0.357846	0.0853874	0.548499	0.103683	0.336609	0.234699	0.295568	0.443639	0.245405	0.291687	0.255374	0.294868	0.264115	0.0290193	0.121475	0.0776275	0.221716	-0.0161659	-0.0614887	0.319466	0.0774597	0.342479	0.314382	0.380566	0.353478	0.354259	0.369216	0.0338272	0.0474282	0.050886	0.0382597	0.0462752	0.0337364	-0.00610245	0.0215583	0.0455528	0.153322	0.0296667	0.149101	0.336135	0.0462662	0.465485	0.0954312	0.349452	0.190393	0.259074	0.4331	0.203023	0.274828	0.229398	0.247485	0.225081	0.113038	
2.115	0.0445203	0.175431	0.123088	0.288142	0.0638078	0.048016	0.299943	0.0980604	0.378689	0.340182	0.400711	0.382371	0.356801	0.414971	0.0364195	0.048384	0.0587855	0.0461908	0.0569439	0.0395851	0.00490256	0.0207423	0.0485986	0.200098	0.077608	0.144445	0.357839	0.0853875	0.550031	0.103699	0.335858	0.234603	0.295514	0.444242	0.245585	0.291863	0.258124	0.294899	0.264114	0.0290187	0.121489	0.0773999	0.221291	-0.0174783	-0.0619741	0.319515	0.0776428	0.34267	0.314555	0.380528	0.353424	0.354681	0.369877	0.0338151	0.0474075	0.0508269	0.0382586	0.0462673	0.0334543	-0.00533817	0.021555	0.0455897	0.153437	0.0312841	0.149089	0.336101	0.0474037	0.464929	0.0955842	0.349736	0.190447	0.258858	0.433463	0.203155	0.274741	0.229174	0.247253	0.224884	0.112949	
2.12	0.0445259	0.175364	0.123026	0.288578	0.0638493	0.047978	0.299595	0.0971567	0.378636	0.340125	0.400712	0.382356	0.355993	0.413144	0.036378	0.0483069	0.0587033	0.0461735	0.056863	0.0395095	0.00538653	0.0206644	0.0485259	0.200025	0.077578	0.14448	0.35786	0.0853531	0.551447	0.103673	0.335111	0.234484	0.29556	0.444753	0.245717	0.29203	0.260896	0.294914	0.264105	0.0290176	0.1215	0.0771896	0.220886	-0.0187984	-0.0624423	0.319465	0.0778274	0.342834	0.314704	0.380497	0.35338	0.355076	0.370495	0.0338029	0.047387	0.0507695	0.0382572	0.0462573	0.0330752	-0.00468685	0.0215523	0.0456062	0.153526	0.0328492	0.14908	0.336074	0.0485173	0.46454	0.0957362	0.349854	0.190479	0.258678	0.433869	0.203269	0.274666	0.228985	0.247058	0.224721	0.11286	
2.125	0.0445157	0.175269	0.122999	0.289075	0.0638915	0.0479341	0.299178	0.0960751	0.378666	0.340115	0.400753	0.3824	0.355177	0.411301	0.0363407	0.0482325	0.0586306	0.0461688	0.0568099	0.0394564	0.00586504	0.0205929	0.0484798	0.19995	0.0775367	0.144537	0.357911	0.0852938	0.552551	0.103616	0.334348	0.234308	0.295715	0.445164	0.245806	0.292173	0.2637	0.294911	0.264105	0.029016	0.12151	0.0769959	0.220502	-0.020125	-0.0628923	0.319313	0.0780115	0.342964	0.314823	0.380474	0.353349	0.355447	0.371074	0.0337908	0.0473668	0.0507137	0.0382548	0.046246	0.032625	-0.00415102	0.0215494	0.0456037	0.153588	0.0343589	0.149075	0.336055	0.0496062	0.46435	0.0958842	0.349842	0.19049	0.258537	0.434271	0.20336	0.274604	0.228822	0.2469	0.22459	0.11274	
2.13	0.0444942	0.175149	0.122995	0.289648	0.0639362	0.0478891	0.298721	0.094845	0.378966	0.34035	0.400833	0.382504	0.35436	0.409454	0.0363068	0.0481649	0.0585661	0.0461773	0.0567761	0.0394205	0.00634051	0.0205264	0.0484516	0.19989	0.0774802	0.144619	0.357994	0.0852163	0.553382	0.103539	0.333398	0.234094	0.295987	0.44547	0.245848	0.292261	0.266563	0.294914	0.264123	0.0290138	0.121519	0.0768188	0.220137	-0.0214557	-0.0633221	0.31906	0.0781893	0.343058	0.314908	0.380459	0.35333	0.355801	0.37162	0.0337789	0.0473469	0.0506593	0.0382506	0.0462333	0.0321264	-0.00373189	0.0215464	0.0455837	0.15362	0.0358118	0.149072	0.336044	0.0506706	0.464368	0.0960259	0.349775	0.190477	0.25844	0.434667	0.203425	0.274558	0.228668	0.24677	0.224485	0.112576	
2.135	0.044465	0.175006	0.123015	0.290314	0.0639884	0.0478463	0.298275	0.0934853	0.379358	0.340665	0.400953	0.382668	0.353552	0.407616	0.0362766	0.0481048	0.0585084	0.0461813	0.0567552	0.0393963	0.00681605	0.0204642	0.0484345	0.199847	0.0774042	0.144726	0.358112	0.0851262	0.553995	0.103452	0.332223	0.23389	0.296379	0.44567	0.245843	0.29226	0.268672	0.294918	0.264143	0.0290113	0.121526	0.0766571	0.219787	-0.0227872	-0.0637283	0.318708	0.0783556	0.343112	0.314955	0.380454	0.353326	0.356148	0.372142	0.033767	0.0473274	0.0506059	0.0382444	0.0462194	0.0315978	-0.00342939	0.0215436	0.0455476	0.153623	0.0372075	0.149074	0.336042	0.0517112	0.464592	0.0961618	0.349704	0.190441	0.258389	0.435064	0.203461	0.27453	0.228487	0.246661	0.224402	0.112366	
2.14	0.0444306	0.174848	0.123046	0.291099	0.0640538	0.0478071	0.297891	0.092012	0.379658	0.340888	0.401113	0.382891	0.352769	0.4058	0.0362502	0.0480505	0.0584577	0.0461838	0.0567434	0.0393801	0.00729567	0.0204127	0.0484249	0.19982	0.077304	0.144824	0.358261	0.085028	0.554642	0.103359	0.330909	0.233754	0.296895	0.445765	0.245789	0.292131	0.269263	0.294891	0.264134	0.0290087	0.121534	0.0765101	0.219442	-0.0241155	-0.0641067	0.318263	0.0785054	0.343122	0.31496	0.38046	0.353337	0.356498	0.372653	0.0337554	0.0473084	0.0505532	0.0382362	0.0462046	0.0310536	-0.00324226	0.0215409	0.0454968	0.153596	0.0385468	0.149079	0.33605	0.0527293	0.465018	0.096296	0.349637	0.190384	0.258386	0.435461	0.203463	0.27452	0.228269	0.246575	0.224341	0.112122	
2.145	0.0443926	0.174676	0.123078	0.292027	0.0641406	0.0477725	0.297621	0.0904437	0.379829	0.34099	0.40131	0.38317	0.352028	0.404024	0.0362274	0.0480011	0.0584146	0.0461871	0.0567383	0.0393701	0.00778627	0.020372	0.048421	0.199808	0.0771759	0.144887	0.358421	0.0849253	0.55532	0.103266	0.329581	0.233745	0.297533	0.445757	0.245685	0.291876	0.269118	0.294823	0.264102	0.029006	0.121541	0.0763762	0.219096	-0.0254352	-0.064452	0.317732	0.0786355	0.343087	0.314921	0.380476	0.353364	0.356861	0.373163	0.0337437	0.0472899	0.0505018	0.0382258	0.0461889	0.0305058	-0.00316809	0.0215382	0.0454327	0.153545	0.0398312	0.149088	0.336068	0.0537266	0.465642	0.0964321	0.349522	0.190307	0.258431	0.435857	0.203431	0.274532	0.228048	0.246515	0.224303	0.111876	
2.15	0.0443518	0.174495	0.123773	0.293123	0.0642534	0.0477426	0.297513	0.0888041	0.380064	0.34116	0.401542	0.383504	0.351352	0.402308	0.036208	0.0479566	0.0583793	0.0461908	0.0567378	0.0393658	0.00829821	0.0203392	0.0484216	0.199812	0.0770163	0.144918	0.358564	0.08482	0.555733	0.103175	0.32835	0.233924	0.298199	0.445651	0.245533	0.291567	0.268956	0.294732	0.264109	0.0290037	0.12155	0.0762519	0.218748	-0.0267399	-0.0647577	0.317129	0.0787437	0.343003	0.314835	0.380502	0.353406	0.357243	0.373685	0.0337319	0.0472719	0.0504526	0.0382129	0.0461726	0.0299641	-0.00320336	0.0215357	0.0453574	0.153472	0.0410635	0.149101	0.336096	0.0547051	0.466456	0.0965715	0.34928	0.190213	0.258528	0.436256	0.203363	0.274564	0.227864	0.246487	0.224287	0.111633	
2.155	0.0443084	0.174305	0.1248	0.294144	0.0643921	0.0477177	0.297615	0.0871217	0.380614	0.34161	0.401807	0.383887	0.350765	0.400672	0.0361918	0.0479171	0.0583516	0.0461944	0.0567407	0.0393662	0.00884231	0.0203135	0.0484259	0.199834	0.0768235	0.144936	0.358679	0.0847136	0.555818	0.103088	0.327309	0.234348	0.298601	0.44545	0.245336	0.29128	0.268905	0.294631	0.264181	0.0290019	0.121561	0.0761329	0.218404	-0.0280224	-0.0650169	0.31647	0.0788298	0.342871	0.314703	0.380539	0.353464	0.357654	0.374228	0.0337196	0.0472545	0.0504068	0.0381966	0.0461556	0.0294362	-0.00334354	0.0215333	0.0452723	0.153383	0.0422467	0.149117	0.336134	0.0556671	0.467448	0.0967143	0.348875	0.190104	0.258675	0.436662	0.203259	0.274617	0.227746	0.246492	0.22429	0.111394	
2.16	0.0442626	0.17411	0.125792	0.29451	0.064553	0.0476977	0.297971	0.0854634	0.381344	0.342212	0.402101	0.384317	0.350292	0.399138	0.0361784	0.047883	0.0583309	0.046198	0.0567461	0.0393704	0.00942668	0.0202941	0.048433	0.199876	0.0765973	0.144951	0.358763	0.0846073	0.555494	0.103005	0.326531	0.234854	0.298761	0.445156	0.245099	0.291054	0.268874	0.294526	0.264297	0.029001	0.121575	0.0760164	0.218069	-0.0292744	-0.0652219	0.315774	0.0788942	0.342691	0.314526	0.380585	0.353535	0.3581	0.374802	0.0337058	0.0472376	0.0503645	0.0381751	0.0461381	0.0289277	-0.00358318	0.021531	0.0451798	0.153282	0.0433847	0.149137	0.336181	0.0566146	0.4686	0.0968607	0.348312	0.189983	0.258874	0.437074	0.20312	0.274691	0.227705	0.246526	0.224307	0.111199	
2.165	0.0442145	0.173914	0.126659	0.294539	0.0647342	0.0476826	0.298623	0.0839267	0.382035	0.342765	0.40242	0.384787	0.349957	0.39773	0.0361676	0.047854	0.0583162	0.0462014	0.0567531	0.0393772	0.0100476	0.0202799	0.0484422	0.19994	0.0763391	0.144968	0.358824	0.0845022	0.554735	0.102928	0.32607	0.235209	0.298846	0.444764	0.24483	0.290891	0.26882	0.294423	0.264432	0.0290013	0.121594	0.075903	0.217748	-0.030487	-0.0653649	0.315059	0.0789391	0.342463	0.314306	0.38064	0.353619	0.358588	0.375412	0.0336875	0.0472212	0.0503253	0.038119	0.0461198	0.0284419	-0.00391601	0.0215289	0.0450821	0.153176	0.0444814	0.149159	0.336236	0.0575499	0.469872	0.0970106	0.347608	0.189853	0.259124	0.437489	0.202948	0.274785	0.227741	0.246576	0.224332	0.111054	
2.17	0.0441641	0.173722	0.127452	0.294575	0.0649371	0.0476724	0.299607	0.0825602	0.382585	0.343175	0.402761	0.385292	0.349784	0.396469	0.0361591	0.0478299	0.0583066	0.0462045	0.0567612	0.0393858	0.0106947	0.0202698	0.0484529	0.200032	0.0760532	0.144985	0.35887	0.0843997	0.553586	0.102856	0.325965	0.235454	0.298943	0.444263	0.244537	0.290778	0.268751	0.29435	0.264567	0.0290032	0.121618	0.0757944	0.217441	-0.0316504	-0.0654377	0.314342	0.0789673	0.342193	0.314049	0.380701	0.353712	0.359121	0.376062	0.0335797	0.0472053	0.0502885	0.0379395	0.0461001	0.0279798	-0.00433513	0.021527	0.0449818	0.153069	0.0455413	0.149184	0.336297	0.0584748	0.470854	0.0971638	0.346786	0.189716	0.259421	0.437899	0.202749	0.274895	0.227845	0.246628	0.224359	0.110951	
2.175	0.0441112	0.173541	0.128229	0.294669	0.0651633	0.0476597	0.300639	0.0814069	0.382979	0.343452	0.403119	0.385827	0.349793	0.395374	0.0361524	0.0478101	0.0583011	0.0462069	0.05677	0.0393955	0.0113578	0.0202627	0.0484647	0.200156	0.0757466	0.145002	0.358906	0.0843007	0.552292	0.10279	0.326242	0.235707	0.299058	0.443639	0.244227	0.290701	0.268676	0.294357	0.264697	0.0290071	0.121648	0.0756922	0.217149	-0.0327546	-0.0654322	0.313639	0.0789819	0.341885	0.31376	0.380767	0.353814	0.359704	0.376752	0.0333301	0.0471899	0.0502537	0.0375966	0.0460775	0.0275403	-0.00483312	0.0215252	0.0448806	0.152964	0.0465688	0.14921	0.336364	0.0593914	0.471381	0.0973205	0.345871	0.189576	0.259763	0.438305	0.202527	0.275021	0.228003	0.246673	0.224384	0.110896	
2.18	0.0440561	0.173374	0.129011	0.294778	0.0654023	0.047637	0.301539	0.0805014	0.383238	0.343646	0.40349	0.386387	0.35	0.394464	0.0361473	0.0477941	0.0583906	0.0462087	0.0567791	0.0394057	0.0114802	0.0202579	0.048477	0.20032	0.0754306	0.145019	0.358936	0.0842061	0.550904	0.102712	0.326921	0.236013	0.299173	0.442875	0.243912	0.290649	0.268626	0.294407	0.264848	0.0290131	0.121686	0.0755969	0.216874	-0.0337894	-0.0653409	0.312964	0.0789867	0.341547	0.313448	0.380836	0.35392	0.360335	0.377478	0.0329439	0.0471748	0.0502203	0.0370957	0.0460469	0.0271201	-0.0054023	0.0215235	0.0447798	0.152867	0.0475684	0.149237	0.336435	0.0603011	0.47162	0.0974807	0.344892	0.189436	0.260143	0.438706	0.202289	0.275158	0.228196	0.246707	0.224405	0.110904	
2.185	0.0440008	0.173223	0.129779	0.294894	0.0656367	0.0476006	0.302293	0.0798681	0.383391	0.343797	0.40387	0.386967	0.350415	0.393751	0.0361435	0.0477812	0.0585571	0.0462096	0.056788	0.0394163	0.0114691	0.0202556	0.0484894	0.200529	0.0751208	0.145035	0.358959	0.0841163	0.549312	0.102588	0.328009	0.236347	0.29928	0.441956	0.2436	0.290615	0.26873	0.294481	0.265	0.0290214	0.121732	0.075509	0.216614	-0.0347447	-0.0651565	0.312328	0.0789853	0.341188	0.313121	0.380907	0.354028	0.361012	0.378232	0.0324499	0.0471599	0.0501879	0.036458	0.0459435	0.0267138	-0.00603485	0.0215157	0.0446802	0.15278	0.0485446	0.149265	0.336508	0.0612056	0.471784	0.0976448	0.343877	0.189301	0.260551	0.439103	0.202042	0.275304	0.228407	0.246729	0.224419	0.110997	
2.19	0.0439484	0.17308	0.130481	0.295025	0.0658479	0.0475501	0.30289	0.0795183	0.383465	0.343916	0.404254	0.387558	0.351042	0.393244	0.0361405	0.047772	0.0587339	0.0462094	0.0567964	0.039427	0.0114697	0.0202554	0.0485013	0.200786	0.0748267	0.145053	0.358977	0.0840313	0.547619	0.102414	0.329503	0.236657	0.299376	0.440873	0.243305	0.290591	0.269161	0.294952	0.26533	0.0290323	0.121787	0.0754283	0.216366	-0.0356107	-0.0648727	0.311739	0.0789815	0.340819	0.312786	0.380977	0.354136	0.361728	0.379002	0.0318759	0.0471447	0.0501562	0.0357047	0.0457183	0.0263145	-0.00672301	0.0214824	0.0445827	0.152705	0.0495019	0.149292	0.33658	0.0621062	0.471974	0.0978129	0.342855	0.189173	0.260974	0.439494	0.201791	0.275454	0.22861	0.24674	0.224426	0.111187	
2.195	0.0439008	0.172918	0.130957	0.295174	0.06602	0.0474883	0.303251	0.0794502	0.383484	0.344003	0.404637	0.388153	0.351876	0.392949	0.0361382	0.0477693	0.0589002	0.0462079	0.0568039	0.0394374	0.0114705	0.0202569	0.0485122	0.201097	0.0745522	0.14507	0.35899	0.0839463	0.545788	0.102215	0.33139	0.236894	0.29946	0.439623	0.243041	0.290573	0.269635	0.295322	0.26562	0.0290459	0.121851	0.0753549	0.216131	-0.0363779	-0.0644845	0.311202	0.0789788	0.340452	0.312452	0.381044	0.35424	0.362475	0.379775	0.03124	0.0471287	0.0501253	0.0348523	0.0453651	0.0259139	-0.00745917	0.0214237	0.0444877	0.152645	0.0504445	0.149317	0.336651	0.0630041	0.472197	0.0979854	0.341853	0.189057	0.261402	0.439875	0.201543	0.275603	0.228733	0.24674	0.224425	0.111473	
2.2	0.043858	0.172658	0.131185	0.295343	0.0661412	0.0474199	0.30341	0.0796487	0.383466	0.344057	0.405017	0.388746	0.352908	0.392862	0.0361362	0.0477732	0.0590489	0.0462052	0.0568103	0.0394473	0.0114694	0.0202596	0.0485217	0.201463	0.0742996	0.145088	0.358998	0.0838559	0.543969	0.102024	0.333644	0.237035	0.299529	0.438209	0.242822	0.290559	0.269944	0.29546	0.265865	0.0290623	0.121925	0.0752883	0.21591	-0.0370363	-0.0639881	0.310712	0.0789807	0.340097	0.312129	0.381106	0.354338	0.363239	0.380532	0.0305524	0.0471107	0.0500953	0.0339141	0.0448987	0.0255028	-0.00823599	0.0213444	0.0443958	0.152601	0.0513766	0.149341	0.336717	0.0639006	0.472433	0.0981635	0.340896	0.188953	0.261834	0.440243	0.201303	0.275747	0.228764	0.246727	0.224415	0.111856	
2.205	0.0438185	0.172263	0.130961	0.295489	0.0662208	0.0473509	0.303474	0.0800872	0.383427	0.344077	0.40539	0.389334	0.354122	0.392979	0.0361344	0.0477831	0.0591433	0.0462009	0.0568151	0.0394564	0.0114682	0.0202632	0.0485311	0.20188	0.0740705	0.145105	0.359002	0.0837674	0.542265	0.101889	0.335897	0.237083	0.299579	0.436643	0.242652	0.290545	0.270185	0.295885	0.266265	0.0290814	0.12201	0.0752281	0.215706	-0.0375788	-0.0633812	0.310263	0.0789899	0.339765	0.311826	0.381163	0.354428	0.364005	0.381253	0.0298176	0.0470873	0.0500663	0.0329012	0.0443352	0.0250716	-0.00904641	0.0212488	0.0443071	0.152575	0.0523022	0.149362	0.336778	0.0647966	0.472664	0.098346	0.340005	0.188863	0.262267	0.440595	0.201082	0.275884	0.228737	0.246702	0.224396	0.112348	
2.21	0.0437815	0.171743	0.130094	0.295565	0.0662729	0.0472827	0.303479	0.0807294	0.383381	0.344065	0.405751	0.38991	0.355495	0.393289	0.0361332	0.047798	0.0591796	0.0461952	0.0568183	0.0394643	0.0114667	0.0202673	0.0485449	0.202312	0.0738572	0.145123	0.359001	0.083685	0.540635	0.101847	0.337671	0.237056	0.299609	0.434943	0.24253	0.290529	0.270415	0.296531	0.266747	0.0291035	0.122104	0.075174	0.215523	-0.0380036	-0.0626638	0.309844	0.0790092	0.339466	0.311556	0.381213	0.354507	0.364754	0.381913	0.0290368	0.0469796	0.0500383	0.0318237	0.0436862	0.0246112	-0.00988365	0.0211424	0.0442207	0.152568	0.0532247	0.14938	0.336831	0.0656932	0.472881	0.0985321	0.339199	0.188785	0.262689	0.440927	0.200891	0.276009	0.228682	0.246661	0.224365	0.112923	
2.215	0.0437462	0.171128	0.129077	0.295627	0.0662188	0.0472116	0.303438	0.0815332	0.383338	0.344021	0.406098	0.390469	0.357004	0.393778	0.0361358	0.0478173	0.0591923	0.0461878	0.0568194	0.0394708	0.0114649	0.0202715	0.0485643	0.202714	0.0736361	0.14514	0.358996	0.0836099	0.538994	0.101865	0.338437	0.236983	0.299619	0.433143	0.24245	0.290512	0.270518	0.29708	0.267036	0.0291289	0.122208	0.0751254	0.215359	-0.0383027	-0.0618376	0.309457	0.0790406	0.339209	0.311333	0.381254	0.354575	0.365468	0.38248	0.0282092	0.0466932	0.0500113	0.030691	0.0429592	0.0241128	-0.0107411	0.0210311	0.0441332	0.152582	0.0541476	0.149395	0.336876	0.0665911	0.473081	0.0987204	0.338484	0.188719	0.263081	0.441238	0.200738	0.276118	0.228601	0.246603	0.224322	0.11332	
2.22	0.0437123	0.170451	0.128295	0.295734	0.0658718	0.0471356	0.30337	0.0824539	0.38331	0.343952	0.406429	0.391006	0.358621	0.394431	0.0361404	0.047841	0.059205	0.0461789	0.0568185	0.0394758	0.0114627	0.0202754	0.0485881	0.203053	0.0734084	0.145156	0.358986	0.0835421	0.537305	0.101885	0.3385	0.23689	0.299609	0.431294	0.242406	0.290494	0.270546	0.297441	0.267191	0.0291581	0.122321	0.0750821	0.215213	-0.038477	-0.0609066	0.309102	0.0790859	0.339	0.311162	0.381287	0.354628	0.36613	0.382906	0.0273257	0.0462027	0.0499853	0.0295122	0.0421594	0.0235692	-0.0116125	0.0209225	0.0440422	0.152616	0.0550737	0.149405	0.336911	0.0674907	0.473258	0.0989104	0.337859	0.188664	0.263427	0.441524	0.200625	0.27621	0.228454	0.246521	0.224264	0.113703	
2.225	0.04368	0.169742	0.127568	0.295828	0.0653165	0.0470621	0.30329	0.0834481	0.383303	0.343881	0.406741	0.391516	0.360276	0.39523	0.0361482	0.0478676	0.0592137	0.0461685	0.0568154	0.0394791	0.0114602	0.0202785	0.0486148	0.203314	0.0731857	0.145172	0.358973	0.0834826	0.535595	0.101883	0.338345	0.236784	0.299581	0.429449	0.242392	0.290479	0.270632	0.29774	0.267382	0.0291915	0.122442	0.0750434	0.21508	-0.0385276	-0.0598772	0.308783	0.0791462	0.338847	0.311048	0.38131	0.354665	0.366723	0.383096	0.0263663	0.0455246	0.0499601	0.0282958	0.0412916	0.0229745	-0.0124913	0.0208239	0.0439486	0.15267	0.0560054	0.149412	0.336935	0.0683923	0.473409	0.0991006	0.337323	0.188619	0.263708	0.441785	0.200553	0.276282	0.228209	0.246398	0.224187	0.114348	
2.23	0.04365	0.169026	0.126653	0.295806	0.0646849	0.0469994	0.30324	0.0844772	0.383325	0.343907	0.407033	0.391998	0.361643	0.396157	0.0361589	0.0478982	0.0592094	0.0461565	0.0568101	0.0394805	0.011457	0.0202808	0.0486428	0.203489	0.0729747	0.145187	0.358956	0.0834329	0.533958	0.101858	0.338218	0.236666	0.299539	0.427653	0.242407	0.290471	0.270803	0.298041	0.267623	0.0292289	0.122572	0.0750092	0.214959	-0.0384583	-0.0587578	0.308499	0.0792225	0.338753	0.310992	0.381323	0.354685	0.367234	0.383096	0.0253275	0.044683	0.0499357	0.0270506	0.0403608	0.022325	-0.0133713	0.020737	0.0438547	0.152746	0.0569448	0.149414	0.336946	0.0692958	0.47353	0.0992895	0.33687	0.188583	0.263908	0.44202	0.200522	0.276332	0.227852	0.246177	0.224078	0.115177	
2.235	0.0436222	0.168323	0.125547	0.295521	0.0639446	0.046948	0.303255	0.085511	0.383381	0.34404	0.407304	0.39245	0.362508	0.3972	0.0361733	0.0479289	0.0591829	0.0461429	0.0568046	0.03948	0.0114532	0.0202818	0.0486704	0.20358	0.0727793	0.145201	0.358936	0.0833955	0.532497	0.101832	0.338227	0.236542	0.299485	0.425948	0.242448	0.290469	0.270989	0.298308	0.267839	0.0292695	0.122712	0.0749791	0.214847	-0.038275	-0.0575592	0.308248	0.0793143	0.338723	0.310993	0.381325	0.354687	0.367648	0.383027	0.0242072	0.0436962	0.0499118	0.0257852	0.0393729	0.0216192	-0.014246	0.0206615	0.0437626	0.152842	0.057897	0.149411	0.336944	0.0702002	0.473621	0.0994755	0.336492	0.188555	0.264013	0.44223	0.20053	0.276359	0.227382	0.245827	0.223878	0.115995	
2.24	0.0435947	0.16765	0.124733	0.295217	0.063329	0.0468896	0.303338	0.0865302	0.383473	0.344239	0.407552	0.392869	0.36284	0.398344	0.0361881	0.0479587	0.059147	0.0461275	0.0568024	0.0394779	0.0114479	0.0203515	0.0489122	0.20359	0.0726173	0.145213	0.358913	0.0833728	0.531234	0.101913	0.338395	0.236417	0.299419	0.424364	0.242514	0.290472	0.271124	0.298491	0.267968	0.0293137	0.122865	0.0749526	0.214742	-0.0379862	-0.0562936	0.308025	0.079421	0.338759	0.311052	0.381316	0.354668	0.367953	0.382954	0.0230045	0.0425767	0.0498882	0.0245085	0.0383346	0.0208579	-0.0151091	0.0205967	0.0436733	0.152959	0.0588647	0.149403	0.336929	0.0711045	0.473684	0.0996565	0.33618	0.188534	0.264014	0.442414	0.200579	0.27636	0.226803	0.245346	0.223549	0.116778	
2.245	0.0435648	0.167018	0.124342	0.295037	0.0629128	0.0468358	0.303481	0.0875301	0.383604	0.344468	0.407777	0.393251	0.362851	0.399583	0.0362028	0.0479874	0.059111	0.0462668	0.0568029	0.0394785	0.0114107	0.0204982	0.049368	0.203527	0.0724966	0.145224	0.358887	0.0833667	0.530013	0.102116	0.338696	0.236296	0.299345	0.422856	0.242605	0.290478	0.27117	0.298559	0.267982	0.029363	0.123033	0.0749294	0.214642	-0.0376023	-0.0549754	0.307827	0.0795405	0.338861	0.311169	0.381295	0.354628	0.368139	0.382881	0.0217206	0.0413332	0.0498649	0.0232295	0.0372539	0.0200445	-0.0159538	0.0205404	0.0435872	0.153097	0.0598483	0.14939	0.336899	0.0720067	0.47372	0.0998306	0.335922	0.188517	0.263902	0.442576	0.200668	0.276336	0.226124	0.244744	0.223086	0.117524	
2.25	0.0435302	0.166433	0.124228	0.294944	0.0626784	0.0468049	0.303672	0.0885219	0.383777	0.344699	0.407979	0.393596	0.362753	0.400912	0.0362172	0.0480146	0.059079	0.046363	0.0568047	0.0394835	0.0113053	0.0206428	0.0498503	0.203394	0.0724123	0.145234	0.358858	0.0833787	0.52873	0.10241	0.339095	0.23618	0.299262	0.421387	0.24272	0.290486	0.271134	0.298511	0.267891	0.0294187	0.123212	0.074909	0.214547	-0.0371357	-0.0536196	0.307648	0.0796705	0.339029	0.311344	0.381262	0.354567	0.368194	0.3828	0.0203584	0.0399738	0.0498415	0.0219577	0.0361401	0.0191844	-0.0167736	0.0204885	0.0435033	0.153257	0.0608471	0.149372	0.336855	0.0724687	0.473735	0.099995	0.335709	0.188505	0.263677	0.442717	0.200798	0.276284	0.225356	0.244038	0.222504	0.118183	
2.255	0.0434963	0.165895	0.124237	0.294877	0.0625566	0.0467907	0.303905	0.0895354	0.383992	0.344903	0.408158	0.393903	0.362643	0.402331	0.0362312	0.04804	0.0590528	0.0463526	0.0568067	0.0394919	0.0111184	0.0207427	0.0502435	0.203195	0.0723547	0.145242	0.358826	0.0834071	0.527376	0.102762	0.339564	0.236073	0.299172	0.419993	0.242861	0.290493	0.271039	0.298363	0.267717	0.0294811	0.123402	0.0748909	0.214455	-0.0366002	-0.0522426	0.307483	0.0798073	0.339264	0.311577	0.381215	0.354482	0.368109	0.382707	0.0189233	0.0385075	0.0498177	0.0207028	0.0350036	0.0182856	-0.0175616	0.0204387	0.0434219	0.153437	0.0618601	0.149347	0.336796	0.072495	0.473733	0.100148	0.335528	0.188494	0.263339	0.442842	0.200968	0.276203	0.224516	0.243245	0.221826	0.118748	
2.26	0.0434674	0.1654	0.124291	0.294809	0.0624939	0.0467838	0.304174	0.0906198	0.384251	0.34506	0.408315	0.394171	0.36254	0.403844	0.0362443	0.0480634	0.0590328	0.0462985	0.0568084	0.039502	0.0108553	0.0207991	0.050524	0.202951	0.0723176	0.145248	0.358793	0.0834506	0.525986	0.103157	0.340077	0.235976	0.299076	0.418722	0.24303	0.290499	0.270906	0.298136	0.267486	0.0295497	0.123606	0.0748747	0.214366	-0.0360111	-0.0508608	0.307328	0.0799467	0.339565	0.311869	0.381153	0.354375	0.367873	0.382606	0.0174232	0.0369445	0.049792	0.0194747	0.0338558	0.0173578	-0.0183112	0.0203922	0.0433474	0.153636	0.062885	0.149317	0.336721	0.0724709	0.473722	0.100286	0.335369	0.188484	0.262895	0.442953	0.20118	0.276092	0.223623	0.242387	0.221076	0.11923	
2.265	0.0434432	0.16494	0.124359	0.29474	0.0624588	0.0467794	0.304471	0.0918426	0.384507	0.345158	0.408449	0.394399	0.362442	0.405456	0.0362563	0.0480846	0.0590187	0.0462472	0.0568093	0.0395129	0.0105295	0.0208268	0.050705	0.202686	0.0723017	0.145253	0.358757	0.0835096	0.5246	0.103609	0.340636	0.235892	0.298974	0.417591	0.243229	0.290503	0.270751	0.29785	0.267218	0.0296226	0.12383	0.0748599	0.214281	-0.0353842	-0.0494911	0.307177	0.0800844	0.339933	0.312215	0.381076	0.354244	0.367479	0.3825	0.0158683	0.0352971	0.0497613	0.0182837	0.0327095	0.0164125	-0.0190154	0.0203504	0.0432828	0.153853	0.0639191	0.149281	0.336632	0.0724798	0.473709	0.100408	0.335221	0.188472	0.26236	0.443057	0.201432	0.275949	0.2227	0.241488	0.22028	0.119567	
2.27	0.0434217	0.164504	0.124426	0.294666	0.0624383	0.0467752	0.30479	0.0932851	0.384678	0.345165	0.408561	0.394588	0.362354	0.407171	0.0362671	0.0481035	0.0590099	0.0462048	0.0568093	0.0395237	0.0101584	0.0208384	0.0507942	0.202412	0.0723108	0.145255	0.358718	0.0835861	0.523252	0.104124	0.341276	0.235827	0.298867	0.416601	0.24346	0.290503	0.270586	0.297525	0.266933	0.0296967	0.124073	0.0748462	0.214199	-0.034736	-0.0481496	0.307025	0.0802157	0.340369	0.31261	0.380982	0.354091	0.36692	0.38239	0.0142711	0.0335791	0.0496538	0.0171403	0.0315777	0.0154622	-0.0196678	0.0203136	0.0432267	0.154083	0.0649585	0.14924	0.336528	0.0724896	0.473702	0.100512	0.335072	0.188458	0.26175	0.443158	0.201718	0.275775	0.221774	0.240578	0.219467	0.119734	
2.275	0.0434008	0.16408	0.124484	0.294589	0.062425	0.0467697	0.305135	0.0950346	0.384637	0.344976	0.408652	0.394738	0.362282	0.408996	0.0362764	0.0481198	0.0590049	0.0461696	0.0568085	0.0395337	0.00976078	0.0208339	0.0507714	0.202133	0.0723483	0.145256	0.358678	0.0836822	0.521962	0.104675	0.342035	0.235801	0.298781	0.415783	0.243727	0.290501	0.27042	0.297181	0.266648	0.0297708	0.124333	0.0748331	0.214119	-0.0340827	-0.0468522	0.306869	0.0803364	0.34087	0.313048	0.380873	0.353916	0.366194	0.382181	0.0126462	0.0318065	0.04932	0.0160551	0.0304743	0.0145201	-0.0202619	0.0202818	0.043177	0.154322	0.0656511	0.149193	0.336411	0.0724952	0.47371	0.100598	0.334912	0.18844	0.261086	0.443261	0.202037	0.275569	0.220873	0.239688	0.218666	0.119774	
2.28	0.0433743	0.163656	0.124531	0.294506	0.062414	0.0467621	0.305516	0.0971733	0.383824	0.343976	0.408722	0.394849	0.362229	0.410929	0.0362842	0.0481337	0.0590021	0.0461421	0.0568072	0.0395424	0.00935686	0.0208071	0.0505498	0.201847	0.0724162	0.145255	0.358635	0.0838009	0.520741	0.105246	0.342926	0.235816	0.298742	0.415155	0.244029	0.290494	0.270256	0.296836	0.266375	0.02985	0.124602	0.0748204	0.214042	-0.0334406	-0.0456134	0.306703	0.0804427	0.341434	0.313534	0.380747	0.35372	0.365304	0.381724	0.0110098	0.029997	0.0487187	0.0150388	0.0294131	0.0135996	-0.0207916	0.0202547	0.0431322	0.154563	0.0657182	0.149141	0.336282	0.0725015	0.473741	0.100664	0.334732	0.188416	0.260368	0.443374	0.202395	0.275333	0.220029	0.238851	0.21791	0.119812	
2.285	0.0433443	0.163221	0.124565	0.294418	0.062402	0.046751	0.30594	0.0995742	0.382375	0.342684	0.408772	0.394922	0.362196	0.412967	0.0362904	0.048145	0.0589999	0.0461217	0.0568065	0.0395496	0.00896742	0.0207611	0.0501291	0.201561	0.0725165	0.145252	0.358589	0.0839458	0.519588	0.105817	0.343938	0.23587	0.29874	0.414704	0.244364	0.290483	0.27009	0.296496	0.266118	0.0299375	0.124872	0.0748078	0.213968	-0.0328249	-0.0444467	0.306526	0.0805317	0.342053	0.314072	0.380606	0.353506	0.36426	0.380782	0.00937936	0.0281697	0.0478891	0.0141016	0.0284076	0.0127133	-0.0212515	0.0202319	0.0430924	0.1548	0.0656823	0.149085	0.336142	0.072509	0.473805	0.100713	0.334525	0.188385	0.259596	0.443501	0.202801	0.275069	0.219274	0.238103	0.217233	0.119919	
2.29	0.0433304	0.162766	0.124586	0.294324	0.0623876	0.0467379	0.306413	0.100363	0.380592	0.341367	0.408802	0.394957	0.362178	0.4151	0.0362949	0.0481535	0.0589969	0.0461081	0.056806	0.0395551	0.00861323	0.0207063	0.0497152	0.201288	0.0726535	0.145249	0.358561	0.0841211	0.518489	0.106356	0.34504	0.235956	0.298747	0.414407	0.244726	0.290513	0.269913	0.296154	0.265871	0.0300331	0.125132	0.074795	0.213896	-0.0322499	-0.0433643	0.306332	0.0806016	0.342712	0.314664	0.380453	0.353275	0.363083	0.379528	0.00777312	0.0263449	0.046891	0.0132537	0.0274704	0.0118731	-0.0216367	0.0202134	0.0430584	0.155023	0.0656904	0.149026	0.335994	0.0725168	0.473909	0.100745	0.334284	0.188348	0.258791	0.443649	0.203254	0.27478	0.218644	0.23748	0.21667	0.119956	
2.295	0.0433427	0.162289	0.12459	0.29422	0.0623693	0.0467379	0.306937	0.100452	0.379141	0.340397	0.408813	0.394956	0.36217	0.41731	0.0362977	0.0481592	0.0589921	0.0461014	0.0568055	0.0395589	0.00831407	0.0206531	0.0493961	0.201045	0.0728368	0.145254	0.358625	0.0843312	0.517429	0.106576	0.346203	0.236165	0.298744	0.41425	0.245109	0.290645	0.269714	0.295798	0.265617	0.0301354	0.12538	0.0747819	0.213827	-0.0317289	-0.0423766	0.30612	0.0806507	0.343391	0.3153	0.380288	0.353031	0.361803	0.378131	0.00620958	0.0245436	0.0457758	0.0125041	0.0266129	0.011089	-0.0219434	0.0201989	0.0430308	0.155222	0.0657025	0.148965	0.335841	0.0725246	0.474061	0.100764	0.334003	0.188302	0.257988	0.443823	0.203746	0.274472	0.218171	0.237018	0.216258	0.11993	
2.3	0.0433741	0.161788	0.124802	0.294308	0.0624871	0.0467794	0.307606	0.100611	0.37833	0.339903	0.408804	0.394919	0.362185	0.419574	0.0363152	0.0481878	0.0590287	0.0461015	0.0568057	0.0395609	0.00808822	0.0206062	0.0491753	0.200893	0.0730529	0.145282	0.358807	0.0844488	0.516335	0.10628	0.347544	0.236638	0.298721	0.414237	0.245505	0.290872	0.269482	0.295414	0.265337	0.0302413	0.125627	0.0747683	0.213761	-0.0312734	-0.0414926	0.305887	0.0806783	0.344076	0.315967	0.380116	0.352779	0.360463	0.376646	0.00470698	0.0227871	0.0445823	0.011861	0.025845	0.0103691	-0.0221692	0.0201883	0.0430097	0.155388	0.0657088	0.148904	0.335686	0.0725322	0.474266	0.100771	0.333677	0.188246	0.257207	0.444027	0.204263	0.274149	0.21789	0.236751	0.216029	0.119807	
2.305	0.0433945	0.161267	0.125221	0.295006	0.0627594	0.0468351	0.308475	0.100851	0.378029	0.339753	0.408778	0.394847	0.36226	0.421863	0.0363489	0.0482419	0.0591074	0.0461068	0.0568064	0.0395611	0.00795544	0.0205646	0.0490264	0.200876	0.0732936	0.14534	0.359086	0.0843526	0.5151	0.105695	0.349148	0.237382	0.298677	0.414383	0.245901	0.291159	0.269203	0.295015	0.265025	0.0303469	0.125872	0.0747543	0.213699	-0.0308932	-0.0407196	0.30563	0.0806833	0.344773	0.316642	0.379938	0.352523	0.359104	0.375107	0.00328292	0.0210966	0.0433413	0.0113312	0.0251743	0.00971915	-0.0223128	0.0201816	0.0429949	0.155512	0.0657153	0.148845	0.335533	0.0725395	0.474529	0.100769	0.3333	0.18818	0.256449	0.444266	0.204779	0.27382	0.217829	0.236712	0.216015	0.119541	
2.31	0.0434069	0.160736	0.125599	0.295933	0.0630216	0.0468845	0.309483	0.101102	0.377984	0.339764	0.408733	0.394743	0.362414	0.424144	0.0363908	0.0483078	0.0591912	0.0461147	0.0568076	0.0398252	0.00793299	0.0205248	0.0489357	0.201003	0.0735553	0.145426	0.359421	0.0839819	0.513738	0.105094	0.350971	0.238342	0.298615	0.414693	0.246278	0.291476	0.268874	0.294645	0.264639	0.030447	0.12611	0.0747398	0.213641	-0.0305965	-0.0400633	0.305347	0.0806638	0.34549	0.317303	0.37976	0.352272	0.357764	0.373563	0.00195389	0.019493	0.0420796	0.0109198	0.0246063	0.00914255	-0.0223747	0.0201783	0.0429858	0.155585	0.0657229	0.148788	0.335386	0.0725462	0.474854	0.100766	0.332865	0.188102	0.255748	0.444541	0.205289	0.273492	0.218016	0.236928	0.216242	0.11894	
2.315	0.0434215	0.160207	0.125801	0.296732	0.063179	0.0469276	0.310519	0.101342	0.378022	0.339818	0.408672	0.394608	0.362634	0.426381	0.0364343	0.0483706	0.0592548	0.0461234	0.056809	0.0401689	0.00803217	0.0204847	0.0488901	0.201265	0.0738126	0.145526	0.359772	0.0834445	0.51227	0.104554	0.352918	0.239362	0.29854	0.415134	0.246618	0.291796	0.268574	0.294266	0.264212	0.0305351	0.126333	0.0747248	0.213587	-0.0303894	-0.0395277	0.305039	0.0806169	0.346219	0.317938	0.379585	0.352032	0.356482	0.372061	0.000735145	0.0179965	0.0408221	0.01063	0.0241441	0.00864029	-0.0223569	0.0201781	0.0429818	0.1556	0.0657302	0.148735	0.335247	0.072552	0.475241	0.100762	0.332367	0.188012	0.255141	0.444856	0.205813	0.273171	0.218472	0.237419	0.216731	0.118225	
2.32	0.0434391	0.159695	0.125835	0.297299	0.0632371	0.0469663	0.311534	0.101566	0.378072	0.339872	0.408595	0.394445	0.362896	0.428541	0.0364759	0.0484222	0.0592909	0.0461318	0.0568104	0.0404307	0.00825162	0.0204473	0.0488716	0.201642	0.0739923	0.14563	0.360119	0.0829683	0.510709	0.104073	0.354907	0.240359	0.298458	0.415622	0.246898	0.292109	0.268305	0.293902	0.263781	0.0306074	0.126531	0.0747095	0.213538	-0.0302758	-0.0391154	0.304713	0.0805382	0.346943	0.318555	0.379417	0.351808	0.355278	0.370643	-0.000359562	0.0166266	0.0395929	0.0104627	0.0237885	0.00821125	-0.0222631	0.0201806	0.0429822	0.155552	0.0657368	0.148687	0.33512	0.0725568	0.475691	0.100757	0.331808	0.187909	0.25463	0.445213	0.206355	0.272865	0.219209	0.238202	0.217496	0.11784	
2.325	0.0434577	0.159217	0.12576	0.297665	0.0632352	0.0469986	0.312484	0.101769	0.378116	0.339917	0.408505	0.394259	0.363175	0.430592	0.0365131	0.0484602	0.0593014	0.0461394	0.0568113	0.0405806	0.00858218	0.0204157	0.0488673	0.202085	0.0739455	0.145734	0.360451	0.0826708	0.509066	0.103619	0.35685	0.241326	0.298378	0.41601	0.247095	0.29241	0.267954	0.293545	0.263367	0.0306621	0.126696	0.074694	0.213494	-0.0302577	-0.0388275	0.304376	0.0804219	0.34764	0.319159	0.37926	0.351608	0.354126	0.369336	-0.00131789	0.0154019	0.038416	0.010417	0.023538	0.00785267	-0.0220989	0.0201856	0.0429861	0.155438	0.0657424	0.148645	0.335007	0.0725603	0.476211	0.100753	0.33119	0.187794	0.254195	0.445614	0.2069	0.27258	0.220236	0.239284	0.218544	0.117707	
2.33	0.0434768	0.15879	0.125631	0.297878	0.0632042	0.0470187	0.313313	0.101962	0.378153	0.339952	0.408403	0.394053	0.363455	0.432507	0.0365439	0.0484844	0.0592913	0.0461459	0.0568114	0.0406462	0.00901113	0.0203903	0.0488709	0.202534	0.0736849	0.145834	0.360763	0.0825144	0.507374	0.103215	0.358656	0.242208	0.298307	0.416234	0.247191	0.292693	0.267243	0.292958	0.262971	0.0306989	0.126822	0.0746787	0.213456	-0.0303345	-0.0386634	0.304033	0.0802613	0.348293	0.319736	0.379118	0.351435	0.353001	0.368148	-0.00212896	0.0143404	0.0373156	0.0104897	0.0233896	0.00756065	-0.0218708	0.0201926	0.0429929	0.155257	0.0657466	0.148611	0.33491	0.0725622	0.476808	0.100748	0.33052	0.187666	0.253826	0.446059	0.207428	0.272321	0.221554	0.240665	0.219873	0.117653	
2.335	0.0434964	0.158432	0.125484	0.297978	0.0631644	0.0470254	0.31398	0.102147	0.37818	0.339976	0.408293	0.393833	0.363725	0.434268	0.0365668	0.0484965	0.0592655	0.0461508	0.0570295	0.0406587	0.00952554	0.0203707	0.0488789	0.202959	0.0734159	0.145928	0.361051	0.082434	0.505684	0.102877	0.360251	0.242947	0.298256	0.416415	0.247194	0.292958	0.266124	0.291983	0.262444	0.0307182	0.126902	0.0746636	0.213425	-0.0305036	-0.0386215	0.303684	0.0800503	0.348886	0.320268	0.378995	0.351292	0.351916	0.366901	-0.00278311	0.0134588	0.0363163	0.0106758	0.0233387	0.00733068	-0.0215868	0.0202014	0.0430021	0.155014	0.0657489	0.148584	0.33483	0.0725625	0.477486	0.100742	0.329807	0.187524	0.253525	0.446548	0.207922	0.272093	0.223156	0.242337	0.221476	0.117576	
2.34	0.0435166	0.158155	0.125341	0.297997	0.0631288	0.0470222	0.31446	0.102325	0.378193	0.339987	0.408177	0.393606	0.36398	0.435865	0.0365819	0.0484993	0.0592315	0.0461542	0.0574233	0.0406374	0.0101117	0.0203568	0.0488886	0.20335	0.0732043	0.146017	0.361316	0.0823943	0.504084	0.102588	0.361579	0.243536	0.298233	0.416666	0.247137	0.293203	0.264755	0.290709	0.261738	0.0307207	0.126935	0.0746493	0.213402	-0.03076	-0.0386987	0.303323	0.0797846	0.349407	0.320742	0.378893	0.351181	0.350893	0.365666	-0.00327191	0.012773	0.0354437	0.0109687	0.0233799	0.0071583	-0.0212557	0.0202117	0.0430131	0.154714	0.0657491	0.148565	0.334768	0.0725609	0.478237	0.100735	0.329055	0.18737	0.253296	0.447076	0.208364	0.271897	0.225031	0.244283	0.223339	0.117449	
2.345	0.0435374	0.157971	0.125212	0.297959	0.063103	0.047014	0.314746	0.1025	0.378191	0.339983	0.40806	0.393379	0.364217	0.437295	0.0365903	0.0484957	0.0591937	0.0461559	0.0578339	0.0405936	0.0107538	0.020348	0.0488982	0.203693	0.0730389	0.146099	0.361559	0.0823782	0.502676	0.102333	0.362594	0.243972	0.298247	0.41701	0.247062	0.293432	0.263337	0.289351	0.260955	0.0307069	0.126918	0.074636	0.213387	-0.0310964	-0.0388906	0.302944	0.0794636	0.349845	0.321145	0.378814	0.351103	0.349931	0.364537	-0.00358795	0.0122977	0.0347244	0.0113602	0.0235071	0.00703957	-0.0208867	0.0202232	0.0430257	0.154368	0.0657468	0.148554	0.334724	0.0725572	0.479053	0.100719	0.328258	0.187206	0.253138	0.447636	0.208743	0.271737	0.227158	0.24646	0.224714	0.117272	
2.35	0.0435589	0.157886	0.125098	0.297884	0.0630874	0.0470067	0.314839	0.102671	0.378172	0.339964	0.407947	0.39316	0.364437	0.438565	0.0365936	0.0484881	0.0591551	0.0461559	0.0581637	0.0405357	0.0114333	0.0203432	0.0489064	0.203973	0.07291	0.146175	0.361779	0.0823739	0.501509	0.102129	0.36326	0.244242	0.298306	0.417426	0.246993	0.293642	0.261992	0.288083	0.260209	0.0306772	0.126854	0.0746243	0.213381	-0.0315033	-0.0391914	0.302548	0.079095	0.350194	0.321469	0.378759	0.351058	0.349012	0.363439	-0.00372485	0.0120462	0.0341855	0.0118411	0.0237144	0.00697148	-0.0204895	0.0202358	0.0430396	0.153989	0.0657417	0.148551	0.334697	0.0725515	0.479941	0.100685	0.32742	0.187032	0.25305	0.448216	0.209048	0.271611	0.229093	0.247584	0.225158	0.117056	
2.355	0.0435817	0.157902	0.124998	0.297787	0.0630796	0.0470038	0.314752	0.102841	0.378135	0.339929	0.407842	0.392956	0.364642	0.439576	0.0365934	0.0484784	0.0591173	0.0461542	0.0583945	0.0404719	0.0114839	0.0203413	0.0489126	0.204182	0.0728146	0.146243	0.361973	0.0823742	0.500581	0.101978	0.363542	0.244337	0.298416	0.417896	0.246934	0.293831	0.260757	0.286983	0.25956	0.0306325	0.126746	0.0746146	0.213386	-0.0319687	-0.0395943	0.30214	0.0786993	0.350452	0.321709	0.378728	0.351043	0.348149	0.362355	-0.00367736	0.01203	0.0338547	0.0124015	0.023996	0.00695221	-0.0200734	0.0202492	0.0430546	0.153589	0.0657337	0.148554	0.334687	0.0725435	0.480907	0.100621	0.326593	0.186849	0.253027	0.448802	0.209274	0.271521	0.229872	0.247821	0.225236	0.116811	
2.36	0.043606	0.158018	0.124907	0.297675	0.0630775	0.0470064	0.314502	0.103007	0.378082	0.339878	0.40775	0.392778	0.364837	0.440163	0.0365914	0.0484682	0.0590814	0.046151	0.0585411	0.0404094	0.0114669	0.0203413	0.0489163	0.204316	0.0727508	0.146299	0.362135	0.0823755	0.499897	0.101867	0.363405	0.244256	0.298575	0.418418	0.246877	0.293993	0.259662	0.286107	0.259057	0.0305732	0.126598	0.0746075	0.213401	-0.0324787	-0.0400911	0.301731	0.0783051	0.350617	0.321863	0.378719	0.351057	0.347367	0.361302	-0.0034415	0.0122582	0.0337594	0.0130309	0.0243464	0.00698125	-0.0196478	0.0202633	0.0430706	0.15318	0.0657226	0.148563	0.334692	0.0725334	0.481939	0.100519	0.325802	0.186638	0.253064	0.449376	0.209419	0.271465	0.229987	0.247893	0.225367	0.116548	
2.365	0.0436318	0.158226	0.124826	0.297546	0.0630782	0.0470144	0.314115	0.103167	0.37801	0.33981	0.407677	0.392633	0.365028	0.440409	0.0365886	0.0484585	0.059048	0.0461463	0.0586244	0.0403544	0.0114699	0.0203425	0.0489175	0.204379	0.0727165	0.146339	0.362252	0.0823762	0.499488	0.101788	0.363059	0.244016	0.298783	0.418998	0.246807	0.294116	0.258756	0.285513	0.258763	0.0305009	0.126418	0.0746035	0.213428	-0.0330173	-0.0406724	0.301331	0.0779305	0.350691	0.32193	0.378732	0.351097	0.346657	0.360293	-0.00301484	0.012737	0.0339256	0.0137183	0.0247607	0.00705928	-0.0192215	0.0202781	0.0430874	0.152777	0.0657082	0.148578	0.334711	0.072521	0.483032	0.100368	0.325034	0.186108	0.25315	0.449916	0.209483	0.271443	0.230097	0.248101	0.225596	0.11628	
2.37	0.0436588	0.158517	0.124747	0.297382	0.0630771	0.0470252	0.313618	0.103311	0.37897	0.34067	0.407627	0.392528	0.365219	0.440513	0.0365862	0.04845	0.0590172	0.0461405	0.05866	0.0403104	0.0114698	0.0203442	0.048916	0.204377	0.0727078	0.14636	0.362306	0.0823758	0.499386	0.101734	0.362681	0.243641	0.299044	0.419642	0.246707	0.294184	0.258086	0.285254	0.258736	0.0304178	0.126212	0.0746033	0.213468	-0.033567	-0.0413278	0.300937	0.0775878	0.350676	0.321913	0.378764	0.351158	0.345992	0.359322	-0.00239684	0.0134695	0.0343772	0.014453	0.0252343	0.00718803	-0.0188029	0.0202933	0.043105	0.152379	0.0656905	0.148596	0.334742	0.0725064	0.484171	0.100163	0.324275	0.184946	0.253273	0.4504	0.209468	0.271453	0.230358	0.248402	0.225863	0.116014	
2.375	0.0436856	0.15888	0.124666	0.297152	0.0630681	0.0470329	0.313041	0.103431	0.380581	0.342174	0.407605	0.39247	0.365416	0.440613	0.0365846	0.048443	0.0589893	0.0461336	0.0585978	0.0402786	0.011468	0.0203461	0.0489121	0.204319	0.0727194	0.14636	0.362281	0.0823741	0.499608	0.101702	0.362329	0.243164	0.299363	0.420354	0.246561	0.29418	0.257686	0.285364	0.259015	0.0303275	0.125988	0.0746072	0.213521	-0.0341089	-0.0420459	0.300488	0.077275	0.350576	0.321816	0.378815	0.351238	0.345357	0.358376	-0.00158915	0.0144549	0.0351343	0.0152238	0.0257629	0.00736987	-0.0183997	0.0203089	0.0431233	0.151969	0.0656692	0.148618	0.334785	0.0724897	0.485303	0.0998985	0.32353	0.183161	0.253422	0.450806	0.209378	0.271492	0.230664	0.248705	0.226129	0.115751	
2.38	0.0437098	0.159301	0.12457	0.296822	0.0630455	0.04703	0.312418	0.103517	0.382159	0.343693	0.407613	0.392465	0.36562	0.440754	0.0365844	0.0484376	0.058964	0.0461262	0.0584025	0.0402589	0.0114663	0.0203477	0.0489061	0.204216	0.0727474	0.146338	0.362157	0.0823712	0.500156	0.101685	0.36203	0.242617	0.299748	0.421126	0.246359	0.294067	0.257573	0.285861	0.259625	0.0302344	0.125754	0.0746159	0.213587	-0.034623	-0.0428146	0.299804	0.0769628	0.350398	0.321644	0.378881	0.351332	0.344756	0.357486	-0.000595899	0.0156884	0.0362124	0.0160198	0.0263424	0.0076075	-0.018019	0.0203246	0.043142	0.15155	0.0656435	0.148643	0.334837	0.0724707	0.486357	0.0995756	0.322651	0.180947	0.253591	0.451111	0.209219	0.271559	0.230936	0.248971	0.226371	0.115479	
2.385	0.0437282	0.159767	0.124446	0.29636	0.0630038	0.04701	0.311785	0.103561	0.383382	0.34489	0.407652	0.392515	0.365833	0.440931	0.0365858	0.0484336	0.0589409	0.046118	0.0580904	0.0402155	0.0114645	0.0203488	0.0488982	0.204081	0.0727896	0.146298	0.361917	0.0823693	0.501021	0.101681	0.36182	0.24203	0.300205	0.421945	0.246092	0.293752	0.257751	0.286746	0.260579	0.0301427	0.125517	0.0746298	0.213669	-0.0350893	-0.0436208	0.298893	0.0766537	0.350148	0.321404	0.378961	0.351439	0.344183	0.35668	0.000576042	0.0171608	0.0376208	0.0168306	0.0269688	0.00790352	-0.0176669	0.02034	0.0431609	0.151144	0.0656112	0.14867	0.334898	0.072449	0.487318	0.0991997	0.321443	0.178531	0.253778	0.451296	0.208996	0.271652	0.231178	0.249207	0.226592	0.11519	
2.39	0.043728	0.160268	0.124289	0.295804	0.0629314	0.0469454	0.311172	0.103563	0.384228	0.345714	0.407724	0.392621	0.366057	0.441135	0.0365907	0.0484324	0.0589209	0.0461088	0.0578733	0.0401728	0.0114625	0.0203494	0.0488888	0.203922	0.0728437	0.146241	0.361558	0.0823714	0.502186	0.101686	0.361683	0.241429	0.300734	0.422798	0.245759	0.293197	0.258215	0.28801	0.261878	0.0300549	0.125282	0.0746493	0.213766	-0.0354879	-0.0444514	0.297889	0.0763642	0.349833	0.321105	0.379053	0.351555	0.343553	0.355955	0.00191704	0.018859	0.0393619	0.0176459	0.0276375	0.00825999	-0.017349	0.0203551	0.04318	0.150767	0.065563	0.148699	0.334966	0.072424	0.488181	0.098783	0.319966	0.176101	0.253983	0.451348	0.208717	0.271768	0.23141	0.249427	0.2268	0.114952	
2.395	0.043707	0.160793	0.124145	0.2953	0.0628525	0.0468793	0.310594	0.103525	0.384778	0.346233	0.407828	0.392783	0.366292	0.441353	0.0366014	0.0484365	0.0589072	0.04634	0.0578331	0.0401604	0.0114604	0.0204274	0.0490487	0.203748	0.0729076	0.146172	0.361125	0.0823776	0.503628	0.101697	0.361337	0.24084	0.301328	0.423664	0.245362	0.292554	0.258951	0.289628	0.263485	0.0299728	0.125048	0.0746747	0.213879	-0.0357999	-0.0452927	0.296944	0.0760975	0.349462	0.320754	0.379153	0.351679	0.34281	0.355292	0.00341471	0.0207662	0.0414309	0.0184561	0.0283441	0.00867816	-0.0170696	0.0203694	0.0431989	0.150422	0.0653849	0.148729	0.33504	0.0723935	0.488908	0.0983439	0.318411	0.173811	0.254207	0.451254	0.208391	0.271905	0.23163	0.249627	0.226992	0.114814	
2.4	0.0436709	0.161335	0.12407	0.294975	0.0628015	0.0468384	0.310049	0.103454	0.385109	0.34652	0.40796	0.392997	0.366537	0.441555	0.0366193	0.0484482	0.0589034	0.0466639	0.0579098	0.0401803	0.0114582	0.0205643	0.049283	0.203567	0.0729795	0.146095	0.360687	0.0823874	0.505322	0.101712	0.360635	0.240296	0.301971	0.424527	0.24491	0.291975	0.259934	0.291562	0.264996	0.0298973	0.124809	0.0747063	0.214008	-0.0360078	-0.0461316	0.296179	0.0758678	0.349043	0.320363	0.37926	0.35181	0.342003	0.354688	0.00505417	0.0228621	0.0438158	0.0192525	0.0290837	0.00915821	-0.0168322	0.0203827	0.0432176	0.150108	0.0649999	0.14876	0.335119	0.0723491	0.489463	0.0979078	0.316971	0.171783	0.254451	0.45101	0.208027	0.272059	0.231835	0.249807	0.22717	0.114773	
2.405	0.0436256	0.161893	0.124088	0.294846	0.0627929	0.046813	0.309523	0.103356	0.385274	0.346635	0.408118	0.393258	0.366792	0.441856	0.0366447	0.0484688	0.0589122	0.0469452	0.0580183	0.0402181	0.0115088	0.020694	0.0494884	0.20339	0.0730584	0.146015	0.360296	0.0824003	0.507236	0.10173	0.35965	0.239822	0.302645	0.425385	0.244415	0.291525	0.261131	0.293709	0.266228	0.0298291	0.124565	0.0747445	0.214154	-0.0360967	-0.0469552	0.295682	0.0756899	0.348586	0.319939	0.379371	0.351946	0.341224	0.354154	0.00681833	0.0251236	0.0464971	0.0200272	0.029851	0.00969907	-0.0166391	0.0203947	0.0432358	0.149825	0.0644008	0.148791	0.335201	0.0722062	0.489817	0.0975015	0.315781	0.170117	0.254711	0.450618	0.207636	0.272229	0.232023	0.249996	0.227341	0.1148	
2.41	0.0435772	0.162467	0.124183	0.294849	0.062821	0.0467938	0.309	0.103239	0.385275	0.346511	0.408295	0.393558	0.367101	0.442236	0.0366772	0.048498	0.0589344	0.0471421	0.0581106	0.0402612	0.0115797	0.0207892	0.0496335	0.203225	0.0731435	0.145936	0.359973	0.082416	0.509338	0.101749	0.358484	0.239428	0.303327	0.426265	0.243894	0.291205	0.262499	0.295537	0.267224	0.029768	0.124322	0.0747899	0.214316	-0.0360544	-0.0477513	0.295512	0.0755581	0.348101	0.319494	0.379485	0.352085	0.340554	0.353694	0.00868842	0.0275258	0.0494495	0.0207735	0.0306408	0.0102985	-0.0164911	0.0204053	0.0432535	0.149589	0.0636139	0.148823	0.335286	0.071915	0.489956	0.097135	0.314931	0.168891	0.254986	0.450083	0.207227	0.272412	0.232225	0.250199	0.227533	0.114865	
2.415	0.0435358	0.163062	0.124321	0.294912	0.0628723	0.0467791	0.308475	0.103111	0.384838	0.345866	0.408487	0.393885	0.367527	0.442682	0.0367139	0.0485319	0.058965	0.0472685	0.0581743	0.0403033	0.0116437	0.0208503	0.0497265	0.203081	0.0732338	0.145868	0.359868	0.0824343	0.511595	0.101769	0.357192	0.239109	0.303994	0.427185	0.243371	0.291197	0.263987	0.296927	0.268054	0.0297128	0.124085	0.0748428	0.214493	-0.0358723	-0.0485091	0.295706	0.0754585	0.347597	0.319038	0.3796	0.352227	0.340046	0.35329	0.0106445	0.0300423	0.0499744	0.0214861	0.0314478	0.0109531	-0.0163878	0.0204142	0.0432706	0.149405	0.0626704	0.148855	0.335372	0.0714754	0.489953	0.0968097	0.314472	0.168162	0.25527	0.449419	0.206812	0.272604	0.232427	0.250388	0.227716	0.114952	
2.42	0.0435052	0.163685	0.124467	0.294973	0.0629341	0.0467695	0.307956	0.102979	0.383338	0.343994	0.408687	0.39423	0.368065	0.443094	0.036751	0.0485658	0.0589977	0.0473458	0.0582125	0.0403425	0.0116912	0.0208849	0.0497825	0.202961	0.0733286	0.145844	0.360061	0.0824548	0.513971	0.101789	0.355801	0.238848	0.304646	0.428144	0.242875	0.291491	0.265543	0.297985	0.268705	0.029661	0.123861	0.0749038	0.214682	-0.0355457	-0.049219	0.296282	0.0753841	0.347083	0.318579	0.379713	0.352369	0.339733	0.3529	0.012666	0.0326461	0.0499213	0.0221612	0.0322668	0.0116584	-0.0163275	0.0204215	0.043287	0.149267	0.0615963	0.148887	0.33546	0.0709091	0.489825	0.0965249	0.31443	0.16796	0.255561	0.448643	0.206399	0.272802	0.232627	0.25058	0.227899	0.115051	
2.425	0.0434839	0.164347	0.124586	0.294969	0.0629924	0.0467651	0.307454	0.102849	0.380828	0.341605	0.408888	0.39458	0.368661	0.44354	0.0367858	0.0485967	0.0590281	0.0473865	0.0582304	0.0403775	0.0117251	0.0208998	0.0498119	0.202868	0.0734275	0.14589	0.360465	0.0824775	0.516431	0.10181	0.354347	0.238629	0.305301	0.429133	0.24244	0.29196	0.267112	0.298833	0.268342	0.0296114	0.123651	0.0749723	0.214883	-0.0350735	-0.0498731	0.297238	0.0753329	0.34657	0.318127	0.379825	0.35251	0.339629	0.352546	0.0147325	0.0353105	0.0499558	0.0227964	0.0330932	0.0124094	-0.0163069	0.0204272	0.0433029	0.149165	0.0604125	0.148919	0.335546	0.0702396	0.489593	0.0962776	0.314811	0.168293	0.255856	0.447778	0.205997	0.273004	0.23283	0.250778	0.228086	0.11516	
2.43	0.0434699	0.165059	0.124652	0.294844	0.0630338	0.0467656	0.306979	0.102727	0.37865	0.33981	0.409085	0.394926	0.369265	0.443997	0.0368168	0.048623	0.0590544	0.0473972	0.0582321	0.0404074	0.0117492	0.0209002	0.04982	0.202802	0.0735298	0.146002	0.360966	0.0825022	0.518941	0.101831	0.352869	0.23844	0.305971	0.430143	0.242092	0.292495	0.268429	0.299575	0.268218	0.0295646	0.123455	0.0750473	0.215093	-0.0344592	-0.0504655	0.298559	0.0753022	0.346066	0.317686	0.379932	0.352649	0.339735	0.352276	0.016824	0.0380095	0.0500001	0.0233909	0.0339226	0.0132007	-0.0163216	0.0204314	0.0433183	0.149093	0.0591368	0.148949	0.335631	0.0694852	0.489282	0.0960594	0.315601	0.169147	0.256156	0.446848	0.205612	0.273207	0.233037	0.250981	0.228277	0.115275	
2.435	0.0434615	0.165835	0.124652	0.294578	0.0630476	0.0467696	0.306539	0.102616	0.377294	0.338625	0.409271	0.395257	0.369843	0.444437	0.0368435	0.0486439	0.0590764	0.0473826	0.0582198	0.040431	0.0117652	0.0208896	0.0498104	0.202762	0.0736351	0.14616	0.3615	0.0825287	0.521469	0.101853	0.351417	0.238273	0.306643	0.431162	0.241844	0.293044	0.269137	0.300277	0.268617	0.0295214	0.123272	0.0751281	0.215315	-0.0337097	-0.0509923	0.300215	0.0752876	0.345577	0.317257	0.380035	0.352784	0.340039	0.352137	0.0189218	0.0407185	0.0500385	0.0239453	0.0347517	0.0140266	-0.016366	0.0204343	0.0433335	0.149046	0.057785	0.148979	0.335714	0.0686592	0.488906	0.0958564	0.316774	0.170489	0.256467	0.44588	0.205251	0.273407	0.233248	0.251186	0.228469	0.115393	
2.44	0.0434574	0.166688	0.124586	0.294185	0.0630278	0.0467756	0.306137	0.102518	0.376388	0.337709	0.409443	0.395565	0.370372	0.444835	0.0368642	0.0486587	0.0590933	0.0473485	0.0581959	0.0404476	0.0117741	0.0208712	0.0497855	0.202745	0.0737424	0.146343	0.362039	0.082557	0.523981	0.101874	0.350035	0.238127	0.307289	0.432182	0.241696	0.293585	0.269393	0.300956	0.269303	0.0294822	0.123101	0.0752152	0.215548	-0.0328357	-0.0514517	0.301431	0.075284	0.34511	0.31684	0.380132	0.352913	0.340522	0.352153	0.0210086	0.0434148	0.0500811	0.0244614	0.0355776	0.0148816	-0.0164339	0.0204362	0.0433487	0.149023	0.056372	0.149007	0.335794	0.0677594	0.488467	0.0956623	0.318288	0.17227	0.256786	0.444897	0.204913	0.273603	0.233459	0.251389	0.22866	0.115511	
2.445	0.0434566	0.167628	0.124459	0.293502	0.0629698	0.0467827	0.305775	0.102436	0.375642	0.33689	0.409597	0.39584	0.370836	0.445174	0.0368766	0.0486646	0.0591015	0.0473011	0.0581622	0.040457	0.0117775	0.0208475	0.0497479	0.202751	0.0738506	0.146535	0.362567	0.0825869	0.526449	0.101896	0.348752	0.238002	0.307872	0.433191	0.241642	0.294105	0.26948	0.301583	0.270017	0.029447	0.122942	0.0753098	0.215798	-0.0318505	-0.051844	0.30193	0.0752872	0.344671	0.316434	0.380222	0.353036	0.341155	0.352327	0.0230689	0.046078	0.0501271	0.024942	0.0363982	0.0157604	-0.0165183	0.0204373	0.0433642	0.149019	0.0549117	0.149034	0.335871	0.0667927	0.487964	0.0954811	0.320095	0.17443	0.25711	0.443899	0.204597	0.273793	0.233663	0.251585	0.228842	0.115625	
2.45	0.0434583	0.168667	0.124284	0.292437	0.0628622	0.04679	0.30545	0.10237	0.374978	0.336153	0.409731	0.396076	0.371222	0.445437	0.0368794	0.0486567	0.0590975	0.047246	0.058121	0.0404596	0.0117768	0.0208208	0.0497003	0.202777	0.07396	0.146722	0.363073	0.0826184	0.528848	0.101919	0.347586	0.237902	0.308364	0.434194	0.241672	0.294598	0.269517	0.302103	0.27061	0.0294158	0.122798	0.075413	0.216065	-0.0307699	-0.0521713	0.302126	0.0752934	0.344261	0.316042	0.380306	0.353151	0.341903	0.352652	0.0250893	0.047216	0.0501744	0.0253907	0.037212	0.0166584	-0.0166121	0.0204381	0.0433801	0.149032	0.0534168	0.149059	0.335942	0.06577	0.487394	0.0953165	0.322145	0.176906	0.257432	0.442869	0.204295	0.273973	0.233852	0.251766	0.229011	0.115734	
2.455	0.0434615	0.169813	0.124067	0.291092	0.0626772	0.0467973	0.305158	0.102321	0.37442	0.335541	0.409942	0.396265	0.371516	0.445612	0.036873	0.0486355	0.0590803	0.047188	0.0580745	0.040456	0.0117733	0.0207928	0.0496453	0.202819	0.0740727	0.146899	0.363546	0.0826511	0.531085	0.101942	0.346547	0.237829	0.30874	0.435183	0.241781	0.295058	0.269502	0.302466	0.271025	0.0293882	0.122672	0.0755251	0.216345	-0.0296115	-0.0524375	0.302352	0.0753002	0.343883	0.315671	0.380383	0.353257	0.342734	0.353117	0.0270587	0.0472283	0.0502221	0.0258113	0.0380181	0.0175713	-0.0167086	0.0204387	0.0433969	0.14906	0.051886	0.149082	0.336009	0.0647019	0.486755	0.0951693	0.323871	0.179633	0.257749	0.441812	0.204008	0.274143	0.234019	0.251925	0.229158	0.115834	
2.46	0.0434659	0.17107	0.12384	0.28961	0.0624831	0.0468042	0.304894	0.102289	0.374011	0.335241	0.410247	0.396404	0.37171	0.445688	0.0368583	0.0486037	0.0590511	0.0471311	0.0580251	0.0404472	0.0117683	0.020765	0.0495857	0.202874	0.074193	0.147059	0.363979	0.082685	0.532614	0.101966	0.345636	0.237785	0.308983	0.436138	0.24197	0.295481	0.2694	0.30258	0.271208	0.0293638	0.122564	0.0756459	0.216635	-0.0283934	-0.052648	0.30266	0.0753059	0.343533	0.315327	0.380452	0.353355	0.343612	0.353623	0.0289678	0.04721	0.0502694	0.0262077	0.0388159	0.0184952	-0.0168015	0.0204396	0.0434148	0.1491	0.0503229	0.149103	0.33607	0.0635986	0.486039	0.0950389	0.324754	0.182547	0.258062	0.440753	0.20374	0.274302	0.23415	0.252049	0.229274	0.115924	
2.465	0.0434709	0.172443	0.123639	0.288093	0.0623638	0.0468109	0.304654	0.102271	0.373876	0.335169	0.410598	0.396486	0.371797	0.445658	0.0368363	0.0485632	0.0590114	0.0470778	0.0579748	0.0404343	0.0117625	0.0207386	0.0495245	0.202937	0.0743247	0.147201	0.36437	0.0827199	0.53331	0.10199	0.344831	0.237774	0.309079	0.437043	0.24224	0.295866	0.269238	0.302463	0.271169	0.0293422	0.122469	0.0757741	0.216937	-0.0271344	-0.0528094	0.303	0.0753097	0.343212	0.315012	0.380515	0.353443	0.344366	0.35404	0.0308095	0.0472314	0.0503161	0.0265835	0.039605	0.0194267	-0.0168852	0.0204411	0.043434	0.149151	0.0487404	0.149123	0.336126	0.0624696	0.485242	0.0949243	0.325103	0.185595	0.258367	0.439721	0.203495	0.274448	0.234237	0.252132	0.229352	0.116002	
2.47	0.0434761	0.173293	0.123483	0.286589	0.0623079	0.0468172	0.304434	0.102266	0.373961	0.335259	0.410945	0.39651	0.371773	0.445513	0.0368003	0.0485163	0.0589632	0.0470296	0.0579257	0.0404185	0.0117566	0.0207145	0.0494641	0.203004	0.07447	0.147323	0.364718	0.0827555	0.533467	0.102015	0.344103	0.237797	0.309016	0.437888	0.24259	0.296209	0.269057	0.302231	0.27099	0.0293231	0.122385	0.0759078	0.217255	-0.0258525	-0.0529288	0.303344	0.0753107	0.342918	0.314729	0.38057	0.353522	0.344833	0.354337	0.0325788	0.0472448	0.0503622	0.026942	0.0403849	0.0203629	-0.0169555	0.0204432	0.0434546	0.14921	0.0471506	0.149139	0.336176	0.0613242	0.48437	0.0948241	0.325373	0.187047	0.258657	0.438732	0.203275	0.27458	0.234284	0.252175	0.229393	0.116068	
2.475	0.0434815	0.173451	0.123382	0.285117	0.0622821	0.046823	0.304233	0.10227	0.374226	0.335518	0.411259	0.396469	0.371635	0.44525	0.036758	0.048465	0.0589096	0.0469872	0.0578793	0.040401	0.011751	0.0206932	0.049407	0.203067	0.0746306	0.147424	0.365023	0.0827925	0.533405	0.10204	0.343444	0.237855	0.308789	0.438666	0.243009	0.296508	0.268873	0.301927	0.270719	0.0293059	0.122309	0.0760439	0.217592	-0.0245631	-0.0530142	0.303692	0.0753096	0.342653	0.314478	0.380618	0.35359	0.345058	0.354564	0.0337377	0.0472578	0.0504082	0.0272858	0.0411551	0.0213008	-0.0170091	0.0204463	0.0434767	0.149277	0.0455645	0.149154	0.336219	0.0601707	0.483422	0.0947371	0.325736	0.187152	0.258928	0.437787	0.203082	0.274698	0.234287	0.252177	0.229395	0.116121	
2.48	0.0434866	0.173433	0.123342	0.283688	0.0622757	0.0468285	0.304055	0.102278	0.374676	0.335981	0.411528	0.396363	0.37138	0.444865	0.0367149	0.0484111	0.0588541	0.0469503	0.0578368	0.040383	0.0117461	0.0206747	0.0493549	0.203122	0.0748078	0.147506	0.365286	0.0828302	0.53329	0.102066	0.342863	0.23795	0.308391	0.439374	0.243466	0.296759	0.268683	0.301526	0.27035	0.0292904	0.12224	0.0761786	0.217943	-0.0232868	-0.0530733	0.30405	0.0753076	0.342417	0.31426	0.38066	0.35365	0.345176	0.354775	0.0337813	0.0472724	0.0504552	0.0276169	0.041915	0.0222378	-0.017044	0.0204504	0.0435004	0.149352	0.0439921	0.149167	0.336257	0.0590167	0.482411	0.0946625	0.326163	0.18712	0.259176	0.436877	0.202915	0.274803	0.234245	0.252135	0.229357	0.116162	
2.485	0.0434915	0.17347	0.123357	0.282309	0.0622849	0.0468335	0.303904	0.102287	0.375342	0.336725	0.411748	0.396186	0.371008	0.444358	0.0366711	0.0483555	0.0588001	0.0469185	0.0577988	0.0403655	0.011742	0.0206592	0.0493087	0.203166	0.0750027	0.147568	0.365506	0.082868	0.533167	0.102092	0.342367	0.23808	0.30782	0.440011	0.243889	0.29696	0.26849	0.301001	0.269869	0.0292762	0.122175	0.0763101	0.218304	-0.0220347	-0.053114	0.304419	0.0753062	0.342213	0.314075	0.380695	0.353699	0.345282	0.355006	0.0337532	0.0472878	0.0505033	0.0279368	0.0426638	0.0231713	-0.0170594	0.0204556	0.0435257	0.149434	0.042442	0.149177	0.336289	0.0578689	0.481361	0.0945999	0.326607	0.187207	0.259396	0.436013	0.202774	0.274894	0.23416	0.252051	0.229281	0.116193	
2.49	0.0434959	0.173532	0.123403	0.280988	0.0623005	0.0468381	0.303782	0.102292	0.376536	0.337719	0.411921	0.395936	0.370523	0.443732	0.0366262	0.0482994	0.0587496	0.0468913	0.0577656	0.0403496	0.0117387	0.0206463	0.0492689	0.203198	0.075216	0.147611	0.365683	0.082906	0.533036	0.102119	0.341957	0.238243	0.307074	0.440577	0.244094	0.297109	0.268305	0.30036	0.269287	0.029263	0.122115	0.076442	0.218668	-0.0208187	-0.0531434	0.304804	0.0753076	0.342039	0.31392	0.380723	0.35374	0.345411	0.355267	0.0337655	0.0473036	0.0505517	0.0282463	0.0434003	0.0240989	-0.0170553	0.020462	0.0435525	0.149525	0.0409214	0.149185	0.336315	0.0567331	0.480293	0.0945491	0.32706	0.187307	0.259588	0.435231	0.202656	0.274971	0.234033	0.251929	0.229169	0.116214	
2.495	0.0434999	0.173586	0.12344	0.279735	0.0623153	0.0468422	0.303692	0.102292	0.377916	0.33893	0.412046	0.39561	0.369931	0.442993	0.0365804	0.0482443	0.0587027	0.0468683	0.0577373	0.040336	0.0117363	0.020636	0.0492354	0.203217	0.075448	0.147635	0.365819	0.0829439	0.532891	0.102146	0.341631	0.238434	0.306155	0.441076	0.244007	0.297204	0.268128	0.299641	0.268637	0.0292506	0.122057	0.0765791	0.219029	-0.0196485	-0.0531681	0.305214	0.0753139	0.341896	0.313794	0.380746	0.353773	0.345564	0.355564	0.0337718	0.0473198	0.0505995	0.0285458	0.0441237	0.0250183	-0.0170328	0.0204694	0.0435808	0.149627	0.0394359	0.149191	0.336336	0.055614	0.479222	0.09451	0.327538	0.187399	0.259749	0.434537	0.202562	0.275035	0.233868	0.251769	0.229023	0.116227	
2.5	0.0435034	0.173632	0.123417	0.27856	0.0623284	0.0468458	0.303633	0.102284	0.378759	0.339969	0.412123	0.395206	0.369248	0.44215	0.0365351	0.0481921	0.0586588	0.046849	0.0577139	0.0403254	0.0117346	0.020628	0.0492081	0.203225	0.0756974	0.14764	0.36591	0.0829817	0.532735	0.102174	0.341382	0.238645	0.305071	0.44151	0.243803	0.297247	0.267944	0.298874	0.26795	0.0292387	0.122004	0.0767228	0.21938	-0.018531	-0.0531936	0.305652	0.0753271	0.341782	0.313695	0.380764	0.353797	0.34574	0.3559	0.0337763	0.0473361	0.0506462	0.0288354	0.0448327	0.0259275	-0.0169935	0.0204778	0.0436107	0.14974	0.0379893	0.149196	0.336351	0.054515	0.478159	0.0944821	0.328058	0.187502	0.259879	0.433907	0.202488	0.275087	0.233675	0.251582	0.228852	0.116234	
2.505	0.0435063	0.173674	0.12328	0.277472	0.0623402	0.046849	0.303603	0.102265	0.378997	0.340502	0.412151	0.394721	0.368497	0.441227	0.0364921	0.0481438	0.0586168	0.0468331	0.0576952	0.0403185	0.0117337	0.0206222	0.0491869	0.203223	0.0759577	0.147627	0.365958	0.0830192	0.532573	0.102201	0.341206	0.238867	0.303842	0.441884	0.243601	0.297235	0.267685	0.298062	0.267236	0.0292271	0.121952	0.0768728	0.219714	-0.0174703	-0.0532242	0.306116	0.0753487	0.341694	0.313622	0.380777	0.353815	0.345944	0.356276	0.0337821	0.0473524	0.0506921	0.0291149	0.0455265	0.0268248	-0.0169397	0.020487	0.0436424	0.149866	0.0365837	0.149199	0.336362	0.0534383	0.477118	0.0944645	0.328624	0.18762	0.25998	0.433317	0.202433	0.275127	0.233469	0.251382	0.228668	0.116239	
2.51	0.0435087	0.173713	0.123107	0.276479	0.0623508	0.0468518	0.3036	0.102237	0.378997	0.340675	0.412129	0.394153	0.367712	0.440265	0.0364528	0.0480992	0.0585757	0.0468203	0.0576812	0.0403158	0.0117334	0.0206185	0.0491721	0.203212	0.0762215	0.147596	0.36596	0.0830565	0.532408	0.102228	0.341095	0.239089	0.302503	0.442201	0.243414	0.297172	0.267306	0.297202	0.266489	0.0292159	0.121904	0.0770285	0.220033	-0.0164681	-0.0532629	0.306615	0.0753806	0.341632	0.31357	0.380785	0.353826	0.346182	0.356692	0.0337885	0.0473686	0.0507375	0.029384	0.0460798	0.0277088	-0.0168737	0.020497	0.0436759	0.150004	0.0352194	0.1492	0.336368	0.0523848	0.476119	0.0944564	0.329241	0.18775	0.260054	0.432749	0.202395	0.275156	0.233253	0.251174	0.228476	0.116244	
2.515	0.0435106	0.173744	0.122974	0.27559	0.0623604	0.0468541	0.303619	0.102199	0.379015	0.340741	0.412059	0.393504	0.366935	0.439296	0.0364168	0.0480576	0.0585345	0.0468103	0.0576721	0.040318	0.0117338	0.0206171	0.049164	0.203194	0.0764818	0.147548	0.365918	0.0830935	0.532245	0.102255	0.341039	0.239301	0.301115	0.442467	0.243227	0.297057	0.266808	0.29636	0.265759	0.0292049	0.121858	0.0771892	0.220348	-0.0155229	-0.053311	0.307165	0.0754236	0.341591	0.313537	0.38079	0.353831	0.346455	0.357146	0.0337953	0.0473848	0.0507824	0.0296421	0.0461506	0.0285787	-0.0167984	0.0205076	0.0437112	0.150154	0.0338947	0.1492	0.336371	0.0513539	0.475207	0.0944563	0.32993	0.187892	0.260103	0.432203	0.202371	0.275176	0.233037	0.250965	0.228281	0.116252	
2.52	0.0435121	0.173769	0.122917	0.27481	0.062369	0.0468561	0.303655	0.102151	0.379091	0.34081	0.411943	0.392774	0.366189	0.438209	0.0363834	0.0480183	0.0584935	0.0468027	0.0576678	0.0403256	0.0117349	0.0206179	0.0491632	0.203168	0.0767321	0.147486	0.365836	0.0831302	0.532085	0.102282	0.34103	0.239493	0.299787	0.442685	0.243035	0.296895	0.266209	0.295603	0.265106	0.0291941	0.121814	0.0773545	0.220666	-0.0146302	-0.0533685	0.30778	0.0754777	0.341569	0.313521	0.380791	0.353832	0.346764	0.357634	0.0338026	0.0474009	0.0508268	0.0298885	0.0461221	0.029434	-0.0167166	0.0205186	0.0437482	0.150316	0.0326061	0.1492	0.336371	0.0503438	0.474391	0.0944629	0.33072	0.188046	0.26013	0.43168	0.20236	0.275188	0.232823	0.250759	0.228088	0.116267	
2.525	0.0435131	0.173787	0.122917	0.274147	0.0623768	0.0468577	0.303703	0.102093	0.379176	0.340883	0.411783	0.391968	0.365467	0.436922	0.0363522	0.0479815	0.0584544	0.0467973	0.0576688	0.0403396	0.0117367	0.0206212	0.0491695	0.203137	0.0769654	0.147411	0.365716	0.0831669	0.53193	0.102308	0.341057	0.239654	0.298616	0.44286	0.242846	0.29669	0.265535	0.294937	0.264535	0.0291838	0.121773	0.077524	0.22099	-0.0137832	-0.0534336	0.308465	0.0755422	0.341562	0.313519	0.38079	0.353829	0.347108	0.358161	0.0338103	0.0474169	0.0508711	0.0301221	0.0461264	0.030275	-0.0166312	0.0205299	0.0437867	0.150492	0.0313483	0.149198	0.336369	0.0493511	0.473644	0.0944745	0.331627	0.188209	0.260139	0.431176	0.202359	0.275193	0.232616	0.250559	0.2279	0.116265	
2.53	0.0435137	0.173798	0.122927	0.273603	0.0623839	0.046859	0.303757	0.102026	0.379238	0.340938	0.41158	0.391089	0.36476	0.43542	0.0363236	0.0479478	0.0584213	0.0467938	0.0576754	0.0403608	0.0117392	0.0206271	0.0491825	0.203105	0.0771742	0.147322	0.365556	0.0832039	0.531781	0.102333	0.341111	0.239776	0.297526	0.442996	0.242664	0.296448	0.264804	0.294342	0.264013	0.029174	0.121734	0.0776983	0.221322	-0.0129721	-0.0535027	0.309218	0.0756156	0.341567	0.313526	0.380786	0.353823	0.34748	0.35873	0.0338184	0.047433	0.0509152	0.0303417	0.0461358	0.0311021	-0.0165455	0.0205412	0.0438266	0.150685	0.0301144	0.149196	0.336365	0.0483714	0.47293	0.0944895	0.332646	0.188381	0.260133	0.43067	0.202364	0.275192	0.232412	0.250364	0.227716	0.116211	
2.535	0.0435139	0.173803	0.123324	0.273182	0.0623903	0.04686	0.303812	0.10195	0.379273	0.340969	0.411332	0.390145	0.364072	0.433735	0.0362981	0.0479188	0.0584001	0.0467923	0.0576881	0.0403901	0.0117428	0.0206358	0.0492027	0.203077	0.0773487	0.147219	0.365349	0.0832413	0.531639	0.102357	0.341181	0.239853	0.296365	0.443096	0.242521	0.296176	0.264034	0.293785	0.263503	0.0291648	0.121699	0.0778781	0.221662	-0.0121856	-0.053571	0.310026	0.0756962	0.341581	0.313539	0.380782	0.353816	0.347878	0.35934	0.0338269	0.0474491	0.0509594	0.0305455	0.0461405	0.0319163	-0.0164626	0.0205524	0.0438674	0.1509	0.0288961	0.149194	0.33636	0.0473991	0.472228	0.0945063	0.33375	0.18856	0.260118	0.430088	0.202374	0.275188	0.232211	0.250174	0.227536	0.116059	
2.54	0.0435138	0.1738	0.123968	0.272885	0.0623961	0.0468607	0.303863	0.101866	0.379286	0.340978	0.41104	0.389145	0.363408	0.431912	0.0362768	0.047896	0.0583979	0.046793	0.0577076	0.0404289	0.0117476	0.0206477	0.0492311	0.203065	0.0774772	0.147102	0.365087	0.0832794	0.531504	0.10238	0.341258	0.239883	0.29506	0.443165	0.242541	0.295872	0.263238	0.293261	0.263012	0.0291566	0.121666	0.0780635	0.222015	-0.0114101	-0.053632	0.310869	0.0757829	0.341598	0.313555	0.380778	0.353809	0.348299	0.359987	0.0338357	0.0474653	0.0510041	0.0307313	0.0461454	0.0327188	-0.0163858	0.0205634	0.0439088	0.151136	0.027684	0.149192	0.336355	0.0464277	0.47153	0.0945231	0.334933	0.188747	0.260098	0.429234	0.202387	0.275181	0.232012	0.249988	0.227358	0.115595	
2.545	0.0435134	0.173791	0.124665	0.272709	0.0624013	0.0468612	0.303907	0.101778	0.379281	0.34097	0.41071	0.388099	0.362771	0.429902	0.0362606	0.0478811	0.0584214	0.0467962	0.0577348	0.0404385	0.0117497	0.020649	0.0492271	0.203076	0.0775422	0.14697	0.364763	0.0833184	0.531376	0.102401	0.341333	0.239869	0.293607	0.443206	0.242837	0.295535	0.262429	0.292674	0.262522	0.0291495	0.121638	0.0782541	0.222385	-0.0106312	-0.0536778	0.31177	0.075875	0.341616	0.313571	0.380774	0.353803	0.348742	0.360674	0.033845	0.0474818	0.0510495	0.0308964	0.0461514	0.0335108	-0.0163186	0.0205739	0.0439504	0.151395	0.0264682	0.149191	0.336351	0.0454505	0.470832	0.0945384	0.336284	0.188942	0.260077	0.428037	0.202399	0.275174	0.231818	0.249807	0.227186	0.114922	
