CEINMS output
datacolumns 11
datarows 217
endheader
time	hip_flexion_r	hip_adduction_r	hip_rotation_r	knee_angle_r	ankle_angle_r	hip_flexion_l	hip_adduction_l	hip_rotation_l	knee_angle_l	ankle_angle_l	
0.175	9.62038	-14.441	2.22735	1.6915	-8.7125	-4.405	-2.17293	-5.21616	5.37812	1.38565	
0.18	5.79078	-19.9365	2.47533	1.5059	-7.08591	-2.31712	3.12033	-4.81347	5.29325	1.72959	
0.185	0.76992	-25.3844	1.82552	2.28945	-6.21705	-3.10353	3.43618	-6.56683	6.08644	2.04724	
0.19	-4.46215	-27.4554	1.47038	2.94596	-5.83526	-2.93312	2.57952	-7.33948	6.47488	2.25	
0.195	-6.65845	-24.985	2.0337	3.48312	-5.75391	-0.0788449	2.27259	-5.72307	5.83406	2.40387	
0.2	-6.15241	-20.0079	3.02098	4.30838	-5.67201	3.46817	2.34566	-3.25938	4.78316	2.56089	
0.205	-5.49832	-16.1017	3.81105	5.1961	-5.59658	5.69099	2.41146	-1.77495	4.03588	2.73288	
0.21	-5.87972	-14.5762	4.19341	5.90095	-5.52082	6.759	2.49459	-1.22684	3.64932	2.91662	
0.215	-8.9718	-16.3945	3.69914	6.41601	-5.45293	7.47673	2.81411	-1.03329	3.48297	3.10795	
0.22	-14.244	-20.5965	2.40256	6.79941	-5.39308	8.19917	3.32854	-0.984244	3.40328	3.30611	
0.225	-20.4265	-25.8639	0.629695	7.08691	-5.33542	10.1039	5.40502	-0.945566	3.35979	3.5108	
0.23	-25.5889	-31.125	-1.18666	7.03703	-5.28645	13.1063	9.13548	-0.862523	3.36569	3.7208	
0.235	-28.3054	-36.6063	-2.74736	6.23328	-5.24609	16.5088	13.6454	-0.787452	3.40905	3.93409	
0.24	-26.2283	-43.3509	-1.2726	4.58835	-5.20937	19.9289	18.4102	-0.71806	0.872081	4.14819	
0.245	-20.8609	-49.4043	1.55116	2.52053	-5.17998	22.7765	22.6036	-0.678228	-7.16445	4.36029	
0.25	-15.1388	-53.4408	3.21063	0.415311	-5.15871	24.9674	26.0351	-0.652754	-10.356	4.56751	
0.255	-10.4079	-55.884	3.54738	-1.47193	-5.14097	26.1051	28.7475	-0.730535	-11.0703	4.77272	
0.26	-7.10226	-57.8096	3.3213	-2.85199	-5.12915	25.7365	30.788	-1.00918	-8.03383	4.98738	
0.265	-5.08784	-59.6425	2.81414	-3.75786	-5.12547	25.4232	29.9943	-0.886279	-5.47265	5.21528	
0.27	-3.94104	-61.2378	2.12024	-4.27586	-5.12406	24.0941	28.6479	-0.91128	-4.06502	5.40103	
0.275	-3.1472	-62.3212	1.24961	-4.5593	-5.128	21.9305	26.1739	-0.870157	-3.29281	5.68327	
0.28	-2.38096	-62.7945	0.330631	-4.70248	-5.14033	18.9432	22.5167	-0.870151	-2.69719	5.75762	
0.285	-1.45446	-62.9636	-0.43188	-4.78406	-5.15269	15.1239	18.2057	-1.03692	-2.15763	6.10684	
0.29	-0.337785	-63.1679	-0.893578	-4.81938	-5.16321	11.265	13.5007	-1.55073	-1.70562	6.27962	
0.295	0.947761	-63.526	-1.07332	-4.82529	-5.17259	7.15648	9.01029	-2.55666	-1.34442	6.42756	
0.3	2.37514	-64.0021	-1.0408	-4.81064	-5.1821	3.6124	5.19788	-3.62936	-1.03868	6.53368	
0.305	3.96639	-64.6995	-0.772633	-4.79014	-5.1903	0.787051	2.07856	-4.68553	-0.77159	6.60245	
0.31	5.70689	-65.6375	-0.291122	-4.76983	-5.20133	-1.28371	-0.376313	-5.51484	-0.512917	6.62747	
0.315	7.54434	-66.7084	0.325776	-4.74978	-5.2151	-2.58133	-2.25791	-5.99109	-1.97997	6.60881	
0.32	9.4252	-67.7584	0.990231	-4.73205	-5.22975	-3.15256	-3.61231	-6.09293	-3.85469	6.54618	
0.325	11.0368	-68.6243	1.43506	-4.71756	-5.2453	-3.07646	-4.46692	-5.85487	-5.76931	6.44099	
0.33	12.1586	-69.0777	1.45783	-4.7032	-5.2647	-2.45431	-4.85906	-5.33937	-7.60826	6.29541	
0.335	12.7614	-69.015	1.02735	-4.69428	-5.3404	-1.41299	-4.82476	-4.64811	-9.2643	6.11255	
0.34	13.0014	-68.5476	0.314007	-4.68386	-5.47746	-0.0729792	-4.4583	-3.8319	-10.6572	5.89639	
0.345	13.0644	-67.9649	-0.485457	-4.6765	-5.64219	1.42718	-3.86311	-2.96875	-11.7194	5.6517	
0.35	13.0159	-67.3508	-1.27071	-4.58555	-6.00873	2.91255	-3.19002	-2.15887	-12.4185	5.38379	
0.355	12.9127	-66.663	-2.01287	-4.43107	-6.51076	3.94542	-2.7466	-1.62496	-12.7334	5.0985	
0.36	12.8081	-65.8332	-2.69407	-4.16062	-7.27698	4.61993	-2.64911	-1.32716	-12.6923	4.80194	
0.365	12.6899	-64.9923	-3.30477	-3.57177	-8.7849	5.12093	-2.89944	-1.17201	-12.3159	4.50114	
0.37	12.5952	-64.0554	-3.84896	-2.71743	-10.9042	5.53886	-3.13831	-1.09139	-11.6512	4.20446	
0.375	12.5087	-62.8583	-4.35144	-1.70766	-13.2498	5.90973	-3.28143	-1.05297	-10.7522	3.92082	
0.38	12.5398	-61.3609	-4.8247	-0.728127	-15.5602	6.22869	-3.37306	-1.04233	-9.67761	3.66454	
0.385	12.678	-59.5881	-5.26537	0.147288	-17.7093	6.48239	-3.45951	-1.05046	-8.4834	3.47342	
0.39	12.8371	-57.606	-5.66125	0.972712	-19.7375	6.66765	-3.57586	-1.0712	-7.22323	3.29522	
0.395	12.9594	-55.5126	-6.00355	1.78478	-21.6786	6.78238	-3.72488	-1.10081	-5.94416	3.12467	
0.4	13.0369	-53.4156	-6.27634	2.59712	-23.5699	6.824	-3.89889	-1.13698	-4.68647	2.96247	
0.405	13.0538	-51.4079	-6.4844	3.40007	-25.4221	6.79622	-4.09926	-1.17842	-3.47193	2.80937	
0.41	13.0111	-49.531	-6.63158	4.28011	-27.4472	5.91682	-3.6255	-1.36748	-2.33671	2.66572	
0.415	13.073	-47.7143	-6.74252	5.47648	-30.2198	4.79953	-3.07392	-1.57945	-1.28399	2.53167	
0.42	13.1026	-46	-6.81286	6.48032	-34.7459	3.55318	-2.92609	-1.85018	-0.326557	2.40725	
0.425	12.9574	-44.4326	-6.8408	6.45698	-41.0342	2.20047	-3.15682	-2.19536	0.533594	2.29235	
0.43	12.9854	-42.9058	-6.86014	4.62348	-43.2742	0.988842	-3.44959	-2.50031	1.2961	2.18682	
0.435	13.1102	-41.3982	-6.87292	2.05836	-43.6416	-0.145	-3.77999	-2.56879	1.96386	2.09036	
0.44	13.9476	-38.9041	-6.81849	0.465835	-45.3566	-1.28245	-4.25908	-1.75375	2.54108	2.00262	
0.445	14.4325	-36.8914	-6.74185	-0.4008	-47.929	-2.20796	-4.54875	-1.5347	3.03128	1.92319	
0.45	14.9099	-35.7556	-6.78606	-0.46318	-49.9698	-2.9137	-4.91313	-1.29485	3.35994	1.84533	
0.455	15.6202	-34.4544	-6.89415	-0.202804	-51.2873	-3.50928	-5.24025	-0.810067	3.68231	1.78743	
0.46	16.1397	-33.0645	-7.01874	0.0406206	-52.3798	-3.93393	-5.52311	-0.417128	3.9525	1.69504	
0.465	16.1779	-32.0012	-6.98499	0.268211	-53.8177	-4.19797	-5.74444	-0.141756	4.14649	1.67925	
0.47	16.0649	-31.0237	-6.97103	0.479887	-55.3391	-4.31593	-5.92045	0.085462	4.28099	1.63345	
0.475	16.0793	-30.0182	-6.96639	0.735281	-56.6973	-4.28876	-6.05225	0.273457	4.36469	1.59473	
0.48	16.1288	-29.124	-6.96115	1.01141	-57.9179	-4.13603	-6.15144	0.409157	4.40101	1.55976	
0.485	16.1826	-28.4321	-6.98609	1.3456	-59.0348	-3.8761	-6.22603	0.495893	4.39867	1.53	
0.49	16.2605	-27.9359	-7.04623	1.68995	-60.0564	-3.53303	-6.28588	0.54353	4.36422	1.50407	
0.495	16.3596	-27.6347	-7.14543	2.00386	-60.9836	-3.13474	-6.34534	0.557279	4.31286	1.48185	
0.5	16.4805	-27.525	-7.2903	2.27948	-61.8398	-2.71748	-6.41634	0.544773	4.25672	1.46286	
0.505	16.6297	-27.6011	-7.47906	2.5262	-62.6525	-2.3268	-6.50644	0.518231	4.20434	1.44681	
0.51	16.7926	-27.8737	-7.71728	2.75179	-63.4292	-2.00559	-6.63362	0.483643	4.17731	1.43336	
0.515	16.9657	-28.3395	-8.01774	2.95481	-64.153	-1.78612	-6.79204	0.446032	4.18829	1.42218	
0.52	17.1756	-28.9606	-8.3801	3.13365	-64.8128	-1.73596	-7.015	0.413437	4.25371	1.41298	
0.525	17.4244	-29.7127	-8.80841	3.28962	-65.4172	-1.91564	-7.3159	0.394916	4.38689	1.40549	
0.53	17.6843	-30.5981	-9.29508	3.42962	-65.9932	-2.36896	-7.71146	0.3925	4.60458	1.39943	
0.535	17.9285	-31.6124	-9.82123	3.56846	-66.5789	-3.13316	-8.21344	0.40337	4.91861	1.39457	
0.54	18.1291	-32.7376	-10.3717	3.72693	-67.2195	-4.21242	-8.90501	0.600844	5.42803	1.39068	
0.545	18.2491	-33.9343	-10.9423	3.92428	-67.959	-5.6814	-9.56322	0.646172	6.12598	1.38757	
0.55	18.3066	-35.1613	-11.5055	4.17269	-68.8287	-7.43853	-10.3743	0.772832	6.80577	1.38506	
0.555	18.2863	-36.3739	-12.0566	4.47877	-69.8588	-9.49575	-11.3135	0.960755	7.47193	1.38297	
0.56	18.2051	-37.5624	-12.5875	4.83936	-71.0683	-11.882	-12.198	1.09194	8.33221	1.38115	
0.565	18.0841	-38.7197	-13.0963	5.24631	-72.4645	-14.4799	-13.0774	1.22144	9.34048	1.37945	
0.57	17.9723	-39.805	-13.5788	5.68545	-74.0249	-17.226	-13.8802	1.3553	10.4459	1.37774	
0.575	17.8726	-40.8043	-14.0445	6.13984	-75.7359	-20.1115	-14.4836	1.50443	11.6131	1.37586	
0.58	17.8332	-41.6771	-14.4799	6.59246	-77.5636	-22.9306	-14.8536	1.70809	12.8767	1.3737	
0.585	17.8758	-42.3614	-14.8887	7.02422	-79.4641	-25.6632	-14.9043	1.87843	14.2085	1.3712	
0.59	18.0133	-42.8497	-15.2744	7.42532	-81.4224	-28.241	-14.5738	1.96833	15.5918	1.36835	
0.595	18.2626	-43.159	-15.6309	7.79799	-83.4191	-30.5935	-13.8323	2.04194	17.0178	1.36517	
0.6	18.6201	-43.2559	-15.9648	8.13944	-85.4395	-32.6755	-12.6504	2.09724	18.4564	1.36173	
0.605	19.106	-43.1569	-16.273	8.39599	-87.4655	-34.4484	-11.0503	2.1292	19.9151	1.33901	
0.61	19.7233	-42.8229	-16.5489	8.57308	-89.4745	-35.8968	-9.06967	2.13969	21.3507	1.31388	
0.615	20.4626	-42.2541	-16.7842	8.68078	-91.4347	-36.9925	-6.76872	2.12172	22.7484	1.30181	
0.62	21.221	-41.4485	-17.0383	8.72215	-93.3257	-37.7969	-4.264	2.08308	24.0595	1.29699	
0.625	22.0316	-40.4006	-17.2395	8.70559	-95.1421	-38.3249	-1.70331	2.02617	25.2838	1.28306	
0.63	22.9748	-39.1395	-17.2849	8.63995	-96.8836	-38.6095	0.768124	1.95401	26.4029	1.26478	
0.635	23.8029	-37.7142	-17.3216	8.54184	-98.5381	-38.6977	3.01202	1.8722	27.346	1.2626	
0.64	24.5483	-36.0896	-17.2711	8.42831	-100.085	-38.6035	4.86107	1.75837	28.122	1.26832	
0.645	25.2021	-34.2846	-17.0952	8.31389	-101.487	-38.3713	6.20483	1.68824	28.6622	1.27702	
0.65	25.743	-32.3516	-16.7896	8.21484	-102.702	-37.996	6.91456	1.59086	28.988	1.2882	
0.655	26.0927	-30.3272	-16.4299	8.15789	-103.678	-37.4768	6.95094	1.48836	29.0137	1.30287	
0.66	26.3144	-28.229	-16.039	8.10775	-104.352	-36.8785	6.29566	1.37805	28.7509	1.32161	
0.665	26.848	-25.9157	-15.31	8.07168	-104.681	-36.1052	4.96014	1.25669	28.1689	1.34449	
0.67	27.2054	-23.7281	-14.6352	8.04281	-104.584	-35.1534	2.9902	1.13922	27.3106	1.3713	
0.675	27.4734	-21.6518	-14.0198	7.98317	-103.99	-33.999	0.530298	0.98201	26.1375	1.40164	
0.68	28.0022	-19.2602	-13.442	7.89489	-102.843	-32.6105	-2.30656	0.812916	24.7091	1.43455	
0.685	28.5926	-16.9239	-12.9248	7.76928	-101.095	-30.9546	-5.34281	0.640892	23.0911	1.46511	
0.69	29.1636	-14.8084	-12.4786	7.59065	-98.7086	-29.0163	-8.41151	0.461864	21.3352	1.49841	
0.695	29.7146	-12.9073	-12.0944	7.3431	-95.6578	-26.797	-11.3348	0.274631	19.5012	1.53625	
0.7	30.2271	-11.2085	-11.7538	7.02021	-91.9411	-24.3138	-13.9432	0.0866929	17.6531	1.57851	
0.705	30.6477	-9.7424	-11.4447	6.6134	-87.5785	-21.5921	-16.0848	-0.0892513	15.8598	1.62509	
0.71	30.3955	-7.50171	-11.4693	6.12704	-82.6101	-18.6972	-17.6661	-0.255631	14.1686	1.67561	
0.715	30.1845	-6.17358	-11.3869	5.56935	-77.0657	-15.711	-18.5875	-0.396482	12.5862	1.72968	
0.72	30.5263	-6.19529	-10.9237	4.95958	-70.9877	-12.7885	-18.7488	-0.467197	10.9417	1.78675	
0.725	30.5885	-5.39627	-10.6411	4.28344	-64.5459	-10.0355	-18.1415	-0.429749	9.21905	1.84617	
0.73	30.8045	-4.40246	-10.228	3.56083	-58.0396	-7.48544	-16.8932	-0.330255	7.70677	1.9072	
0.735	30.891	-3.46409	-9.76912	2.82799	-51.7957	-5.21981	-15.0897	-0.199949	6.45566	1.96901	
0.74	30.9152	-2.24237	-9.29248	-2.24533	-46.0628	-3.28649	-12.8761	-0.0582651	5.3719	2.0307	
0.745	30.9705	-0.776831	-8.78452	-10.9328	-40.8401	-1.66426	-10.471	0.0368293	4.19769	2.09135	
0.75	31.0807	0.872339	-8.27511	-20.6485	-35.9325	-0.434612	-7.94248	0.0646879	3.27945	2.15001	
0.755	31.2726	2.86714	-7.77518	-26.7006	-31.1673	0.329983	-5.98848	0.0689552	2.66213	2.20579	
0.76	31.445	5.12909	-7.33646	-23.2552	-26.5821	0.617255	-4.9815	0.0277585	2.22549	2.25782	
0.765	31.7859	7.61743	-6.99487	-20.4057	-22.2307	0.670151	-4.48606	0.0372122	1.86551	2.3053	
0.77	32.3292	10.335	-6.71878	-20.552	-17.9643	0.601321	-4.28201	0.0793304	1.57893	2.34756	
0.775	33.0256	13.2265	-6.49228	-22.3037	-14.0441	0.482891	-4.26812	0.130106	1.48039	2.38405	
0.78	33.7966	16.0827	-6.33562	-20.9412	-10.9306	0.346837	-4.3967	0.178268	1.53189	2.41435	
0.785	34.5014	18.603	-6.26327	-20.6393	-8.53591	-0.239851	-4.77107	0.172133	1.5943	2.43819	
0.79	34.9617	20.5538	-6.20713	-19.6341	-6.52166	-1.42779	-5.40036	0.0868006	1.68503	2.45545	
0.795	35.021	21.8955	-6.11782	-18.0053	-5.71071	-2.78658	-6.11677	-0.0330239	1.8448	2.46616	
0.8	34.9441	22.4687	-6.03713	-16.5179	-5.32037	-4.23762	-6.88475	-0.182799	2.04215	2.47047	
0.805	35.906	21.5803	-6.13152	-17.9866	-4.09753	-5.69479	-7.67078	-0.355544	2.2433	2.46867	
0.81	34.101	19.3453	-6.62809	-19.6667	-3.07352	-7.07587	-8.44154	-0.540959	2.43601	2.46114	
0.815	29.4891	19.2416	-7.72024	-20.7099	-2.30843	-8.29901	-9.16703	-0.726923	2.59443	2.44835	
0.82	24.9083	18.4333	-7.99465	-19.1105	-1.71023	-9.29034	-9.82157	-0.89974	2.6881	2.43082	
0.825	21.0181	17.129	-7.62398	-15.9539	-1.27451	-9.9889	-10.3835	-1.04564	2.71115	2.40914	
0.83	17.7627	15.2831	-7.03184	-12.9325	-1.02717	-10.3507	-10.8377	-1.1556	2.64733	2.38387	
0.835	14.9749	12.8789	-6.50448	-10.609	-0.960102	-10.3526	-11.1817	-1.21914	2.48499	2.3556	
0.84	12.725	10.0823	-6.07289	-8.99854	-1.04076	-9.9924	-11.4214	-1.23343	2.24988	2.3249	
0.845	11.11	7.15481	-5.65994	-7.86688	-1.23617	-9.29359	-11.5637	-1.20275	1.972	2.2923	
0.85	10.1667	4.2689	-5.22562	-7.71685	-1.5212	-8.28614	-11.692	-1.12575	1.69108	2.25832	
0.855	9.81316	1.54592	-4.76345	-7.39553	-1.8761	-7.06003	-11.7216	-1.01282	1.48731	2.22339	
0.86	9.92391	-0.914389	-4.29271	-6.48335	-2.28187	-5.7013	-11.6251	-0.875312	1.36309	2.18794	
0.865	10.2955	-2.95349	-3.86012	-5.6348	-2.71862	-4.28562	-11.4365	-0.724345	1.29279	2.1523	
0.87	11.2732	-4.62085	-3.56314	-5.90418	-3.16687	-2.93403	-11.1941	-0.582583	1.25617	2.11678	
0.875	12.3629	-5.81574	-3.63286	-7.10872	-3.60827	-1.88663	-10.9499	-0.508222	1.23896	2.08163	
0.88	13.2917	-6.66307	-3.83875	-8.30981	-4.02402	-1.17834	-10.6985	-0.516483	1.23706	2.04703	
0.885	14.0038	-7.17394	-4.10059	-9.31507	-4.39185	-0.660524	-10.396	-0.575459	1.24788	2.01313	
0.89	14.4155	-7.39068	-4.36255	-9.95227	-4.69918	-0.302505	-10.0334	-0.675121	1.26917	1.98003	
0.895	14.5459	-7.33854	-4.67051	-10.4417	-8.02648	0.0731029	-9.57631	-0.766301	1.29861	1.94779	
0.9	14.3466	-7.0945	-4.98241	-10.6749	-12.571	0.452007	-9.03747	-0.844783	1.3332	1.91641	
0.905	13.8358	-6.71478	-5.28257	-10.676	-14.1928	0.814372	-8.43239	-0.909864	1.37061	1.88589	
0.91	13.0363	-6.26102	-5.53927	-10.4097	-14.4983	1.14969	-7.77486	-0.960575	1.40835	1.85619	
0.915	12.0203	-5.76921	-5.75023	-9.95793	-14.5906	1.45769	-7.0769	-0.995345	1.44429	1.82722	
0.92	10.8244	-5.30454	-5.90973	-9.34193	-14.7432	1.73958	-6.34983	-1.01335	1.47649	1.79891	
0.925	9.42514	-4.97459	-5.95203	-8.63488	-14.8474	2.00147	-5.60359	-1.01326	1.50345	1.77116	
0.93	7.39138	-5.26777	-5.65041	-8.12786	-14.8234	2.29866	-4.84577	-1.00175	1.55257	1.74386	
0.935	6.64066	-4.48341	-5.80483	-7.53704	-14.6752	2.64431	-4.08894	-0.982824	1.63356	1.71691	
0.94	5.31576	-4.37835	-5.5376	-6.53119	-14.4386	3.02061	-3.34679	-0.955518	1.73714	1.69018	
0.945	3.72549	-4.67811	-4.78294	-5.53552	-14.1398	3.42066	-2.632	-0.921613	1.86098	1.6636	
0.95	2.38071	-4.98329	-4.01099	-4.84819	-13.792	3.83336	-1.95734	-0.883384	2.00081	1.63706	
0.955	1.2892	-5.29094	-3.37098	-4.23226	-13.4056	4.24062	-1.33607	-0.845345	2.15067	1.61049	
0.96	0.380442	-5.64597	-2.74558	-3.71162	-12.9897	4.62803	-0.779069	-0.809326	2.29909	1.58382	
0.965	-0.379804	-6.0748	-2.18259	-3.28926	-12.5532	4.9651	-0.316876	-0.801085	2.44179	1.55701	
0.97	-1.14431	-6.74394	-1.64202	-2.87681	-12.1049	5.23354	0.0293843	-0.819451	2.5708	1.53001	
0.975	-1.97694	-7.74222	-1.22799	-2.47553	-11.6519	5.43435	0.318968	-0.828231	2.66975	1.50281	
0.98	-2.41545	-8.39807	-0.847733	-2.19469	-11.2002	5.55855	0.547262	-0.816487	2.71252	1.4754	
0.985	-2.98646	-9.38151	-0.325085	-1.79517	-10.7542	5.61073	0.667914	-0.785002	2.70635	1.44777	
0.99	-3.44185	-10.356	0.15331	-1.37152	-10.3177	5.55365	0.697041	-0.738532	2.65247	1.41995	
0.995	-3.85018	-11.4862	0.312842	-1.03423	-9.89408	5.39687	0.725136	-0.685891	2.54793	1.39195	
1	-3.86364	-12.1078	0.747254	-0.66397	-10.033	5.31226	0.962173	-0.660601	2.31603	1.36381	
1.005	-3.80247	-12.7199	1.34761	-0.193788	-11.3148	5.01813	1.14698	-0.615188	2.01602	1.33554	
1.01	-3.58102	-13.2615	1.73071	0.165081	-11.8945	4.64795	1.24158	-0.569269	1.75081	1.3072	
1.015	-3.19027	-13.6385	2.21072	0.904211	-11.8253	4.29688	1.26586	-0.534822	1.55684	1.2788	
1.02	-2.62704	-13.8546	2.81107	2.39504	-11.5073	3.94795	1.22247	-0.510453	1.42704	1.25039	
1.025	-1.99158	-14.171	2.93267	3.32367	-11.1675	3.57882	1.11545	-0.493162	1.34171	1.22201	
1.03	-1.18004	-14.3662	2.69146	2.95749	-10.8576	3.21796	0.967562	-0.478493	1.28583	1.19368	
1.035	-0.249932	-14.4468	2.38396	1.88519	-10.5696	2.89545	0.796371	-0.464403	1.35252	1.16543	
1.04	0.756271	-14.4287	2.09217	2.03066	-10.3645	2.63527	0.623798	-0.453621	1.52559	1.13729	
1.045	1.76265	-14.3639	1.99717	2.43861	-10.7083	2.43594	0.456449	-0.448987	1.67243	1.1093	
1.05	2.7918	-14.2047	1.78773	2.60087	-10.8776	2.28043	0.288534	-0.450589	1.77891	1.08147	
1.055	3.81309	-13.939	1.45252	2.81417	-10.7771	2.15128	0.116458	-0.457148	1.85704	1.05384	
1.06	4.72234	-13.6281	1.17887	3.09702	-10.5799	2.05153	-0.0385357	-0.468698	1.9092	1.02644	
1.065	5.43942	-13.3155	0.984465	3.43405	-10.3967	1.9815	-0.163315	-0.485041	1.93455	0.999311	
1.07	5.90652	-13.0248	0.818625	3.81123	-10.2494	1.93497	-0.262358	-0.50533	1.93265	0.972481	
1.075	6.0676	-12.7826	0.623744	4.21936	-10.1284	1.8749	-0.419878	-0.641615	1.91091	0.945995	
1.08	5.86307	-12.624	0.378096	4.64777	-10.026	1.84146	-0.520461	-0.713947	1.87983	0.919901	
1.085	5.28016	-12.5536	0.0855703	5.06432	-9.9413	1.81579	-0.607334	-0.778795	1.84636	0.894247	
1.09	4.23155	-12.6359	-0.182642	5.71178	-9.87446	1.77253	-0.795292	-0.914444	1.81685	0.869098	
1.095	2.65493	-12.9088	-0.322411	6.61148	-9.49685	1.73152	-0.945108	-1.05554	1.79642	0.844516	
1.1	0.527236	-13.3593	-0.327058	7.59918	-9.05281	1.69158	-1.07267	-1.20638	1.793	0.820568	
1.105	-2.10049	-14.0266	-0.113412	8.74747	-8.88952	1.65089	-1.22186	-1.36494	1.80698	0.797327	
1.11	-5.19428	-14.7733	0.0973571	9.98774	-8.89216	1.62545	-1.3154	-1.44602	1.84224	0.774878	
1.115	-8.62556	-15.5322	0.309156	11.3643	-8.97753	1.61276	-1.36183	-1.45923	1.88786	0.753299	
1.12	-12.3678	-16.2278	0.56132	12.8511	-9.11728	1.60691	-1.38114	-1.4313	1.9408	0.732676	
1.125	-16.2857	-16.7573	0.802532	14.4908	-9.30608	1.60718	-1.38091	-1.37439	1.99786	0.713104	
1.13	-20.3004	-16.9414	1.02027	16.1883	-9.53549	1.60812	-1.37496	-1.31293	2.04697	0.694675	
1.135	-24.281	-16.6663	1.27117	17.9689	-9.80372	1.6072	-1.36987	-1.25951	2.06895	0.67749	
1.14	-28.109	-15.8016	1.5403	19.8044	-10.0959	1.60477	-1.36321	-1.21244	2.06789	0.661648	
1.145	-31.6557	-14.2263	1.79839	21.676	-10.3999	1.60322	-1.35077	-1.16695	2.02694	0.647254	
1.15	-34.8483	-11.8946	2.02292	23.5554	-10.7041	1.60403	-1.32882	-1.11915	1.93653	0.634415	
1.155	-37.6277	-8.81768	2.1941	25.4164	-10.9989	1.58914	-1.42093	-1.09824	1.80074	0.623239	
1.16	-39.9474	-5.04587	2.25506	27.2212	-11.2637	1.58308	-1.57844	-1.10807	1.63903	0.613834	
1.165	-41.7861	-0.725796	2.26797	28.9174	-11.4977	1.73356	-1.28902	-1.02382	1.48826	0.606306	
1.17	-43.1402	3.93623	2.27121	30.4571	-11.6873	2.4799	-1.04755	-0.999418	1.73136	0.600761	
1.175	-44.1296	8.43678	2.16315	31.7744	-11.8231	3.31667	-0.879019	-1.00918	2.089	0.597298	
1.18	-44.9478	12.1092	1.86526	32.799	-11.9026	3.9524	-0.81276	-1.03457	2.31693	0.594515	
1.185	-45.4722	14.9591	1.54839	33.4933	-11.9166	4.41886	-0.873519	-1.05574	2.37765	0.593387	
1.19	-45.5701	17.0297	1.41117	33.9094	-11.8613	4.70433	-1.01131	-1.06892	2.32832	0.595696	
1.195	-45.1251	18.3057	1.45288	33.7983	-11.735	4.74863	-1.07757	-1.04375	2.17484	0.601291	
1.2	-44.0302	18.7899	1.57663	33.2236	-11.5348	4.485	-0.996089	-0.961574	1.92507	0.609661	
1.205	-42.2004	18.49	1.72622	32.1548	-11.2678	3.99586	-0.778635	-0.832134	1.67127	0.620536	
1.21	-39.5741	17.4159	1.88419	30.5468	-10.9408	3.45468	-0.50513	-0.680541	1.84208	0.633841	
1.215	-36.1195	15.5772	2.02064	28.506	-10.5673	3.11336	-0.0639955	-0.527519	2.44438	0.649535	
1.22	-31.835	12.9726	2.04892	25.8544	-10.1644	3.21838	0.765301	-0.399393	3.17315	0.667528	
1.225	-26.7437	9.63458	1.91996	22.402	-9.76035	2.99604	0.887401	-0.338881	3.91502	0.687684	
1.23	-21.1915	4.99784	1.64699	18.6539	-9.44779	2.8682	0.967442	-0.299878	4.51269	0.709814	
1.235	-14.913	-0.132612	1.52518	14.6635	-9.23158	2.84481	1.06169	-0.287772	5.03443	0.733693	
1.24	-7.72562	-4.96455	1.72568	10.5164	-9.00101	2.85074	1.12631	-0.289748	5.46589	0.75905	
1.245	-0.171625	-9.18497	1.98098	7.43111	-8.76464	2.8582	1.15422	-0.298109	5.80607	0.785577	
1.25	6.82088	-12.6716	2.17348	5.41931	-8.53144	2.86945	1.16178	-0.311133	6.05869	0.812923	
1.255	11.7473	-15.3404	2.31155	4.23362	-8.30962	2.8827	1.16376	-0.325789	6.24068	0.840713	
