CEINMS output
datacolumns 6
datarows 92
endheader
time	hip_flexion_l	hip_adduction_l	hip_rotation_l	knee_angle_l	ankle_angle_l	
3.19	49.3232	-113.51	30.7522	-191.505	6.07854	
3.195	81.2669	-164.438	38.326	-257.803	12.9957	
3.2	57.4502	-143.865	16.2552	-274.924	11.3977	
3.205	42.8299	-122.902	0.486397	-282.454	10.2435	
3.21	75.5594	-124.393	-11.5898	-292.586	12.0133	
3.215	132.88	-133.072	-8.03124	-301.86	15.3214	
3.22	188.814	-143.775	-9.03453	-305.805	18.8948	
3.225	227.152	-146.865	-14.0065	-305.361	22.1516	
3.23	249.752	-144.907	-18.8746	-308.527	25.1533	
3.235	260.627	-138.901	-22.3889	-317.096	28.0698	
3.24	266.055	-129.529	-26.0027	-326.115	30.998	
3.245	266.265	-119.392	-30.5728	-324.972	33.9744	
3.25	261.866	-111.679	-32.5931	-311.38	36.9968	
3.255	254.403	-104.579	-33.2004	-289.988	40.0415	
3.26	243.769	-94.6346	-33.1231	-264.964	43.1035	
3.265	228.721	-80.4515	-32.6214	-236.923	46.0522	
3.27	206.979	-61.4566	-31.8611	-207.005	48.8103	
3.275	177.25	-43.1128	-31.4236	-175.825	51.3304	
3.28	146.212	-23.5109	-30.1404	-143.346	53.5632	
3.285	114.449	-6.50863	-28.6834	-117.862	55.4538	
3.29	82.155	4.53225	-26.7962	-91.8043	56.9476	
3.295	51.8671	9.95298	-24.1763	-61.6309	57.9956	
3.3	21.0375	17.235	-21.1101	-34.4798	58.5635	
3.305	0.457393	21.4752	-17.7474	-28.0298	58.6624	
3.31	2.07817	19.6161	-14.8423	-32.0669	58.3836	
3.315	10.0617	19.3919	-12.4205	-32.4844	57.8892	
3.32	9.11042	17.3853	-9.45116	-33.1518	57.3621	
3.325	5.77349	10.3069	-5.054	-33.7862	56.9804	
3.33	3.53883	2.42549	-2.01059	-34.0634	56.8825	
3.335	2.37297	-4.67525	0.0167392	-33.4167	57.1417	
3.34	0.209888	-11.1301	1.39549	-30.6646	57.7697	
3.345	-2.49603	-15.3865	2.00145	-25.2011	58.5289	
3.35	-6.79739	-17.0748	1.94605	-15.972	58.4036	
3.355	-13.6919	-16.0594	1.34387	-1.65564	57.2835	
3.36	-23.8648	-12.5139	0.275682	19.8175	55.5353	
3.365	-38.6837	-6.42112	-1.22306	51.8825	53.4979	
3.37	-59.5949	2.21304	-2.8359	87.8872	51.4446	
3.375	-86.6309	12.5427	-4.04615	128.526	49.4748	
3.38	-118.016	23.0682	-4.21836	172.249	47.5557	
3.385	-151.804	32.6328	-2.91221	220.576	45.6246	
3.39	-186.459	40.3235	-0.229918	268.696	43.6226	
3.395	-220.977	46.4593	2.78783	302.6	41.4882	
3.4	-251.307	49.8907	6.42692	328.366	39.1533	
3.405	-274.592	52.5774	9.56437	334.5	36.5585	
3.41	-292.231	57.2343	11.2277	328.744	33.6757	
3.415	-308.891	63.9154	13.2322	320.311	30.5261	
3.42	-324.581	68.3134	18.7529	311.663	27.1564	
3.425	-336.332	69.9939	25.0704	301.805	23.6233	
3.43	-343.219	70.4795	29.3313	293.982	19.9748	
3.435	-345.709	70.5769	31.1132	286.62	16.254	
3.44	-344.584	70.3617	31.2308	277.852	12.4813	
3.445	-340.46	69.8317	30.2093	263.683	8.65181	
3.45	-333.923	69.2778	28.053	241.862	4.71424	
3.455	-325.196	68.9982	24.8646	214.711	0.579005	
3.46	-314.739	69.0755	20.9679	183.942	-3.50066	
3.465	-303.14	69.4414	16.6674	167.913	-5.57689	
3.47	-290.844	70.0069	12.1452	159.988	-7.24065	
3.475	-277.803	70.5862	8.07211	150.712	-10.3455	
3.48	-266.849	65.4999	6.48951	123.749	-16.0361	
3.485	-256.347	56.7413	6.81488	102.5	-24.4958	
3.49	-244.113	47.5044	6.98005	86.6413	-36.4414	
3.495	-233.631	34.7902	10.7235	68.9639	-50.1432	
3.5	-224.538	19.8742	17.6789	53.6964	-63.8497	
3.505	-221.843	5.52244	23.9908	40.1147	-77.1588	
3.51	-212.722	-7.59328	29.5254	30.3259	-90.1166	
3.515	-196.154	-20.5924	31.793	21.6293	-102.781	
3.52	-177.199	-31.4563	29.8527	11.4907	-114.884	
3.525	-157.902	-36.9296	25.0169	-0.971875	-126.045	
3.53	-139.942	-40.2322	18.7489	-14.6542	-135.915	
3.535	-120.057	-35.7125	12.5825	-27.8556	-144.283	
3.54	-105.673	-34.9226	6.14491	-39.1519	-150.979	
3.545	-93.9781	-33.5898	0.0762611	-47.8946	-155.965	
3.55	-84.2029	-29.1296	-5.94627	-53.8133	-159.158	
3.555	-69.479	-22.7819	-10.1815	-56.9547	-160.476	
3.56	-49.7129	-14.744	-11.3237	-57.3833	-159.761	
3.565	-26.0235	-7.21634	-9.49608	-55.2899	-156.738	
3.57	-1.61068	-4.46967	-11.2651	-50.93	-151.03	
3.575	22.2726	-1.85092	-11.9223	-44.7429	-142.122	
3.58	41.581	-1.60429	-11.4115	-37.1645	-129.521	
3.585	57.6457	-5.0581	-10.9657	-35.7453	-113.034	
3.59	70.0382	-11.847	-11.2446	-42.874	-92.9006	
3.595	78.7538	-19.1484	-11.6168	-52.6021	-69.9693	
3.6	85.0067	-26.088	-11.5829	-66.0892	-45.9901	
3.605	90.4597	-29.3079	-11.5562	-82.4867	-24.2394	
3.61	96.1955	-27.6629	-11.6545	-100.431	-11.7488	
3.615	102.253	-23.087	-11.7675	-118.81	-5.58501	
3.62	108.905	-16.8606	-11.7605	-137.581	0.122755	
3.625	113.461	-8.69841	-12.4129	-155.952	5.66917	
3.63	117.983	1.21321	-13.2806	-172.513	9.84811	
3.635	124.584	12.8634	-13.8978	-186.667	12.2801	
3.64	139.272	24.5578	-12.5819	-199.823	13.7466	
3.645	155.525	37.6311	-11.0488	-211.082	13.3703	
