Model Marker Errors from IK
version=1
nRows=92
nColumns=4
inDegrees=no
endheader
time	total_squared_error	marker_error_RMS	marker_error_max
      3.19000000	      0.05101205	      0.03018161	      0.10147124
      3.19500000	      0.05097374	      0.03017027	      0.10127637
      3.20000000	      0.05100695	      0.03018010	      0.10109873
      3.20500000	      0.05110922	      0.03021034	      0.10078834
      3.21000000	      0.05122772	      0.03024534	      0.10010066
      3.21500000	      0.05140358	      0.03029721	      0.09947851
      3.22000000	      0.05161424	      0.03035923	      0.09867220
      3.22500000	      0.05184902	      0.03042820	      0.09754349
      3.23000000	      0.05210183	      0.03050229	      0.09653149
      3.23500000	      0.05236392	      0.03057892	      0.09532857
      3.24000000	      0.05262927	      0.03065629	      0.09371545
      3.24500000	      0.05291181	      0.03073847	      0.09265970
      3.25000000	      0.05322762	      0.03083007	      0.09112621
      3.25500000	      0.05362081	      0.03094373	      0.08950124
      3.26000000	      0.05415144	      0.03109646	      0.08908935
      3.26500000	      0.05481677	      0.03128691	      0.08657673
      3.27000000	      0.05567970	      0.03153221	      0.08626417
      3.27500000	      0.05666058	      0.03180874	      0.08311599
      3.28000000	      0.05777323	      0.03211954	      0.08120659
      3.28500000	      0.05897288	      0.03245130	      0.08040266
      3.29000000	      0.06016891	      0.03277872	      0.08219236
      3.29500000	      0.06141475	      0.03311634	      0.08254731
      3.30000000	      0.06252160	      0.03341343	      0.08665745
      3.30500000	      0.06359526	      0.03369911	      0.08949622
      3.31000000	      0.06457565	      0.03395786	      0.09255353
      3.31500000	      0.06546459	      0.03419080	      0.09550054
      3.32000000	      0.06627597	      0.03440203	      0.09807450
      3.32500000	      0.06702536	      0.03459597	      0.10037428
      3.33000000	      0.06772363	      0.03477572	      0.10214941
      3.33500000	      0.06838308	      0.03494462	      0.10360252
      3.34000000	      0.06900595	      0.03510341	      0.10480727
      3.34500000	      0.06958219	      0.03524967	      0.10573274
      3.35000000	      0.07009377	      0.03537901	      0.10649866
      3.35500000	      0.07050580	      0.03548284	      0.10696467
      3.36000000	      0.07080326	      0.03555761	      0.10702826
      3.36500000	      0.07091403	      0.03558542	      0.10748248
      3.37000000	      0.07087685	      0.03557609	      0.10741064
      3.37500000	      0.07069447	      0.03553029	      0.10706156
      3.38000000	      0.07036373	      0.03544708	      0.10673492
      3.38500000	      0.06993785	      0.03533964	      0.10619842
      3.39000000	      0.06943279	      0.03521180	      0.10554519
      3.39500000	      0.06889811	      0.03507597	      0.10479941
      3.40000000	      0.06828803	      0.03492032	      0.10408974
      3.40500000	      0.06768117	      0.03476481	      0.10320908
      3.41000000	      0.06706747	      0.03460684	      0.10248852
      3.41500000	      0.06648424	      0.03445604	      0.10185089
      3.42000000	      0.06587993	      0.03429909	      0.10129652
      3.42500000	      0.06537768	      0.03416809	      0.10089237
      3.43000000	      0.06496419	      0.03405987	      0.10061379
      3.43500000	      0.06467442	      0.03398383	      0.10033800
      3.44000000	      0.06453868	      0.03394814	      0.10015724
      3.44500000	      0.06455361	      0.03395207	      0.09985535
      3.45000000	      0.06469199	      0.03398844	      0.09942337
      3.45500000	      0.06493671	      0.03405267	      0.09908717
      3.46000000	      0.06521523	      0.03412562	      0.09857951
      3.46500000	      0.06548650	      0.03419652	      0.09801743
      3.47000000	      0.06569226	      0.03425020	      0.09702097
      3.47500000	      0.06585054	      0.03429143	      0.09655597
      3.48000000	      0.06579135	      0.03427602	      0.09501103
      3.48500000	      0.06561372	      0.03422972	      0.09386273
      3.49000000	      0.06524782	      0.03413414	      0.09285549
      3.49500000	      0.06467871	      0.03398495	      0.09208575
      3.50000000	      0.06397405	      0.03379932	      0.09128524
      3.50500000	      0.06296747	      0.03353236	      0.09166561
      3.51000000	      0.06189073	      0.03324442	      0.09179760
      3.51500000	      0.06072489	      0.03292982	      0.09213975
      3.52000000	      0.05952081	      0.03260171	      0.09244235
      3.52500000	      0.05832666	      0.03227302	      0.09256653
      3.53000000	      0.05723144	      0.03196858	      0.09229119
      3.53500000	      0.05619033	      0.03167647	      0.09249633
      3.54000000	      0.05534578	      0.03143752	      0.09232200
      3.54500000	      0.05473105	      0.03126244	      0.09183485
      3.55000000	      0.05425710	      0.03112679	      0.09176998
      3.55500000	      0.05403311	      0.03106247	      0.09148432
      3.56000000	      0.05403643	      0.03106342	      0.09096341
      3.56500000	      0.05415870	      0.03109855	      0.09090820
      3.57000000	      0.05443291	      0.03117718	      0.09081175
      3.57500000	      0.05477495	      0.03127498	      0.09059352
      3.58000000	      0.05513366	      0.03137721	      0.09053019
      3.58500000	      0.05541282	      0.03145655	      0.09022855
      3.59000000	      0.05558511	      0.03150542	      0.08982890
      3.59500000	      0.05556935	      0.03150095	      0.08912682
      3.60000000	      0.05534232	      0.03143653	      0.08827740
      3.60500000	      0.05486874	      0.03130174	      0.08704404
      3.61000000	      0.05414988	      0.03109602	      0.08629584
      3.61500000	      0.05321865	      0.03082747	      0.08679934
      3.62000000	      0.05208947	      0.03049867	      0.08685859
      3.62500000	      0.05084681	      0.03013269	      0.08698382
      3.63000000	      0.04954514	      0.02974449	      0.08718341
      3.63500000	      0.04822352	      0.02934509	      0.08704826
      3.64000000	      0.04693950	      0.02895178	      0.08691557
      3.64500000	      0.04576793	      0.02858819	      0.08680520
