CEINMS output
datacolumns 81
datarows 92
endheader
time	addbrev_r	addlong_r	addmagDist_r	addmagIsch_r	addmagMid_r	addmagProx_r	bflh_r	bfsh_r	edl_r	ehl_r	fdl_r	fhl_r	gaslat_r	gasmed_r	glmax1_r	glmax2_r	glmax3_r	glmed1_r	glmed2_r	glmed3_r	glmin1_r	glmin2_r	glmin3_r	grac_r	iliacus_r	perbrev_r	perlong_r	piri_r	psoas_r	recfem_r	sart_r	semimem_r	semiten_r	soleus_r	tfl_r	tibant_r	tibpost_r	vasint_r	vaslat_r	vasmed_r	addbrev_l	addlong_l	addmagDist_l	addmagIsch_l	addmagMid_l	addmagProx_l	bflh_l	bfsh_l	edl_l	ehl_l	fdl_l	fhl_l	gaslat_l	gasmed_l	glmax1_l	glmax2_l	glmax3_l	glmed1_l	glmed2_l	glmed3_l	glmin1_l	glmin2_l	glmin3_l	grac_l	iliacus_l	perbrev_l	perlong_l	piri_l	psoas_l	recfem_l	sart_l	semimem_l	semiten_l	soleus_l	tfl_l	tibant_l	tibpost_l	vasint_l	vaslat_l	vasmed_l	
3.19	0.0785366	1.59449	0.667081	0.351056	0.16502	0.231105	11.783	2.0734	0.343068	0.0837516	0.305813	0.583232	7.80972	20.8796	23.7052	31.5644	19.3229	6.72159	7.94663	16.3585	0.00863102	-2.51953e-05	0.366529	0.103487	0.861018	0.503222	0.407775	2.95347	0.458801	0.777884	0.0289909	36.0774	3.6815	20.2277	0.0535934	0.249008	1.67567	1.4566	2.16911	1.10657	0.371383	0.332198	337.724	326.626	332.823	0.352968	8.55733	2.51823	1.10268	0.161681	395.072	21.4932	20.2383	0.801009	11.1505	21.9404	4.48296	2188.14	721.435	437.316	291.382	691.533	0.141365	9.60315	0.668065	37.5983	4.24293	0.269439	2.5424	0.000636719	253.401	30.532	2.80888	2.41128	0.105723	0.0634989	93.9939	0.0979465	4.1978	0.187506	
3.195	0.0951346	2.35063	0.494181	0.315922	0.107322	0.625681	16.8773	6.94826	0.905891	0.250226	0.547579	0.97559	17.3052	40.1536	17.1086	20.9627	9.11137	12.7129	8.47112	9.75023	0.0114392	-0.000105353	0.583532	0.24261	3.11424	0.851775	0.817436	1.71444	1.64187	2.11395	0.119811	47.8833	5.82342	21.6315	0.22977	0.830611	2.68418	1.38318	2.46231	1.21491	0.486475	0.483806	374.725	352.364	337.03	115.007	6.25238	2.2274	1.28186	0.226336	390.204	50.2841	19.6009	1.60452	27.9484	48.8311	9.23321	2540.73	942.931	515.353	311.707	186.113	0.164859	9.64718	1.61017	75.055	10.9691	0.53344	3.4344	0.00154893	245.114	21.0949	2.15145	6.75054	0.211775	0.118193	159.086	0.26232	8.41599	0.805229	
3.2	1.99266	2.85312	1.77001	1.96878	1.41434	10.5318	24.4057	19.0517	2.32849	1.09128	0.912965	1.48872	24.3527	45.7291	16.9189	21.1556	9.33497	12.7798	8.28964	9.76119	0.00505681	-0.00016346	0.585301	1.02113	10.8669	1.31872	2.04125	1.45269	6.99912	18.9054	1.95443	49.1414	7.04477	26.2869	3.81737	5.61385	3.75845	2.7468	8.80625	4.45995	78.6075	0.92803	539.493	439.483	475.968	257.123	224.858	161.238	1.29316	0.239951	389.327	181.357	302.961	42.3473	589.003	884.074	260.384	2750.35	402.784	52.348	312.232	106.495	0.168145	76.475	3.2063	67.4462	-0.116936	1.04073	3.69351	0.00175912	236.83	156.354	101.464	39.3567	0.427743	0.165021	10.6867	3.78957	10.1045	11.5468	
3.205	2.21322	2.85241	1.83161	2.03214	1.47646	10.5193	23.2641	18.3651	2.27492	1.06399	0.924789	1.51421	24.6279	44.9537	16.4339	20.9754	9.36056	11.6352	7.73354	9.43978	0.000247506	-0.000199451	0.522404	1.01317	10.7914	1.34065	2.08037	1.37643	6.98366	20.6219	1.8952	46.5106	6.78491	28.6509	3.88848	5.45409	3.81927	2.78896	8.91043	4.54614	225.31	113.038	633.331	501.563	542.592	320.7	326.98	262.216	150.571	14.9481	389.341	278.396	458.638	42.022	1222.29	1889.75	732.646	1982.6	35.6652	2.80082	640.847	707.46	0.16811	135.119	239.244	67.0254	-0.108157	1.03931	528.779	0.00183055	228.864	202.371	131.91	24.442	0.427166	-0.00179136	8.49565	3.78897	11.7594	11.6457	
3.21	2.40948	2.85168	1.83703	2.02146	1.52213	10.5058	21.675	17.7077	2.18502	1.01993	0.933268	1.53578	24.5465	44.0743	15.7011	20.4506	9.21695	10.5364	7.18706	9.08035	-1.11388e-05	-0.00022129	0.467756	0.990731	10.709	1.36011	2.10718	1.30442	6.98086	22.1692	1.83674	43.5136	6.48491	31.5474	3.90334	5.20284	3.87305	2.90336	9.22406	4.72389	388.806	214.99	574.297	507.897	463.102	349.431	399.822	300.567	277.908	0.936523	388.769	354.873	546.964	33.8363	1492.66	2443.9	965.325	993.641	2.80702	0.472817	958.117	1315.36	0.168075	162.526	577.062	78.2667	-0.106576	1.03783	1252.61	0.00189688	220.601	223.781	135.802	13.3096	0.426563	-0.0117206	19.8034	3.78832	13.3011	11.6954	
3.215	2.66792	2.85098	1.85351	1.99521	1.58237	10.4934	19.8588	17.034	2.0917	0.973869	0.942464	1.56044	24.5341	43.5409	15.0327	20.018	9.12568	9.35228	6.67432	8.84417	-2.95824e-05	-0.000224262	0.41394	0.967801	10.614	1.38038	2.13654	1.24675	6.98097	23.5658	1.77802	40.2318	6.14767	34.8585	3.90437	4.9308	3.93276	3.00856	9.51363	4.88744	527.599	269.753	407.952	443.722	308.282	378.237	434.473	292.841	372.41	0.0082645	387.348	411.795	583.859	24.8193	1490.12	2580.58	982.104	490.982	1.15536	0.259022	1128.9	1400.43	2.11476	162.947	990.733	95.6666	-0.10569	4.66134	1943.29	0.00195668	211.631	241.521	142.272	6.88621	0.42597	-0.00851066	46.0082	5.11896	14.6907	11.7731	
3.22	2.9737	2.85025	1.87827	1.97948	1.65405	10.4799	18.1302	16.3458	1.984	0.92006	0.954309	1.59071	24.6001	43.1126	14.4179	19.6408	9.06028	8.11091	6.2192	8.72215	-4.04441e-05	-0.000207837	0.363895	0.94264	10.5036	1.40571	2.17376	1.21959	6.96894	24.9033	1.71927	36.6007	5.77817	39.0185	3.90693	4.59961	4.00688	3.1628	9.95672	5.13555	609.457	279.493	247.545	326.709	174.577	412.131	448.287	274.441	436.802	-0.000282147	391.242	456.573	601.429	55.1381	1433.97	2589.51	971.768	96.5503	1.10366	0.295566	1215.1	1383.44	0.509906	153.352	1377.15	115.147	-0.103608	33.3682	2479.2	0.00200864	201.956	267.425	152.646	3.53718	0.42538	0.00014995	83.4091	36.4245	15.8863	11.8363	
3.225	3.32269	2.84949	1.90689	1.9624	1.74012	10.4657	16.5795	15.6503	1.8589	0.85749	0.967981	1.62427	24.6782	42.694	13.8629	19.3124	9.01769	6.85256	5.85349	8.72137	-4.26603e-05	-0.000175668	0.321655	0.917196	10.3799	1.43556	2.21566	1.22329	6.94806	26.1729	1.66092	32.8535	5.39849	43.8647	3.90915	4.20668	4.09105	3.38477	10.6045	5.49144	643.133	262.951	137.33	206.478	91.8846	442.005	455.373	260.148	465.988	0.00174358	396.045	496.498	620.384	110.083	1413.53	2639.09	1029.47	15.9047	1.16609	0.309464	1260.37	1058.89	0.208351	145.527	1669.46	133.648	-0.100955	44.8941	2716.87	0.00205178	191.854	302.685	163.694	1.86124	0.424794	-0.00398922	127.941	59.4124	16.8829	11.8898	
3.23	3.70889	2.84874	1.94353	1.94393	1.84446	10.4518	15.2301	14.9561	1.72151	0.788907	0.982324	1.65899	24.7416	42.3101	13.3877	19.0444	9.00492	5.64241	5.56756	8.85166	-3.71111e-05	-0.000134884	0.290235	0.89402	10.2441	1.46762	2.25913	1.27334	6.91949	27.2742	1.60316	29.3061	5.03028	48.9488	3.90785	3.77174	4.17902	3.65331	11.3897	5.9162	643.704	238.848	76.9627	113.487	49.5326	455.73	463.094	248.57	479.543	6.8175e-05	402.254	534.304	644.505	102.376	1415.67	2731.11	1141.9	6.00165	1.26926	0.331342	1286.17	589.445	29.2271	140.251	1854.75	148.563	-0.0982274	43.4968	2812.14	0.00209094	181.703	335.244	174.746	1.01532	0.42421	-0.0127633	177.084	72.6616	17.7113	11.9456	
3.235	4.12152	2.84799	1.99241	1.93472	1.97287	10.4378	14.1264	14.2701	1.57848	0.71758	0.996573	1.69327	24.7896	41.9639	13.0076	18.8499	9.02867	4.58171	5.36277	9.12481	-2.68714e-05	-9.49148e-05	0.269206	0.875287	10.0965	1.5003	2.30238	1.3756	6.88276	28.1498	1.54625	26.2291	4.69322	53.8176	3.9022	3.3204	4.2665	3.94895	12.2545	6.37926	621.744	214.929	44.5452	60.1721	27.8627	451.948	473.474	236.962	482.853	0.014095	410.06	570.133	672.415	82.5303	1416.39	2827.46	1286.53	4.93339	1.40174	0.372329	1302.91	134.276	31.9543	136.105	1943.31	157.856	-0.0954167	35.5976	2819.49	0.00212698	171.897	363.961	186.827	0.579738	0.420615	-0.01287	226.646	79.792	18.4098	12.007	
3.24	4.54505	2.84724	2.05547	1.93812	2.13348	10.4239	13.2788	13.6129	1.43594	0.646757	1.01007	1.72539	24.8165	41.6233	12.7331	18.7399	9.09688	3.77579	5.2207	9.42724	-1.62198e-05	-6.30306e-05	0.257201	0.862751	9.93822	1.53232	2.34377	1.51437	6.83802	28.8093	1.49048	23.7729	4.40383	58.0722	3.88911	2.88073	4.34928	4.27073	13.1968	6.88091	584.774	193.66	26.3958	33.0761	16.1303	435.611	487.509	224.663	479.33	0.092744	418.111	603.193	703.119	63.0253	1409.4	2904.13	1453.06	4.85105	1.54938	0.427078	1315.55	20.9894	7.42045	132.374	1952.06	161.285	-0.0924595	48.6355	2768.33	0.00215914	162.704	394.047	200.854	0.345178	41.3232	-0.00990663	271.011	83.4269	18.9994	12.067	
3.245	4.96347	3.3649	2.13578	1.95522	2.33716	10.4097	12.648	12.9949	1.30028	0.579906	1.02204	1.75374	24.8154	41.2391	12.5743	18.7194	9.21696	3.22164	5.13361	9.5414	-8.06939e-06	-3.95772e-05	0.252901	0.857952	9.7702	1.56228	2.38127	1.67839	6.7854	29.2911	1.43633	21.9349	4.17422	61.3597	3.86486	2.48278	4.42303	4.61276	14.1966	7.41093	539.307	176.562	15.8928	19.5539	10.9465	412.658	506.612	212.559	470.505	0.281764	426.574	632.354	736.998	80.5627	1397.28	2952.16	1637.82	4.87131	1.71224	0.495929	1084.03	3.95053	1.1219	129.206	1892.33	162.205	-0.0893849	69.0448	2668.91	1.69017	154.231	428.198	217.653	0.214235	89.7803	-0.0196086	304.808	91.5896	19.4618	12.1005	
3.25	5.36049	4.16784	2.23641	1.9865	2.59584	10.3954	12.174	12.4405	1.178	0.520409	1.03186	1.77687	24.779	40.7598	12.5407	18.7941	9.39618	2.86878	5.07919	9.88908	-2.24152e-06	-2.2055e-05	0.254954	0.862078	9.59335	1.5889	2.41313	1.88298	6.72485	29.6397	1.38364	20.6065	4.01122	63.4543	3.82595	2.15316	4.48388	4.95767	15.201	7.94073	491.176	165.285	9.82751	12.0978	7.45526	387.62	532.723	202.743	457.822	0.60891	435.055	656.481	775.19	126.375	1380.22	2964.02	1825.77	4.90128	1.89084	0.583051	666.244	1.70359	0.20389	126.972	1774.08	162.733	-0.0862483	74.7824	2529.66	2.31011	146.525	468.006	238.398	0.138288	141.359	-0.015075	323.944	100.075	19.7919	12.0982	
3.255	5.71765	4.29992	2.36132	2.03449	2.92348	10.3809	11.8213	11.9517	1.07426	0.47088	1.03899	1.79353	24.6974	40.1316	12.6395	18.9655	9.64652	2.66991	4.92394	10.2552	5.67775e-05	-7.89276e-06	0.262135	0.876016	9.40849	1.61094	2.43794	2.13809	6.65637	29.8941	1.33257	19.7032	3.91913	64.3775	3.76876	1.90162	4.52892	5.28402	16.1493	8.43856	445.357	160.108	6.3362	7.77594	5.00054	363.243	568.069	195.259	442.641	1.09548	443.328	674.929	818.946	113.577	1356.64	2934.9	1999.89	4.93377	2.08413	0.692204	332.17	1.43884	0.0988965	125.904	1607.83	163.078	-0.0830875	58.2197	2358.74	2.4605	139.642	516.013	264.89	0.09311	193.48	-0.00102851	328.724	106.188	20.0151	12.069	
3.26	6.01627	4.39905	2.51486	2.10014	3.3367	10.3663	11.6324	11.5472	0.992499	0.432654	1.04311	1.80296	24.5609	39.3518	12.9505	19.2275	9.97896	2.58214	4.77883	10.638	0.000897586	8.49134e-05	0.273254	0.900288	9.21684	1.62758	2.45461	2.43589	6.58024	30.0835	1.2832	19.2043	3.89985	64.3515	3.68952	1.7196	4.55626	5.57196	16.9842	8.87526	404.843	157.54	4.34903	5.29568	3.41281	340.862	616.209	189.808	426.232	1.79455	451.055	687.222	869.338	89.3322	1326.68	2869.53	2139.95	4.96894	2.29147	0.827595	151.717	1.41818	0.0882693	126.099	1412.59	162.931	-0.0799228	41.7985	2165.75	2.48329	133.644	574.963	299.702	0.066795	237.886	-0.00085071	324.411	109.876	20.1747	12.028	
3.265	6.24501	4.54434	2.69921	2.18287	3.85233	10.3514	11.6683	11.2215	0.934141	0.405733	1.0441	1.80492	24.3641	38.4543	15.2183	19.573	10.4045	2.56628	4.69565	11.0092	0.00274175	0.00245867	0.28717	0.935084	9.01966	1.63814	2.46252	2.75177	6.49696	30.227	1.23574	19.0902	3.95436	63.6283	3.58474	1.59591	4.56524	5.80499	17.658	9.22656	370.463	154.257	3.24076	3.89387	12.6289	320.998	682.362	186.475	409.718	2.84162	457.911	693.016	927.769	65.8779	1291.7	2778.48	2224.06	5.00695	2.51256	0.99543	66.2124	1.42518	0.112998	127.65	1210.15	162.189	-0.0767666	28.9076	1965.16	2.40436	128.567	648.697	346.275	0.0509337	276.695	-0.000867531	314.746	312.765	20.2816	11.9672	
3.27	6.40748	4.67044	2.92252	2.2866	4.48028	10.3364	11.951	10.9814	0.898448	0.389496	1.04207	1.80017	24.1051	37.4816	17.2439	19.9828	10.9333	2.58849	4.61056	11.3206	0.00555046	0.00795488	0.302794	0.980012	8.81882	1.64231	2.4615	3.04656	6.40751	30.334	1.19016	19.3726	4.08334	62.4235	3.45267	1.52013	4.55615	5.97	18.1338	9.47339	341.654	149.894	2.6434	3.10949	25.5324	303.883	776.429	187.186	394.156	4.03872	463.54	692.977	995.995	80.8019	1252.89	2671.36	2253.11	5.04577	2.74118	1.20559	28.3777	1.4345	0.229612	130.716	1008.04	160.954	-0.0736093	19.0224	1768.25	2.14483	124.413	747.134	408.858	0.0427796	305.649	-0.000313434	302.007	620.775	20.3119	11.8702	
3.275	6.50974	4.76228	3.18555	2.4154	5.20138	10.3213	12.4988	10.8254	0.884962	0.383567	1.03723	1.78927	23.7861	36.4415	19.0049	20.4357	11.5721	2.75512	4.5335	11.5241	0.0092666	0.0163648	0.318971	1.03408	8.61644	1.63999	2.45167	3.27179	6.31309	30.4039	1.14674	20.0793	4.28907	60.8495	3.2928	1.48676	4.53002	6.05876	18.386	9.60339	317.336	145.409	2.3415	2.67938	29.8866	289.694	915.091	194.302	380.521	5.40311	467.7	687.889	1076.04	124.142	1211.14	2555.37	2249.29	5.08271	2.96731	1.47229	12.3485	1.44343	0.380405	135.564	817.769	159.302	-0.0704364	11.8671	1577.73	1.66797	121.159	887.382	492.6	0.0380919	322.739	-0.000883214	287.308	751.462	20.262	11.7281	
3.28	6.56119	4.83222	3.49298	2.57278	5.98237	10.3059	13.335	10.742	0.894859	0.388471	1.03	1.77213	23.4118	35.3345	20.4536	20.8976	12.3227	2.92698	4.46023	11.5745	0.0138253	0.0274487	0.334888	1.09549	8.41519	1.63141	2.4335	3.38048	6.21463	30.4236	1.10549	21.2677	4.57571	58.9616	3.10851	1.49832	4.48883	6.06717	18.4028	9.61064	296.602	141.807	2.2071	2.45019	138.258	278.566	1108.49	206.227	369.572	6.9993	470.127	678.532	1170.01	109.303	1167.18	2435.82	2231.79	5.11504	3.18295	1.80386	5.7624	1.45176	0.581575	142.611	660.13	157.254	-0.0672223	7.09607	1396.29	1.10285	118.775	1088.47	604.339	0.0437355	327.219	-0.000925911	271.29	744.432	20.2445	11.6125	
3.285	6.56631	4.88685	3.84631	2.76206	6.78234	10.2904	14.507	10.7249	0.930205	0.405106	1.02087	1.74923	22.9801	34.1656	21.6599	21.3347	13.1785	3.04896	4.38879	11.4425	0.0191556	0.0409381	0.361457	1.16171	8.21779	1.61688	2.40765	3.34148	6.11351	30.3602	1.06653	23.0232	4.94571	56.7788	2.90761	1.56464	4.4348	5.99563	18.183	9.49492	278.99	140.258	2.1613	2.33181	407.281	270.617	1359.19	222.463	196.242	8.79673	470.638	665.48	1279.9	83.5498	1121.43	2316.05	2211.39	5.14026	3.37993	2.19804	3.11832	1.45969	0.820182	152.543	548.991	154.819	-0.063936	4.14771	1229.6	0.691356	117.226	1366.55	748.712	0.0530287	319.217	-0.00094108	254.545	706.62	20.1983	11.4736	
3.29	6.53414	4.92992	4.24028	2.98535	7.55766	10.2747	16.0655	10.7634	0.994485	0.435285	1.01032	1.72209	22.4863	32.9383	22.6656	21.7044	14.1233	3.17502	4.32361	11.1209	0.0251848	0.0565505	0.412077	1.22968	8.02712	1.59686	2.37498	3.1538	6.01075	30.1096	1.02986	25.4474	5.4008	54.29	2.69746	1.69914	4.37038	5.84959	17.7389	9.26344	264.481	137.766	2.15804	2.27298	555.076	266.109	1673.54	242.868	16.0814	10.8192	469.142	649.297	1407.57	59.5841	1074	2197.49	2190.12	5.15663	3.55076	2.64163	2.07348	1.46744	1.07199	166.521	471.07	152.078	-0.0605481	2.41588	1084.3	0.49457	116.481	1732.1	911.293	0.0577594	299.423	-0.000913797	237.63	757.601	1672.72	253.633	
3.295	6.47382	4.96658	4.66272	3.24356	8.27241	10.2589	18.033	10.8388	1.09365	0.482251	0.998804	1.69197	21.9168	31.6446	23.5075	21.9725	15.1297	3.27478	4.27049	10.6303	0.0318431	0.0739847	0.434302	1.29596	7.84526	1.57195	2.33632	2.84989	5.90773	29.5145	0.995507	28.6418	5.9333	51.4442	2.48441	1.92423	4.29786	5.6393	17.094	8.93032	253.287	133.843	2.17215	2.24632	510.718	265.359	2072.8	267.292	0.616112	13.0253	465.629	630.287	1554.6	39.8026	1024.81	2079.95	2166.56	5.16375	3.68975	3.10791	1.65985	1.47457	1.29971	185.135	414.154	149.117	-0.0570355	1.4306	965.101	0.3608	116.524	2188.68	1073.87	0.070876	269.424	-0.000853124	221	862.392	3156.1	591.023	
3.3	6.39275	5.00246	5.09777	3.53503	8.90962	10.2429	20.43	10.9338	1.2355	0.550825	0.986724	1.65925	21.2538	30.2812	24.2136	22.107	16.1583	3.33655	4.21829	10.0096	0.0390762	0.0929527	0.454818	1.35694	7.67366	1.54268	2.29248	2.48351	5.80529	28.4896	0.963416	32.7021	6.52505	48.2428	2.27405	2.27565	4.21916	5.38033	16.2862	8.51566	245.667	133.678	2.19046	2.23814	368.992	268.654	2519.82	296.635	0.572283	15.4527	460.172	608.983	1722.75	27.734	973.653	1963.34	2140.02	5.16237	3.7945	3.55641	1.48437	1.48103	1.47731	208.867	371.945	145.974	-0.0533813	0.881629	868.452	0.291359	117.369	2737.47	1214.53	0.0852184	232.419	-0.000704475	204.986	1010.47	4792.85	1001.58	
3.305	6.29399	5.04	5.53006	3.85542	9.43167	10.2267	23.2564	11.0346	1.42473	0.644514	0.974309	1.62421	20.4716	28.8447	24.8074	22.0548	17.1626	3.38853	4.15912	9.31551	0.0468645	0.113194	0.468789	1.40934	7.51305	1.50957	2.24422	2.12036	5.70443	26.9874	0.933368	37.5764	7.14932	44.6909	2.07199	2.80014	4.13565	5.09584	15.3699	8.04779	241.842	135.722	2.20732	2.24154	239.756	276.288	2938.51	333.627	0.747131	18.0859	452.878	586.345	1914.76	18.3245	920.55	1848.05	2110.93	5.1483	3.86661	3.95125	1.38669	1.48607	1.60488	237.955	339.052	142.643	-0.0495835	0.580205	788.519	0.241868	119.036	3250.84	1301.52	0.0952864	192.485	-0.000459419	189.803	1183.07	6582.28	1425.99	
3.31	6.1748	5.08144	5.94394	4.19757	9.81398	10.2103	26.42	11.1216	1.65944	0.762621	0.961599	1.58725	19.5317	27.3167	25.3084	21.7683	18.0846	3.48651	4.09546	8.60599	0.0552506	0.134499	0.47272	1.45057	7.36509	1.47299	2.19217	1.81091	5.60547	25.0412	0.905311	42.9907	7.77367	40.8113	1.88379	3.50961	4.04802	4.82132	14.4114	7.56274	241.889	137.879	2.22147	2.25139	148.925	288.735	3111.51	382.115	0.720453	36.8681	440.744	563.44	2135.12	11.6501	865.911	1734.86	2080.53	5.10589	3.91028	4.27873	1.29769	1.48652	1.6874	272.546	312.263	139.392	-0.045648	0.416516	724.536	0.204676	121.595	3255.66	1314.4	0.169701	149.333	5.45153	175.17	1334.98	6406.09	1776.65	
3.315	6.03257	5.12564	6.32629	4.54734	10.0989	10.1938	29.6966	11.1775	1.92833	0.898674	0.948498	1.54854	18.3971	25.7081	25.7326	21.3925	18.8738	3.60683	4.03241	7.93068	0.0663184	0.156837	0.466469	1.47903	7.23303	1.43317	2.13682	1.56523	5.50874	22.8179	0.878803	48.5365	8.3614	36.6081	1.71435	4.35125	3.95621	4.63744	13.5001	7.11127	245.826	140.512	2.23371	2.26455	91.1361	306.98	3133.83	443.205	130.506	49.7215	200.078	540.544	2383.83	7.28681	811.926	1625.25	2049.13	5.00401	3.93147	4.53294	1.1857	1.47534	1.73277	312.582	286.699	135.968	-0.0415975	0.328401	674.511	0.176757	125.238	3035.85	1277.87	0.193371	107.233	36.5273	155.118	1462.82	5812.16	2063.82	
3.32	5.86557	5.17011	6.66646	4.88782	10.2718	10.1771	32.8579	11.1959	2.20985	1.04021	0.934761	1.50803	17.0549	24.0174	26.0925	20.9049	19.4906	3.7756	3.97459	7.32529	0.0862893	0.181709	0.461863	1.49526	7.10769	1.39023	2.07843	1.35884	5.41392	20.5075	0.853762	53.8175	8.88618	32.0891	1.56733	5.21716	3.85937	4.9173	12.7475	6.77196	253.673	144.609	2.24537	2.27973	54.8255	332.815	3102.21	514.972	220.695	57.7467	37.3184	518.079	2648.24	4.57867	757.994	1520.65	2015.38	4.79667	3.93713	4.71414	281.594	1.441	1.75032	356.775	263.487	131.962	-0.0374565	0.28132	636.622	0.155766	130.168	2758.59	1225.51	0.181733	72.3754	49.2073	120.284	1559.06	5256.17	2282.13	
3.325	5.67333	5.21219	6.95637	5.2037	10.3701	10.1602	35.6859	11.1613	2.47819	1.17252	0.919916	1.46553	15.4943	22.1902	26.3983	20.3725	19.9129	3.99791	3.92892	6.8074	0.0979488	0.229829	0.461323	1.5004	6.9905	1.34429	2.01738	1.17131	5.32059	18.3151	0.829483	58.4399	9.32086	27.3477	1.44554	5.9787	3.75617	5.24622	12.4461	6.89437	265.445	147.703	2.25743	2.29458	32.7051	369.301	3056.86	595.941	288.613	62.2919	3.1377	496.214	2918.51	2.9568	704.405	1420.34	1977.88	4.4309	3.93458	4.82985	582.505	1.36874	1.74785	402.206	244.35	126.724	-0.033261	0.256333	608.595	0.139874	136.774	2485.32	1167.87	0.158291	46.2718	57.0576	72.7413	1615.19	5056.55	2417.34	
3.33	5.45672	5.24921	7.19233	5.48231	10.4064	10.1432	38.0146	11.0774	2.70466	1.27958	0.903531	1.42079	13.7226	20.24	26.6582	20.9372	20.1317	4.22009	3.90247	6.38563	0.110046	0.263906	0.464145	1.49606	6.8782	1.29532	1.95391	1.02406	5.22786	16.4456	0.804821	62.1341	9.65199	22.5833	1.35055	6.50552	3.6452	5.52232	13.7223	7.63208	281.087	149.215	2.26955	2.30727	19.6044	371.562	3007.68	685.982	343.167	65.8751	1.36247	474.783	3190.11	2.00962	652.175	1325.47	1935.53	3.89213	3.931	4.89282	625.838	1.24539	1.73368	441.877	228.904	119.762	-0.0290523	0.243163	588.713	0.128195	145.597	2220.9	1107.23	0.135621	26.2601	65.8736	28.7206	1626.98	5244.01	2462	
3.335	5.21755	5.27835	7.37214	5.71387	10.3941	17.9094	39.7272	10.9345	2.86341	1.34942	0.885126	1.37347	11.776	18.1462	26.8786	23.7375	20.1506	4.46794	3.89016	6.40549	0.120742	0.293802	0.477718	1.48451	6.76813	1.24356	1.88829	0.919964	5.13458	15.0768	0.781773	64.75	9.87096	18.219	1.28287	6.78211	3.52483	5.74669	14.8811	8.16311	300.872	160.021	2.28143	2.31896	11.9859	326.706	2954.19	786.567	378.268	70.012	1.11701	453.676	3458.96	1.46665	601.867	1236.11	1887.82	3.28043	3.93264	4.9175	542.288	365.906	1.71677	466.788	215.948	111.015	-0.0248877	0.236277	575.941	0.120126	157.39	1963.2	1045.32	0.122395	15.8226	76.6905	3.95762	1603.64	5855.34	2438.73	
3.34	4.95792	5.29636	7.4946	5.89311	10.3417	18.5566	40.7805	10.7459	2.95285	1.38483	0.86432	1.32295	9.76826	15.944	27.0649	26.198	19.9919	4.76465	3.8845	8.26529	0.133855	0.321301	0.494381	1.46615	6.65697	1.18937	1.82124	0.844204	5.03846	14.3709	0.759181	66.2751	9.9803	14.5753	1.24195	6.8775	3.3942	5.93241	15.8514	8.60131	272.135	183.204	2.29229	2.32881	7.62632	252.469	2897.4	899.295	410.255	74.4975	0.929374	432.862	3720.44	1.15981	553.989	1151.89	1835.83	2.79325	3.93183	4.91781	449.831	632.652	1.70525	471.855	204.497	100.833	-0.0207878	0.232718	569.958	0.115725	173.279	1719.17	983.297	0.106393	13.2201	89.2257	-0.00182913	1563.14	6481.56	2383.99	
3.345	4.68507	5.30052	7.56104	6.01564	10.2566	18.2662	41.1188	10.5046	2.98648	1.39403	0.840849	1.26934	7.86601	13.716	27.2213	28.2777	19.6716	5.1096	3.90588	10.3662	0.150128	0.349925	0.508956	1.44183	6.54382	1.13345	1.75341	0.78034	4.93938	14.6239	0.737024	66.6534	9.97305	11.7524	1.22753	6.86653	3.25328	6.08846	16.6338	8.9554	204.271	206.077	2.3011	2.33669	5.16644	171.512	2837.13	1017.73	441.729	79.1652	0.830036	412.356	3969.66	0.988373	508.843	1072.58	1780.51	2.31097	3.89428	4.9073	381.138	681.425	1.69819	458.886	193.507	89.8056	-0.0167935	0.230912	570.281	0.114465	194.559	1495.46	922.043	0.117007	15.1696	104.967	-0.000724648	1515.45	6954.45	2317.8	
3.35	4.40599	5.2882	7.57162	6.08204	10.1408	18.8009	40.7483	10.2223	2.98051	1.3858	0.814841	1.21552	6.28769	9.41844	27.3512	29.9736	19.2282	5.51284	3.96985	12.4019	0.169927	0.388703	0.530696	1.41227	6.42582	1.07688	1.68611	0.742624	4.83634	15.1607	0.715365	65.9431	9.85983	9.7686	1.24047	6.80706	3.10355	6.22079	17.2817	9.25155	135.633	205.127	2.30621	2.34265	3.79282	108.002	2770.28	1136.32	474.211	83.8574	0.816535	392.094	4199.77	0.8935	466.327	997.355	1723.2	1.93905	3.82115	4.89661	332.783	624.947	1.6468	436.186	182.04	78.5634	-0.0129275	0.230027	576.748	0.116386	222.861	1294.49	862.202	0.261281	12.2924	127.949	-0.00343535	1465.24	7292.92	2248.09	
3.355	4.12771	5.25832	7.52858	6.09311	9.99598	18.9273	39.6584	9.89621	2.94927	1.36713	0.786614	1.15948	5.08242	7.7405	27.4574	31.3823	18.6883	5.95246	4.06815	14.1641	0.194544	0.434572	0.561012	1.3777	6.30292	1.02109	1.62078	0.968307	4.73073	15.5095	0.694108	64.1376	9.63898	8.4228	1.28345	6.72554	2.94809	6.33363	17.8238	9.50083	85.2492	181.536	2.30521	2.34432	3.02998	65.1214	2690.97	1254.21	507.63	88.6012	0.818615	371.971	4399.21	0.84144	426.148	925.288	1665.73	1.68874	3.71595	4.89401	302.426	524.449	137.211	410.913	169.406	67.6494	-0.00923141	0.229624	589.075	0.120849	259.915	1115.01	804.308	0.403579	8.34427	149.77	-0.00511408	1413.68	7414.87	2175.3	
3.36	3.85697	5.21117	7.43299	6.05203	9.81954	18.9614	37.8549	9.53339	2.90218	1.34204	0.756919	1.10263	4.21832	6.86203	27.542	32.5588	18.0877	6.46358	4.20612	15.6909	0.222236	0.493827	0.598402	1.33832	6.17453	0.967688	1.55939	1.38935	4.62675	15.7976	0.673281	61.2372	9.31411	7.49826	1.3606	6.61368	2.79184	6.43029	18.2815	9.71221	52.8006	143.999	2.29466	2.33716	2.60333	38.528	2602.24	1368.35	542.15	93.4415	0.811001	351.947	4539.04	0.813105	387.909	855.346	1608.87	1.53793	3.54902	4.90311	286.849	457.797	208.186	385.51	156.038	57.4631	-0.00571135	0.229472	607.477	0.12757	307.937	958.87	748.698	0.467771	4.86841	170.07	-0.00355548	1359.91	7390.05	2097.31	
3.365	3.60001	5.14934	7.28778	5.96331	9.60722	18.92	35.3753	9.12959	2.84445	1.31239	0.726877	1.05052	3.63771	5.98674	27.6068	33.5467	17.4608	7.08166	4.38639	16.9927	0.255469	0.562046	0.637922	1.29393	6.04033	0.918569	1.50419	1.83382	4.51933	16.0376	0.652939	57.2638	8.89037	7.04978	1.4778	6.46677	2.6414	6.51347	18.6696	9.8922	32.501	105.473	2.27029	2.31552	2.35545	22.5771	2505.34	1468.78	578.008	98.317	0.800984	332.075	4538.88	0.797822	351.28	786.749	1549.2	1.46589	3.34805	4.90535	283.25	420.54	241.339	360.296	142.884	48.2562	-0.00238015	0.229451	633.531	0.136178	370.395	827.175	695.564	0.48541	2.68858	190.105	-0.00146999	1303.43	7253.23	2013.27	
3.37	3.36031	5.07805	7.09605	5.8331	9.35139	18.7877	32.2979	8.68599	2.77901	1.27907	0.697879	1.00161	3.2644	5.37285	27.6531	34.3782	16.8532	7.80608	4.61534	18.0892	0.296186	0.643287	0.69337	1.2437	5.90152	0.875808	1.45743	2.34351	4.40995	16.2432	0.633077	52.2758	8.37277	6.68339	1.64123	6.28744	2.5047	6.5854	19.0004	10.0462	19.7594	72.7945	2.22758	2.27371	2.19567	13.1151	2400.34	1536.19	615.459	103.151	0.793294	312.458	4376.81	0.789675	316.104	719.14	1482.75	1.4607	3.14939	4.87455	202.77	408.086	326.836	335.489	130.891	40.1422	0.000448302	2.35916	670.145	0.146345	346.944	716.683	644.996	0.427962	1.37992	209.907	-0.00230622	1244.31	7032.83	1923.68	
3.375	3.13878	5.00182	6.86229	5.66826	9.04266	18.5465	28.768	8.20191	2.70784	1.24284	0.67157	0.959912	3.022	4.97768	27.6818	35.0804	16.9803	8.69721	4.90404	19.0054	0.345934	0.744636	0.766355	1.18619	5.75843	0.841298	1.42143	2.84857	4.29941	16.4192	0.613718	46.439	7.77292	6.26978	1.85457	6.08087	2.39205	6.64788	19.2838	10.1787	11.9209	48.2789	2.16217	2.20679	2.07104	7.6326	2287.51	1557.29	654.637	107.917	0.786936	293.205	4161.92	0.785407	282.331	652.256	1406.87	1.51808	2.97435	4.79723	111.632	415.584	396.57	311.337	120.924	33.138	0.0179781	4.20913	720.956	0.157679	187.836	623.304	597.034	0.354814	0.733916	228.843	-0.000107402	1182.92	6745.99	1829.29	
3.38	2.93431	4.92202	6.59277	5.47767	8.66993	18.1854	25.0115	7.67608	2.63264	1.20451	0.650047	0.927205	2.84295	4.82532	27.6936	35.6751	18.3759	9.8998	5.26418	19.7701	0.412616	0.870346	0.857255	1.12018	5.61217	0.816356	1.39857	3.31707	4.18779	16.5698	0.594812	40.0741	7.11287	5.99379	2.11609	5.85462	2.31214	6.70236	19.5279	10.2932	9.16749	31.5092	2.07056	2.11129	1.95	4.52939	2168.81	1553.07	695.51	112.583	0.78089	274.412	3934.46	0.78324	250.009	586.12	1320.25	1.64094	2.83567	4.6703	55.9077	441.847	456.877	287.997	115.089	27.1907	0.165927	5.40322	790.307	0.169629	63.1496	543.282	551.746	0.301223	0.429309	246.549	0.00433904	1119.4	6403.93	1730.17	
3.385	2.74386	4.83461	6.29575	5.27056	8.22528	17.6924	21.3413	7.11107	2.55479	1.16477	0.635125	0.905881	2.64802	4.93349	27.6889	36.1801	19.5579	11.5907	5.73344	20.4096	0.515743	1.02851	0.970062	1.04574	5.46587	0.802042	1.39183	3.7361	4.07563	16.6983	0.576274	33.6766	6.4008	6.02578	2.41556	5.61687	2.27042	6.75002	19.7391	10.3927	7.6971	20.6904	1.95183	1.98599	1.81596	2.8079	2047.03	1544.8	737.789	117.078	0.775215	256.175	3707.3	0.782205	219.223	520.813	1223.6	1.8367	2.73915	386.124	27.8683	386.141	517.096	265.56	115.89	22.2065	0.391399	5.59194	885.016	0.183367	19.7633	472.838	509.206	0.386103	0.267613	262.911	-0.000911689	1055.8	6020.53	1630.51	
3.39	2.5635	4.73261	5.98146	5.05786	7.71535	17.0602	18.0475	6.51187	2.47483	1.12421	0.628427	0.896786	2.47027	5.07361	27.6769	36.6098	20.5427	13.9714	6.3776	20.9466	0.679437	1.25875	1.10895	0.963792	5.3184	0.799015	1.40364	4.10121	3.96343	16.8655	0.557939	27.9126	5.67347	6.20156	2.73311	5.37207	2.26966	6.79185	19.9227	10.4794	18.3701	14.3415	1.81199	1.8376	1.66667	1.88333	1924.65	1535.89	780.98	121.323	0.770069	238.585	3477.89	0.781778	190.172	456.632	1119.2	2.11087	2.683	1022.95	14.0209	110.88	569.092	244.087	124.748	18.0758	0.651101	5.33512	1012	0.200235	7.52368	409.626	469.464	0.502348	0.179367	277.781	-0.000602612	996.666	5617.38	1539.87	
3.395	2.38875	4.60813	5.66182	4.85128	7.15743	16.3027	15.2483	5.88965	2.39165	1.08331	0.630985	0.901964	2.38371	5.18981	27.6661	36.9756	21.3456	17.255	7.28271	21.3993	0.929045	1.62993	1.29907	0.875712	5.16979	0.807982	1.43524	4.41046	3.85147	23.4199	0.539613	23.1562	4.97345	6.13453	3.04355	5.12722	2.30944	6.82864	20.0829	10.5553	26.2869	9.59814	1.65893	1.6761	1.50719	1.46898	1803.46	1524.38	824.518	125.235	0.765454	221.726	3243.81	0.781676	163.238	395.025	1007.43	2.45382	2.66025	1663.07	7.19813	11.0681	401.345	223.611	142.423	14.6823	0.968792	3.9771	1172.45	0.204787	3.3275	352.181	432.483	0.507055	0.108723	290.962	0.00428976	945.92	5217.49	1467.87	
3.4	2.2129	4.45352	5.34895	4.66156	6.57192	15.4511	12.9819	5.26355	2.30375	1.0419	0.643403	0.923201	2.37709	5.37395	27.6555	37.2866	22.016	21.6296	8.53366	21.7826	1.27533	2.21609	1.59413	0.783295	5.02041	0.82939	1.48703	4.66872	3.74045	29.6212	0.52105	19.4234	4.34376	6.36879	3.3179	4.90301	2.39026	6.86106	20.2232	10.6219	19.9952	50.8577	1.4998	1.50961	1.35128	1.22641	1686.23	1508.94	853.503	124.989	67.1214	208.401	3006.48	0.781748	164.077	337.671	891.845	2.84077	2.66136	2086.49	3.84644	2.21348	195.523	204.134	169.378	23.4521	1.3519	2.6862	1364.45	0.211607	1.93025	299.33	398.209	0.447615	0.0642176	300.434	1.09865	900.341	4839.21	1415.79	
3.405	2.02616	4.26267	5.05497	4.4988	5.98342	14.5396	11.2372	4.65914	2.21094	0.998935	0.665606	0.962769	2.41679	5.66755	27.645	37.5503	22.5796	27.0785	10.2095	22.1079	1.6647	3.07675	2.04976	0.689286	4.87013	0.863746	1.55832	4.88377	3.63031	31.0857	0.50199	16.551	3.80476	7.02898	3.52863	4.69559	2.51014	6.88965	20.3463	10.6806	12.458	59.1905	1.34082	1.34454	1.32582	1.0971	1576.18	1489.6	618.959	108.505	124.158	201.213	2771.49	0.781913	187.799	310.06	776.063	3.23729	9.99081	2233.19	2.27799	1.18205	31.4978	185.628	204.646	41.8664	1.80424	1.73767	831.178	0.219929	1.50014	250.064	366.463	0.367779	0.0380462	290.435	5.22403	849.033	4437.39	1354.25	
3.41	1.83819	4.03134	4.79028	4.37228	5.41529	13.6029	9.9668	4.10375	2.11147	0.952955	0.697465	1.02308	2.46721	6.08309	27.6347	37.7727	23.0563	33.0775	12.3766	22.3848	2.02737	4.13423	2.71	0.597626	4.7182	0.911172	1.64763	5.06322	3.52152	31.4811	0.482187	14.2948	3.35393	8.03894	3.66917	4.48597	2.67122	6.91489	20.4547	10.7323	7.93364	74.8961	1.18834	1.187	1.32462	22.6318	1476.09	1465.76	477.459	113.094	155.267	198.137	2544.74	0.782126	223.004	309.573	663.868	3.60859	14.493	2235.15	1.60319	1.09814	4.02823	168.048	145.451	56.467	2.30246	1.11347	166.916	0.228343	1.37672	197.465	336.986	0.424742	0.0229394	300.724	7.55684	795.952	4008.99	1289.76	
3.415	1.64821	3.7606	4.56331	4.29162	4.89308	12.6735	9.28709	3.62641	2.00355	0.903282	0.73835	1.10698	2.5241	6.61237	27.6244	37.9587	23.4604	39.0291	15.0642	22.6207	2.31622	5.17984	3.58175	0.512762	4.56505	0.971289	1.75319	5.21356	3.4137	31.8982	0.461438	12.5372	2.9811	9.34458	3.75133	4.2597	2.87698	6.93716	20.5503	10.7779	5.44565	72.6524	1.04772	1.04195	22.4406	22.5006	1385.24	1438.73	387.716	111.026	176.327	197.067	2331.43	0.782365	261.173	324.07	559.638	3.93057	140.186	2160.68	1.34515	1.16864	1.50744	151.342	65.2749	65.3201	2.84487	0.727655	23.7888	0.240217	1.34681	149.794	309.551	0.503234	0.0142634	248.6	8.41869	746.311	3593.39	1235.95	
3.42	1.46656	3.46569	4.37979	4.2707	4.43476	11.7827	10.6296	3.23686	1.88736	0.84991	0.787053	1.21685	2.60633	7.21085	27.6142	38.1121	23.8038	44.4525	18.105	22.8215	2.50622	6.05712	4.54526	0.439471	4.40813	1.04301	1.87205	5.34006	3.30598	32.3428	0.439621	11.1438	2.68835	11.0035	3.7896	4.01012	3.12791	6.95679	20.6347	10.8183	3.61782	53.9423	122.39	90.9968	24.0136	26.7475	1296.83	1411.69	214.413	113.676	137.254	195.702	2135.26	0.782618	297.316	344.341	468.901	4.1893	372.452	2049.59	1.27474	1.2488	1.49504	135.472	30.2625	68.388	3.45279	0.498531	6.18056	0.259339	1.34398	114.325	283.865	0.483338	0.00930012	288.785	12.3506	705.487	3232.75	1200.08	
3.425	1.29926	3.16257	4.24403	4.34706	4.05161	10.994	13.5825	2.92273	1.76439	0.793218	0.842376	1.3506	2.78225	7.11963	27.6041	38.2361	24.0961	49.0648	21.2145	22.9921	2.60591	6.69223	5.45685	0.380111	4.24944	1.12432	2.00035	5.44692	3.20049	32.7815	0.416783	10.0659	2.46504	13.188	3.79763	3.73402	3.41888	6.97407	35.526	17.7722	2.41393	34.4624	277.551	193.825	127.505	18.695	1205.07	1384.01	154.969	111.199	101.187	193.182	1958.02	0.782878	328.993	365.429	395.201	4.38162	670.824	1915.94	1.27626	1.309	1.55248	120.32	17.4332	67.9106	4.06786	0.366223	2.85262	0.291458	1.34778	87.9171	259.26	0.419689	0.00647813	286.747	15.8715	676.286	2951.09	1182.61	
3.43	1.15019	2.86389	4.15754	4.69156	3.74676	11.09	16.6566	2.67789	1.63941	0.735409	0.902549	1.50257	3.41549	5.95522	27.5942	38.3331	24.3452	52.7063	24.166	23.1365	2.64387	7.07287	6.23005	0.333418	4.08428	1.21243	2.1343	5.53751	3.09426	33.1766	0.393146	9.24653	2.30004	16.6999	3.78586	3.43408	3.74056	11.9833	36.3844	18.9858	10.5762	21.2912	406.668	286.273	243.375	11.3432	1105.61	1355.45	166.325	111.781	78.5998	189.573	1799	0.783142	355.167	385.428	338.923	4.51192	944.602	1765.89	1.29824	1.34998	1.5471	105.687	11.6149	65.4808	4.68485	0.291398	2.25943	0.354722	1.35203	68.415	235.2	0.377374	0.00488825	242.181	18.1878	660.658	2753.65	1185.54	
3.435	1.02242	2.57868	4.12162	4.96642	3.51771	11.0817	19.4439	2.48741	1.51684	0.678002	0.965326	1.66488	4.47318	6.01894	27.5843	38.4051	24.5574	55.3413	26.8187	23.2578	2.64256	7.2636	6.83999	0.297911	3.91547	1.30409	2.26969	5.61452	2.98761	33.477	0.369117	8.56936	2.18214	23.1599	3.76111	3.12822	4.07986	12.2118	36.5708	19.0827	14.7713	13.564	477.982	359.693	327.125	8.01835	995.501	1326.48	187.903	109.602	93.7265	185.496	1654.49	27.333	375.768	403.881	295.369	4.58891	1149.76	1603.86	1.32181	1.37629	1.53959	91.6053	8.36458	64.1271	5.3021	0.249769	2.28757	0.47767	1.355	53.9028	211.145	0.341989	0.00400391	204.106	20.245	659.89	2641.18	1213.06	
3.44	0.916949	2.31466	4.13715	5.19524	3.35793	11.0827	21.8469	2.34472	1.39917	0.623179	1.02805	1.8288	5.7305	6.33023	27.5746	38.4535	24.7378	57.1404	29.1253	23.3586	2.61706	7.33013	7.29004	0.270474	3.73808	1.3959	2.40207	5.6801	2.88083	33.6093	0.345286	7.96296	2.09966	34.3161	3.72679	2.82477	4.42145	12.2573	36.8037	19.194	16.0096	9.03002	497.89	400.29	378.914	5.45059	873.609	1297.21	215.899	98.1781	106.538	181.271	1521.31	26.9753	391.549	421.041	260.798	4.62117	1271.82	1435.14	1.3408	1.39113	1.53444	78.4414	6.21379	63.6077	5.92017	0.226923	2.46117	0.683112	1.35628	42.3419	187.37	0.326691	0.00352102	185.912	23.333	672.871	2608.41	1265.47	
3.445	0.833194	2.07647	4.20468	5.38216	3.25903	11.076	23.9118	2.23975	1.2879	0.571458	1.08815	1.98562	6.98372	6.59266	27.5649	38.4793	24.8905	58.321	31.0902	23.4409	2.57647	7.31759	7.60465	0.250598	3.55415	1.4846	2.52732	5.73596	2.77267	33.5019	0.322423	7.56454	2.03459	50.4093	3.68413	2.53602	4.74936	12.3306	37.0846	19.3402	16.4632	6.347	495.101	417.842	404.034	6.94186	742.871	1265.89	243.73	90.0992	112.811	177.01	1397.84	20.6394	403.665	437.23	234.461	4.61353	1315.27	1269.21	1.35361	1.39628	1.51309	66.5034	4.6464	63.3871	6.5245	0.214541	2.66559	0.956584	1.35575	32.2885	164.285	0.319933	0.00326496	185.913	26.8633	697.291	2644.11	1339.8	
3.45	0.769469	1.86602	4.32538	5.53878	3.21326	11.0706	25.6586	2.16172	1.18387	0.523022	1.14338	2.12796	8.12049	6.78079	27.5554	38.4831	25.0189	59.0488	32.7428	23.5065	2.52564	7.25434	7.82286	0.237914	3.35991	1.56742	2.64201	5.78352	2.66235	33.1307	0.30138	9.11013	1.97773	67.3849	3.63346	2.2655	5.04963	12.4246	37.3174	19.4692	10.3715	4.78278	483.952	420.755	413.498	27.4873	612.237	1230.34	272.868	97.4659	96.5637	172.59	1283.47	72.8546	413.236	452.848	215.713	4.56674	1261.32	1119.9	1.35988	1.39215	1.46463	55.9183	3.48933	62.378	7.11079	0.207917	2.87666	1.21553	1.35339	23.303	142.523	0.30706	0.362578	190.124	27.4517	729.666	2730.85	1430.02	
3.455	0.722461	1.68307	4.50063	5.67098	3.21514	11.0653	27.1227	2.0989	1.08798	0.478468	1.19208	2.25087	9.12575	6.92134	27.5459	38.4686	25.1256	59.4427	34.1206	23.5566	2.46704	7.15713	7.97691	0.228898	3.15595	1.64241	2.74372	5.8239	2.54934	32.5566	0.282948	12.8652	1.94804	81.1644	3.57433	2.01666	5.31284	12.5072	37.4912	19.5685	6.98216	3.89536	470.682	415.382	415.938	67.1159	490.793	1189.53	266.82	104.314	129.888	167.923	1178.08	67.2097	421.27	468.339	202.813	4.47794	1204.33	989.2	1.35923	1.37797	1.38695	52.4947	2.66971	60.8277	7.66672	0.204428	3.09048	0.310727	1.34917	19.1089	123.358	0.56776	0.440426	240.192	21.2015	768.677	2859	1534.79	
3.46	0.693869	1.52654	4.7313	5.78338	3.26099	11.0602	28.3448	2.03758	1.0008	0.437786	1.23324	2.35136	9.99482	7.0327	27.5365	38.4535	25.2129	59.5803	35.2665	23.5922	2.40198	7.03544	8.08808	0.222954	2.94195	1.70833	2.83102	5.85801	2.43314	31.8573	0.267564	16.9242	1.95238	89.5897	3.50534	1.79477	5.53309	12.5738	37.6361	19.6546	4.84627	3.40917	457.977	405.694	416.777	271.121	384.778	1143.08	335.857	109.834	114.275	162.87	1081.39	50.0996	428.669	484.139	194.07	4.34241	1198.66	876.697	1.3508	1.3519	1.28081	55.8148	2.13465	57.9037	8.16212	0.202635	3.30346	0.0700697	1.34308	17.0663	107.324	0.650555	0.310724	257.941	20.565	814.857	3028.14	1657.88	
3.465	0.676297	1.39283	5.01807	5.87937	3.34949	11.055	29.3656	1.9964	0.922728	0.401786	1.2664	2.42824	10.7282	7.12837	27.5272	38.439	25.2825	59.5151	36.2347	23.6139	2.33136	6.89449	8.16933	0.219725	2.71841	1.76452	2.90313	5.88659	2.3133	31.0457	0.255184	21.589	1.987	93.7155	3.42365	1.60221	5.70852	12.6265	37.743	19.7232	3.37585	3.16076	447.563	394.556	419.046	382.174	299.073	1091.41	410.801	111.994	31.0484	157.379	993.073	33.9686	436.225	500.492	188.485	4.15641	1190.5	784.521	1.33318	1.31149	1.14873	63.7398	1.83287	53.7586	8.54726	0.20175	3.51081	0.0166446	1.33507	16.5589	94.603	0.645689	0.187147	247.929	16.8896	863.82	2316.9	1797.17	
3.47	0.662793	1.27745	5.36018	5.96171	3.47951	11.0498	30.2211	1.97713	0.853929	0.370403	1.29154	2.48181	11.3399	7.23072	27.5179	38.4247	25.3357	59.2815	37.0649	23.6223	2.25588	6.73721	8.22778	0.218892	2.48788	1.8108	2.95996	5.91022	2.18937	30.0982	0.245662	26.1372	2.05381	95.5348	3.32515	1.43869	5.83978	12.6441	37.7503	19.7376	2.43202	3.05356	440.488	383.925	424.557	461.469	237.7	1035.33	470.216	109.866	4.44779	151.453	912.95	21.5766	444.594	518.094	185.42	3.91992	1157.33	714	1.30436	1.25465	0.997081	74.4216	1.71379	48.8794	8.7007	0.20135	3.70767	0.00442015	1.32512	17.4085	85.1206	0.653955	0.15784	229.828	7.61823	915.495	1636.91	1954.58	
3.475	0.654418	1.17662	5.75509	6.03268	3.65352	11.0445	30.9411	1.97949	0.794907	0.343398	1.30908	2.51358	11.8491	7.37533	27.5088	38.4106	25.3736	58.9009	37.7775	23.6178	2.17618	6.5652	8.26651	0.220438	2.25527	1.84739	3.00214	5.9294	2.06192	29.1325	0.239321	30.3208	2.15352	96.3167	3.20394	1.30622	5.92979	12.6221	37.6582	19.6952	1.86487	3.02706	437.185	374.983	434.489	501.986	200.038	976.047	523.267	105.499	1.20483	145.115	840.568	13.2271	454.31	537.204	184.449	3.63785	1096.02	663.986	1.26217	1.18149	0.838511	86.675	1.72729	43.6785	8.63619	0.201208	3.89042	0.00169075	1.31324	19.626	78.603	0.666229	0.121133	213.713	0.453982	968.629	1086.43	2128.4	
3.48	0.648303	1.08753	6.19834	6.09411	3.87297	11.0391	31.5497	2.01404	0.745584	0.321161	1.31959	2.526	12.2741	7.70495	27.4997	38.3965	25.3968	58.3843	38.3795	23.6079	2.09313	6.3792	8.28568	0.224591	2.02748	1.87485	3.03028	5.94449	1.93276	28.3079	0.238987	34.0439	2.29215	96.7076	3.05285	1.2023	5.98253	12.5778	37.4899	19.6181	1.53967	3.0446	386.829	340.247	394.287	452.194	180.516	915.013	553.817	100.307	0.919763	138.4	775.126	12.783	465.787	558.007	185.292	3.31949	1016.13	628.999	1.20515	1.09407	116.021	97.6162	1.83079	38.44	8.37792	0.201202	4.05765	0.00112807	117.763	22.7827	74.308	0.685847	0.0796086	201.508	-0.00341655	1020.44	1667.14	2314.76	
3.485	0.643328	1.00915	6.68232	6.72626	4.14256	11.0336	32.0661	2.08998	0.705723	0.303303	1.32377	2.52196	12.6305	8.63561	27.4906	38.3826	25.406	57.7355	38.8693	23.599	2.00789	6.17931	8.28368	0.231463	1.81282	1.8937	3.04555	5.95579	1.79996	27.4652	0.238778	37.2796	2.49266	96.9389	2.86465	1.12037	6.00272	12.5153	37.2102	19.4986	1.36936	3.08547	349.885	310.526	333.227	322.282	172.171	855.167	569.104	95.1876	0.859751	131.34	727.262	10.1002	479.349	580.702	187.781	2.97861	932.907	598.915	1.13449	0.996086	128.055	108.34	1.9897	33.3638	7.9731	0.201267	4.20853	0.0010462	155.459	27.1726	71.9972	0.71247	0.0496673	192.13	0.0723837	1067.05	1038.83	2504.99	
3.49	0.638756	0.939472	7.196	9.12856	4.46386	11.0281	32.5055	2.20336	0.674667	0.28948	1.32233	2.50485	12.9311	11.1656	27.4816	38.3689	25.4015	56.9562	39.2448	23.5903	1.92126	5.96542	8.25909	0.240593	1.61907	1.9048	3.04889	5.96354	1.66985	26.2743	0.240337	40.0156	2.79727	96.9579	2.63814	1.05903	5.99526	12.4166	36.7538	19.3085	1.29803	3.13867	298.144	266.799	258.273	199.915	169.444	798.756	390.777	60.0596	6.06218	124.058	688.339	7.05334	495.252	605.609	191.266	2.63329	854.188	575.405	1.05275	0.892245	184.12	118.078	2.17681	28.8284	7.45205	0.59455	4.3427	0.00106925	101.428	32.3729	71.0472	0.750457	0.0306426	169.297	1.32676	1103.29	815.559	2689.75	
3.495	0.634144	0.875792	7.72713	9.81541	4.84028	11.0224	32.8801	2.42913	0.651772	0.27925	1.316	2.47729	13.1861	13.8717	27.4726	38.3552	25.3909	56.0476	39.5097	23.5817	1.83389	5.7381	8.21236	0.251791	1.45493	1.90883	3.04141	5.96787	1.54291	24.482	0.243165	42.2998	3.27553	96.6659	2.37992	1.01573	5.96458	12.266	36.1556	19.0253	1.28923	3.19839	261.109	222.124	177.85	120.463	169.807	747.616	198.956	15.6814	2.34748	116.549	652.4	4.66389	510.102	629.666	195.314	2.30294	784.058	559.038	0.96392	117.983	220.604	126.435	2.37169	24.5707	6.83639	0.590199	4.46012	0.00111479	41.4732	38.606	71.0834	0.81011	0.0191157	126.203	5.34082	1123.33	849.108	2858.31	
3.5	0.629188	0.816311	8.25916	10.1334	5.27251	11.0167	33.1998	2.67331	0.636582	0.272454	1.30539	2.44152	13.4034	16.4227	27.4637	38.3418	25.3815	55.011	39.6773	23.5731	1.74646	5.49847	8.14616	0.266886	1.31769	1.90666	3.02449	5.96889	1.42378	21.9016	0.246993	44.202	4.02962	96.0006	2.09738	0.988522	5.91453	12.0962	35.8241	18.7868	1.3195	3.25945	277.711	212.102	142.71	74.3358	172.69	702.655	20.9276	2.25344	77.3511	116.168	627.459	3.02483	525.718	654.332	200.295	4.20593	721.65	548.975	0.874098	387.461	242.119	133.665	2.55983	45.0853	6.15677	0.489861	4.56112	0.00116427	15.0108	46.2334	72.1311	0.88495	0.0122878	72.4028	12.3222	1122.14	891.64	2997.61	
3.505	0.624472	0.763523	8.77172	10.5181	5.75904	11.0109	33.4724	2.98634	0.629056	0.268923	1.29124	2.39955	13.5894	18.6466	27.4548	38.3285	25.3721	53.8473	39.7697	23.5646	1.6596	5.24726	8.06189	0.287865	1.2049	1.89909	2.99938	5.96694	1.31382	18.963	0.251612	45.7899	5.19269	94.9637	1.79954	0.976167	5.84841	11.9725	35.363	18.5858	1.37386	3.31732	332.458	232.129	119.176	45.7245	178.17	664.017	0.901446	0.625451	138.718	127.821	616.171	1.97722	544.321	681.633	206.941	128.623	663.721	543.804	1.87514	566.126	255.116	139.982	2.73153	72.992	5.45019	0.391629	4.64629	0.00121293	5.74093	56.1879	74.7112	0.997197	0.0177056	34.8848	21.1399	1096.98	948.309	3093.7	
3.51	0.620059	0.720309	9.23962	10.8542	6.29222	11.005	33.7043	3.37297	0.63087	0.268614	1.27433	2.35317	13.7494	20.5723	27.4459	38.3153	25.3629	52.558	39.8078	23.5562	1.57396	4.9859	7.95518	0.316826	1.11408	1.8869	2.96732	5.96456	1.21429	16.4412	0.256828	47.1208	6.90406	93.6502	1.50164	0.979177	5.76887	11.7808	34.6912	18.2666	1.44258	3.36958	404.775	267.817	186.543	28.0442	186.067	631.746	0.546304	0.310617	183.522	149.109	615.99	1.33595	566.626	712.144	215.947	469.041	613.718	542.24	1.58056	562.117	253.627	148.004	2.88297	93.4974	4.75366	0.31892	4.71646	0.00125914	2.62508	91.8364	78.9641	1.04181	0.0315718	16.3097	30.0776	1048.59	863.841	3133.46	
3.515	0.616671	0.685587	9.638	11.0854	6.85977	10.999	33.9008	3.85191	0.642735	0.272239	1.25531	2.30397	13.8875	22.2047	27.4371	38.3022	46.4839	51.1493	39.778	23.5479	1.48996	4.71662	7.82067	0.357319	1.04195	1.8708	2.92987	5.96234	1.12599	13.6311	0.262675	48.2411	9.07351	92.1469	1.22378	1.00257	5.67821	11.5322	33.9067	17.87	1.5191	3.41548	476.77	306.776	324.177	17.3051	196.544	605.927	0.70043	0.242549	215.905	175.51	623.319	0.954842	592.363	745.582	227.587	824.305	572.927	543.185	1.24906	485.669	244.773	157.702	3.01417	99.869	4.09998	0.271019	4.77269	0.00130218	1.61585	139.111	84.9256	1.18721	0.0537797	7.74208	37.5653	981.515	749.382	3107.06	
3.52	0.61714	0.657214	9.95818	11.2453	7.44088	10.9929	34.066	4.49078	0.663492	0.280377	1.23493	2.25323	14.0069	23.5724	27.4283	68.9024	45.9309	49.6347	39.6414	23.5396	1.40764	4.44255	7.65429	0.414367	0.984814	1.8515	2.88831	5.96015	1.04983	10.8948	0.268985	49.1879	11.3567	90.4961	0.989523	1.04449	5.57884	11.2744	33.1236	17.4711	1.59869	3.45567	539.904	343.499	417.392	10.8465	210.177	586.544	0.738988	0.234853	232.846	203.101	633.759	0.73323	620.724	781.267	241.358	926.182	540.64	545.627	1.05012	422.268	231.84	168.039	3.126	97.7236	3.51421	0.241435	4.81631	0.00134176	1.28899	169.457	92.7637	1.23259	0.0803045	3.8592	42.6176	902.664	761.567	3011.04	
3.525	0.621509	0.634235	10.2034	11.3619	8.01202	10.9867	34.2033	5.36154	0.691358	0.292538	1.21383	2.20208	14.1104	24.7126	27.4194	69.9761	46.3855	48.035	39.366	23.5315	1.32741	4.16736	7.45378	0.493863	0.939618	1.82975	2.84397	5.95798	0.986161	8.68864	0.275849	49.991	13.4021	88.7544	0.806273	1.0992	5.47354	11.0279	32.3824	17.0952	1.67814	3.49199	597.44	377.882	390.992	7.00943	227.45	573.337	0.714915	0.245609	242.725	229.247	645.316	0.606549	650.802	818.353	257.277	867.831	514.983	548.554	0.951104	382.882	218.182	177.888	3.21985	94.2695	3.01259	0.223913	4.8488	0.00137797	1.17628	203.135	102.678	1.45208	0.10767	2.17021	44.9238	819.545	904.879	2851.92	
3.53	0.630019	0.615006	10.3805	11.4513	8.5538	10.9804	34.3155	6.50899	0.724788	0.307882	1.19257	2.15157	14.2003	25.6639	27.4106	69.6911	46.8629	46.3781	38.9352	43.4578	1.24964	3.89242	7.21856	0.601734	0.905346	1.80616	2.79799	5.95583	0.936354	7.04592	0.283837	50.674	14.9646	86.9646	0.669435	1.16153	5.36499	10.7645	31.6049	16.6947	1.75559	3.52735	653.712	410.583	285.397	4.76709	248.371	565.766	0.748057	0.265792	248.201	252.101	655.325	0.535163	681.565	855.867	275.395	790.073	494.052	550.947	0.906342	354.779	205.079	186.246	3.29746	91.4902	2.6025	0.213849	4.8719	0.00141061	1.13046	247.507	114.884	1.68912	0.134945	1.4801	44.7078	737.097	1122.71	2645.73	
3.535	0.643215	0.599248	10.4996	11.5248	8.99313	10.974	34.4048	7.93207	0.762178	0.32571	1.17161	2.10242	14.2783	26.4604	27.4019	70.4392	47.2713	44.6976	38.3389	44.0475	1.1746	3.61969	6.95057	0.743471	0.884197	1.78139	2.75145	5.91081	0.8993	5.82256	0.293923	51.2558	15.9525	85.1087	0.573244	1.233	5.25568	10.4647	30.7381	16.24	1.82977	3.56558	710.834	442.354	180.155	3.48417	273.037	563.066	0.840557	0.295914	250.894	270.516	662.716	0.495458	711.891	892.555	295.586	742.595	476.306	551.825	0.887167	331.267	193.046	192.612	3.36084	88.8706	2.28451	0.208213	4.88736	0.00143743	1.10622	297.176	129.554	1.93723	13.3784	1.25206	42.5269	654.368	1371.79	2407.19	
3.54	0.661714	0.58833	10.5718	11.5885	9.37086	10.9675	34.4728	9.58286	0.804266	0.345421	1.15134	2.05506	14.3459	27.1309	28.3798	70.9295	47.6489	43.0283	37.574	43.7413	1.10222	3.35202	6.65395	0.915259	0.870831	1.75592	2.70512	11.3233	0.859675	4.93726	0.306313	51.7517	16.5154	83.1526	0.508985	1.31687	5.14782	10.1191	29.756	15.7141	1.89976	3.60321	702.623	473.895	108.791	2.77028	301.113	564.274	0.974806	0.33791	251.471	283.901	665.75	0.473668	740.6	926.977	316.554	716.584	460.694	550.357	0.87921	311.807	182.191	196.709	3.41222	86.1024	2.05437	0.205136	4.89691	0.00145462	1.08962	348.502	146.533	2.2904	43.7139	1.26579	39.8168	571.596	1614.05	2151.44	
3.545	0.686793	0.583776	10.6066	11.6416	9.62565	10.9609	34.5209	11.3672	0.851571	0.367466	1.13202	2.01003	14.4044	27.6982	51.5809	71.3487	47.9783	41.3848	36.6552	44.5671	1.03203	3.09223	6.33144	1.10077	0.864519	1.73034	2.65988	11.9941	0.835374	4.31878	0.321672	52.174	16.8149	81.0657	0.465737	1.41441	5.04322	9.70954	28.6071	15.0894	1.96487	3.6352	596.79	490.058	66.2294	2.38857	332.31	568.263	1.14567	0.392222	250.454	292.098	664.008	0.461904	758.556	950.47	337.101	697.91	446.543	255.871	0.875943	296.664	172.454	198.357	333.881	83.2681	1.90544	0.203506	4.90219	0.00145766	1.07634	401.331	165.389	4.97043	73.3162	1.41672	37.3813	494.092	1809.95	1900.78	
3.55	0.718739	0.588088	10.6113	11.678	9.78114	10.9542	34.5501	13.1358	0.903677	0.391975	1.11383	1.96772	14.4549	28.1807	48.8829	71.7331	48.2227	39.7472	35.6118	45.0148	0.961347	2.84308	5.98939	1.28261	0.866377	1.70499	2.61627	12.1711	0.818236	3.89608	0.341078	52.5326	16.965	78.8386	0.427484	1.52598	4.94316	9.22048	27.2468	14.3423	2.02461	3.6688	489.463	504.295	40.0159	2.19732	366.619	573.824	1.35454	0.456839	248.283	295.291	656.556	0.455702	760.693	958.126	356.301	683.875	433.436	19.3326	0.874576	285.028	163.712	197.467	746.681	80.5151	1.83018	0.202683	4.90459	0.00144226	1.06493	456.997	185.83	8.81773	103.699	1.65291	35.2955	425.307	1929.23	1673.12	
3.555	0.756595	0.622213	10.5902	11.6908	9.84967	10.9474	34.5609	14.8016	0.960593	0.418753	1.09692	1.92825	14.4981	28.5929	50.0496	72.0597	48.3616	38.0751	34.4792	45.3035	0.886693	2.60841	5.64588	1.44672	0.866063	1.68025	2.57452	12.2404	0.808424	3.60379	0.366006	52.8356	17.034	76.4864	0.385993	1.6526	4.84881	8.64977	25.6683	13.4701	135.538	3.70223	460.178	525.588	24.0674	2.11274	403.622	579.769	1.59328	0.526827	245.306	293.767	642.839	0.452563	750.018	951.151	373.39	675.327	421.144	4.83694	0.873961	275.935	155.833	194.097	1262.43	77.8753	1.82134	0.202304	4.90514	0.00140528	1.05474	515.12	207.184	9.99942	133.939	1.92848	33.5277	363.092	1969.9	1469.41	
3.56	0.800219	0.810177	10.545	11.6746	9.85118	10.9405	34.5539	16.3587	1.02158	0.447667	1.08133	1.8918	14.5348	28.9465	50.392	72.3312	48.3844	36.3308	33.2968	45.4864	0.815028	2.39337	5.31214	1.58569	0.879689	1.65646	2.5352	12.2842	0.806223	3.38602	0.398581	53.0895	17.0551	74.0376	0.353418	1.79342	4.76071	8.00592	23.8953	12.4864	253.267	3.73174	430.457	553.898	14.599	2.08594	442.686	584.98	1.84026	0.595024	241.765	288.459	622.6	0.4511	727.101	930.929	387.566	671.645	409.492	2.79528	0.87364	268.59	148.617	188.477	1837.47	75.3237	1.87185	0.202167	4.905	0.00134629	1.04538	573.604	228.473	9.5009	159.972	2.19658	32.0167	305.931	1939.98	1281.15	
3.565	0.851079	1.05081	10.4769	11.627	9.79571	10.9335	34.5398	17.8405	1.08585	0.478447	1.06708	1.8582	14.5655	29.2509	50.597	72.5249	48.287	34.4965	32.1024	45.527	0.743455	2.19705	4.99684	1.69516	0.90168	1.63375	2.49822	12.2282	0.812525	3.14071	0.44225	53.2995	17.0386	71.5255	0.336011	1.94882	4.67922	7.31179	21.9896	11.4271	385.625	3.75374	351.037	588.627	9.05809	2.0886	483.066	588.582	2.06907	0.65379	237.796	280.612	595.698	0.450549	693.384	899.589	398.28	671.802	398.498	2.64546	0.873431	262.671	141.543	181.044	2324.95	72.827	1.97475	0.202161	4.90418	0.00126765	1.03646	631.738	248.891	8.52677	180.622	2.41369	30.721	253.204	1849.06	1098.69	
3.57	0.908064	1.30722	10.3876	11.5491	9.69472	10.9264	34.5272	19.3109	1.15205	0.510389	1.05417	1.82756	14.5908	29.5135	50.7787	72.6121	48.0811	32.5996	30.9317	45.4193	0.678551	2.0164	4.70649	1.77537	0.93292	1.61237	2.46397	12.0194	0.827749	2.87275	0.500994	94.3547	16.9843	68.9828	0.330237	2.11627	4.60446	6.59717	20.0305	10.3372	481.487	3.7644	243.902	625.86	5.85692	2.10474	523.82	589.883	2.25062	0.695977	233.445	271.432	561.988	0.450493	651.17	859.13	405.091	674.599	388.061	2.62511	0.873266	257.877	107.274	172.236	2734.37	70.3976	2.12215	0.202224	4.90411	0.00117966	1.02769	686.77	267.552	6.22147	196.365	2.54271	29.5992	205.285	1680.4	925.615	
3.575	0.969798	1.54163	10.2776	11.4465	9.55317	10.9191	52.4662	20.8227	1.21892	0.542896	1.04251	1.79976	14.6109	29.7404	50.9235	72.5783	47.7863	30.7157	29.8083	45.1728	0.62516	1.85218	4.44127	1.83068	0.977866	1.59242	2.43234	11.6456	0.852994	2.70969	0.580146	103.204	16.8889	66.447	0.330437	2.29333	4.53659	5.90324	18.1264	9.2788	518.026	3.75921	146.73	662.194	4.03408	2.12562	564.043	588.552	2.36932	0.718289	228.688	261.796	521.832	0.450704	603.372	811.801	407.872	679.339	378.046	2.62304	0.873116	253.84	82.6146	162.709	3056.31	67.9949	2.30496	0.202325	107.007	0.001122	1.01876	736.696	283.819	-0	208.133	2.58418	28.6045	163.372	1431.11	771.32	
3.58	1.03371	1.74972	10.1451	11.325	9.3722	10.9118	65.6188	22.39	1.28497	0.575221	1.03209	1.77474	14.6263	42.0805	50.9889	72.3916	47.4161	28.9664	28.7292	44.8069	0.586513	1.70589	4.19487	1.8674	1.03815	1.57401	2.40354	11.1281	0.887793	2.66342	0.686201	105.282	16.7519	63.9524	0.333986	2.47601	4.47534	5.26753	16.375	8.30959	441.048	3.73428	84.6156	684.224	3.0134	2.14669	602.856	584.528	2.4339	0.723579	223.452	252.133	476.337	0.451059	552.319	759.682	406.799	685.382	352.186	2.62116	0.872972	250.092	22.307	152.766	3292.15	65.6072	2.51388	0.202445	341.317	0.0074436	1.0094	779.902	297.204	-0.188167	208.585	2.55848	27.7001	128.44	1101.31	639.427	
3.585	1.09753	1.93046	9.98503	11.1826	9.14771	10.9043	67.2034	23.9501	1.34896	0.60668	1.02283	1.75238	14.6372	54.1957	50.954	72.0151	46.946	27.4895	27.6768	44.3493	0.56417	1.57904	3.96249	1.89026	1.1155	1.55715	2.37736	10.5338	0.929866	2.69131	0.826013	105.173	16.5774	61.5466	0.344491	2.6589	4.42046	4.71593	14.8416	7.46748	316.354	3.68826	48.9252	688.072	2.45297	2.16583	639.315	578.05	2.45847	0.716041	217.664	242.521	426.275	0.45149	499.331	704.511	402.311	692.025	325.046	2.61959	0.87283	246.337	6.74453	142.637	3448.72	63.2292	2.74216	0.202576	587.258	0.00851012	0.999424	814.806	307.527	-0.15257	200.33	2.48543	26.8766	100.749	696.937	528.895	
3.59	1.15632	2.08371	9.78893	11.0095	8.87177	10.8967	66.9126	25.3331	1.40971	0.636645	1.01466	1.73257	14.6437	55.2215	50.7963	71.4143	46.3258	26.3901	26.6407	43.839	0.558162	1.47197	3.74305	1.90269	1.20863	1.54192	2.35395	9.9399	0.981021	2.74216	1.00034	105.41	16.3686	59.2677	0.375042	2.83645	4.37172	4.25533	13.5444	6.76475	208.332	3.62272	28.5466	650.463	2.15351	2.18228	672.453	569.593	2.45787	0.699601	211.277	232.46	374.166	0.451962	445.801	648.155	395.055	698.542	327.488	2.62218	0.872688	242.317	20.0236	132.531	3543.83	60.8765	2.99041	0.202713	587.228	0.0109985	55.9719	840.467	314.893	-0.22282	196.7	2.37743	26.1787	79.8126	279.459	438.311	
3.595	1.20651	2.2117	9.54676	10.7906	8.53335	10.889	66.8213	26.3622	1.46632	0.664609	1.00751	1.71514	14.646	56.0692	50.4993	70.5614	45.4954	25.7436	25.6202	43.3031	0.567073	1.38265	3.53591	1.90713	1.31612	1.52824	2.33311	9.37879	1.04804	2.80778	1.19721	106.132	16.126	57.1523	0.480369	3.00454	4.32887	3.87544	12.4507	6.18478	130.579	3.53689	16.7617	566.82	2.00012	2.19605	701.784	561.046	2.44339	0.677377	204.211	222.273	324.784	0.452456	394.269	592.881	385.801	704.08	330.819	19.0303	0.872545	237.806	7.92049	132.308	3599.67	58.5896	3.28588	0.202852	193.796	0.00393967	228.502	859.207	320.416	-0.186601	168.808	2.24338	25.7143	64.3575	45.3968	365.659	
3.6	1.24501	2.31814	9.24941	10.5113	8.12211	10.8812	67.2026	26.9475	1.51789	0.690173	1.00131	1.69998	14.6442	56.8302	50.0562	69.4443	44.4046	25.7862	24.6276	42.719	0.587851	1.30662	3.3395	1.90522	1.44449	1.5162	2.31481	8.85043	1.13407	2.92778	1.39864	106.509	15.85	55.2399	0.630875	3.15958	4.29152	3.54807	11.4895	5.68654	79.5357	3.43105	10.0209	437.797	1.92759	2.20756	727.33	553.74	2.42128	0.65156	196.319	211.772	282.009	0.452961	351.855	546.049	375.343	708.233	325.797	78.9687	0.872402	232.626	2.0889	143.211	3504.46	57.0516	3.65928	0.202993	42.8691	0.00154302	358.816	873.669	324.927	-0.217157	155.52	2.09116	25.5657	53.5078	10.3512	308.701	
3.605	1.27042	2.40681	8.89276	10.1632	7.63896	10.8733	67.482	27.0875	1.56394	0.713008	0.996001	1.68692	14.6396	57.6482	49.4743	68.0721	43.0302	25.8745	23.6796	42.0613	0.616062	1.23757	3.15144	1.89807	1.60508	1.50567	2.29899	8.3251	1.24144	3.34332	1.58529	106.188	15.5414	53.5491	0.810253	3.29904	4.25942	3.24919	10.595	5.2317	47.6915	3.31107	6.20609	292.668	1.8992	2.21739	749.38	548.141	2.39234	0.623628	187.654	201.594	248.514	0.453472	320.171	510.494	364.421	710.087	313.839	91.9851	0.872259	226.681	19.4674	163.442	3315.42	57.1762	4.14209	0.203134	11.5648	0.000921913	391.247	885.757	328.83	-0.247402	152.794	1.92126	25.8232	47.9833	84.0145	264.518	
3.61	1.28314	2.48104	8.48053	9.74787	7.10771	10.8652	67.4115	26.8875	1.60397	0.73286	0.991526	1.67591	19.1034	58.4741	48.7743	66.4804	41.3884	26.1364	22.7987	41.3218	0.645712	1.16891	2.9675	1.8863	1.80862	1.49673	2.2855	7.83437	1.37173	4.50338	1.74282	105.212	15.2011	52.0877	0.990525	3.42097	4.23225	2.95893	9.70672	4.79067	28.5115	3.18265	4.0665	172.411	1.89468	2.2262	768.522	544.238	2.35422	0.594804	178.269	191.515	225.667	0.453986	296.768	484.57	353.672	708.196	298.696	72.2281	0.872115	219.951	45.074	182.605	3168.94	57.7185	4.78543	0.203275	6.19365	0.000767262	378.179	896.556	332.424	-0.253468	152.879	1.72628	26.6025	43.0394	16.8011	229.891	
3.615	1.28563	2.54355	8.02955	9.28016	6.56248	10.857	67.0314	26.5172	1.63775	0.749621	0.98784	1.66676	25.8244	59.1559	47.9915	64.7311	39.5409	26.4405	22.1081	40.5117	0.670379	1.09528	2.77836	1.87015	2.06244	1.48929	2.27434	7.42846	1.52395	5.86715	1.86283	103.666	14.8287	50.8604	1.15564	3.52389	4.20979	2.66901	8.79157	4.34349	17.247	3.0481	2.87928	90.2535	1.90289	2.23464	785.584	541.884	2.30592	0.564776	168.219	181.43	212.831	0.454502	278.888	465.824	343.604	701.868	282.73	66.7806	0.87197	212.531	45.232	195.016	3047.57	58.5059	5.62533	0.203417	5.19827	0.000722469	361.068	906.661	336.589	-0.246544	156.268	1.45533	28.0296	38.9086	28.0111	202.041	
3.62	1.28131	2.59652	7.57666	8.79103	6.04078	10.8487	66.3851	26.0575	1.66509	0.763176	0.984873	1.65943	26.7348	59.5075	47.1736	62.9166	37.6058	26.6709	21.423	39.6566	0.684457	1.0136	2.58864	1.84986	2.36253	1.4833	2.26531	7.08268	1.69202	7.38335	1.94282	101.487	14.4228	49.8652	1.30233	3.60725	4.19181	2.4175	7.96734	3.94815	10.7521	2.9094	2.23004	45.2662	1.9179	2.24333	801.568	541.017	2.24886	0.533108	157.686	171.093	207.026	0.455019	264.691	452.423	334.615	690.724	265.811	130.849	0.871824	204.553	34.287	200.985	2938.55	59.7018	6.68188	0.203559	4.97787	0.000702456	351.407	916.602	341.302	-0.227541	159.877	1.17157	30.226	36.83	8.61829	179.017	
3.625	1.27345	2.64167	7.15935	8.32705	5.57736	10.8403	65.463	25.4723	1.68594	0.773494	0.982613	1.65379	27.0636	59.3798	46.3791	61.1518	35.764	26.7541	20.7719	38.8427	0.684689	0.923458	2.40834	1.82566	2.69013	1.4788	2.25844	6.76049	1.86382	8.81314	1.98595	98.488	13.983	49.1003	1.42981	3.67041	4.17803	2.24465	7.37739	3.67521	7.05909	2.76376	1.88321	23.5759	1.93657	2.25279	817.639	541.648	2.18516	0.499376	146.947	159.99	205.832	0.455536	253.006	443.186	327.02	674.671	247.416	132.349	0.871678	196.21	22.2558	202.562	2802.09	61.3129	7.98654	0.203701	4.9324	0.000686898	344.459	926.995	346.573	-0.203647	161.776	0.9078	33.2965	35.495	9.01225	159.385	
3.63	1.26506	2.68037	6.80775	7.92723	5.20228	10.8317	64.2701	24.7304	1.70027	0.780545	0.98102	1.64982	27.2464	58.7416	45.6714	59.573	34.1701	26.6467	20.1737	38.2064	0.671169	0.826643	2.22976	1.79787	3.01075	1.47571	2.25354	6.45215	2.02439	10.104	1.99983	94.7608	13.5088	48.5582	1.53779	3.71314	4.16835	2.11986	6.98691	3.49844	4.98458	2.60639	1.70588	13.346	1.95727	2.26262	835.093	543.835	2.11646	0.46317	136.403	148.628	211.882	0.456052	242.897	437.174	321.087	654.002	227.351	126.53	0.871531	187.654	19.0918	201.156	2613.98	63.3026	9.57766	0.203842	4.93151	0.000671084	336.668	938.648	352.707	-0.180794	161.267	0.663308	37.3052	34.5612	6.52796	142.24	
3.635	1.25851	2.7137	6.54497	7.61932	4.93754	10.823	62.7693	23.8225	1.70805	0.784357	0.980046	1.64736	27.4754	57.6025	45.1163	58.2882	32.936	26.3386	19.6039	37.5443	0.646421	0.72637	2.05402	1.76682	3.28211	1.47401	2.25063	6.16233	2.15643	11.2392	1.99153	90.6118	12.998	48.2309	1.62801	3.73551	4.16256	1.87518	6.485	3.1261	3.83195	2.45175	1.62385	7.95969	1.97917	2.27273	855.316	547.661	2.04447	0.423945	126.46	137.99	224.534	0.456569	233.648	433.571	317.056	629.41	205.655	120.867	0.871383	178.919	20.2313	197.424	2368.08	65.6758	11.4934	0.203984	4.93301	0.000651452	328.107	953.321	360.024	-0.161054	158.24	0.448535	42.2822	33.8155	6.26214	126.989	
3.64	1.25589	2.74255	6.38519	7.41978	4.79589	10.8142	60.9662	22.7416	1.70937	0.784908	0.979675	1.6464	27.6766	55.9014	44.7682	57.4101	32.1316	25.8466	19.0546	36.9959	0.613485	0.626466	1.882	1.73283	3.4621	1.47368	2.2496	5.90694	2.24328	12.2155	1.96618	86.2024	12.4444	48.1101	1.70313	3.7375	4.16043	1.67999	5.60225	2.76167	3.19845	2.30627	1.59581	4.94742	2.00174	2.28328	878.917	553.206	1.97055	0.377345	117.273	128.557	225.91	0.457086	224.763	431.697	315.182	601.937	182.355	68.9965	0.871235	169.977	15.1149	191.867	2441.51	68.138	13.7341	0.204125	4.9323	0.000625758	319.761	971.391	367.916	-0.136181	152.765	0.272237	48.1212	32.5098	517.376	113.293	
3.645	1.25901	2.76763	6.33646	7.33589	4.78478	10.8052	58.9605	21.5065	1.7043	0.78227	0.979862	1.64683	27.7494	53.7033	44.663	56.9724	31.7892	25.1853	18.5194	36.5471	0.575219	0.53068	1.71485	1.69624	3.51907	1.47471	2.25037	5.69011	2.2722	13.0365	1.92692	81.6058	11.8614	48.1827	1.76583	3.71933	4.16187	1.54187	5.02439	2.52148	2.85452	2.17037	1.59893	3.27684	2.02461	2.29398	906.604	560.537	1.89495	0.318315	104.872	120.603	243.598	0.457602	215.921	431.003	315.761	572.732	157.781	43.787	0.871086	160.868	10.9637	184.992	2446.37	70.6674	16.3154	0.204266	4.93248	0.000593224	311.988	992.851	376.367	-0.132359	144.977	0.139203	55.0595	30.7651	357.264	101.179	
