CEINMS output
datacolumns 7
datarows 645
endheader
time	addbrev_r	addlong_r	addmagDist_r	addmagIsch_r	addmagMid_r	addmagProx_r	bflh_r	bfsh_r	edl_r	ehl_r	fdl_r	fhl_r	gaslat_r	gasmed_r	glmax1_r	glmax2_r	glmax3_r	glmed1_r	glmed2_r	glmed3_r	glmin1_r	glmin2_r	glmin3_r	grac_r	iliacus_r	perbrev_r	perlong_r	piri_r	psoas_r	recfem_r	sart_r	semimem_r	semiten_r	soleus_r	tfl_r	tibant_r	tibpost_r	vasint_r	vaslat_r	vasmed_r	addbrev_l	addlong_l	addmagDist_l	addmagIsch_l	addmagMid_l	addmagProx_l	bflh_l	bfsh_l	edl_l	ehl_l	fdl_l	fhl_l	gaslat_l	gasmed_l	glmax1_l	glmax2_l	glmax3_l	glmed1_l	glmed2_l	glmed3_l	glmin1_l	glmin2_l	glmin3_l	grac_l	iliacus_l	perbrev_l	perlong_l	piri_l	psoas_l	recfem_l	sart_l	semimem_l	semiten_l	soleus_l	tfl_l	tibant_l	tibpost_l	vasint_l	vaslat_l	vasmed_l	
0.015	2550.15	5.69657	0.135424	10	1	5000	
0.015	2413.59	4.46735	0.0237719	10	1	5000	
0.015	2347.37	4.38954	0.00170215	10	1	5000	
0.02	2359	2.02543	0.0040836	10	1	5000	
0.025	2255.75	3.18788	0.0100639	10	1	5000	
0.03	2192.51	4.03363	0.0225319	10	1	5000	
0.035	2163.95	4.80721	0.0201504	10	1	5000	
0.04	2133.43	3.49189	0.0141708	10	1	5000	
0.045	2103.79	3.5115	0.0123522	10	1	5000	
0.05	2070.78	3.49876	0.0132235	10	1	5000	
0.055	2042.94	3.51149	0.0143209	10	1	5000	
0.06	2021.51	3.52815	0.0137973	10	1	5000	
0.065	2003.57	3.91614	0.0130129	10	1	5000	
0.07	1989.64	3.52756	0.0127338	10	1	5000	
0.075	1978.9	3.5268	0.012542	10	1	5000	
0.08	1970.95	3.52628	0.0123806	10	1	5000	
0.085	1964.69	3.52628	0.0123806	10	1	5000	
0.09	1958.8	3.52966	0.0122257	10	1	5000	
0.095	1952.8	3.74895	0.0122278	10	1	5000	
0.1	1946.88	3.69196	0.0122154	10	1	5000	
0.105	1941.26	3.69024	0.0122379	10	1	5000	
0.11	1936.82	3.69016	0.0123031	10	1	5000	
0.115	1933.53	3.68914	0.0124194	10	1	5000	
0.12	1930.82	3.69014	0.0125318	10	1	5000	
0.125	1928.91	3.68961	0.0126092	10	1	5000	
0.13	1927.96	3.69111	0.0126742	10	1	5000	
0.135	1927.71	3.6914	0.0127641	10	1	5000	
0.14	1926.95	3.69405	0.0127393	10	1	5000	
0.145	1925.14	3.89541	0.0125551	10	1	5000	
0.15	1922.62	3.89377	0.0122548	10	1	5000	
0.155	1920.61	3.89032	0.0120617	10	1	5000	
0.16	1919.25	3.88394	0.0121403	10	1	5000	
0.165	1917.19	3.88466	0.0117272	10	1	5000	
0.17	1914.64	3.87256	0.0114266	10	1	5000	
0.175	1910.89	3.7431	0.0112134	10	1	5000	
0.18	1906.06	3.77656	0.0110008	10	1	5000	
0.185	1901.42	3.78135	0.0108556	10	1	5000	
0.19	1898.33	3.78155	0.0108283	10	1	5000	
0.195	1896.55	4.08966	0.0108624	10	1	5000	
0.2	1895.44	4.0873	0.010944	10	1	5000	
0.205	1894.55	3.91392	0.011118	10	1	5000	
0.21	1894.2	3.91384	0.011383	10	1	5000	
0.215	1895.19	4.02783	0.0117047	10	1	5000	
0.22	1898.16	4.02802	0.01201	10	1	5000	
0.225	1902.47	4.02786	0.0121932	10	1	5000	
0.23	1907.44	3.94156	0.0122446	10	1	5000	
0.235	1912.66	3.91423	0.0122133	10	1	5000	
0.24	1916.64	3.9141	0.0121569	10	1	5000	
0.245	1918.93	3.91463	0.0120764	10	1	5000	
0.25	1919.42	3.91362	0.0119697	10	1	5000	
0.255	1919.62	3.9137	0.0119807	10	1	5000	
0.26	1919.32	3.91202	0.0118996	10	1	5000	
0.265	1919.92	3.91208	0.0119237	10	1	5000	
0.27	1922.19	3.91093	0.0120592	10	1	5000	
0.275	1924.53	3.90808	0.0120682	10	1	5000	
0.28	1926.62	3.9069	0.0121624	10	1	5000	
0.285	1926.66	3.70593	0.0121213	10	1	5000	
0.29	1926.27	3.70822	0.0122624	10	1	5000	
0.295	1926.31	3.85611	0.0123651	10	1	5000	
0.3	1928.7	3.83296	0.0126514	10	1	5000	
0.305	1933.18	3.8319	0.013088	10	1	5000	
0.31	1938.85	3.71214	0.0135172	10	1	5000	
0.315	1944.99	3.74838	0.0138087	10	1	5000	
0.32	1950.82	3.75042	0.0139238	10	1	5000	
0.325	1956.83	3.75208	0.0139166	10	1	5000	
0.33	1963.96	3.75202	0.0138693	10	1	5000	
0.335	1972.42	3.75077	0.0138547	10	1	5000	
0.34	1981.55	3.75202	0.0137617	10	1	5000	
0.345	1990.98	3.74989	0.0136169	10	1	5000	
0.35	1999.76	3.74992	0.0134804	10	1	5000	
0.355	2007.15	3.74805	0.0133878	10	1	5000	
0.36	2012.87	3.74934	0.0133533	10	1	5000	
0.365	2016.09	3.75066	0.0134308	10	1	5000	
0.37	2016.57	3.75116	0.0135225	10	1	5000	
0.375	2015.81	4.02115	0.0135741	10	1	5000	
0.38	2014.55	4.01804	0.013562	10	1	5000	
0.385	2012.83	3.85843	0.0135223	10	1	5000	
0.39	2010.99	3.85844	0.0135273	10	1	5000	
0.395	2009.29	3.96759	0.0135251	10	1	5000	
0.4	2008.13	3.96862	0.0134516	10	1	5000	
0.405	2007.19	3.96855	0.0132172	10	1	5000	
0.41	2005.9	3.97035	0.0128025	10	1	5000	
0.415	2004.36	3.97313	0.0123567	10	1	5000	
0.42	2002.01	4.09899	0.0121044	10	1	5000	
0.425	1999.7	4.10149	0.0119931	10	1	5000	
0.43	1998.61	4.10312	0.0120038	10	1	5000	
0.435	1999.94	4.09104	0.0120027	10	1	5000	
0.44	2004.47	4.08903	0.012036	10	1	5000	
0.445	2012.5	4.10801	0.0122946	10	1	5000	
0.45	2023.37	4.08901	0.012607	10	1	5000	
0.455	2035.77	4.09658	0.0129468	10	1	5000	
0.46	2048.25	4.09658	0.0132556	10	1	5000	
0.465	2059.92	4.09348	0.013395	10	1	5000	
0.47	2071.09	4.09292	0.0135701	10	1	5000	
0.475	2082.01	4.09154	0.0137887	10	1	5000	
0.48	2092.87	4.08919	0.0140329	10	1	5000	
0.485	2103.43	4.09142	0.014326	10	1	5000	
0.49	2113.3	4.08865	0.0146336	10	1	5000	
0.495	2122.98	4.08894	0.0149956	10	1	5000	
0.5	2133.12	4.09122	0.0152619	10	1	5000	
0.505	2144.28	4.08982	0.0155946	10	1	5000	
0.51	2156.86	4.09214	0.0160148	10	1	5000	
0.515	2169.84	4.09458	0.0165247	10	1	5000	
0.52	2183.45	4.09576	0.017172	10	1	5000	
0.525	2198.22	4.10314	0.0177573	10	1	5000	
0.53	2213.91	4.1043	0.018403	10	1	5000	
0.535	2230.11	4.11112	0.0189994	10	1	5000	
0.54	2246.28	4.11754	0.0197509	10	1	5000	
0.545	2261.55	4.12328	0.0205802	10	1	5000	
0.55	2275.73	4.12691	0.021557	10	1	5000	
0.555	2288.1	4.13092	0.0227814	10	1	5000	
0.56	2297.57	4.12871	0.0242998	10	1	5000	
0.565	2303.54	4.1301	0.0261348	10	1	5000	
0.57	2306.25	4.12793	0.0281231	10	1	5000	
0.575	2304.68	4.12741	0.0301298	10	1	5000	
0.58	2297.43	4.1265	0.0318939	10	1	5000	
0.585	2283.76	4.12805	0.0333034	10	1	5000	
0.59	2263.23	4.12516	0.0343133	10	1	5000	
0.595	2235.42	4.12022	0.0348312	10	1	5000	
0.6	2200.84	4.11408	0.0349154	10	1	5000	
0.605	2161.09	4.11019	0.0346569	10	1	5000	
0.61	2118.01	4.1052	0.0341381	10	1	5000	
0.615	2072.73	3.64365	0.0334952	10	1	5000	
0.62	2026.43	3.63975	0.0329418	10	1	5000	
0.625	1979.37	3.3149	0.0325387	10	1	5000	
0.63	1932.51	3.31199	0.0322147	10	1	5000	
0.635	1882.46	4.22747	0.0311859	10	1	5000	
0.64	1836.47	2.52956	0.0304751	10	1	5000	
0.645	1791.25	2.30208	0.0327577	10	1	5000	
0.65	1742.03	3.0879	0.0349343	10	1	5000	
0.655	1690.38	3.08354	0.0348971	10	1	5000	
0.66	1636.81	3.06278	0.0335926	10	1	5000	
0.665	1582.76	3.06181	0.0319506	10	1	5000	
0.67	1529.81	2.93574	0.0307652	10	1	5000	
0.675	1477.82	2.4247	0.0309662	10	1	5000	
0.68	1425.1	3.05605	0.030629	10	1	5000	
0.685	1373.52	2.79308	0.0294702	10	1	5000	
0.69	1324.53	2.78986	0.0281392	10	1	5000	
0.695	1280.73	3.04955	0.0262758	10	1	5000	
0.7	1242.36	2.70929	0.0247221	10	1	5000	
0.705	1211.48	2.23781	0.0244832	10	1	5000	
0.71	1188.85	1.75798	0.0246577	10	1	5000	
0.715	1180.37	1.69145	0.0246736	10	1	5000	
0.72	1158.73	1.8336	0.0246793	10	1	5000	
0.725	1189.94	1.58434	0.0247904	10	1	5000	
0.73	1207.1	2.10711	0.0251311	10	1	5000	
0.735	1230.29	2.21574	0.0253343	10	1	5000	
0.74	1255.71	2.28471	0.0251785	10	1	5000	
0.745	1283.08	2.28307	0.0246613	10	1	5000	
0.75	1260.49	3.03054	0.0236782	10	1	5000	
0.755	1209.08	2.92596	0.0225536	10	1	5000	
0.76	1234.56	3.89584	0.0215496	10	1	5000	
0.765	1246.46	3.85029	0.0191793	10	1	5000	
0.77	1264.26	3.8325	0.0180697	10	1	5000	
0.775	1280.81	3.05139	0.0176102	10	1	5000	
0.78	1293.31	2.89154	0.0176507	10	1	5000	
0.785	1300.23	3.20125	0.0180344	10	1	5000	
0.79	1301.09	3.09398	0.0183509	10	1	5000	
0.795	1296.92	3.20068	0.0185888	10	1	5000	
0.8	1289.58	3.20591	0.0191343	10	1	5000	
0.805	1281.43	3.1694	0.019736	10	1	5000	
0.81	1274.81	3.17951	0.0208918	10	1	5000	
0.815	1271.01	3.19276	0.0227193	10	1	5000	
0.82	1269.9	3.21431	0.0249843	10	1	5000	
0.825	1270.7	3.2242	0.0274528	10	1	5000	
0.83	1271.89	3.23351	0.0299446	10	1	5000	
0.835	1272.28	3.2475	0.0322826	10	1	5000	
0.84	1271.75	3.2548	0.0343669	10	1	5000	
0.845	1270.4	4.23235	0.0360414	10	1	5000	
0.85	1268.59	4.2145	0.0373021	10	1	5000	
0.855	1268.59	4.21836	0.0383929	10	1	5000	
0.86	1272.31	4.21913	0.039376	10	1	5000	
0.865	1280.51	4.21495	0.040618	10	1	5000	
0.87	1292.8	4.21808	0.0418123	10	1	5000	
0.875	1307.6	4.22278	0.0427264	10	1	5000	
0.88	1321.66	4.23409	0.0430181	10	1	5000	
0.885	1333.1	4.25117	0.0423179	10	1	5000	
0.89	1340.22	4.26097	0.0405009	10	1	5000	
0.895	1342.18	4.25722	0.0378607	10	1	5000	
0.9	1339.3	4.26003	0.0349716	10	1	5000	
0.905	1332.91	4.26054	0.0323764	10	1	5000	
0.91	1324.87	4.26183	0.0305273	10	1	5000	
0.915	1317.11	4.26531	0.0296901	10	1	5000	
0.92	1312.9	4.27541	0.0300451	10	1	5000	
0.925	1315.76	4.29371	0.0315663	10	1	5000	
0.93	1327.12	4.31469	0.0338621	10	1	5000	
0.935	1347.14	4.33531	0.0363698	10	1	5000	
0.94	1375.51	4.35216	0.0388356	10	1	5000	
0.945	1412.14	4.36245	0.0412831	10	1	5000	
0.95	1456.45	4.371	0.0438891	10	1	5000	
0.955	1506.76	4.37825	0.0464663	10	1	5000	
0.96	1560.62	4.38409	0.048802	10	1	5000	
0.965	1616.44	4.39616	0.0508485	10	1	5000	
0.97	1674.49	4.41219	0.0525929	10	1	5000	
0.975	1734.93	4.43106	0.0538478	10	1	5000	
0.98	1796.38	4.44272	0.0542232	10	1	5000	
0.985	1856.29	4.45195	0.0534419	10	1	5000	
0.99	1911.73	4.50859	0.0514729	10	1	5000	
0.995	1961.48	4.47341	0.0487908	10	1	5000	
1	2007.1	4.50544	0.0463438	10	1	5000	
1.005	2052	4.50776	0.0450084	10	1	5000	
1.01	2099.9	4.54168	0.0452341	10	1	5000	
1.015	2153.47	4.56115	0.0470117	10	1	5000	
1.02	2213.4	4.61496	0.0498573	10	1	5000	
1.025	2276.27	4.64901	0.0528011	10	1	5000	
1.03	2336.27	4.62403	0.0546261	10	1	5000	
1.035	2388.86	4.18053	0.0550876	10	1	5000	
1.04	2432.75	4.60965	0.0545104	10	1	5000	
1.045	2469.47	4.49522	0.0533623	10	1	5000	
1.05	2502.38	4.73061	0.0523732	10	1	5000	
1.055	2535.34	4.69368	0.0518369	10	1	5000	
1.06	2571.3	4.8456	0.0519492	10	1	5000	
1.065	2612.55	4.90025	0.0524152	10	1	5000	
1.07	2659.28	5.00537	0.0528603	10	1	5000	
1.075	2707.85	5.07248	0.0526401	10	1	5000	
1.08	2752.26	5.15895	0.0512013	10	1	5000	
1.085	2788.14	5.19609	0.0486413	10	1	5000	
1.09	2814.19	5.25124	0.0454298	10	1	5000	
1.095	2832.43	5.27656	0.0424234	10	1	5000	
1.1	2845.8	5.32626	0.0402328	10	1	5000	
1.105	2857.17	5.3485	0.0390072	10	1	5000	
1.11	2870.43	5.3955	0.0387416	10	1	5000	
1.115	2890.24	4.92965	0.039479	10	1	5000	
1.12	2918.12	4.56252	0.0408404	10	1	5000	
1.125	2951.48	4.39204	0.042203	10	1	5000	
1.13	2985.62	4.50191	0.0428917	10	1	5000	
1.135	3017.34	4.58658	0.0427659	10	1	5000	
1.14	3045.44	4.6388	0.0421572	10	1	5000	
1.145	3070.94	4.3732	0.0415159	10	1	5000	
1.15	3094.35	4.75592	0.0408448	10	1	5000	
1.155	3117.33	4.99687	0.0403189	10	1	5000	
1.16	3143.32	5.10455	0.0402095	10	1	5000	
1.165	3173.7	5.49321	0.0403728	10	1	5000	
1.17	3207.21	5.56961	0.0404362	10	1	5000	
1.175	3241.67	5.93889	0.0401485	10	1	5000	
1.18	3276.2	5.92522	0.0395914	10	1	5000	
1.185	3309.77	6.31698	0.038759	10	1	5000	
1.19	3341.69	6.34805	0.037699	10	1	5000	
1.195	3371.76	6.62105	0.036329	10	1	5000	
1.2	3399.9	7.05484	0.0347864	10	1	5000	
1.205	3427.52	7.35257	0.0332229	10	1	5000	
1.21	3457.56	7.59053	0.0319295	10	1	5000	
1.215	3493.3	7.73964	0.0310955	10	1	5000	
1.22	3536.08	7.45747	0.0312262	10	1	5000	
1.225	3586.31	7.55082	0.0323157	10	1	5000	
1.23	3642.69	7.54725	0.0337964	10	1	5000	
1.235	3701.8	7.2302	0.0354493	10	1	5000	
1.24	3759.91	7.51567	0.0370833	10	1	5000	
1.245	3815.39	7.45518	0.0386702	10	1	5000	
1.25	3869.53	7.35315	0.0402887	10	1	5000	
1.255	3923.45	7.30102	0.0418546	10	1	5000	
1.26	3978.44	7.30581	0.0433304	10	1	5000	
1.265	4035.88	6.31028	0.0434247	10	1	5000	
1.27	4094.48	6.49155	0.0424702	10	1	5000	
1.275	4152.15	6.49834	0.0418748	10	1	5000	
1.28	4206.23	6.32053	0.0412436	10	1	5000	
1.285	4261.19	6.48716	0.0401602	10	1	5000	
1.29	4320.99	6.86922	0.038943	10	1	5000	
1.295	4386.27	6.6725	0.0383626	10	1	5000	
1.3	4456.61	6.93258	0.0385312	10	1	5000	
1.305	4535.43	6.96886	0.0392501	10	1	5000	
1.31	4619.72	7.02607	0.0400204	10	1	5000	
1.315	4707.52	7.02652	0.0404654	10	1	5000	
1.32	4794.76	6.84702	0.0405159	10	1	5000	
1.325	4881.22	6.84617	0.0403448	10	1	5000	
1.33	4970.36	6.06957	0.0403217	10	1	5000	
1.335	5058.73	6.07326	0.0405832	10	1	5000	
1.34	5139.03	5.76414	0.0409995	10	1	5000	
1.345	5215.83	5.80694	0.0415058	10	1	5000	
1.35	5286.99	5.81212	0.0418887	10	1	5000	
1.355	5350.33	5.54149	0.0419328	10	1	5000	
1.36	5404.87	5.56777	0.0415797	10	1	5000	
1.365	5451.59	5.58565	0.0409809	10	1	5000	
1.37	5492.46	5.39053	0.0402526	10	1	5000	
1.375	5530.97	5.54107	0.0393678	10	1	5000	
1.38	5571.5	5.40674	0.0387375	10	1	5000	
1.385	5618.46	5.50279	0.0386032	10	1	5000	
1.39	5674.46	5.45213	0.0388983	10	1	5000	
1.395	5739.07	5.49431	0.0392896	10	1	5000	
1.4	5811.61	5.46604	0.0394916	10	1	5000	
1.405	5889.98	5.5175	0.0396613	10	1	5000	
1.41	5971.08	5.49579	0.0395658	10	1	5000	
1.415	6051.22	5.64465	0.0393017	10	1	5000	
1.42	6129.46	5.63438	0.038844	10	1	5000	
1.425	6203.92	5.89974	0.0383504	10	1	5000	
1.43	6270.54	5.89955	0.0377876	10	1	5000	
1.435	6328.27	6.02874	0.0371567	10	1	5000	
1.44	6374.25	6.1069	0.0363994	10	1	5000	
1.445	6406.94	6.04865	0.0354291	10	1	5000	
1.45	6433.36	6.04735	0.0344341	10	1	5000	
1.455	6448.19	6.12048	0.0333548	10	1	5000	
1.46	6456.64	6.11925	0.032205	10	1	5000	
1.465	6464.36	6.11787	0.0309787	10	1	5000	
1.47	6473.25	6.11628	0.0298125	10	1	5000	
1.475	6478.16	6.11497	0.0283367	10	1	5000	
1.48	6477.93	6.23977	0.0267903	10	1	5000	
1.485	6475.69	6.23791	0.0253389	10	1	5000	
1.49	6472.99	6.06416	0.0240163	10	1	5000	
1.495	6471.12	6.29867	0.0228869	10	1	5000	
1.5	6473.85	6.29692	0.0218865	10	1	5000	
1.505	6484.43	6.29582	0.0210555	10	1	5000	
1.51	6503.35	6.29379	0.0203395	10	1	5000	
1.515	6522.75	6.29314	0.0196094	10	1	5000	
1.52	6537.53	6.45678	0.018843	10	1	5000	
1.525	6548.72	6.45568	0.0180706	10	1	5000	
1.53	6554.56	6.32253	0.0173351	10	1	5000	
1.535	6563.05	6.24506	0.0169574	10	1	5000	
1.54	6557.88	6.76026	0.0159995	10	1	5000	
1.545	6543.28	6.74969	0.0149931	10	1	5000	
1.55	6525.18	6.74544	0.0143013	10	1	5000	
1.555	6502.72	6.45629	0.0137221	10	1	5000	
1.56	6469.53	6.69787	0.0130964	10	1	5000	
1.565	6449.59	6.6523	0.0125644	10	1	5000	
1.57	6423.03	6.93608	0.0121319	10	1	5000	
1.575	6410	6.87153	0.0119082	10	1	5000	
1.58	6395.16	7.1025	0.0117176	10	1	5000	
1.585	6380.13	7.06688	0.0115102	10	1	5000	
1.59	6361.73	7.14014	0.0111992	10	1	5000	
1.595	6343.18	7.27399	0.0109267	10	1	5000	
1.6	6326.16	7.29935	0.0107215	10	1	5000	
1.605	6312.17	7.37301	0.010573	10	1	5000	
1.61	6300.97	7.41673	0.0104287	10	1	5000	
1.615	6293.08	7.53561	0.0102874	10	1	5000	
1.62	6290.12	7.76285	0.0102147	10	1	5000	
1.625	6299.17	7.94455	0.0103813	10	1	5000	
1.63	6300.74	7.94591	0.0100137	10	1	5000	
1.635	6297.34	7.81092	0.00946713	10	1	5000	
1.64	6293.63	7.85534	0.00892746	10	1	5000	
1.645	6287.76	7.9498	0.00837863	10	1	5000	
1.65	6278.14	7.81415	0.00782343	10	1	5000	
1.655	6266.85	7.80683	0.00724155	10	1	5000	
1.66	6253.1	8.25139	0.00672579	10	1	5000	
1.665	6243.33	8.24902	0.00630327	10	1	5000	
1.67	6227.67	8.29382	0.00581077	10	1	5000	
1.675	6211.86	8.24483	0.00531943	10	1	5000	
1.68	6203.13	8.21122	0.00489754	10	1	5000	
1.685	6206.03	8.00315	0.00456281	10	1	5000	
1.69	6216.55	7.88525	0.00433479	10	1	5000	
1.695	6234.38	8.19378	0.00415507	10	1	5000	
1.7	6263.33	7.93269	0.00406037	10	1	5000	
1.705	6287.4	7.05528	0.00392333	10	1	5000	
1.71	6311.92	7.94648	0.00382476	10	1	5000	
1.715	6341.29	8.09312	0.00379896	10	1	5000	
1.72	6376.22	7.26095	0.00387988	10	1	5000	
1.725	6414.82	6.24693	0.00399669	10	1	5000	
1.73	6456.83	7.53708	0.00412248	10	1	5000	
1.735	6502.36	5.73544	0.00420161	10	1	5000	
1.74	6555.25	7.04967	0.00424989	10	1	5000	
1.745	6619	6.65323	0.00438848	10	1	5000	
1.75	6673.87	7.1512	0.00438933	10	1	5000	
1.755	6727.19	6.1281	0.00436757	10	1	5000	
1.76	6782.97	6.11631	0.00437866	10	1	5000	
1.765	6840.75	6.32814	0.00441954	10	1	5000	
1.77	6903.16	6.45166	0.0044902	10	1	5000	
1.775	6984.81	6.02525	0.00460732	10	1	5000	
1.78	7061.78	6.22587	0.0046489	10	1	5000	
1.785	7139.3	5.89459	0.00464683	10	1	5000	
1.79	7221.67	5.92012	0.00464853	10	1	5000	
1.795	7308.39	5.77349	0.0046443	10	1	5000	
1.8	7399.74	6.07398	0.00464714	10	1	5000	
1.805	7499.74	5.56024	0.00468944	10	1	5000	
1.81	7602.24	5.86454	0.0046912	10	1	5000	
1.815	7705.65	5.68526	0.00469022	10	1	5000	
1.82	7799.46	8.83731	0.00473517	10	1	5000	
1.825	7866.06	9.71803	0.0048343	10	1	5000	
1.83	7935.05	8.32213	0.0050291	10	1	5000	
1.835	8010.07	8.18222	0.00526584	10	1	5000	
1.84	8092.36	5.93006	0.00544648	10	1	5000	
1.845	8177.01	8.16964	0.00552408	10	1	5000	
1.85	8270.69	7.41703	0.00560823	10	1	5000	
1.855	8357.75	6.96456	0.00561212	10	1	5000	
1.86	8439.2	6.81541	0.00557471	10	1	5000	
1.865	8517.62	7.48473	0.00555734	10	1	5000	
1.87	8589.15	7.14169	0.00555384	10	1	5000	
1.875	8655.61	7.44151	0.00554885	10	1	5000	
1.88	8717.34	6.67152	0.0055459	10	1	5000	
1.885	8782.49	7.10083	0.00560065	10	1	5000	
1.89	8845.58	7.30088	0.00557657	10	1	5000	
1.895	8911.69	7.27232	0.00553007	10	1	5000	
1.9	8981.24	6.87203	0.00548851	10	1	5000	
1.905	9053.5	7.33433	0.00546194	10	1	5000	
1.91	9126.36	7.21417	0.00543031	10	1	5000	
1.915	9196.5	6.58093	0.00537524	10	1	5000	
1.92	9259.43	7.49311	0.00528458	10	1	5000	
1.925	9319.97	6.99045	0.00519947	10	1	5000	
1.93	9379.31	7.18232	0.00510347	10	1	5000	
1.935	9440.78	6.91772	0.00501996	10	1	5000	
1.94	9505.41	7.13705	0.00491941	10	1	5000	
1.945	9571.08	7.09475	0.00478563	10	1	5000	
1.95	9651.82	6.95523	0.00468996	10	1	5000	
1.955	9725.54	7.33373	0.00458382	10	1	5000	
1.96	9802.2	6.94119	0.00449073	10	1	5000	
1.965	9888.81	6.96482	0.00441974	10	1	5000	
1.97	9981.62	6.89214	0.00435538	10	1	5000	
1.975	10077.7	7.00289	0.00429735	10	1	5000	
1.98	10173.7	7.38015	0.00423086	10	1	5000	
1.985	10265.9	7.4005	0.00417065	10	1	5000	
1.99	10352.9	7.20522	0.00411801	10	1	5000	
1.995	10428.7	7.24896	0.00406003	10	1	5000	
2	10495.5	7.61288	0.00400808	10	1	5000	
2.005	10557.9	7.41924	0.00396094	10	1	5000	
2.01	10611.9	7.28793	0.00391635	10	1	5000	
2.015	10657.7	7.40889	0.00387978	10	1	5000	
2.02	10693	7.49624	0.00382216	10	1	5000	
2.025	10716	7.46993	0.00377472	10	1	5000	
2.03	10725.3	7.06543	0.00372095	10	1	5000	
2.035	10724.2	7.47445	0.00367356	10	1	5000	
2.04	10722.8	7.26514	0.00362586	10	1	5000	
2.045	10715.1	7.34004	0.00358985	10	1	5000	
2.05	10708.2	7.39243	0.00353446	10	1	5000	
2.055	10708.8	7.44708	0.00350823	10	1	5000	
2.06	10713.3	7.29218	0.00345941	10	1	5000	
2.065	10723	7.28376	0.00338454	10	1	5000	
2.07	10743.2	7.37417	0.00331637	10	1	5000	
2.075	10774.1	7.5468	0.00325486	10	1	5000	
2.08	10815.7	7.43783	0.0031965	10	1	5000	
2.085	10866.7	7.61168	0.00313583	10	1	5000	
2.09	10927.5	7.57763	0.00307051	10	1	5000	
2.095	10997.3	7.74183	0.00300836	10	1	5000	
2.1	11074.9	7.73026	0.00294947	10	1	5000	
2.105	11155.6	7.91854	0.00289534	10	1	5000	
2.11	11231.7	7.78253	0.002865	10	1	5000	
2.115	11297.4	8.008	0.0028589	10	1	5000	
2.12	11352.1	7.92845	0.00285829	10	1	5000	
2.125	11400.9	8.06731	0.00286064	10	1	5000	
2.13	11448.1	8.01612	0.00286868	10	1	5000	
2.135	11495.7	8.20269	0.00287452	10	1	5000	
2.14	11544.9	8.22748	0.00287313	10	1	5000	
2.145	11599.4	8.12825	0.00288196	10	1	5000	
2.15	11662.8	8.42587	0.00287955	10	1	5000	
2.155	11735.6	8.91666	0.00288384	10	1	5000	
2.16	11816.4	8.70447	0.00289525	10	1	5000	
2.165	11903.6	9.48807	0.00292599	10	1	5000	
2.17	11996.4	9.27542	0.00296936	10	1	5000	
2.175	12096.2	9.67189	0.00303262	10	1	5000	
2.18	12204	9.68743	0.00312261	10	1	5000	
2.185	12320.5	9.70384	0.00324981	10	1	5000	
2.19	12442.8	9.7185	0.00344549	10	1	5000	
2.195	12570.7	9.74216	0.00376901	10	1	5000	
2.2	12706	9.76987	0.00429774	10	1	5000	
2.205	12845.6	9.81033	0.00508262	10	1	5000	
2.21	12985.4	9.46066	0.00606158	10	1	5000	
2.215	13118.3	9.55413	0.00712687	10	1	5000	
2.22	13239.1	9.74305	0.00826861	10	1	5000	
2.225	13348.2	9.74216	0.00952277	10	1	5000	
2.23	13448.2	8.17712	0.0105519	10	1	5000	
2.235	13533.8	8.27126	0.0114266	10	1	5000	
2.24	13599.7	8.18546	0.0122474	10	1	5000	
2.245	13642.6	7.64078	0.0131429	10	1	5000	
2.25	13661.2	8.06571	0.0139293	10	1	5000	
2.255	13656.8	8.97947	0.0148253	10	1	5000	
2.26	13625.9	7.99331	0.0159151	10	1	5000	
2.265	13568	8.20261	0.0170342	10	1	5000	
2.27	13487.5	7.83593	0.0182184	10	1	5000	
2.275	13391.7	8.11965	0.0193751	10	1	5000	
2.28	13285.3	7.93837	0.0206477	10	1	5000	
2.285	13171.3	7.43702	0.021671	10	1	5000	
2.29	13048.1	6.60534	0.0213828	10	1	5000	
2.295	12911.3	7.08164	0.0210924	10	1	5000	
2.3	12758.3	6.65467	0.0211372	10	1	5000	
2.305	12587.9	6.64494	0.0214381	10	1	5000	
2.31	12438.9	6.58081	0.0232667	10	1	5000	
2.315	12283.9	7.34713	0.0238068	10	1	5000	
2.32	12193.5	6.51497	0.0265818	10	1	5000	
2.325	12121.6	6.51598	0.0291166	10	1	5000	
2.33	12067.9	7.01217	0.0318493	10	1	5000	
2.335	12039.5	6.53413	0.0348967	10	1	5000	
2.34	12040.5	6.65199	0.0380868	10	1	5000	
2.345	12069.7	6.57341	0.0414497	10	1	5000	
2.35	12120.4	6.73897	0.0447649	10	1	5000	
2.355	12186.7	6.64043	0.0480925	10	1	5000	
2.36	12261.2	6.73491	0.0516271	10	1	5000	
2.365	12336	6.71228	0.0542367	10	1	5000	
2.37	12403	6.65382	0.0570773	10	1	5000	
2.375	12455.1	6.72559	0.0607882	10	1	5000	
2.38	12489.7	6.74226	0.0634886	10	1	5000	
2.385	12509.8	7.46356	0.0650588	10	1	5000	
2.39	12519.5	6.82587	0.0668078	10	1	5000	
2.395	12519.6	6.24886	0.0703574	10	1	5000	
2.4	12513.8	7.42203	0.0735044	10	1	5000	
2.405	12513.2	6.51928	0.0760517	10	1	5000	
2.41	12512.1	6.31155	0.0789601	10	1	5000	
2.415	12501.3	6.31635	0.082088	10	1	5000	
2.42	12477.5	6.0715	0.085505	10	1	5000	
2.425	12434.9	6.91467	0.0893337	10	1	5000	
2.43	12381.1	6.49526	0.0924266	10	1	5000	
2.435	12313.2	6.35105	0.0956554	10	1	5000	
2.44	12230.5	6.48277	0.0990323	10	1	5000	
2.445	12133.5	6.57234	0.10237	10	1	5000	
2.45	12015.1	6.44988	0.106263	10	1	5000	
2.455	11870.4	6.47605	0.109758	10	1	5000	
2.46	11692.5	6.78829	0.111881	10	1	5000	
2.465	11485.5	6.57854	0.113818	10	1	5000	
2.47	11247.4	6.71064	0.114151	10	1	5000	
2.475	10980.3	6.78695	0.113973	10	1	5000	
2.48	10676.3	6.55014	0.116049	10	1	5000	
2.485	10344.3	6.6261	0.110685	10	1	5000	
2.49	9995.17	6.9046	0.107134	10	1	5000	
2.495	9626.9	6.6901	0.104265	10	1	5000	
2.5	9245.14	6.82201	0.10181	10	1	5000	
2.505	8857.49	6.79199	0.0986485	10	1	5000	
2.51	8470.4	7.13441	0.0949494	10	1	5000	
2.515	8062.09	7.39095	0.0895365	10	1	5000	
2.52	7640.71	7.53732	0.0848979	10	1	5000	
2.525	7240.82	7.3015	0.0791819	10	1	5000	
2.53	6823.57	7.46436	0.0737426	10	1	5000	
2.535	6329.22	7.39192	0.0680548	10	1	5000	
2.54	5866.44	7.44631	0.0625489	10	1	5000	
2.545	5438.57	7.46732	0.0558792	10	1	5000	
2.55	5003.35	7.65522	0.0478505	10	1	5000	
2.555	4599.95	7.5181	0.0401165	10	1	5000	
2.56	4259.15	7.46892	0.0337101	10	1	5000	
2.565	3975.67	7.76318	0.0284119	10	1	5000	
2.57	3744.15	7.6234	0.0237152	10	1	5000	
2.575	3560.67	6.11155	0.0198351	10	1	5000	
2.58	3408.97	6.4618	0.016456	10	1	5000	
2.585	3275.27	5.71797	0.0138117	10	1	5000	
2.59	3144.01	5.82509	0.0116308	10	1	5000	
2.595	3013.87	4.27907	0.00960477	10	1	5000	
2.6	2884.15	4.36694	0.00763989	10	1	5000	
2.605	2756.27	4.16042	0.00571765	10	1	5000	
2.61	2632.35	4.46629	0.00391453	10	1	5000	
2.615	2513.92	3.95689	0.00231844	10	1	5000	
2.62	2401.8	3.94273	0.001081	10	1	5000	
2.625	2296.47	3.73916	0.00034005	10	1	5000	
2.63	2198.24	3.75969	7.06654e-05	10	1	5000	
2.635	2106.12	4.27116	6.40344e-05	10	1	5000	
2.64	2016.74	3.83155	6.36e-05	10	1	5000	
2.645	1929.8	4.11278	6.38436e-05	10	1	5000	
2.65	1845.26	4.22766	6.52926e-05	10	1	5000	
2.655	1762.31	4.51245	6.8698e-05	10	1	5000	
2.66	1680.27	4.64412	7.44614e-05	10	1	5000	
2.665	1598.97	4.3443	8.03157e-05	10	1	5000	
2.67	1518.53	3.98225	8.26355e-05	10	1	5000	
2.675	1439.24	3.97136	8.17332e-05	10	1	5000	
2.68	1361.77	3.81784	7.99491e-05	10	1	5000	
2.685	1287.76	3.65795	7.93107e-05	10	1	5000	
2.69	1219.1	3.51983	7.88413e-05	10	1	5000	
2.695	1157.46	3.39997	7.66974e-05	10	1	5000	
2.7	1103.92	3.25678	7.41603e-05	10	1	5000	
2.705	1059.35	3.17903	7.22662e-05	10	1	5000	
2.71	1023.53	3.05721	0.000113988	10	1	5000	
2.715	994.809	3.00779	0.00028596	10	1	5000	
2.72	971.731	2.92645	0.000351259	10	1	5000	
2.725	953.508	2.88705	0.000370604	10	1	5000	
2.73	939.483	2.82842	0.000385265	10	1	5000	
2.735	928.821	2.8024	0.00036556	10	1	5000	
2.74	920.331	2.51069	0.000241522	10	1	5000	
2.745	913.564	2.61643	0.000200222	10	1	5000	
2.75	908.248	2.20278	0.000321655	10	1	5000	
2.755	903.276	2.1293	0.000393755	10	1	5000	
2.76	897.656	2.05006	0.000374785	10	1	5000	
2.765	891.559	2.0435	0.000330295	10	1	5000	
2.77	885.886	2.02909	0.000295709	10	1	5000	
2.775	881.935	2.05514	0.000276888	10	1	5000	
2.78	880.648	2.02093	0.000268799	10	1	5000	
2.785	882.743	2.00464	0.000267623	10	1	5000	
2.79	888.686	1.95385	0.000266972	10	1	5000	
2.795	898.7	1.92109	0.000270363	10	1	5000	
2.8	912.515	1.89097	0.00028518	10	1	5000	
2.805	929.107	1.84717	0.000310784	10	1	5000	
2.81	947.716	1.84403	0.000348975	10	1	5000	
2.815	968.257	1.82425	0.000396124	10	1	5000	
2.82	990.751	1.82396	0.00045263	10	1	5000	
2.825	1015.32	1.77299	0.000515746	10	1	5000	
2.83	1042.66	1.84034	0.000587487	10	1	5000	
2.835	1073.7	2.00419	0.00066548	10	1	5000	
2.84	1109.99	2.49035	0.000751551	10	1	5000	
2.845	1152.38	2.45957	0.00084442	10	1	5000	
2.85	1201.06	2.53852	0.000938695	10	1	5000	
2.855	1255.34	2.62477	0.00103704	10	1	5000	
2.86	1314.2	2.73993	0.00113861	10	1	5000	
2.865	1377	2.69957	0.00125	10	1	5000	
2.87	1442.55	2.93718	0.00137478	10	1	5000	
2.875	1509.57	3.04409	0.00149675	10	1	5000	
2.88	1577.67	3.19323	0.00160796	10	1	5000	
2.885	1646.13	3.41921	0.00171821	10	1	5000	
2.89	1714.56	3.61632	0.00183427	10	1	5000	
2.895	1783.01	3.49386	0.00196457	10	1	5000	
2.9	1851.49	4.1797	0.00211314	10	1	5000	
2.905	1918.73	3.79077	0.00227374	10	1	5000	
2.91	1984.63	4.37658	0.00244571	10	1	5000	
2.915	2049.03	4.05574	0.00263021	10	1	5000	
2.92	2111.8	4.13961	0.0028704	10	1	5000	
2.925	2173.27	4.04123	0.00313762	10	1	5000	
2.93	2233.42	4.0664	0.00344857	10	1	5000	
2.935	2291.84	4.00987	0.00378364	10	1	5000	
2.94	2348.3	4.03128	0.00412317	10	1	5000	
2.945	2403.27	4.04301	0.00445173	10	1	5000	
2.95	2457.12	4.09458	0.00478832	10	1	5000	
2.955	2508.36	4.21587	0.00513163	10	1	5000	
2.96	2561.52	4.15683	0.00536529	10	1	5000	
2.965	2599.13	4.13527	0.00546459	10	1	5000	
2.97	2664.48	4.24928	0.00559716	10	1	5000	
2.975	2718.87	4.4531	0.00583231	10	1	5000	
2.98	2778.24	4.62831	0.00614106	10	1	5000	
2.985	2841.48	4.6214	0.00649438	10	1	5000	
2.99	2908.84	4.60812	0.00685272	10	1	5000	
2.995	2980.14	4.69488	0.00723186	10	1	5000	
3	3056.17	4.67009	0.00766683	10	1	5000	
3.005	3136.89	4.70095	0.0082276	10	1	5000	
3.01	3227.53	4.69183	0.00911539	10	1	5000	
3.015	3330.71	4.69512	0.0102874	10	1	5000	
3.02	3446.33	4.6946	0.0116726	10	1	5000	
3.025	3572.05	4.72033	0.0132906	10	1	5000	
3.03	3697.88	5.01757	0.0112819	10	1	5000	
3.035	3827.91	4.62536	0.0108853	10	1	5000	
3.04	3942.68	4.60478	0.0119968	10	1	5000	
3.045	4048.81	4.96838	0.0123397	10	1	5000	
3.05	4142.51	4.67647	0.012487	10	1	5000	
3.055	4224.14	4.79081	0.0125316	10	1	5000	
3.06	4292.47	4.71027	0.0127223	10	1	5000	
3.065	4345.41	4.70878	0.012845	10	1	5000	
3.07	4381.93	4.46639	0.0128507	10	1	5000	
3.075	4402.51	4.48471	0.0128186	10	1	5000	
3.08	4408.74	4.36632	0.0129623	10	1	5000	
3.085	4404.73	4.39036	0.0132732	10	1	5000	
3.09	4393.41	4.19444	0.0136988	10	1	5000	
3.095	4376.28	3.86462	0.0140735	10	1	5000	
3.1	4356.04	3.88128	0.0145753	10	1	5000	
3.105	4333.49	3.90404	0.0152064	10	1	5000	
3.11	4307.52	3.92159	0.01603	10	1	5000	
3.115	4277.61	3.40291	0.0168212	10	1	5000	
3.12	4245.6	3.8528	0.0174388	10	1	5000	
3.125	4214.41	3.86128	0.0179328	10	1	5000	
3.13	4187.79	3.88676	0.0171984	10	1	5000	
3.135	4168.07	3.86437	0.0164108	10	1	5000	
3.14	4156.94	3.78437	0.0156994	10	1	5000	
3.145	4153.25	3.79848	0.0150175	10	1	5000	
3.15	4155.62	3.79736	0.014344	10	1	5000	
3.155	4161.25	3.78512	0.0136686	10	1	5000	
3.16	4166.17	3.80047	0.0130473	10	1	5000	
3.165	4171.47	3.86363	0.012505	10	1	5000	
3.17	4176.36	3.84505	0.0120986	10	1	5000	
3.175	4181.48	3.87415	0.0118499	10	1	5000	
3.18	4186.38	3.85649	0.0116419	10	1	5000	
3.185	4189.32	3.90236	0.0115807	10	1	5000	
3.19	4187.7	3.94596	0.0115205	10	1	5000	
3.195	4179.56	3.99086	0.0114732	10	1	5000	
3.2	4164.01	4.23333	0.0114255	10	1	5000	
3.205	4141.9	4.24942	0.0113682	10	1	5000	
3.21	4114.35	4.23241	0.0113254	10	1	5000	
3.215	4083.44	4.22759	0.0113172	10	1	5000	
3.22	4055.79	4.2159	0.0113706	10	1	5000	
3.225	4037.96	4.23265	0.011448	10	1	5000	
