CEINMS output
datacolumns 7
datarows 92
endheader
time	addbrev_r	addlong_r	addmagDist_r	addmagIsch_r	addmagMid_r	addmagProx_r	bflh_r	bfsh_r	edl_r	ehl_r	fdl_r	fhl_r	gaslat_r	gasmed_r	glmax1_r	glmax2_r	glmax3_r	glmed1_r	glmed2_r	glmed3_r	glmin1_r	glmin2_r	glmin3_r	grac_r	iliacus_r	perbrev_r	perlong_r	piri_r	psoas_r	recfem_r	sart_r	semimem_r	semiten_r	soleus_r	tfl_r	tibant_r	tibpost_r	vasint_r	vaslat_r	vasmed_r	addbrev_l	addlong_l	addmagDist_l	addmagIsch_l	addmagMid_l	addmagProx_l	bflh_l	bfsh_l	edl_l	ehl_l	fdl_l	fhl_l	gaslat_l	gasmed_l	glmax1_l	glmax2_l	glmax3_l	glmed1_l	glmed2_l	glmed3_l	glmin1_l	glmin2_l	glmin3_l	grac_l	iliacus_l	perbrev_l	perlong_l	piri_l	psoas_l	recfem_l	sart_l	semimem_l	semiten_l	soleus_l	tfl_l	tibant_l	tibpost_l	vasint_l	vaslat_l	vasmed_l	
3.19	76175	15.9872	5.30371	10	1	1800	
3.195	95357.1	11.7323	3.657	10	1	1800	
3.2	77192.7	6.03804	0.796026	10	1	1800	
3.205	70235.9	6.4012	0.206192	10	1	1800	
3.21	68996.9	6.3217	0.33772	10	1	1800	
3.215	65590.9	5.73598	0.229262	10	1	1800	
3.22	60890.1	5.68728	0.21145	10	1	1800	
3.225	56252.1	5.73486	0.256247	10	1	1800	
3.23	54931.4	5.80333	0.307733	10	1	1800	
3.235	57527.5	5.30111	0.48229	10	1	1800	
3.24	61330.3	5.22986	0.524575	10	1	1800	
3.245	61161.6	5.48678	0.550658	10	1	1800	
3.25	55828.8	5.71678	0.818926	10	1	1800	
3.255	47919.4	6.33876	1.25602	10	1	1800	
3.26	39629.7	6.58122	1.67775	10	1	1800	
3.265	31376.2	6.78774	1.89643	10	1	1800	
3.27	23885	7.12534	2.16419	10	1	1800	
3.275	17150.4	7.71388	1.9607	10	1	1800	
3.28	11420.9	7.34136	1.80542	10	1	1800	
3.285	8156.66	7.18923	1.67998	10	1	1800	
3.29	6026.57	7.10732	1.53892	10	1	1800	
3.295	5160.99	6.71108	1.68662	10	1	1800	
3.3	6029.63	6.41015	1.54805	10	1	1800	
3.305	6827.36	6.0548	1.27043	10	1	1800	
3.31	5302.04	5.3562	1.06418	10	1	1800	
3.315	3366	5.14705	0.892947	10	1	1800	
3.32	2547.22	4.80123	0.566388	10	1	1800	
3.325	2428.63	2.71607	0.398424	10	1	1800	
3.33	2415.54	2.03281	0.413724	10	1	1800	
3.335	2430.56	2.13645	0.513171	10	1	1800	
3.34	2486.9	2.1966	0.659623	10	1	1800	
3.345	2625.52	2.53143	0.901377	10	1	1800	
3.35	2799.36	2.98656	1.24012	10	1	1800	
3.355	3139	3.25714	1.44326	10	1	1800	
3.36	4159.39	3.25826	1.45604	10	1	1800	
3.365	6592.14	3.26692	1.48969	10	1	1800	
3.37	10993.3	3.28999	1.52702	10	1	1800	
3.375	17570.8	3.34287	1.5552	10	1	1800	
3.38	26142.4	3.41422	1.59144	10	1	1800	
3.385	37520.3	3.48204	1.63566	10	1	1800	
3.39	50338.4	3.61523	1.68655	10	1	1800	
3.395	57889.4	3.77596	1.72204	10	1	1800	
3.4	61618.6	4.40439	1.77108	10	1	1800	
3.405	56238.1	4.69789	1.81808	10	1	1800	
3.41	47013.3	4.98548	1.9998	10	1	1800	
3.415	39446.9	5.68873	2.33722	10	1	1800	
3.42	33938.6	6.73269	2.36313	10	1	1800	
3.425	29681.5	6.87145	2.38136	10	1	1800	
3.43	27286.3	7.68779	2.42954	10	1	1800	
3.435	25715	8.01223	2.42396	10	1	1800	
3.44	25228.9	8.28171	2.43573	10	1	1800	
3.445	22492.9	9.49685	2.3966	10	1	1800	
3.45	18813.6	9.05576	2.33994	10	1	1800	
3.455	15498.6	9.18445	2.26476	10	1	1800	
3.46	12829	9.3045	2.16968	10	1	1800	
3.465	11065.2	8.77946	1.66384	10	1	1800	
3.47	9219.15	9.46363	1.63709	10	1	1800	
3.475	8494.67	9.44233	1.61479	10	1	1800	
3.48	2487.94	10.3021	0.821797	10	1	1800	
3.485	1626.59	7.92851	0.686944	10	1	1800	
3.49	1176.94	8.28315	0.468977	10	1	1800	
3.495	1079.71	9.09937	0.456087	10	1	1800	
3.5	1419.82	10.4275	0.471033	10	1	1800	
3.505	2461.33	10.6324	0.754383	10	1	1800	
3.51	5079.07	11.3571	1.26592	10	1	1800	
3.515	9543.69	12.7637	2.03552	10	1	1800	
3.52	13653.2	13.5567	2.30955	10	1	1800	
3.525	16053.5	13.4478	2.34853	10	1	1800	
3.53	16365.1	13.3525	2.23874	10	1	1800	
3.535	16209.7	12.5242	1.81781	10	1	1800	
3.54	15027.8	11.8429	1.44357	10	1	1800	
3.545	14283	10.4971	1.19312	10	1	1800	
3.55	14821.5	10.0135	1.02945	10	1	1800	
3.555	16342.8	8.82783	0.963874	10	1	1800	
3.56	17873.4	9.66283	0.948641	10	1	1800	
3.565	19041.5	8.134	0.979969	10	1	1800	
3.57	19468.5	8.18153	0.928706	10	1	1800	
3.575	19114.9	8.65648	0.886135	10	1	1800	
3.58	18339	8.69756	0.778129	10	1	1800	
3.585	17485.7	9.07176	0.800912	10	1	1800	
3.59	16876.1	9.94447	0.748457	10	1	1800	
3.595	16778.6	10.7864	0.784925	10	1	1800	
3.6	17336	9.72921	0.769218	10	1	1800	
3.605	18558.8	9.82054	0.781278	10	1	1800	
3.61	19850.7	9.10112	0.791871	10	1	1800	
3.615	23156.6	8.3505	0.494823	10	1	1800	
3.62	30027.8	7.675	0.327681	10	1	1800	
3.625	40683.1	7.13096	0.253481	10	1	1800	
3.63	54897.1	6.63589	0.219503	10	1	1800	
3.635	72503.3	6.23827	0.17678	10	1	1800	
3.64	88129.7	6.56754	0.155521	10	1	1800	
3.645	111490	5.32523	0.179989	10	1	1800	
