CEINMS output
datacolumns 81
datarows 92
endheader
time	addbrev_r	addlong_r	addmagDist_r	addmagIsch_r	addmagMid_r	addmagProx_r	bflh_r	bfsh_r	edl_r	ehl_r	fdl_r	fhl_r	gaslat_r	gasmed_r	glmax1_r	glmax2_r	glmax3_r	glmed1_r	glmed2_r	glmed3_r	glmin1_r	glmin2_r	glmin3_r	grac_r	iliacus_r	perbrev_r	perlong_r	piri_r	psoas_r	recfem_r	sart_r	semimem_r	semiten_r	soleus_r	tfl_r	tibant_r	tibpost_r	vasint_r	vaslat_r	vasmed_r	addbrev_l	addlong_l	addmagDist_l	addmagIsch_l	addmagMid_l	addmagProx_l	bflh_l	bfsh_l	edl_l	ehl_l	fdl_l	fhl_l	gaslat_l	gasmed_l	glmax1_l	glmax2_l	glmax3_l	glmed1_l	glmed2_l	glmed3_l	glmin1_l	glmin2_l	glmin3_l	grac_l	iliacus_l	perbrev_l	perlong_l	piri_l	psoas_l	recfem_l	sart_l	semimem_l	semiten_l	soleus_l	tfl_l	tibant_l	tibpost_l	vasint_l	vaslat_l	vasmed_l	
3.175	0.001	0.001	0.001	0.001	0.001	0.001	0.001	0.001	0.001	0.001	0.001	0.001	0.001	0.001	0.001	0.001	0.001	0.001	0.001	0.001	0.001	0.001	0.001	0.001	0.001	0.001	0.001	0.001	0.001	0.001	0.001	0.001	0.001	0.001	0.001	0.001	0.001	0.001	0.001	0.000997281	0.001	0.001	0.999	0.999	0.999	0.001	0.999	0.999	0.001	0.001	0.47115	0.0237056	0.999	0.001	0.999	0.999	0.999	0.999	0.999	0.001	0.999	0.999	0.001	0.999	0.001	0.0496497	0.0103959	0.001	0.001	0.001	0.999	0.999	0.999	0.0170128	0.001	0.001	0.26175	0.001	0.001	0.001	
3.18	0.001	0.001	0.001	0.001	0.001	0.001	0.001	0.001	0.001	0.001	0.001	0.001	0.001	0.001	0.001	0.001	0.001	0.001	0.001	0.001	0.001	0.001	0.001	0.001	0.001	0.001	0.001	0.001	0.001	0.001	0.001	0.001	0.001	0.001	0.001	0.001	0.001	0.001	0.001	0.000997281	0.001	0.001	0.999	0.999	0.999	0.999	0.999	0.462955	0.001	0.001	0.340743	0.066949	0.999	0.001	0.999	0.999	0.0033874	0.668212	0.999	0.001	0.001	0.001	0.001	0.0522958	0.001	0.151302	0.0280326	0.001	0.001	0.001	0.999	0.999	0.999	0.0136357	0.001	0.001	0.448797	0.001	0.001	0.001	
3.185	0.001	0.001	0.001	0.001	0.001	0.001	0.001	0.001	0.001	0.001	0.001	0.001	0.001	0.001	0.001	0.001	0.001	0.001	0.001	0.001	0.001	0.001	0.001	0.001	0.001	0.001	0.001	0.001	0.001	0.001	0.001	0.001	0.001	0.001	0.001	0.001	0.001	0.001	0.001	0.000997281	0.001	0.001	0.999	0.999	0.999	0.46265	0.159845	0.132819	0.001	0.001	0.182216	0.0105381	0.0520472	0.001	0.323074	0.431872	0.0979736	0.569535	0.39597	0.001	0.001	0.001	0.001	0.875677	0.001	0.0260829	0.00572791	0.001	0.001	0.001	0.943351	0.001	0.001	0.0106327	0.001	0.001	0.001	0.001	0.001	0.001	
3.19	0.001	0.001	0.001	0.001	0.001	0.001	0.001	0.001	0.001	0.001	0.001	0.001	0.001	0.001	0.001	0.001	0.001	0.001	0.001	0.001	0.001	0.001	0.001	0.001	0.001	0.001	0.001	0.001	0.001	0.001	0.001	0.001	0.001	0.001	0.001	0.001	0.001	0.001	0.001	0.000997281	0.999	0.999	0.001	0.001	0.001	0.227539	0.075635	0.151965	0.178057	0.106618	0.001	0.001	0.0985054	0.001	0.001	0.001	0.001	0.355243	0.001	0.001	0.999	0.999	0.001	0.911804	0.999	0.001	0.001	0.001	0.999	0.001	0.994428	0.001	0.001	0.00839569	0.001	0.0785341	0.001	0.001	0.001	0.001	
3.195	0.001	0.001	0.001	0.001	0.001	0.001	0.001	0.001	0.001	0.001	0.001	0.001	0.001	0.001	0.001	0.001	0.001	0.001	0.001	0.001	0.001	0.001	0.001	0.001	0.001	0.001	0.001	0.001	0.001	0.001	0.001	0.001	0.001	0.001	0.001	0.001	0.001	0.001	0.001	0.000997281	0.999	0.999	0.001	0.001	0.001	0.737209	0.0317179	0.149912	0.108128	0.0454812	0.001	0.0017931	0.140885	0.001	0.001	0.001	0.001	0.118117	0.001	0.001	0.999	0.999	0.001	0.878533	0.999	0.001	0.00216469	0.001	0.999	0.001	0.998419	0.001	0.001	0.00630712	0.001	0.0438382	0.001	0.001	0.001	0.001	
3.2	0.001	0.001	0.001	0.001	0.001	0.001	0.001	0.001	0.001	0.001	0.001	0.001	0.001	0.001	0.001	0.001	0.001	0.001	0.001	0.001	0.001	0.001	0.001	0.001	0.001	0.001	0.001	0.001	0.001	0.001	0.001	0.001	0.001	0.001	0.001	0.001	0.001	0.001	0.001	0.000997281	0.999	0.916924	0.001	0.001	0.001	0.893509	0.0415837	0.156105	0.0497115	0.015476	0.001	0.001	0.178412	0.001	0.001	0.001	0.001	0.0365361	0.001	0.001	0.999	0.999	0.00741867	0.882541	0.999	0.001	0.001	0.0136455	0.999	0.001	0.999	0.001	0.001	0.00477394	0.001	0.0382023	0.001	0.0195933	0.001	0.001	
3.205	0.001	0.001	0.001	0.001	0.001	0.001	0.001	0.001	0.001	0.001	0.001	0.001	0.001	0.001	0.001	0.001	0.001	0.001	0.001	0.001	0.001	0.001	0.001	0.001	0.001	0.001	0.001	0.001	0.001	0.001	0.001	0.001	0.001	0.001	0.001	0.001	0.001	0.001	0.001	0.000997281	0.999	0.582993	0.001	0.001	0.001	0.863697	0.0551888	0.157648	0.0141903	0.0022584	0.001	0.00151729	0.217927	0.001	0.001	0.001	0.001	0.00384753	0.001	0.0015367	0.999	0.818678	0.00258288	0.875767	0.999	0.00148522	0.00152809	0.00131563	0.999	0.001	0.999	0.001	0.0141098	0.00340442	0.001	0.038526	0.0015072	0.0124517	0.001	0.001	
3.21	0.001	0.001	0.001	0.001	0.001	0.001	0.001	0.001	0.001	0.001	0.001	0.001	0.001	0.001	0.001	0.001	0.001	0.001	0.001	0.001	0.001	0.001	0.001	0.001	0.001	0.001	0.001	0.001	0.001	0.001	0.001	0.001	0.001	0.001	0.001	0.001	0.001	0.001	0.001	0.000997281	0.999	0.687227	0.001	0.001	0.001	0.84757	0.0443339	0.151269	0.001	0.001	0.0757203	0.0103577	0.248141	0.001	0.001	0.001	0.001	0.001	0.001	0.00747025	0.999	0.480519	0.001	0.846489	0.999	0.0163707	0.00834334	0.001	0.999	0.001	0.999	0.0588675	0.0290829	0.0025416	0.001	0.001	0.0146961	0.00274532	0.001	0.001	
3.215	0.001	0.001	0.001	0.001	0.001	0.001	0.001	0.001	0.001	0.001	0.001	0.001	0.001	0.001	0.001	0.001	0.001	0.001	0.001	0.001	0.001	0.001	0.001	0.001	0.001	0.001	0.001	0.001	0.001	0.001	0.001	0.001	0.001	0.001	0.001	0.001	0.001	0.001	0.001	0.000997281	0.999	0.742175	0.001	0.001	0.001	0.980552	0.0213333	0.147108	0.001	0.001	0.137349	0.0157607	0.288098	0.001	0.001	0.001	0.001	0.001	0.001	0.0194459	0.999	0.155159	0.00504101	0.820107	0.999	0.0384896	0.00685279	0.00717002	0.999	0.001	0.999	0.150846	0.0386126	0.00156486	0.001	0.001	0.0430346	0.001	0.001	0.001	
3.22	0.001	0.001	0.001	0.001	0.001	0.001	0.001	0.001	0.001	0.001	0.001	0.001	0.001	0.001	0.001	0.001	0.001	0.001	0.001	0.001	0.001	0.001	0.001	0.001	0.001	0.001	0.001	0.001	0.001	0.001	0.001	0.001	0.001	0.001	0.001	0.001	0.001	0.001	0.001	0.000997281	0.999	0.779328	0.001	0.001	0.001	0.999	0.00367126	0.147677	0.001	0.001	0.181658	0.0284362	0.339614	0.001	0.001	0.001	0.001	0.001	0.001	0.0263871	0.999	0.001	0.00299722	0.883637	0.999	0.073518	0.012525	0.00583554	0.999	0.001	0.999	0.222434	0.0475005	0.00124505	0.001	0.001	0.103511	0.001	0.001	0.001	
3.225	0.001	0.001	0.001	0.001	0.001	0.001	0.001	0.001	0.001	0.001	0.001	0.001	0.001	0.001	0.001	0.001	0.001	0.001	0.001	0.001	0.001	0.001	0.001	0.001	0.001	0.001	0.001	0.001	0.001	0.001	0.001	0.001	0.001	0.001	0.001	0.001	0.001	0.001	0.001	0.000997281	0.999	0.81148	0.001	0.001	0.001	0.999	0.001	0.151619	0.001	0.001	0.227291	0.0449851	0.392177	0.001	0.001	0.001	0.001	0.001	0.001	0.001	0.702546	0.001	0.001	0.977384	0.999	0.109943	0.0208555	0.001	0.999	0.001	0.999	0.279248	0.0594705	0.001	0.999	0.001	0.174084	0.00139915	0.001	0.001	
3.23	0.001	0.001	0.001	0.001	0.001	0.001	0.001	0.001	0.001	0.001	0.001	0.001	0.001	0.001	0.001	0.001	0.001	0.001	0.001	0.001	0.001	0.001	0.001	0.001	0.001	0.001	0.001	0.001	0.001	0.001	0.001	0.001	0.001	0.001	0.001	0.001	0.001	0.001	0.001	0.000997281	0.999	0.834282	0.001	0.001	0.001	0.999	0.001	0.147791	0.001	0.001	0.242966	0.0709071	0.412106	0.001	0.001	0.001	0.001	0.001	0.001	0.001	0.131333	0.001	0.0254973	0.975744	0.999	0.136665	0.0459094	0.001	0.999	0.001	0.999	0.294388	0.0790339	0.001	0.999	0.001	0.203444	0.0229798	0.001	0.001	
3.235	0.001	0.001	0.001	0.001	0.001	0.001	0.001	0.001	0.001	0.001	0.001	0.001	0.001	0.001	0.001	0.001	0.001	0.001	0.001	0.001	0.001	0.001	0.001	0.001	0.001	0.001	0.001	0.001	0.001	0.001	0.001	0.001	0.001	0.001	0.001	0.001	0.001	0.001	0.001	0.000997281	0.999	0.873797	0.001	0.001	0.001	0.999	0.001	0.138594	0.001	0.001	0.306851	0.0791599	0.439082	0.001	0.001	0.001	0.001	0.001	0.001	0.001	0.001	0.001	0.001	0.916053	0.999	0.178501	0.0340376	0.0182188	0.999	0.001	0.999	0.21155	0.0520142	0.001	0.999	0.001	0.291939	0.00991226	0.001	0.001	
3.24	0.001	0.001	0.001	0.001	0.001	0.001	0.001	0.001	0.001	0.001	0.001	0.001	0.001	0.001	0.001	0.001	0.001	0.001	0.001	0.001	0.001	0.001	0.001	0.001	0.001	0.001	0.001	0.001	0.001	0.001	0.001	0.001	0.001	0.001	0.001	0.001	0.001	0.001	0.001	0.000997281	0.999	0.920059	0.001	0.001	0.001	0.999	0.001	0.125199	0.001	0.001	0.337528	0.0945192	0.428485	0.001	0.001	0.001	0.001	0.001	0.001	0.001	0.001	0.001	0.001	0.890742	0.999	0.203965	0.0421674	0.001	0.999	0.0616214	0.999	0.0942315	0.037365	0.001	0.999	0.001	0.308385	0.001	0.001	0.001	
3.245	0.001	0.001	0.001	0.001	0.001	0.001	0.001	0.001	0.001	0.001	0.001	0.001	0.001	0.001	0.001	0.001	0.001	0.001	0.001	0.001	0.001	0.001	0.001	0.001	0.001	0.001	0.001	0.001	0.001	0.001	0.001	0.001	0.001	0.001	0.001	0.001	0.001	0.001	0.001	0.000997281	0.999	0.970171	0.001	0.001	0.001	0.999	0.001	0.109871	0.001	0.001	0.364989	0.110647	0.404301	0.001	0.001	0.001	0.001	0.001	0.001	0.001	0.001	0.001	0.001	0.874022	0.999	0.224615	0.0489805	0.001	0.999	0.18331	0.999	0.001	0.020404	0.00111238	0.999	0.001	0.304822	0.001	0.001	0.001	
3.25	0.001	0.001	0.001	0.001	0.001	0.001	0.001	0.001	0.001	0.001	0.001	0.001	0.001	0.001	0.001	0.001	0.001	0.001	0.001	0.001	0.001	0.001	0.001	0.001	0.001	0.001	0.001	0.001	0.001	0.001	0.001	0.001	0.001	0.001	0.001	0.001	0.001	0.001	0.001	0.000997281	0.999	0.999	0.001	0.001	0.001	0.999	0.001	0.0928669	0.001	0.001	0.392673	0.123671	0.367253	0.001	0.001	0.001	0.001	0.001	0.001	0.001	0.001	0.001	0.0218802	0.854858	0.999	0.237566	0.0552536	0.0153971	0.999	0.269453	0.999	0.001	0.0019142	0.0011423	0.999	0.001	0.279472	0.001	0.001	0.001	
3.255	0.001	0.001	0.001	0.001	0.001	0.001	0.001	0.001	0.001	0.001	0.001	0.001	0.001	0.001	0.001	0.001	0.001	0.001	0.001	0.001	0.001	0.001	0.001	0.001	0.001	0.001	0.001	0.001	0.001	0.001	0.001	0.001	0.001	0.001	0.001	0.001	0.001	0.001	0.001	0.000997281	0.999	0.999	0.001	0.001	0.001	0.999	0.001	0.0747939	0.001	0.001	0.415653	0.133285	0.322283	0.001	0.001	0.001	0.001	0.001	0.001	0.001	0.001	0.001	0.001	0.822573	0.999	0.243265	0.0605683	0.001	0.999	0.305128	0.999	0.001	0.001	0.00240273	0.566958	0.001	0.244946	0.00590602	0.001	0.001	
3.26	0.001	0.001	0.001	0.001	0.001	0.001	0.001	0.001	0.001	0.001	0.001	0.001	0.001	0.001	0.001	0.001	0.001	0.001	0.001	0.001	0.001	0.001	0.001	0.001	0.001	0.001	0.001	0.001	0.001	0.001	0.001	0.001	0.001	0.001	0.001	0.001	0.001	0.001	0.001	0.000997281	0.999	0.999	0.001	0.001	0.001	0.999	0.001	0.0545662	0.001	0.001	0.434643	0.139111	0.263068	0.001	0.001	0.001	0.001	0.001	0.001	0.001	0.001	0.001	0.001	0.770044	0.999	0.241982	0.0627648	0.001	0.999	0.302045	0.999	0.001	0.001	0.001	0.001	0.001	0.205602	0.00382534	0.001	0.001	
3.265	0.001	0.001	0.001	0.001	0.001	0.001	0.001	0.001	0.001	0.001	0.001	0.001	0.001	0.001	0.001	0.001	0.001	0.001	0.001	0.001	0.001	0.001	0.001	0.001	0.001	0.001	0.001	0.001	0.001	0.001	0.001	0.001	0.001	0.001	0.001	0.001	0.001	0.001	0.001	0.000997281	0.999	0.999	0.001	0.001	0.001	0.999	0.001	0.0320611	0.001	0.001	0.448943	0.139942	0.191482	0.001	0.001	0.001	0.001	0.001	0.001	0.001	0.001	0.001	0.001	0.64659	0.999	0.236359	0.0634433	0.0265246	0.999	0.268995	0.999	0.001	0.001	0.00176222	0.001	0.001	0.171536	0.00257637	0.001	0.001	
3.27	0.001	0.001	0.001	0.001	0.001	0.001	0.001	0.001	0.001	0.001	0.001	0.001	0.001	0.001	0.001	0.001	0.001	0.001	0.001	0.001	0.001	0.001	0.001	0.001	0.001	0.001	0.001	0.001	0.001	0.001	0.001	0.001	0.001	0.001	0.001	0.001	0.001	0.001	0.001	0.000997281	0.999	0.999	0.001	0.001	0.001	0.999	0.001	0.012139	0.001	0.001	0.458553	0.137714	0.127926	0.001	0.001	0.001	0.001	0.001	0.001	0.001	0.001	0.001	0.001	0.502403	0.999	0.227485	0.0619705	0.001	0.999	0.224901	0.999	0.001	0.001	0.001	0.334171	0.001	0.148447	0.001	0.001	0.001	
3.275	0.001	0.001	0.001	0.001	0.001	0.001	0.001	0.001	0.001	0.001	0.001	0.001	0.001	0.001	0.001	0.001	0.001	0.001	0.001	0.001	0.001	0.001	0.001	0.001	0.001	0.001	0.001	0.001	0.001	0.001	0.001	0.001	0.001	0.001	0.001	0.001	0.001	0.001	0.001	0.000997281	0.999	0.999	0.001	0.001	0.001	0.999	0.001	0.00354166	0.001	0.001	0.463289	0.132267	0.105253	0.001	0.001	0.001	0.001	0.001	0.001	0.001	0.001	0.001	0.001	0.396667	0.999	0.215237	0.059135	0.001	0.999	0.201099	0.999	0.001	0.001	0.00299824	0.999	0.001	0.133002	0.0974998	0.987304	0.410031	
3.28	0.001	0.001	0.001	0.001	0.001	0.001	0.001	0.001	0.001	0.001	0.001	0.001	0.001	0.001	0.001	0.001	0.001	0.001	0.001	0.001	0.001	0.001	0.001	0.001	0.001	0.001	0.001	0.001	0.001	0.001	0.001	0.001	0.001	0.001	0.001	0.001	0.001	0.001	0.001	0.000997281	0.999	0.999	0.001	0.001	0.001	0.999	0.001	0.00246435	0.001	0.001	0.464132	0.12236	0.108104	0.001	0.001	0.001	0.001	0.001	0.001	0.001	0.001	0.001	0.001	0.29455	0.999	0.200516	0.0542362	0.0312193	0.999	0.18687	0.999	0.001	0.001	0.001	0.999	0.001	0.125925	0.32213	0.999	0.511592	
3.285	0.001	0.001	0.001	0.001	0.001	0.001	0.001	0.001	0.001	0.001	0.001	0.001	0.001	0.001	0.001	0.001	0.001	0.001	0.001	0.001	0.001	0.001	0.001	0.001	0.001	0.001	0.001	0.001	0.001	0.001	0.001	0.001	0.001	0.001	0.001	0.001	0.001	0.001	0.001	0.000997281	0.999	0.999	0.001	0.001	0.001	0.999	0.001	0.00112331	0.001	0.001	0.458287	0.111065	0.106048	0.001	0.001	0.001	0.001	0.001	0.001	0.001	0.001	0.001	0.001	0.141809	0.999	0.184875	0.0481165	0.001	0.999	0.19087	0.999	0.001	0.001	0.00317582	0.999	0.001	0.121921	0.414269	0.999	0.612568	
3.29	0.001	0.001	0.001	0.001	0.001	0.001	0.001	0.001	0.001	0.001	0.001	0.001	0.001	0.001	0.001	0.001	0.001	0.001	0.001	0.001	0.001	0.001	0.001	0.001	0.001	0.001	0.001	0.001	0.001	0.001	0.001	0.001	0.001	0.001	0.001	0.001	0.001	0.001	0.001	0.000997281	0.999	0.999	0.001	0.001	0.001	0.999	0.001	0.00354494	0.001	0.001	0.447895	0.0974843	0.119331	0.001	0.001	0.001	0.001	0.001	0.001	0.001	0.001	0.001	0.001	0.001	0.999	0.167909	0.0410905	0.001	0.999	0.18821	0.999	0.001	0.001	0.001	0.999	0.001	0.117756	0.0431966	0.583318	0.0667264	
3.295	0.001	0.001	0.001	0.001	0.001	0.001	0.001	0.001	0.001	0.001	0.001	0.001	0.001	0.001	0.001	0.001	0.001	0.001	0.001	0.001	0.001	0.001	0.001	0.001	0.001	0.001	0.001	0.001	0.001	0.001	0.001	0.001	0.001	0.001	0.001	0.001	0.001	0.001	0.001	0.000997281	0.999	0.999	0.001	0.001	0.001	0.999	0.001	0.00481918	0.001	0.001	0.432476	0.0826428	0.123662	0.001	0.001	0.001	0.001	0.001	0.001	0.001	0.001	0.001	0.001	0.001	0.999	0.149473	0.0338846	0.0200629	0.999	0.163413	0.999	0.001	0.001	0.00478038	0.999	0.001	0.111252	0.00599493	0.285513	0.00679712	
3.3	0.001	0.001	0.001	0.001	0.001	0.001	0.001	0.001	0.001	0.001	0.001	0.001	0.001	0.001	0.001	0.001	0.001	0.001	0.001	0.001	0.001	0.001	0.001	0.001	0.001	0.001	0.001	0.001	0.001	0.001	0.001	0.001	0.001	0.001	0.001	0.001	0.001	0.001	0.001	0.000997281	0.999	0.999	0.001	0.001	0.001	0.999	0.001	0.00373933	0.001	0.001	0.404514	0.0723618	0.123776	0.001	0.001	0.001	0.001	0.001	0.001	0.001	0.001	0.001	0.001	0.001	0.999	0.135518	0.0289043	0.001	0.999	0.141147	0.999	0.001	0.001	0.00255431	0.999	0.001	0.10467	0.00346524	0.290082	0.00401935	
3.305	0.001	0.001	0.001	0.001	0.001	0.001	0.001	0.001	0.001	0.001	0.001	0.001	0.001	0.001	0.001	0.001	0.001	0.001	0.001	0.001	0.001	0.001	0.001	0.001	0.001	0.001	0.001	0.001	0.001	0.001	0.001	0.001	0.001	0.001	0.001	0.001	0.001	0.001	0.001	0.000997281	0.999	0.999	0.001	0.001	0.001	0.999	0.001	0.00308477	0.001	0.001	0.37799	0.0524676	0.120214	0.001	0.001	0.001	0.001	0.001	0.001	0.001	0.001	0.001	0.001	0.001	0.999	0.106771	0.0197345	0.001	0.999	0.105533	0.999	0.001	0.001	0.00362422	0.999	0.001	0.088706	0.0106506	0.311487	0.0125852	
3.31	0.001	0.001	0.001	0.001	0.001	0.001	0.001	0.001	0.001	0.001	0.001	0.001	0.001	0.001	0.001	0.001	0.001	0.001	0.001	0.001	0.001	0.001	0.001	0.001	0.001	0.001	0.001	0.001	0.001	0.001	0.001	0.001	0.001	0.001	0.001	0.001	0.001	0.001	0.001	0.000997281	0.999	0.999	0.001	0.001	0.001	0.999	0.001	0.0028857	0.001	0.001	0.336902	0.0369291	0.111107	0.001	0.001	0.001	0.001	0.001	0.001	0.001	0.604174	0.001	0.001	0.001	0.999	0.0821318	0.0132405	0.0135507	0.999	0.0864821	0.999	0.001	0.001	0.0025387	0.999	0.001	0.0728259	0.0176933	0.379377	0.0231721	
3.315	0.001	0.001	0.001	0.001	0.001	0.001	0.001	0.001	0.001	0.001	0.001	0.001	0.001	0.001	0.001	0.001	0.001	0.001	0.001	0.001	0.001	0.001	0.001	0.001	0.001	0.001	0.001	0.001	0.001	0.001	0.001	0.001	0.001	0.001	0.001	0.001	0.001	0.001	0.001	0.000997281	0.999	0.999	0.001	0.001	0.001	0.410707	0.001	0.00267166	0.001	0.001	0.284139	0.0229669	0.0896561	0.001	0.001	0.001	0.001	0.001	0.001	0.001	0.999	0.001	0.001	0.001	0.999	0.0558607	0.00778252	0.001	0.999	0.0717451	0.999	0.001	0.001	0.00378943	0.001	0.001	0.0530118	0.0320122	0.5105	0.0453974	
3.32	0.001	0.001	0.001	0.001	0.001	0.001	0.001	0.001	0.001	0.001	0.001	0.001	0.001	0.001	0.001	0.001	0.001	0.001	0.001	0.001	0.001	0.001	0.001	0.001	0.001	0.001	0.001	0.001	0.001	0.001	0.001	0.001	0.001	0.001	0.001	0.001	0.001	0.001	0.001	0.000997281	0.643709	0.999	0.001	0.001	0.001	0.001	0.001	0.00224218	0.001	0.001	0.220877	0.0125535	0.0558746	0.001	0.001	0.001	0.001	0.001	0.001	0.001	0.999	0.0612323	0.001	0.001	0.999	0.032748	0.00408728	0.001	0.999	0.0613104	0.999	0.001	0.001	0.00326708	0.001	0.001	0.0327566	0.066162	0.771517	0.0972815	
3.325	0.001	0.001	0.001	0.001	0.001	0.001	0.001	0.001	0.001	0.001	0.001	0.001	0.001	0.001	0.001	0.001	0.001	0.001	0.001	0.001	0.001	0.001	0.001	0.001	0.001	0.001	0.001	0.001	0.001	0.001	0.001	0.001	0.001	0.001	0.001	0.001	0.001	0.001	0.001	0.000997281	0.001	0.610276	0.001	0.001	0.001	0.001	0.001	0.001	0.001	0.001	0.114535	0.00295847	0.001	0.001	0.001	0.001	0.001	0.001	0.001	0.001	0.999	0.483728	0.001	0.001	0.999	0.00863871	0.001	0.00550273	0.999	0.0526281	0.999	0.001	0.001	0.0034056	0.0111958	0.001	0.00937979	0.20943	0.999	0.340969	
3.33	0.001	0.001	0.001	0.001	0.001	0.001	0.001	0.001	0.001	0.001	0.001	0.001	0.001	0.001	0.001	0.001	0.001	0.001	0.001	0.001	0.001	0.001	0.001	0.001	0.001	0.001	0.001	0.001	0.001	0.001	0.001	0.001	0.001	0.001	0.001	0.001	0.001	0.001	0.001	0.000997281	0.001	0.001	0.001	0.001	0.001	0.001	0.001	0.001	0.018	0.00586394	0.001	0.001	0.001	0.00103789	0.001	0.001	0.001	0.001	0.001	0.001	0.999	0.385441	0.001	0.001	0.999	0.001	0.001	0.00188506	0.999	0.0466923	0.999	0.001	0.001	0.00339477	0.00793647	0.0230705	0.001	0.471002	0.999	0.769781	
3.335	0.001	0.001	0.001	0.001	0.001	0.001	0.001	0.001	0.001	0.001	0.001	0.001	0.001	0.001	0.001	0.001	0.001	0.001	0.001	0.001	0.001	0.001	0.001	0.001	0.001	0.001	0.001	0.001	0.001	0.001	0.001	0.001	0.001	0.001	0.001	0.001	0.001	0.001	0.001	0.000997281	0.001	0.001	0.001	0.001	0.001	0.001	0.001	0.001	0.0146949	0.00348616	0.001	0.001	0.001	0.00159444	0.001	0.001	0.001	0.001	0.001	0.001	0.788319	0.655349	0.001	0.001	0.999	0.001	0.001	0.001	0.999	0.0430397	0.999	0.001	0.001	0.00329035	0.00419945	0.0185077	0.001	0.711601	0.999	0.999	
3.34	0.001	0.001	0.001	0.001	0.001	0.001	0.001	0.001	0.001	0.001	0.001	0.001	0.001	0.001	0.001	0.001	0.001	0.001	0.001	0.001	0.001	0.001	0.001	0.001	0.001	0.001	0.001	0.001	0.001	0.001	0.001	0.001	0.001	0.001	0.001	0.001	0.001	0.001	0.001	0.000997281	0.001	0.001	0.001	0.001	0.001	0.001	0.001	0.001	0.001	0.001	0.0401509	0.00301758	0.001	0.00977321	0.001	0.001	0.001	0.001	0.001	0.001	0.42043	0.849096	0.001	0.001	0.999	0.00968896	0.001	0.001	0.999	0.0411561	0.999	0.001	0.001	0.00322449	0.001	0.001	0.0122292	0.92676	0.999	0.999	
3.345	0.001	0.001	0.001	0.001	0.001	0.001	0.001	0.001	0.001	0.001	0.001	0.001	0.001	0.001	0.001	0.001	0.001	0.001	0.001	0.001	0.001	0.001	0.001	0.001	0.001	0.001	0.001	0.001	0.001	0.001	0.001	0.001	0.001	0.001	0.001	0.001	0.001	0.001	0.001	0.000997281	0.001	0.001	0.001	0.001	0.001	0.001	0.001	0.001	0.001	0.001	0.0910252	0.0131858	0.001	0.021609	0.001	0.001	0.001	0.001	0.001	0.001	0.165855	0.999	0.001	0.001	0.999	0.0311398	0.00868772	0.001	0.999	0.0408254	0.999	0.001	0.001	0.00317267	0.001	0.001	0.0385512	0.999	0.999	0.999	
3.35	0.001	0.001	0.001	0.001	0.001	0.001	0.001	0.001	0.001	0.001	0.001	0.001	0.001	0.001	0.001	0.001	0.001	0.001	0.001	0.001	0.001	0.001	0.001	0.001	0.001	0.001	0.001	0.001	0.001	0.001	0.001	0.001	0.001	0.001	0.001	0.001	0.001	0.001	0.001	0.000997281	0.001	0.001	0.001	0.001	0.001	0.001	0.001	0.001	0.001	0.001	0.154584	0.0160279	0.001	0.0461255	0.001	0.001	0.001	0.001	0.001	0.001	0.001	0.997362	0.139209	0.001	0.999	0.0581354	0.00418078	0.001	0.999	0.0430147	0.999	0.001	0.001	0.00270042	0.001	0.001	0.0751098	0.999	0.999	0.999	
3.355	0.001	0.001	0.001	0.001	0.001	0.001	0.001	0.001	0.001	0.001	0.001	0.001	0.001	0.001	0.001	0.001	0.001	0.001	0.001	0.001	0.001	0.001	0.001	0.001	0.001	0.001	0.001	0.001	0.001	0.001	0.001	0.001	0.001	0.001	0.001	0.001	0.001	0.001	0.001	0.000997281	0.001	0.001	0.001	0.001	0.001	0.001	0.001	0.001	0.001	0.001	0.183764	0.0271654	0.001	0.0406296	0.001	0.001	0.001	0.001	0.001	0.001	0.001	0.906658	0.506136	0.001	0.999	0.0863413	0.0117978	0.001	0.999	0.0472753	0.001	0.001	0.001	0.00103628	0.001	0.001	0.104091	0.999	0.999	0.999	
3.36	0.001	0.001	0.001	0.001	0.001	0.001	0.001	0.001	0.001	0.001	0.001	0.001	0.001	0.001	0.001	0.001	0.001	0.001	0.001	0.001	0.001	0.001	0.001	0.001	0.001	0.001	0.001	0.001	0.001	0.001	0.001	0.001	0.001	0.001	0.001	0.001	0.001	0.001	0.001	0.000997281	0.00447173	0.001	0.001	0.001	0.001	0.001	0.001	0.001	0.001	0.001	0.21342	0.0260507	0.001	0.0015486	0.001	0.001	0.001	0.001	0.001	0.001	0.001	0.902386	0.825578	0.001	0.999	0.109265	0.00608151	0.001	0.999	0.0550607	0.001	0.001	0.001	0.00358969	0.001	0.001	0.127563	0.999	0.999	0.999	
3.365	0.001	0.001	0.001	0.001	0.001	0.001	0.001	0.001	0.001	0.001	0.001	0.001	0.001	0.001	0.001	0.001	0.001	0.001	0.001	0.001	0.001	0.001	0.001	0.001	0.001	0.001	0.001	0.001	0.001	0.001	0.001	0.001	0.001	0.001	0.001	0.001	0.001	0.001	0.001	0.000997281	0.001	0.001	0.001	0.001	0.001	0.001	0.001	0.001	0.001	0.001	0.238849	0.0312244	0.001	0.001	0.001	0.001	0.001	0.001	0.001	0.146335	0.001	0.340493	0.883056	0.001	0.999	0.123431	0.0073276	0.001	0.999	0.061994	0.001	0.001	0.001	0.00237213	0.001	0.001	0.134426	0.999	0.999	0.999	
3.37	0.001	0.001	0.001	0.001	0.001	0.001	0.001	0.001	0.001	0.001	0.001	0.001	0.001	0.001	0.001	0.001	0.001	0.001	0.001	0.001	0.001	0.001	0.001	0.001	0.001	0.001	0.001	0.001	0.001	0.001	0.001	0.001	0.001	0.001	0.001	0.001	0.001	0.001	0.001	0.000997281	0.001	0.022055	0.001	0.001	0.001	0.001	0.001	0.001	0.001	0.001	0.251869	0.0391957	0.001	0.026068	0.001	0.001	0.001	0.001	0.001	0.354319	0.001	0.001	0.644216	0.001	0.999	0.140657	0.0107857	0.001	0.999	0.0737947	0.001	0.001	0.001	0.004585	0.001	0.001	0.141249	0.999	0.999	0.999	
3.375	0.001	0.001	0.001	0.001	0.001	0.001	0.001	0.001	0.001	0.001	0.001	0.001	0.001	0.001	0.001	0.001	0.001	0.001	0.001	0.001	0.001	0.001	0.001	0.001	0.001	0.001	0.001	0.001	0.001	0.001	0.001	0.001	0.001	0.001	0.001	0.001	0.001	0.001	0.001	0.000997281	0.00604051	0.001	0.001	0.001	0.001	0.001	0.001	0.001	0.001	0.001	0.270186	0.0449767	0.001	0.001	0.001	0.001	0.001	0.001	0.001	0.787384	0.001	0.001	0.001	0.001	0.999	0.14868	0.00932869	0.001	0.999	0.0818723	0.001	0.001	0.001	0.00285005	0.001	0.001	0.140171	0.999	0.999	0.999	
3.38	0.001	0.001	0.001	0.001	0.001	0.001	0.001	0.001	0.001	0.001	0.001	0.001	0.001	0.001	0.001	0.001	0.001	0.001	0.001	0.001	0.001	0.001	0.001	0.001	0.001	0.001	0.001	0.001	0.001	0.001	0.001	0.001	0.001	0.001	0.001	0.001	0.001	0.001	0.001	0.000997281	0.00527836	0.001	0.001	0.001	0.001	0.001	0.001	0.001	0.001	0.001	0.284261	0.0471635	0.001	0.001	0.001	0.001	0.001	0.001	0.001	0.999	0.001	0.001	0.001	0.001	0.999	0.15771	0.00989076	0.001	0.999	0.0852047	0.001	0.001	0.001	0.00415957	0.001	0.001	0.13333	0.999	0.999	0.999	
3.385	0.001	0.001	0.001	0.001	0.001	0.001	0.001	0.001	0.001	0.001	0.001	0.001	0.001	0.001	0.001	0.001	0.001	0.001	0.001	0.001	0.001	0.001	0.001	0.001	0.001	0.001	0.001	0.001	0.001	0.001	0.001	0.001	0.001	0.001	0.001	0.001	0.001	0.001	0.001	0.000997281	0.001	0.001	0.001	0.001	0.001	0.001	0.001	0.001	0.001	0.001	0.288932	0.0570946	0.001	0.0288483	0.857729	0.459277	0.001	0.001	0.001	0.999	0.0152045	0.001	0.001	0.001	0.001	0.164381	0.0168899	0.001	0.759267	0.0846661	0.001	0.001	0.001	0.00269155	0.001	0.001	0.124735	0.999	0.999	0.999	
3.39	0.001	0.001	0.001	0.001	0.001	0.001	0.001	0.001	0.001	0.001	0.001	0.001	0.001	0.001	0.001	0.001	0.001	0.001	0.001	0.001	0.001	0.001	0.001	0.001	0.001	0.001	0.001	0.001	0.001	0.001	0.001	0.001	0.001	0.001	0.001	0.001	0.001	0.001	0.001	0.000997281	0.001	0.0110214	0.001	0.001	0.001	0.00510375	0.001	0.001	0.001	0.001	0.300496	0.0525782	0.001	0.001	0.538178	0.424541	0.001	0.001	0.001	0.999	0.001	0.001	0.001	0.001	0.001	0.156048	0.0110563	0.001	0.0439024	0.0842713	0.001	0.001	0.001	0.00954193	0.001	0.001	0.116784	0.999	0.999	0.999	
3.395	0.001	0.001	0.001	0.001	0.001	0.001	0.001	0.001	0.001	0.001	0.001	0.001	0.001	0.001	0.001	0.001	0.001	0.001	0.001	0.001	0.001	0.001	0.001	0.001	0.001	0.001	0.001	0.001	0.001	0.001	0.001	0.001	0.001	0.001	0.001	0.001	0.001	0.001	0.001	0.000997281	0.001	0.001	0.001	0.001	0.001	0.00191471	0.001	0.001	0.001	0.001	0.304546	0.0537215	0.001	0.001	0.999	0.999	0.001	0.001	0.001	0.999	0.001	0.001	0.001	0.001	0.001	0.150936	0.0109907	0.001	0.001	0.0746903	0.001	0.001	0.001	0.00369519	0.001	0.001	0.109869	0.999	0.999	0.999	
3.4	0.001	0.001	0.001	0.001	0.001	0.001	0.001	0.001	0.001	0.001	0.001	0.001	0.001	0.001	0.001	0.001	0.001	0.001	0.001	0.001	0.001	0.001	0.001	0.001	0.001	0.001	0.001	0.001	0.001	0.001	0.001	0.001	0.001	0.001	0.001	0.001	0.001	0.001	0.001	0.000997281	0.00701564	0.001	0.999	0.327235	0.00106071	0.001	0.001	0.001	0.001	0.001	0.304526	0.0521085	0.001	0.00749674	0.999	0.999	0.187218	0.001	0.001	0.999	0.0028326	0.001	0.001	0.001	0.001	0.141925	0.0108245	0.001	0.001	0.0633135	0.001	0.001	0.001	0.00846272	0.001	0.001	0.102783	0.999	0.999	0.999	
3.405	0.001	0.001	0.001	0.001	0.001	0.001	0.001	0.001	0.001	0.001	0.001	0.001	0.001	0.001	0.001	0.001	0.001	0.001	0.001	0.001	0.001	0.001	0.001	0.001	0.001	0.001	0.001	0.001	0.001	0.001	0.001	0.001	0.001	0.001	0.001	0.001	0.001	0.001	0.001	0.000997281	0.0044041	0.001	0.999	0.999	0.001	0.001	0.001	0.001	0.001	0.001	0.298514	0.0494607	0.001	0.0388512	0.999	0.999	0.274515	0.001	0.799977	0.999	0.001	0.001	0.001	0.001	0.001	0.131918	0.0103814	0.001	0.001	0.0560799	0.001	0.001	0.001	0.00532499	0.001	0.001	0.096955	0.999	0.999	0.999	
3.41	0.001	0.001	0.001	0.001	0.001	0.001	0.001	0.001	0.001	0.001	0.001	0.001	0.001	0.001	0.001	0.001	0.001	0.001	0.001	0.001	0.001	0.001	0.001	0.001	0.001	0.001	0.001	0.001	0.001	0.001	0.001	0.001	0.001	0.001	0.001	0.001	0.001	0.001	0.001	0.000997281	0.001	0.0185838	0.999	0.999	0.001	0.0061912	0.001	0.001	0.001	0.001	0.29129	0.0462842	0.001	0.001	0.999	0.999	0.341972	0.001	0.209782	0.999	0.001	0.001	0.001	0.001	0.001	0.120379	0.00985531	0.001	0.001	0.0497017	0.001	0.001	0.001	0.00733749	0.001	0.001	0.0905471	0.999	0.999	0.999	
3.415	0.001	0.001	0.001	0.001	0.001	0.001	0.001	0.001	0.001	0.001	0.001	0.001	0.001	0.001	0.001	0.001	0.001	0.001	0.001	0.001	0.001	0.001	0.001	0.001	0.001	0.001	0.001	0.001	0.001	0.001	0.001	0.001	0.001	0.001	0.001	0.001	0.001	0.001	0.001	0.000997281	0.001	0.001	0.999	0.999	0.001	0.001	0.001	0.001	0.001	0.001	0.279038	0.0415201	0.001	0.001	0.999	0.999	0.395457	0.001	0.503447	0.999	0.001	0.001	0.001	0.001	0.001	0.108089	0.00896019	0.001	0.001	0.0448862	0.001	0.001	0.001	0.00651606	0.001	0.001	0.0842761	0.999	0.999	0.999	
3.42	0.001	0.001	0.001	0.001	0.001	0.001	0.001	0.001	0.001	0.001	0.001	0.001	0.001	0.001	0.001	0.001	0.001	0.001	0.001	0.001	0.001	0.001	0.001	0.001	0.001	0.001	0.001	0.001	0.001	0.001	0.001	0.001	0.001	0.001	0.001	0.001	0.001	0.001	0.001	0.000997281	0.0251642	0.001	0.999	0.999	0.001	0.001	0.001	0.001	0.001	0.001	0.272025	0.0400021	0.001	0.0252722	0.999	0.999	0.416055	0.001	0.429172	0.999	0.001	0.001	0.001	0.001	0.001	0.104155	0.0086635	0.001	0.001	0.043183	0.001	0.001	0.001	0.0308158	0.001	0.001	0.0815624	0.999	0.999	0.999	
3.425	0.001	0.001	0.001	0.001	0.001	0.001	0.001	0.001	0.001	0.001	0.001	0.001	0.001	0.001	0.001	0.001	0.001	0.001	0.001	0.001	0.001	0.001	0.001	0.001	0.001	0.001	0.001	0.001	0.001	0.001	0.001	0.001	0.001	0.001	0.001	0.001	0.001	0.001	0.001	0.000997281	0.001	0.0041338	0.999	0.999	0.001	0.001	0.0907832	0.001	0.001	0.001	0.237131	0.029452	0.001	0.001	0.999	0.999	0.507599	0.001	0.574067	0.999	0.001	0.001	0.001	0.001	0.001	0.0783128	0.00655198	0.001	0.001	0.0223688	0.001	0.001	0.001	0.0079562	0.001	0.001	0.0671789	0.999	0.999	0.999	
3.43	0.001	0.001	0.001	0.001	0.001	0.001	0.001	0.001	0.001	0.001	0.001	0.001	0.001	0.001	0.001	0.001	0.001	0.001	0.001	0.001	0.001	0.001	0.001	0.001	0.001	0.001	0.001	0.001	0.001	0.001	0.001	0.001	0.001	0.001	0.001	0.001	0.001	0.001	0.001	0.000997281	0.001	0.00389223	0.999	0.999	0.001	0.001	0.29739	0.001	0.001	0.001	0.210019	0.0215871	0.001	0.001	0.999	0.999	0.547779	0.001	0.440227	0.999	0.001	0.001	0.001	0.001	0.001	0.0594461	0.00486803	0.001	0.001	0.001	0.001	0.138922	0.0910419	0.00949735	0.001	0.001	0.0540067	0.999	0.999	0.999	
3.435	0.001	0.001	0.001	0.001	0.001	0.001	0.001	0.001	0.001	0.001	0.001	0.001	0.001	0.001	0.001	0.001	0.001	0.001	0.001	0.001	0.001	0.001	0.001	0.001	0.001	0.001	0.001	0.001	0.001	0.001	0.001	0.001	0.001	0.001	0.001	0.001	0.001	0.001	0.001	0.000997281	0.00102706	0.00878195	0.999	0.999	0.001	0.001	0.425744	0.001	0.001	0.001	0.164101	0.012605	0.001	0.0156346	0.999	0.999	0.568477	0.001	0.438455	0.999	0.001	0.001	0.001	0.747837	0.001	0.0364146	0.00287071	0.001	0.001	0.001	0.001	0.661129	0.221733	0.011401	0.001	0.001	0.0352473	0.801441	0.999	0.999	
3.44	0.001	0.001	0.001	0.001	0.001	0.001	0.001	0.001	0.001	0.001	0.001	0.001	0.001	0.001	0.001	0.001	0.001	0.001	0.001	0.001	0.001	0.001	0.001	0.001	0.001	0.001	0.001	0.001	0.001	0.001	0.001	0.001	0.001	0.001	0.001	0.001	0.001	0.001	0.001	0.000997281	0.001	0.00503814	0.999	0.999	0.001	0.001	0.492342	0.001	0.001	0.001	0.0637717	0.00225413	0.001	0.001	0.999	0.999	0.57233	0.001	0.358373	0.999	0.001	0.001	0.001	0.999	0.001	0.0068894	0.001	0.001	0.001	0.001	0.001	0.812978	0.327718	0.0108554	0.001	0.001	0.00714739	0.309399	0.999	0.404221	
3.445	0.001	0.001	0.001	0.001	0.001	0.001	0.001	0.001	0.001	0.001	0.001	0.001	0.001	0.001	0.001	0.001	0.001	0.001	0.001	0.001	0.001	0.001	0.001	0.001	0.001	0.001	0.001	0.001	0.001	0.001	0.001	0.001	0.001	0.001	0.001	0.001	0.001	0.001	0.001	0.000997281	0.001	0.001	0.999	0.999	0.001	0.001	0.484159	0.072676	0.0945483	0.0582389	0.001	0.001	0.0041746	0.001	0.999	0.999	0.556125	0.001	0.30449	0.999	0.001	0.001	0.001	0.999	0.001	0.001	0.001	0.001	0.001	0.001	0.001	0.666365	0.3607	0.011437	0.00146268	0.190424	0.001	0.0305858	0.236196	0.0309705	
3.45	0.001	0.001	0.001	0.001	0.001	0.001	0.001	0.001	0.001	0.001	0.001	0.001	0.001	0.001	0.001	0.001	0.001	0.001	0.001	0.001	0.001	0.001	0.001	0.001	0.001	0.001	0.001	0.001	0.001	0.001	0.001	0.001	0.001	0.001	0.001	0.001	0.001	0.001	0.001	0.000997281	0.001	0.001	0.999	0.999	0.001	0.001	0.440349	0.0758888	0.194002	0.126068	0.001	0.001	0.001	0.001	0.999	0.999	0.525256	0.001	0.278426	0.999	0.001	0.001	0.001	0.999	0.001	0.001	0.001	0.001	0.001	0.001	0.001	0.476375	0.332436	0.0121693	0.001	0.297714	0.001	0.0328228	0.118991	0.0328986	
3.455	0.001	0.001	0.001	0.001	0.001	0.001	0.001	0.001	0.001	0.001	0.001	0.001	0.001	0.001	0.001	0.001	0.001	0.001	0.001	0.001	0.001	0.001	0.001	0.001	0.001	0.001	0.001	0.001	0.001	0.001	0.001	0.001	0.001	0.001	0.001	0.001	0.001	0.001	0.001	0.000997281	0.001	0.001	0.999	0.999	0.001	0.001	0.395551	0.079507	0.415894	0.271515	0.001	0.001	0.001	0.001	0.999	0.999	0.477079	0.001	0.128864	0.999	0.001	0.001	0.001	0.887283	0.001	0.001	0.001	0.001	0.001	0.001	0.001	0.371488	0.29921	0.0145692	0.001	0.468971	0.001	0.0366911	0.134554	0.0369608	
3.46	0.001	0.001	0.001	0.001	0.001	0.001	0.001	0.001	0.001	0.001	0.001	0.001	0.001	0.001	0.001	0.001	0.001	0.001	0.001	0.001	0.001	0.001	0.001	0.001	0.001	0.001	0.001	0.001	0.001	0.001	0.001	0.001	0.001	0.001	0.001	0.001	0.001	0.001	0.001	0.000997281	0.001	0.001	0.999	0.999	0.001	0.001	0.348791	0.0820528	0.682058	0.419002	0.001	0.001	0.001	0.00207933	0.999	0.999	0.413198	0.001	0.0427926	0.999	0.001	0.001	0.001	0.708671	0.001	0.001	0.001	0.001	0.001	0.001	0.001	0.310681	0.263737	0.0164131	0.001	0.51722	0.001	0.0401195	0.0562364	0.0403823	
3.465	0.001	0.001	0.001	0.001	0.001	0.001	0.001	0.001	0.001	0.001	0.001	0.001	0.001	0.001	0.001	0.001	0.001	0.001	0.001	0.001	0.001	0.001	0.001	0.001	0.001	0.001	0.001	0.001	0.001	0.001	0.001	0.001	0.001	0.001	0.001	0.001	0.001	0.001	0.001	0.000997281	0.001	0.001	0.999	0.999	0.001	0.001	0.18472	0.0829616	0.501721	0.306716	0.001	0.001	0.001	0.00128852	0.41768	0.593027	0.175326	0.001	0.668433	0.999	0.001	0.001	0.001	0.272002	0.001	0.001	0.001	0.001	0.001	0.001	0.001	0.166283	0.145674	0.0181309	0.001	0.355028	0.001	0.0497869	0.663199	0.0538985	
3.47	0.001	0.001	0.001	0.001	0.001	0.001	0.001	0.001	0.001	0.001	0.001	0.001	0.001	0.001	0.001	0.001	0.001	0.001	0.001	0.001	0.001	0.001	0.001	0.001	0.001	0.001	0.001	0.001	0.001	0.001	0.001	0.001	0.001	0.001	0.001	0.001	0.001	0.001	0.001	0.000997281	0.183055	0.001	0.999	0.999	0.001	0.001	0.154173	0.105929	0.223058	0.11569	0.001	0.001	0.120173	0.001	0.256708	0.354326	0.111534	0.001	0.616788	0.999	0.001	0.001	0.001	0.202262	0.001	0.001	0.001	0.001	0.001	0.001	0.001	0.147194	0.126083	0.0201465	0.001	0.182935	0.001	0.001	0.001	0.001	
3.475	0.001	0.001	0.001	0.001	0.001	0.001	0.001	0.001	0.001	0.001	0.001	0.001	0.001	0.001	0.001	0.001	0.001	0.001	0.001	0.001	0.001	0.001	0.001	0.001	0.001	0.001	0.001	0.001	0.001	0.001	0.001	0.001	0.001	0.001	0.001	0.001	0.001	0.001	0.001	0.000997281	0.001	0.001	0.988216	0.591102	0.001	0.001	0.109848	0.0881064	0.0578843	0.00834658	0.001	0.001	0.0221669	0.001	0.174896	0.206676	0.0625163	0.001	0.999	0.999	0.001	0.0596081	0.435286	0.0698855	0.001	0.001	0.001	0.001	0.001	0.001	0.001	0.0996003	0.09044	0.0228372	0.001	0.0915647	0.001	0.0502757	0.0774098	0.0506536	
3.48	0.001	0.001	0.001	0.001	0.001	0.001	0.001	0.001	0.001	0.001	0.001	0.001	0.001	0.001	0.001	0.001	0.001	0.001	0.001	0.001	0.001	0.001	0.001	0.001	0.001	0.001	0.001	0.001	0.001	0.001	0.001	0.001	0.001	0.001	0.001	0.001	0.001	0.001	0.001	0.000997281	0.001	0.001	0.552502	0.337502	0.001	0.001	0.102932	0.0895333	0.001	0.001	0.0606352	0.00483932	0.0689113	0.001	0.139363	0.159257	0.0526387	0.001	0.999	0.999	0.001	0.349052	0.464551	0.0528628	0.001	0.0216519	0.001	0.001	0.001	0.001	0.001	0.0913611	0.083628	0.0255334	0.001	0.001	0.0288883	0.0534132	0.151887	0.0540311	
3.485	0.001	0.001	0.001	0.001	0.001	0.001	0.001	0.001	0.001	0.001	0.001	0.001	0.001	0.001	0.001	0.001	0.001	0.001	0.001	0.001	0.001	0.001	0.001	0.001	0.001	0.001	0.001	0.001	0.001	0.001	0.001	0.001	0.001	0.001	0.001	0.001	0.001	0.001	0.001	0.000997281	0.001	0.001	0.999	0.754552	0.001	0.001	0.116697	0.0904845	0.001	0.001	0.172125	0.0273933	0.270668	0.001	0.227857	0.268518	0.0738034	0.0503318	0.999	0.999	0.001	0.572596	0.70719	0.0569237	0.001	0.119214	0.00502535	0.001	0.001	0.001	0.001	0.111416	0.0911558	0.0288669	0.001	0.001	0.148785	0.0558991	0.158571	0.0565181	
3.49	0.001	0.001	0.001	0.001	0.001	0.001	0.001	0.001	0.001	0.001	0.001	0.001	0.001	0.001	0.001	0.001	0.001	0.001	0.001	0.001	0.001	0.001	0.001	0.001	0.001	0.001	0.001	0.001	0.001	0.001	0.001	0.001	0.001	0.001	0.001	0.001	0.001	0.001	0.001	0.000997281	0.001	0.001	0.999	0.999	0.001	0.001	0.145615	0.0908399	0.001	0.001	0.255069	0.0610631	0.550216	0.001	0.412273	0.499784	0.119825	0.215315	0.999	0.999	0.00153325	0.692392	0.999	0.0726117	0.001	0.239154	0.0104035	0.001	0.001	0.001	0.001	0.163488	0.110889	0.0307891	0.001	0.001	0.257769	0.0576169	0.144105	0.0579532	
3.495	0.001	0.001	0.001	0.001	0.001	0.001	0.001	0.001	0.001	0.001	0.001	0.001	0.001	0.001	0.001	0.001	0.001	0.001	0.001	0.001	0.001	0.001	0.001	0.001	0.001	0.001	0.001	0.001	0.001	0.001	0.001	0.001	0.001	0.001	0.001	0.001	0.001	0.001	0.001	0.000997281	0.001	0.001	0.999	0.999	0.001	0.001	0.211735	0.0905446	0.001	0.001	0.315687	0.0962037	0.80763	0.001	0.778666	0.974459	0.223628	0.609097	0.999	0.999	0.001	0.452281	0.999	0.13203	0.001	0.319945	0.0156593	0.001	0.001	0.001	0.001	0.310006	0.162692	0.0359439	0.001	0.001	0.277458	0.0586035	0.0998107	0.0582582	
3.5	0.001	0.001	0.001	0.001	0.001	0.001	0.001	0.001	0.001	0.001	0.001	0.001	0.001	0.001	0.001	0.001	0.001	0.001	0.001	0.001	0.001	0.001	0.001	0.001	0.001	0.001	0.001	0.001	0.001	0.001	0.001	0.001	0.001	0.001	0.001	0.001	0.001	0.001	0.001	0.000997281	0.001	0.001	0.999	0.999	0.001	0.001	0.306599	0.0886946	0.001	0.001	0.358735	0.126134	0.991825	0.001	0.999	0.999	0.373843	0.999	0.999	0.999	0.00173541	0.357737	0.999	0.227675	0.001	0.347218	0.0208944	0.001	0.001	0.001	0.001	0.573648	0.24481	0.0385868	0.001	0.001	0.224714	0.0595174	0.0849676	0.058515	
3.505	0.001	0.001	0.001	0.001	0.001	0.001	0.001	0.001	0.001	0.001	0.001	0.001	0.001	0.001	0.001	0.001	0.001	0.001	0.001	0.001	0.001	0.001	0.001	0.001	0.001	0.001	0.001	0.001	0.001	0.001	0.001	0.001	0.001	0.001	0.001	0.001	0.001	0.001	0.001	0.000997281	0.001	0.001	0.999	0.999	0.001	0.001	0.384585	0.0878451	0.001	0.001	0.386498	0.149665	0.999	0.001	0.999	0.999	0.502201	0.999	0.999	0.999	0.001842	0.981679	0.999	0.307196	0.001	0.340972	0.0243945	0.001	0.001	0.001	0.001	0.759176	0.324223	0.0431843	0.001	0.001	0.151469	0.0595058	0.109363	0.0581475	
3.51	0.001	0.001	0.001	0.001	0.001	0.001	0.001	0.001	0.001	0.001	0.001	0.001	0.001	0.001	0.001	0.001	0.001	0.001	0.001	0.001	0.001	0.001	0.001	0.001	0.001	0.001	0.001	0.001	0.001	0.001	0.001	0.001	0.001	0.001	0.001	0.001	0.001	0.001	0.001	0.000997281	0.001	0.001	0.999	0.999	0.001	0.001	0.40817	0.08525	0.001	0.001	0.406845	0.16403	0.999	0.001	0.999	0.999	0.549829	0.999	0.999	0.999	0.001	0.999	0.999	0.287445	0.001	0.313733	0.0228656	0.001	0.001	0.001	0.001	0.828772	0.365393	0.0452171	0.001	0.001	0.0928357	0.0604068	0.157499	0.0595148	
3.515	0.001	0.001	0.001	0.001	0.001	0.001	0.001	0.001	0.001	0.001	0.001	0.001	0.001	0.001	0.001	0.001	0.001	0.001	0.001	0.001	0.001	0.001	0.001	0.001	0.001	0.001	0.001	0.001	0.001	0.001	0.001	0.001	0.001	0.001	0.001	0.001	0.001	0.001	0.001	0.000997281	0.001	0.001	0.999	0.999	0.001	0.001	0.380586	0.0818837	0.001	0.001	0.421081	0.175804	0.999	0.001	0.999	0.999	0.52121	0.999	0.999	0.999	0.001	0.999	0.999	0.219607	0.001	0.282091	0.0235978	0.001	0.001	0.001	0.001	0.792309	0.364558	0.0524848	0.001	0.001	0.0650793	0.0621163	0.20949	0.0621629	
3.52	0.001	0.001	0.001	0.001	0.001	0.001	0.001	0.001	0.001	0.001	0.001	0.001	0.001	0.001	0.001	0.001	0.001	0.001	0.001	0.001	0.001	0.001	0.001	0.001	0.001	0.001	0.001	0.001	0.001	0.001	0.001	0.001	0.001	0.001	0.001	0.001	0.001	0.001	0.001	0.000997281	0.001	0.001	0.999	0.999	0.001	0.001	0.314886	0.0782062	0.001	0.001	0.431602	0.182254	0.999	0.001	0.999	0.999	0.43154	0.999	0.999	0.999	0.001	0.999	0.999	0.138338	0.001	0.254223	0.0231155	0.001	0.001	0.001	0.001	0.658019	0.321631	0.0513681	0.001	0.001	0.0585171	0.061789	0.24306	0.062007	
3.525	0.001	0.001	0.001	0.001	0.001	0.001	0.001	0.001	0.001	0.001	0.001	0.001	0.001	0.001	0.001	0.001	0.001	0.001	0.001	0.001	0.001	0.001	0.001	0.001	0.001	0.001	0.001	0.001	0.001	0.001	0.001	0.001	0.001	0.001	0.001	0.001	0.001	0.001	0.001	0.000997281	0.001	0.001	0.999	0.999	0.001	0.001	0.226201	0.0741422	0.001	0.001	0.438966	0.185298	0.999	0.001	0.83814	0.999	0.296277	0.999	0.999	0.999	0.001	0.999	0.999	0.065155	0.001	0.232609	0.022654	0.001	0.001	0.001	0.001	0.456045	0.241741	0.0619784	0.001	0.001	0.0631794	0.0619447	0.276128	0.0615107	
3.53	0.001	0.001	0.001	0.001	0.001	0.001	0.001	0.001	0.001	0.001	0.001	0.001	0.001	0.001	0.001	0.001	0.001	0.001	0.001	0.001	0.001	0.001	0.001	0.001	0.001	0.001	0.001	0.001	0.001	0.001	0.001	0.001	0.001	0.001	0.001	0.001	0.001	0.001	0.001	0.000997281	0.001	0.001	0.999	0.999	0.001	0.001	0.124532	0.0699123	0.001	0.001	0.444912	0.181425	0.966336	0.001	0.269332	0.342567	0.127797	0.999	0.999	0.981406	0.001	0.999	0.999	0.0185021	0.001	0.218649	0.022096	0.001	0.001	0.001	0.001	0.211154	0.128773	0.0559186	0.001	0.001	0.0804337	0.0602141	0.294549	0.0597309	
3.535	0.001	0.001	0.001	0.001	0.001	0.001	0.001	0.001	0.001	0.001	0.001	0.001	0.001	0.001	0.001	0.001	0.001	0.001	0.001	0.001	0.001	0.001	0.001	0.001	0.001	0.001	0.001	0.001	0.001	0.001	0.001	0.001	0.001	0.001	0.001	0.001	0.001	0.001	0.001	0.000997281	0.001	0.001	0.001	0.462197	0.001	0.001	0.070488	0.0654888	0.001	0.001	0.449765	0.17802	0.882125	0.001	0.0473545	0.0394203	0.0372744	0.999	0.999	0.001	0.001	0.999	0.962972	0.001	0.279126	0.210968	0.0215231	0.001	0.001	0.00690864	0.001	0.0774414	0.059265	0.0705451	0.29865	0.001	0.0920094	0.057978	0.307892	0.0570324	
3.54	0.001	0.001	0.001	0.001	0.001	0.001	0.001	0.001	0.001	0.001	0.001	0.001	0.001	0.001	0.001	0.001	0.001	0.001	0.001	0.001	0.001	0.001	0.001	0.001	0.001	0.001	0.001	0.001	0.001	0.001	0.001	0.001	0.001	0.001	0.001	0.001	0.001	0.001	0.001	0.000997281	0.001	0.001	0.198515	0.383993	0.001	0.001	0.0633235	0.0609652	0.001	0.001	0.453661	0.173205	0.793808	0.001	0.0114574	0.00680098	0.0357921	0.999	0.999	0.001	0.001	0.999	0.455678	0.001	0.617974	0.208051	0.0210247	0.001	0.001	0.0144541	0.001	0.0645034	0.0539868	0.0603647	0.140333	0.001	0.10216	0.0555587	0.313042	0.0542933	
3.545	0.001	0.001	0.001	0.001	0.001	0.001	0.001	0.001	0.001	0.001	0.001	0.001	0.001	0.001	0.001	0.001	0.001	0.001	0.001	0.001	0.001	0.001	0.001	0.001	0.001	0.001	0.001	0.001	0.001	0.001	0.001	0.001	0.001	0.001	0.001	0.001	0.001	0.001	0.001	0.000997281	0.192545	0.001	0.718865	0.518131	0.001	0.001	0.0612236	0.0565379	0.001	0.001	0.457792	0.167343	0.706115	0.001	0.0058292	0.00895409	0.0398726	0.999	0.679319	0.001	0.001	0.999	0.0512226	0.0126823	0.447962	0.208359	0.0206773	0.001	0.001	0.0135147	0.001	0.0700755	0.0581467	0.0799019	0.001	0.001	0.107968	0.0510736	0.300803	0.0490439	
3.55	0.001	0.001	0.001	0.001	0.001	0.001	0.001	0.001	0.001	0.001	0.001	0.001	0.001	0.001	0.001	0.001	0.001	0.001	0.001	0.001	0.001	0.001	0.001	0.001	0.001	0.001	0.001	0.001	0.001	0.001	0.001	0.001	0.001	0.001	0.001	0.001	0.001	0.001	0.001	0.000997281	0.107703	0.001	0.439454	0.407014	0.001	0.001	0.0553128	0.0538174	0.001	0.001	0.461133	0.161044	0.626764	0.001	0.0033577	0.00404009	0.0340512	0.999	0.541335	0.001	0.001	0.999	0.00314525	0.0074612	0.626139	0.211218	0.0204649	0.001	0.001	0.0181408	0.001	0.0637119	0.054764	0.0787789	0.0205999	0.001	0.112318	0.0463747	0.26865	0.0432264	
3.555	0.001	0.001	0.001	0.001	0.001	0.001	0.001	0.001	0.001	0.001	0.001	0.001	0.001	0.001	0.001	0.001	0.001	0.001	0.001	0.001	0.001	0.001	0.001	0.001	0.001	0.001	0.001	0.001	0.001	0.001	0.001	0.001	0.001	0.001	0.001	0.001	0.001	0.001	0.001	0.000997281	0.121565	0.001	0.297569	0.32155	0.001	0.001	0.0503923	0.0487824	0.001	0.001	0.465632	0.154452	0.552508	0.001	0.00187413	0.00149633	0.0290062	0.999	0.375257	0.001	0.001	0.999	0.001	0.00616804	0.705106	0.212655	0.0204935	0.001	0.001	0.0188234	0.001	0.0597099	0.0529913	0.0874471	0.0254556	0.001	0.113685	0.0410489	0.220944	0.0370776	
3.56	0.001	0.001	0.001	0.001	0.001	0.001	0.001	0.001	0.001	0.001	0.001	0.001	0.001	0.001	0.001	0.001	0.001	0.001	0.001	0.001	0.001	0.001	0.001	0.001	0.001	0.001	0.001	0.001	0.001	0.001	0.001	0.001	0.001	0.001	0.001	0.001	0.001	0.001	0.001	0.000997281	0.0810438	0.001	0.250125	0.28544	0.001	0.001	0.046112	0.0451207	0.001	0.001	0.471492	0.14836	0.491275	0.001	0.00123872	0.001	0.0252568	0.999	0.244084	0.001	0.001	0.949252	0.00109143	0.00639286	0.683579	0.214861	0.0205112	0.001	0.001	0.018873	0.001	0.0580842	0.0521577	0.089108	0.0168092	0.001	0.116306	0.0358808	0.162193	0.0315147	
3.565	0.001	0.001	0.001	0.001	0.001	0.001	0.001	0.001	0.001	0.001	0.001	0.001	0.001	0.001	0.001	0.001	0.001	0.001	0.001	0.001	0.001	0.001	0.001	0.001	0.001	0.001	0.001	0.001	0.001	0.001	0.001	0.001	0.001	0.001	0.001	0.001	0.001	0.001	0.001	0.000997281	0.0215445	0.001	0.228841	0.273344	0.001	0.001	0.0434277	0.042669	0.001	0.001	0.475757	0.142024	0.438904	0.001	0.001	0.001	0.0210426	0.999	0.134041	0.001	0.001	0.823082	0.001	0.00603598	0.717948	0.218692	0.0211269	0.001	0.001	0.0178815	0.001	0.0591509	0.053179	0.0904799	0.00967303	0.001	0.122323	0.0305421	0.0944869	0.0261311	
3.57	0.001	0.001	0.001	0.001	0.001	0.001	0.001	0.001	0.001	0.001	0.001	0.001	0.001	0.001	0.001	0.001	0.001	0.001	0.001	0.001	0.001	0.001	0.001	0.001	0.001	0.001	0.001	0.001	0.001	0.001	0.001	0.001	0.001	0.001	0.001	0.001	0.001	0.001	0.001	0.000997281	0.001	0.001	0.198612	0.273774	0.001	0.001	0.0410853	0.0402102	0.001	0.001	0.479183	0.13797	0.398455	0.001	0.001	0.001	0.0172909	0.999	0.13813	0.001	0.001	0.812479	0.001	0.001	0.710775	0.222579	0.0219129	0.001	0.001	0.0162544	0.001	0.0613101	0.0541491	0.090216	0.00649987	0.001	0.12931	0.0256271	0.0231287	0.0217059	
3.575	0.001	0.001	0.001	0.001	0.001	0.001	0.001	0.001	0.001	0.001	0.001	0.001	0.001	0.001	0.001	0.001	0.001	0.001	0.001	0.001	0.001	0.001	0.001	0.001	0.001	0.001	0.001	0.001	0.001	0.001	0.001	0.001	0.001	0.001	0.001	0.001	0.001	0.001	0.001	0.000997281	0.001	0.001	0.431384	0.429935	0.001	0.001	0.0579157	0.0693492	0.001	0.001	0.485951	0.13333	0.378876	0.001	0.001	0.001	0.0161189	0.999	0.257294	0.001	0.001	0.999	0.001	0.169461	0.466536	0.227039	0.0236039	0.001	0.001	0.001	0.702246	0.176662	0.106057	0.0879489	0.001	0.001	0.137294	0.001	0.00986197	0.001	
3.58	0.001	0.001	0.001	0.001	0.001	0.001	0.001	0.001	0.001	0.001	0.001	0.001	0.001	0.001	0.001	0.001	0.001	0.001	0.001	0.001	0.001	0.001	0.001	0.001	0.001	0.001	0.001	0.001	0.001	0.001	0.001	0.001	0.001	0.001	0.001	0.001	0.001	0.001	0.001	0.000997281	0.001	0.001	0.0368594	0.422083	0.001	0.001	0.10527	0.158143	0.001	0.001	0.491861	0.130715	0.386862	0.001	0.001	0.001	0.008967	0.999	0.718186	0.00117069	0.001	0.999	0.001	0.597888	0.552716	0.231289	0.0267794	0.001	0.001	0.001	0.999	0.480289	0.238534	0.0843853	0.001	0.001	0.14608	0.0177041	0.001	0.001	
3.585	0.001	0.001	0.001	0.001	0.001	0.001	0.001	0.001	0.001	0.001	0.001	0.001	0.001	0.001	0.001	0.001	0.001	0.001	0.001	0.001	0.001	0.001	0.001	0.001	0.001	0.001	0.001	0.001	0.001	0.001	0.001	0.001	0.001	0.001	0.001	0.001	0.001	0.001	0.001	0.000997281	0.001	0.001	0.001	0.001	0.001	0.001	0.155106	0.260568	0.001	0.001	0.49692	0.126834	0.399274	0.001	0.05995	0.0426543	0.001	0.999	0.999	0.00175907	0.001	0.999	0.001	0.835428	0.51488	0.22953	0.0263651	0.001	0.001	0.001	0.999	0.797976	0.374829	0.0798221	0.001	0.001	0.154804	0.0134135	0.0147084	0.001	
3.59	0.001	0.001	0.001	0.001	0.001	0.001	0.001	0.001	0.001	0.001	0.001	0.001	0.001	0.001	0.001	0.001	0.001	0.001	0.001	0.001	0.001	0.001	0.001	0.001	0.001	0.001	0.001	0.001	0.001	0.001	0.001	0.001	0.001	0.001	0.001	0.001	0.001	0.001	0.001	0.000997281	0.001	0.001	0.001	0.001	0.001	0.001	0.198354	0.364117	0.001	0.001	0.497637	0.121115	0.415382	0.001	0.209273	0.156626	0.001	0.999	0.999	0.001	0.001	0.999	0.001	0.777874	0.410283	0.226099	0.0292821	0.001	0.001	0.001	0.968785	0.999	0.489178	0.0743591	0.001	0.001	0.162485	0.011011	0.001	0.001	
3.595	0.001	0.001	0.001	0.001	0.001	0.001	0.001	0.001	0.001	0.001	0.001	0.001	0.001	0.001	0.001	0.001	0.001	0.001	0.001	0.001	0.001	0.001	0.001	0.001	0.001	0.001	0.001	0.001	0.001	0.001	0.001	0.001	0.001	0.001	0.001	0.001	0.001	0.001	0.001	0.000997281	0.001	0.001	0.001	0.001	0.00237704	0.001	0.22781	0.452736	0.001	0.001	0.487122	0.106743	0.419574	0.001	0.424141	0.329181	0.001	0.999	0.999	0.001	0.001	0.999	0.001	0.430124	0.368978	0.20613	0.0266666	0.001	0.001	0.001	0.943582	0.999	0.562813	0.0683166	0.001	0.001	0.161576	0.00877057	0.00955512	0.001	
3.6	0.001	0.001	0.001	0.001	0.001	0.001	0.001	0.001	0.001	0.001	0.001	0.001	0.001	0.001	0.001	0.001	0.001	0.001	0.001	0.001	0.001	0.001	0.001	0.001	0.001	0.001	0.001	0.001	0.001	0.001	0.001	0.001	0.001	0.001	0.001	0.001	0.001	0.001	0.001	0.000997281	0.001	0.001	0.001	0.001	0.0226921	0.001	0.24131	0.52459	0.001	0.001	0.465235	0.0866443	0.411447	0.001	0.681763	0.548603	0.001	0.999	0.999	0.001	0.001	0.999	0.001	0.001	0.333743	0.176068	0.0238361	0.001	0.001	0.001	0.938833	0.999	0.604377	0.0619647	0.001	0.001	0.152008	0.00688668	0.001	0.001	
3.605	0.001	0.001	0.001	0.001	0.001	0.001	0.001	0.001	0.001	0.001	0.001	0.001	0.001	0.001	0.001	0.001	0.001	0.001	0.001	0.001	0.001	0.001	0.001	0.001	0.001	0.001	0.001	0.001	0.001	0.001	0.001	0.001	0.001	0.001	0.001	0.001	0.001	0.001	0.001	0.000997281	0.001	0.001	0.001	0.001	0.001	0.001	0.242545	0.58099	0.001	0.001	0.439739	0.0690363	0.402157	0.001	0.961478	0.803933	0.001	0.999	0.999	0.001	0.001	0.999	0.001	0.001	0.300383	0.149591	0.0208675	0.001	0.001	0.001	0.931579	0.999	0.615752	0.0554262	0.001	0.001	0.143741	0.00778474	0.00339329	0.001	
3.61	0.001	0.001	0.001	0.001	0.001	0.001	0.001	0.001	0.001	0.001	0.001	0.001	0.001	0.001	0.001	0.001	0.001	0.001	0.001	0.001	0.001	0.001	0.001	0.001	0.001	0.001	0.001	0.001	0.001	0.001	0.001	0.001	0.001	0.001	0.001	0.001	0.001	0.001	0.001	0.000997281	0.001	0.001	0.001	0.001	0.001	0.001	0.231926	0.622433	0.001	0.001	0.415329	0.0567551	0.393467	0.001	0.999	0.999	0.001	0.999	0.999	0.001	0.001	0.999	0.001	0.001	0.244395	0.12962	0.0184162	0.001	0.001	0.001	0.923594	0.999	0.59772	0.0494614	0.001	0.001	0.136235	0.00315079	0.001	0.001	
3.615	0.001	0.001	0.001	0.001	0.001	0.001	0.001	0.001	0.001	0.001	0.001	0.001	0.001	0.001	0.001	0.001	0.001	0.001	0.001	0.001	0.001	0.001	0.001	0.001	0.001	0.001	0.001	0.001	0.001	0.001	0.001	0.001	0.001	0.001	0.001	0.001	0.001	0.001	0.001	0.000997281	0.001	0.001	0.001	0.001	0.0343794	0.001	0.215156	0.653124	0.001	0.001	0.374967	0.0457391	0.387838	0.001	0.999	0.999	0.001	0.999	0.999	0.001	0.001	0.999	0.001	0.001	0.169782	0.111298	0.0160386	0.001	0.001	0.001	0.915529	0.999	0.567495	0.0436907	0.001	0.001	0.12851	0.00153255	0.001	0.0114618	
3.62	0.001	0.001	0.001	0.001	0.001	0.001	0.001	0.001	0.001	0.001	0.001	0.001	0.001	0.001	0.001	0.001	0.001	0.001	0.001	0.001	0.001	0.001	0.001	0.001	0.001	0.001	0.001	0.001	0.001	0.001	0.001	0.001	0.001	0.001	0.001	0.001	0.001	0.001	0.001	0.000997281	0.001	0.001	0.001	0.001	0.001	0.001	0.180352	0.679295	0.001	0.001	0.344439	0.0319068	0.388913	0.001	0.999	0.999	0.001	0.999	0.999	0.001	0.001	0.999	0.001	0.001	0.0751035	0.0863684	0.012617	0.001	0.001	0.001	0.908721	0.905323	0.503032	0.0361726	0.001	0.001	0.114415	0.001	0.001	0.00116436	
3.625	0.001	0.001	0.001	0.001	0.001	0.001	0.001	0.001	0.001	0.001	0.001	0.001	0.001	0.001	0.001	0.001	0.001	0.001	0.001	0.001	0.001	0.001	0.001	0.001	0.001	0.001	0.001	0.001	0.001	0.001	0.001	0.001	0.001	0.001	0.001	0.001	0.001	0.001	0.001	0.000997281	0.001	0.001	0.001	0.001	0.001	0.001	0.0384032	0.631628	0.001	0.001	0.160802	0.00776607	0.324916	0.001	0.999	0.999	0.001	0.999	0.999	0.001	0.001	0.999	0.001	0.001	0.999	0.023055	0.0033292	0.001	0.001	0.001	0.901906	0.575352	0.232061	0.0304388	0.001	0.001	0.0341643	0.001	0.001	0.001	
3.63	0.001	0.001	0.001	0.001	0.001	0.001	0.001	0.001	0.001	0.001	0.001	0.001	0.001	0.001	0.001	0.001	0.001	0.001	0.001	0.001	0.001	0.001	0.001	0.001	0.001	0.001	0.001	0.001	0.001	0.001	0.001	0.001	0.001	0.001	0.001	0.001	0.001	0.001	0.001	0.000997281	0.001	0.001	0.001	0.001	0.0443066	0.001	0.103366	0.65563	0.001	0.001	0.171327	0.00758899	0.363298	0.001	0.999	0.999	0.001	0.999	0.999	0.001	0.001	0.999	0.001	0.001	0.001	0.0243686	0.00352469	0.001	0.001	0.001	0.894621	0.678859	0.331525	0.0251702	0.001	0.001	0.0398214	0.001	0.001	0.013416	
