CEINMS output
datacolumns 81
datarows 92
endheader
time	addbrev_r	addlong_r	addmagDist_r	addmagIsch_r	addmagMid_r	addmagProx_r	bflh_r	bfsh_r	edl_r	ehl_r	fdl_r	fhl_r	gaslat_r	gasmed_r	glmax1_r	glmax2_r	glmax3_r	glmed1_r	glmed2_r	glmed3_r	glmin1_r	glmin2_r	glmin3_r	grac_r	iliacus_r	perbrev_r	perlong_r	piri_r	psoas_r	recfem_r	sart_r	semimem_r	semiten_r	soleus_r	tfl_r	tibant_r	tibpost_r	vasint_r	vaslat_r	vasmed_r	addbrev_l	addlong_l	addmagDist_l	addmagIsch_l	addmagMid_l	addmagProx_l	bflh_l	bfsh_l	edl_l	ehl_l	fdl_l	fhl_l	gaslat_l	gasmed_l	glmax1_l	glmax2_l	glmax3_l	glmed1_l	glmed2_l	glmed3_l	glmin1_l	glmin2_l	glmin3_l	grac_l	iliacus_l	perbrev_l	perlong_l	piri_l	psoas_l	recfem_l	sart_l	semimem_l	semiten_l	soleus_l	tfl_l	tibant_l	tibpost_l	vasint_l	vaslat_l	vasmed_l	
3.175	0.001	0.001	0.001	0.001	0.001	0.001	0.001	0.001	0.001	0.001	0.001	0.001	0.001	0.001	0.001	0.001	0.001	0.001	0.001	0.001	0.001	0.001	0.001	0.001	0.001	0.001	0.001	0.001	0.001	0.001	0.001	0.001	0.001	0.001	0.001	0.001	0.001	0.001	0.001	0.000997281	0.001	0.001	0.999	0.999	0.999	0.001	0.999	0.507714	0.001	0.001	0.881242	0.0962643	0.999	0.001	0.999	0.999	0.999	0.999	0.999	0.001	0.999	0.999	0.001	0.999	0.001	0.187932	0.0443883	0.001	0.001	0.053425	0.999	0.999	0.999	0.181048	0.001	0.15535	0.895038	0.001	0.001	0.001	
3.18	0.001	0.001	0.001	0.001	0.001	0.001	0.001	0.001	0.001	0.001	0.001	0.001	0.001	0.001	0.001	0.001	0.001	0.001	0.001	0.001	0.001	0.001	0.001	0.001	0.001	0.001	0.001	0.001	0.001	0.001	0.001	0.001	0.001	0.001	0.001	0.001	0.001	0.001	0.001	0.000997281	0.001	0.001	0.999	0.999	0.999	0.624295	0.537101	0.21677	0.001	0.001	0.672972	0.481791	0.999	0.001	0.999	0.999	0.0454572	0.658655	0.999	0.001	0.001	0.001	0.001	0.568067	0.001	0.885308	0.238172	0.001	0.001	0.001	0.999	0.999	0.598812	0.145617	0.001	0.259163	0.999	0.001	0.001	0.001	
3.185	0.001	0.001	0.001	0.001	0.001	0.001	0.001	0.001	0.001	0.001	0.001	0.001	0.001	0.001	0.001	0.001	0.001	0.001	0.001	0.001	0.001	0.001	0.001	0.001	0.001	0.001	0.001	0.001	0.001	0.001	0.001	0.001	0.001	0.001	0.001	0.001	0.001	0.001	0.001	0.000997281	0.001	0.001	0.999	0.832095	0.838361	0.185594	0.131092	0.128608	0.001	0.001	0.365397	0.070534	0.125773	0.001	0.148845	0.184469	0.072446	0.560326	0.378146	0.0425157	0.001	0.001	0.001	0.780469	0.001	0.0912552	0.0330917	0.001	0.001	0.001	0.971277	0.001	0.20258	0.115217	0.001	0.283875	0.001	0.001	0.001	0.001	
3.19	0.001	0.001	0.001	0.001	0.001	0.001	0.001	0.001	0.001	0.001	0.001	0.001	0.001	0.001	0.001	0.001	0.001	0.001	0.001	0.001	0.001	0.001	0.001	0.001	0.001	0.001	0.001	0.001	0.001	0.001	0.001	0.001	0.001	0.001	0.001	0.001	0.001	0.001	0.001	0.000997281	0.999	0.999	0.001	0.001	0.001	0.125194	0.0930175	0.130347	0.222696	0.136793	0.001	0.00533813	0.116659	0.001	0.001	0.001	0.001	0.33879	0.001	0.001	0.999	0.999	0.001	0.773651	0.999	0.00176438	0.00252641	0.001	0.999	0.0984915	0.999	0.001	0.182853	0.0890364	0.001	0.283147	0.00431767	0.001	0.001	0.001	
3.195	0.001	0.001	0.001	0.001	0.001	0.001	0.001	0.001	0.001	0.001	0.001	0.001	0.001	0.001	0.001	0.001	0.001	0.001	0.001	0.001	0.001	0.001	0.001	0.001	0.001	0.001	0.001	0.001	0.001	0.001	0.001	0.001	0.001	0.001	0.001	0.001	0.001	0.001	0.001	0.000997281	0.999	0.999	0.001	0.001	0.001	0.335742	0.0774338	0.125917	0.0973109	0.0776837	0.126744	0.0802452	0.10892	0.001	0.001	0.001	0.001	0.100296	0.001	0.0759223	0.999	0.999	0.001	0.750642	0.999	0.0318824	0.0454766	0.001	0.999	0.163199	0.999	0.0509707	0.167307	0.0698657	0.001	0.331131	0.00161399	0.001	0.001	0.001	
3.2	0.001	0.001	0.001	0.001	0.001	0.001	0.001	0.001	0.001	0.001	0.001	0.001	0.001	0.001	0.001	0.001	0.001	0.001	0.001	0.001	0.001	0.001	0.001	0.001	0.001	0.001	0.001	0.001	0.001	0.001	0.001	0.001	0.001	0.001	0.001	0.001	0.001	0.001	0.001	0.000997281	0.999	0.689933	0.001	0.001	0.001	0.417761	0.0722067	0.123221	0.0770239	0.0657869	0.115447	0.0723117	0.105033	0.001	0.001	0.001	0.001	0.0165272	0.001	0.0775682	0.999	0.999	0.0562538	0.73029	0.999	0.0287765	0.040999	0.0562533	0.999	0.175168	0.999	0.0644464	0.159677	0.0510709	0.001	0.363571	0.00129441	0.00100252	0.001	0.001	
3.205	0.001	0.001	0.001	0.001	0.001	0.001	0.001	0.001	0.001	0.001	0.001	0.001	0.001	0.001	0.001	0.001	0.001	0.001	0.001	0.001	0.001	0.001	0.001	0.001	0.001	0.001	0.001	0.001	0.001	0.001	0.001	0.001	0.001	0.001	0.001	0.001	0.001	0.001	0.001	0.000997281	0.999	0.566256	0.001	0.001	0.001	0.350348	0.0775927	0.117884	0.0651544	0.0513549	0.156062	0.0576721	0.103465	0.001	0.001	0.001	0.001	0.0220301	0.001	0.0580554	0.999	0.649784	0.0969365	0.710735	0.999	0.0229996	0.0327241	0.001	0.999	0.201144	0.999	0.10307	0.154452	0.0352226	0.001	0.408502	0.00102526	0.00499374	0.001	0.001	
3.21	0.001	0.001	0.001	0.001	0.001	0.001	0.001	0.001	0.001	0.001	0.001	0.001	0.001	0.001	0.001	0.001	0.001	0.001	0.001	0.001	0.001	0.001	0.001	0.001	0.001	0.001	0.001	0.001	0.001	0.001	0.001	0.001	0.001	0.001	0.001	0.001	0.001	0.001	0.001	0.000997281	0.999	0.61246	0.001	0.001	0.001	0.32166	0.0748347	0.113569	0.0331421	0.0393176	0.171983	0.0534057	0.103924	0.001	0.001	0.001	0.001	0.001	0.001	0.001	0.999	0.34971	0.0896608	0.691131	0.999	0.0214117	0.0303007	0.001	0.999	0.253618	0.999	0.139625	0.149987	0.0257458	0.001	0.442281	0.00110824	0.00702507	0.001	0.001	
3.215	0.001	0.001	0.001	0.001	0.001	0.001	0.001	0.001	0.001	0.001	0.001	0.001	0.001	0.001	0.001	0.001	0.001	0.001	0.001	0.001	0.001	0.001	0.001	0.001	0.001	0.001	0.001	0.001	0.001	0.001	0.001	0.001	0.001	0.001	0.001	0.001	0.001	0.001	0.001	0.000997281	0.999	0.664527	0.001	0.001	0.001	0.377735	0.0672502	0.110959	0.00105948	0.001	0.184817	0.0136816	0.109422	0.001	0.001	0.001	0.001	0.001	0.001	0.001	0.999	0.0117908	0.001	0.671541	0.999	0.062522	0.00403344	0.0614646	0.999	0.305301	0.999	0.170007	0.146146	0.0176599	0.001	0.474257	0.001	0.00795356	0.001	0.001	
3.22	0.001	0.001	0.001	0.001	0.001	0.001	0.001	0.001	0.001	0.001	0.001	0.001	0.001	0.001	0.001	0.001	0.001	0.001	0.001	0.001	0.001	0.001	0.001	0.001	0.001	0.001	0.001	0.001	0.001	0.001	0.001	0.001	0.001	0.001	0.001	0.001	0.001	0.001	0.001	0.000997281	0.999	0.761762	0.001	0.001	0.001	0.999	0.063867	0.110574	0.001	0.001	0.278254	0.0226868	0.12002	0.001	0.001	0.001	0.001	0.001	0.001	0.001	0.999	0.001	0.001	0.691882	0.999	0.0672737	0.00669598	0.001	0.999	0.326445	0.999	0.192666	0.14784	0.0132599	0.001	0.49512	0.001	0.00371288	0.001	0.001	
3.225	0.001	0.001	0.001	0.001	0.001	0.001	0.001	0.001	0.001	0.001	0.001	0.001	0.001	0.001	0.001	0.001	0.001	0.001	0.001	0.001	0.001	0.001	0.001	0.001	0.001	0.001	0.001	0.001	0.001	0.001	0.001	0.001	0.001	0.001	0.001	0.001	0.001	0.001	0.001	0.000997281	0.999	0.760251	0.001	0.001	0.001	0.999	0.0606596	0.110136	0.001	0.001	0.424194	0.214664	0.132929	0.001	0.001	0.001	0.001	0.001	0.001	0.001	0.480591	0.001	0.001	0.693886	0.999	0.254557	0.200361	0.001	0.999	0.339523	0.999	0.212312	0.151188	0.0108767	0.714898	0.508879	0.001	0.00285006	0.001	0.001	
3.23	0.001	0.001	0.001	0.001	0.001	0.001	0.001	0.001	0.001	0.001	0.001	0.001	0.001	0.001	0.001	0.001	0.001	0.001	0.001	0.001	0.001	0.001	0.001	0.001	0.001	0.001	0.001	0.001	0.001	0.001	0.001	0.001	0.001	0.001	0.001	0.001	0.001	0.001	0.001	0.000997281	0.999	0.77976	0.001	0.001	0.0011012	0.999	0.0574511	0.107964	0.001	0.001	0.451288	0.204527	0.146856	0.001	0.001	0.001	0.001	0.001	0.001	0.001	0.18451	0.001	0.044257	0.680501	0.999	0.287917	0.189747	0.0453227	0.999	0.360576	0.999	0.225265	0.160246	0.0102017	0.709807	0.518076	0.0453109	0.0126928	0.001	0.001	
3.235	0.001	0.001	0.001	0.001	0.001	0.001	0.001	0.001	0.001	0.001	0.001	0.001	0.001	0.001	0.001	0.001	0.001	0.001	0.001	0.001	0.001	0.001	0.001	0.001	0.001	0.001	0.001	0.001	0.001	0.001	0.001	0.001	0.001	0.001	0.001	0.001	0.001	0.001	0.001	0.000997281	0.999	0.811143	0.001	0.001	0.001	0.999	0.0460603	0.101768	0.001	0.001	0.597654	0.213138	0.150955	0.001	0.001	0.001	0.001	0.001	0.001	0.001	0.001	0.001	0.001	0.652603	0.999	0.535184	0.0527057	0.001	0.999	0.423636	0.999	0.21349	0.151591	0.00990313	0.756072	0.52148	0.448512	0.00764504	0.001	0.001	
3.24	0.001	0.001	0.001	0.001	0.001	0.001	0.001	0.001	0.001	0.001	0.001	0.001	0.001	0.001	0.001	0.001	0.001	0.001	0.001	0.001	0.001	0.001	0.001	0.001	0.001	0.001	0.001	0.001	0.001	0.001	0.001	0.001	0.001	0.001	0.001	0.001	0.001	0.001	0.001	0.000997281	0.999	0.855165	0.001	0.001	0.001	0.999	0.0383972	0.0949317	0.001	0.001	0.635876	0.302189	0.150839	0.001	0.001	0.001	0.001	0.001	0.001	0.001	0.001	0.001	0.001	0.634463	0.999	0.603363	0.0780313	0.001	0.999	0.472369	0.999	0.187754	0.149097	0.0111855	0.690743	0.517905	0.53343	0.00381546	0.001	0.001	
3.245	0.001	0.001	0.001	0.001	0.001	0.001	0.001	0.001	0.001	0.001	0.001	0.001	0.001	0.001	0.001	0.001	0.001	0.001	0.001	0.001	0.001	0.001	0.001	0.001	0.001	0.001	0.001	0.001	0.001	0.001	0.001	0.001	0.001	0.001	0.001	0.001	0.001	0.001	0.001	0.000997281	0.999	0.902482	0.001	0.001	0.001	0.999	0.0339132	0.0878002	0.001	0.001	0.668718	0.377984	0.147262	0.001	0.001	0.001	0.001	0.001	0.001	0.001	0.001	0.001	0.001	0.621307	0.999	0.585404	0.1028	0.0587069	0.999	0.510967	0.999	0.155897	0.146572	0.0137515	0.566905	0.508607	0.3828	0.00405178	0.001	0.001	
3.25	0.001	0.001	0.001	0.001	0.001	0.001	0.001	0.001	0.001	0.001	0.001	0.001	0.001	0.001	0.001	0.001	0.001	0.001	0.001	0.001	0.001	0.001	0.001	0.001	0.001	0.001	0.001	0.001	0.001	0.001	0.001	0.001	0.001	0.001	0.001	0.001	0.001	0.001	0.001	0.000997281	0.999	0.95195	0.001	0.001	0.001	0.999	0.0320777	0.0813503	0.001	0.001	0.701207	0.452674	0.14049	0.001	0.001	0.001	0.001	0.001	0.001	0.001	0.001	0.001	0.0868507	0.609467	0.999	0.522959	0.115309	0.001	0.999	0.53605	0.999	0.121175	0.143664	0.0167816	0.450708	0.501241	0.221678	0.00466822	0.001	0.001	
3.255	0.001	0.001	0.001	0.001	0.001	0.001	0.001	0.001	0.001	0.001	0.001	0.001	0.001	0.001	0.001	0.001	0.001	0.001	0.001	0.001	0.001	0.001	0.001	0.001	0.001	0.001	0.001	0.001	0.001	0.001	0.001	0.001	0.001	0.001	0.001	0.001	0.001	0.001	0.001	0.000997281	0.999	0.999	0.001	0.001	0.001	0.999	0.0306796	0.076237	0.001	0.001	0.715401	0.518386	0.130533	0.001	0.001	0.001	0.001	0.001	0.001	0.001	0.001	0.001	0.001	0.596444	0.999	0.428871	0.113938	0.001	0.999	0.548127	0.999	0.0812869	0.138481	0.0199521	0.223737	0.552923	0.141042	0.00707254	0.001	0.001	
3.26	0.001	0.001	0.001	0.001	0.001	0.001	0.001	0.001	0.001	0.001	0.001	0.001	0.001	0.001	0.001	0.001	0.001	0.001	0.001	0.001	0.001	0.001	0.001	0.001	0.001	0.001	0.001	0.001	0.001	0.001	0.001	0.001	0.001	0.001	0.001	0.001	0.001	0.001	0.001	0.000997281	0.999	0.999	0.001	0.001	0.001	0.999	0.0250313	0.0724629	0.001	0.001	0.731128	0.541079	0.117584	0.001	0.001	0.001	0.001	0.001	0.001	0.001	0.001	0.001	0.001	0.574902	0.999	0.360333	0.125143	0.0599155	0.999	0.548417	0.999	0.0276445	0.126903	0.0203152	0.001	0.588367	0.139458	0.00433219	0.001	0.001	
3.265	0.001	0.001	0.001	0.001	0.001	0.001	0.001	0.001	0.001	0.001	0.001	0.001	0.001	0.001	0.001	0.001	0.001	0.001	0.001	0.001	0.001	0.001	0.001	0.001	0.001	0.001	0.001	0.001	0.001	0.001	0.001	0.001	0.001	0.001	0.001	0.001	0.001	0.001	0.001	0.000997281	0.999	0.999	0.001	0.001	0.001	0.999	0.00874642	0.0657635	0.001	0.001	0.734127	0.552606	0.100177	0.001	0.001	0.001	0.001	0.001	0.001	0.001	0.001	0.001	0.001	0.530678	0.999	0.316015	0.118273	0.001	0.999	0.535655	0.999	0.001	0.0995467	0.0263863	0.001	0.618531	0.192427	0.00752521	0.001	0.001	
3.27	0.001	0.001	0.001	0.001	0.001	0.001	0.001	0.001	0.001	0.001	0.001	0.001	0.001	0.001	0.001	0.001	0.001	0.001	0.001	0.001	0.001	0.001	0.001	0.001	0.001	0.001	0.001	0.001	0.001	0.001	0.001	0.001	0.001	0.001	0.001	0.001	0.001	0.001	0.001	0.000997281	0.999	0.999	0.001	0.001	0.001	0.999	0.001	0.0580393	0.001	0.001	0.738913	0.538608	0.0846461	0.001	0.001	0.001	0.001	0.001	0.001	0.001	0.001	0.001	0.001	0.478718	0.999	0.306797	0.114904	0.001	0.999	0.517485	0.999	0.001	0.0482459	0.029759	0.001	0.65466	0.185965	0.0104879	0.001	0.001	
3.275	0.001	0.001	0.001	0.001	0.001	0.001	0.001	0.001	0.001	0.001	0.001	0.001	0.001	0.001	0.001	0.001	0.001	0.001	0.001	0.001	0.001	0.001	0.001	0.001	0.001	0.001	0.001	0.001	0.001	0.001	0.001	0.001	0.001	0.001	0.001	0.001	0.001	0.001	0.001	0.000997281	0.999	0.999	0.001	0.001	0.001	0.999	0.001	0.0497249	0.001	0.001	0.737311	0.500128	0.0691916	0.001	0.001	0.001	0.001	0.001	0.001	0.001	0.001	0.001	0.001	0.417352	0.999	0.287436	0.104959	0.0799574	0.999	0.503002	0.999	0.001	0.001	0.0323202	0.337769	0.691995	0.170825	0.013292	0.0375334	0.0108099	
3.28	0.001	0.001	0.001	0.001	0.001	0.001	0.001	0.001	0.001	0.001	0.001	0.001	0.001	0.001	0.001	0.001	0.001	0.001	0.001	0.001	0.001	0.001	0.001	0.001	0.001	0.001	0.001	0.001	0.001	0.001	0.001	0.001	0.001	0.001	0.001	0.001	0.001	0.001	0.001	0.000997281	0.999	0.999	0.001	0.001	0.001	0.999	0.001	0.0443595	0.001	0.001	0.735881	0.446336	0.0642909	0.001	0.001	0.001	0.001	0.001	0.001	0.001	0.001	0.001	0.001	0.360155	0.999	0.304854	0.0801048	0.001	0.999	0.483615	0.999	0.001	0.001	0.0341198	0.56448	0.728751	0.166964	0.352086	0.999	0.707278	
3.285	0.001	0.001	0.001	0.001	0.001	0.001	0.001	0.001	0.001	0.001	0.001	0.001	0.001	0.001	0.001	0.001	0.001	0.001	0.001	0.001	0.001	0.001	0.001	0.001	0.001	0.001	0.001	0.001	0.001	0.001	0.001	0.001	0.001	0.001	0.001	0.001	0.001	0.001	0.001	0.000997281	0.999	0.999	0.001	0.001	0.001	0.999	0.001	0.0414233	0.001	0.001	0.730394	0.414993	0.0673481	0.001	0.001	0.001	0.001	0.001	0.001	0.001	0.001	0.001	0.001	0.300498	0.999	0.318042	0.0666381	0.001	0.999	0.464082	0.999	0.001	0.001	0.035723	0.951066	0.765219	0.162448	0.37891	0.999	0.572079	
3.29	0.001	0.001	0.001	0.001	0.001	0.001	0.001	0.001	0.001	0.001	0.001	0.001	0.001	0.001	0.001	0.001	0.001	0.001	0.001	0.001	0.001	0.001	0.001	0.001	0.001	0.001	0.001	0.001	0.001	0.001	0.001	0.001	0.001	0.001	0.001	0.001	0.001	0.001	0.001	0.000997281	0.999	0.999	0.001	0.001	0.001	0.999	0.001	0.0404508	0.001	0.001	0.724594	0.370677	0.0794185	0.001	0.001	0.001	0.001	0.001	0.001	0.001	0.001	0.001	0.001	0.240852	0.999	0.297631	0.0569789	0.102394	0.999	0.439028	0.999	0.001	0.001	0.0375614	0.999	0.799692	0.155176	0.144988	0.934512	0.209919	
3.295	0.001	0.001	0.001	0.001	0.001	0.001	0.001	0.001	0.001	0.001	0.001	0.001	0.001	0.001	0.001	0.001	0.001	0.001	0.001	0.001	0.001	0.001	0.001	0.001	0.001	0.001	0.001	0.001	0.001	0.001	0.001	0.001	0.001	0.001	0.001	0.001	0.001	0.001	0.001	0.000997281	0.999	0.999	0.001	0.001	0.001	0.999	0.001	0.0385986	0.001	0.001	0.713756	0.301212	0.0883086	0.001	0.001	0.001	0.001	0.001	0.001	0.001	0.001	0.001	0.001	0.189846	0.999	0.310214	0.0349972	0.001	0.999	0.405172	0.999	0.001	0.001	0.0378906	0.999	0.831627	0.159721	0.0398327	0.159353	0.0320659	
3.3	0.001	0.001	0.001	0.001	0.001	0.001	0.001	0.001	0.001	0.001	0.001	0.001	0.001	0.001	0.001	0.001	0.001	0.001	0.001	0.001	0.001	0.001	0.001	0.001	0.001	0.001	0.001	0.001	0.001	0.001	0.001	0.001	0.001	0.001	0.001	0.001	0.001	0.001	0.001	0.000997281	0.999	0.999	0.001	0.001	0.001	0.999	0.001	0.0358548	0.001	0.001	0.700362	0.292971	0.0931516	0.001	0.001	0.001	0.001	0.001	0.001	0.001	0.001	0.001	0.001	0.144511	0.999	0.30294	0.0337637	0.001	0.999	0.369861	0.999	0.001	0.001	0.038967	0.992298	0.860229	0.155562	0.0515188	0.223831	0.0429223	
3.305	0.001	0.001	0.001	0.001	0.001	0.001	0.001	0.001	0.001	0.001	0.001	0.001	0.001	0.001	0.001	0.001	0.001	0.001	0.001	0.001	0.001	0.001	0.001	0.001	0.001	0.001	0.001	0.001	0.001	0.001	0.001	0.001	0.001	0.001	0.001	0.001	0.001	0.001	0.001	0.000997281	0.999	0.999	0.001	0.001	0.001	0.999	0.001	0.0335029	0.001	0.001	0.689619	0.252852	0.0983875	0.001	0.001	0.001	0.001	0.001	0.001	0.001	0.001	0.001	0.001	0.0869955	0.999	0.272656	0.027409	0.113599	0.999	0.33604	0.999	0.001	0.001	0.0394085	0.560009	0.884725	0.140661	0.0646822	0.218013	0.0548605	
3.31	0.001	0.001	0.001	0.001	0.001	0.001	0.001	0.001	0.001	0.001	0.001	0.001	0.001	0.001	0.001	0.001	0.001	0.001	0.001	0.001	0.001	0.001	0.001	0.001	0.001	0.001	0.001	0.001	0.001	0.001	0.001	0.001	0.001	0.001	0.001	0.001	0.001	0.001	0.001	0.000997281	0.999	0.001	0.001	0.001	0.001	0.999	0.001	0.0318989	0.001	0.001	0.672054	0.191494	0.104073	0.001	0.001	0.001	0.001	0.001	0.001	0.001	0.112452	0.001	0.001	0.001	0.999	0.255932	0.0150148	0.001	0.999	0.304717	0.999	0.001	0.001	0.0394286	0.001	0.905239	0.142332	0.0820389	0.27388	0.0727267	
3.315	0.001	0.001	0.001	0.001	0.001	0.001	0.001	0.001	0.001	0.001	0.001	0.001	0.001	0.001	0.001	0.001	0.001	0.001	0.001	0.001	0.001	0.001	0.001	0.001	0.001	0.001	0.001	0.001	0.001	0.001	0.001	0.001	0.001	0.001	0.001	0.001	0.001	0.001	0.001	0.000997281	0.999	0.001	0.001	0.001	0.001	0.322204	0.001	0.0314422	0.001	0.001	0.656242	0.156547	0.109853	0.001	0.001	0.001	0.001	0.001	0.001	0.001	0.999	0.001	0.001	0.001	0.999	0.307485	0.0114093	0.001	0.999	0.273135	0.999	0.001	0.001	0.0392947	0.001	0.921851	0.146126	0.099243	0.30758	0.0897991	
3.32	0.001	0.001	0.001	0.001	0.001	0.001	0.001	0.001	0.001	0.001	0.001	0.001	0.001	0.001	0.001	0.001	0.001	0.001	0.001	0.001	0.001	0.001	0.001	0.001	0.001	0.001	0.001	0.001	0.001	0.001	0.001	0.001	0.001	0.001	0.001	0.001	0.001	0.001	0.001	0.000997281	0.492816	0.001	0.001	0.001	0.001	0.001	0.001	0.0321449	0.001	0.001	0.632239	0.133455	0.119626	0.001	0.001	0.001	0.001	0.001	0.001	0.001	0.999	0.001	0.001	0.001	0.999	0.257123	0.00894707	0.13654	0.999	0.243074	0.999	0.001	0.001	0.0383436	0.001	0.93873	0.129253	0.132288	0.53706	0.133523	
3.325	0.001	0.001	0.001	0.001	0.001	0.001	0.001	0.001	0.001	0.001	0.001	0.001	0.001	0.001	0.001	0.001	0.001	0.001	0.001	0.001	0.001	0.001	0.001	0.001	0.001	0.001	0.001	0.001	0.001	0.001	0.001	0.001	0.001	0.001	0.001	0.001	0.001	0.001	0.001	0.000997281	0.001	0.001	0.001	0.001	0.001	0.001	0.001	0.0340646	0.001	0.001	0.620759	0.115166	0.13465	0.001	0.001	0.001	0.001	0.001	0.001	0.001	0.999	0.0689058	0.001	0.001	0.999	0.224339	0.00418859	0.001	0.999	0.215577	0.999	0.001	0.001	0.0372376	0.00174077	0.966745	0.140131	0.167655	0.798062	0.184156	
3.33	0.001	0.001	0.001	0.001	0.001	0.001	0.001	0.001	0.001	0.001	0.001	0.001	0.001	0.001	0.001	0.001	0.001	0.001	0.001	0.001	0.001	0.001	0.001	0.001	0.001	0.001	0.001	0.001	0.001	0.001	0.001	0.001	0.001	0.001	0.001	0.001	0.001	0.001	0.001	0.000997281	0.001	0.001	0.001	0.001	0.001	0.001	0.001	0.0353877	0.001	0.001	0.61277	0.112536	0.137172	0.001	0.001	0.001	0.001	0.001	0.001	0.001	0.999	0.171558	0.001	0.001	0.999	0.238787	0.00295427	0.001	0.999	0.187689	0.999	0.001	0.001	0.0360998	0.001	0.999	0.14399	0.242058	0.999	0.309521	
3.335	0.001	0.001	0.001	0.001	0.001	0.001	0.001	0.001	0.001	0.001	0.001	0.001	0.001	0.001	0.001	0.001	0.001	0.001	0.001	0.001	0.001	0.001	0.001	0.001	0.001	0.001	0.001	0.001	0.001	0.001	0.001	0.001	0.001	0.001	0.001	0.001	0.001	0.001	0.001	0.000997281	0.001	0.001	0.001	0.001	0.001	0.001	0.001	0.0330447	0.001	0.001	0.609817	0.124446	0.0755922	0.001	0.001	0.001	0.001	0.001	0.001	0.001	0.999	0.171279	0.001	0.001	0.999	0.256905	0.00498052	0.0152999	0.999	0.161523	0.999	0.001	0.001	0.0350235	0.001	0.999	0.139928	0.337817	0.999	0.474883	
3.34	0.001	0.001	0.001	0.001	0.001	0.001	0.001	0.001	0.001	0.001	0.001	0.001	0.001	0.001	0.001	0.001	0.001	0.001	0.001	0.001	0.001	0.001	0.001	0.001	0.001	0.001	0.001	0.001	0.001	0.001	0.001	0.001	0.001	0.001	0.001	0.001	0.001	0.001	0.001	0.000997281	0.001	0.001	0.001	0.001	0.001	0.001	0.001	0.020787	0.001	0.001	0.611574	0.134611	0.001	0.001	0.001	0.001	0.001	0.001	0.001	0.001	0.001	0.690218	0.001	0.001	0.999	0.28998	0.00471561	0.001	0.999	0.138011	0.999	0.001	0.001	0.0343173	0.001	0.999	0.154486	0.445349	0.999	0.655923	
3.345	0.001	0.001	0.001	0.001	0.001	0.001	0.001	0.001	0.001	0.001	0.001	0.001	0.001	0.001	0.001	0.001	0.001	0.001	0.001	0.001	0.001	0.001	0.001	0.001	0.001	0.001	0.001	0.001	0.001	0.001	0.001	0.001	0.001	0.001	0.001	0.001	0.001	0.001	0.001	0.000997281	0.001	0.001	0.001	0.001	0.001	0.001	0.001	0.001	0.001	0.001	0.61996	0.161188	0.001	0.00109564	0.001	0.001	0.001	0.001	0.001	0.001	0.001	0.676889	0.001	0.001	0.999	0.312924	0.0142314	0.001	0.999	0.117592	0.999	0.001	0.001	0.0338751	0.001	0.999	0.149827	0.55285	0.999	0.828674	
3.35	0.001	0.001	0.001	0.001	0.001	0.001	0.001	0.001	0.001	0.001	0.001	0.001	0.001	0.001	0.001	0.001	0.001	0.001	0.001	0.001	0.001	0.001	0.001	0.001	0.001	0.001	0.001	0.001	0.001	0.001	0.001	0.001	0.001	0.001	0.001	0.001	0.001	0.001	0.001	0.000997281	0.001	0.001	0.001	0.001	0.001	0.001	0.001	0.001	0.001	0.001	0.614326	0.170474	0.001	0.00254	0.001	0.001	0.001	0.001	0.001	0.001	0.001	0.5863	0.999	0.001	0.999	0.329923	0.00862459	0.001	0.999	0.0990277	0.001	0.001	0.001	0.0327788	0.001	0.999	0.159015	0.646713	0.999	0.955115	
3.355	0.001	0.001	0.001	0.001	0.001	0.001	0.001	0.001	0.001	0.001	0.001	0.001	0.001	0.001	0.001	0.001	0.001	0.001	0.001	0.001	0.001	0.001	0.001	0.001	0.001	0.001	0.001	0.001	0.001	0.001	0.001	0.001	0.001	0.001	0.001	0.001	0.001	0.001	0.001	0.000997281	0.001	0.001	0.001	0.001	0.001	0.001	0.001	0.001	0.001	0.001	0.623731	0.198995	0.001	0.0160622	0.001	0.001	0.001	0.001	0.001	0.001	0.001	0.495411	0.999	0.001	0.999	0.318817	0.0228096	0.001	0.999	0.0859707	0.001	0.001	0.001	0.033006	0.001	0.999	0.151656	0.705491	0.999	0.999	
3.36	0.001	0.001	0.001	0.001	0.001	0.001	0.001	0.001	0.001	0.001	0.001	0.001	0.001	0.001	0.001	0.001	0.001	0.001	0.001	0.001	0.001	0.001	0.001	0.001	0.001	0.001	0.001	0.001	0.001	0.001	0.001	0.001	0.001	0.001	0.001	0.001	0.001	0.001	0.001	0.000997281	0.00254323	0.001	0.001	0.001	0.001	0.001	0.001	0.001	0.001	0.001	0.611988	0.18922	0.001	0.00165063	0.001	0.001	0.001	0.001	0.001	0.0204429	0.001	0.253556	0.999	0.001	0.999	0.347746	0.020236	0.001	0.999	0.0751567	0.001	0.001	0.001	0.0332219	0.001	0.999	0.138883	0.772256	0.999	0.999	
3.365	0.001	0.001	0.001	0.001	0.001	0.001	0.001	0.001	0.001	0.001	0.001	0.001	0.001	0.001	0.001	0.001	0.001	0.001	0.001	0.001	0.001	0.001	0.001	0.001	0.001	0.001	0.001	0.001	0.001	0.001	0.001	0.001	0.001	0.001	0.001	0.001	0.001	0.001	0.001	0.000997281	0.001	0.001	0.001	0.001	0.001	0.001	0.001	0.001	0.001	0.001	0.612411	0.253742	0.001	0.001	0.001	0.001	0.001	0.001	0.001	0.187817	0.001	0.001	0.999	0.001	0.999	0.312935	0.0179782	0.001	0.999	0.0669868	0.001	0.001	0.001	0.0339593	0.001	0.999	0.129645	0.846101	0.999	0.999	
3.37	0.001	0.001	0.001	0.001	0.001	0.001	0.001	0.001	0.001	0.001	0.001	0.001	0.001	0.001	0.001	0.001	0.001	0.001	0.001	0.001	0.001	0.001	0.001	0.001	0.001	0.001	0.001	0.001	0.001	0.001	0.001	0.001	0.001	0.001	0.001	0.001	0.001	0.001	0.001	0.000997281	0.00289435	0.001	0.001	0.001	0.001	0.001	0.001	0.001	0.001	0.001	0.61931	0.212099	0.001	0.00414539	0.001	0.001	0.001	0.001	0.001	0.384169	0.001	0.001	0.001	0.001	0.999	0.28981	0.0601957	0.001	0.999	0.061401	0.001	0.001	0.001	0.0367081	0.001	0.999	0.140047	0.937882	0.999	0.999	
3.375	0.001	0.001	0.001	0.001	0.001	0.001	0.001	0.001	0.001	0.001	0.001	0.001	0.001	0.001	0.001	0.001	0.001	0.001	0.001	0.001	0.001	0.001	0.001	0.001	0.001	0.001	0.001	0.001	0.001	0.001	0.001	0.001	0.001	0.001	0.001	0.001	0.001	0.001	0.001	0.000997281	0.001	0.001	0.001	0.001	0.001	0.001	0.001	0.001	0.001	0.001	0.620263	0.233652	0.001	0.0219807	0.001	0.001	0.001	0.001	0.001	0.999	0.001	0.001	0.001	0.001	0.999	0.306178	0.0324177	0.001	0.999	0.0608749	0.001	0.001	0.001	0.0384573	0.001	0.999	0.152926	0.999	0.999	0.999	
3.38	0.001	0.001	0.001	0.001	0.001	0.001	0.001	0.001	0.001	0.001	0.001	0.001	0.001	0.001	0.001	0.001	0.001	0.001	0.001	0.001	0.001	0.001	0.001	0.001	0.001	0.001	0.001	0.001	0.001	0.001	0.001	0.001	0.001	0.001	0.001	0.001	0.001	0.001	0.001	0.000997281	0.00124766	0.001	0.001	0.001	0.001	0.001	0.001	0.001	0.001	0.001	0.618469	0.252745	0.001	0.001	0.162936	0.0716502	0.0841124	0.001	0.001	0.999	0.0513655	0.001	0.001	0.001	0.999	0.310723	0.0289742	0.001	0.999	0.0554843	0.001	0.001	0.001	0.0431954	0.001	0.999	0.153521	0.999	0.999	0.999	
3.385	0.001	0.001	0.001	0.001	0.001	0.001	0.001	0.001	0.001	0.001	0.001	0.001	0.001	0.001	0.001	0.001	0.001	0.001	0.001	0.001	0.001	0.001	0.001	0.001	0.001	0.001	0.001	0.001	0.001	0.001	0.001	0.001	0.001	0.001	0.001	0.001	0.001	0.001	0.001	0.000997281	0.001	0.001	0.001	0.001	0.001	0.001	0.001	0.001	0.001	0.001	0.669992	0.187077	0.001	0.001	0.39922	0.400579	0.162459	0.001	0.001	0.999	0.0261161	0.001	0.00260866	0.001	0.001	0.232174	0.162494	0.001	0.38264	0.0545271	0.001	0.001	0.001	0.0462908	0.001	0.999	0.207299	0.999	0.999	0.999	
3.39	0.001	0.001	0.001	0.001	0.001	0.001	0.001	0.001	0.001	0.001	0.001	0.001	0.001	0.001	0.001	0.001	0.001	0.001	0.001	0.001	0.001	0.001	0.001	0.001	0.001	0.001	0.001	0.001	0.001	0.001	0.001	0.001	0.001	0.001	0.001	0.001	0.001	0.001	0.001	0.000997281	0.001	0.001	0.001	0.001	0.001	0.001	0.001	0.001	0.001	0.001	0.589667	0.241655	0.001	0.0214926	0.32167	0.377763	0.199078	0.001	0.001	0.999	0.0165912	0.001	0.001	0.001	0.001	0.302245	0.11326	0.001	0.0187451	0.0540676	0.001	0.001	0.001	0.0501288	0.001	0.999	0.133636	0.999	0.999	0.999	
3.395	0.001	0.001	0.001	0.001	0.001	0.001	0.001	0.001	0.001	0.001	0.001	0.001	0.001	0.001	0.001	0.001	0.001	0.001	0.001	0.001	0.001	0.001	0.001	0.001	0.001	0.001	0.001	0.001	0.001	0.001	0.001	0.001	0.001	0.001	0.001	0.001	0.001	0.001	0.001	0.000997281	0.001	0.001	0.001	0.001	0.001	0.001	0.001	0.001	0.001	0.001	0.620604	0.249724	0.001	0.001	0.653209	0.791835	0.285782	0.001	0.001	0.999	0.001	0.001	0.001	0.001	0.001	0.329055	0.0352848	0.001	0.001	0.0511204	0.001	0.001	0.0117236	0.05812	0.001	0.999	0.105774	0.999	0.999	0.999	
3.4	0.001	0.001	0.001	0.001	0.001	0.001	0.001	0.001	0.001	0.001	0.001	0.001	0.001	0.001	0.001	0.001	0.001	0.001	0.001	0.001	0.001	0.001	0.001	0.001	0.001	0.001	0.001	0.001	0.001	0.001	0.001	0.001	0.001	0.001	0.001	0.001	0.001	0.001	0.001	0.000997281	0.001	0.001	0.999	0.825027	0.001	0.00119754	0.001	0.001	0.001	0.001	0.613168	0.21483	0.001	0.001	0.999	0.999	0.333838	0.001	0.001	0.999	0.001	0.001	0.001	0.001	0.001	0.291549	0.0304446	0.001	0.001	0.0490231	0.001	0.001	0.163073	0.0652735	0.001	0.999	0.136708	0.947674	0.999	0.999	
3.405	0.001	0.001	0.001	0.001	0.001	0.001	0.001	0.001	0.001	0.001	0.001	0.001	0.001	0.001	0.001	0.001	0.001	0.001	0.001	0.001	0.001	0.001	0.001	0.001	0.001	0.001	0.001	0.001	0.001	0.001	0.001	0.001	0.001	0.001	0.001	0.001	0.001	0.001	0.001	0.000997281	0.001	0.001	0.999	0.999	0.001	0.001	0.001	0.001	0.001	0.001	0.607811	0.25203	0.001	0.0202649	0.999	0.999	0.349657	0.001	0.936119	0.999	0.001	0.001	0.001	0.001	0.001	0.307477	0.0633347	0.001	0.001	0.0482382	0.001	0.001	0.281482	0.0712122	0.001	0.999	0.135164	0.864896	0.999	0.999	
3.41	0.001	0.001	0.001	0.001	0.001	0.001	0.001	0.001	0.001	0.001	0.001	0.001	0.001	0.001	0.001	0.001	0.001	0.001	0.001	0.001	0.001	0.001	0.001	0.001	0.001	0.001	0.001	0.001	0.001	0.001	0.001	0.001	0.001	0.001	0.001	0.001	0.001	0.001	0.001	0.000997281	0.001	0.001	0.999	0.999	0.001	0.001	0.137245	0.001	0.001	0.001	0.607988	0.244105	0.001	0.001	0.999	0.999	0.358661	0.001	0.183433	0.999	0.001	0.001	0.001	0.001	0.001	0.298941	0.0604671	0.001	0.001	0.0478278	0.001	0.001	0.384047	0.0783147	0.001	0.999	0.154242	0.786237	0.999	0.967829	
3.415	0.001	0.001	0.001	0.001	0.001	0.001	0.001	0.001	0.001	0.001	0.001	0.001	0.001	0.001	0.001	0.001	0.001	0.001	0.001	0.001	0.001	0.001	0.001	0.001	0.001	0.001	0.001	0.001	0.001	0.001	0.001	0.001	0.001	0.001	0.001	0.001	0.001	0.001	0.001	0.000997281	0.001	0.001	0.999	0.999	0.001	0.001	0.384794	0.109359	0.001	0.001	0.603772	0.208035	0.001	0.001	0.999	0.999	0.374065	0.001	0.560264	0.999	0.001	0.001	0.001	0.001	0.001	0.25986	0.0484475	0.001	0.001	0.0475455	0.001	0.001	0.475911	0.0841346	0.001	0.999	0.223738	0.727566	0.999	0.896404	
3.42	0.001	0.001	0.001	0.001	0.001	0.001	0.001	0.001	0.001	0.001	0.001	0.001	0.001	0.001	0.001	0.001	0.001	0.001	0.001	0.001	0.001	0.001	0.001	0.001	0.001	0.001	0.001	0.001	0.001	0.001	0.001	0.001	0.001	0.001	0.001	0.001	0.001	0.001	0.001	0.000997281	0.001	0.001	0.999	0.999	0.001	0.001	0.560175	0.218223	0.001	0.001	0.579723	0.173422	0.001	0.0122255	0.999	0.999	0.394391	0.001	0.42441	0.999	0.001	0.001	0.001	0.062244	0.001	0.240347	0.0339576	0.001	0.001	0.0459469	0.001	0.274375	0.559823	0.0900775	0.001	0.999	0.10644	0.680716	0.999	0.835837	
3.425	0.001	0.001	0.001	0.001	0.001	0.001	0.001	0.001	0.001	0.001	0.001	0.001	0.001	0.001	0.001	0.001	0.001	0.001	0.001	0.001	0.001	0.001	0.001	0.001	0.001	0.001	0.001	0.001	0.001	0.001	0.001	0.001	0.001	0.001	0.001	0.001	0.001	0.001	0.001	0.000997281	0.001	0.001	0.999	0.999	0.001	0.001	0.680586	0.328323	0.001	0.001	0.564044	0.138432	0.001	0.00101899	0.986941	0.999	0.412657	0.001	0.648343	0.999	0.001	0.001	0.001	0.417092	0.001	0.218813	0.025765	0.001	0.001	0.0417279	0.001	0.559771	0.632763	0.096096	0.001	0.999	0.117087	0.638237	0.999	0.775021	
3.43	0.001	0.001	0.001	0.001	0.001	0.001	0.001	0.001	0.001	0.001	0.001	0.001	0.001	0.001	0.001	0.001	0.001	0.001	0.001	0.001	0.001	0.001	0.001	0.001	0.001	0.001	0.001	0.001	0.001	0.001	0.001	0.001	0.001	0.001	0.001	0.001	0.001	0.001	0.001	0.000997281	0.001	0.00100215	0.999	0.999	0.001	0.001	0.768489	0.45003	0.001	0.001	0.522409	0.126234	0.001	0.001	0.945809	0.999	0.427195	0.001	0.443654	0.999	0.001	0.001	0.001	0.692763	0.001	0.200646	0.0235803	0.001	0.001	0.0316394	0.001	0.753081	0.697927	0.102968	0.001	0.999	0.185868	0.572968	0.999	0.685125	
3.435	0.001	0.001	0.001	0.001	0.001	0.001	0.001	0.001	0.001	0.001	0.001	0.001	0.001	0.001	0.001	0.001	0.001	0.001	0.001	0.001	0.001	0.001	0.001	0.001	0.001	0.001	0.001	0.001	0.001	0.001	0.001	0.001	0.001	0.001	0.001	0.001	0.001	0.001	0.001	0.000997281	0.001	0.00176125	0.999	0.999	0.001	0.001	0.833778	0.580797	0.001	0.001	0.467836	0.111003	0.001	0.001	0.899317	0.999	0.436022	0.001	0.495453	0.999	0.001	0.001	0.001	0.89201	0.001	0.177583	0.0208471	0.001	0.001	0.0149394	0.001	0.851631	0.756455	0.109914	0.001	0.999	0.161115	0.476489	0.999	0.552379	
3.44	0.001	0.001	0.001	0.001	0.001	0.001	0.001	0.001	0.001	0.001	0.001	0.001	0.001	0.001	0.001	0.001	0.001	0.001	0.001	0.001	0.001	0.001	0.001	0.001	0.001	0.001	0.001	0.001	0.001	0.001	0.001	0.001	0.001	0.001	0.001	0.001	0.001	0.001	0.001	0.000997281	0.001	0.0027661	0.999	0.999	0.001	0.001	0.883807	0.707768	0.001	0.001	0.401045	0.0421239	0.0131638	0.001	0.84777	0.999	0.440375	0.001	0.380128	0.999	0.001	0.001	0.001	0.999	0.001	0.0942323	0.00831672	0.001	0.001	0.001	0.001	0.873947	0.807976	0.117272	0.001	0.999	0.0373699	0.363922	0.999	0.392009	
3.445	0.001	0.001	0.001	0.001	0.001	0.001	0.001	0.001	0.001	0.001	0.001	0.001	0.001	0.001	0.001	0.001	0.001	0.001	0.001	0.001	0.001	0.001	0.001	0.001	0.001	0.001	0.001	0.001	0.001	0.001	0.001	0.001	0.001	0.001	0.001	0.001	0.001	0.001	0.001	0.000997281	0.001	0.00191899	0.999	0.999	0.001	0.001	0.914375	0.787862	0.0072599	0.001	0.0106214	0.00101088	0.127658	0.001	0.794467	0.990816	0.442153	0.001	0.339047	0.999	0.001	0.001	0.001	0.999	0.001	0.0023359	0.001	0.001	0.001	0.001	0.001	0.853348	0.840836	0.127436	0.001	0.866218	0.001	0.312455	0.28953	0.311122	
3.45	0.001	0.001	0.001	0.001	0.001	0.001	0.001	0.001	0.001	0.001	0.001	0.001	0.001	0.001	0.001	0.001	0.001	0.001	0.001	0.001	0.001	0.001	0.001	0.001	0.001	0.001	0.001	0.001	0.001	0.001	0.001	0.001	0.001	0.001	0.001	0.001	0.001	0.001	0.001	0.000997281	0.001	0.001	0.999	0.999	0.001	0.001	0.931058	0.821402	0.706513	0.432891	0.001	0.001	0.134514	0.001	0.73893	0.918063	0.439779	0.001	0.23614	0.999	0.001	0.001	0.001	0.970996	0.001	0.001	0.001	0.001	0.001	0.001	0.001	0.835811	0.854503	0.138968	0.001	0.845818	0.001	0.349054	0.136416	0.34894	
3.455	0.001	0.001	0.001	0.001	0.001	0.001	0.001	0.001	0.001	0.001	0.001	0.001	0.001	0.001	0.001	0.001	0.001	0.001	0.001	0.001	0.001	0.001	0.001	0.001	0.001	0.001	0.001	0.001	0.001	0.001	0.001	0.001	0.001	0.001	0.001	0.001	0.001	0.001	0.001	0.000997281	0.001	0.001	0.999	0.999	0.001	0.001	0.944926	0.85176	0.878108	0.504955	0.001	0.001	0.145189	0.001	0.679481	0.837071	0.433699	0.001	0.137372	0.999	0.001	0.001	0.001	0.906673	0.001	0.001	0.001	0.001	0.001	0.001	0.001	0.832732	0.862676	0.153399	0.001	0.830166	0.001	0.388143	0.173571	0.389247	
3.46	0.001	0.001	0.001	0.001	0.001	0.001	0.001	0.001	0.001	0.001	0.001	0.001	0.001	0.001	0.001	0.001	0.001	0.001	0.001	0.001	0.001	0.001	0.001	0.001	0.001	0.001	0.001	0.001	0.001	0.001	0.001	0.001	0.001	0.001	0.001	0.001	0.001	0.001	0.001	0.000997281	0.001	0.001	0.999	0.999	0.001	0.001	0.955522	0.878672	0.999	0.617736	0.001	0.001	0.137184	0.001	0.615187	0.74818	0.423594	0.001	0.0414915	0.999	0.001	0.001	0.001	0.839942	0.001	0.001	0.001	0.001	0.001	0.001	0.001	0.833947	0.864757	0.17074	0.001	0.653797	0.001	0.428494	0.0800722	0.431233	
3.465	0.001	0.001	0.001	0.001	0.001	0.001	0.001	0.001	0.001	0.001	0.001	0.001	0.001	0.001	0.001	0.001	0.001	0.001	0.001	0.001	0.001	0.001	0.001	0.001	0.001	0.001	0.001	0.001	0.001	0.001	0.001	0.001	0.001	0.001	0.001	0.001	0.001	0.001	0.001	0.000997281	0.001	0.001	0.999	0.94765	0.001	0.001	0.92961	0.901308	0.849642	0.457056	0.001	0.001	0.180014	0.001	0.434607	0.483829	0.361684	0.001	0.811044	0.999	0.001	0.001	0.001	0.702893	0.001	0.001	0.001	0.001	0.001	0.0413513	0.001	0.82956	0.84154	0.191555	0.001	0.873896	0.001	0.470487	0.727891	0.475536	
3.47	0.001	0.001	0.001	0.001	0.001	0.001	0.001	0.001	0.001	0.001	0.001	0.001	0.001	0.001	0.001	0.001	0.001	0.001	0.001	0.001	0.001	0.001	0.001	0.001	0.001	0.001	0.001	0.001	0.001	0.001	0.001	0.001	0.001	0.001	0.001	0.001	0.001	0.001	0.001	0.000997281	0.001	0.001	0.999	0.573513	0.001	0.001	0.940685	0.926516	0.162458	0.0624842	0.001	0.001	0.234728	0.001	0.393161	0.42092	0.354531	0.001	0.232735	0.999	0.001	0.001	0.001	0.657792	0.001	0.001	0.001	0.001	0.001	0.0529965	0.001	0.827907	0.836169	0.215698	0.001	0.935655	0.001	0.48639	0.001	0.479236	
3.475	0.001	0.001	0.001	0.001	0.001	0.001	0.001	0.001	0.001	0.001	0.001	0.001	0.001	0.001	0.001	0.001	0.001	0.001	0.001	0.001	0.001	0.001	0.001	0.001	0.001	0.001	0.001	0.001	0.001	0.001	0.001	0.001	0.001	0.001	0.001	0.001	0.001	0.001	0.001	0.000997281	0.001	0.001	0.522904	0.302374	0.001	0.001	0.9499	0.942637	0.0893643	0.0134192	0.001	0.00135693	0.244944	0.001	0.378194	0.389429	0.354515	0.00179976	0.999	0.999	0.001	0.001	0.457627	0.603723	0.001	0.00129895	0.001	0.001	0.001	0.0688658	0.001	0.819724	0.823258	0.243434	0.001	0.908251	0.00128378	0.534667	0.127898	0.537282	
3.48	0.001	0.001	0.001	0.001	0.001	0.001	0.001	0.001	0.001	0.001	0.001	0.001	0.001	0.001	0.001	0.001	0.001	0.001	0.001	0.001	0.001	0.001	0.001	0.001	0.001	0.001	0.001	0.001	0.001	0.001	0.001	0.001	0.001	0.001	0.001	0.001	0.001	0.001	0.001	0.000997281	0.001	0.001	0.415753	0.255757	0.001	0.001	0.964148	0.958387	0.001	0.001	0.196087	0.0180595	0.285406	0.001	0.392872	0.402003	0.366784	0.0625163	0.999	0.999	0.001	0.001	0.999	0.564296	0.001	0.113263	0.00285088	0.001	0.001	0.0769532	0.001	0.805013	0.807715	0.2746	0.001	0.967015	0.13794	0.562938	0.101016	0.564835	
3.485	0.001	0.001	0.001	0.001	0.001	0.001	0.001	0.001	0.001	0.001	0.001	0.001	0.001	0.001	0.001	0.001	0.001	0.001	0.001	0.001	0.001	0.001	0.001	0.001	0.001	0.001	0.001	0.001	0.001	0.001	0.001	0.001	0.001	0.001	0.001	0.001	0.001	0.001	0.001	0.000997281	0.001	0.001	0.650279	0.437869	0.001	0.001	0.977836	0.96877	0.001	0.001	0.457511	0.138962	0.37716	0.001	0.43457	0.449583	0.388674	0.164139	0.999	0.999	0.001	0.001	0.999	0.52972	0.001	0.667994	0.0216492	0.001	0.001	0.0798971	0.001	0.783547	0.787616	0.308794	0.001	0.999	0.590166	0.586357	0.135716	0.586393	
3.49	0.001	0.001	0.001	0.001	0.001	0.001	0.001	0.001	0.001	0.001	0.001	0.001	0.001	0.001	0.001	0.001	0.001	0.001	0.001	0.001	0.001	0.001	0.001	0.001	0.001	0.001	0.001	0.001	0.001	0.001	0.001	0.001	0.001	0.001	0.001	0.001	0.001	0.001	0.001	0.000997281	0.001	0.001	0.999	0.766772	0.001	0.001	0.989634	0.972353	0.001	0.001	0.537006	0.320053	0.492576	0.001	0.523341	0.552772	0.421157	0.246729	0.999	0.999	0.00220115	0.816032	0.999	0.49402	0.001	0.945501	0.0390701	0.001	0.001	0.0778693	0.001	0.757157	0.764021	0.345579	0.001	0.999	0.447165	0.607289	0.0787949	0.605254	
3.495	0.001	0.001	0.001	0.001	0.001	0.001	0.001	0.001	0.001	0.001	0.001	0.001	0.001	0.001	0.001	0.001	0.001	0.001	0.001	0.001	0.001	0.001	0.001	0.001	0.001	0.001	0.001	0.001	0.001	0.001	0.001	0.001	0.001	0.001	0.001	0.001	0.001	0.001	0.001	0.000997281	0.001	0.001	0.999	0.999	0.001	0.001	0.999	0.969095	0.001	0.001	0.584427	0.497357	0.606788	0.001	0.653986	0.710967	0.468052	0.649815	0.999	0.999	0.001	0.317833	0.999	0.46744	0.001	0.786637	0.0537014	0.001	0.001	0.0673116	0.001	0.729477	0.741204	0.38506	0.001	0.999	0.05222	0.623332	0.0473302	0.617273	
3.5	0.001	0.001	0.001	0.001	0.001	0.001	0.001	0.001	0.001	0.001	0.001	0.001	0.001	0.001	0.001	0.001	0.001	0.001	0.001	0.001	0.001	0.001	0.001	0.001	0.001	0.001	0.001	0.001	0.001	0.001	0.001	0.001	0.001	0.001	0.001	0.001	0.001	0.001	0.001	0.000997281	0.001	0.001	0.999	0.999	0.001	0.001	0.999	0.958403	0.001	0.001	0.6035	0.623821	0.704945	0.001	0.801239	0.894087	0.524324	0.999	0.999	0.999	0.0147403	0.659189	0.999	0.449803	0.001	0.431947	0.0678891	0.001	0.001	0.0524694	0.001	0.701592	0.7202	0.42652	0.001	0.999	0.001	0.634276	0.0133141	0.622321	
3.505	0.001	0.001	0.001	0.001	0.001	0.001	0.001	0.001	0.001	0.001	0.001	0.001	0.001	0.001	0.001	0.001	0.001	0.001	0.001	0.001	0.001	0.001	0.001	0.001	0.001	0.001	0.001	0.001	0.001	0.001	0.001	0.001	0.001	0.001	0.001	0.001	0.001	0.001	0.001	0.000997281	0.001	0.001	0.999	0.999	0.001	0.00118001	0.999	0.940087	0.001	0.001	0.610907	0.688624	0.793144	0.001	0.921519	0.999	0.573181	0.999	0.999	0.999	0.001	0.999	0.999	0.430483	0.001	0.179025	0.0871271	0.001	0.001	0.0424066	0.001	0.670334	0.69774	0.470246	0.001	0.999	0.001	0.621896	0.001	0.593138	
3.51	0.001	0.001	0.001	0.001	0.001	0.001	0.001	0.001	0.001	0.001	0.001	0.001	0.001	0.001	0.001	0.001	0.001	0.001	0.001	0.001	0.001	0.001	0.001	0.001	0.001	0.001	0.001	0.001	0.001	0.001	0.001	0.001	0.001	0.001	0.001	0.001	0.001	0.001	0.001	0.000997281	0.001	0.001	0.999	0.999	0.001	0.001	0.982128	0.915346	0.001	0.001	0.619608	0.717274	0.872143	0.001	0.97832	0.999	0.597956	0.999	0.999	0.999	0.001	0.999	0.999	0.398187	0.001	0.116006	0.072881	0.001	0.001	0.0447217	0.001	0.636833	0.669992	0.515435	0.001	0.999	0.0284852	0.576853	0.001	0.514204	
3.515	0.001	0.001	0.001	0.001	0.001	0.001	0.001	0.001	0.001	0.001	0.001	0.001	0.001	0.001	0.001	0.001	0.001	0.001	0.001	0.001	0.001	0.001	0.001	0.001	0.001	0.001	0.001	0.001	0.001	0.001	0.001	0.001	0.001	0.001	0.001	0.001	0.001	0.001	0.001	0.000997281	0.001	0.001	0.999	0.999	0.001	0.001	0.939559	0.883056	0.001	0.001	0.622241	0.706492	0.928409	0.001	0.949985	0.999	0.59586	0.999	0.999	0.999	0.00603199	0.999	0.999	0.353432	0.001	0.177732	0.0649507	0.001	0.001	0.0661663	0.001	0.602136	0.634309	0.561286	0.001	0.999	0.135176	0.545705	0.001	0.452887	
3.52	0.001	0.001	0.001	0.001	0.001	0.001	0.001	0.001	0.001	0.001	0.001	0.001	0.001	0.001	0.001	0.001	0.001	0.001	0.001	0.001	0.001	0.001	0.001	0.001	0.001	0.001	0.001	0.001	0.001	0.001	0.001	0.001	0.001	0.001	0.001	0.001	0.001	0.001	0.001	0.000997281	0.001	0.001	0.999	0.999	0.001	0.001	0.937511	0.881133	0.001	0.001	0.623062	0.704954	0.928564	0.001	0.947912	0.996821	0.594563	0.999	0.999	0.999	0.00819586	0.999	0.999	0.352662	0.001	0.179521	0.0648114	0.001	0.001	0.0682008	0.001	0.600824	0.632927	0.562242	0.001	0.999	0.134883	0.544517	0.00315431	0.451901	
3.525	0.001	0.001	0.001	0.001	0.001	0.001	0.001	0.001	0.001	0.001	0.001	0.001	0.001	0.001	0.001	0.001	0.001	0.001	0.001	0.001	0.001	0.001	0.001	0.001	0.001	0.001	0.001	0.001	0.001	0.001	0.001	0.001	0.001	0.001	0.001	0.001	0.001	0.001	0.001	0.000997281	0.001	0.001	0.836326	0.785235	0.001	0.001	0.817201	0.800907	0.001	0.001	0.636477	0.61854	0.987782	0.001	0.692239	0.723219	0.532219	0.999	0.999	0.999	0.0010241	0.999	0.999	0.269784	0.001	0.306039	0.055417	0.001	0.001	0.154835	0.001	0.535765	0.548877	0.655012	0.001	0.999	0.113712	0.544705	0.00545461	0.43116	
3.53	0.001	0.001	0.001	0.001	0.001	0.001	0.001	0.001	0.001	0.001	0.001	0.001	0.001	0.001	0.001	0.001	0.001	0.001	0.001	0.001	0.001	0.001	0.001	0.001	0.001	0.001	0.001	0.001	0.001	0.001	0.001	0.001	0.001	0.001	0.001	0.001	0.001	0.001	0.001	0.000997281	0.001	0.001	0.001	0.139598	0.001	0.001	0.757754	0.757162	0.001	0.001	0.592814	0.514033	0.999	0.001	0.534109	0.529057	0.488637	0.999	0.999	0.999	0.001	0.999	0.999	0.254981	0.001	0.424251	0.0459041	0.001	0.001	0.202411	0.001	0.509496	0.513123	0.699344	0.206976	0.999	0.0958567	0.554451	0.00859181	0.444139	
3.535	0.001	0.001	0.001	0.001	0.001	0.001	0.001	0.001	0.001	0.001	0.001	0.001	0.001	0.001	0.001	0.001	0.001	0.001	0.001	0.001	0.001	0.001	0.001	0.001	0.001	0.001	0.001	0.001	0.001	0.001	0.001	0.001	0.001	0.001	0.001	0.001	0.001	0.001	0.001	0.000997281	0.001	0.001	0.001	0.001	0.001	0.001	0.70478	0.706834	0.001	0.001	0.635058	0.5646	0.999	0.001	0.48379	0.473622	0.47113	0.999	0.999	0.00278945	0.001	0.999	0.999	0.245153	0.999	0.365012	0.0409798	0.10235	0.001	0.22529	0.00968894	0.493695	0.494214	0.754906	0.198384	0.999	0.170489	0.556806	0.0119859	0.456914	
3.54	0.001	0.001	0.001	0.001	0.001	0.001	0.001	0.001	0.001	0.001	0.001	0.001	0.001	0.001	0.001	0.001	0.001	0.001	0.001	0.001	0.001	0.001	0.001	0.001	0.001	0.001	0.001	0.001	0.001	0.001	0.001	0.001	0.001	0.001	0.001	0.001	0.001	0.001	0.001	0.000997281	0.001	0.001	0.218475	0.284169	0.001	0.001	0.656914	0.655491	0.001	0.001	0.627175	0.481951	0.999	0.001	0.462982	0.464189	0.458421	0.999	0.999	0.001	0.001	0.999	0.999	0.268596	0.001	0.245019	0.0408019	0.001	0.001	0.236553	0.001	0.48601	0.487682	0.8055	0.0231011	0.999	0.0610812	0.547984	0.0184065	0.459781	
3.545	0.001	0.001	0.001	0.001	0.001	0.001	0.001	0.001	0.001	0.001	0.001	0.001	0.001	0.001	0.001	0.001	0.001	0.001	0.001	0.001	0.001	0.001	0.001	0.001	0.001	0.001	0.001	0.001	0.001	0.001	0.001	0.001	0.001	0.001	0.001	0.001	0.001	0.001	0.001	0.000997281	0.195979	0.001	0.389106	0.291811	0.001	0.001	0.609247	0.608173	0.001	0.001	0.628984	0.418461	0.999	0.001	0.417653	0.419926	0.428829	0.999	0.999	0.001	0.0189711	0.999	0.001	0.284939	0.964765	0.308062	0.0649636	0.001	0.001	0.243344	0.001	0.486551	0.488128	0.855512	0.001	0.999	0.128761	0.512394	0.054389	0.424963	
3.55	0.001	0.001	0.001	0.001	0.001	0.001	0.001	0.001	0.001	0.001	0.001	0.001	0.001	0.001	0.001	0.001	0.001	0.001	0.001	0.001	0.001	0.001	0.001	0.001	0.001	0.001	0.001	0.001	0.001	0.001	0.001	0.001	0.001	0.001	0.001	0.001	0.001	0.001	0.001	0.000997281	0.123346	0.001	0.254919	0.214427	0.001	0.001	0.565208	0.564525	0.001	0.001	0.629864	0.401844	0.999	0.001	0.382069	0.383356	0.391539	0.999	0.999	0.001	0.0430257	0.999	0.001	0.28727	0.999	0.296643	0.0566376	0.00550808	0.001	0.246553	0.001	0.492292	0.493258	0.900363	0.001	0.999	0.127836	0.470708	0.0116876	0.388959	
3.555	0.001	0.001	0.001	0.001	0.001	0.001	0.001	0.001	0.001	0.001	0.001	0.001	0.001	0.001	0.001	0.001	0.001	0.001	0.001	0.001	0.001	0.001	0.001	0.001	0.001	0.001	0.001	0.001	0.001	0.001	0.001	0.001	0.001	0.001	0.001	0.001	0.001	0.001	0.001	0.000997281	0.174829	0.0105548	0.130029	0.140119	0.001	0.001	0.524672	0.524962	0.001	0.001	0.635272	0.389884	0.999	0.001	0.339882	0.339841	0.349027	0.999	0.990539	0.001	0.0401982	0.999	0.001	0.301635	0.999	0.316377	0.0549179	0.00519699	0.001	0.240657	0.001	0.506313	0.507075	0.936474	0.001	0.999	0.151357	0.416033	0.0259006	0.334829	
3.56	0.001	0.001	0.001	0.001	0.001	0.001	0.001	0.001	0.001	0.001	0.001	0.001	0.001	0.001	0.001	0.001	0.001	0.001	0.001	0.001	0.001	0.001	0.001	0.001	0.001	0.001	0.001	0.001	0.001	0.001	0.001	0.001	0.001	0.001	0.001	0.001	0.001	0.001	0.001	0.000997281	0.0898177	0.001	0.218088	0.180473	0.001	0.001	0.493267	0.494293	0.001	0.001	0.630853	0.353152	0.999	0.001	0.300877	0.302164	0.307557	0.999	0.733648	0.001	0.017456	0.999	0.001	0.32048	0.928436	0.328589	0.0689239	0.0116633	0.001	0.22814	0.119571	0.518184	0.519721	0.963081	0.001	0.999	0.132864	0.350995	0.0506767	0.263574	
3.565	0.001	0.001	0.001	0.001	0.001	0.001	0.001	0.001	0.001	0.001	0.001	0.001	0.001	0.001	0.001	0.001	0.001	0.001	0.001	0.001	0.001	0.001	0.001	0.001	0.001	0.001	0.001	0.001	0.001	0.001	0.001	0.001	0.001	0.001	0.001	0.001	0.001	0.001	0.001	0.000997281	0.0557739	0.001	0.346722	0.247727	0.001	0.001	0.4456	0.447481	0.001	0.001	0.657151	0.312813	0.999	0.001	0.250642	0.253551	0.255936	0.999	0.73416	0.001	0.0150354	0.999	0.111515	0.375399	0.781117	0.401225	0.0613128	0.0101596	0.001	0.200514	0.680209	0.550484	0.552789	0.973203	0.001	0.999	0.224969	0.271632	0.0574936	0.179864	
3.57	0.001	0.001	0.001	0.001	0.001	0.001	0.001	0.001	0.001	0.001	0.001	0.001	0.001	0.001	0.001	0.001	0.001	0.001	0.001	0.001	0.001	0.001	0.001	0.001	0.001	0.001	0.001	0.001	0.001	0.001	0.001	0.001	0.001	0.001	0.001	0.001	0.001	0.001	0.001	0.000997281	0.001	0.001	0.119062	0.150918	0.001	0.001	0.434863	0.439982	0.001	0.001	0.633009	0.293658	0.999	0.001	0.205396	0.205349	0.217009	0.999	0.641245	0.001	0.011359	0.999	0.0899588	0.369194	0.999	0.349654	0.115345	0.0081795	0.001	0.187436	0.999	0.537839	0.54027	0.967498	0.001	0.999	0.14656	0.205833	0.0535524	0.0979156	
3.575	0.001	0.001	0.001	0.001	0.001	0.001	0.001	0.001	0.001	0.001	0.001	0.001	0.001	0.001	0.001	0.001	0.001	0.001	0.001	0.001	0.001	0.001	0.001	0.001	0.001	0.001	0.001	0.001	0.001	0.001	0.001	0.001	0.001	0.001	0.001	0.001	0.001	0.001	0.001	0.000997281	0.001	0.001	0.001	0.001	0.001	0.001	0.405557	0.417658	0.001	0.001	0.633897	0.295266	0.999	0.001	0.168177	0.163824	0.178259	0.999	0.999	0.001	0.00636483	0.999	0.0419538	0.423574	0.999	0.282846	0.0975668	0.00384468	0.001	0.160993	0.999	0.539408	0.542759	0.941684	0.001	0.999	0.0924399	0.105045	0.0682232	0.001	
3.58	0.001	0.001	0.001	0.001	0.001	0.001	0.001	0.001	0.001	0.001	0.001	0.001	0.001	0.001	0.001	0.001	0.001	0.001	0.001	0.001	0.001	0.001	0.001	0.001	0.001	0.001	0.001	0.001	0.001	0.001	0.001	0.001	0.001	0.001	0.001	0.001	0.001	0.001	0.001	0.000997281	0.001	0.001	0.001	0.001	0.001	0.001	0.375127	0.395299	0.001	0.001	0.646577	0.286182	0.963689	0.001	0.165069	0.157619	0.142724	0.999	0.999	0.001	0.00578119	0.999	0.032848	0.454264	0.999	0.319097	0.11887	0.00303758	0.001	0.132116	0.999	0.541059	0.54476	0.900617	0.001	0.999	0.179856	0.001	0.0742572	0.001	
3.585	0.001	0.001	0.001	0.001	0.001	0.001	0.001	0.001	0.001	0.001	0.001	0.001	0.001	0.001	0.001	0.001	0.001	0.001	0.001	0.001	0.001	0.001	0.001	0.001	0.001	0.001	0.001	0.001	0.001	0.001	0.001	0.001	0.001	0.001	0.001	0.001	0.001	0.001	0.001	0.000997281	0.001	0.001	0.001	0.001	0.001	0.001	0.370352	0.391646	0.001	0.001	0.636855	0.299306	0.9549	0.001	0.170427	0.162165	0.138135	0.999	0.999	0.001	0.00547577	0.999	0.0480724	0.448211	0.880749	0.331707	0.116689	0.00296175	0.001	0.128818	0.999	0.539162	0.542584	0.892589	0.00659718	0.999	0.194932	0.001	0.0856085	0.001	
3.59	0.001	0.001	0.001	0.001	0.001	0.001	0.001	0.001	0.001	0.001	0.001	0.001	0.001	0.001	0.001	0.001	0.001	0.001	0.001	0.001	0.001	0.001	0.001	0.001	0.001	0.001	0.001	0.001	0.001	0.001	0.001	0.001	0.001	0.001	0.001	0.001	0.001	0.001	0.001	0.000997281	0.001	0.001	0.001	0.001	0.001	0.001	0.306767	0.349051	0.001	0.001	0.656995	0.277719	0.850671	0.001	0.221949	0.18855	0.0639822	0.999	0.999	0.001	0.0762349	0.999	0.108788	0.290063	0.745501	0.3851	0.180263	0.00167193	0.001	0.0915681	0.975833	0.522411	0.51963	0.795651	0.001	0.999	0.262526	0.001	0.0852021	0.001	
3.595	0.001	0.001	0.001	0.001	0.001	0.001	0.001	0.001	0.001	0.001	0.001	0.001	0.001	0.001	0.001	0.001	0.001	0.001	0.001	0.001	0.001	0.001	0.001	0.001	0.001	0.001	0.001	0.001	0.001	0.001	0.001	0.001	0.001	0.001	0.001	0.001	0.001	0.001	0.001	0.000997281	0.001	0.001	0.001	0.001	0.00166267	0.001	0.269719	0.324059	0.001	0.001	0.653646	0.269361	0.78332	0.001	0.280521	0.2304	0.0215624	0.999	0.999	0.001	0.0562058	0.999	0.0466762	0.085212	0.959175	0.398066	0.155558	0.001	0.001	0.0804996	0.96397	0.506565	0.497931	0.731283	0.001	0.999	0.274654	0.001	0.0790695	0.001	
3.6	0.001	0.001	0.001	0.001	0.001	0.001	0.001	0.001	0.001	0.001	0.001	0.001	0.001	0.001	0.001	0.001	0.001	0.001	0.001	0.001	0.001	0.001	0.001	0.001	0.001	0.001	0.001	0.001	0.001	0.001	0.001	0.001	0.001	0.001	0.001	0.001	0.001	0.001	0.001	0.000997281	0.001	0.001	0.001	0.001	0.0121605	0.001	0.233857	0.299539	0.001	0.001	0.656229	0.235938	0.712845	0.001	0.355117	0.290179	0.001	0.999	0.999	0.001	0.00301391	0.999	0.00250401	0.001	0.744499	0.340021	0.117805	0.001	0.001	0.075322	0.95316	0.488363	0.472595	0.663157	0.001	0.843534	0.241318	0.001	0.0694712	0.001	
3.605	0.001	0.001	0.001	0.001	0.001	0.001	0.001	0.001	0.001	0.001	0.001	0.001	0.001	0.001	0.001	0.001	0.001	0.001	0.001	0.001	0.001	0.001	0.001	0.001	0.001	0.001	0.001	0.001	0.001	0.001	0.001	0.001	0.001	0.001	0.001	0.001	0.001	0.001	0.001	0.000997281	0.001	0.001	0.001	0.001	0.001	0.001	0.199156	0.276605	0.001	0.001	0.637575	0.216827	0.640333	0.001	0.441352	0.364284	0.001	0.999	0.999	0.001	0.00266609	0.999	0.00222711	0.001	0.77584	0.314876	0.10868	0.001	0.001	0.0737047	0.94243	0.468322	0.444484	0.591615	0.001	0.668635	0.293764	0.001	0.0573452	0.001	
3.61	0.001	0.001	0.001	0.001	0.001	0.001	0.001	0.001	0.001	0.001	0.001	0.001	0.001	0.001	0.001	0.001	0.001	0.001	0.001	0.001	0.001	0.001	0.001	0.001	0.001	0.001	0.001	0.001	0.001	0.001	0.001	0.001	0.001	0.001	0.001	0.001	0.001	0.001	0.001	0.000997281	0.001	0.001	0.001	0.001	0.001	0.001	0.168393	0.256902	0.001	0.001	0.651798	0.188961	0.572152	0.001	0.531085	0.448119	0.001	0.999	0.999	0.001	0.049015	0.999	0.088388	0.001	0.668809	0.299101	0.0986821	0.001	0.001	0.0812872	0.932707	0.447135	0.414717	0.522388	0.001	0.565988	0.255385	0.001	0.0916471	0.001	
3.615	0.001	0.001	0.001	0.001	0.001	0.001	0.001	0.001	0.001	0.001	0.001	0.001	0.001	0.001	0.001	0.001	0.001	0.001	0.001	0.001	0.001	0.001	0.001	0.001	0.001	0.001	0.001	0.001	0.001	0.001	0.001	0.001	0.001	0.001	0.001	0.001	0.001	0.001	0.001	0.000997281	0.001	0.001	0.001	0.012984	0.0124876	0.001	0.139396	0.237359	0.001	0.001	0.62411	0.175432	0.503977	0.001	0.620308	0.541851	0.001	0.999	0.999	0.001	0.102651	0.999	0.0949132	0.001	0.580106	0.280598	0.092087	0.001	0.001	0.0983868	0.924475	0.420599	0.379384	0.45351	0.001	0.449051	0.298879	0.001	0.001	0.001	
3.62	0.001	0.001	0.001	0.001	0.001	0.001	0.001	0.001	0.001	0.001	0.001	0.001	0.001	0.001	0.001	0.001	0.001	0.001	0.001	0.001	0.001	0.001	0.001	0.001	0.001	0.001	0.001	0.001	0.001	0.001	0.001	0.001	0.001	0.001	0.001	0.001	0.001	0.001	0.001	0.000997281	0.001	0.001	0.001	0.001	0.001	0.001	0.111152	0.220343	0.001	0.001	0.641064	0.115275	0.439792	0.001	0.710097	0.645163	0.001	0.999	0.999	0.001	0.001	0.999	0.001	0.001	0.465083	0.246025	0.0688186	0.001	0.001	0.115936	0.915678	0.393511	0.341491	0.387215	0.001	0.333166	0.247714	0.00631136	0.001	0.001	
3.625	0.001	0.001	0.001	0.001	0.001	0.001	0.001	0.001	0.001	0.001	0.001	0.001	0.001	0.001	0.001	0.001	0.001	0.001	0.001	0.001	0.001	0.001	0.001	0.001	0.001	0.001	0.001	0.001	0.001	0.001	0.001	0.001	0.001	0.001	0.001	0.001	0.001	0.001	0.001	0.000997281	0.001	0.001	0.001	0.001	0.001	0.001	0.0648278	0.192521	0.001	0.001	0.378328	0.0216135	0.369273	0.001	0.719109	0.625957	0.001	0.999	0.999	0.001	0.001	0.999	0.001	0.001	0.999	0.0540063	0.0131986	0.001	0.001	0.160713	0.908456	0.323651	0.270678	0.325512	0.001	0.191544	0.069184	0.00315966	0.001	0.001	
3.63	0.001	0.001	0.001	0.001	0.001	0.001	0.001	0.001	0.001	0.001	0.001	0.001	0.001	0.001	0.001	0.001	0.001	0.001	0.001	0.001	0.001	0.001	0.001	0.001	0.001	0.001	0.001	0.001	0.001	0.001	0.001	0.001	0.001	0.001	0.001	0.001	0.001	0.001	0.001	0.000997281	0.001	0.001	0.001	0.001	0.0170393	0.001	0.0537795	0.183066	0.001	0.001	0.436309	0.0191306	0.320906	0.001	0.861493	0.853682	0.001	0.999	0.999	0.001	0.0375573	0.999	0.107848	0.001	0.290052	0.153907	0.0117212	0.001	0.001	0.179439	0.901984	0.313794	0.24484	0.267804	0.001	0.169698	0.171069	0.001	0.0155486	0.001	
