CEINMS output
datacolumns 81
datarows 92
endheader
time	addbrev_r	addlong_r	addmagDist_r	addmagIsch_r	addmagMid_r	addmagProx_r	bflh_r	bfsh_r	edl_r	ehl_r	fdl_r	fhl_r	gaslat_r	gasmed_r	glmax1_r	glmax2_r	glmax3_r	glmed1_r	glmed2_r	glmed3_r	glmin1_r	glmin2_r	glmin3_r	grac_r	iliacus_r	perbrev_r	perlong_r	piri_r	psoas_r	recfem_r	sart_r	semimem_r	semiten_r	soleus_r	tfl_r	tibant_r	tibpost_r	vasint_r	vaslat_r	vasmed_r	addbrev_l	addlong_l	addmagDist_l	addmagIsch_l	addmagMid_l	addmagProx_l	bflh_l	bfsh_l	edl_l	ehl_l	fdl_l	fhl_l	gaslat_l	gasmed_l	glmax1_l	glmax2_l	glmax3_l	glmed1_l	glmed2_l	glmed3_l	glmin1_l	glmin2_l	glmin3_l	grac_l	iliacus_l	perbrev_l	perlong_l	piri_l	psoas_l	recfem_l	sart_l	semimem_l	semiten_l	soleus_l	tfl_l	tibant_l	tibpost_l	vasint_l	vaslat_l	vasmed_l	
3.19	5.25622e-05	0.000773534	0.00016652	8.78867e-05	4.43359e-05	5.80862e-05	0.000914131	0.000462873	0.000262921	0.000135634	0.000424936	0.000438306	0.000917762	0.00140491	0.00213725	0.00204146	0.00195583	0.00213877	0.00212431	0.00190726	0.000448302	0.00213027	0.00188348	0.000181635	0.000348778	0.00041468	0.000219886	0.00202193	0.000132482	0.000116513	6.46323e-05	0.00216718	0.0011681	0.000901844	5.62209e-05	8.96996e-05	0.000568391	0.000261346	0.000128386	0.000122691	0.000248659	0.000248659	0.247057	0.247057	0.247057	0.000248659	0.00271504	0.00186232	0.000968885	0.000739262	0.399798	0.000390722	0.0062404	0.000248659	0.0122172	0.00921544	0.00231798	0.872914	0.924278	0.00133329	0.445186	0.821272	0.000862863	0.0146918	0.000284681	0.0036464	9.26806e-05	0.000267727	0.000776532	0.000752928	0.65495	0.0101508	0.00270619	0.0118191	0.000248659	0.00040344	0.0205581	2.55801e-05	0.000998959	3.03582e-05	
3.195	0.000143169	0.00119938	0.0003875	0.000222473	0.000117934	0.000157914	0.00168795	0.00101731	0.000562033	0.000321892	0.000796865	0.000787985	0.0014989	0.00191979	0.0027885	0.00268745	0.00260659	0.00285819	0.00272277	0.00259835	0.000793858	0.00286018	0.00258216	0.000430155	0.000799858	0.00075472	0.000470716	0.0026465	0.000313226	0.000301267	0.000174491	0.00269349	0.00182472	0.0014769	0.000151563	0.000225198	0.000976726	0.000559261	0.000307226	0.000294488	0.000500749	0.000500749	0.494782	0.494782	0.494782	0.247307	0.00786184	0.0042737	0.00106577	0.0009611	0.390817	0.00178451	0.0177345	0.000500749	0.0339374	0.0258762	0.00443768	0.742277	0.993503	0.00149903	0.312617	0.15406	0.0010073	0.0282823	0.00055606	0.0167228	0.000413651	0.000532862	0.000993041	0.00101606	0.887549	0.0284059	0.0078367	0.0236624	0.000500749	0.000698711	0.0666899	6.86385e-05	0.00109884	8.10598e-05	
3.2	0.00280274	0.00147286	0.00147114	0.00160169	0.00154203	0.00297016	0.00274905	0.00287831	0.00141435	0.00138138	0.00134373	0.00121313	0.00196544	0.00210627	0.00297486	0.0028816	0.0028146	0.00309139	0.00287842	0.00284492	0.0011869	0.00310268	0.00283922	0.00182083	0.00279444	0.00119134	0.00119131	0.00282847	0.00131167	0.00271723	0.0029309	0.00280785	0.00226037	0.00194393	0.00244934	0.00149871	0.00138435	0.00141335	0.00139406	0.00136473	0.00102267	0.00102267	0.999022	0.999022	0.999022	0.474172	0.996661	0.689409	0.00107355	0.00102332	0.260043	0.0554436	0.993145	0.00102267	0.990005	0.993019	0.505354	0.657641	0.545997	0.00151596	0.303626	0.0898526	0.0010277	0.586472	0.00103947	0.127233	0.0328557	0.00105049	0.0010485	0.00110554	0.978305	0.98887	0.9963	0.0642478	0.00102267	0.00100354	0.464196	0.00103384	0.00110687	0.00113001	
3.205	0.00280274	0.00147286	0.00147114	0.00160169	0.00154203	0.00297016	0.00274905	0.00287831	0.00141435	0.00138138	0.00134373	0.00121313	0.00196544	0.00210627	0.00297486	0.0028816	0.0028146	0.00309139	0.00287842	0.00284492	0.0011869	0.00310268	0.00283922	0.00182083	0.00279444	0.00119134	0.00119131	0.00282847	0.00131167	0.00271723	0.0029309	0.00280785	0.00226037	0.00194393	0.00244934	0.00149871	0.00138435	0.00141335	0.00139406	0.00136473	0.247823	0.247823	0.760478	0.760478	0.760478	0.394845	0.992046	0.687417	0.167974	0.0728408	0.0620942	0.0542979	0.982589	0.00102267	0.970814	0.97899	0.503283	0.441656	0.0647774	0.00151596	0.584373	0.833748	0.0010277	0.592336	0.282125	0.117541	0.0326007	0.00105049	0.749243	0.00110554	0.987174	0.970651	0.991183	0.0588452	0.00102267	0.047313	0.433421	0.00103384	0.00110687	0.00113001	
3.21	0.00280274	0.00147286	0.00147114	0.00160169	0.00154203	0.00297016	0.00274905	0.00287831	0.00141435	0.00138138	0.00134373	0.00121313	0.00196544	0.00210627	0.00297486	0.0028816	0.0028146	0.00309139	0.00287842	0.00284492	0.0011869	0.00310268	0.00283922	0.00182083	0.00279444	0.00119134	0.00119131	0.00282847	0.00131167	0.00271723	0.0029309	0.00280785	0.00226037	0.00194393	0.00244934	0.00149871	0.00138435	0.00141335	0.00139406	0.00136473	0.495293	0.495293	0.515962	0.515962	0.515962	0.430869	0.985316	0.684569	0.117506	0.0525879	0.012777	0.0528759	0.968301	0.00102267	0.943802	0.958512	0.500247	0.185462	0.00647776	0.00151596	0.796648	0.975943	0.0010277	0.599676	0.544558	0.106355	0.0323102	0.00105049	0.948608	0.00110554	0.994411	0.946076	0.983976	0.0521295	0.00102267	0.0749206	0.396217	0.00103384	0.00110687	0.00113001	
3.215	0.00280274	0.00147286	0.00147114	0.00160169	0.00154203	0.00297016	0.00274905	0.00287831	0.00141435	0.00138138	0.00134373	0.00121313	0.00196544	0.00210627	0.00297486	0.0028816	0.0028146	0.00309139	0.00287842	0.00284492	0.0011869	0.00310268	0.00283922	0.00182083	0.00279444	0.00119134	0.00119131	0.00282847	0.00131167	0.00271723	0.0029309	0.00280785	0.00226037	0.00194393	0.00244934	0.00149871	0.00138435	0.00141335	0.00139406	0.00136473	0.681632	0.652333	0.328222	0.328222	0.328222	0.511201	0.976705	0.680942	0.0574171	0.0258597	0.00522276	0.0511713	0.951016	0.00102267	0.910941	0.932954	0.496348	0.0606751	0.00175097	0.00547641	0.908481	0.996112	0.0010277	0.608052	0.728956	0.0945314	0.0319484	0.00148103	0.989809	0.00110554	0.997601	0.916611	0.974907	0.0452479	0.00102267	0.0908154	0.356136	0.00118845	0.00110687	0.00113001	
3.22	0.00280274	0.00147286	0.00147114	0.00160169	0.00154203	0.00297016	0.00274905	0.00287831	0.00141435	0.00138138	0.00134373	0.00121313	0.00196544	0.00210627	0.00297486	0.0028816	0.0028146	0.00309139	0.00287842	0.00284492	0.0011869	0.00310268	0.00283922	0.00182083	0.00279444	0.00119134	0.00119131	0.00282847	0.00131167	0.00271723	0.0029309	0.00280785	0.00226037	0.00194393	0.00244934	0.00149871	0.00138435	0.00141335	0.00139406	0.00136473	0.806687	0.678964	0.200434	0.200434	0.200434	0.58351	0.966465	0.676612	0.0164244	0.00808232	0.00226105	0.0491882	0.931541	0.00102267	0.87386	0.90348	0.491677	0.00950285	0.00141273	0.0239378	0.960505	0.840564	0.00117616	0.617095	0.844774	0.0826521	0.0314886	0.00521947	0.99745	0.00110554	0.998761	0.883491	0.96422	0.0379847	0.00102267	0.104089	0.315665	0.00156473	0.00110687	0.00113001	
3.225	0.00280274	0.00147286	0.00147114	0.00160169	0.00154203	0.00297016	0.00274905	0.00287831	0.00141435	0.00138138	0.00134373	0.00121313	0.00196544	0.00210627	0.00297486	0.0028816	0.0028146	0.00309139	0.00287842	0.00284492	0.0011869	0.00310268	0.00283922	0.00182083	0.00279444	0.00119134	0.00119131	0.00282847	0.00131167	0.00271723	0.0029309	0.00280785	0.00226037	0.00194393	0.00244934	0.00149871	0.00138435	0.00141335	0.00139406	0.00136473	0.885558	0.686148	0.119087	0.119087	0.119087	0.630604	0.954765	0.671641	0.00246869	0.00258293	0.0642842	0.047103	0.910489	0.00102267	0.833896	0.871076	0.48632	0.00215756	0.00138998	0.00579848	0.983192	0.519637	0.00463763	0.626109	0.913283	0.0722929	0.0309709	0.00552247	0.998781	0.00110554	0.999152	0.848568	0.952141	0.0310827	0.00102267	0.114256	0.277265	0.00215547	0.00110687	0.00113001	
3.23	0.00280274	0.00147286	0.00147114	0.00160169	0.00154203	0.00297016	0.00274905	0.00287831	0.00141435	0.00138138	0.00134373	0.00121313	0.00196544	0.00210627	0.00297486	0.0028816	0.0028146	0.00309139	0.00287842	0.00284492	0.0011869	0.00310268	0.00283922	0.00182083	0.00279444	0.00119134	0.00119131	0.00282847	0.00131167	0.00271723	0.0029309	0.00280785	0.00226037	0.00194393	0.00244934	0.00149871	0.00138435	0.00141335	0.00139406	0.00136473	0.933395	0.69957	0.0694605	0.0694605	0.0694605	0.687357	0.941741	0.666087	0.00117466	0.00133255	0.143076	0.0451622	0.888395	0.00102267	0.792143	0.836578	0.480355	0.0013158	0.0013885	0.00196285	0.99269	0.187757	0.0125805	0.634712	0.952308	0.0652425	0.0304701	0.00445727	0.999004	0.00110554	0.999278	0.813184	0.938857	0.0249238	0.00102267	0.126343	0.243921	0.00281771	0.00110687	0.00113001	
3.235	0.00280274	0.00147286	0.00147114	0.00160169	0.00154203	0.00297016	0.00274905	0.00287831	0.00141435	0.00138138	0.00134373	0.00121313	0.00196544	0.00210627	0.00297486	0.0028816	0.0028146	0.00309139	0.00287842	0.00284492	0.0011869	0.00310268	0.00283922	0.00182083	0.00279444	0.00119134	0.00119131	0.00282847	0.00131167	0.00271723	0.0029309	0.00280785	0.00226037	0.00194393	0.00244934	0.00149871	0.00138435	0.00141335	0.00139406	0.00136473	0.961636	0.723752	0.0400608	0.0400608	0.0400608	0.778055	0.927529	0.66001	0.00108017	0.00108104	0.197642	0.0435313	0.865813	0.00102267	0.749486	0.800685	0.473856	0.00122823	0.00138841	0.00155514	0.996555	0.0314055	0.00723109	0.643721	0.973961	0.0631292	0.0299974	0.00332794	0.99904	0.00110554	0.999318	0.778368	0.924552	0.0196327	0.00102267	0.174167	0.219674	0.00324245	0.00110687	0.00113001	
3.24	0.00280274	0.00147286	0.00147114	0.00160169	0.00154203	0.00297016	0.00274905	0.00287831	0.00141435	0.00138138	0.00134373	0.00121313	0.00196544	0.00210627	0.00297486	0.0028816	0.0028146	0.00309139	0.00287842	0.00284492	0.0011869	0.00310268	0.00283922	0.00182083	0.00279444	0.00119134	0.00119131	0.00282847	0.00131167	0.00271723	0.0029309	0.00280785	0.00226037	0.00194393	0.00244934	0.00149871	0.00138435	0.00141335	0.00139406	0.00136473	0.97798	0.750361	0.0230115	0.0230115	0.0230115	0.855175	0.912265	0.653459	0.00107396	0.00103369	0.255675	0.0424106	0.843205	0.00102267	0.706637	0.763983	0.466889	0.00121959	0.0013884	0.00151912	0.859771	0.0050761	0.0019854	0.653901	0.985745	0.0663572	0.0296193	0.011122	0.999046	0.00110554	0.999331	0.744805	0.909376	0.0153148	0.247823	0.269825	0.206752	0.00348853	0.00110687	0.00113001	
3.245	0.00280274	0.00147286	0.00147114	0.00160169	0.00154203	0.00297016	0.00274905	0.00287831	0.00141435	0.00138138	0.00134373	0.00121313	0.00196544	0.00210627	0.00297486	0.0028816	0.0028146	0.00309139	0.00287842	0.00284492	0.0011869	0.00310268	0.00283922	0.00182083	0.00279444	0.00119134	0.00119131	0.00282847	0.00131167	0.00271723	0.0029309	0.00280785	0.00226037	0.00194393	0.00244934	0.00149871	0.00138435	0.00141335	0.00139406	0.00136473	0.987295	0.77633	0.013283	0.013283	0.013283	0.909979	0.896078	0.646488	0.00107357	0.00102514	0.294987	0.0419499	0.820893	0.00102267	0.664158	0.726958	0.459515	0.00121876	0.0013884	0.0015162	0.547614	0.00150092	0.0189332	0.664583	0.992061	0.074741	0.0293895	0.0104668	0.999047	0.00110554	0.999335	0.712625	0.89347	0.0119677	0.495293	0.344078	0.205447	0.00360203	0.00110687	0.00113001	
3.25	0.00280274	0.00147286	0.00147114	0.00160169	0.00154203	0.00297016	0.00274905	0.00287831	0.00141435	0.00138138	0.00134373	0.00121313	0.00196544	0.00210627	0.00297486	0.0028816	0.0028146	0.00309139	0.00287842	0.00284492	0.0011869	0.00310268	0.00283922	0.00182083	0.00279444	0.00119134	0.00119131	0.00282847	0.00131167	0.00271723	0.0029309	0.00280785	0.00226037	0.00194393	0.00244934	0.00149871	0.00138435	0.00141335	0.00139406	0.00136473	0.992539	0.805771	0.00780188	0.00780188	0.00780188	0.945708	0.879105	0.639137	0.00107355	0.00102364	0.331708	0.0422909	0.799042	0.00102267	0.622491	0.69001	0.451791	0.00121868	0.0013884	0.00151597	0.280141	0.00105902	0.00401945	0.674926	0.995407	0.0882433	0.0293382	0.00790716	0.999047	0.030893	0.999336	0.681368	0.876946	0.00944779	0.681632	0.381498	0.215	0.00388892	0.00110687	0.00113001	
3.255	0.00280274	0.00147286	0.00147114	0.00160169	0.00154203	0.00297016	0.00274905	0.00287831	0.00141435	0.00138138	0.00134373	0.00121313	0.00196544	0.00210627	0.00297486	0.0028816	0.0028146	0.00309139	0.00287842	0.00284492	0.0011869	0.00310268	0.00283922	0.00182083	0.00279444	0.00119134	0.00119131	0.00282847	0.00131167	0.00271723	0.0029309	0.00280785	0.00226037	0.00194393	0.00244934	0.00149871	0.00138435	0.00141335	0.00139406	0.00136473	0.995463	0.839735	0.00474504	0.00474504	0.00474504	0.967849	0.861472	0.631432	0.00107355	0.00102338	0.368434	0.0435442	0.77768	0.00102267	0.581975	0.653466	0.443769	0.00121868	0.0013884	0.00151596	0.129062	0.00100714	0.0014032	0.684541	0.997161	0.105848	0.0295169	0.0123445	0.999047	0.125977	0.999336	0.650254	0.859884	0.00747576	0.806687	0.411033	0.23188	0.00422496	0.00110687	0.00113001	
3.26	0.00280274	0.00147286	0.00147114	0.00160169	0.00154203	0.00297016	0.00274905	0.00287831	0.00141435	0.00138138	0.00134373	0.00121313	0.00196544	0.00210627	0.00297486	0.0028816	0.0028146	0.00309139	0.00287842	0.00284492	0.0011869	0.00310268	0.00283922	0.00182083	0.00279444	0.00119134	0.00119131	0.00282847	0.00131167	0.00271723	0.0029309	0.00280785	0.00226037	0.00194393	0.00244934	0.00149871	0.00138435	0.00141335	0.00139406	0.00136473	0.99708	0.878367	0.00305446	0.00305446	0.00305446	0.981116	0.843295	0.623396	0.00107355	0.00102333	0.401578	0.0457512	0.756755	0.00102267	0.542863	0.617589	0.435495	0.00121868	0.0013884	0.00151596	0.056235	0.00100124	0.00106962	0.693245	0.998074	0.126269	0.0299484	0.0105554	0.999047	0.227428	0.999337	0.618504	0.842351	0.00631197	0.885558	0.441398	0.251967	0.00458611	0.00110687	0.00113001	
3.265	0.00280274	0.00147286	0.00147114	0.00160169	0.00154203	0.00297016	0.00274905	0.00287831	0.00141435	0.00138138	0.00134373	0.00121313	0.00196544	0.00210627	0.00297486	0.0028816	0.0028146	0.00309139	0.00287842	0.00284492	0.0011869	0.00310268	0.00283922	0.00182083	0.00279444	0.00119134	0.00119131	0.00282847	0.00131167	0.00271723	0.0029309	0.00280785	0.00226037	0.00194393	0.00244934	0.00149871	0.00138435	0.00141335	0.00139406	0.00136473	0.997967	0.917667	0.00212604	0.00212604	0.00212604	0.988878	0.824677	0.615046	0.00107355	0.00102333	0.429975	0.048876	0.736158	0.00102267	0.505338	0.582587	0.427014	0.00121868	0.0013884	0.00151596	0.0239289	0.00100058	0.0185814	0.70088	0.998545	0.148087	0.0306271	0.00769507	0.999047	0.308544	0.999337	0.586562	0.824407	0.00606138	0.919686	0.473947	0.271302	0.00476197	0.00110687	0.00113001	
3.27	0.00280274	0.00147286	0.00147114	0.00160169	0.00154203	0.00297016	0.00274905	0.00287831	0.00141435	0.00138138	0.00134373	0.00121313	0.00196544	0.00210627	0.00297486	0.0028816	0.0028146	0.00309139	0.00287842	0.00284492	0.0011869	0.00310268	0.00283922	0.00182083	0.00279444	0.00119134	0.00119131	0.00282847	0.00131167	0.00271723	0.0029309	0.00280785	0.00226037	0.00194393	0.00244934	0.00149871	0.00138435	0.00141335	0.00139406	0.00136473	0.998452	0.947554	0.0016192	0.0016192	0.0016192	0.993339	0.805714	0.606399	0.00107355	0.00102332	0.455868	0.0528421	0.715752	0.00102267	0.469526	0.548623	0.418366	0.00121868	0.0013884	0.00151596	0.010294	0.00100051	0.00396692	0.707214	0.998787	0.16986	0.0315702	0.0126007	0.999047	0.352655	0.999337	0.554788	0.806096	0.00621032	0.823052	0.508547	0.287047	0.00480006	0.00110687	0.00113001	
3.275	0.00280274	0.00147286	0.00147114	0.00160169	0.00154203	0.00297016	0.00274905	0.00287831	0.00141435	0.00138138	0.00134373	0.00121313	0.00196544	0.00210627	0.00297486	0.0028816	0.0028146	0.00309139	0.00287842	0.00284492	0.0011869	0.00310268	0.00283922	0.00182083	0.00279444	0.00119134	0.00119131	0.00282847	0.00131167	0.00271723	0.0029309	0.00280785	0.00226037	0.00194393	0.00244934	0.00149871	0.00138435	0.00141335	0.00139406	0.00136473	0.998715	0.967748	0.00134392	0.00134392	0.00134392	0.995867	0.786492	0.597464	0.00107355	0.00102332	0.475784	0.0575049	0.695348	0.00102267	0.435504	0.51582	0.409585	0.00121868	0.0013884	0.00151596	0.00472414	0.0010005	0.00139687	0.711821	0.998911	0.19027	0.0327483	0.0108611	0.999047	0.364179	0.999337	0.523473	0.787463	0.00677834	0.600838	0.544981	0.297264	0.00475178	0.00110687	0.00113001	
3.28	0.00280274	0.00147286	0.00147114	0.00160169	0.00154203	0.00297016	0.00274905	0.00287831	0.00141435	0.00138138	0.00134373	0.00121313	0.00196544	0.00210627	0.00297486	0.0028816	0.0028146	0.00309139	0.00287842	0.00284492	0.0011869	0.00310268	0.00283922	0.00182083	0.00279444	0.00119134	0.00119131	0.00282847	0.00131167	0.00271723	0.0029309	0.00280785	0.00226037	0.00194393	0.00244934	0.00149871	0.00138435	0.00141335	0.00139406	0.00136473	0.998857	0.98054	0.00119508	0.00119508	0.00119508	0.997284	0.76709	0.58825	0.00107355	0.00102332	0.491737	0.0626832	0.674725	0.00102267	0.403313	0.484268	0.400706	0.00121868	0.0013884	0.00151596	0.00250043	0.0010005	0.00106893	0.713581	0.998974	0.208373	0.0341379	0.00793509	0.999047	0.348464	0.999337	0.492846	0.768592	0.00750081	0.398634	0.583099	0.301584	0.00467715	0.00110687	0.00113001	
3.285	0.00280274	0.00147286	0.00147114	0.00160169	0.00154203	0.00297016	0.00274905	0.00287831	0.00141435	0.00138138	0.00134373	0.00121313	0.00196544	0.00210627	0.00297486	0.0028816	0.0028146	0.00309139	0.00287842	0.00284492	0.0011869	0.00310268	0.00283922	0.00182083	0.00279444	0.00119134	0.00119131	0.00282847	0.00131167	0.00271723	0.0029309	0.00280785	0.00226037	0.00194393	0.00244934	0.00149871	0.00138435	0.00141335	0.00139406	0.00136473	0.998934	0.98832	0.00111491	0.00111491	0.00111491	0.99807	0.747579	0.578768	0.00107355	0.00102332	0.503356	0.0681499	0.653732	0.00102267	0.372962	0.45403	0.391759	0.00121868	0.0013884	0.00151596	0.0016276	0.0010005	0.00103202	0.711409	0.999006	0.223535	0.0356816	0.0137876	0.999047	0.316677	0.999337	0.463088	0.749557	0.0085945	0.333609	0.62225	0.300598	0.00460024	0.00110687	0.00113001	
3.29	0.00280274	0.00147286	0.00147114	0.00160169	0.00154203	0.00297016	0.00274905	0.00287831	0.00141435	0.00138138	0.00134373	0.00121313	0.00196544	0.00210627	0.00297486	0.0028816	0.0028146	0.00309139	0.00287842	0.00284492	0.0011869	0.00310268	0.00283922	0.00182083	0.00279444	0.00119134	0.00119131	0.00282847	0.00131167	0.00271723	0.0029309	0.00280785	0.00226037	0.00194393	0.00244934	0.00149871	0.00138435	0.00141335	0.00139406	0.00136473	0.998975	0.992922	0.00107188	0.00107188	0.00107188	0.998504	0.728023	0.569042	0.00107355	0.00102332	0.510317	0.0736768	0.632441	0.00102267	0.344436	0.425143	0.382771	0.00121868	0.0013884	0.00151596	0.00128947	0.0010005	0.00102813	0.704936	0.999022	0.235376	0.0373233	0.011978	0.999047	0.29173	0.999337	0.434334	0.730427	0.009655	0.461944	0.662409	0.295548	0.00627239	0.787365	0.0111229	
3.295	0.00280274	0.00147286	0.00147114	0.00160169	0.00154203	0.00297016	0.00274905	0.00287831	0.00141435	0.00138138	0.00134373	0.00121313	0.00196544	0.00210627	0.00297486	0.0028816	0.0028146	0.00309139	0.00287842	0.00284492	0.0011869	0.00310268	0.00283922	0.00182083	0.00279444	0.00119134	0.00119131	0.00282847	0.00131167	0.00271723	0.0029309	0.00280785	0.00226037	0.00194393	0.00244934	0.00149871	0.00138435	0.00141335	0.00139406	0.00136473	0.998997	0.995587	0.00104886	0.00104886	0.00104886	0.998741	0.70848	0.559109	0.00107355	0.00102332	0.512702	0.0790271	0.611036	0.00102267	0.3177	0.397627	0.373767	0.00121868	0.0013884	0.00151596	0.00115985	0.0010005	0.00102774	0.693905	0.99903	0.243703	0.0390017	0.0087503	0.999047	0.273591	0.999337	0.406683	0.711263	0.0106829	0.626404	0.702646	0.287809	0.0160252	0.980632	0.034498	
3.3	0.00280274	0.00147286	0.00147114	0.00160169	0.00154203	0.00297016	0.00274905	0.00287831	0.00141435	0.00138138	0.00134373	0.00121313	0.00196544	0.00210627	0.00297486	0.0028816	0.0028146	0.00309139	0.00287842	0.00284492	0.0011869	0.00310268	0.00283922	0.00182083	0.00279444	0.00119134	0.00119131	0.00282847	0.00131167	0.00271723	0.0029309	0.00280785	0.00226037	0.00194393	0.00244934	0.00149871	0.00138435	0.00141335	0.00139406	0.00136473	0.999009	0.997107	0.00103658	0.00103658	0.00103658	0.998871	0.689001	0.549002	0.00107355	0.00102332	0.509919	0.0840095	0.58967	0.00102267	0.292705	0.371486	0.364768	0.00121868	0.0013884	0.00151596	0.00111059	0.0010005	0.0010277	0.677632	0.999034	0.248603	0.0406576	0.0152005	0.999047	0.266667	0.999337	0.380206	0.69212	0.0116779	0.759476	0.74263	0.278536	0.0327597	0.997774	0.0675203	
3.305	0.00280274	0.00147286	0.00147114	0.00160169	0.00154203	0.00297016	0.00274905	0.00287831	0.00141435	0.00138138	0.00134373	0.00121313	0.00196544	0.00210627	0.00297486	0.0028816	0.0028146	0.00309139	0.00287842	0.00284492	0.0011869	0.00310268	0.00283922	0.00182083	0.00279444	0.00119134	0.00119131	0.00282847	0.00131167	0.00271723	0.0029309	0.00280785	0.00226037	0.00194393	0.00244934	0.00149871	0.00138435	0.00141335	0.00139406	0.00136473	0.999015	0.997963	0.00103004	0.00103004	0.00103004	0.998941	0.669633	0.538757	0.00107355	0.00102332	0.502183	0.0884217	0.56856	0.00102267	0.269391	0.346708	0.355797	0.00121868	0.0013884	0.00151596	0.001092	0.0010005	0.0010277	0.655354	0.999036	0.250121	0.0422266	0.0131777	0.999047	0.259115	0.999337	0.354946	0.673048	0.0125946	0.851934	0.781719	0.268492	0.0452189	0.677045	0.091062	
3.31	0.00280274	0.00147286	0.00147114	0.00160169	0.00154203	0.00297016	0.00274905	0.00287831	0.00141435	0.00138138	0.00134373	0.00121313	0.00196544	0.00210627	0.00297486	0.0028816	0.0028146	0.00309139	0.00287842	0.00284492	0.0011869	0.00310268	0.00283922	0.00182083	0.00279444	0.00119134	0.00119131	0.00282847	0.00131167	0.00271723	0.0029309	0.00280785	0.00226037	0.00194393	0.00244934	0.00149871	0.00138435	0.00141335	0.00139406	0.00136473	0.999019	0.998441	0.00102657	0.00102657	0.00102657	0.998979	0.650417	0.528405	0.00107355	0.00102332	0.488984	0.0921206	0.547835	0.00102267	0.24769	0.323273	0.34687	0.00121868	0.0013884	0.00151596	0.00108502	0.0010005	0.0010277	0.628535	0.999037	0.248536	0.0436585	0.00959221	0.999047	0.238334	0.999337	0.330927	0.654091	0.0134303	0.911445	0.819294	0.258092	0.0532527	0.330933	0.105336	
3.315	0.00280274	0.00147286	0.00147114	0.00160169	0.00154203	0.00297016	0.00274905	0.00287831	0.00141435	0.00138138	0.00134373	0.00121313	0.00196544	0.00210627	0.00297486	0.0028816	0.0028146	0.00309139	0.00287842	0.00284492	0.0011869	0.00310268	0.00283922	0.00182083	0.00279444	0.00119134	0.00119131	0.00282847	0.00131167	0.00271723	0.0029309	0.00280785	0.00226037	0.00194393	0.00244934	0.00149871	0.00138435	0.00141335	0.00139406	0.00136473	0.99902	0.998705	0.00102473	0.00102473	0.00102473	0.998999	0.631389	0.517973	0.00107355	0.00102332	0.466434	0.0950391	0.527583	0.00102267	0.227529	0.301151	0.338004	0.00121868	0.0013884	0.00151596	0.00108242	0.0010005	0.0010277	0.598605	0.999038	0.244255	0.0449209	0.0110966	0.999047	0.211515	0.999337	0.308156	0.63529	0.0141302	0.948021	0.854463	0.247509	0.0580369	0.3069	0.112903	
3.32	0.00280274	0.00147286	0.00147114	0.00160169	0.00154203	0.00297016	0.00274905	0.00287831	0.00141435	0.00138138	0.00134373	0.00121313	0.00196544	0.00210627	0.00297486	0.0028816	0.0028146	0.00309139	0.00287842	0.00284492	0.0011869	0.00310268	0.00283922	0.00182083	0.00279444	0.00119134	0.00119131	0.00282847	0.00131167	0.00271723	0.0029309	0.00280785	0.00226037	0.00194393	0.00244934	0.00149871	0.00138435	0.00141335	0.00139406	0.00136473	0.999021	0.99885	0.00102375	0.00102375	0.00102375	0.99901	0.612583	0.507485	0.00107355	0.00102332	0.444255	0.0970292	0.507873	0.00102267	0.208832	0.280307	0.329214	0.00121868	0.0013884	0.00151596	0.00108145	0.0010005	0.0010277	0.566712	0.999038	0.237026	0.0459624	0.00890622	0.999047	0.180185	0.999337	0.286624	0.616679	0.0147101	0.969816	0.886461	0.236473	0.0605636	0.319923	0.115825	
3.325	0.00280274	0.00147286	0.00147114	0.00160169	0.00154203	0.00297016	0.00274905	0.00287831	0.00141435	0.00138138	0.00134373	0.00121313	0.00196544	0.00210627	0.00297486	0.0028816	0.0028146	0.00309139	0.00287842	0.00284492	0.0011869	0.00310268	0.00283922	0.00182083	0.00279444	0.00119134	0.00119131	0.00282847	0.00131167	0.00271723	0.0029309	0.00280785	0.00226037	0.00194393	0.00244934	0.00149871	0.00138435	0.00141335	0.00139406	0.00136473	0.999022	0.998929	0.00102324	0.00102324	0.00102324	0.999016	0.594026	0.496964	0.00107355	0.00102332	0.411833	0.0980812	0.488738	0.00102267	0.191519	0.260699	0.320512	0.00121868	0.0013884	0.00151596	0.258764	0.0010005	0.0010277	0.533771	0.999038	0.22722	0.0467685	0.0063675	0.999047	0.15722	0.999337	0.266313	0.598288	0.01548	0.982516	0.913282	0.224885	0.0616798	0.380296	0.115771	
3.33	0.00280274	0.00147286	0.00147114	0.00160169	0.00154203	0.00297016	0.00274905	0.00287831	0.00141435	0.00138138	0.00134373	0.00121313	0.00196544	0.00210627	0.00297486	0.0028816	0.0028146	0.00309139	0.00287842	0.00284492	0.0011869	0.00310268	0.00283922	0.00182083	0.00279444	0.00119134	0.00119131	0.00282847	0.00131167	0.00271723	0.0029309	0.00280785	0.00226037	0.00194393	0.00244934	0.00149871	0.00138435	0.00141335	0.00139406	0.00136473	0.999022	0.998972	0.00102297	0.00102297	0.00102297	0.861069	0.575745	0.486433	0.00107355	0.00102332	0.372451	0.0981428	0.470168	0.00102267	0.175511	0.242281	0.311911	0.00121868	0.0013884	0.00151596	0.613997	0.0010005	0.0010277	0.500505	0.999038	0.214717	0.0473163	0.00833819	0.999047	0.135084	0.999337	0.247195	0.580147	0.0158295	0.751146	0.931628	0.212324	0.0621084	0.487499	0.114253	
3.335	0.00280274	0.00147286	0.00147114	0.00160169	0.00154203	0.00297016	0.00274905	0.00287831	0.00141435	0.00138138	0.00134373	0.00121313	0.00196544	0.00210627	0.00297486	0.0028816	0.0028146	0.00309139	0.00287842	0.00284492	0.0011869	0.00310268	0.00283922	0.00182083	0.00279444	0.00119134	0.00119131	0.00282847	0.00131167	0.00271723	0.0029309	0.00280785	0.00226037	0.00194393	0.00244934	0.00149871	0.00138435	0.00141335	0.00139406	0.00136473	0.910833	0.989345	0.00102283	0.00102283	0.00102283	0.619078	0.55776	0.475911	0.00107355	0.00102332	0.32605	0.0972879	0.4521	0.00102267	0.16073	0.225006	0.303421	0.00121868	0.0013884	0.00151596	0.821487	0.0388881	0.0010277	0.467477	0.999038	0.200078	0.0476129	0.00758677	0.999047	0.117562	0.999337	0.229237	0.562278	0.015963	0.510732	0.93601	0.198783	0.0628853	0.727915	0.113262	
3.34	0.00280274	0.00147286	0.00147114	0.00160169	0.00154203	0.00297016	0.00274905	0.00287831	0.00141435	0.00138138	0.00134373	0.00121313	0.00196544	0.00210627	0.00297486	0.0028816	0.0028146	0.00309139	0.00287842	0.00284492	0.0011869	0.00310268	0.00283922	0.00182083	0.00279444	0.00119134	0.00119131	0.00282847	0.00131167	0.00271723	0.0029309	0.00280785	0.00226037	0.00194393	0.00244934	0.00149871	0.00138435	0.00141335	0.00139406	0.00136473	0.670085	0.87677	0.00102275	0.00102275	0.00102275	0.407335	0.54009	0.465414	0.00107355	0.00102332	0.277861	0.0955965	0.434355	0.00102267	0.1471	0.208824	0.29505	0.00121868	0.0013884	0.00151596	0.922034	0.392472	0.0010277	0.435118	0.999038	0.183796	0.0476683	0.00573711	0.999047	0.102306	0.999337	0.212399	0.544702	0.0159297	0.327368	0.923944	0.184332	0.0664842	0.973929	0.117788	
3.345	0.00280274	0.00147286	0.00147114	0.00160169	0.00154203	0.00297016	0.00274905	0.00287831	0.00141435	0.00138138	0.00134373	0.00121313	0.00196544	0.00210627	0.00297486	0.0028816	0.0028146	0.00309139	0.00287842	0.00284492	0.0011869	0.00310268	0.00283922	0.00182083	0.00279444	0.00119134	0.00119131	0.00282847	0.00131167	0.00271723	0.0029309	0.00280785	0.00226037	0.00194393	0.00244934	0.00149871	0.00138435	0.00141335	0.00139406	0.00136473	0.4465	0.637698	0.00102271	0.00102271	0.00102271	0.254241	0.522751	0.454949	0.00107355	0.00102332	0.239639	0.0932244	0.416599	0.00114824	0.134545	0.193685	0.286807	0.00121868	0.0013884	0.00151596	0.966921	0.369952	0.0010277	0.403751	0.999038	0.166985	0.0475084	0.0040893	0.999047	0.0896535	0.999337	0.196637	0.527437	0.0157465	0.202176	0.916919	0.169689	0.0772813	0.997247	0.13639	
3.35	0.00280274	0.00147286	0.00147114	0.00160169	0.00154203	0.00297016	0.00274905	0.00287831	0.00141435	0.00138138	0.00134373	0.00121313	0.00196544	0.00210627	0.00297486	0.0028816	0.0028146	0.00309139	0.00287842	0.00284492	0.0011869	0.00310268	0.00283922	0.00182083	0.00279444	0.00119134	0.00119131	0.00282847	0.00131167	0.00271723	0.0029309	0.00280785	0.00226037	0.00194393	0.00244934	0.00149871	0.00138435	0.00141335	0.00139406	0.00136473	0.280901	0.422276	0.00102269	0.00102269	0.00102269	0.153319	0.505757	0.444531	0.00107355	0.00102332	0.220141	0.0903459	0.398945	0.0031048	0.122993	0.179537	0.278698	0.00121868	0.0013884	0.00151596	0.925006	0.564667	0.0010277	0.37361	0.999038	0.150891	0.0471629	0.00315365	0.999047	0.0792216	0.999337	0.181905	0.510498	0.0154764	0.12108	0.948984	0.155879	0.0984056	0.998977	0.174257	
3.355	0.00280274	0.00147286	0.00147114	0.00160169	0.00154203	0.00297016	0.00274905	0.00287831	0.00141435	0.00138138	0.00134373	0.00121313	0.00196544	0.00210627	0.00297486	0.0028816	0.0028146	0.00309139	0.00287842	0.00284492	0.0011869	0.00310268	0.00283922	0.00182083	0.00279444	0.00119134	0.00119131	0.00282847	0.00131167	0.00271723	0.0029309	0.00280785	0.00226037	0.00194393	0.00244934	0.00149871	0.00138435	0.00141335	0.00139406	0.00136473	0.170291	0.26463	0.00102268	0.00102268	0.00102268	0.0903352	0.489119	0.434177	0.00107355	0.00102332	0.221405	0.0871598	0.381487	0.00516835	0.112375	0.166329	0.270729	0.00121868	0.0013884	0.00151596	0.734228	0.757859	0.0010277	0.344861	0.999038	0.136974	0.0466685	0.00240925	0.999047	0.0708677	0.999337	0.168157	0.493898	0.015162	0.0710357	0.973387	0.14434	0.131026	0.999092	0.224809	
3.36	0.00280274	0.00147286	0.00147114	0.00160169	0.00154203	0.00297016	0.00274905	0.00287831	0.00141435	0.00138138	0.00134373	0.00121313	0.00196544	0.00210627	0.00297486	0.0028816	0.0028146	0.00309139	0.00287842	0.00284492	0.0011869	0.00310268	0.00283922	0.00182083	0.00279444	0.00119134	0.00119131	0.00282847	0.00131167	0.00271723	0.0029309	0.00280785	0.00226037	0.00194393	0.00244934	0.00149871	0.00138435	0.00141335	0.00139406	0.00136473	0.10069	0.160015	0.00102267	0.00102267	0.00102267	0.0524242	0.472845	0.4239	0.00107355	0.00102332	0.240217	0.0838694	0.364305	0.00469065	0.102624	0.154013	0.262905	0.00121868	0.0013884	0.00151596	0.473618	0.95075	0.0010277	0.317607	0.999038	0.126623	0.0460645	0.00188045	0.999047	0.0648272	0.999337	0.155342	0.477647	0.0148401	0.0411458	0.986953	0.136482	0.175764	0.999099	0.282382	
3.365	0.00280274	0.00147286	0.00147114	0.00160169	0.00154203	0.00297016	0.00274905	0.00287831	0.00141435	0.00138138	0.00134373	0.00121313	0.00196544	0.00210627	0.00297486	0.0028816	0.0028146	0.00309139	0.00287842	0.00284492	0.0011869	0.00310268	0.00283922	0.00182083	0.00279444	0.00119134	0.00119131	0.00282847	0.00131167	0.00271723	0.0029309	0.00280785	0.00226037	0.00194393	0.00244934	0.00149871	0.00138435	0.00141335	0.00139406	0.00136473	0.0585585	0.0944546	0.00102267	0.00102267	0.00102267	0.03018	0.456943	0.413713	0.00107355	0.00102332	0.259729	0.0806685	0.347463	0.00367611	0.0936779	0.142537	0.25523	0.00121868	0.0013884	0.00151596	0.243212	0.976535	0.0847376	0.291909	0.999038	0.120561	0.0453904	0.00153928	0.999047	0.0607255	0.999337	0.143413	0.461755	0.0145316	0.0237067	0.993614	0.132928	0.228241	0.9991	0.342895	
3.37	0.00280274	0.00147286	0.00147114	0.00160169	0.00154203	0.00297016	0.00274905	0.00287831	0.00141435	0.00138138	0.00134373	0.00121313	0.00196544	0.00210627	0.00297486	0.0028816	0.0028146	0.00309139	0.00287842	0.00284492	0.0011869	0.00310268	0.00283922	0.00182083	0.00279444	0.00119134	0.00119131	0.00282847	0.00131167	0.00271723	0.0029309	0.00280785	0.00226037	0.00194393	0.00244934	0.00149871	0.00138435	0.00141335	0.00139406	0.00136473	0.0337374	0.054879	0.00102267	0.00102267	0.00102267	0.0173731	0.441419	0.403627	0.00107355	0.00102332	0.281662	0.0776707	0.331016	0.0134093	0.0854768	0.131854	0.247708	0.00121868	0.0013884	0.00151596	0.112336	0.923787	0.438866	0.26779	0.999038	0.118891	0.0446503	0.00133106	0.999047	0.0594239	0.532286	0.132321	0.446227	0.0142663	0.0137091	0.996672	0.133313	0.284799	0.9991	0.403502	
3.375	0.00280274	0.00147286	0.00147114	0.00160169	0.00154203	0.00297016	0.00274905	0.00287831	0.00141435	0.00138138	0.00134373	0.00121313	0.00196544	0.00210627	0.00297486	0.0028816	0.0028146	0.00309139	0.00287842	0.00284492	0.0011869	0.00310268	0.00283922	0.00182083	0.00279444	0.00119134	0.00119131	0.00282847	0.00131167	0.00271723	0.0029309	0.00280785	0.00226037	0.00194393	0.00244934	0.00149871	0.00138435	0.00141335	0.00139406	0.00136473	0.0214443	0.0316099	0.00102267	0.00102267	0.00102267	0.0101062	0.426276	0.393652	0.00107355	0.00102332	0.299971	0.0749312	0.315006	0.0128989	0.0779647	0.121918	0.240341	0.00121868	0.0013884	0.00151596	0.0490944	0.903557	0.772082	0.245244	0.999038	0.121003	0.043878	0.0012085	0.999047	0.0597421	0.214984	0.122019	0.431069	0.01405	0.00805515	0.998019	0.136792	0.342759	0.9991	0.462294	
3.38	0.00280274	0.00147286	0.00147114	0.00160169	0.00154203	0.00297016	0.00274905	0.00287831	0.00141435	0.00138138	0.00134373	0.00121313	0.00196544	0.00210627	0.00297486	0.0028816	0.0028146	0.00309139	0.00287842	0.00284492	0.0011869	0.00310268	0.00283922	0.00182083	0.00279444	0.00119134	0.00119131	0.00282847	0.00131167	0.00271723	0.0029309	0.00280785	0.00226037	0.00194393	0.00244934	0.00149871	0.00138435	0.00141335	0.00139406	0.00136473	0.0209359	0.0181917	0.00102267	0.00102267	0.00102267	0.00603009	0.411516	0.383797	0.00107355	0.00102332	0.315052	0.0725034	0.299467	0.00988063	0.0710888	0.112684	0.233131	0.00121868	0.0013884	0.183504	0.0209933	0.442001	0.869804	0.224246	0.999038	0.126159	0.0430769	0.00113818	0.999047	0.0643089	0.0761343	0.11246	0.416284	0.0138659	0.00489232	0.998595	0.142229	0.400209	0.9991	0.518059	
3.385	0.00280274	0.00147286	0.00147114	0.00160169	0.00154203	0.00297016	0.00274905	0.00287831	0.00141435	0.00138138	0.00134373	0.00121313	0.00196544	0.00210627	0.00297486	0.0028816	0.0028146	0.00309139	0.00287842	0.00284492	0.0011869	0.00310268	0.00283922	0.00182083	0.00279444	0.00119134	0.00119131	0.00282847	0.00131167	0.00271723	0.0029309	0.00280785	0.00226037	0.00194393	0.00244934	0.00149871	0.00138435	0.00141335	0.00139406	0.00136473	0.0175702	0.0114519	0.00102267	0.00102267	0.00102267	0.00376515	0.397141	0.374071	0.00107355	0.00102332	0.331838	0.0704567	0.284424	0.0194252	0.0647994	0.104109	0.22608	0.00121868	0.0013884	0.429235	0.0091176	0.075558	0.680406	0.20475	0.999038	0.133545	0.0422877	0.00109859	0.999047	0.0690258	0.025936	0.103599	0.401875	0.0135959	0.0031387	0.998836	0.148544	0.455824	0.9991	0.570084	
3.39	0.00280274	0.00147286	0.00147114	0.00160169	0.00154203	0.00297016	0.00274905	0.00287831	0.00141435	0.00138138	0.00134373	0.00121313	0.00196544	0.00210627	0.00297486	0.0028816	0.0028146	0.00309139	0.00287842	0.00284492	0.0011869	0.00310268	0.00283922	0.00182083	0.00279444	0.00119134	0.00119131	0.00282847	0.00131167	0.00271723	0.0029309	0.00280785	0.00226037	0.00194393	0.00244934	0.00149871	0.00138435	0.00141335	0.00139406	0.00136473	0.0128421	0.00784725	0.00102267	0.00102267	0.00102267	0.00251633	0.383151	0.36448	0.00107355	0.00102332	0.345343	0.0689099	0.269896	0.0174388	0.0590505	0.0961505	0.219188	0.00121868	0.0013884	0.810659	0.00426127	0.0111391	0.110324	0.186701	0.999038	0.142519	0.0415001	0.00107663	0.999047	0.0737955	0.00923314	0.0953918	0.387842	0.01316	0.00217359	0.998936	0.154882	0.508724	0.9991	0.618015	
3.395	0.00280274	0.00147286	0.00147114	0.00160169	0.00154203	0.00297016	0.00274905	0.00287831	0.00141435	0.00138138	0.00134373	0.00121313	0.00196544	0.00210627	0.00297486	0.0028816	0.0028146	0.00309139	0.00287842	0.00284492	0.0011869	0.00310268	0.00283922	0.00182083	0.00279444	0.00119134	0.00119131	0.00282847	0.00131167	0.00271723	0.0029309	0.00280785	0.00226037	0.00194393	0.00244934	0.00149871	0.00138435	0.00141335	0.00139406	0.00136473	0.0087536	0.00601165	0.00102267	0.00102267	0.00102267	0.00183226	0.369544	0.355031	0.00107355	0.00102332	0.355127	0.0677234	0.255895	0.0129379	0.0537987	0.08877	0.212457	0.00121868	0.0013884	0.979967	0.00232081	0.00225458	0.0145303	0.170034	0.999038	0.151829	0.0407222	0.00106458	0.999047	0.0781523	0.00388011	0.0877973	0.374186	0.0136279	0.00164576	0.998976	0.160665	0.558365	0.9991	0.661744	
3.4	0.00280274	0.00147286	0.00147114	0.00160169	0.00154203	0.00297016	0.00274905	0.00287831	0.00141435	0.00138138	0.00134373	0.00121313	0.00196544	0.00210627	0.00297486	0.0028816	0.0028146	0.00309139	0.00287842	0.00284492	0.0011869	0.00310268	0.00283922	0.00182083	0.00279444	0.00119134	0.00119131	0.00282847	0.00131167	0.00271723	0.0029309	0.00280785	0.00226037	0.00194393	0.00244934	0.00149871	0.00138435	0.00141335	0.00139406	0.00136473	0.0071398	0.00432701	0.00102267	0.00102267	0.00102267	0.00145964	0.356319	0.34573	0.00107355	0.00102332	0.361778	0.0668924	0.242428	0.026617	0.0579864	0.0857959	0.205887	0.00121868	0.0013884	0.997637	0.00530187	0.00114779	0.0025218	0.154681	0.733404	0.160822	0.0399637	0.00105804	0.813453	0.0793651	0.00219547	0.080775	0.360904	0.0138916	0.00135863	0.998993	0.165392	0.604449	0.9991	0.701331	
3.405	0.00280274	0.00147286	0.00147114	0.00160169	0.00154203	0.00297016	0.00274905	0.00287831	0.00141435	0.00138138	0.00134373	0.00121313	0.00196544	0.00210627	0.00297486	0.0028816	0.0028146	0.00309139	0.00287842	0.00284492	0.0011869	0.00310268	0.00283922	0.00182083	0.00279444	0.00119134	0.00119131	0.00282847	0.00131167	0.00271723	0.0029309	0.00280785	0.00226037	0.00194393	0.00244934	0.00149871	0.00138435	0.00141335	0.00139406	0.00136473	0.00564404	0.00309072	0.00102267	0.00102267	0.00102267	0.00165053	0.343472	0.336581	0.00107355	0.00102332	0.368722	0.0663412	0.229499	0.023911	0.0664632	0.0861559	0.199476	0.00121868	0.0013884	0.999239	0.00386185	0.00101726	0.00118331	0.140566	0.474848	0.168943	0.0392226	0.00105451	0.243741	0.0792306	0.0016703	0.0742869	0.347995	0.0150543	0.00120317	0.998999	0.168897	0.646862	0.9991	0.736942	
3.41	0.00280274	0.00147286	0.00147114	0.00160169	0.00154203	0.00297016	0.00274905	0.00287831	0.00141435	0.00138138	0.00134373	0.00121313	0.00196544	0.00210627	0.00297486	0.0028816	0.0028146	0.00309139	0.00287842	0.00284492	0.0011869	0.00310268	0.00283922	0.00182083	0.00279444	0.00119134	0.00119131	0.00282847	0.00131167	0.00271723	0.0029309	0.00280785	0.00226037	0.00194393	0.00244934	0.00149871	0.00138435	0.00141335	0.00139406	0.00136473	0.0041361	0.00227022	0.00102267	0.00102267	0.00102267	0.00196071	0.331	0.327587	0.00107355	0.00102332	0.370642	0.0660072	0.217107	0.0176525	0.0836169	0.0948704	0.193363	0.00121868	0.0013884	0.999372	0.00250317	0.00100237	0.00104329	0.127616	0.28673	0.175634	0.0385101	0.00105262	0.0529529	0.073277	0.00150744	0.0682964	0.335456	0.0167533	0.00111933	0.999002	0.171125	0.685616	0.9991	0.76881	
3.415	0.00280274	0.00147286	0.00147114	0.00160169	0.00154203	0.00297016	0.00274905	0.00287831	0.00141435	0.00138138	0.00134373	0.00121313	0.00196544	0.00210627	0.00297486	0.0028816	0.0028146	0.00309139	0.00287842	0.00284492	0.0011869	0.00310268	0.00283922	0.00182083	0.00279444	0.00119134	0.00119131	0.00282847	0.00131167	0.00271723	0.0029309	0.00280785	0.00226037	0.00194393	0.00244934	0.00149871	0.00138435	0.00141335	0.00139406	0.00136473	0.00299163	0.00251741	0.247823	0.0948475	0.00102267	0.00181234	0.3189	0.318754	0.00107355	0.00102332	0.369559	0.0658064	0.205247	0.0221409	0.108364	0.110331	0.187876	0.00121868	0.00676878	0.999382	0.00408253	0.0010007	0.00102922	0.115755	0.165734	0.180414	0.0378123	0.00105161	0.010782	0.0648775	0.00145708	0.0627692	0.323284	0.0193997	0.00107429	0.999003	0.172062	0.720815	0.9991	0.797204	
3.42	0.00280274	0.00147286	0.00147114	0.00160169	0.00154203	0.00297016	0.00274905	0.00287831	0.00141435	0.00138138	0.00134373	0.00121313	0.00196544	0.00210627	0.00297486	0.0028816	0.0028146	0.00309139	0.00287842	0.00284492	0.0011869	0.00310268	0.00283922	0.00182083	0.00279444	0.00119134	0.00119131	0.00282847	0.00131167	0.00271723	0.0029309	0.00280785	0.00226037	0.00194393	0.00244934	0.00149871	0.00138435	0.00141335	0.00139406	0.00136473	0.00290826	0.00474534	0.495293	0.341907	0.00102267	0.00158221	0.307165	0.310082	0.00107355	0.00102332	0.367372	0.0656866	0.193913	0.0181614	0.138806	0.131162	0.183128	0.00121868	0.780538	0.999383	0.00299336	0.00100052	0.00102784	0.10491	0.0930981	0.183351	0.0371281	0.00105108	0.00275257	0.0583379	0.00144154	0.0576728	0.311474	0.0218278	0.00105016	0.999003	0.171965	0.752622	0.9991	0.82241	
3.425	0.00280274	0.00147286	0.00147114	0.00160169	0.00154203	0.00297016	0.00274905	0.00287831	0.00141435	0.00138138	0.00134373	0.00121313	0.00196544	0.00210627	0.00297486	0.0028816	0.0028146	0.00309139	0.00287842	0.00284492	0.0011869	0.00310268	0.00283922	0.00182083	0.00279444	0.00119134	0.00119131	0.00282847	0.00131167	0.00271723	0.0029309	0.00280785	0.00226037	0.00194393	0.00244934	0.00149871	0.00138435	0.00141335	0.00139406	0.00136473	0.00333445	0.00605774	0.681632	0.566078	0.00102267	0.0020266	0.295791	0.301576	0.00107355	0.00102332	0.35632	0.0655781	0.183095	0.0129725	0.173377	0.156189	0.179141	0.00121868	0.349767	0.999383	0.00204707	0.0010005	0.00102771	0.0950081	0.0513633	0.184451	0.0364539	0.0010508	0.00133445	0.0537316	0.00143675	0.0529764	0.300021	0.024894	0.00103728	0.999003	0.170938	0.781238	0.9991	0.844716	
3.43	0.00280274	0.00147286	0.00147114	0.00160169	0.00154203	0.00297016	0.00274905	0.00287831	0.00141435	0.00138138	0.00134373	0.00121313	0.00196544	0.00210627	0.00297486	0.0028816	0.0028146	0.00309139	0.00287842	0.00284492	0.0011869	0.00310268	0.00283922	0.00182083	0.00279444	0.00119134	0.00119131	0.00282847	0.00131167	0.00271723	0.0029309	0.00280785	0.00226037	0.00194393	0.00244934	0.00149871	0.00138435	0.00141335	0.00139406	0.00136473	0.00288189	0.00532582	0.806687	0.729096	0.00102267	0.00216285	0.284772	0.293235	0.00107355	0.00102332	0.3448	0.0654051	0.172784	0.0169084	0.210785	0.184414	0.175965	0.00121868	0.553393	0.999383	0.00152131	0.0010005	0.0010277	0.0859806	0.028092	0.183615	0.0357842	0.00105065	0.00109512	0.0493297	0.00143528	0.0486511	0.28892	0.0274706	0.00103041	0.999003	0.168987	0.806886	0.9991	0.8644	
3.435	0.00280274	0.00147286	0.00147114	0.00160169	0.00154203	0.00297016	0.00274905	0.00287831	0.00141435	0.00138138	0.00134373	0.00121313	0.00196544	0.00210627	0.00297486	0.0028816	0.0028146	0.00309139	0.00287842	0.00284492	0.0011869	0.00310268	0.00283922	0.00182083	0.00279444	0.00119134	0.00119131	0.00282847	0.00131167	0.00271723	0.0029309	0.00280785	0.00226037	0.00194393	0.00244934	0.00149871	0.00138435	0.00141335	0.00139406	0.00136473	0.00231355	0.00409153	0.885558	0.836603	0.00102267	0.00192064	0.274102	0.285063	0.00107355	0.00102332	0.329603	0.0650961	0.162965	0.0140583	0.249979	0.214991	0.173652	0.00121868	0.538972	0.999383	0.00127028	0.0010005	0.0010277	0.0777607	0.0153939	0.180819	0.0351129	0.00105057	0.00105594	0.0437965	0.00143482	0.0446699	0.278166	0.0298903	0.00102677	0.999004	0.166169	0.829798	0.9991	0.881729	
3.44	0.00280274	0.00147286	0.00147114	0.00160169	0.00154203	0.00297016	0.00274905	0.00287831	0.00141435	0.00138138	0.00134373	0.00121313	0.00196544	0.00210627	0.00297486	0.0028816	0.0028146	0.00309139	0.00287842	0.00284492	0.0011869	0.00310268	0.00283922	0.00182083	0.00279444	0.00119134	0.00119131	0.00282847	0.00131167	0.00271723	0.0029309	0.00280785	0.00226037	0.00194393	0.00244934	0.00149871	0.00138435	0.00141335	0.00139406	0.00136473	0.00240415	0.00366906	0.933395	0.903695	0.00102267	0.00164007	0.264374	0.277059	0.00107355	0.00102332	0.307695	0.0645843	0.153626	0.0101569	0.290102	0.247207	0.172225	0.00121868	0.639109	0.999383	0.00115933	0.0010005	0.0010277	0.0702854	0.00857734	0.176058	0.0344328	0.00105053	0.00104967	0.032807	0.00143468	0.0410073	0.268046	0.0329533	0.00157207	0.999004	0.162367	0.850204	0.9991	0.896951	
3.445	0.00280274	0.00147286	0.00147114	0.00160169	0.00154203	0.00297016	0.00274905	0.00287831	0.00141435	0.00138138	0.00134373	0.00121313	0.00196544	0.00210627	0.00297486	0.0028816	0.0028146	0.00309139	0.00287842	0.00284492	0.0011869	0.00310268	0.00283922	0.00182083	0.00279444	0.00119134	0.00119131	0.00282847	0.00131167	0.00271723	0.0029309	0.00280785	0.00226037	0.00194393	0.00244934	0.00149871	0.00138435	0.00141335	0.00139406	0.00136473	0.00230573	0.00338641	0.961636	0.944099	0.00102267	0.00141786	0.255972	0.269225	0.00107355	0.00102332	0.282989	0.0637976	0.144753	0.00963986	0.33047	0.280467	0.171679	0.00121868	0.547652	0.999383	0.00111253	0.0010005	0.0010277	0.0643557	0.00496428	0.169188	0.0337347	0.00105051	0.00104868	0.0109003	0.00143464	0.0404896	0.258844	0.0353996	0.0015786	0.999004	0.157296	0.868332	0.9991	0.910299	
3.45	0.00280274	0.00147286	0.00147114	0.00160169	0.00154203	0.00297016	0.00274905	0.00287831	0.00141435	0.00138138	0.00134373	0.00121313	0.00196544	0.00210627	0.00297486	0.0028816	0.0028146	0.00309139	0.00287842	0.00284492	0.0011869	0.00310268	0.00283922	0.00182083	0.00279444	0.00119134	0.00119131	0.00282847	0.00131167	0.00271723	0.0029309	0.00280785	0.00226037	0.00194393	0.00244934	0.00149871	0.00138435	0.00141335	0.00139406	0.00136473	0.00196848	0.00458481	0.97798	0.96783	0.00102267	0.00126467	0.24907	0.261559	0.00107355	0.00102332	0.242003	0.0626585	0.136329	0.00784185	0.370537	0.314272	0.171964	0.00121868	0.529485	0.999383	0.00109341	0.0010005	0.0010277	0.0699701	0.00306861	0.159928	0.0330072	0.0010505	0.00104853	0.00356049	0.00143463	0.0465597	0.250769	0.0381015	0.00144511	0.999004	0.150511	0.876602	0.9991	0.918531	
3.455	0.00280274	0.00147286	0.00147114	0.00160169	0.00154203	0.00297016	0.00274905	0.00287831	0.00141435	0.00138138	0.00134373	0.00121313	0.00196544	0.00210627	0.00297486	0.0028816	0.0028146	0.00309139	0.00287842	0.00284492	0.0011869	0.00310268	0.00283922	0.00182083	0.00279444	0.00119134	0.00119131	0.00282847	0.00131167	0.00271723	0.0029309	0.00280785	0.00226037	0.00194393	0.00244934	0.00149871	0.00138435	0.00141335	0.00139406	0.00136473	0.00165186	0.00441259	0.987295	0.981509	0.00102267	0.00116647	0.243688	0.254258	0.00107355	0.00102332	0.177834	0.0611072	0.128339	0.00572194	0.409877	0.34821	0.173004	0.00121868	0.455854	0.999383	0.00108577	0.0010005	0.0010277	0.0879675	0.00208227	0.148005	0.0322399	0.0010505	0.0010485	0.00166434	0.00143462	0.0590401	0.243956	0.0406303	0.0013081	0.999004	0.141393	0.868513	0.9991	0.911135	
3.46	0.00280274	0.00147286	0.00147114	0.00160169	0.00154203	0.00297016	0.00274905	0.00287831	0.00141435	0.00138138	0.00134373	0.00121313	0.00196544	0.00210627	0.00297486	0.0028816	0.0028146	0.00309139	0.00287842	0.00284492	0.0011869	0.00310268	0.00283922	0.00182083	0.00279444	0.00119134	0.00119131	0.00282847	0.00131167	0.00271723	0.0029309	0.00280785	0.00226037	0.00194393	0.00244934	0.00149871	0.00138435	0.00141335	0.00139406	0.00136473	0.00141752	0.00354415	0.992539	0.989282	0.00102267	0.00110627	0.239687	0.247537	0.00107355	0.00102332	0.108344	0.0591483	0.121164	0.00403466	0.44816	0.381945	0.174701	0.00121868	0.386927	0.999383	0.00108277	0.0010005	0.0010277	0.115261	0.00157263	0.133827	0.0314317	0.00105049	0.0010485	0.00122586	0.00143462	0.0754094	0.238382	0.0433696	0.00120349	0.812105	0.129973	0.844157	0.321179	0.88635	
3.465	0.00280274	0.00147286	0.00147114	0.00160169	0.00154203	0.00297016	0.00274905	0.00287831	0.00141435	0.00138138	0.00134373	0.00121313	0.00196544	0.00210627	0.00297486	0.0028816	0.0028146	0.00309139	0.00287842	0.00284492	0.0011869	0.00310268	0.00283922	0.00182083	0.00279444	0.00119134	0.00119131	0.00282847	0.00131167	0.00271723	0.0029309	0.00280785	0.00226037	0.00194393	0.00244934	0.00149871	0.00138435	0.00141335	0.00139406	0.00136473	0.0012613	0.00270793	0.995463	0.993647	0.00102267	0.00107048	0.236864	0.241378	0.0716948	0.0308249	0.0261375	0.0568634	0.114563	0.00286877	0.485141	0.415202	0.176935	0.00121868	0.300944	0.999383	0.0010816	0.0010005	0.0010277	0.149332	0.00131085	0.118444	0.0305924	0.00105049	0.0010485	0.00113053	0.00143462	0.0933075	0.23389	0.0465519	0.00113265	0.564497	0.11699	0.809033	0.152265	0.850034	
3.47	0.00280274	0.00147286	0.00147114	0.00160169	0.00154203	0.00297016	0.00274905	0.00287831	0.00141435	0.00138138	0.00134373	0.00121313	0.00196544	0.00210627	0.00297486	0.0028816	0.0028146	0.00309139	0.00287842	0.00284492	0.0011869	0.00310268	0.00283922	0.00182083	0.00279444	0.00119134	0.00119131	0.00282847	0.00131167	0.00271723	0.0029309	0.00280785	0.00226037	0.00194393	0.00244934	0.00149871	0.00138435	0.00141335	0.00139406	0.00136473	0.00116314	0.00208331	0.99708	0.996076	0.00102267	0.00104965	0.235028	0.235761	0.429619	0.216307	0.0059268	0.0543525	0.108255	0.00212032	0.52064	0.447761	0.179567	0.00121868	0.227503	0.999383	0.00108116	0.0010005	0.0010277	0.185913	0.00117706	0.103131	0.0297306	0.00125871	0.0010485	0.0011106	0.00143462	0.111447	0.230322	0.0501896	0.0010877	0.444333	0.103623	0.767356	0.14572	0.806624	
3.475	0.00280274	0.00147286	0.00147114	0.00160169	0.00154203	0.00297016	0.00274905	0.00287831	0.00141435	0.00138138	0.00134373	0.00121313	0.00196544	0.00210627	0.00297486	0.0028816	0.0028146	0.00309139	0.00287842	0.00284492	0.0011869	0.00310268	0.00283922	0.00182083	0.00279444	0.00119134	0.00119131	0.00282847	0.00131167	0.00271723	0.0029309	0.00280785	0.00226037	0.00194393	0.00244934	0.00149871	0.00138435	0.00141335	0.00139406	0.00136473	0.00110376	0.00166492	0.997967	0.997416	0.00102267	0.00103774	0.234002	0.230666	0.715567	0.38378	0.00201834	0.0516971	0.102235	0.00191271	0.552885	0.47945	0.182441	0.00121868	0.0751861	0.999383	0.00108099	0.0010005	0.0010277	0.221775	0.00110899	0.0886524	0.0288539	0.0012567	0.0010485	0.00110654	0.00143462	0.129137	0.227529	0.0546006	0.00106034	0.446248	0.0906231	0.722291	0.0713463	0.759443	
3.48	0.00280274	0.00147286	0.00147114	0.00160169	0.00154203	0.00297016	0.00274905	0.00287831	0.00141435	0.00138138	0.00134373	0.00121313	0.00196544	0.00210627	0.00297486	0.0028816	0.0028146	0.00309139	0.00287842	0.00284492	0.0011869	0.00310268	0.00283922	0.00182083	0.00279444	0.00119134	0.00119131	0.00282847	0.00131167	0.00271723	0.0029309	0.00280785	0.00226037	0.00194393	0.00244934	0.00149871	0.00138435	0.00141335	0.00139406	0.00136473	0.00106879	0.00140126	0.998452	0.998151	0.00102267	0.00103102	0.233375	0.226067	0.570488	0.349351	0.00132732	0.0489625	0.0964976	0.00165179	0.576527	0.505897	0.185097	0.00121868	0.693512	0.999383	0.00108092	0.0010005	0.0010277	0.25143	0.00107449	0.0754262	0.0279686	0.00120366	0.0010485	0.00110574	0.00143462	0.145232	0.2252	0.0599336	0.00104415	0.438131	0.0784466	0.676295	0.623579	0.711167	
3.485	0.00280274	0.00147286	0.00147114	0.00160169	0.00154203	0.00297016	0.00274905	0.00287831	0.00141435	0.00138138	0.00134373	0.00121313	0.00196544	0.00210627	0.00297486	0.0028816	0.0028146	0.00309139	0.00287842	0.00284492	0.0011869	0.00310268	0.00283922	0.00182083	0.00279444	0.00119134	0.00119131	0.00282847	0.00131167	0.00271723	0.0029309	0.00280785	0.00226037	0.00194393	0.00244934	0.00149871	0.00138435	0.00141335	0.00139406	0.00136473	0.027798	0.00124146	0.998715	0.998552	0.00102267	0.00102726	0.233057	0.221975	0.246449	0.17113	0.00121013	0.0462013	0.0919213	0.00143178	0.591541	0.526094	0.187439	0.00121868	0.693835	0.999383	0.0010809	0.0010005	0.0010277	0.274957	0.00105706	0.0636404	0.0270804	0.00115162	0.0010485	0.00110558	0.00143462	0.159726	0.223254	0.0662306	0.00103477	0.386391	0.0673415	0.628829	0.0667005	0.659832	
3.49	0.00280274	0.00147286	0.00147114	0.00160169	0.00154203	0.00297016	0.00274905	0.00287831	0.00141435	0.00138138	0.00134373	0.00121313	0.00196544	0.00210627	0.00297486	0.0028816	0.0028146	0.00309139	0.00287842	0.00284492	0.0011869	0.00310268	0.00283922	0.00182083	0.00279444	0.00119134	0.00119131	0.00282847	0.00131167	0.00271723	0.0029309	0.00280785	0.00226037	0.00194393	0.00244934	0.00149871	0.00138435	0.00141335	0.00139406	0.00136473	0.0281557	0.0011472	0.965531	0.880941	0.00102267	0.00102518	0.232937	0.218334	0.0585659	0.0465431	0.00119068	0.0434549	0.0879128	0.00127577	0.598693	0.539876	0.18941	0.00650345	0.971051	0.999383	0.00108089	0.0010005	0.332227	0.291862	0.00104829	0.0533335	0.026194	0.00111308	0.0010485	0.00574479	0.00143462	0.172431	0.221581	0.0736151	0.00102941	0.332265	0.0574147	0.583724	0.0788946	0.611251	
3.495	0.00280274	0.00147286	0.00147114	0.00160169	0.00154203	0.00297016	0.00274905	0.00287831	0.00141435	0.00138138	0.00134373	0.00121313	0.00196544	0.00210627	0.00297486	0.0028816	0.0028146	0.00309139	0.00287842	0.00284492	0.0011869	0.00310268	0.00283922	0.00182083	0.00279444	0.00119134	0.00119131	0.00282847	0.00131167	0.00271723	0.0029309	0.00280785	0.00226037	0.00194393	0.00244934	0.00149871	0.00138435	0.00141335	0.00139406	0.00136473	0.0216534	0.0010927	0.856944	0.718276	0.00102267	0.00102403	0.232992	0.215123	0.00621952	0.0108539	0.0688056	0.0408463	0.0847826	0.00117415	0.599349	0.548073	0.191035	0.0143559	0.997076	0.999383	0.00108089	0.24601	0.434841	0.30309	0.00104388	0.0465666	0.0253161	0.00108768	0.0010485	0.0122103	0.00143462	0.183479	0.220139	0.0821404	0.0010264	0.19193	0.0516443	0.541592	0.147095	0.56603	
3.5	0.00280274	0.00147286	0.00147114	0.00160169	0.00154203	0.00297016	0.00274905	0.00287831	0.00141435	0.00138138	0.00134373	0.00121313	0.00196544	0.00210627	0.00297486	0.0028816	0.0028146	0.00309139	0.00287842	0.00284492	0.0011869	0.00310268	0.00283922	0.00182083	0.00279444	0.00119134	0.00119131	0.00282847	0.00131167	0.00271723	0.0029309	0.00280785	0.00226037	0.00194393	0.00244934	0.00149871	0.00138435	0.00141335	0.00139406	0.00136473	0.0149675	0.00106167	0.86363	0.666002	0.00102267	0.00102341	0.233241	0.212316	0.00144403	0.00294895	0.174455	0.0387254	0.0834274	0.0011112	0.595803	0.552491	0.192389	0.0697252	0.999149	0.999383	0.00108088	0.457524	0.657372	0.309688	0.00104167	0.0489968	0.0244821	0.00107198	0.0010485	0.00803176	0.00143462	0.193162	0.218908	0.0918284	0.00102472	0.0963941	0.0572357	0.502771	0.152262	0.524498	
3.505	0.00280274	0.00147286	0.00147114	0.00160169	0.00154203	0.00297016	0.00274905	0.00287831	0.00141435	0.00138138	0.00134373	0.00121313	0.00196544	0.00210627	0.00297486	0.0028816	0.0028146	0.00309139	0.00287842	0.00284492	0.0011869	0.00310268	0.00283922	0.00182083	0.00279444	0.00119134	0.00119131	0.00282847	0.00131167	0.00271723	0.0029309	0.00280785	0.00226037	0.00194393	0.00244934	0.00149871	0.00138435	0.00141335	0.00139406	0.00136473	0.00985913	0.00104421	0.898343	0.734039	0.00102267	0.00102307	0.233721	0.209885	0.00109773	0.00138002	0.265068	0.0375186	0.084938	0.0010735	0.590782	0.55547	0.193587	0.236129	0.999297	0.999383	0.00133379	0.6266	0.946188	0.312637	0.00104057	0.0647049	0.0237323	0.00106265	0.0010485	0.003188	0.00143462	0.201915	0.217892	0.102607	0.00102379	0.0452527	0.0767998	0.467392	0.137138	0.48676	
3.51	0.00280274	0.00147286	0.00147114	0.00160169	0.00154203	0.00297016	0.00274905	0.00287831	0.00141435	0.00138138	0.00134373	0.00121313	0.00196544	0.00210627	0.00297486	0.0028816	0.0028146	0.00309139	0.00287842	0.00284492	0.0011869	0.00310268	0.00283922	0.00182083	0.00279444	0.00119134	0.00119131	0.00282847	0.00131167	0.00271723	0.0029309	0.00280785	0.00226037	0.00194393	0.00244934	0.00149871	0.00138435	0.00141335	0.00139406	0.00136473	0.00639802	0.00103449	0.931766	0.816161	0.00102267	0.00102288	0.234538	0.207802	0.00107504	0.00108705	0.33625	0.0375788	0.0901554	0.00105145	0.588182	0.560649	0.194835	0.596982	0.999308	0.999383	0.00125643	0.494845	0.992562	0.313226	0.00104002	0.0926787	0.0230984	0.00105726	0.0010485	0.00162184	0.00143462	0.210703	0.217152	0.114586	0.00102327	0.0206154	0.104877	0.435434	0.0923974	0.452755	
3.515	0.00280274	0.00147286	0.00147114	0.00160169	0.00154203	0.00297016	0.00274905	0.00287831	0.00141435	0.00138138	0.00134373	0.00121313	0.00196544	0.00210627	0.00297486	0.0028816	0.0028146	0.00309139	0.00287842	0.00284492	0.0011869	0.00310268	0.00283922	0.00182083	0.00279444	0.00119134	0.00119131	0.00282847	0.00131167	0.00271723	0.0029309	0.00280785	0.00226037	0.00194393	0.00244934	0.00149871	0.00138435	0.00141335	0.00139406	0.00136473	0.00420168	0.00102912	0.956711	0.881772	0.00102267	0.00102278	0.235836	0.206032	0.00107364	0.00103442	0.385087	0.0391175	0.0994588	0.00103879	0.591151	0.568924	0.196405	0.944742	0.999308	0.999383	0.00173783	0.411281	0.998314	0.312899	0.00103974	0.127969	0.0226382	0.00105422	0.0010485	0.00122239	0.00143462	0.221038	0.216796	0.127252	0.001023	0.00943201	0.132953	0.406774	0.0685465	0.422303	
3.52	0.00280274	0.00147286	0.00147114	0.00160169	0.00154203	0.00297016	0.00274905	0.00287831	0.00141435	0.00138138	0.00134373	0.00121313	0.00196544	0.00210627	0.00297486	0.0028816	0.0028146	0.00309139	0.00287842	0.00284492	0.0011869	0.00310268	0.00283922	0.00182083	0.00279444	0.00119134	0.00119131	0.00282847	0.00131167	0.00271723	0.0029309	0.00280785	0.00226037	0.00194393	0.00244934	0.00149871	0.00138435	0.00141335	0.00139406	0.00136473	0.00286436	0.00102617	0.973408	0.927144	0.00102267	0.00102273	0.237701	0.204543	0.00107355	0.00102522	0.418967	0.0421739	0.112794	0.00103162	0.598483	0.579652	0.198496	0.992962	0.999308	0.999383	0.00154188	0.89371	0.998953	0.312603	0.00103961	0.164776	0.0223071	0.00105252	0.0010485	0.00113061	0.00143462	0.233637	0.216918	0.141093	0.00102284	0.00454614	0.154575	0.381181	0.074058	0.395098	
3.525	0.00280274	0.00147286	0.00147114	0.00160169	0.00154203	0.00297016	0.00274905	0.00287831	0.00141435	0.00138138	0.00134373	0.00121313	0.00196544	0.00210627	0.00297486	0.0028816	0.0028146	0.00309139	0.00287842	0.00284492	0.0011869	0.00310268	0.00283922	0.00182083	0.00279444	0.00119134	0.00119131	0.00282847	0.00131167	0.00271723	0.0029309	0.00280785	0.00226037	0.00194393	0.00244934	0.00149871	0.00138435	0.00141335	0.00139406	0.00136473	0.00207293	0.00102456	0.983926	0.956277	0.00102267	0.0010227	0.240097	0.2033	0.00107355	0.00102364	0.44265	0.046589	0.129639	0.0010276	0.609172	0.592286	0.201146	0.99854	0.999308	0.999383	0.00132179	0.984382	0.99902	0.311947	0.00103954	0.198627	0.0221068	0.00105159	0.0010485	0.00111073	0.00143462	0.248328	0.217523	0.155478	0.00102276	0.00246773	0.167333	0.358405	0.0994196	0.370823	
3.53	0.00280274	0.00147286	0.00147114	0.00160169	0.00154203	0.00297016	0.00274905	0.00287831	0.00141435	0.00138138	0.00134373	0.00121313	0.00196544	0.00210627	0.00297486	0.0028816	0.0028146	0.00309139	0.00287842	0.00284492	0.0011869	0.00310268	0.00283922	0.00182083	0.00279444	0.00119134	0.00119131	0.00282847	0.00131167	0.00271723	0.0029309	0.00280785	0.00226037	0.00194393	0.00244934	0.00149871	0.00138435	0.00141335	0.00139406	0.00136473	0.0016142	0.00102369	0.990299	0.974153	0.00102267	0.00102268	0.242878	0.202265	0.00107355	0.00102338	0.460065	0.0522096	0.149356	0.00102537	0.622383	0.60636	0.20424	0.999126	0.999308	0.999383	0.00119261	0.997173	0.999026	0.310022	0.00103951	0.226937	0.0220141	0.00105108	0.0010485	0.00110659	0.00143462	0.264253	0.218526	0.170811	0.00102272	0.0016008	0.172143	0.338169	0.136529	0.349145	
3.535	0.00280274	0.00147286	0.00147114	0.00160169	0.00154203	0.00297016	0.00274905	0.00287831	0.00141435	0.00138138	0.00134373	0.00121313	0.00196544	0.00210627	0.00297486	0.0028816	0.0028146	0.00309139	0.00287842	0.00284492	0.0011869	0.00310268	0.00283922	0.00182083	0.00279444	0.00119134	0.00119131	0.00282847	0.00131167	0.00271723	0.0029309	0.00280785	0.00226037	0.00194393	0.00244934	0.00149871	0.00138435	0.00141335	0.00139406	0.00136473	0.00135251	0.00102321	0.994057	0.984793	0.00102267	0.00102268	0.245835	0.2014	0.00107355	0.00102333	0.472447	0.0588144	0.171386	0.00102414	0.637425	0.621482	0.207562	0.999185	0.999308	0.999383	0.00112943	0.998785	0.999027	0.306108	0.00103949	0.248565	0.0220123	0.0010508	0.0010485	0.00110575	0.00143462	0.280061	0.219774	0.186537	0.00102269	0.00124461	0.171369	0.320212	0.170991	0.329758	
3.54	0.00280274	0.00147286	0.00147114	0.00160169	0.00154203	0.00297016	0.00274905	0.00287831	0.00141435	0.00138138	0.00134373	0.00121313	0.00196544	0.00210627	0.00297486	0.0028816	0.0028146	0.00309139	0.00287842	0.00284492	0.0011869	0.00310268	0.00283922	0.00182083	0.00279444	0.00119134	0.00119131	0.00282847	0.00131167	0.00271723	0.0029309	0.00280785	0.00226037	0.00194393	0.00244934	0.00149871	0.00138435	0.00141335	0.00139406	0.00136473	0.00120506	0.00102296	0.99623	0.990986	0.00102267	0.00102267	0.248735	0.200669	0.00107355	0.00102333	0.480148	0.0660529	0.195081	0.00102346	0.650637	0.63648	0.210833	0.99919	0.999308	0.999383	0.00110113	0.998976	0.999027	0.299764	0.00103948	0.263661	0.0220845	0.00105066	0.0010485	0.00110558	0.00143462	0.29419	0.22106	0.202882	0.00102268	0.00110001	0.167799	0.304234	0.206799	0.312326	
3.545	0.00280274	0.00147286	0.00147114	0.00160169	0.00154203	0.00297016	0.00274905	0.00287831	0.00141435	0.00138138	0.00134373	0.00121313	0.00196544	0.00210627	0.00297486	0.0028816	0.0028146	0.00309139	0.00287842	0.00284492	0.0011869	0.00310268	0.00283922	0.00182083	0.00279444	0.00119134	0.00119131	0.00282847	0.00131167	0.00271723	0.0029309	0.00280785	0.00226037	0.00194393	0.00244934	0.00149871	0.00138435	0.00141335	0.00139406	0.00136473	0.00112283	0.00102282	0.997467	0.994531	0.00102267	0.00102267	0.251344	0.200037	0.00107355	0.00102332	0.486974	0.0736892	0.219719	0.0010231	0.656711	0.645916	0.213734	0.999191	0.999308	0.999383	0.00108909	0.998998	0.999027	0.290986	0.00103948	0.273246	0.0222161	0.00105058	0.0010485	0.0144743	0.00143462	0.305048	0.22214	0.219667	0.00102268	0.00104186	0.163557	0.28994	0.233937	0.296531	
3.55	0.00280274	0.00147286	0.00147114	0.00160169	0.00154203	0.00297016	0.00274905	0.00287831	0.00141435	0.00138138	0.00134373	0.00121313	0.00196544	0.00210627	0.00297486	0.0028816	0.0028146	0.00309139	0.00287842	0.00284492	0.0011869	0.00310268	0.00283922	0.00182083	0.00279444	0.00119134	0.00119131	0.00282847	0.00131167	0.00271723	0.0029309	0.00280785	0.00226037	0.00194393	0.00244934	0.00149871	0.00138435	0.00141335	0.00139406	0.00136473	0.00107735	0.00102275	0.759609	0.797764	0.00104481	0.00102267	0.253566	0.199472	0.00107355	0.00102332	0.492191	0.0814724	0.244667	0.0010229	0.655317	0.648907	0.216151	0.999191	0.999308	0.174281	0.00108414	0.999	0.999027	0.279946	0.15204	0.278602	0.0223929	0.00105054	0.0010485	0.0509748	0.00143462	0.312321	0.222909	0.236797	0.0915506	0.00101867	0.160035	0.277026	0.249996	0.282044	
3.555	0.00280274	0.00147286	0.00147114	0.00160169	0.00154203	0.00297016	0.00274905	0.00287831	0.00141435	0.00138138	0.00134373	0.00121313	0.00196544	0.00210627	0.00297486	0.0028816	0.0028146	0.00309139	0.00287842	0.00284492	0.0011869	0.00310268	0.00283922	0.00182083	0.00279444	0.00119134	0.00119131	0.00282847	0.00131167	0.00271723	0.0029309	0.00280785	0.00226037	0.00194393	0.00244934	0.00149871	0.00138435	0.00141335	0.00139406	0.00136473	0.00105236	0.00102271	0.524342	0.635244	0.00104511	0.00102267	0.255402	0.198942	0.00107355	0.00102332	0.495709	0.0891908	0.269355	0.00102279	0.647783	0.646527	0.218137	0.999191	0.999308	0.0183187	0.00108216	0.999	0.687904	0.267763	0.226886	0.281002	0.0226035	0.00105051	0.0010485	0.0646991	0.00143462	0.316645	0.223402	0.254142	0.122043	0.00100948	0.157849	0.265186	0.252622	0.268561	
3.56	0.00280274	0.00147286	0.00147114	0.00160169	0.00154203	0.00297016	0.00274905	0.00287831	0.00141435	0.00138138	0.00134373	0.00121313	0.00196544	0.00210627	0.00297486	0.0028816	0.0028146	0.00309139	0.00287842	0.00284492	0.0011869	0.00310268	0.00283922	0.00182083	0.00279444	0.00119134	0.00119131	0.00282847	0.00131167	0.00271723	0.0029309	0.00280785	0.00226037	0.00194393	0.00244934	0.00149871	0.00138435	0.00141335	0.00139406	0.00136473	0.051659	0.00102269	0.494489	0.55394	0.00103974	0.00102267	0.256852	0.198419	0.00107355	0.00102332	0.500177	0.0966704	0.293303	0.00102273	0.635119	0.639556	0.219717	0.999191	0.776093	0.00291847	0.00108138	0.999	0.143569	0.255519	0.326692	0.281603	0.0228395	0.0010505	0.0010485	0.0695563	0.00143462	0.31856	0.223651	0.271624	0.100516	0.00100586	0.156964	0.25412	0.243941	0.255808	
3.565	0.00280274	0.00147286	0.00147114	0.00160169	0.00154203	0.00297016	0.00274905	0.00287831	0.00141435	0.00138138	0.00134373	0.00121313	0.00196544	0.00210627	0.00297486	0.0028816	0.0028146	0.00309139	0.00287842	0.00284492	0.0011869	0.00310268	0.00283922	0.00182083	0.00279444	0.00119134	0.00119131	0.00282847	0.00131167	0.00271723	0.0029309	0.00280785	0.00226037	0.00194393	0.00244934	0.00149871	0.00138435	0.00141335	0.00139406	0.00136473	0.0838038	0.00102268	0.455412	0.48549	0.0010342	0.00102267	0.257913	0.197881	0.00107355	0.00102332	0.503978	0.103771	0.316129	0.0010227	0.618407	0.62876	0.220895	0.999191	0.653912	0.00162587	0.00108107	0.999	0.0223423	0.243325	0.457548	0.281289	0.0230948	0.0010505	0.0010485	0.0737223	0.00143462	0.318467	0.223677	0.288881	0.0766929	0.00100445	0.157222	0.24355	0.225873	0.243558	
3.57	0.00280274	0.00147286	0.00147114	0.00160169	0.00154203	0.00297016	0.00274905	0.00287831	0.00141435	0.00138138	0.00134373	0.00121313	0.00196544	0.00210627	0.00297486	0.0028816	0.0028146	0.00309139	0.00287842	0.00284492	0.0011869	0.00310268	0.00283922	0.00182083	0.00279444	0.00119134	0.00119131	0.00282847	0.00131167	0.00271723	0.0029309	0.00280785	0.00226037	0.00194393	0.00244934	0.00149871	0.00138435	0.00141335	0.00139406	0.00136473	0.10598	0.00102267	0.398644	0.420653	0.00102998	0.00102267	0.258588	0.197308	0.00107355	0.00102332	0.507275	0.110385	0.337546	0.00102269	0.598582	0.614844	0.221678	0.999191	0.492622	0.00152426	0.00108095	0.999	0.00359641	0.23135	0.561101	0.280589	0.0233691	0.00105049	0.0010485	0.0748457	0.00143462	0.316746	0.223505	0.305134	0.0578122	0.00100389	0.158291	0.233237	0.192154	0.231624	
3.575	0.00280274	0.00147286	0.00147114	0.00160169	0.00154203	0.00297016	0.00274905	0.00287831	0.00141435	0.00138138	0.00134373	0.00121313	0.00196544	0.00210627	0.00297486	0.0028816	0.0028146	0.00309139	0.00287842	0.00284492	0.0011869	0.00310268	0.00283922	0.00182083	0.00279444	0.00119134	0.00119131	0.00282847	0.00131167	0.00271723	0.0029309	0.00280785	0.00226037	0.00194393	0.00244934	0.00149871	0.00138435	0.00141335	0.00139406	0.00136473	0.109193	0.00102267	0.338852	0.361826	0.00102711	0.00102267	0.258885	0.196685	0.00107355	0.00102332	0.51286	0.116435	0.357327	0.00102268	0.576419	0.598414	0.222073	0.999191	0.337906	0.00151657	0.00108091	0.999	0.0013085	0.219762	0.626078	0.279807	0.0236574	0.00105049	0.0010485	0.0733706	0.00143462	0.313753	0.223164	0.319929	0.0428998	0.00100368	0.160105	0.222964	0.143	0.219842	
3.58	0.00280274	0.00147286	0.00147114	0.00160169	0.00154203	0.00297016	0.00274905	0.00287831	0.00141435	0.00138138	0.00134373	0.00121313	0.00196544	0.00210627	0.00297486	0.0028816	0.0028146	0.00309139	0.00287842	0.00284492	0.0011869	0.00310268	0.00283922	0.00182083	0.00279444	0.00119134	0.00119131	0.00282847	0.00131167	0.00271723	0.0029309	0.00280785	0.00226037	0.00194393	0.00244934	0.00149871	0.00138435	0.00141335	0.00139406	0.00136473	0.0919724	0.00102267	0.279766	0.312171	0.0010253	0.00102267	0.258818	0.196	0.00107355	0.00102332	0.518322	0.121866	0.375347	0.00102267	0.552531	0.579966	0.222087	0.999191	0.201396	0.001516	0.00108089	0.902094	0.00105673	0.208639	0.681968	0.279245	0.0239679	0.00105049	0.0010485	0.0698206	0.00143462	0.309779	0.222678	0.332252	0.0323795	0.00100359	0.162604	0.212586	0.0805292	0.208118	
3.585	0.00280274	0.00147286	0.00147114	0.00160169	0.00154203	0.00297016	0.00274905	0.00287831	0.00141435	0.00138138	0.00134373	0.00121313	0.00196544	0.00210627	0.00297486	0.0028816	0.0028146	0.00309139	0.00287842	0.00284492	0.0011869	0.00310268	0.00283922	0.00182083	0.00279444	0.00119134	0.00119131	0.00282847	0.00131167	0.00271723	0.0029309	0.00280785	0.00226037	0.00194393	0.00244934	0.00149871	0.00138435	0.00141335	0.00139406	0.00136473	0.0654609	0.00102267	0.227709	0.277369	0.00102419	0.00102267	0.258401	0.195246	0.00107355	0.00102332	0.522539	0.12669	0.391546	0.00102267	0.527455	0.55995	0.221729	0.999191	0.171275	0.00151596	0.00108089	0.861839	0.00103059	0.198067	0.718798	0.279046	0.0242954	0.00105049	0.0010485	0.0644283	0.00143462	0.3051	0.22207	0.341443	0.0235153	0.00100356	0.165842	0.201937	0.00874365	0.196075	
3.59	0.00280274	0.00147286	0.00147114	0.00160169	0.00154203	0.00297016	0.00274905	0.00287831	0.00141435	0.00138138	0.00134373	0.00121313	0.00196544	0.00210627	0.00297486	0.0028816	0.0028146	0.00309139	0.00287842	0.00284492	0.0011869	0.00310268	0.00283922	0.00182083	0.00279444	0.00119134	0.00119131	0.00282847	0.00131167	0.00271723	0.0029309	0.00280785	0.00226037	0.00194393	0.00244934	0.00149871	0.00138435	0.00141335	0.00139406	0.00136473	0.0429881	0.00102267	0.226919	0.290487	0.00102354	0.00102267	0.257698	0.194482	0.00107355	0.00102332	0.52901	0.130895	0.405984	0.00102267	0.501681	0.538813	0.221015	0.999191	0.0197867	0.00151596	0.00108088	0.974246	0.00102798	0.19118	0.655149	0.279338	0.0246467	0.00105049	0.0010485	0.0393039	0.642884	0.301147	0.221506	0.346787	0.0157697	0.00100355	0.169943	0.189451	0.0676921	0.182526	
3.595	0.00280274	0.00147286	0.00147114	0.00160169	0.00154203	0.00297016	0.00274905	0.00287831	0.00141435	0.00138138	0.00134373	0.00121313	0.00196544	0.00210627	0.00297486	0.0028816	0.0028146	0.00309139	0.00287842	0.00284492	0.0011869	0.00310268	0.00283922	0.00182083	0.00279444	0.00119134	0.00119131	0.00282847	0.00131167	0.00271723	0.0029309	0.00280785	0.00226037	0.00194393	0.00244934	0.00149871	0.00138435	0.00141335	0.00139406	0.00136473	0.027011	0.00102267	0.171998	0.226981	0.00102316	0.00102267	0.256777	0.193793	0.00107355	0.00102332	0.534111	0.134526	0.41878	0.00102267	0.475974	0.517082	0.21993	0.999191	0.00286434	0.00187691	0.00108088	0.995555	0.00102773	0.189567	0.60841	0.280171	0.0250377	0.00105049	0.0010485	0.0125463	0.882706	0.299448	0.221159	0.347936	0.0101939	0.00100354	0.174961	0.175968	0.00778389	0.16827	
3.6	0.00280274	0.00147286	0.00147114	0.00160169	0.00154203	0.00297016	0.00274905	0.00287831	0.00141435	0.00138138	0.00134373	0.00121313	0.00196544	0.00210627	0.00297486	0.0028816	0.0028146	0.00309139	0.00287842	0.00284492	0.0011869	0.00310268	0.00283922	0.00182083	0.00279444	0.00119134	0.00119131	0.00282847	0.00131167	0.00271723	0.0029309	0.00280785	0.00226037	0.00194393	0.00244934	0.00149871	0.00138435	0.00141335	0.00139406	0.00136473	0.0165866	0.00102267	0.116386	0.155862	0.00102294	0.00102267	0.2557	0.193281	0.00107355	0.00102332	0.53928	0.1376	0.430057	0.00102267	0.451652	0.495606	0.218442	0.999191	0.05767	0.00156085	0.00108088	0.998569	0.0010277	0.192391	0.571275	0.281224	0.0254662	0.00105049	0.0010485	0.00393701	0.96159	0.301369	0.221192	0.344711	0.00677686	0.00100354	0.181013	0.162107	0.045521	0.153889	
3.605	0.00280274	0.00147286	0.00147114	0.00160169	0.00154203	0.00297016	0.00274905	0.00287831	0.00141435	0.00138138	0.00134373	0.00121313	0.00196544	0.00210627	0.00297486	0.0028816	0.0028146	0.00309139	0.00287842	0.00284492	0.0011869	0.00310268	0.00283922	0.00182083	0.00279444	0.00119134	0.00119131	0.00282847	0.00131167	0.00271723	0.0029309	0.00280785	0.00226037	0.00194393	0.00244934	0.00149871	0.00138435	0.00141335	0.00139406	0.00136473	0.0101235	0.00102267	0.0740603	0.0999705	0.00102282	0.00102267	0.254518	0.193042	0.00107355	0.00102332	0.541017	0.140111	0.439946	0.00102267	0.430339	0.47546	0.216593	0.999191	0.0677283	0.00152016	0.00108088	0.99895	0.0010277	0.196665	0.527904	0.282125	0.0259407	0.00105049	0.0010485	0.00174563	0.970797	0.307773	0.221729	0.337275	0.0623906	0.00100354	0.187917	0.148319	0.00554827	0.139792	
3.61	0.00280274	0.00147286	0.00147114	0.00160169	0.00154203	0.00297016	0.00274905	0.00287831	0.00141435	0.00138138	0.00134373	0.00121313	0.00196544	0.00210627	0.00297486	0.0028816	0.0028146	0.00309139	0.00287842	0.00284492	0.0011869	0.00310268	0.00283922	0.00182083	0.00279444	0.00119134	0.00119131	0.00282847	0.00131167	0.00271723	0.0029309	0.00280785	0.00226037	0.00194393	0.00244934	0.00149871	0.00138435	0.00141335	0.00139406	0.00136473	0.00624986	0.00102267	0.0454265	0.0615527	0.00112705	0.00102267	0.253263	0.19315	0.00107355	0.00102332	0.534043	0.141931	0.448509	0.00102267	0.413699	0.457809	0.214424	0.999191	0.00989698	0.00151631	0.00108088	0.998995	0.0010277	0.197241	0.49136	0.28163	0.0264383	0.00105049	0.0010485	0.00124277	0.966996	0.318769	0.222827	0.326011	0.186851	0.00100354	0.194833	0.135477	0.0228568	0.126263	
3.615	0.00280274	0.00147286	0.00147114	0.00160169	0.00154203	0.00297016	0.00274905	0.00287831	0.00141435	0.00138138	0.00134373	0.00121313	0.00196544	0.00210627	0.00297486	0.0028816	0.0028146	0.00309139	0.00287842	0.00284492	0.0011869	0.00310268	0.00283922	0.00182083	0.00279444	0.00119134	0.00119131	0.00282847	0.00131167	0.00271723	0.0029309	0.00280785	0.00226037	0.00194393	0.00244934	0.00149871	0.00138435	0.00141335	0.00139406	0.00136473	0.00398352	0.00102267	0.0272711	0.0369616	0.00291362	0.00102267	0.251949	0.193653	0.00107355	0.00102332	0.514767	0.142885	0.455759	0.00102267	0.403301	0.443869	0.211969	0.999191	0.00211093	0.00151598	0.00108088	0.999	0.0010277	0.194802	0.457039	0.27843	0.0269298	0.00105049	0.0010485	0.00113396	0.962214	0.333816	0.224491	0.311344	0.394068	0.00100354	0.200746	0.123464	0.00327474	0.113487	
3.62	0.00280274	0.00147286	0.00147114	0.00160169	0.00154203	0.00297016	0.00274905	0.00287831	0.00141435	0.00138138	0.00134373	0.00121313	0.00196544	0.00210627	0.00297486	0.0028816	0.0028146	0.00309139	0.00287842	0.00284492	0.0011869	0.00310268	0.00283922	0.00182083	0.00279444	0.00119134	0.00119131	0.00282847	0.00131167	0.00271723	0.0029309	0.00280785	0.00226037	0.00194393	0.00244934	0.00149871	0.00138435	0.00141335	0.00139406	0.00136473	0.00268125	0.00102267	0.0162231	0.021903	0.00291291	0.00102267	0.250572	0.194583	0.00107355	0.00102332	0.493043	0.142886	0.4617	0.00102267	0.400502	0.43485	0.209262	0.999191	0.0728189	0.00151596	0.00108088	0.999	0.0010277	0.19007	0.422289	0.272118	0.0273894	0.00105049	0.0010485	0.00111128	0.957127	0.351954	0.226681	0.293678	0.595276	0.00100354	0.205152	0.11219	0.0126231	0.101572	
3.625	0.00280274	0.00147286	0.00147114	0.00160169	0.00154203	0.00297016	0.00274905	0.00287831	0.00141435	0.00138138	0.00134373	0.00121313	0.00196544	0.00210627	0.00297486	0.0028816	0.0028146	0.00309139	0.00287842	0.00284492	0.0011869	0.00310268	0.00283922	0.00182083	0.00279444	0.00119134	0.00119131	0.00282847	0.00131167	0.00271723	0.0029309	0.00280785	0.00226037	0.00194393	0.00244934	0.00149871	0.00138435	0.00141335	0.00139406	0.00136473	0.00194335	0.00102267	0.00968798	0.0129561	0.00245315	0.00102267	0.249113	0.195952	0.00107355	0.00102332	0.462219	0.141918	0.466371	0.00102267	0.405609	0.431894	0.206334	0.999191	0.0788038	0.00151596	0.00108088	0.999	0.0010277	0.183637	0.379558	0.262818	0.0277966	0.00105049	0.0010485	0.00110668	0.951656	0.372004	0.229302	0.273601	0.745307	0.00100354	0.207924	0.101599	0.00225419	0.0905747	
3.63	0.00280274	0.00147286	0.00147114	0.00160169	0.00154203	0.00297016	0.00274905	0.00287831	0.00141435	0.00138138	0.00134373	0.00121313	0.00196544	0.00210627	0.00297486	0.0028816	0.0028146	0.00309139	0.00287842	0.00284492	0.0011869	0.00310268	0.00283922	0.00182083	0.00279444	0.00119134	0.00119131	0.00282847	0.00131167	0.00271723	0.0029309	0.00280785	0.00226037	0.00194393	0.00244934	0.00149871	0.00138435	0.00141335	0.00139406	0.00136473	0.00152988	0.00102267	0.00590171	0.00775533	0.00324087	0.00102267	0.247544	0.197749	0.00107355	0.00102332	0.429567	0.140034	0.469827	0.00102267	0.416899	0.43471	0.203213	0.999191	0.0253959	0.00151596	0.00108088	0.999	0.0010277	0.175985	0.323549	0.251046	0.0281372	0.00105049	0.0010485	0.00110576	0.946113	0.392843	0.23224	0.252058	0.845546	0.00100354	0.209063	0.091658	0.00119279	0.0805101	
3.635	0.00280274	0.00147286	0.00147114	0.00160169	0.00154203	0.00297016	0.00274905	0.00287831	0.00141435	0.00138138	0.00134373	0.00121313	0.00196544	0.00210627	0.00297486	0.0028816	0.0028146	0.00309139	0.00287842	0.00284492	0.0011869	0.00310268	0.00283922	0.00182083	0.00279444	0.00119134	0.00119131	0.00282847	0.00131167	0.00271723	0.0029309	0.00280785	0.00226037	0.00194393	0.00244934	0.00149871	0.00138435	0.00141335	0.00139406	0.00136473	0.00130032	0.00102267	0.00374246	0.00478188	0.00290396	0.00102267	0.245818	0.199948	0.00107355	0.00102332	0.390125	0.137281	0.472137	0.00102267	0.432936	0.442214	0.199925	0.999191	0.00548346	0.00151596	0.00108088	0.999	0.0010277	0.167505	0.253336	0.237042	0.0283957	0.00105049	0.0010485	0.00110558	0.940743	0.413365	0.235338	0.229227	0.908601	0.00100354	0.208288	0.0824462	0.00111259	0.0713643	
3.64	0.00280274	0.00147286	0.00147114	0.00160169	0.00154203	0.00297016	0.00274905	0.00287831	0.00141435	0.00138138	0.00134373	0.00121313	0.00196544	0.00210627	0.00297486	0.0028816	0.0028146	0.00309139	0.00287842	0.00284492	0.0011869	0.00310268	0.00283922	0.00182083	0.00279444	0.00119134	0.00119131	0.00282847	0.00131167	0.00271723	0.0029309	0.00280785	0.00226037	0.00194393	0.00244934	0.00149871	0.00138435	0.00141335	0.00139406	0.00136473	0.00117382	0.00102267	0.00252631	0.00310378	0.00235998	0.00102267	0.243696	0.202445	0.00107355	0.00102332	0.23294	0.133479	0.473084	0.00102267	0.452528	0.453482	0.196494	0.999191	0.0681805	0.00151596	0.00108088	0.999	0.0010277	0.158509	0.446184	0.217986	0.0285012	0.00105049	0.0010485	0.00110555	0.935748	0.430863	0.238044	0.205807	0.946777	0.00100354	0.200631	0.0739106	0.00110723	0.0631036	
3.645	0.00280274	0.00147286	0.00147114	0.00160169	0.00154203	0.00297016	0.00274905	0.00287831	0.00141435	0.00138138	0.00134373	0.00121313	0.00196544	0.00210627	0.00297486	0.0028816	0.0028146	0.00309139	0.00287842	0.00284492	0.0011869	0.00310268	0.00283922	0.00182083	0.00279444	0.00119134	0.00119131	0.00282847	0.00131167	0.00271723	0.0029309	0.00280785	0.00226037	0.00194393	0.00244934	0.00149871	0.00138435	0.00141335	0.00139406	0.00136473	0.00110456	0.00102267	0.00184822	0.00216657	0.00430196	0.00102267	0.241317	0.205233	0.00107355	0.00102332	0.19787	0.128911	0.472952	0.00102267	0.474689	0.46772	0.192941	0.999191	0.309493	0.00151596	0.00108088	0.999	0.0010277	0.149248	0.36959	0.197142	0.0284891	0.00105049	0.0010485	0.00110554	0.930634	0.446641	0.240553	0.182435	0.969285	0.00100354	0.189662	0.0660647	0.00110689	0.0556812	
