CEINMS output
datacolumns 81
datarows 92
endheader
time	addbrev_r	addlong_r	addmagDist_r	addmagIsch_r	addmagMid_r	addmagProx_r	bflh_r	bfsh_r	edl_r	ehl_r	fdl_r	fhl_r	gaslat_r	gasmed_r	glmax1_r	glmax2_r	glmax3_r	glmed1_r	glmed2_r	glmed3_r	glmin1_r	glmin2_r	glmin3_r	grac_r	iliacus_r	perbrev_r	perlong_r	piri_r	psoas_r	recfem_r	sart_r	semimem_r	semiten_r	soleus_r	tfl_r	tibant_r	tibpost_r	vasint_r	vaslat_r	vasmed_r	addbrev_l	addlong_l	addmagDist_l	addmagIsch_l	addmagMid_l	addmagProx_l	bflh_l	bfsh_l	edl_l	ehl_l	fdl_l	fhl_l	gaslat_l	gasmed_l	glmax1_l	glmax2_l	glmax3_l	glmed1_l	glmed2_l	glmed3_l	glmin1_l	glmin2_l	glmin3_l	grac_l	iliacus_l	perbrev_l	perlong_l	piri_l	psoas_l	recfem_l	sart_l	semimem_l	semiten_l	soleus_l	tfl_l	tibant_l	tibpost_l	vasint_l	vaslat_l	vasmed_l	
3.19	5.25622e-05	0.000773534	0.00016652	8.78867e-05	4.43359e-05	5.80862e-05	0.000914131	0.000462873	0.000262921	0.000135634	0.000424936	0.000438306	0.000917762	0.00140491	0.00213725	0.00204146	0.00195583	0.00213877	0.00212431	0.00190726	0.000448302	0.00213027	0.00188348	0.000181635	0.000348778	0.00041468	0.000219886	0.00202193	0.000132482	0.000116513	6.46323e-05	0.00216718	0.0011681	0.000901844	5.62209e-05	8.96996e-05	0.000568391	0.000261346	0.000128386	0.000122691	0.000248659	0.000248659	0.247057	0.247057	0.213142	0.000248659	0.00218503	0.000336886	0.000968885	0.000739262	0.790461	0.0119252	0.00462971	0.000248659	0.00651053	0.00921544	0.000738698	0.872914	0.924278	0.0016339	0.445186	0.821272	0.000862863	0.0146918	0.000284681	0.0555615	0.00608472	0.000267727	0.000776532	0.222734	0.65495	0.0101508	0.00146704	0.0401541	0.000248659	0.0738659	0.0777985	2.55801e-05	0.000998959	3.03582e-05	
3.195	0.000143169	0.00119938	0.0003875	0.000222473	0.000117934	0.000157914	0.00168795	0.00101731	0.000562033	0.000321892	0.000796865	0.000787985	0.0014989	0.00191979	0.0027885	0.00268745	0.00260659	0.00285819	0.00272277	0.00259835	0.000793858	0.00286018	0.00258216	0.000430155	0.000799858	0.00075472	0.000470716	0.0026465	0.000313226	0.000301267	0.000174491	0.00269349	0.00182472	0.0014769	0.000151563	0.000225198	0.000976726	0.000559261	0.000307226	0.000294488	0.000500749	0.000500749	0.494782	0.494782	0.460778	0.0496698	0.00463649	0.000851047	0.00106577	0.0009611	0.895993	0.0371197	0.0107054	0.000500749	0.015644	0.0233416	0.00151244	0.718132	0.993503	0.201283	0.312617	0.15406	0.0010073	0.0344107	0.00055606	0.154232	0.0185915	0.000532862	0.000993041	0.245904	0.887549	0.0245938	0.00360879	0.0804017	0.000500749	0.14439	0.191134	6.86385e-05	0.00109884	8.10598e-05	
3.2	0.00280274	0.00147286	0.00147114	0.00160169	0.00154203	0.00297016	0.00274905	0.00287831	0.00141435	0.00138138	0.00134373	0.00121313	0.00196544	0.00210627	0.00297486	0.0028816	0.0028146	0.00309139	0.00287842	0.00284492	0.0011869	0.00310268	0.00283922	0.00182083	0.00279444	0.00119134	0.00119131	0.00282847	0.00131167	0.00271723	0.0029309	0.00280785	0.00226037	0.00194393	0.00244934	0.00149871	0.00138435	0.00141335	0.00139406	0.00136473	0.00102267	0.00102267	0.927144	0.862322	0.811799	0.106957	0.491984	0.14575	0.00107355	0.00102332	0.807672	0.890637	0.542606	0.00102267	0.428678	0.854813	0.18226	0.58513	0.819169	0.0160452	0.303626	0.0898526	0.0010277	0.789171	0.00103947	0.908382	0.878523	0.00105049	0.0010485	0.291037	0.98972	0.804791	0.423103	0.213119	0.00102267	0.230833	0.993984	0.00103384	0.00110687	0.00113001	
3.205	0.00280274	0.00147286	0.00147114	0.00160169	0.00154203	0.00297016	0.00274905	0.00287831	0.00141435	0.00138138	0.00134373	0.00121313	0.00196544	0.00210627	0.00297486	0.0028816	0.0028146	0.00309139	0.00287842	0.00284492	0.0011869	0.00310268	0.00283922	0.00182083	0.00279444	0.00119134	0.00119131	0.00282847	0.00131167	0.00271723	0.0029309	0.00280785	0.00226037	0.00194393	0.00244934	0.00149871	0.00138435	0.00141335	0.00139406	0.00136473	0.0940233	0.0980708	0.686804	0.62036	0.586215	0.0960595	0.489897	0.145548	0.00107355	0.00102332	0.602624	0.884245	0.537999	0.00102267	0.420294	0.841338	0.181634	0.476127	0.107677	0.00286725	0.584373	0.506222	0.0010277	0.784629	0.282125	0.883708	0.876573	0.00105049	0.749243	0.326277	0.994597	0.792772	0.422015	0.19625	0.00102267	0.261366	0.972685	0.00103384	0.00110687	0.00113001	
3.21	0.00280274	0.00147286	0.00147114	0.00160169	0.00154203	0.00297016	0.00274905	0.00287831	0.00141435	0.00138138	0.00134373	0.00121313	0.00196544	0.00210627	0.00297486	0.0028816	0.0028146	0.00309139	0.00287842	0.00284492	0.0011869	0.00310268	0.00283922	0.00182083	0.00279444	0.00119134	0.00119131	0.00282847	0.00131167	0.00271723	0.0029309	0.00280785	0.00226037	0.00194393	0.00244934	0.00149871	0.00138435	0.00141335	0.00139406	0.00136473	0.219837	0.208166	0.459343	0.408319	0.386622	0.089261	0.486907	0.145247	0.00107355	0.00102332	0.572432	0.873254	0.531436	0.00102267	0.408545	0.822582	0.180683	0.313169	0.010084	0.00162827	0.796648	0.513886	0.0010277	0.778268	0.544558	0.846152	0.873166	0.00105049	0.948608	0.356515	0.997548	0.776548	0.420385	0.174857	0.00102267	0.296054	0.940765	0.00103384	0.00110687	0.00113001	
3.215	0.00280274	0.00147286	0.00147114	0.00160169	0.00154203	0.00297016	0.00274905	0.00287831	0.00141435	0.00138138	0.00134373	0.00121313	0.00196544	0.00210627	0.00297486	0.0028816	0.0028146	0.00309139	0.00287842	0.00284492	0.0011869	0.00310268	0.00283922	0.00182083	0.00279444	0.00119134	0.00119131	0.00282847	0.00131167	0.00271723	0.0029309	0.00280785	0.00226037	0.00194393	0.00244934	0.00149871	0.00138435	0.00141335	0.00139406	0.00136473	0.300854	0.265851	0.289646	0.25491	0.241682	0.0807434	0.483112	0.144851	0.00107355	0.00102332	0.790294	0.857969	0.52315	0.00102267	0.394282	0.799683	0.179462	0.322138	0.0020111	0.00152476	0.908481	0.0923683	0.0530873	0.770333	0.728956	0.794957	0.868319	0.0172127	0.989809	0.37825	0.998724	0.757095	0.418241	0.151157	0.00102267	0.334758	0.892044	0.00106986	0.00110687	0.00113001	
3.22	0.00280274	0.00147286	0.00147114	0.00160169	0.00154203	0.00297016	0.00274905	0.00287831	0.00141435	0.00138138	0.00134373	0.00121313	0.00196544	0.00210627	0.00297486	0.0028816	0.0028146	0.00309139	0.00287842	0.00284492	0.0011869	0.00310268	0.00283922	0.00182083	0.00279444	0.00119134	0.00119131	0.00282847	0.00131167	0.00271723	0.0029309	0.00280785	0.00226037	0.00194393	0.00244934	0.00149871	0.00138435	0.00141335	0.00139406	0.00136473	0.347299	0.284625	0.17586	0.153745	0.145912	0.0818358	0.478606	0.144364	0.00107355	0.00102332	0.839308	0.83939	0.513383	0.00102267	0.378207	0.773609	0.178033	0.213258	0.0014303	0.00151662	0.960505	0.0136604	0.0604937	0.761043	0.844774	0.736775	0.862218	0.0326857	0.99745	0.396859	0.999137	0.735295	0.415619	0.127398	0.00102267	0.373617	0.831769	0.00119428	0.00110687	0.00113001	
3.225	0.00280274	0.00147286	0.00147114	0.00160169	0.00154203	0.00297016	0.00274905	0.00287831	0.00141435	0.00138138	0.00134373	0.00121313	0.00196544	0.00210627	0.00297486	0.0028816	0.0028146	0.00309139	0.00287842	0.00284492	0.0011869	0.00310268	0.00283922	0.00182083	0.00279444	0.00119134	0.00119131	0.00282847	0.00131167	0.00271723	0.0029309	0.00280785	0.00226037	0.00194393	0.00244934	0.00149871	0.00138435	0.00141335	0.00139406	0.00136473	0.381648	0.292416	0.104088	0.090595	0.0882031	0.0902515	0.473467	0.143791	0.00107355	0.00102332	0.845858	0.81832	0.502356	0.00102267	0.360895	0.745181	0.17642	0.107164	0.00139112	0.001516	0.983192	0.00258123	0.0604439	0.750572	0.913283	0.676108	0.855021	0.0437529	0.998781	0.417038	0.999273	0.711876	0.41256	0.104751	0.00102267	0.412123	0.763972	0.0013377	0.00110687	0.00113001	
3.23	0.00280274	0.00147286	0.00147114	0.00160169	0.00154203	0.00297016	0.00274905	0.00287831	0.00141435	0.00138138	0.00134373	0.00121313	0.00196544	0.00210627	0.00297486	0.0028816	0.0028146	0.00309139	0.00287842	0.00284492	0.0011869	0.00310268	0.00283922	0.00182083	0.00279444	0.00119134	0.00119131	0.00282847	0.00131167	0.00271723	0.0029309	0.00280785	0.00226037	0.00194393	0.00244934	0.00149871	0.00138435	0.00141335	0.00139406	0.00136473	0.424698	0.307202	0.0605719	0.0525781	0.0711953	0.110823	0.467771	0.143135	0.00107355	0.00102332	0.853661	0.795307	0.490296	0.00102267	0.34282	0.715091	0.174636	0.0168233	0.00138858	0.00151596	0.99269	0.00118718	0.0751638	0.739094	0.952308	0.615784	0.846832	0.050026	0.999004	0.434108	0.999317	0.687494	0.409108	0.0845168	0.00102267	0.44635	0.692057	0.00146885	0.00110687	0.00113001	
3.235	0.00280274	0.00147286	0.00147114	0.00160169	0.00154203	0.00297016	0.00274905	0.00287831	0.00141435	0.00138138	0.00134373	0.00121313	0.00196544	0.00210627	0.00297486	0.0028816	0.0028146	0.00309139	0.00287842	0.00284492	0.0011869	0.00310268	0.00283922	0.00182083	0.00279444	0.00119134	0.00119131	0.00282847	0.00131167	0.00271723	0.0029309	0.00280785	0.00226037	0.00194393	0.00244934	0.00149871	0.00138435	0.00141335	0.00139406	0.00136473	0.485409	0.335349	0.0349052	0.0302693	0.0839696	0.149094	0.461588	0.14238	0.00107355	0.00102332	0.867309	0.770681	0.477422	0.00102267	0.32436	0.68392	0.172672	0.00302215	0.00138841	0.00151596	0.820446	0.00102181	0.070162	0.726774	0.973961	0.557323	0.837709	0.0519639	0.99904	0.444929	0.99933	0.662687	0.405312	0.0670166	0.00102267	0.47633	0.618945	0.00159436	0.00110687	0.00113001	
3.24	0.00280274	0.00147286	0.00147114	0.00160169	0.00154203	0.00297016	0.00274905	0.00287831	0.00141435	0.00138138	0.00134373	0.00121313	0.00196544	0.00210627	0.00297486	0.0028816	0.0028146	0.00309139	0.00287842	0.00284492	0.0011869	0.00310268	0.00283922	0.00182083	0.00279444	0.00119134	0.00119131	0.00282847	0.00131167	0.00271723	0.0029309	0.00280785	0.00226037	0.00194393	0.00244934	0.00149871	0.00138435	0.00141335	0.00139406	0.00136473	0.541679	0.364643	0.0200693	0.017424	0.0931405	0.186012	0.454985	0.141537	0.00107355	0.00102332	0.868917	0.744944	0.46394	0.00102267	0.305823	0.652153	0.170518	0.00140705	0.0013884	0.00151596	0.5709	0.00100288	0.0675972	0.713771	0.985745	0.50278	0.827762	0.0588735	0.999046	0.449474	0.999335	0.637932	0.401225	0.0525998	0.00102267	0.499919	0.547074	0.00171243	0.00110687	0.00113001	
3.245	0.00280274	0.00147286	0.00147114	0.00160169	0.00154203	0.00297016	0.00274905	0.00287831	0.00141435	0.00138138	0.00134373	0.00121313	0.00196544	0.00210627	0.00297486	0.0028816	0.0028146	0.00309139	0.00287842	0.00284492	0.0011869	0.00310268	0.00283922	0.00182083	0.00279444	0.00119134	0.00119131	0.00282847	0.00131167	0.00271723	0.0029309	0.00280785	0.00226037	0.00194393	0.00244934	0.00149871	0.00138435	0.00141335	0.00139406	0.00136473	0.585646	0.388415	0.0116253	0.0101348	0.0978548	0.214899	0.448024	0.140613	0.00107355	0.00102332	0.87095	0.71854	0.450034	0.00102267	0.287452	0.620191	0.16818	0.00123731	0.0013884	0.00151596	0.312158	0.00100076	0.0662482	0.700192	0.992061	0.454161	0.817095	0.0668712	0.999047	0.453355	0.999336	0.613617	0.396899	0.0412892	0.00102267	0.516989	0.478366	0.00184007	0.00110687	0.00113001	
3.25	0.00280274	0.00147286	0.00147114	0.00160169	0.00154203	0.00297016	0.00274905	0.00287831	0.00141435	0.00138138	0.00134373	0.00121313	0.00196544	0.00210627	0.00297486	0.0028816	0.0028146	0.00309139	0.00287842	0.00284492	0.0011869	0.00310268	0.00283922	0.00182083	0.00279444	0.00119134	0.00119131	0.00282847	0.00131167	0.00271723	0.0029309	0.00280785	0.00226037	0.00194393	0.00244934	0.00149871	0.00138435	0.00141335	0.00139406	0.00136473	0.639306	0.413774	0.00687731	0.00604609	0.1485	0.256494	0.440759	0.139618	0.00107355	0.00102332	0.876861	0.691877	0.435851	0.00102267	0.269436	0.588365	0.16568	0.00122046	0.0013884	0.00151596	0.148829	0.00100053	0.117084	0.686146	0.995407	0.41472	0.805777	0.0867857	0.999047	0.458924	0.999336	0.590011	0.392382	0.0329282	0.00102267	0.527182	0.414218	0.00201166	0.00110687	0.00113001	
3.255	0.00280274	0.00147286	0.00147114	0.00160169	0.00154203	0.00297016	0.00274905	0.00287831	0.00141435	0.00138138	0.00134373	0.00121313	0.00196544	0.00210627	0.00297486	0.0028816	0.0028146	0.00309139	0.00287842	0.00284492	0.0011869	0.00310268	0.00283922	0.00182083	0.00279444	0.00119134	0.00119131	0.00282847	0.00131167	0.00271723	0.0029309	0.00280785	0.00226037	0.00194393	0.00244934	0.00149871	0.00138435	0.00141335	0.00139406	0.00136473	0.709634	0.438086	0.0042337	0.003774	0.256864	0.318291	0.433237	0.138558	0.00107355	0.00102332	0.861676	0.666664	0.421517	0.00102267	0.251921	0.556944	0.16304	0.00121884	0.0013884	0.00151596	0.0661221	0.0010005	0.0200484	0.671754	0.997161	0.430213	0.793682	0.140294	0.999047	0.465383	0.999337	0.567295	0.387715	0.0273079	0.00102267	0.530789	0.384961	0.00221155	0.00110687	0.00113001	
3.26	0.00280274	0.00147286	0.00147114	0.00160169	0.00154203	0.00297016	0.00274905	0.00287831	0.00141435	0.00138138	0.00134373	0.00121313	0.00196544	0.00210627	0.00297486	0.0028816	0.0028146	0.00309139	0.00287842	0.00284492	0.0011869	0.00310268	0.00283922	0.00182083	0.00279444	0.00119134	0.00119131	0.00282847	0.00131167	0.00271723	0.0029309	0.00280785	0.00226037	0.00194393	0.00244934	0.00149871	0.00138435	0.00141335	0.00139406	0.00136473	0.781982	0.456388	0.0446147	0.00252119	0.397849	0.387459	0.425504	0.137441	0.00107355	0.00102332	0.864435	0.643377	0.407141	0.00102267	0.235015	0.526142	0.160279	0.00121869	0.0013884	0.00151596	0.0284076	0.0010005	0.00339862	0.657131	0.998074	0.476473	0.7809	0.191826	0.999047	0.471968	0.999337	0.545602	0.38294	0.024288	0.00102267	0.528297	0.378412	0.00242277	0.00110687	0.00113001	
3.265	0.00280274	0.00147286	0.00147114	0.00160169	0.00154203	0.00297016	0.00274905	0.00287831	0.00141435	0.00138138	0.00134373	0.00121313	0.00196544	0.00210627	0.00297486	0.0028816	0.0028146	0.00309139	0.00287842	0.00284492	0.0011869	0.00310268	0.00283922	0.00182083	0.00279444	0.00119134	0.00119131	0.00282847	0.00131167	0.00271723	0.0029309	0.00280785	0.00226037	0.00194393	0.00244934	0.00149871	0.00138435	0.00141335	0.00139406	0.00136473	0.838746	0.465043	0.166435	0.00183491	0.533378	0.447737	0.417595	0.136272	0.00107355	0.00102332	0.867749	0.6254	0.392816	0.00102267	0.218798	0.49613	0.157457	0.00121868	0.0013884	0.00151596	0.0122106	0.0010005	0.00129146	0.642357	0.998545	0.493046	0.767352	0.197912	0.999047	0.479817	0.999337	0.524965	0.378089	0.0232195	0.00102267	0.520257	0.371673	0.00263336	0.00110687	0.00113001	
3.27	0.00280274	0.00147286	0.00147114	0.00160169	0.00154203	0.00297016	0.00274905	0.00287831	0.00141435	0.00138138	0.00134373	0.00121313	0.00196544	0.00210627	0.00297486	0.0028816	0.0028146	0.00309139	0.00287842	0.00284492	0.0011869	0.00310268	0.00283922	0.00182083	0.00279444	0.00119134	0.00119131	0.00282847	0.00131167	0.00271723	0.0029309	0.00280785	0.00226037	0.00194393	0.00244934	0.00149871	0.00138435	0.00141335	0.00139406	0.00136473	0.878792	0.46765	0.316316	0.0250448	0.659329	0.494286	0.409544	0.135058	0.00107355	0.00102332	0.870627	0.612085	0.37862	0.00102267	0.203323	0.46704	0.154614	0.00121868	0.0013884	0.00151596	0.00551484	0.0010005	0.00105526	0.6275	0.998787	0.491851	0.75314	0.189682	0.999047	0.490011	0.999337	0.50527	0.373184	0.0237209	0.00102267	0.520709	0.364589	0.0028567	0.00110687	0.00113001	
3.275	0.00280274	0.00147286	0.00147114	0.00160169	0.00154203	0.00297016	0.00274905	0.00287831	0.00141435	0.00138138	0.00134373	0.00121313	0.00196544	0.00210627	0.00297486	0.0028816	0.0028146	0.00309139	0.00287842	0.00284492	0.0011869	0.00310268	0.00283922	0.00182083	0.00279444	0.00119134	0.00119131	0.00282847	0.00131167	0.00271723	0.0029309	0.00280785	0.00226037	0.00194393	0.00244934	0.00149871	0.00138435	0.00141335	0.00139406	0.00136473	0.889153	0.460374	0.433566	0.0280237	0.737698	0.51618	0.401379	0.133802	0.00107355	0.00102332	0.864451	0.60723	0.364618	0.00102267	0.188623	0.438973	0.151761	0.00121868	0.0013884	0.00151596	0.00281845	0.0010005	0.00103047	0.612558	0.998911	0.48651	0.738242	0.17535	0.999047	0.501155	0.999337	0.486354	0.368235	0.0254503	0.00102267	0.530251	0.354979	0.00312065	0.00110687	0.00113001	
3.28	0.00280274	0.00147286	0.00147114	0.00160169	0.00154203	0.00297016	0.00274905	0.00287831	0.00141435	0.00138138	0.00134373	0.00121313	0.00196544	0.00210627	0.00297486	0.0028816	0.0028146	0.00309139	0.00287842	0.00284492	0.0011869	0.00310268	0.00283922	0.00182083	0.00279444	0.00119134	0.00119131	0.00282847	0.00131167	0.00271723	0.0029309	0.00280785	0.00226037	0.00194393	0.00244934	0.00149871	0.00138435	0.00141335	0.00139406	0.00136473	0.874898	0.444027	0.500111	0.0222272	0.774687	0.519042	0.39312	0.132507	0.00107355	0.00102332	0.859124	0.609099	0.350859	0.00102267	0.174716	0.412	0.148895	0.00121868	0.0013884	0.00151596	0.00175314	0.0010005	0.00102797	0.597483	0.998974	0.480454	0.722757	0.164541	0.999047	0.508572	0.999337	0.468033	0.363238	0.0281152	0.00102267	0.544981	0.346044	0.00344404	0.00110687	0.00113001	
3.285	0.00280274	0.00147286	0.00147114	0.00160169	0.00154203	0.00297016	0.00274905	0.00287831	0.00141435	0.00138138	0.00134373	0.00121313	0.00196544	0.00210627	0.00297486	0.0028816	0.0028146	0.00309139	0.00287842	0.00284492	0.0011869	0.00310268	0.00283922	0.00182083	0.00279444	0.00119134	0.00119131	0.00282847	0.00131167	0.00271723	0.0029309	0.00280785	0.00226037	0.00194393	0.00244934	0.00149871	0.00138435	0.00141335	0.00139406	0.00136473	0.848787	0.42657	0.495813	0.0155832	0.791217	0.514339	0.384785	0.131176	0.00107355	0.00102332	0.853369	0.616187	0.337391	0.00102267	0.161604	0.386168	0.145997	0.00121868	0.0013884	0.00151596	0.00133833	0.0010005	0.00102772	0.582224	0.999006	0.475745	0.706778	0.15774	0.999047	0.508139	0.999337	0.450142	0.358183	0.03139	0.00102267	0.563248	0.337495	0.0038597	0.00110687	0.00113001	
3.29	0.00280274	0.00147286	0.00147114	0.00160169	0.00154203	0.00297016	0.00274905	0.00287831	0.00141435	0.00138138	0.00134373	0.00121313	0.00196544	0.00210627	0.00297486	0.0028816	0.0028146	0.00309139	0.00287842	0.00284492	0.0011869	0.00310268	0.00283922	0.00182083	0.00279444	0.00119134	0.00119131	0.00282847	0.00131167	0.00271723	0.0029309	0.00280785	0.00226037	0.00194393	0.00244934	0.00149871	0.00138435	0.00141335	0.00139406	0.00136473	0.831698	0.417198	0.401513	0.010336	0.81989	0.518751	0.376385	0.129809	0.00107355	0.00102332	0.839507	0.627174	0.324245	0.00102267	0.149282	0.361509	0.143043	0.00121868	0.0013884	0.00151596	0.00117865	0.0010005	0.0010277	0.566708	0.999022	0.473103	0.69039	0.155437	0.999047	0.500362	0.999337	0.432465	0.353042	0.0349042	0.00102267	0.584466	0.329208	0.00440603	0.00110687	0.00113001	
3.295	0.00280274	0.00147286	0.00147114	0.00160169	0.00154203	0.00297016	0.00274905	0.00287831	0.00141435	0.00138138	0.00134373	0.00121313	0.00196544	0.00210627	0.00297486	0.0028816	0.0028146	0.00309139	0.00287842	0.00284492	0.0011869	0.00310268	0.00283922	0.00182083	0.00279444	0.00119134	0.00119131	0.00282847	0.00131167	0.00271723	0.0029309	0.00280785	0.00226037	0.00194393	0.00244934	0.00149871	0.00138435	0.00141335	0.00139406	0.00136473	0.826734	0.411639	0.280391	0.00672331	0.837731	0.532897	0.367898	0.128407	0.00107355	0.00102332	0.840552	0.640548	0.311432	0.00102267	0.137734	0.338034	0.140045	0.00121868	0.0013884	0.00151596	0.00111775	0.0010005	0.0010277	0.550813	0.99903	0.471887	0.673671	0.15794	0.999047	0.486668	0.999337	0.414541	0.347749	0.038417	0.00102267	0.608547	0.320967	0.00470942	0.00110687	0.00113001	
3.3	0.00280274	0.00147286	0.00147114	0.00160169	0.00154203	0.00297016	0.00274905	0.00287831	0.00141435	0.00138138	0.00134373	0.00121313	0.00196544	0.00210627	0.00297486	0.0028816	0.0028146	0.00309139	0.00287842	0.00284492	0.0011869	0.00310268	0.00283922	0.00182083	0.00279444	0.00119134	0.00119131	0.00282847	0.00131167	0.00271723	0.0029309	0.00280785	0.00226037	0.00194393	0.00244934	0.00149871	0.00138435	0.00141335	0.00139406	0.00136473	0.823288	0.407946	0.18146	0.00440892	0.771108	0.544169	0.359277	0.126972	0.00107355	0.00102332	0.831252	0.653737	0.298981	0.00102267	0.126939	0.315744	0.137015	0.00121868	0.0013884	0.00151596	0.00109471	0.0010005	0.0010277	0.534458	0.999034	0.468257	0.656683	0.154467	0.999047	0.468015	0.999337	0.39585	0.3422	0.041694	0.00102267	0.634574	0.31143	0.00749559	0.529667	0.00627803	
3.305	0.00280274	0.00147286	0.00147114	0.00160169	0.00154203	0.00297016	0.00274905	0.00287831	0.00141435	0.00138138	0.00134373	0.00121313	0.00196544	0.00210627	0.00297486	0.0028816	0.0028146	0.00309139	0.00287842	0.00284492	0.0011869	0.00310268	0.00283922	0.00182083	0.00279444	0.00119134	0.00119131	0.00282847	0.00131167	0.00271723	0.0029309	0.00280785	0.00226037	0.00194393	0.00244934	0.00149871	0.00138435	0.00141335	0.00139406	0.00136473	0.822978	0.405182	0.112179	0.00299087	0.614109	0.554779	0.350559	0.125502	0.00107355	0.00102332	0.823066	0.656543	0.286951	0.00102267	0.11687	0.294628	0.133962	0.00121868	0.0013884	0.00151596	0.00108604	0.0010005	0.0010277	0.517679	0.999036	0.466583	0.639415	0.121944	0.999047	0.444917	0.999337	0.376727	0.336322	0.044683	0.00102267	0.661472	0.302844	0.011869	0.517241	0.0141598	
3.31	0.00280274	0.00147286	0.00147114	0.00160169	0.00154203	0.00297016	0.00274905	0.00287831	0.00141435	0.00138138	0.00134373	0.00121313	0.00196544	0.00210627	0.00297486	0.0028816	0.0028146	0.00309139	0.00287842	0.00284492	0.0011869	0.00310268	0.00283922	0.00182083	0.00279444	0.00119134	0.00119131	0.00282847	0.00131167	0.00271723	0.0029309	0.00280785	0.00226037	0.00194393	0.00244934	0.00149871	0.00138435	0.00141335	0.00139406	0.00136473	0.809736	0.374085	0.0673453	0.00214794	0.545875	0.558861	0.341778	0.123997	0.00107355	0.00102332	0.814596	0.651232	0.275409	0.00102267	0.107499	0.274665	0.130896	0.00121868	0.0013884	0.00151596	0.0010828	0.0010005	0.0010277	0.500615	0.999037	0.463997	0.621942	0.0898019	0.999047	0.418215	0.999337	0.357449	0.33019	0.047334	0.00102267	0.688587	0.294528	0.015727	0.150256	0.0202867	
3.315	0.00280274	0.00147286	0.00147114	0.00160169	0.00154203	0.00297016	0.00274905	0.00287831	0.00141435	0.00138138	0.00134373	0.00121313	0.00196544	0.00210627	0.00297486	0.0028816	0.0028146	0.00309139	0.00287842	0.00284492	0.0011869	0.00310268	0.00283922	0.00182083	0.00279444	0.00119134	0.00119131	0.00282847	0.00131167	0.00271723	0.0029309	0.00280785	0.00226037	0.00194393	0.00244934	0.00149871	0.00138435	0.00141335	0.00139406	0.00136473	0.746832	0.275915	0.0396944	0.00165774	0.539337	0.525333	0.332963	0.122459	0.00107355	0.00102332	0.806209	0.639595	0.264401	0.00102267	0.0987925	0.255829	0.127826	0.00121868	0.0013884	0.00151596	0.00108159	0.0010005	0.0010277	0.483359	0.999038	0.459134	0.604331	0.0822228	0.999047	0.389744	0.999337	0.338242	0.323923	0.0496237	0.00102267	0.715451	0.287583	0.0193947	0.103106	0.0252867	
3.32	0.00280274	0.00147286	0.00147114	0.00160169	0.00154203	0.00297016	0.00274905	0.00287831	0.00141435	0.00138138	0.00134373	0.00121313	0.00196544	0.00210627	0.00297486	0.0028816	0.0028146	0.00309139	0.00287842	0.00284492	0.0011869	0.00310268	0.00283922	0.00182083	0.00279444	0.00119134	0.00119131	0.00282847	0.00131167	0.00271723	0.0029309	0.00280785	0.00226037	0.00194393	0.00244934	0.00149871	0.00138435	0.00141335	0.00139406	0.00136473	0.62282	0.184015	0.0231844	0.00137737	0.520321	0.442242	0.324142	0.120888	0.00107355	0.00102332	0.798047	0.623244	0.253967	0.00102267	0.0907187	0.238087	0.124905	0.00121868	0.0013884	0.00151596	0.00108114	0.0010005	0.0010277	0.465983	0.999038	0.453592	0.586646	0.0810823	0.999047	0.360798	0.999337	0.319287	0.31763	0.0515292	0.00102267	0.742635	0.281049	0.0231913	0.127341	0.0297593	
3.325	0.00280274	0.00147286	0.00147114	0.00160169	0.00154203	0.00297016	0.00274905	0.00287831	0.00141435	0.00138138	0.00134373	0.00121313	0.00196544	0.00210627	0.00297486	0.0028816	0.0028146	0.00309139	0.00287842	0.00284492	0.0011869	0.00310268	0.00283922	0.00182083	0.00279444	0.00119134	0.00119131	0.00282847	0.00131167	0.00271723	0.0029309	0.00280785	0.00226037	0.00194393	0.00244934	0.00149871	0.00138435	0.00141335	0.00139406	0.00136473	0.459965	0.115937	0.0383843	0.0107717	0.466187	0.327706	0.315417	0.119288	0.00107355	0.00102332	0.789762	0.603676	0.244152	0.00102267	0.0841537	0.222041	0.122228	0.00121868	0.0013884	0.00151596	0.00838269	0.0010005	0.0010277	0.448579	0.999038	0.449207	0.568944	0.080619	0.999047	0.331744	0.999337	0.301619	0.311386	0.0530351	0.00102267	0.771676	0.274525	0.027365	0.119727	0.0341376	
3.33	0.00280274	0.00147286	0.00147114	0.00160169	0.00154203	0.00297016	0.00274905	0.00287831	0.00141435	0.00138138	0.00134373	0.00121313	0.00196544	0.00210627	0.00297486	0.0028816	0.0028146	0.00309139	0.00287842	0.00284492	0.0011869	0.00310268	0.00283922	0.00182083	0.00279444	0.00119134	0.00119131	0.00282847	0.00131167	0.00271723	0.0029309	0.00280785	0.00226037	0.00194393	0.00244934	0.00149871	0.00138435	0.00141335	0.00139406	0.00136473	0.310643	0.0705022	0.0627762	0.0366923	0.371954	0.222449	0.306813	0.117662	0.00107355	0.00102332	0.782423	0.58683	0.235009	0.00102267	0.0793607	0.207965	0.119801	0.0113482	0.0013884	0.00151596	0.00615007	0.0010005	0.0010277	0.431251	0.733404	0.445834	0.551281	0.0642922	0.790419	0.30286	0.532286	0.28537	0.305214	0.0540895	0.00102267	0.804851	0.268454	0.0321443	0.141205	0.0388245	
3.335	0.00280274	0.00147286	0.00147114	0.00160169	0.00154203	0.00297016	0.00274905	0.00287831	0.00141435	0.00138138	0.00134373	0.00121313	0.00196544	0.00210627	0.00297486	0.0028816	0.0028146	0.00309139	0.00287842	0.00284492	0.0011869	0.00310268	0.00283922	0.00182083	0.00279444	0.00119134	0.00119131	0.00282847	0.00131167	0.00271723	0.0029309	0.00280785	0.00226037	0.00194393	0.00244934	0.00149871	0.00138435	0.00141335	0.00139406	0.00136473	0.198367	0.0419303	0.0648054	0.0442479	0.269851	0.143048	0.298341	0.116018	0.00107355	0.00102332	0.774686	0.572422	0.226615	0.00102267	0.0761322	0.195701	0.117625	0.00334151	0.0013884	0.00151596	0.00372085	0.0010005	0.0010277	0.41413	0.47936	0.443377	0.533703	0.0481229	0.748758	0.273485	0.214984	0.270444	0.299137	0.054628	0.00102267	0.843837	0.263052	0.0377166	0.182309	0.0441555	
3.34	0.00280274	0.00147286	0.00147114	0.00160169	0.00154203	0.00297016	0.00274905	0.00287831	0.00141435	0.00138138	0.00134373	0.00121313	0.00196544	0.00210627	0.00297486	0.0028816	0.0028146	0.00309139	0.00287842	0.00284492	0.0011869	0.00310268	0.00283922	0.00182083	0.00279444	0.00119134	0.00119131	0.00282847	0.00131167	0.00271723	0.0029309	0.00280785	0.00226037	0.00194393	0.00244934	0.00149871	0.00138435	0.00141335	0.00139406	0.00136473	0.122239	0.02464	0.0620197	0.039514	0.193141	0.0917974	0.290006	0.114365	0.00107355	0.00102332	0.768509	0.560486	0.219044	0.00102267	0.0742834	0.185131	0.115699	0.00149104	0.0013884	0.00151596	0.00230312	0.0010005	0.0010277	0.397313	0.295272	0.441314	0.516257	0.0357604	0.462813	0.243999	0.0761343	0.256602	0.293175	0.054647	0.00102267	0.888266	0.258128	0.044516	0.419505	0.0511495	
3.345	0.00280274	0.00147286	0.00147114	0.00160169	0.00154203	0.00297016	0.00274905	0.00287831	0.00141435	0.00138138	0.00134373	0.00121313	0.00196544	0.00210627	0.00297486	0.0028816	0.0028146	0.00309139	0.00287842	0.00284492	0.0011869	0.00310268	0.00283922	0.00182083	0.00279444	0.00119134	0.00119131	0.00282847	0.00131167	0.00271723	0.0029309	0.00280785	0.00226037	0.00194393	0.00244934	0.00149871	0.00138435	0.00141335	0.00139406	0.00136473	0.073198	0.0144539	0.0525813	0.0289441	0.13699	0.0619675	0.28181	0.112714	0.00107355	0.00102332	0.762431	0.553111	0.212344	0.00102267	0.0736594	0.176148	0.114029	0.00124858	0.0013884	0.0165771	0.00161145	0.0010005	0.0010277	0.38085	0.173778	0.438426	0.498983	0.0256097	0.521334	0.214644	0.025936	0.243593	0.287352	0.0542228	0.00102267	0.930575	0.253077	0.0528167	0.644069	0.0605085	
3.35	0.00280274	0.00147286	0.00147114	0.00160169	0.00154203	0.00297016	0.00274905	0.00287831	0.00141435	0.00138138	0.00134373	0.00121313	0.00196544	0.00210627	0.00297486	0.0028816	0.0028146	0.00309139	0.00287842	0.00284492	0.0011869	0.00310268	0.00283922	0.00182083	0.00279444	0.00119134	0.00119131	0.00282847	0.00131167	0.00271723	0.0029309	0.00280785	0.00226037	0.00194393	0.00244934	0.00149871	0.00138435	0.00141335	0.00139406	0.00136473	0.0430419	0.00857042	0.0376287	0.0194408	0.0913517	0.046705	0.273756	0.111077	0.00107355	0.00102332	0.756739	0.549442	0.206488	0.00102267	0.0741328	0.168668	0.112618	0.00122172	0.0013884	0.0281517	0.00130202	0.0010005	0.0010277	0.364755	0.0997713	0.435797	0.481916	0.0185124	0.535572	0.186219	0.00923314	0.231204	0.281693	0.0534741	0.00102267	0.963752	0.249984	0.0626884	0.893987	0.0724939	
3.355	0.00280274	0.00147286	0.00147114	0.00160169	0.00154203	0.00297016	0.00274905	0.00287831	0.00141435	0.00138138	0.00134373	0.00121313	0.00196544	0.00210627	0.00297486	0.0028816	0.0028146	0.00309139	0.00287842	0.00284492	0.0011869	0.00310268	0.00283922	0.00182083	0.00279444	0.00119134	0.00119131	0.00282847	0.00131167	0.00271723	0.0029309	0.00280785	0.00226037	0.00194393	0.00244934	0.00149871	0.00138435	0.00141335	0.00139406	0.00136473	0.0250738	0.00522333	0.0248885	0.0125209	0.0576688	0.0375027	0.265836	0.109469	0.00107355	0.00102332	0.751661	0.548611	0.201324	0.00102267	0.0756063	0.162626	0.111473	0.00121897	0.0013884	0.0592614	0.0158921	0.0010005	0.0010277	0.348925	0.0559019	0.434185	0.46509	0.0137144	0.878492	0.15932	0.00388011	0.219163	0.276221	0.0525572	0.00102267	0.982366	0.24652	0.0741439	0.989556	0.0872825	
3.36	0.00280274	0.00147286	0.00147114	0.00160169	0.00154203	0.00297016	0.00274905	0.00287831	0.00141435	0.00138138	0.00134373	0.00121313	0.00196544	0.00210627	0.00297486	0.0028816	0.0028146	0.00309139	0.00287842	0.00284492	0.0011869	0.00310268	0.00283922	0.00182083	0.00279444	0.00119134	0.00119131	0.00282847	0.00131167	0.00271723	0.0029309	0.00280785	0.00226037	0.00194393	0.00244934	0.00149871	0.00138435	0.00141335	0.00139406	0.00136473	0.0146078	0.00334188	0.0158123	0.00794707	0.0352404	0.0262721	0.258005	0.107901	0.00107355	0.00102332	0.741714	0.549952	0.196509	0.00102267	0.0779294	0.157859	0.11059	0.0012187	0.0013884	0.0802742	0.0254522	0.0010005	0.0010277	0.332885	0.0311536	0.433078	0.448535	0.0106747	0.974407	0.134814	0.00219547	0.207211	0.270941	0.0516024	0.00102267	0.991547	0.243471	0.0872811	0.998406	0.10526	
3.365	0.00280274	0.00147286	0.00147114	0.00160169	0.00154203	0.00297016	0.00274905	0.00287831	0.00141435	0.00138138	0.00134373	0.00121313	0.00196544	0.00210627	0.00297486	0.0028816	0.0028146	0.00309139	0.00287842	0.00284492	0.0011869	0.00310268	0.00283922	0.00182083	0.00279444	0.00119134	0.00119131	0.00282847	0.00131167	0.00271723	0.0029309	0.00280785	0.00226037	0.00194393	0.00244934	0.00149871	0.00138435	0.00141335	0.00139406	0.00136473	0.00861499	0.00229453	0.00988414	0.00508816	0.0211567	0.0172481	0.250272	0.106375	0.00107355	0.00102332	0.743897	0.552851	0.191505	0.00102267	0.0808898	0.154085	0.109951	0.00121868	0.0013884	0.0893133	0.0299989	0.0010005	0.0010277	0.315779	0.0175264	0.431945	0.432275	0.00880856	0.994513	0.112959	0.0016703	0.195453	0.26584	0.050705	0.00102267	0.995774	0.240892	0.102162	0.999054	0.12668	
3.37	0.00280274	0.00147286	0.00147114	0.00160169	0.00154203	0.00297016	0.00274905	0.00287831	0.00141435	0.00138138	0.00134373	0.00121313	0.00196544	0.00210627	0.00297486	0.0028816	0.0028146	0.00309139	0.00287842	0.00284492	0.0011869	0.00310268	0.00283922	0.00182083	0.00279444	0.00119134	0.00119131	0.00282847	0.00131167	0.00271723	0.0029309	0.00280785	0.00226037	0.00194393	0.00244934	0.00149871	0.00138435	0.00141335	0.00139406	0.00136473	0.00522896	0.00171616	0.00620619	0.00336503	0.0126418	0.0109843	0.242647	0.10489	0.00107355	0.00102332	0.73479	0.556761	0.186071	0.00102267	0.0843097	0.151036	0.109534	0.00121868	0.0013884	0.103321	0.0316717	0.0010005	0.0010277	0.297943	0.0101531	0.430508	0.416333	0.00767313	0.998261	0.0940401	0.00150744	0.183971	0.260903	0.0499479	0.00102267	0.997638	0.238681	0.118732	0.999097	0.151391	
3.375	0.00280274	0.00147286	0.00147114	0.00160169	0.00154203	0.00297016	0.00274905	0.00287831	0.00141435	0.00138138	0.00134373	0.00121313	0.00196544	0.00210627	0.00297486	0.0028816	0.0028146	0.00309139	0.00287842	0.00284492	0.0011869	0.00310268	0.00283922	0.00182083	0.00279444	0.00119134	0.00119131	0.00282847	0.00131167	0.00271723	0.0029309	0.00280785	0.00226037	0.00194393	0.00244934	0.00149871	0.00138435	0.00141335	0.00139406	0.00136473	0.00333613	0.00139892	0.00400076	0.00235273	0.00762855	0.00695268	0.235141	0.103441	0.00107355	0.00102332	0.735194	0.561297	0.180308	0.00102278	0.0881108	0.14857	0.109332	0.00121868	0.0013884	0.141438	0.0346069	0.0010005	0.0010277	0.279807	0.00621708	0.428871	0.400728	0.00698836	0.998916	0.078574	0.00145708	0.172828	0.256125	0.0495166	0.00102267	0.998437	0.23683	0.136837	0.9991	0.178965	
3.38	0.00280274	0.00147286	0.00147114	0.00160169	0.00154203	0.00297016	0.00274905	0.00287831	0.00141435	0.00138138	0.00134373	0.00121313	0.00196544	0.00210627	0.00297486	0.0028816	0.0028146	0.00309139	0.00287842	0.00284492	0.0011869	0.00310268	0.00283922	0.00182083	0.00279444	0.00119134	0.00119131	0.00282847	0.00131167	0.00271723	0.0029309	0.00280785	0.00226037	0.00194393	0.00244934	0.00149871	0.00138435	0.00141335	0.00139406	0.00136473	0.00228725	0.00122593	0.00270995	0.00176922	0.00473411	0.00447486	0.227761	0.102026	0.00107355	0.00102332	0.72714	0.566083	0.174299	0.00103315	0.0923447	0.146739	0.109349	0.00121868	0.0013884	0.223089	0.0385689	0.0010005	0.0010277	0.261705	0.0041344	0.427215	0.385477	0.00655947	0.999026	0.0659539	0.00144154	0.162074	0.251515	0.0494604	0.00102267	0.998772	0.235365	0.156267	0.9991	0.208801	
3.385	0.00280274	0.00147286	0.00147114	0.00160169	0.00154203	0.00297016	0.00274905	0.00287831	0.00141435	0.00138138	0.00134373	0.00121313	0.00196544	0.00210627	0.00297486	0.0028816	0.0028146	0.00309139	0.00287842	0.00284492	0.0011869	0.00310268	0.00283922	0.00182083	0.00279444	0.00119134	0.00119131	0.00282847	0.00131167	0.00271723	0.0029309	0.00280785	0.00226037	0.00194393	0.00244934	0.00149871	0.00138435	0.00141335	0.00139406	0.00136473	0.00171026	0.00113205	0.00196801	0.00143777	0.00308794	0.00299878	0.220516	0.100644	0.00107355	0.00102332	0.732762	0.570705	0.168122	0.0011251	0.0971793	0.145774	0.109604	0.00121868	0.0013884	0.374501	0.0431917	0.0010005	0.0010277	0.243895	0.0030341	0.42593	0.370595	0.00625481	0.999044	0.056501	0.00143675	0.151743	0.247094	0.0501418	0.00102267	0.99891	0.234235	0.176825	0.9991	0.240327	
3.39	0.00280274	0.00147286	0.00147114	0.00160169	0.00154203	0.00297016	0.00274905	0.00287831	0.00141435	0.00138138	0.00134373	0.00121313	0.00196544	0.00210627	0.00297486	0.0028816	0.0028146	0.00309139	0.00287842	0.00284492	0.0011869	0.00310268	0.00283922	0.00182083	0.00279444	0.00119134	0.00119131	0.00282847	0.00131167	0.00271723	0.0029309	0.00280785	0.00226037	0.00194393	0.00244934	0.00149871	0.00138435	0.00141335	0.00139406	0.00136473	0.00139481	0.00108134	0.00154752	0.00125167	0.00216278	0.00213902	0.21341	0.0992968	0.00107355	0.00102332	0.729997	0.57475	0.161839	0.00233517	0.102822	0.145992	0.110123	0.00121868	0.0013884	0.636757	0.0636365	0.0010005	0.0010277	0.226573	0.0024427	0.425299	0.356091	0.00598959	0.999046	0.0496787	0.00143528	0.141858	0.242898	0.0513738	0.00102267	0.998966	0.233404	0.198237	0.9991	0.272884	
3.395	0.00280274	0.00147286	0.00147114	0.00160169	0.00154203	0.00297016	0.00274905	0.00287831	0.00141435	0.00138138	0.00134373	0.00121313	0.00196544	0.00210627	0.00297486	0.0028816	0.0028146	0.00309139	0.00287842	0.00284492	0.0011869	0.00310268	0.00283922	0.00182083	0.00279444	0.00119134	0.00119131	0.00282847	0.00131167	0.00271723	0.0029309	0.00280785	0.00226037	0.00194393	0.00244934	0.00149871	0.00138435	0.00141335	0.00139406	0.00136473	0.00122327	0.00105404	0.00131185	0.00114817	0.00164785	0.00164666	0.206449	0.098011	0.00107355	0.00102332	0.71423	0.577721	0.155506	0.00357402	0.109337	0.147522	0.110915	0.00121868	0.0013884	0.794313	0.104368	0.0010005	0.0010277	0.209882	0.00211131	0.425223	0.341974	0.00570847	0.768125	0.0452436	0.00143482	0.132435	0.239002	0.0533822	0.00102267	0.998989	0.232939	0.219852	0.9991	0.305192	
3.4	0.00280274	0.00147286	0.00147114	0.00160169	0.00154203	0.00297016	0.00274905	0.00287831	0.00141435	0.00138138	0.00134373	0.00121313	0.00196544	0.00210627	0.00297486	0.0028816	0.0028146	0.00309139	0.00287842	0.00284492	0.0011869	0.00310268	0.00283922	0.00182083	0.00279444	0.00119134	0.00119131	0.00282847	0.00131167	0.00271723	0.0029309	0.00280785	0.00226037	0.00194393	0.00244934	0.00149871	0.00138435	0.00141335	0.00139406	0.00136473	0.00113042	0.0010394	0.00118099	0.00109106	0.00136352	0.00136843	0.199638	0.0968266	0.00107355	0.00102332	0.726984	0.57931	0.14917	0.00327203	0.116485	0.150098	0.11196	0.00121868	0.0013884	0.698411	0.152993	0.0010005	0.0010277	0.193923	0.00191441	0.425116	0.328253	0.00541299	0.312872	0.0429233	0.00143468	0.123481	0.235486	0.0563426	0.00102267	0.998998	0.232301	0.241312	0.9991	0.336451	
3.405	0.00280274	0.00147286	0.00147114	0.00160169	0.00154203	0.00297016	0.00274905	0.00287831	0.00141435	0.00138138	0.00134373	0.00121313	0.00196544	0.00210627	0.00297486	0.0028816	0.0028146	0.00309139	0.00287842	0.00284492	0.0011869	0.00310268	0.00283922	0.00182083	0.00279444	0.00119134	0.00119131	0.00282847	0.00131167	0.00271723	0.0029309	0.00280785	0.00226037	0.00194393	0.00244934	0.00149871	0.00138435	0.00141335	0.00139406	0.00136473	0.00108036	0.00103157	0.00110887	0.00105976	0.00120759	0.00121287	0.192979	0.0958152	0.00107355	0.00102332	0.704513	0.579409	0.142871	0.00264753	0.124169	0.153649	0.11325	0.00121868	0.0013884	0.946182	0.176036	0.0010005	0.0010277	0.178765	0.00179005	0.42491	0.31493	0.00512579	0.0735601	0.0419693	0.00143464	0.114997	0.232475	0.0602936	0.00102267	0.999001	0.23361	0.261979	0.9991	0.36591	
3.41	0.00280274	0.00147286	0.00147114	0.00160169	0.00154203	0.00297016	0.00274905	0.00287831	0.00141435	0.00138138	0.00134373	0.00121313	0.00196544	0.00210627	0.00297486	0.0028816	0.0028146	0.00309139	0.00287842	0.00284492	0.0011869	0.00310268	0.00283922	0.00182083	0.00279444	0.00119134	0.00119131	0.00282847	0.00131167	0.00271723	0.0029309	0.00280785	0.00226037	0.00194393	0.00244934	0.00149871	0.00138435	0.00141335	0.00139406	0.00136473	0.00105347	0.00102739	0.0972612	0.0382446	0.00112256	0.00112665	0.186604	0.0950743	0.00107355	0.00102332	0.724011	0.577739	0.136642	0.00355383	0.133001	0.158784	0.1148	0.00121868	0.0013884	0.993944	0.104813	0.0010005	0.0010277	0.164447	0.00169838	0.424733	0.302009	0.00525626	0.0151777	0.0416439	0.00143463	0.10698	0.23012	0.065295	0.00102267	0.999003	0.234702	0.281056	0.9991	0.39265	
3.415	0.00280274	0.00147286	0.00147114	0.00160169	0.00154203	0.00297016	0.00274905	0.00287831	0.00141435	0.00138138	0.00134373	0.00121313	0.00196544	0.00210627	0.00297486	0.0028816	0.0028146	0.00309139	0.00287842	0.00284492	0.0011869	0.00310268	0.00283922	0.00182083	0.00279444	0.00119134	0.00119131	0.00282847	0.00131167	0.00271723	0.0029309	0.00280785	0.00226037	0.00194393	0.00244934	0.00149871	0.00138435	0.00141335	0.00139406	0.00136473	0.00103907	0.00102517	0.27049	0.145533	0.00107642	0.00107921	0.180895	0.094701	0.00107355	0.00102332	0.723531	0.57412	0.130513	0.0035846	0.143588	0.165784	0.116596	0.00121868	0.0013884	0.998905	0.0521083	0.0010005	0.0010277	0.151764	0.00161697	0.424632	0.289492	0.00510381	0.00357666	0.0419325	0.00143462	0.0994208	0.228533	0.071242	0.00102267	0.999003	0.234152	0.297889	0.9991	0.415953	
3.42	0.00280274	0.00147286	0.00147114	0.00160169	0.00154203	0.00297016	0.00274905	0.00287831	0.00141435	0.00138138	0.00134373	0.00121313	0.00196544	0.00210627	0.00297486	0.0028816	0.0028146	0.00309139	0.00287842	0.00284492	0.0011869	0.00310268	0.00283922	0.00182083	0.00279444	0.00119134	0.00119131	0.00282847	0.00131167	0.00271723	0.0029309	0.00280785	0.00226037	0.00194393	0.00244934	0.00149871	0.00138435	0.00141335	0.00139406	0.00136473	0.00103138	0.00102399	0.466011	0.265819	0.0010515	0.00105328	0.176156	0.0947844	0.00107355	0.00102332	0.713396	0.568482	0.124506	0.00296961	0.155822	0.174559	0.11862	0.00121868	0.377219	0.999344	0.0240112	0.0010005	0.0010277	0.143021	0.00154505	0.424541	0.277377	0.00481251	0.00147876	0.0426471	0.00143462	0.0944317	0.227791	0.0780875	0.00102267	0.999003	0.235692	0.312105	0.9991	0.435377	
3.425	0.00280274	0.00147286	0.00147114	0.00160169	0.00154203	0.00297016	0.00274905	0.00287831	0.00141435	0.00138138	0.00134373	0.00121313	0.00196544	0.00210627	0.00297486	0.0028816	0.0028146	0.00309139	0.00287842	0.00284492	0.0011869	0.00310268	0.00283922	0.00182083	0.00279444	0.00119134	0.00119131	0.00282847	0.00131167	0.00271723	0.0029309	0.00280785	0.00226037	0.00194393	0.00244934	0.00149871	0.00138435	0.00141335	0.00139406	0.00136473	0.00102729	0.00102337	0.643909	0.372256	0.00103808	0.00103917	0.172604	0.0954067	0.00107355	0.00102332	0.727279	0.561037	0.11864	0.00233822	0.169289	0.184821	0.120851	0.00121868	0.4501	0.99938	0.0108512	0.0010005	0.0010277	0.139608	0.00148673	0.424417	0.265663	0.00450268	0.00111934	0.0435677	0.00143462	0.0932758	0.227948	0.0856537	0.00102267	0.999003	0.237461	0.323618	0.9991	0.450765	
3.43	0.00280274	0.00147286	0.00147114	0.00160169	0.00154203	0.00297016	0.00274905	0.00287831	0.00141435	0.00138138	0.00134373	0.00121313	0.00196544	0.00210627	0.00297486	0.0028816	0.0028146	0.00309139	0.00287842	0.00284492	0.0011869	0.00310268	0.00283922	0.00182083	0.00279444	0.00119134	0.00119131	0.00282847	0.00131167	0.00271723	0.0029309	0.00280785	0.00226037	0.00194393	0.00244934	0.00149871	0.00138435	0.00141335	0.00139406	0.00136473	0.00102511	0.00102304	0.776085	0.467285	0.00103089	0.00103153	0.170374	0.0966365	0.00107355	0.00102332	0.709152	0.552147	0.11293	0.00251044	0.183569	0.196251	0.123275	0.00121868	0.486281	0.999383	0.00510132	0.0010005	0.0010277	0.142051	0.014798	0.424213	0.254347	0.0041956	0.00105989	0.0447546	0.00143462	0.0964599	0.229039	0.0937093	0.00102267	0.999004	0.238664	0.332652	0.9991	0.46239	
3.435	0.00280274	0.00147286	0.00147114	0.00160169	0.00154203	0.00297016	0.00274905	0.00287831	0.00141435	0.00138138	0.00134373	0.00121313	0.00196544	0.00210627	0.00297486	0.0028816	0.0028146	0.00309139	0.00287842	0.00284492	0.0011869	0.00310268	0.00283922	0.00182083	0.00279444	0.00119134	0.00119131	0.00282847	0.00131167	0.00271723	0.0029309	0.00280785	0.00226037	0.00194393	0.00244934	0.00149871	0.00138435	0.00141335	0.00139406	0.00136473	0.00102396	0.00102286	0.864251	0.553514	0.00102704	0.00102741	0.169536	0.0985314	0.00107355	0.00102332	0.716864	0.542155	0.107388	0.00256883	0.198282	0.208545	0.12588	0.00121868	0.60371	0.999383	0.00269516	0.0010005	0.0010277	0.150244	0.0259738	0.423826	0.243425	0.00390262	0.0010503	0.0455602	0.00143462	0.10403	0.23108	0.101865	0.00110718	0.999004	0.238858	0.339626	0.9991	0.470793	
3.44	0.00280274	0.00147286	0.00147114	0.00160169	0.00154203	0.00297016	0.00274905	0.00287831	0.00141435	0.00138138	0.00134373	0.00121313	0.00196544	0.00210627	0.00297486	0.0028816	0.0028146	0.00309139	0.00287842	0.00284492	0.0011869	0.00310268	0.00283922	0.00182083	0.00279444	0.00119134	0.00119131	0.00282847	0.00131167	0.00271723	0.0029309	0.00280785	0.00226037	0.00194393	0.00244934	0.00149871	0.00138435	0.00141335	0.00139406	0.00136473	0.00102335	0.00102277	0.91966	0.6323	0.00102499	0.0010252	0.170116	0.101139	0.00107355	0.00102332	0.71624	0.531382	0.102024	0.00220791	0.213128	0.221438	0.128658	0.00121868	0.68255	0.999383	0.00171736	0.0010005	0.0010277	0.163668	0.0331738	0.423197	0.232892	0.0036536	0.00104878	0.0471628	0.00143462	0.115714	0.234077	0.110216	0.00119094	0.999004	0.238063	0.345025	0.9991	0.476536	
3.445	0.00280274	0.00147286	0.00147114	0.00160169	0.00154203	0.00297016	0.00274905	0.00287831	0.00141435	0.00138138	0.00134373	0.00121313	0.00196544	0.00210627	0.00297486	0.0028816	0.0028146	0.00309139	0.00287842	0.00284492	0.0011869	0.00310268	0.00283922	0.00182083	0.00279444	0.00119134	0.00119131	0.00282847	0.00131167	0.00271723	0.0029309	0.00280785	0.00226037	0.00194393	0.00244934	0.00149871	0.00138435	0.00141335	0.00139406	0.00136473	0.00102303	0.00102272	0.953185	0.698619	0.0010239	0.00102402	0.172115	0.10451	0.00107355	0.00102332	0.714438	0.52008	0.0968432	0.00182699	0.227826	0.234653	0.131601	0.00121868	0.645759	0.999383	0.00132834	0.0010005	0.0010277	0.181713	0.0369222	0.422093	0.222742	0.00342666	0.00104854	0.0464979	0.00143462	0.131098	0.238028	0.118428	0.00117155	0.999004	0.236225	0.349162	0.9991	0.479967	
3.45	0.00280274	0.00147286	0.00147114	0.00160169	0.00154203	0.00297016	0.00274905	0.00287831	0.00141435	0.00138138	0.00134373	0.00121313	0.00196544	0.00210627	0.00297486	0.0028816	0.0028146	0.00309139	0.00287842	0.00284492	0.0011869	0.00310268	0.00283922	0.00182083	0.00279444	0.00119134	0.00119131	0.00282847	0.00131167	0.00271723	0.0029309	0.00280785	0.00226037	0.00194393	0.00244934	0.00149871	0.00138435	0.00141335	0.00139406	0.00136473	0.00102286	0.0010227	0.972941	0.752722	0.00102332	0.00102338	0.175513	0.108684	0.00107355	0.00102332	0.708849	0.508448	0.091851	0.00174627	0.242144	0.247942	0.134698	0.00121868	0.626498	0.999383	0.00117602	0.0010005	0.0010277	0.203669	0.0385228	0.420436	0.212967	0.00324715	0.00104851	0.0449354	0.00143462	0.149658	0.242924	0.126769	0.00113037	0.999004	0.234242	0.352207	0.9991	0.481133	
3.455	0.00280274	0.00147286	0.00147114	0.00160169	0.00154203	0.00297016	0.00274905	0.00287831	0.00141435	0.00138138	0.00134373	0.00121313	0.00196544	0.00210627	0.00297486	0.0028816	0.0028146	0.00309139	0.00287842	0.00284492	0.0011869	0.00310268	0.00283922	0.00182083	0.00279444	0.00119134	0.00119131	0.00282847	0.00131167	0.00271723	0.0029309	0.00280785	0.00226037	0.00194393	0.00244934	0.00149871	0.00138435	0.00141335	0.00139406	0.00136473	0.00102277	0.00102268	0.984357	0.794168	0.00102301	0.00102305	0.180273	0.113696	0.00107355	0.00102332	0.696703	0.496579	0.0873673	0.001573	0.255891	0.261083	0.137941	0.00121868	0.577341	0.999383	0.00111713	0.0010005	0.0010277	0.228765	0.0494991	0.417853	0.203562	0.00308634	0.0010485	0.0425355	0.00143462	0.170865	0.248747	0.135614	0.00135206	0.999004	0.232561	0.354311	0.9991	0.480025	
3.46	0.00280274	0.00147286	0.00147114	0.00160169	0.00154203	0.00297016	0.00274905	0.00287831	0.00141435	0.00138138	0.00134373	0.00121313	0.00196544	0.00210627	0.00297486	0.0028816	0.0028146	0.00309139	0.00287842	0.00284492	0.0011869	0.00310268	0.00283922	0.00182083	0.00279444	0.00119134	0.00119131	0.00282847	0.00131167	0.00271723	0.0029309	0.00280785	0.00226037	0.00194393	0.00244934	0.00149871	0.00138435	0.00141335	0.00139406	0.00136473	0.00102272	0.00102268	0.990856	0.821992	0.00102285	0.00102287	0.186347	0.119563	0.00107355	0.00102332	0.674308	0.484528	0.0836807	0.00139467	0.268925	0.273888	0.141322	0.00121868	0.514157	0.999383	0.00109459	0.0010005	0.0010277	0.256197	0.0647301	0.414083	0.194517	0.00295227	0.0010485	0.0398898	0.00143462	0.194242	0.255476	0.145281	0.00158147	0.977761	0.230737	0.355659	0.9991	0.47668	
3.465	0.00280274	0.00147286	0.00147114	0.00160169	0.00154203	0.00297016	0.00274905	0.00287831	0.00141435	0.00138138	0.00134373	0.00121313	0.00196544	0.00210627	0.00297486	0.0028816	0.0028146	0.00309139	0.00287842	0.00284492	0.0011869	0.00310268	0.00283922	0.00182083	0.00279444	0.00119134	0.00119131	0.00282847	0.00131167	0.00271723	0.0029309	0.00280785	0.00226037	0.00194393	0.00244934	0.00149871	0.00138435	0.00141335	0.00139406	0.00136473	0.00102269	0.00102267	0.994511	0.834315	0.00102276	0.00102277	0.193674	0.126281	0.56963	0.245882	0.176349	0.469352	0.0809257	0.0012584	0.281148	0.2862	0.144833	0.00121868	0.425359	0.999383	0.00108603	0.0010005	0.0010277	0.285027	0.0513518	0.392146	0.185868	0.00243476	0.0010485	0.0393083	0.00143462	0.219365	0.263067	0.156147	0.00150455	0.956245	0.219475	0.356888	0.410415	0.471986	
3.47	0.00280274	0.00147286	0.00147114	0.00160169	0.00154203	0.00297016	0.00274905	0.00287831	0.00141435	0.00138138	0.00134373	0.00121313	0.00196544	0.00210627	0.00297486	0.0028816	0.0028146	0.00309139	0.00287842	0.00284492	0.0011869	0.00310268	0.00283922	0.00182083	0.00279444	0.00119134	0.00119131	0.00282847	0.00131167	0.00271723	0.0029309	0.00280785	0.00226037	0.00194393	0.00244934	0.00149871	0.00138435	0.00141335	0.00139406	0.00136473	0.00102268	0.00102267	0.996547	0.838615	0.00102272	0.00102272	0.202185	0.133821	0.959693	0.600112	0.0355518	0.451831	0.0790615	0.00116607	0.292578	0.297975	0.14847	0.00121868	0.394813	0.999383	0.00108281	0.0010005	0.0010277	0.314292	0.0345481	0.359784	0.177618	0.0019551	0.0010485	0.0414271	0.00143462	0.245832	0.271461	0.168726	0.00136762	0.946058	0.202731	0.359002	0.229504	0.467593	
3.475	0.00280274	0.00147286	0.00147114	0.00160169	0.00154203	0.00297016	0.00274905	0.00287831	0.00141435	0.00138138	0.00134373	0.00121313	0.00196544	0.00210627	0.00297486	0.0028816	0.0028146	0.00309139	0.00287842	0.00284492	0.0011869	0.00310268	0.00283922	0.00182083	0.00279444	0.00119134	0.00119131	0.00282847	0.00131167	0.00271723	0.0029309	0.00280785	0.00226037	0.00194393	0.00244934	0.00149871	0.00138435	0.00141335	0.00139406	0.00136473	0.00102267	0.00102267	0.997672	0.822962	0.00102269	0.0010227	0.2118	0.14215	0.996183	0.629076	0.00727461	0.432609	0.0780329	0.00110747	0.303137	0.309071	0.152227	0.00121868	0.198973	0.999383	0.0010816	0.0010005	0.0010277	0.343093	0.021557	0.322507	0.169785	0.00160695	0.0010485	0.0463708	0.00143462	0.273249	0.280584	0.183491	0.00143484	0.917528	0.183272	0.362714	0.274236	0.464675	
3.48	0.00280274	0.00147286	0.00147114	0.00160169	0.00154203	0.00297016	0.00274905	0.00287831	0.00141435	0.00138138	0.00134373	0.00121313	0.00196544	0.00210627	0.00297486	0.0028816	0.0028146	0.00309139	0.00287842	0.00284492	0.0011869	0.00310268	0.00283922	0.00182083	0.00279444	0.00119134	0.00119131	0.00282847	0.00131167	0.00271723	0.0029309	0.00280785	0.00226037	0.00194393	0.00244934	0.00149871	0.00138435	0.00141335	0.00139406	0.00136473	0.00102267	0.00102267	0.933104	0.72129	0.00102268	0.00102268	0.222412	0.15123	0.99888	0.627023	0.00221911	0.412233	0.0778509	0.0010718	0.312462	0.31901	0.156069	0.00121868	0.935617	0.999383	0.00108115	0.0010005	0.0010277	0.370378	0.0129872	0.283926	0.16234	0.00137978	0.0010485	0.0587029	0.00143462	0.301245	0.290336	0.200883	0.00135189	0.924854	0.162947	0.368606	0.807402	0.46424	
3.485	0.00280274	0.00147286	0.00147114	0.00160169	0.00154203	0.00297016	0.00274905	0.00287831	0.00141435	0.00138138	0.00134373	0.00121313	0.00196544	0.00210627	0.00297486	0.0028816	0.0028146	0.00309139	0.00287842	0.00284492	0.0011869	0.00310268	0.00283922	0.00182083	0.00279444	0.00119134	0.00119131	0.00282847	0.00131167	0.00271723	0.0029309	0.00280785	0.00226037	0.00194393	0.00244934	0.00149871	0.00138435	0.00141335	0.00139406	0.00136473	0.00102267	0.00102267	0.848303	0.614053	0.00102267	0.00102268	0.233946	0.161022	0.229558	0.274824	0.0196631	0.391168	0.0786022	0.00105069	0.320689	0.327879	0.159999	0.00121868	0.934929	0.999383	0.00108098	0.0010005	0.0010277	0.395661	0.0077683	0.246361	0.155193	0.00124015	0.0010485	0.0671143	0.00143462	0.329428	0.300625	0.22128	0.00125053	0.941537	0.143124	0.376671	0.197201	0.466301	
3.49	0.00280274	0.00147286	0.00147114	0.00160169	0.00154203	0.00297016	0.00274905	0.00287831	0.00141435	0.00138138	0.00134373	0.00121313	0.00196544	0.00210627	0.00297486	0.0028816	0.0028146	0.00309139	0.00287842	0.00284492	0.0011869	0.00310268	0.00283922	0.00182083	0.00279444	0.00119134	0.00119131	0.00282847	0.00131167	0.00271723	0.0029309	0.00280785	0.00226037	0.00194393	0.00244934	0.00149871	0.00138435	0.00141335	0.00139406	0.00136473	0.00102267	0.00102267	0.756508	0.524526	0.00102267	0.00102267	0.246327	0.171483	0.0932347	0.154866	0.0746001	0.369929	0.0803213	0.00103845	0.328067	0.335847	0.164024	0.00121868	0.992759	0.999383	0.00108092	0.0010005	0.0010277	0.418497	0.00473991	0.215049	0.148337	0.00115758	0.0010485	0.0747101	0.00143462	0.357404	0.311348	0.244948	0.00116908	0.940774	0.128706	0.386884	0.321971	0.470911	
3.495	0.00280274	0.00147286	0.00147114	0.00160169	0.00154203	0.00297016	0.00274905	0.00287831	0.00141435	0.00138138	0.00134373	0.00121313	0.00196544	0.00210627	0.00297486	0.0028816	0.0028146	0.00309139	0.00287842	0.00284492	0.0011869	0.00310268	0.00283922	0.00182083	0.00279444	0.00119134	0.00119131	0.00282847	0.00131167	0.00271723	0.0029309	0.00280785	0.00226037	0.00194393	0.00244934	0.00149871	0.00138435	0.00141335	0.00139406	0.00136473	0.00102267	0.00102267	0.665858	0.455399	0.00102267	0.00102267	0.259476	0.182568	0.00976183	0.0411171	0.472441	0.350152	0.0830642	0.00103147	0.334913	0.343152	0.168157	0.0285149	0.998786	0.999383	0.0010809	0.0010005	0.0010277	0.438524	0.00303854	0.223622	0.141744	0.00111005	0.0010485	0.0825158	0.00143462	0.384781	0.322389	0.272015	0.00111256	0.930846	0.161878	0.399088	0.223621	0.477938	
3.5	0.00280274	0.00147286	0.00147114	0.00160169	0.00154203	0.00297016	0.00274905	0.00287831	0.00141435	0.00138138	0.00134373	0.00121313	0.00196544	0.00210627	0.00297486	0.0028816	0.0028146	0.00309139	0.00287842	0.00284492	0.0011869	0.00310268	0.00283922	0.00182083	0.00279444	0.00119134	0.00119131	0.00282847	0.00131167	0.00271723	0.0029309	0.00280785	0.00226037	0.00194393	0.00244934	0.00149871	0.00138435	0.00141335	0.00139406	0.00136473	0.00102267	0.00102267	0.604857	0.414315	0.00102267	0.00102267	0.273298	0.194221	0.00171102	0.00959157	0.649664	0.338792	0.0869647	0.00102753	0.341557	0.350087	0.172419	0.255086	0.999271	0.999383	0.00108089	0.0010005	0.0010277	0.455509	0.00210458	0.282176	0.13541	0.00108321	0.0010485	0.0901431	0.00143462	0.411162	0.333625	0.302415	0.00107617	0.956921	0.205757	0.412995	0.318103	0.487044	
3.505	0.00280274	0.00147286	0.00147114	0.00160169	0.00154203	0.00297016	0.00274905	0.00287831	0.00141435	0.00138138	0.00134373	0.00121313	0.00196544	0.00210627	0.00297486	0.0028816	0.0028146	0.00309139	0.00287842	0.00284492	0.0011869	0.00310268	0.00283922	0.00182083	0.00279444	0.00119134	0.00119131	0.00282847	0.00131167	0.00271723	0.0029309	0.00280785	0.00226037	0.00194393	0.00244934	0.00149871	0.00138435	0.00141335	0.00139406	0.00136473	0.00102267	0.00106402	0.589169	0.406749	0.00102267	0.00102267	0.287687	0.20638	0.00111557	0.00269229	0.685579	0.335469	0.092171	0.00102534	0.348366	0.356991	0.176835	0.466189	0.999306	0.999383	0.0041443	0.0010005	0.0400614	0.469305	0.00160073	0.363786	0.129327	0.00106829	0.0010485	0.0981639	0.00143462	0.436175	0.344928	0.335899	0.00105382	0.977331	0.222677	0.428292	0.194261	0.497856	
3.51	0.00280274	0.00147286	0.00147114	0.00160169	0.00154203	0.00297016	0.00274905	0.00287831	0.00141435	0.00138138	0.00134373	0.00121313	0.00196544	0.00210627	0.00297486	0.0028816	0.0028146	0.00309139	0.00287842	0.00284492	0.0011869	0.00310268	0.00283922	0.00182083	0.00279444	0.00119134	0.00119131	0.00282847	0.00131167	0.00271723	0.0029309	0.00280785	0.00226037	0.00194393	0.00244934	0.00149871	0.00138435	0.00141335	0.00139406	0.00136473	0.00102267	0.00141319	0.642984	0.448538	0.00102267	0.00102267	0.302547	0.218972	0.00107616	0.0013314	0.691181	0.343011	0.0988164	0.00102413	0.355835	0.364334	0.18144	0.927463	0.999308	0.999383	0.00623626	0.0291143	0.235455	0.479888	0.00133257	0.405861	0.12349	0.0010601	0.0010485	0.104703	0.00143462	0.459489	0.356177	0.37213	0.0010405	0.988777	0.223003	0.44459	0.159325	0.509878	
3.515	0.00280274	0.00147286	0.00147114	0.00160169	0.00154203	0.00297016	0.00274905	0.00287831	0.00141435	0.00138138	0.00134373	0.00121313	0.00196544	0.00210627	0.00297486	0.0028816	0.0028146	0.00309139	0.00287842	0.00284492	0.0011869	0.00310268	0.00283922	0.00182083	0.00279444	0.00119134	0.00119131	0.00282847	0.00131167	0.00271723	0.0029309	0.00280785	0.00226037	0.00194393	0.00244934	0.00149871	0.00138435	0.00141335	0.00139406	0.00136473	0.00102267	0.00179517	0.743838	0.541474	0.00102267	0.00102267	0.31779	0.231917	0.0010737	0.00107823	0.695401	0.358871	0.106993	0.00102346	0.36438	0.372551	0.186275	0.990964	0.999308	0.999383	0.00658025	0.398278	0.210803	0.48736	0.00119138	0.410648	0.11789	0.00105564	0.0010485	0.110786	0.00143462	0.48083	0.36726	0.410704	0.00103274	0.994421	0.21326	0.46147	0.100434	0.522553	
3.52	0.00280274	0.00147286	0.00147114	0.00160169	0.00154203	0.00297016	0.00274905	0.00287831	0.00141435	0.00138138	0.00134373	0.00121313	0.00196544	0.00210627	0.00297486	0.0028816	0.0028146	0.00309139	0.00287842	0.00284492	0.0011869	0.00310268	0.00283922	0.00182083	0.00279444	0.00119134	0.00119131	0.00282847	0.00131167	0.00271723	0.0029309	0.00280785	0.00226037	0.00194393	0.00244934	0.00149871	0.00138435	0.00141335	0.00139406	0.00136473	0.00102267	0.00170549	0.831926	0.650354	0.00102267	0.00102267	0.333297	0.245123	0.00107356	0.00103287	0.702221	0.380882	0.116757	0.0010231	0.37423	0.381889	0.191366	0.998329	0.999308	0.999383	0.00636834	0.895263	0.190587	0.491859	0.00111771	0.398648	0.112523	0.00105324	0.0010485	0.119145	0.00143462	0.499991	0.378071	0.451194	0.0010283	0.997019	0.197717	0.478487	0.079669	0.535265	
3.525	0.00280274	0.00147286	0.00147114	0.00160169	0.00154203	0.00297016	0.00274905	0.00287831	0.00141435	0.00138138	0.00134373	0.00121313	0.00196544	0.00210627	0.00297486	0.0028816	0.0028146	0.00309139	0.00287842	0.00284492	0.0011869	0.00310268	0.00283922	0.00182083	0.00279444	0.00119134	0.00119131	0.00282847	0.00131167	0.00271723	0.0029309	0.00280785	0.00226037	0.00194393	0.00244934	0.00149871	0.00138435	0.00141335	0.00139406	0.00136473	0.00102267	0.00151643	0.895207	0.724443	0.00102267	0.00102267	0.348923	0.258489	0.00107355	0.00102495	0.696937	0.407243	0.128135	0.0010229	0.385332	0.392324	0.196722	0.999105	0.999308	0.999383	0.00408951	0.984783	0.253305	0.49352	0.00107955	0.396533	0.107379	0.00105195	0.0010485	0.132222	0.00143462	0.516828	0.388513	0.493222	0.00102579	0.998165	0.190775	0.495219	0.0615058	0.547462	
3.53	0.00280274	0.00147286	0.00147114	0.00160169	0.00154203	0.00297016	0.00274905	0.00287831	0.00141435	0.00138138	0.00134373	0.00121313	0.00196544	0.00210627	0.00297486	0.0028816	0.0028146	0.00309139	0.00287842	0.00284492	0.0011869	0.00310268	0.00283922	0.00182083	0.00279444	0.00119134	0.00119131	0.00282847	0.00131167	0.00271723	0.0029309	0.00280785	0.00226037	0.00194393	0.00244934	0.00149871	0.00138435	0.00141335	0.00139406	0.00136473	0.00102267	0.00134779	0.936707	0.739248	0.00102267	0.00102267	0.364511	0.271912	0.00107355	0.0010236	0.693642	0.436487	0.141123	0.00102279	0.397387	0.403597	0.202334	0.999183	0.999308	0.999383	0.00253278	0.997235	0.268364	0.492511	0.00105991	0.398562	0.102453	0.00105126	0.0010485	0.150546	0.00143462	0.531265	0.398501	0.536201	0.00102438	0.998655	0.188275	0.511272	0.0584588	0.558633	
3.535	0.00280274	0.00147286	0.00147114	0.00160169	0.00154203	0.00297016	0.00274905	0.00287831	0.00141435	0.00138138	0.00134373	0.00121313	0.00196544	0.00210627	0.00297486	0.0028816	0.0028146	0.00309139	0.00287842	0.00284492	0.0011869	0.00310268	0.00283922	0.00182083	0.00279444	0.00119134	0.00119131	0.00282847	0.00131167	0.00271723	0.0029309	0.00280785	0.00226037	0.00194393	0.00244934	0.00149871	0.00138435	0.00141335	0.00139406	0.00136473	0.00102267	0.00122541	0.929879	0.704943	0.00102267	0.00102267	0.379905	0.285287	0.00107355	0.00102337	0.695489	0.467443	0.155688	0.00102273	0.409953	0.415324	0.208173	0.99919	0.999308	0.999383	0.00172649	0.998793	0.883914	0.489061	0.00104985	0.393118	0.0977374	0.00105089	0.0010485	0.172462	0.00143462	0.543301	0.407962	0.579542	0.00102361	0.998861	0.184341	0.526288	0.0516412	0.568338	
3.54	0.00280274	0.00147286	0.00147114	0.00160169	0.00154203	0.00297016	0.00274905	0.00287831	0.00141435	0.00138138	0.00134373	0.00121313	0.00196544	0.00210627	0.00297486	0.0028816	0.0028146	0.00309139	0.00287842	0.00284492	0.0011869	0.00310268	0.00283922	0.00182083	0.00279444	0.00119134	0.00119131	0.00282847	0.00131167	0.00271723	0.0029309	0.00280785	0.00226037	0.00194393	0.00244934	0.00149871	0.00138435	0.00141335	0.00139406	0.00136473	0.00102267	0.00114467	0.859312	0.634721	0.00102267	0.00102267	0.39495	0.298512	0.00107355	0.00102333	0.696142	0.49902	0.171791	0.0010227	0.422346	0.426921	0.214194	0.999191	0.999308	0.999383	0.00135423	0.998977	0.984824	0.483544	0.00104472	0.387137	0.0932247	0.0010507	0.0010485	0.196921	0.00143462	0.553006	0.416846	0.622883	0.00102318	0.998946	0.183271	0.539912	0.0550491	0.57617	
3.545	0.00280274	0.00147286	0.00147114	0.00160169	0.00154203	0.00297016	0.00274905	0.00287831	0.00141435	0.00138138	0.00134373	0.00121313	0.00196544	0.00210627	0.00297486	0.0028816	0.0028146	0.00309139	0.00287842	0.00284492	0.0011869	0.00310268	0.00283922	0.00182083	0.00279444	0.00119134	0.00119131	0.00282847	0.00131167	0.00271723	0.0029309	0.00280785	0.00226037	0.00194393	0.00244934	0.00149871	0.00138435	0.00141335	0.00139406	0.00136473	0.00102267	0.00109426	0.738865	0.538217	0.00102267	0.00102267	0.409504	0.311488	0.00107355	0.00102333	0.693303	0.523043	0.189386	0.00102269	0.433863	0.437774	0.220337	0.999191	0.999308	0.999383	0.0011929	0.998998	0.997453	0.476401	0.00104212	0.388899	0.0889082	0.0010506	0.0010485	0.22165	0.00143462	0.560517	0.425121	0.666137	0.00102294	0.99898	0.18008	0.551801	0.0547427	0.581771	
3.55	0.00280274	0.00147286	0.00147114	0.00160169	0.00154203	0.00297016	0.00274905	0.00287831	0.00141435	0.00138138	0.00134373	0.00121313	0.00196544	0.00210627	0.00297486	0.0028816	0.0028146	0.00309139	0.00287842	0.00284492	0.0011869	0.00310268	0.00283922	0.00182083	0.00279444	0.00119134	0.00119131	0.00282847	0.00131167	0.00271723	0.0029309	0.00280785	0.00226037	0.00194393	0.00244934	0.00149871	0.00138435	0.00141335	0.00139406	0.00136473	0.00102267	0.0010639	0.585586	0.423462	0.00102267	0.00102267	0.423435	0.324123	0.00107355	0.00102332	0.692445	0.536821	0.208432	0.00102268	0.443841	0.447308	0.226525	0.999191	0.999308	0.999383	0.00112573	0.999	0.998863	0.468118	0.00104081	0.388698	0.0847809	0.00105055	0.0010485	0.244381	0.00143462	0.566028	0.432779	0.709231	0.00102282	0.998994	0.17892	0.56158	0.061557	0.584809	
3.555	0.00280274	0.00147286	0.00147114	0.00160169	0.00154203	0.00297016	0.00274905	0.00287831	0.00141435	0.00138138	0.00134373	0.00121313	0.00196544	0.00210627	0.00297486	0.0028816	0.0028146	0.00309139	0.00287842	0.00284492	0.0011869	0.00310268	0.00283922	0.00182083	0.00279444	0.00119134	0.00119131	0.00282847	0.00131167	0.00271723	0.0029309	0.00280785	0.00226037	0.00194393	0.00244934	0.00149871	0.00138435	0.00141335	0.00139406	0.00136473	0.00102267	0.00104607	0.423584	0.310767	0.00102267	0.00102267	0.436631	0.336329	0.00107355	0.00102332	0.692434	0.542369	0.228879	0.00102267	0.452031	0.455301	0.23268	0.999191	0.999308	0.174281	0.00109853	0.999	0.999011	0.459073	0.094367	0.389964	0.0810244	0.00105052	0.0010485	0.261389	0.00143462	0.569792	0.439839	0.751904	0.00102275	0.999	0.178324	0.568858	0.0604807	0.585019	
3.56	0.00280274	0.00147286	0.00147114	0.00160169	0.00154203	0.00297016	0.00274905	0.00287831	0.00141435	0.00138138	0.00134373	0.00121313	0.00196544	0.00210627	0.00297486	0.0028816	0.0028146	0.00309139	0.00287842	0.00284492	0.0011869	0.00310268	0.00283922	0.00182083	0.00279444	0.00119134	0.00119131	0.00282847	0.00131167	0.00271723	0.0029309	0.00280785	0.00226037	0.00194393	0.00244934	0.00149871	0.00138435	0.00141335	0.00139406	0.00136473	0.00308528	0.0010358	0.305876	0.227602	0.00102267	0.00102267	0.448999	0.348031	0.00107355	0.00102332	0.691431	0.541119	0.25066	0.00102267	0.458325	0.461674	0.238721	0.999191	0.999308	0.0183187	0.00108773	0.999	0.181647	0.449635	0.314465	0.387601	0.0781939	0.00105051	0.0010485	0.27115	0.00143462	0.572109	0.446341	0.793746	0.00102271	0.999002	0.179376	0.573237	0.0598765	0.582207	
3.565	0.00280274	0.00147286	0.00147114	0.00160169	0.00154203	0.00297016	0.00274905	0.00287831	0.00141435	0.00138138	0.00134373	0.00121313	0.00196544	0.00210627	0.00297486	0.0028816	0.0028146	0.00309139	0.00287842	0.00284492	0.0011869	0.00310268	0.00283922	0.00182083	0.00279444	0.00119134	0.00119131	0.00282847	0.00131167	0.00271723	0.0029309	0.00280785	0.00226037	0.00194393	0.00244934	0.00149871	0.00138435	0.00141335	0.00139406	0.00136473	0.0398569	0.0146821	0.232137	0.174957	0.00102267	0.00102267	0.460466	0.359166	0.00107355	0.00102332	0.693107	0.53477	0.273678	0.00102267	0.46258	0.466317	0.244558	0.999191	0.812452	0.00291847	0.00108351	0.999	0.0394421	0.440122	0.346176	0.38806	0.0764218	0.0010505	0.0010485	0.274633	0.00143462	0.573303	0.452346	0.833936	0.00102269	0.999003	0.180273	0.574349	0.0480705	0.576267	
3.57	0.00280274	0.00147286	0.00147114	0.00160169	0.00154203	0.00297016	0.00274905	0.00287831	0.00141435	0.00138138	0.00134373	0.00121313	0.00196544	0.00210627	0.00297486	0.0028816	0.0028146	0.00309139	0.00287842	0.00284492	0.0011869	0.00310268	0.00283922	0.00182083	0.00279444	0.00119134	0.00119131	0.00282847	0.00131167	0.00271723	0.0029309	0.00280785	0.00226037	0.00194393	0.00244934	0.00149871	0.00138435	0.00141335	0.00139406	0.00136473	0.0624238	0.0156388	0.182355	0.139247	0.00102267	0.00102267	0.470985	0.369688	0.00107355	0.00102332	0.691654	0.525434	0.297731	0.00102267	0.464665	0.469117	0.250099	0.999191	0.704733	0.00162587	0.00108188	0.999	0.097948	0.430781	0.526631	0.39209	0.0759796	0.00105049	0.0010485	0.271947	0.00143462	0.573696	0.457916	0.871345	0.00102268	0.999003	0.181867	0.571898	0.0269022	0.567168	
3.575	0.00280274	0.00147286	0.00147114	0.00160169	0.00154203	0.00297016	0.00274905	0.00287831	0.00141435	0.00138138	0.00134373	0.00121313	0.00196544	0.00210627	0.00297486	0.0028816	0.0028146	0.00309139	0.00287842	0.00284492	0.0011869	0.00310268	0.00283922	0.00182083	0.00279444	0.00119134	0.00119131	0.00282847	0.00131167	0.00271723	0.0029309	0.00280785	0.00226037	0.00194393	0.00244934	0.00149871	0.00138435	0.00141335	0.00139406	0.00136473	0.0734796	0.0123317	0.148589	0.113906	0.00102267	0.00102267	0.480527	0.379562	0.00107355	0.00102332	0.701249	0.514572	0.322511	0.00102267	0.464447	0.469963	0.255252	0.999191	0.626999	0.00152426	0.00108126	0.999	0.11729	0.421869	0.667284	0.396498	0.0769464	0.00105049	0.0010485	0.262226	0.00143462	0.573568	0.463118	0.904643	0.00102267	0.999003	0.187534	0.565523	0.0186397	0.554665	
3.58	0.00280274	0.00147286	0.00147114	0.00160169	0.00154203	0.00297016	0.00274905	0.00287831	0.00141435	0.00138138	0.00134373	0.00121313	0.00196544	0.00210627	0.00297486	0.0028816	0.0028146	0.00309139	0.00287842	0.00284492	0.0011869	0.00310268	0.00283922	0.00182083	0.00279444	0.00119134	0.00119131	0.00282847	0.00131167	0.00271723	0.0029309	0.00280785	0.00226037	0.00194393	0.00244934	0.00149871	0.00138435	0.00141335	0.00139406	0.00136473	0.0625766	0.00873255	0.126081	0.0985846	0.00102267	0.00102267	0.489081	0.388771	0.00107355	0.00102332	0.693636	0.504848	0.347752	0.00102267	0.461898	0.468814	0.259946	0.999191	0.242088	0.00151657	0.00108103	0.999	0.0989826	0.413591	0.598674	0.397297	0.0799515	0.00105049	0.0010485	0.246892	0.655356	0.573139	0.468007	0.931745	0.00102267	0.999004	0.191585	0.555201	0.0974071	0.538859	
3.585	0.00280274	0.00147286	0.00147114	0.00160169	0.00154203	0.00297016	0.00274905	0.00287831	0.00141435	0.00138138	0.00134373	0.00121313	0.00196544	0.00210627	0.00297486	0.0028816	0.0028146	0.00309139	0.00287842	0.00284492	0.0011869	0.00310268	0.00283922	0.00182083	0.00279444	0.00119134	0.00119131	0.00282847	0.00131167	0.00271723	0.0029309	0.00280785	0.00226037	0.00194393	0.00244934	0.00149871	0.00138435	0.00141335	0.00139406	0.00136473	0.0493415	0.00684639	0.0942086	0.0785543	0.00102267	0.00102267	0.49665	0.397302	0.00107355	0.00102332	0.699384	0.496456	0.373228	0.00102267	0.457005	0.465632	0.264115	0.999191	0.311425	0.001516	0.00108094	0.999	0.0928796	0.405958	0.65581	0.39749	0.0847611	0.00105049	0.0010485	0.228363	0.887668	0.572486	0.472605	0.952219	0.00102267	0.999004	0.196625	0.54093	0.0465497	0.519751	
3.59	0.00280274	0.00147286	0.00147114	0.00160169	0.00154203	0.00297016	0.00274905	0.00287831	0.00141435	0.00138138	0.00134373	0.00121313	0.00196544	0.00210627	0.00297486	0.0028816	0.0028146	0.00309139	0.00287842	0.00284492	0.0011869	0.00310268	0.00283922	0.00182083	0.00279444	0.00119134	0.00119131	0.00282847	0.00131167	0.00271723	0.0029309	0.00280785	0.00226037	0.00194393	0.00244934	0.00149871	0.00138435	0.00141335	0.00139406	0.00136473	0.0341988	0.00494582	0.0666467	0.0679417	0.00102267	0.00102267	0.503219	0.405137	0.00107355	0.00102332	0.694231	0.490451	0.398683	0.00102267	0.449856	0.46047	0.267708	0.999191	0.711922	0.00151596	0.0010809	0.999	0.0826619	0.399287	0.763592	0.403189	0.091347	0.00105049	0.0010485	0.205601	0.963317	0.571671	0.476935	0.963462	0.00102267	0.999004	0.20595	0.52265	0.090667	0.49701	
3.595	0.00280274	0.00147286	0.00147114	0.00160169	0.00154203	0.00297016	0.00274905	0.00287831	0.00141435	0.00138138	0.00134373	0.00121313	0.00196544	0.00210627	0.00297486	0.0028816	0.0028146	0.00309139	0.00287842	0.00284492	0.0011869	0.00310268	0.00283922	0.00182083	0.00279444	0.00119134	0.00119131	0.00282847	0.00131167	0.00271723	0.0029309	0.00280785	0.00226037	0.00194393	0.00244934	0.00149871	0.00138435	0.00141335	0.00139406	0.00136473	0.0222427	0.00350359	0.0436157	0.0489593	0.00102267	0.00102267	0.508776	0.412258	0.00107355	0.00102332	0.702074	0.493293	0.423712	0.00102267	0.440644	0.453458	0.270693	0.999191	0.973345	0.00151596	0.00108089	0.999	0.0286594	0.393652	0.852745	0.413479	0.0998642	0.00105049	0.0010485	0.1831	0.987846	0.570631	0.480985	0.965527	0.00102267	0.999004	0.21357	0.500433	0.0100172	0.470283	
3.6	0.00280274	0.00147286	0.00147114	0.00160169	0.00154203	0.00297016	0.00274905	0.00287831	0.00141435	0.00138138	0.00134373	0.00121313	0.00196544	0.00210627	0.00297486	0.0028816	0.0028146	0.00309139	0.00287842	0.00284492	0.0011869	0.00310268	0.00283922	0.00182083	0.00279444	0.00119134	0.00119131	0.00282847	0.00131167	0.00271723	0.0029309	0.00280785	0.00226037	0.00194393	0.00244934	0.00149871	0.00138435	0.00141335	0.00139406	0.00136473	0.0140112	0.00252979	0.0273425	0.0324305	0.00102267	0.00102267	0.513306	0.418646	0.00107355	0.00102332	0.706641	0.502991	0.447898	0.00102267	0.429673	0.444795	0.273047	0.999191	0.997277	0.00151596	0.00108089	0.999	0.0167194	0.388766	0.793669	0.42172	0.109977	0.00105049	0.0010485	0.163138	0.995712	0.569258	0.48473	0.958389	0.00102267	0.999004	0.224025	0.474509	0.156245	0.439552	
3.605	0.00280274	0.00147286	0.00147114	0.00160169	0.00154203	0.00297016	0.00274905	0.00287831	0.00141435	0.00138138	0.00134373	0.00121313	0.00196544	0.00210627	0.00297486	0.0028816	0.0028146	0.00309139	0.00287842	0.00284492	0.0011869	0.00310268	0.00283922	0.00182083	0.00279444	0.00119134	0.00119131	0.00282847	0.00131167	0.00271723	0.0029309	0.00280785	0.00226037	0.00194393	0.00244934	0.00149871	0.00138435	0.00141335	0.00139406	0.00136473	0.00873792	0.00191312	0.0167613	0.0205474	0.00103741	0.00102267	0.516793	0.424284	0.00107355	0.00102332	0.720357	0.517849	0.470838	0.00102267	0.417331	0.434743	0.274758	0.999191	0.999164	0.00151596	0.00108088	0.999	0.0707303	0.384063	0.803214	0.429865	0.121343	0.00105049	0.0010485	0.147331	0.991	0.567426	0.488133	0.942239	0.00102267	0.999004	0.238552	0.445294	0.196872	0.406734	
3.61	0.00280274	0.00147286	0.00147114	0.00160169	0.00154203	0.00297016	0.00274905	0.00287831	0.00141435	0.00138138	0.00134373	0.00121313	0.00196544	0.00210627	0.00297486	0.0028816	0.0028146	0.00309139	0.00287842	0.00284492	0.0011869	0.00310268	0.00283922	0.00182083	0.00279444	0.00119134	0.00119131	0.00282847	0.00131167	0.00271723	0.0029309	0.00280785	0.00226037	0.00194393	0.00244934	0.00149871	0.00138435	0.00141335	0.00139406	0.00136473	0.00550696	0.00153816	0.0102155	0.0127466	0.00137575	0.00102267	0.519231	0.429159	0.00107355	0.00102332	0.703568	0.536099	0.492158	0.00102267	0.404039	0.423601	0.275825	0.999191	0.999299	0.00151596	0.00108088	0.999	0.0784648	0.37886	0.794583	0.438089	0.133634	0.00105049	0.0010485	0.136703	0.982646	0.565013	0.491155	0.917559	0.00102267	0.999004	0.253665	0.413724	0.0716799	0.373241	
3.615	0.00280274	0.00147286	0.00147114	0.00160169	0.00154203	0.00297016	0.00274905	0.00287831	0.00141435	0.00138138	0.00134373	0.00121313	0.00196544	0.00210627	0.00297486	0.0028816	0.0028146	0.00309139	0.00287842	0.00284492	0.0011869	0.00310268	0.00283922	0.00182083	0.00279444	0.00119134	0.00119131	0.00282847	0.00131167	0.00271723	0.0029309	0.00280785	0.00226037	0.00194393	0.00244934	0.00149871	0.00138435	0.00141335	0.00139406	0.00136473	0.0035864	0.00131647	0.0062982	0.00789147	0.00173185	0.00102267	0.520619	0.433264	0.00107355	0.00102332	0.726607	0.555899	0.511528	0.00102267	0.390211	0.411684	0.276256	0.999191	0.999308	0.00151596	0.00108088	0.999	0.0748141	0.372423	0.782113	0.446591	0.146517	0.00105049	0.0010485	0.132002	0.974749	0.561917	0.493757	0.884863	0.00102267	0.922309	0.267801	0.381239	0.0591255	0.340099	
3.62	0.00280274	0.00147286	0.00147114	0.00160169	0.00154203	0.00297016	0.00274905	0.00287831	0.00141435	0.00138138	0.00134373	0.00121313	0.00196544	0.00210627	0.00297486	0.0028816	0.0028146	0.00309139	0.00287842	0.00284492	0.0011869	0.00310268	0.00283922	0.00182083	0.00279444	0.00119134	0.00119131	0.00282847	0.00131167	0.00271723	0.0029309	0.00280785	0.00226037	0.00194393	0.00244934	0.00149871	0.00138435	0.00141335	0.00139406	0.00136473	0.00246954	0.00118807	0.00400889	0.00497376	0.00165092	0.00102267	0.52097	0.436598	0.00107355	0.00102332	0.734046	0.574013	0.528665	0.00102267	0.376239	0.399316	0.276066	0.999191	0.999308	0.00151596	0.00108088	0.999	0.0555133	0.364024	0.753955	0.455855	0.159449	0.00105049	0.0010485	0.133437	0.967209	0.558046	0.495903	0.844782	0.00102267	0.802979	0.289686	0.34889	0.00675983	0.308029	
3.625	0.00280274	0.00147286	0.00147114	0.00160169	0.00154203	0.00297016	0.00274905	0.00287831	0.00141435	0.00138138	0.00134373	0.00121313	0.00196544	0.00210627	0.00297486	0.0028816	0.0028146	0.00309139	0.00287842	0.00284492	0.0011869	0.00310268	0.00283922	0.00182083	0.00279444	0.00119134	0.00119131	0.00282847	0.00131167	0.00271723	0.0029309	0.00280785	0.00226037	0.00194393	0.00244934	0.00149871	0.00138435	0.00141335	0.00139406	0.00136473	0.00183076	0.00111486	0.00269455	0.00326333	0.00147737	0.00102267	0.520306	0.439171	0.00107355	0.00102332	0.745781	0.590102	0.543346	0.00102267	0.362476	0.386807	0.275278	0.999191	0.999308	0.00151596	0.00108088	0.999	0.0500819	0.352922	0.710457	0.464832	0.172258	0.00105049	0.0010485	0.141046	0.959947	0.553326	0.497557	0.798053	0.00102267	0.679775	0.31353	0.31742	0.0138675	0.277523	
3.63	0.00280274	0.00147286	0.00147114	0.00160169	0.00154203	0.00297016	0.00274905	0.00287831	0.00141435	0.00138138	0.00134373	0.00121313	0.00196544	0.00210627	0.00297486	0.0028816	0.0028146	0.00309139	0.00287842	0.00284492	0.0011869	0.00310268	0.00283922	0.00182083	0.00279444	0.00119134	0.00119131	0.00282847	0.00131167	0.00271723	0.0029309	0.00280785	0.00226037	0.00194393	0.00244934	0.00149871	0.00138435	0.00141335	0.00139406	0.00136473	0.00147014	0.00107364	0.00195031	0.00227902	0.00272556	0.00102267	0.518661	0.440997	0.00107355	0.00102332	0.756041	0.60393	0.555407	0.00102267	0.349201	0.374455	0.27393	0.999191	0.999308	0.00151596	0.00108088	0.999	0.0637214	0.339177	0.647618	0.472998	0.184788	0.00105049	0.0010485	0.154005	0.953158	0.547693	0.498685	0.745579	0.00102267	0.555671	0.335688	0.287337	0.00237017	0.248896	
3.635	0.00280274	0.00147286	0.00147114	0.00160169	0.00154203	0.00297016	0.00274905	0.00287831	0.00141435	0.00138138	0.00134373	0.00121313	0.00196544	0.00210627	0.00297486	0.0028816	0.0028146	0.00309139	0.00287842	0.00284492	0.0011869	0.00310268	0.00283922	0.00182083	0.00279444	0.00119134	0.00119131	0.00282847	0.00131167	0.00271723	0.0029309	0.00280785	0.00226037	0.00194393	0.00244934	0.00149871	0.00138435	0.00141335	0.00139406	0.00136473	0.00126868	0.00105065	0.00153353	0.00172063	0.00263225	0.00102267	0.516073	0.442097	0.00107355	0.00102332	0.769723	0.615325	0.564749	0.00102267	0.336642	0.362539	0.272079	0.999191	0.999308	0.00151596	0.00108088	0.999	0.0637333	0.323593	0.566501	0.480009	0.196881	0.00105049	0.0010485	0.173177	0.947036	0.54108	0.499249	0.688392	0.00102267	0.435333	0.354631	0.258973	0.00120127	0.222323	
3.64	0.00280274	0.00147286	0.00147114	0.00160169	0.00154203	0.00297016	0.00274905	0.00287831	0.00141435	0.00138138	0.00134373	0.00121313	0.00196544	0.00210627	0.00297486	0.0028816	0.0028146	0.00309139	0.00287842	0.00284492	0.0011869	0.00310268	0.00283922	0.00182083	0.00279444	0.00119134	0.00119131	0.00282847	0.00131167	0.00271723	0.0029309	0.00280785	0.00226037	0.00194393	0.00244934	0.00149871	0.00138435	0.00141335	0.00139406	0.00136473	0.0011571	0.00103794	0.00130222	0.00231245	0.00221692	0.00102267	0.512578	0.442491	0.00107355	0.00102332	0.714161	0.623805	0.57131	0.00102267	0.324775	0.351047	0.269779	0.999191	0.999308	0.00151596	0.00108088	0.999	0.0575143	0.306819	0.668119	0.483118	0.208265	0.00105049	0.0010485	0.200068	0.941324	0.53334	0.499198	0.627717	0.00102267	0.311774	0.368451	0.232578	0.00111315	0.197882	
3.645	0.00280274	0.00147286	0.00147114	0.00160169	0.00154203	0.00297016	0.00274905	0.00287831	0.00141435	0.00138138	0.00134373	0.00121313	0.00196544	0.00210627	0.00297486	0.0028816	0.0028146	0.00309139	0.00287842	0.00284492	0.0011869	0.00310268	0.00283922	0.00182083	0.00279444	0.00119134	0.00119131	0.00282847	0.00131167	0.00271723	0.0029309	0.00280785	0.00226037	0.00194393	0.00244934	0.00149871	0.00138435	0.00141335	0.00139406	0.00136473	0.00109574	0.00103096	0.00117481	0.00256624	0.0029529	0.00102267	0.508237	0.442213	0.00107355	0.00102332	0.743788	0.628681	0.575121	0.00102267	0.313842	0.34045	0.267078	0.999191	0.999308	0.00151596	0.00108088	0.999	0.0478836	0.289372	0.544757	0.479775	0.218612	0.00105049	0.0010485	0.226306	0.936106	0.524491	0.498512	0.564835	0.00102267	0.238987	0.378569	0.208169	0.00110726	0.175573	
