CEINMS output
datacolumns 81
datarows 92
endheader
time	addbrev_r	addlong_r	addmagDist_r	addmagIsch_r	addmagMid_r	addmagProx_r	bflh_r	bfsh_r	edl_r	ehl_r	fdl_r	fhl_r	gaslat_r	gasmed_r	glmax1_r	glmax2_r	glmax3_r	glmed1_r	glmed2_r	glmed3_r	glmin1_r	glmin2_r	glmin3_r	grac_r	iliacus_r	perbrev_r	perlong_r	piri_r	psoas_r	recfem_r	sart_r	semimem_r	semiten_r	soleus_r	tfl_r	tibant_r	tibpost_r	vasint_r	vaslat_r	vasmed_r	addbrev_l	addlong_l	addmagDist_l	addmagIsch_l	addmagMid_l	addmagProx_l	bflh_l	bfsh_l	edl_l	ehl_l	fdl_l	fhl_l	gaslat_l	gasmed_l	glmax1_l	glmax2_l	glmax3_l	glmed1_l	glmed2_l	glmed3_l	glmin1_l	glmin2_l	glmin3_l	grac_l	iliacus_l	perbrev_l	perlong_l	piri_l	psoas_l	recfem_l	sart_l	semimem_l	semiten_l	soleus_l	tfl_l	tibant_l	tibpost_l	vasint_l	vaslat_l	vasmed_l	
3.19	0.0785366	1.59449	0.667081	0.351056	0.16502	0.231105	11.783	2.0734	0.343068	0.0837516	0.305813	0.583232	7.80972	20.8796	23.7052	31.5644	19.3229	6.72159	7.94663	16.3585	0.00863102	-2.51953e-05	0.366529	0.103487	0.861018	0.503222	0.407775	2.95347	0.458801	0.777884	0.0289909	36.0774	3.6815	20.2277	0.0535934	0.249008	1.67567	1.4566	2.16911	1.10657	0.371383	0.332198	240.051	326.626	54.1503	0.352968	1.19371	0.227607	1.10268	0.161681	75.2988	0.107136	4.48464	0.801009	0.878517	2.95686	0.29229	2188.14	721.435	0.288334	151.264	691.533	0.141365	5.80567	0.668065	0.421889	0.00931775	0.269439	2.5424	0.259777	159.627	10.8115	0.715396	2.38373	0.105723	7.5053	5.88647	0.0979465	4.1978	0.187506	
3.195	0.0951346	2.35063	0.494181	0.315922	0.107322	0.625681	16.8773	6.94826	0.905891	0.250226	0.547579	0.97559	17.3052	40.1536	17.1086	20.9627	9.11137	12.7129	8.47112	9.75023	0.0114392	-0.000105353	0.583532	0.24261	3.11424	0.851775	0.817436	1.71444	1.64187	2.11395	0.119811	47.8833	5.82342	21.6315	0.22977	0.830611	2.68418	1.38318	2.46231	1.21491	0.486475	0.483806	225.317	301.381	60.5834	4.48262	0.758438	0.191891	1.28186	0.226336	80.3537	0.378126	3.92561	1.60452	1.98075	5.81768	0.74589	2471.8	942.931	0.323943	164.933	186.113	0.164859	7.75257	1.61017	1.51925	0.0324693	0.53344	3.4344	0.661767	196.353	6.66222	0.518996	5.92956	0.211775	9.61838	17.188	0.26232	8.41599	0.805229	
3.2	1.99266	2.85312	1.77001	1.96878	1.41434	10.5318	24.4057	19.0517	2.32849	1.09128	0.912965	1.48872	24.3527	45.7291	16.9189	21.1556	9.33497	12.7798	8.28964	9.76119	0.00505681	-0.00016346	0.585301	1.02113	10.8669	1.31872	2.04125	1.45269	6.99912	18.9054	1.95443	49.1414	7.04477	26.2869	3.81737	5.61385	3.75845	2.7468	8.80625	4.45995	0.92923	0.92803	283.101	320.715	93.4039	9.0081	58.7793	24.8406	1.29316	0.239951	79.0533	10.7167	124.378	3.2408	42.2988	109.55	38.3094	2178.57	1089.7	0.327521	166.267	106.495	0.168145	53.1655	3.2063	11.5106	2.41183	1.04073	3.69351	0.779332	216.274	134.922	51.3201	27.1021	0.427743	6.37368	93.4018	3.78957	10.1045	11.5468	
3.205	2.21322	2.85241	1.83161	2.03214	1.47646	10.5193	23.2641	18.3651	2.27492	1.06399	0.924789	1.51421	24.6279	44.9537	16.4339	20.9754	9.36056	11.6352	7.73354	9.43978	0.000247506	-0.000199451	0.522404	1.01317	10.7914	1.34065	2.08037	1.37643	6.98366	20.6219	1.8952	46.5106	6.78491	28.6509	3.88848	5.45409	3.81927	2.78896	8.91043	4.54614	0.920286	0.910611	300.427	320.668	98.5366	9.50777	67.0107	28.3068	1.2656	0.232137	76.1302	11.6515	162.414	3.23643	57.7317	198.086	38.0223	2110.31	960.962	0.327459	82.6028	16.2455	0.16811	98.5011	3.16608	12.3432	2.49937	1.03931	3.64835	0.841946	220.93	154.439	59.2145	22.2967	0.427166	4.05779	119.004	3.78897	11.7594	11.6457	
3.21	2.40948	2.85168	1.83703	2.02146	1.52213	10.5058	21.675	17.7077	2.18502	1.01993	0.933268	1.53578	24.5465	44.0743	15.7011	20.4506	9.21695	10.5364	7.18706	9.08035	-1.11388e-05	-0.00022129	0.467756	0.990731	10.709	1.36011	2.10718	1.30442	6.98086	22.1692	1.83674	43.5136	6.48491	31.5474	3.90334	5.20284	3.87305	2.90336	9.22406	4.72389	0.883256	0.862572	261.069	292.511	82.3015	7.66119	73.2174	26.794	1.23378	0.223736	76.3182	11.8792	172.219	3.23186	55.3374	195.184	37.6879	2055.36	596.023	0.327397	37.8547	3.07268	0.168075	117.658	3.07221	12.5657	2.56481	1.03783	3.56901	0.904713	216.137	149.829	58.2188	17.3248	0.426563	1.86122	126.458	3.78832	13.3011	11.6954	
3.215	2.66792	2.85098	1.85351	1.99521	1.58237	10.4934	19.8588	17.034	2.0917	0.973869	0.942464	1.56044	24.5341	43.5409	15.0327	20.018	9.12568	9.35228	6.67432	8.84417	-2.95824e-05	-0.000224262	0.41394	0.967801	10.614	1.38038	2.13654	1.24675	6.98097	23.5658	1.77802	40.2318	6.14767	34.8585	3.90437	4.9308	3.93276	3.00856	9.51363	4.88744	0.885543	0.801849	195.566	239.816	61.8005	6.44611	77.3665	24.6646	1.19795	0.214605	80.0958	12.1528	168.175	3.22737	55.7842	189.047	43.9736	1946.08	201.674	0.327334	17.1501	1.47304	0.16804	112.826	2.97524	13.2998	2.63336	1.03637	3.47869	0.966683	207.778	144.877	59.0044	12.9259	0.42597	0.377871	126.101	3.78936	14.6907	11.7731	
3.22	2.9737	2.85025	1.87827	1.97948	1.65405	10.4799	18.1302	16.3458	1.984	0.92006	0.954309	1.59071	24.6001	43.1126	14.4179	19.6408	9.06028	8.11091	6.2192	8.72215	-4.04441e-05	-0.000207837	0.363895	0.94264	10.5036	1.40571	2.17376	1.21959	6.96894	24.9033	1.71927	36.6007	5.77817	39.0185	3.90693	4.59961	4.00688	3.1628	9.95672	5.13555	2.29468	1.2906	136.102	175.676	44.5291	5.03314	79.4408	23.2229	1.15588	0.204269	86.8998	12.6794	164.617	3.2229	59.0451	199.274	67.9465	1695.24	20.0583	0.327272	7.90571	1.29615	0.168005	101.917	2.85136	14.4554	2.71931	1.03492	3.37348	1.02585	198.503	148.082	60.6911	9.36874	0.42538	0.000327666	126.952	3.83616	15.8863	11.8363	
3.225	3.32269	2.84949	1.90689	1.9624	1.74012	10.4657	16.5795	15.6503	1.8589	0.85749	0.967981	1.62427	24.6782	42.694	13.8629	19.3124	9.01769	6.85256	5.85349	8.72137	-4.26603e-05	-0.000175668	0.321655	0.917196	10.3799	1.43556	2.21566	1.22329	6.94806	26.1729	1.66092	32.8535	5.39849	43.8647	3.90915	4.20668	4.09105	3.38477	10.6045	5.49144	2.4345	3.64912	90.8426	116.207	31.0716	3.8058	79.5625	22.142	1.10888	0.193133	95.2539	13.4033	164.557	3.21846	62.8732	214.526	69.4264	1340.28	2.53037	0.32721	3.9594	1.29463	0.167971	94.4284	117.307	15.9483	2.82124	1.03348	3.26654	1.07739	188.899	157.18	62.402	6.6605	0.424794	-0.00609443	131.679	3.9542	16.8829	11.8898	
3.23	3.70889	2.84874	1.94353	1.94393	1.84446	10.4518	15.2301	14.9561	1.72151	0.788907	0.982324	1.65899	24.7416	42.3101	13.3877	19.0444	9.00492	5.64241	5.56756	8.85166	-3.71111e-05	-0.000134884	0.290235	0.89402	10.2441	1.46762	2.25913	1.27334	6.91949	27.2742	1.60316	29.3061	5.03028	48.9488	3.90785	3.77174	4.17902	3.65331	11.3897	5.9162	2.27621	6.09739	57.7766	71.264	21.7557	2.87324	79.1022	22.5819	1.05892	0.18166	104.275	14.284	165.861	3.21404	67.2545	229.085	75.2258	966.078	1.39629	0.327149	43.9167	1.31394	0.167936	89.6186	267.17	17.7733	2.93428	1.03205	3.28128	1.11814	179.085	163.769	64.2852	4.68635	0.42421	-0.0110896	139.466	4.15375	17.7113	11.9456	
3.235	4.12152	2.84799	1.99241	1.93472	1.97287	10.4378	14.1264	14.2701	1.57848	0.71758	0.996573	1.69327	24.7896	41.9639	13.0076	18.8499	9.02867	4.58171	5.36277	9.12481	-2.68714e-05	-9.49148e-05	0.269206	0.875287	10.0965	1.5003	2.30238	1.3756	6.88276	28.1498	1.54625	26.2291	4.69322	53.8176	3.9022	3.3204	4.2665	3.94895	12.2545	6.37926	2.00582	7.51117	37.4373	42.457	16.2563	2.23835	78.642	25.0923	1.00752	0.170224	113.873	15.3289	166.994	3.20963	72.6287	244.304	86.9648	676.752	1.4221	0.327087	31.5624	1.33475	0.167901	85.5321	412.207	19.8961	3.05559	1.03062	3.28029	1.1454	169.485	168.551	66.6555	3.29283	0.420615	-0.0139882	149.126	4.41641	18.4098	12.007	
3.24	4.54505	2.84724	2.05547	1.93812	2.13348	10.4239	13.2788	13.6129	1.43594	0.646757	1.01007	1.72539	24.8165	41.6233	12.7331	18.7399	9.09688	3.77579	5.2207	9.42724	-1.62198e-05	-6.30306e-05	0.257201	0.862751	9.93822	1.53232	2.34377	1.51437	6.83802	28.8093	1.49048	23.7729	4.40383	58.0722	3.88911	2.88073	4.34928	4.27073	13.1968	6.88091	1.75419	7.8112	32.1573	33.1747	12.5732	1.83673	78.186	27.0576	0.956013	0.159199	123.774	16.5587	167.714	3.20523	79.0238	260.814	100.342	407.367	1.55078	0.327025	17.2498	1.35435	0.167867	81.5229	495.168	22.3056	3.18438	1.0292	3.2807	1.1599	160.473	174.722	69.7218	2.33436	0.582369	-0.0146355	160.051	4.73248	18.9994	12.067	
3.245	4.96347	3.3649	2.13578	1.95522	2.33716	10.4097	12.648	12.9949	1.30028	0.579906	1.02204	1.75374	24.8154	41.2391	12.5743	18.7194	9.21696	3.22164	5.13361	9.5414	-8.06939e-06	-3.95772e-05	0.252901	0.857952	9.7702	1.56228	2.38127	1.67839	6.7854	29.2911	1.43633	21.9349	4.17422	61.3597	3.86486	2.48278	4.42303	4.61276	14.1966	7.41093	1.56624	7.53674	41.9407	41.0494	9.401	1.59617	77.7205	28.4269	0.905772	0.14896	133.939	17.9784	168.423	3.20084	86.3617	277.61	113.774	151.56	1.71152	0.50096	8.83275	1.37223	0.167832	77.8185	471.602	24.9937	3.31943	1.02777	3.28001	1.16173	152.139	183.948	73.7984	1.69106	0.697893	-0.0132912	171.72	5.10093	19.4618	12.1005	
3.25	5.36049	4.16784	2.23641	1.9865	2.59584	10.3954	12.174	12.4405	1.178	0.520409	1.03186	1.77687	24.779	40.7598	12.5407	18.7941	9.39618	2.86878	5.07919	9.88908	-2.24152e-06	-2.2055e-05	0.254954	0.862078	9.59335	1.5889	2.41313	1.88298	6.72485	29.6397	1.38364	20.6065	4.01122	63.4543	3.82595	2.15316	4.48388	4.95767	15.201	7.94073	1.44362	7.91698	68.6435	63.3743	6.74905	1.4582	77.2356	29.1367	0.858056	0.139871	144.484	19.583	169.765	3.19646	94.5265	293.461	127.543	25.6737	1.89083	0.59093	4.64964	1.3881	0.167798	74.6974	351.449	27.9383	3.45878	1.02636	3.2795	1.15635	144.425	197.049	79.359	1.27378	0.745798	-0.0104229	183.426	5.53694	19.7919	12.0982	
3.255	5.71765	4.29992	2.36132	2.03449	2.92348	10.3809	11.8213	11.9517	1.07426	0.47088	1.03899	1.79353	24.6974	40.1316	12.6395	18.9655	9.64652	2.66991	4.92394	10.2552	5.67775e-05	-7.89276e-06	0.262135	0.876016	9.40849	1.61094	2.43794	2.13809	6.65637	29.8941	1.33257	19.7032	3.91913	64.3775	3.76876	1.90162	4.52892	5.28402	16.1493	8.43856	1.37169	9.33869	114.618	99.5135	4.74427	1.38225	76.7265	29.2294	0.813887	0.132251	155.092	21.3499	172.415	3.19209	103.439	307.885	140.906	7.31158	2.08416	0.688477	2.75263	1.40195	0.167764	72.2438	198.706	31.0777	3.59914	1.03822	3.279	1.14982	137.254	214.922	87.1078	1.01937	0.766492	-0.00651577	194.311	6.04319	20.0151	12.069	
3.26	6.01627	4.39905	2.51486	2.10014	3.3367	10.3663	11.6324	11.5472	0.992499	0.432654	1.04311	1.80296	24.5609	39.3518	12.9505	19.2275	9.97896	2.58214	4.77883	10.638	0.000897586	8.49134e-05	0.273254	0.900288	9.21684	1.62758	2.45461	2.43589	6.58024	30.0835	1.2832	19.2043	3.89985	64.3515	3.68952	1.7196	4.55626	5.57196	16.9842	8.87526	1.33416	10.9087	183.453	151.162	3.36599	1.34246	76.1885	29.1062	0.774146	0.12973	165.535	23.2648	176.906	3.18772	113.133	321.146	152.467	5.21931	2.29147	0.826732	1.94223	1.41402	0.167729	70.4489	84.4858	34.3476	3.73749	1.12121	3.27855	1.14182	130.519	238.329	98.0362	0.885113	0.759992	-0.00196412	203.51	6.61005	20.1747	12.028	
3.265	6.24501	4.54434	2.69921	2.18287	3.85233	10.3514	11.6683	11.2215	0.934141	0.405733	1.0441	1.80492	24.3641	38.4543	15.2183	19.573	10.4045	2.56628	4.69565	11.0092	0.00274175	0.00245867	0.28717	0.935084	9.01966	1.63814	2.46252	2.75177	6.49696	30.227	1.23574	19.0902	3.95436	63.6283	3.58474	1.59591	4.56524	5.80499	17.658	9.22656	1.31806	11.8181	274.775	221.241	2.48467	1.32314	75.6167	28.9854	0.739525	0.138094	175.511	25.3034	183.611	3.18337	123.715	333.874	161.893	5.03227	2.51255	0.995487	1.61314	1.42471	0.167695	69.3268	33.7922	37.6814	3.87046	1.23655	3.2781	1.10123	123.813	270.485	113.554	0.841975	0.727684	0.0583633	210.271	7.22767	20.2816	11.9672	
3.27	6.40748	4.67044	2.92252	2.2866	4.48028	10.3364	11.951	10.9814	0.898448	0.389496	1.04207	1.80017	24.1051	37.4816	17.2439	19.9828	10.9333	2.58849	4.61056	11.3206	0.00555046	0.00795488	0.302794	0.980012	8.81882	1.64231	2.4615	3.04656	6.40751	30.334	1.19016	19.3726	4.08334	62.4235	3.45267	1.52013	4.55615	5.97	18.1338	9.47339	1.31443	11.8635	396.27	307.906	1.94957	1.3151	75.006	28.8679	0.710311	0.142648	184.75	27.3939	192.812	3.17902	135.34	346.908	169.585	5.04812	2.74118	1.2056	1.48707	1.43445	0.167661	68.9462	24.3663	41.0212	3.99366	1.20859	3.27766	0.981261	116.014	319.583	135.525	0.870458	0.671308	0.841437	214.05	7.91243	20.3119	11.8702	
3.275	6.50974	4.76228	3.18555	2.4154	5.20138	10.3213	12.4988	10.8254	0.884962	0.383567	1.03723	1.78927	23.7861	36.4415	19.0049	20.4357	11.5721	2.75512	4.5335	11.5241	0.0092666	0.0163648	0.318971	1.03408	8.61644	1.63999	2.45167	3.27179	6.31309	30.4039	1.14674	20.0793	4.28907	60.8495	3.2928	1.48676	4.53002	6.05876	18.386	9.60339	1.31758	11.4673	555.093	425.104	1.63596	1.31309	74.351	28.7507	0.686718	0.14686	193.103	29.5477	204.892	3.17468	148.086	360.906	176.119	5.08292	2.96732	1.47228	1.44288	1.44342	0.380722	69.438	16.8115	44.2857	4.10285	1.15234	3.52757	0.761734	104.44	396.326	166.217	0.956342	0.599909	2.54336	214.584	8.70289	20.262	11.7281	
3.28	6.56119	4.83222	3.49298	2.57278	5.98237	10.3059	13.335	10.742	0.894859	0.388471	1.03	1.77213	23.4118	35.3345	20.4536	20.8976	12.3227	2.92698	4.46023	11.5745	0.0138253	0.0274487	0.334888	1.09549	8.41519	1.63141	2.4335	3.38048	6.21463	30.4236	1.10549	21.2677	4.57571	58.9616	3.10851	1.49832	4.48883	6.06717	18.4028	9.61064	1.32407	10.7505	737.388	568.117	1.45649	1.31417	73.6465	28.6304	0.668822	0.152476	200.294	31.6735	220.284	3.17035	161.941	376.318	182.174	5.11508	3.18295	1.80386	1.4296	1.45176	0.58078	71.0158	11.2465	47.3391	4.19322	1.21877	7.43112	0.500682	79.9126	513.047	207.197	1.08801	0.552163	5.13606	211.92	9.65664	20.2445	11.6125	
3.285	6.56631	4.88685	3.84631	2.76206	6.78234	10.2904	14.507	10.7249	0.930205	0.405106	1.02087	1.74923	22.9801	34.1656	21.6599	21.3347	13.1785	3.04896	4.38879	11.4425	0.0191556	0.0409381	0.361457	1.16171	8.21779	1.61688	2.40765	3.34148	6.11351	30.3602	1.06653	23.0232	4.94571	56.7788	2.90761	1.56464	4.4348	5.99563	18.183	9.49492	1.33193	9.46133	949.306	728.578	1.35539	1.31672	72.8872	28.5052	0.656341	0.158393	206.131	33.7107	239.398	3.16603	176.734	393.157	188.38	5.14026	3.37993	2.19804	1.42593	1.45969	0.82063	74.0053	7.44909	50.0627	4.26064	1.2098	4.79807	0.30944	39.2403	686.384	256.858	1.25387	0.557264	8.5461	206.393	10.8508	20.1983	11.4736	
3.29	6.53414	4.92992	4.24028	2.98535	7.55766	10.2747	16.0655	10.7634	0.994485	0.435285	1.01032	1.72209	22.4863	32.9383	22.6656	21.7044	14.1233	3.17502	4.32361	11.1209	0.0251848	0.0565505	0.412077	1.22968	8.02712	1.59686	2.37498	3.1538	6.01075	30.1096	1.02986	25.4474	5.4008	54.29	2.69746	1.69914	4.37038	5.84959	17.7389	9.26344	1.34009	7.95463	1156.2	907.873	1.299	1.31988	169.585	28.373	0.649282	0.165197	210.494	35.6682	262.537	3.16171	191.988	410.523	194.781	5.15663	3.55076	2.64163	1.42228	1.46744	1.07041	78.8632	5.13313	52.4127	4.3023	1.15656	3.61918	0.215842	13.0581	927.728	309.829	1.44104	0.556109	12.6844	198.529	12.38	20.0668	11.2704	
3.295	6.47382	4.96658	4.66272	3.24356	8.27241	10.2589	18.033	10.8388	1.09365	0.482251	0.998804	1.69197	21.9168	31.6446	23.5075	21.9725	15.1297	3.27478	4.27049	10.6303	0.0318431	0.0739847	0.434302	1.29596	7.84526	1.57195	2.33632	2.84989	5.90773	29.5145	0.995507	28.6418	5.9333	51.4442	2.48441	1.92423	4.29786	5.6393	17.094	8.93032	1.34799	6.99562	1319.81	1074.53	1.2677	1.32318	328.545	28.2319	0.647545	0.172053	213.254	37.4244	289.544	3.15741	206.992	427.042	201.074	5.16375	3.68975	3.10791	1.41292	1.47457	1.29897	86.1762	4.2741	54.3869	4.31651	1.10571	3.34205	0.151657	22.6652	1220.17	358.385	1.63587	0.555503	17.4849	188.949	14.7005	19.8378	11.0126	
3.3	6.39275	5.00246	5.09777	3.53503	8.90962	10.2429	20.43	10.9338	1.2355	0.550825	0.986724	1.65925	21.2538	30.2812	24.2136	22.107	16.1583	3.33655	4.21829	10.0096	0.0390762	0.0929527	0.454818	1.35694	7.67366	1.54268	2.29248	2.48351	5.80529	28.4896	0.963416	32.7021	6.52505	48.2428	2.27405	2.27565	4.21916	5.38033	16.2862	8.51566	1.35537	6.35634	1416.67	1193.34	1.25032	1.3264	424.638	28.0797	0.650987	0.179592	214.399	38.989	319.54	3.15311	221.088	441.596	207.019	5.16237	3.7945	3.55641	1.39225	1.48103	1.47776	96.5792	3.54822	55.9168	4.30293	1.0739	3.28624	0.116462	43.6138	1506.98	394.445	1.82658	0.554558	22.8935	178.275	23.8558	19.5269	10.7209	
3.305	6.29399	5.04	5.53006	3.85542	9.43167	10.2267	23.2564	11.0346	1.42473	0.644514	0.974309	1.62421	20.4716	28.8447	24.8074	22.0548	17.1626	3.38853	4.15912	9.31551	0.0468645	0.113194	0.468789	1.40934	7.51305	1.50957	2.24422	2.12036	5.70443	26.9874	0.933368	37.5764	7.14932	44.6909	2.07199	2.80014	4.13565	5.09584	15.3699	8.04779	1.36213	5.75317	1460.54	1241.92	1.24058	1.32942	434.461	27.9142	0.659769	0.188048	213.988	40.4091	351.038	3.14883	234.012	454.012	212.511	5.1483	3.86661	3.95125	1.35301	1.48607	1.60522	110.575	3.04469	56.9969	4.26297	1.04867	3.27573	0.0908163	51.6381	1624.75	413.058	2.00543	0.553743	28.8333	167.068	24.6717	19.158	10.4097	
3.31	6.1748	5.08144	5.94394	4.19757	9.81398	10.2103	26.42	11.1216	1.65944	0.762621	0.961599	1.58725	19.5317	27.3167	25.3084	21.7683	18.0846	3.48651	4.09546	8.60599	0.0552506	0.134499	0.47272	1.45057	7.36509	1.47299	2.19217	1.81091	5.60547	25.0412	0.905311	42.9907	7.77367	40.8113	1.88379	3.50961	4.04802	4.82132	14.4114	7.56274	1.36826	6.33373	1487.94	1255.95	1.23502	1.33221	438.517	27.7336	0.673625	0.196573	212.218	41.5906	382.139	3.14455	245.926	464.855	217.58	5.10589	3.91028	4.27873	1.28572	1.48652	1.68731	128.262	2.72904	57.6472	4.19881	1.03113	3.27351	0.0713917	41.3845	1606.21	417.71	2.16767	0.552947	35.1074	155.775	23.4224	18.7122	10.0585	
3.315	6.03257	5.12564	6.32629	4.54734	10.0989	10.1938	29.6966	11.1775	1.92833	0.898674	0.948498	1.54854	18.3971	25.7081	25.7326	21.3925	18.8738	3.60683	4.03241	7.93068	0.0663184	0.156837	0.466469	1.47903	7.23303	1.43317	2.13682	1.56523	5.50874	22.8179	0.878803	48.5365	8.3614	36.6081	1.71435	4.35125	3.95621	4.63744	13.5001	7.11127	1.37379	6.55069	1502.92	1250.74	1.23173	1.33474	441.704	27.536	0.692724	0.206361	209.249	42.5342	410.939	3.14028	257.537	474.932	222.366	5.00401	3.93147	4.53294	1.18161	1.47534	1.73264	149.716	2.54222	57.9289	4.11396	1.01961	3.27283	0.0567197	24.2578	1566.47	414.567	2.31064	0.55217	41.2713	144.744	23.1502	18.1468	9.64535	
3.32	5.86557	5.17011	6.66646	4.88782	10.2718	10.1771	32.8579	11.1959	2.20985	1.04021	0.934761	1.50803	17.0549	24.0174	26.0925	20.9049	19.4906	3.7756	3.97459	7.32529	0.0862893	0.181709	0.461863	1.49526	7.10769	1.39023	2.07843	1.35884	5.41392	20.5075	0.853762	53.8175	8.88618	32.0891	1.56733	5.21716	3.85937	4.9173	12.7475	6.77196	1.37876	5.79203	1487.49	1219.62	1.22966	1.33703	444.68	27.3199	0.71719	0.216327	205.225	43.327	435.744	3.13601	268.636	484.797	227.091	4.79667	3.93713	143.72	1.04397	1.441	1.75031	175.331	2.43587	57.8912	4.01196	1.01215	3.27238	0.0455808	15.7083	1520.21	407.169	2.43187	0.551393	46.4518	134.217	25.8452	17.4333	9.16735	
3.325	5.67333	5.21219	6.95637	5.2037	10.3701	10.1602	35.6859	11.1613	2.47819	1.17252	0.919916	1.46553	15.4943	22.1902	26.3983	20.3725	19.9129	3.99791	3.92892	6.8074	0.0979488	0.229829	0.461323	1.5004	6.9905	1.34429	2.01738	1.17131	5.32059	18.3151	0.829483	58.4399	9.32086	27.3477	1.44554	5.9787	3.75617	5.24622	12.4461	6.89437	1.38322	4.87282	1410.31	1146.59	98.1361	1.33909	446.406	27.0841	0.746625	0.226741	200.417	43.897	455.576	3.13176	279.066	494.241	231.905	4.4309	3.93458	396.638	0.887294	1.36874	1.74788	202.358	2.37689	57.5647	3.89681	1.00724	3.27195	0.0369838	23.3187	1465.6	397.292	2.5281	0.550616	49.1839	124.347	32.1828	16.5648	9.92152	
3.33	5.45672	5.24921	7.19233	5.48231	10.4064	10.1432	38.0146	11.0774	2.70466	1.27958	0.903531	1.42079	13.7226	20.24	26.6582	20.9372	20.1317	4.22009	3.90247	6.38563	0.110046	0.263906	0.464145	1.49606	6.8782	1.29532	1.95391	1.02406	5.22786	16.4456	0.804821	62.1341	9.65199	22.5833	1.35055	6.50552	3.6452	5.52232	13.7223	7.63208	1.38723	3.99156	1268.34	1030.89	269.163	1.34093	446.785	26.8281	0.780979	0.238345	195.033	44.2592	469.864	3.12752	289.006	503.694	236.583	3.89213	3.931	669.06	0.877942	1.24539	1.73369	226.241	2.34476	57.0072	3.77256	1.00387	3.41852	0.0302968	35.3066	1398.18	385.898	2.5947	0.549839	47.1041	115.232	41.9582	15.5568	17.2581	
3.335	5.21755	5.27835	7.37214	5.71387	10.3941	17.9094	39.7272	10.9345	2.86341	1.34942	0.885126	1.37347	11.776	18.1462	26.8786	23.7375	20.1506	4.46794	3.89016	6.40549	0.120742	0.293802	0.477718	1.48451	6.76813	1.24356	1.88829	0.919964	5.13458	15.0768	0.781773	64.75	9.87096	18.219	1.28287	6.78211	3.52483	5.74669	14.8811	8.16311	1.39082	3.23035	1109.78	902.745	370.249	1.34257	446.552	26.5515	0.820183	0.249759	189.278	44.4917	478.483	3.12328	298.659	513.593	241.205	3.28043	3.93264	849.4	0.877131	1.07982	1.71676	244.119	2.32746	56.26	3.64304	1.00138	5.52004	0.0250519	26.2193	1319.46	373.512	2.62718	0.549061	35.7675	106.908	54.237	14.4528	33.1634	
3.34	4.95792	5.29636	7.4946	5.89311	10.3417	18.5566	40.7805	10.7459	2.95285	1.38483	0.86432	1.32295	9.76826	15.944	27.0649	26.198	19.9919	4.76465	3.8845	8.26529	0.133855	0.321301	0.494381	1.46615	6.65697	1.18937	1.82124	0.844204	5.03846	14.3709	0.759181	66.2751	9.9803	14.5753	1.24195	6.8775	3.3942	5.93241	15.8514	8.60131	1.39404	2.65355	954.374	775.41	421.988	1.34402	444.423	26.255	0.864075	0.261922	183.342	44.5649	481.893	3.11905	308.269	524.201	245.701	2.79325	3.93183	948.094	0.877948	0.898618	1.70525	254.973	2.31818	55.3583	3.51225	0.999403	5.61697	0.0209799	11.4141	1233.53	360.445	2.62537	0.548285	21.8285	99.3817	67.7943	13.3566	56.7953	
3.345	4.68507	5.30052	7.56104	6.01564	10.2566	18.2662	41.1188	10.5046	2.98648	1.39403	0.840849	1.26934	7.86601	13.716	27.2213	28.2777	19.6716	5.1096	3.90588	10.3662	0.150128	0.349925	0.508956	1.44183	6.54382	1.13345	1.75341	0.78034	4.93938	14.6239	0.737024	66.6534	9.97305	11.7524	1.22753	6.86653	3.25328	6.08846	16.6338	8.9554	1.39693	2.26386	809.035	653.189	431.389	1.34529	441.164	25.9395	0.911593	0.274288	177.368	44.4837	481.331	3.11483	318.037	535.531	250.107	2.31097	3.89428	964.234	0.877697	0.729711	1.69819	259.721	2.31318	54.3336	3.38273	0.997708	3.89504	0.0177435	4.39317	1144.84	346.948	2.59471	0.54751	12.0145	92.6214	81.4076	411.836	85.4035	
3.35	4.40599	5.2882	7.57162	6.08204	10.1408	18.8009	40.7483	10.2223	2.98051	1.3858	0.814841	1.21552	6.28769	9.41844	27.3512	29.9736	19.2282	5.51284	3.96985	12.4019	0.169927	0.388703	0.530696	1.41227	6.42582	1.07688	1.68611	0.742624	4.83634	15.1607	0.715365	65.9431	9.85983	9.7686	1.24047	6.80706	3.10355	6.22079	17.2817	9.25155	1.39952	2.02526	677.169	538.978	409.639	1.34641	437.213	25.6071	0.962312	0.287251	171.358	44.2762	478.027	3.11062	328.021	547.358	254.534	1.93905	3.82115	908.115	0.877474	0.594725	1.6468	260.628	2.31043	53.2115	3.25696	0.99617	3.39752	0.0151759	1.93655	1056.4	333.23	2.54438	0.546735	6.79195	86.5757	94.0793	805.122	115.842	
3.355	4.12771	5.25832	7.52858	6.09311	9.99598	18.9273	39.6584	9.89621	2.94927	1.36713	0.786614	1.15948	5.08242	7.7405	27.4574	31.3823	18.6883	5.95246	4.06815	14.1641	0.194544	0.434572	0.561012	1.3777	6.30292	1.02109	1.62078	0.968307	4.73073	15.5095	0.694108	64.1376	9.63898	8.4228	1.28345	6.72554	2.94809	6.33363	17.8238	9.50083	1.40183	1.89482	556.589	433.4	366.638	1.34736	432.376	25.2607	1.01538	0.299798	165.319	43.9532	472.728	3.10642	338.144	559.311	259.177	1.68874	3.71595	795.695	0.87727	0.501256	1.51526	259.687	2.30886	52.0016	3.13549	0.99472	3.29276	0.0130536	1.03828	969.792	319.495	2.48445	0.545961	3.72952	81.1726	105.23	1214.14	145.774	
3.36	3.85697	5.21117	7.43299	6.05203	9.81954	18.9614	37.8549	9.53339	2.90218	1.34204	0.756919	1.10263	4.21832	6.86203	27.542	32.5588	18.0877	6.46358	4.20612	15.6909	0.222236	0.493827	0.598402	1.33832	6.17453	0.967688	1.55939	1.38935	4.62675	15.7976	0.673281	61.2372	9.31411	7.49826	1.3606	6.61368	2.79184	6.43029	18.2815	9.71221	1.4039	1.83439	443.319	333.606	308.526	1.34818	426.467	27.0497	1.07009	0.313022	159.273	43.5293	465.63	3.10222	348.178	570.78	263.913	1.53793	3.54902	615.938	0.877127	0.444626	1.31946	257.935	2.3079	50.7118	3.01964	0.993319	3.95069	0.0112574	0.752489	889.524	305.904	2.42328	0.545188	2.1868	76.345	114.724	1620.09	173.849	
3.365	3.60001	5.14934	7.28778	5.96331	9.60722	18.92	35.3753	9.12959	2.84445	1.31239	0.726877	1.05052	3.63771	5.98674	27.6068	33.5467	17.4608	7.08166	4.38639	16.9927	0.255469	0.562046	0.637922	1.29393	6.04033	0.918569	1.50419	1.83382	4.51933	16.0376	0.652939	57.2638	8.89037	7.04978	1.4778	6.46677	2.6414	6.51347	18.6696	9.8922	1.40574	1.81563	336.197	237.497	241.239	1.34886	419.525	115.417	1.12582	0.325626	153.319	43.0087	456.634	3.09804	357.774	581.047	267.955	1.46589	3.34805	443.325	0.877001	0.41594	1.12375	255.861	2.30725	49.359	2.91035	0.991945	4.06239	0.00970415	0.719428	818.816	292.595	2.36674	0.544416	1.49261	72.0337	122.671	1985.08	199.546	
3.37	3.36031	5.07805	7.09605	5.8331	9.35139	18.7877	32.2979	8.68599	2.77901	1.27907	0.697879	1.00161	3.2644	5.37285	27.6531	34.3782	16.8532	7.80608	4.61534	18.0892	0.296186	0.643287	0.69337	1.2437	5.90152	0.875808	1.45743	2.34351	4.40995	16.2432	0.633077	52.2758	8.37277	6.68339	1.64123	6.28744	2.5047	6.5854	19.0004	10.0462	1.40737	1.81978	235.261	155.261	168.856	1.34941	411.731	122.021	1.18187	0.338332	147.567	42.3945	445.666	3.09386	366.474	589.356	270.401	1.4607	3.14939	300.692	0.876879	0.409501	0.971521	253.802	2.30677	47.9569	2.80818	0.990587	3.47695	0.00835712	0.78633	757.851	279.666	2.31986	0.543645	1.20803	68.1825	129.079	2291.34	222.305	
3.375	3.13878	5.00182	6.86229	5.66826	9.04266	18.5465	28.768	8.20191	2.70784	1.24284	0.67157	0.959912	3.022	4.97768	27.6818	35.0804	16.9803	8.69721	4.90404	19.0054	0.345934	0.744636	0.766355	1.18619	5.75843	0.841298	1.42143	2.84857	4.29941	16.4192	0.613718	46.439	7.77292	6.26978	1.85457	6.08087	2.39205	6.64788	19.2838	10.1787	1.40881	1.83535	150.457	95.5076	107.532	1.34983	403.305	123.417	1.23758	0.350838	142.108	41.7012	432.802	3.08969	373.697	594.653	270.407	1.51808	2.97435	236.849	0.876755	0.422952	0.876753	252.023	2.30636	46.5329	2.71351	0.989239	3.30961	0.00719986	0.886558	705.565	267.189	2.28928	0.542874	1.11441	64.7483	133.833	2543.47	241.291	
3.38	2.93431	4.92202	6.59277	5.47767	8.66993	18.1854	25.0115	7.67608	2.63264	1.20451	0.650047	0.927205	2.84295	4.82532	27.6936	35.6751	18.3759	9.8998	5.26418	19.7701	0.412616	0.870346	0.857255	1.12018	5.61217	0.816356	1.39857	3.31707	4.18779	16.5698	0.594812	40.0741	7.11287	5.99379	2.11609	5.85462	2.31214	6.70236	19.5279	10.2932	1.41007	1.8557	89.4817	55.7792	64.4259	1.35013	394.536	126.752	1.29229	0.362862	137.058	40.9481	418.173	3.08553	378.77	595.829	267.256	1.64094	2.83567	271.062	0.876629	0.45673	0.834558	250.721	2.306	45.1139	2.6265	0.987897	3.2743	0.0062264	0.989673	660.151	255.238	2.28365	0.542104	1.10705	61.6943	136.755	2759.36	255.569	
3.385	2.74386	4.83461	6.29575	5.27056	8.22528	17.6924	21.3413	7.11107	2.55479	1.16477	0.635125	0.905881	2.64802	4.93349	27.6889	36.1801	19.5579	11.5907	5.73344	20.4096	0.515743	1.02851	0.970062	1.04574	5.46587	0.802042	1.39183	3.7361	4.07563	16.6983	0.576274	33.6766	6.4008	6.02578	2.41556	5.61687	2.27042	6.75002	19.7391	10.3927	1.41116	1.87723	51.1039	31.5119	36.7768	1.35032	385.787	130.038	1.34526	0.37426	132.423	40.1531	401.871	3.08138	380.961	591.72	260.589	1.8367	2.73915	409.267	1.09453	0.510544	0.831695	250.03	2.30566	43.7201	2.54754	0.986561	3.26718	0.00549919	1.08206	618.851	243.873	2.31363	0.541335	1.13574	58.9819	138.277	2955.19	265.894	
3.39	2.5635	4.73261	5.98146	5.05786	7.71535	17.0602	18.0475	6.51187	2.47483	1.12421	0.628427	0.896786	2.47027	5.07361	27.6769	36.6098	20.5427	13.9714	6.3776	20.9466	0.679437	1.25875	1.10895	0.963792	5.3184	0.799015	1.40364	4.10121	3.96343	16.8655	0.557939	27.9126	5.67347	6.20156	2.73311	5.37207	2.26966	6.79185	19.9227	10.4794	1.4121	1.89811	28.3458	17.4359	20.378	1.35039	377.689	133.494	1.39576	0.384904	127.946	39.3254	384.149	3.07723	379.813	581.621	250.503	2.11087	2.683	643.518	1.1931	0.581117	0.85374	250.054	2.30533	42.3567	2.47646	0.985228	3.26557	0.00504573	1.15783	579.35	233.131	2.39018	0.540567	1.1768	56.573	139.462	3131	274.921	
3.395	2.38875	4.60813	5.66182	4.85128	7.15743	16.3027	15.2483	5.88965	2.39165	1.08331	0.630985	0.901964	2.38371	5.18981	27.6661	36.9756	21.3456	17.255	7.28271	21.3993	0.929045	1.62993	1.29907	0.875712	5.16979	0.807982	1.43524	4.41046	3.85147	23.4199	0.539613	23.1562	4.97345	6.13453	3.04355	5.12722	2.30944	6.82864	20.0829	10.5553	1.41289	1.91751	15.4896	9.64734	11.1751	1.35035	370.852	137.135	1.44294	0.394635	123.78	38.4662	365.382	3.0731	375.298	565.755	236.621	2.45382	2.66025	943.571	1.07114	0.692267	0.902113	250.906	2.305	41.0138	2.41273	0.983898	3.26493	0.00449905	1.2156	539.763	223.024	2.52271	0.5398	1.2196	54.4437	141.109	3242.85	284.713	
3.4	2.2129	4.45352	5.34895	4.66156	6.57192	15.4511	12.9819	5.26355	2.30375	1.0419	0.643403	0.923201	2.37709	5.37395	27.6555	37.2866	22.016	21.6296	8.53366	21.7826	1.27533	2.21609	1.59413	0.783295	5.02041	0.82939	1.48703	4.66872	3.74045	29.6212	0.52105	19.4234	4.34376	6.36879	3.3179	4.90301	2.39026	6.86106	20.2232	10.6219	1.41354	1.93512	8.53112	5.49183	6.21063	1.3502	365.848	140.999	1.48587	0.403252	119.486	37.5841	345.965	3.06897	367.525	544.759	219.967	2.84077	2.66136	1269.89	0.973466	0.81719	0.998071	252.669	2.30467	39.6897	2.35641	0.982572	3.26448	0.00422861	1.25764	497.889	213.551	2.71961	0.539034	1.25919	52.5554	141.912	3298.28	294.388	
3.405	2.02616	4.26267	5.05497	4.4988	5.98342	14.5396	11.2372	4.65914	2.21094	0.998935	0.665606	0.962769	2.41679	5.66755	27.645	37.5503	22.5796	27.0785	10.2095	22.1079	1.6647	3.07675	2.04976	0.689286	4.87013	0.863746	1.55832	4.88377	3.63031	31.0857	0.50199	16.551	3.80476	7.02898	3.52863	4.69559	2.51014	6.88965	20.3463	10.6806	1.41406	1.95091	4.84586	3.30134	3.64421	1.34997	362.967	145.08	1.5236	0.41055	115.677	36.6892	326.375	3.06485	356.676	519.38	201.539	3.23729	2.6758	1580.46	1.26433	0.943172	1.13198	255.381	2.30434	38.3973	2.30723	0.981248	3.26405	0.00416421	1.288	450.642	204.64	2.98831	0.538269	1.29309	50.907	138.84	3264.54	291.936	
3.41	1.83819	4.03134	4.79028	4.37228	5.41529	13.6029	9.9668	4.10375	2.11147	0.952955	0.697465	1.02308	2.46721	6.08309	27.6347	37.7727	23.0563	33.0775	12.3766	22.3848	2.02737	4.13423	2.71	0.597626	4.7182	0.911172	1.64763	5.06322	3.52152	31.4811	0.482187	14.2948	3.35393	8.03894	3.66917	4.48597	2.67122	6.91489	20.4547	10.7323	1.41445	1.96499	27.0298	16.8737	2.67072	1.34972	361.652	149.317	1.5551	0.41635	111.93	35.7905	307.318	3.06074	343.026	490.45	182.179	3.60859	2.69311	1798.02	1.25093	1.06286	1.26227	258.964	2.31117	37.1435	2.26513	0.979928	3.68671	0.00423149	1.30998	386.139	196.187	3.33697	0.537504	1.31981	49.4789	134.384	3145.77	284.521	
3.415	1.64821	3.7606	4.56331	4.29162	4.89308	12.6735	9.28709	3.62641	2.00355	0.903282	0.73835	1.10698	2.5241	6.61237	27.6244	37.9587	23.4604	39.0291	15.0642	22.6207	2.31622	5.17984	3.58175	0.512762	4.56505	0.971289	1.75319	5.21356	3.4137	31.8982	0.461438	12.5372	2.9811	9.34458	3.75133	4.2597	2.87698	6.93716	20.5503	10.7779	1.41471	1.97752	60.3097	37.2469	2.0798	1.3495	360.896	153.916	1.5794	0.420461	108.585	34.9039	289.353	3.05664	326.999	459.081	162.861	3.93057	2.7038	1897.96	1.09085	1.16632	1.36713	263.122	3.4512	35.9487	2.23011	0.97861	9.90343	0.00444732	1.32594	310.099	188.123	3.7727	0.53674	46.4055	48.2716	130.159	2985.32	278.509	
3.42	1.46656	3.46569	4.37979	4.2707	4.43476	11.7827	10.6296	3.23686	1.88736	0.84991	0.787053	1.21685	2.60633	7.21085	27.6142	38.1121	23.8038	44.4525	18.105	22.8215	2.50622	6.05712	4.54526	0.439471	4.40813	1.04301	1.87205	5.34006	3.30598	32.3428	0.439621	11.1438	2.68835	11.0035	3.7896	4.01012	3.12791	6.95679	20.6347	10.8183	1.41485	1.98867	91.4683	57.0671	1.74343	1.34928	359.27	159.38	1.59546	0.422743	105.901	34.0466	272.85	3.05254	309.209	426.697	144.749	4.1893	156.25	1896.11	0.979949	1.24852	1.44541	267.332	6.1468	34.8584	2.2021	0.977295	5.24541	0.00484257	1.33751	246.596	180.219	4.29801	0.535978	127.338	47.3114	126.786	2819.97	275.658	
3.425	1.29926	3.16257	4.24403	4.34706	4.05161	10.994	13.5825	2.92273	1.76439	0.793218	0.842376	1.3506	2.78225	7.11963	27.6041	38.2361	24.0961	49.0648	21.2145	22.9921	2.60591	6.69223	5.45685	0.380111	4.24944	1.12432	2.00035	5.44692	3.20049	32.7815	0.416783	10.0659	2.46504	13.188	3.79763	3.73402	3.41888	6.97407	35.526	17.7722	1.41488	1.99858	113.796	72.1959	1.55302	1.34907	354.886	165.881	1.60233	0.423055	104.031	33.2353	258.008	3.04846	290.38	394.804	128.919	4.38162	357.958	1823.56	1.57787	1.30884	1.49951	270.924	8.08208	33.8991	2.18099	0.975983	3.68129	0.00551665	1.34577	194.405	172.06	4.90744	0.535216	211.472	46.6147	124.313	2674.13	275.627	
3.43	1.15019	2.86389	4.15754	4.69156	3.74676	11.09	16.6566	2.67789	1.63941	0.735409	0.902549	1.50257	3.41549	5.95522	27.5942	38.3331	24.3452	52.7063	24.166	23.1365	2.64387	7.07287	6.23005	0.333418	4.08428	1.21243	2.1343	5.53751	3.09426	33.1766	0.393146	9.24653	2.30004	16.6999	3.78586	3.43408	3.74056	11.9833	36.3844	18.9858	1.41478	2.00742	126.754	81.4895	1.44779	1.34886	345.486	173.624	1.59906	0.421312	102.286	32.4794	244.887	3.04438	271.329	364.859	116.024	4.51192	554.123	1706.83	1.48358	1.34998	1.53156	273.188	7.07808	33.0672	2.16622	0.974674	3.34113	0.00682839	1.35141	151.672	163.235	5.58335	0.534455	275.225	46.1663	122.641	2567.97	279.746	
3.435	1.02242	2.57868	4.12162	4.96642	3.51771	11.0817	19.4439	2.48741	1.51684	0.678002	0.965326	1.66488	4.47318	6.01894	27.5843	38.4051	24.5574	55.3413	26.8187	23.2578	2.64256	7.2636	6.83999	0.297911	3.91547	1.30409	2.26969	5.61452	2.98761	33.477	0.369117	8.56936	2.18214	23.1599	3.76111	3.12822	4.07986	12.2118	36.5708	19.0827	1.41458	2.0153	132.853	85.9945	1.39009	1.34865	329.244	182.723	1.58488	0.417409	100.262	31.7811	233.422	3.04031	252.886	337.975	105.184	4.58891	713.758	1565.19	1.21673	1.37629	1.54418	273.596	5.61511	32.3346	2.15706	0.973368	26.6254	0.00938299	1.35481	117.207	153.41	6.30024	0.533695	307.266	45.9226	121.303	2517.71	290.056	
3.44	0.916949	2.31466	4.13715	5.19524	3.35793	11.0827	21.8469	2.34472	1.39917	0.623179	1.02805	1.8288	5.7305	6.33023	27.5746	38.4535	24.7378	57.1404	29.1253	23.3586	2.61706	7.33013	7.29004	0.270474	3.73808	1.3959	2.40207	5.6801	2.88083	33.6093	0.345286	7.96296	2.09966	34.3161	3.72679	2.82477	4.42145	12.2573	36.8037	19.194	1.41432	2.02235	134.388	87.1565	1.3587	1.34844	306.036	192.956	1.55904	0.411322	97.0769	31.1263	223.514	3.03625	235.834	314.943	96.3038	4.62117	817.658	1410.39	1.03965	1.39113	1.53838	271.954	9.4289	31.6098	2.15199	0.972065	11.762	0.0137772	1.35622	88.7096	142.556	7.03949	0.532935	306.223	45.7827	120.522	2521.05	307.039	
3.445	0.833194	2.07647	4.20468	5.38216	3.25903	11.076	23.9118	2.23975	1.2879	0.571458	1.08815	1.98562	6.98372	6.59266	27.5649	38.4793	24.8905	58.321	31.0902	23.4409	2.57647	7.31759	7.60465	0.250598	3.55415	1.4846	2.52732	5.73596	2.77267	33.5019	0.322423	7.56454	2.03459	50.4093	3.68413	2.53602	4.74936	12.3306	37.0846	19.3402	1.41407	2.02865	133.049	86.1683	1.34166	1.34823	276.919	203.819	1.52108	0.403044	92.4145	30.4934	215.105	3.0322	220.814	295.85	89.4158	4.61353	875.534	1254.78	1.7558	1.39628	1.5127	268.369	8.53332	30.7967	2.14897	0.970763	5.20252	0.0199547	1.35574	64.7389	131.109	7.79797	0.532177	277.975	45.6147	122.528	2545.22	330.724	
3.45	0.769469	1.86602	4.32538	5.53878	3.21326	11.0706	25.6586	2.16172	1.18387	0.523022	1.14338	2.12796	8.12049	6.78079	27.5554	38.4831	25.0189	59.0488	32.7428	23.5065	2.52564	7.25434	7.82286	0.237914	3.35991	1.56742	2.64201	5.78352	2.66235	33.1307	0.30138	9.11013	1.97773	67.3849	3.63346	2.2655	5.04963	12.4246	37.3174	19.4692	1.41385	2.03429	130.023	83.8617	1.3324	1.34803	243.936	214.706	1.47089	0.392629	85.5985	29.8607	208.19	3.02815	208.079	280.322	84.1459	4.56674	881.007	1112.05	1.56822	1.39215	1.46341	263.177	6.75126	29.8286	2.14541	0.969465	3.63294	0.0264567	1.35339	45.112	119.475	8.591	0.53142	234.574	45.2947	129.097	2566.02	360.178	
3.455	0.722461	1.68307	4.50063	5.67098	3.21514	11.0653	27.1227	2.0989	1.08798	0.478468	1.19208	2.25087	9.12575	6.92134	27.5459	38.4686	25.1256	59.4427	34.1206	23.5566	2.46704	7.15713	7.97691	0.228898	3.15595	1.64241	2.74372	5.8239	2.54934	32.5566	0.282948	12.8652	1.94804	81.1644	3.57433	2.01666	5.31284	12.5072	37.4912	19.5685	1.41362	2.03935	126.096	80.7973	1.32734	1.34782	210.187	225.04	1.4087	0.380175	76.0742	29.1901	202.922	3.02412	197.616	267.952	80.1943	4.47794	834.146	984.969	1.25441	1.37797	1.38672	256.875	9.58223	28.58	2.13788	0.968171	3.32055	0.0329215	1.34917	30.5955	108.212	9.45094	0.530663	189.554	44.6055	139.931	2576.57	396.492	
3.46	0.693869	1.52654	4.7313	5.78338	3.26099	11.0602	28.3448	2.03758	1.0008	0.437786	1.23324	2.35136	9.99482	7.0327	27.5365	38.4535	25.2129	59.5803	35.2665	23.5922	2.40198	7.03544	8.08808	0.222954	2.94195	1.70833	2.83102	5.85801	2.43314	31.8573	0.267564	16.9242	1.95238	89.5897	3.50534	1.79477	5.53309	12.5738	37.6361	19.6546	1.4134	2.04388	121.722	77.3211	1.32454	1.34761	179.781	234.355	1.33562	0.365894	62.8249	28.459	199.491	3.02009	189.316	258.386	77.3552	4.34241	741.161	874.48	2.02476	1.3519	1.28107	250.053	8.45189	27.0323	2.12295	0.966879	17.1105	0.0387949	1.34308	21.3483	97.955	10.423	0.529908	152.095	43.4306	154.256	2578.85	442.261	
3.465	0.676297	1.39283	5.01807	5.87937	3.34949	11.055	29.3656	1.9964	0.922728	0.401786	1.2664	2.42824	10.7282	7.12837	27.5272	38.439	25.2825	59.5151	36.2347	23.6139	2.33136	6.89449	8.16933	0.219725	2.71841	1.76452	2.90313	5.88659	2.3133	31.0457	0.255184	21.589	1.987	93.7155	3.42365	1.60221	5.70852	12.6265	37.743	19.7232	1.41318	2.04794	117.114	73.6016	1.32296	1.34741	156.327	242.312	1.25346	0.350054	38.4933	27.6189	197.973	3.01607	183.057	251.241	75.4567	4.15641	610.368	783.433	1.64576	1.31149	1.14885	243.346	6.62824	25.0287	2.0975	0.965589	7.76456	0.0442862	1.33507	16.9804	89.3566	11.57	0.529153	125.16	41.4508	172.231	2574.44	500.43	
3.47	0.662793	1.27745	5.36018	5.96171	3.47951	11.0498	30.2211	1.97713	0.853929	0.370403	1.29154	2.48181	11.3399	7.23072	27.5179	38.4247	25.3357	59.2815	37.0649	23.6223	2.25588	6.73721	8.22778	0.218892	2.48788	1.8108	2.95996	5.91022	2.18937	30.0982	0.245662	26.1372	2.05381	95.5348	3.32515	1.43869	5.83978	12.6441	37.7503	19.7376	1.41296	2.05158	112.335	69.6869	1.32201	1.3472	140.856	248.699	58.1194	16.0006	9.78762	26.6727	198.412	3.01206	178.719	246.494	74.3561	3.91992	449.616	713.51	1.27505	1.25465	0.997048	237.372	8.64105	22.6636	2.0586	0.964303	4.23499	0.0498697	1.32512	15.8949	82.7277	12.9698	0.528399	107.428	38.664	195.009	2558.36	573.795	
3.475	0.654418	1.17662	5.75509	6.03268	3.65352	11.0445	30.9411	1.97949	0.794907	0.343398	1.30908	2.51358	11.8491	7.37533	27.5088	38.4106	25.3736	58.9009	37.7775	23.6178	2.17618	6.5652	8.26651	0.220438	2.25527	1.84739	3.00214	5.9294	2.06192	29.1325	0.239321	30.3208	2.15352	96.3167	3.20394	1.30622	5.92979	12.6221	37.6582	19.6952	1.41274	2.05483	107.369	65.5555	1.32142	1.347	132.402	253.583	121.465	36.0305	2.14036	25.6333	200.832	3.00806	176.19	243.885	73.9469	3.63785	268.761	663.782	1.33518	1.18149	0.838477	232.671	7.53287	20.1571	2.00392	0.963018	3.43901	0.0559829	1.31324	17.052	78.2046	14.713	0.527646	97.4156	35.3003	223.614	2519.17	665.087	
3.48	0.648303	1.08753	6.19834	6.09411	3.87297	11.0391	31.5497	2.01404	0.745584	0.321161	1.31959	2.526	12.2741	7.70495	27.4997	38.3965	25.3968	58.3843	38.3795	23.6079	2.09313	6.3792	8.28568	0.224591	2.02748	1.87485	3.03028	5.94449	1.93276	28.3079	0.238987	34.0439	2.29215	96.7076	3.05285	1.2023	5.98253	12.5778	37.4899	19.6181	1.41252	2.05772	98.0982	58.9299	1.321	1.3468	129.27	257.368	164.413	43.7287	1.02278	24.5161	205.188	3.00406	175.354	243.193	74.1614	3.31949	278.887	628.916	1.77953	1.09407	0.690998	229.662	5.92762	17.67	1.93205	0.961738	9.54319	0.0636405	1.29956	19.954	75.6557	16.9011	0.526895	92.8312	31.6022	258.522	2642.09	776.862	
3.485	0.643328	1.00915	6.68232	6.72626	4.14256	11.0336	32.0661	2.08998	0.705723	0.303303	1.32377	2.52196	12.6305	8.63561	27.4906	38.3826	25.406	57.7355	38.8693	23.599	2.00789	6.17931	8.28368	0.231463	1.81282	1.8937	3.04555	5.95579	1.79996	27.4652	0.238778	37.2796	2.49266	96.9389	2.86465	1.12037	6.00272	12.5153	37.2102	19.4986	1.41231	2.0603	87.0365	51.3809	1.32069	1.34659	129.988	260.626	177.653	37.3775	0.861947	23.3354	211.463	3.00008	176.132	244.314	74.9564	2.97861	342.377	598.881	1.26967	0.996086	0.573844	228.632	6.41402	15.2999	1.84291	0.960459	5.12404	0.0721487	1.28421	24.3241	74.7309	19.6428	0.526144	93.0425	27.7801	299.715	2760.91	910.867	
3.49	0.638756	0.939472	7.196	9.12856	4.46386	11.0281	32.5055	2.20336	0.674667	0.28948	1.32233	2.50485	12.9311	11.1656	27.4816	38.3689	25.4015	56.9562	39.2448	23.5903	1.92126	5.96542	8.25909	0.240593	1.61907	1.9048	3.04889	5.96354	1.66985	26.2743	0.240337	40.0156	2.79727	96.9579	2.63814	1.05903	5.99526	12.4166	36.7538	19.3085	1.41209	2.06258	77.0894	44.2853	1.32042	1.34639	133.664	263.975	134.496	17.4075	0.828904	22.0986	219.583	2.9961	178.482	247.217	76.3165	2.63329	423.776	575.389	1.09735	0.892245	0.51102	229.754	5.49616	13.0966	1.73781	0.959184	3.64346	0.0819816	1.26737	30.2166	75.2122	23.0404	0.525394	98.7453	24.0122	346.841	2839.38	1065.61	
3.495	0.634144	0.875792	7.72713	9.81541	4.84028	11.0224	32.8801	2.42913	0.651772	0.27925	1.316	2.47729	13.1861	13.8717	27.4726	38.3552	25.3909	56.0476	39.5097	23.5817	1.83389	5.7381	8.21236	0.251791	1.45493	1.90883	3.04141	5.96787	1.54291	24.482	0.243165	42.2998	3.27553	96.6659	2.37992	1.01573	5.96458	12.266	36.1556	19.0253	1.41188	2.06459	69.2602	38.1329	1.32018	1.34619	139.887	268.02	21.7431	3.82857	12.8903	20.8215	229.471	2.99213	182.383	252.362	78.2511	29.3442	514.219	559.031	0.994766	0.788336	0.582157	233.105	4.43461	11.2518	1.61945	0.957911	3.3221	0.0935239	1.24932	37.8786	76.8975	27.1711	0.524645	109.775	20.7469	399.156	2877.86	1235.24	
3.5	0.629188	0.816311	8.25916	10.1334	5.27251	11.0167	33.1998	2.67331	0.636582	0.272454	1.30539	2.44152	13.4034	16.4227	27.4637	38.3418	25.3815	55.011	39.6773	23.5731	1.74646	5.49847	8.14616	0.266886	1.31769	1.90666	3.02449	5.96889	1.42378	21.9016	0.246993	44.202	4.02962	96.0006	2.09738	0.988522	5.91453	12.0962	35.8241	18.7868	1.41166	2.06634	64.4996	32.7008	1.31995	1.34599	148.358	273.344	1.25974	0.884707	31.2574	19.5753	241.006	2.98817	187.826	259.457	80.768	243.526	571.601	548.972	0.886323	0.690151	0.649611	238.688	5.56768	10.2031	1.49153	0.956641	19.0414	0.107092	1.23035	47.6224	79.7687	32.0594	0.523897	124.991	18.6959	455.474	2924.81	1413.25	
3.505	0.624472	0.763523	8.77172	10.5181	5.75904	11.0109	33.4724	2.98634	0.629056	0.268923	1.29124	2.39955	13.5894	18.6466	27.4548	38.3285	25.3721	53.8473	39.7697	23.5646	1.6596	5.24726	8.06189	0.287865	1.2049	1.89909	2.99938	5.96694	1.31382	18.963	0.251612	45.7899	5.19269	94.9637	1.79954	0.976167	5.84841	11.9725	35.363	18.5858	1.41145	2.06785	63.5563	26.7222	1.31973	1.34579	158.687	280.501	0.568349	0.358752	50.8114	18.4488	254.081	2.98421	194.8	268.254	83.9456	474.107	590.362	543.803	0.879829	0.602133	0.808925	246.435	5.42255	10.262	1.35912	0.955374	8.50685	0.123006	1.2108	59.8995	84.086	37.6556	0.52315	143.587	18.3189	513.836	2923.21	1599.79	
3.51	0.620059	0.720309	9.23962	10.8542	6.29222	11.005	33.7043	3.37297	0.63087	0.268614	1.27433	2.35317	13.7494	20.5723	27.4459	38.3153	25.3629	52.558	39.8078	23.5562	1.57396	4.9859	7.95518	0.316826	1.11408	1.8869	2.96732	5.96456	1.21429	16.4412	0.256828	47.1208	6.90406	93.6502	1.50164	0.979177	5.76887	11.7808	34.6912	18.2666	1.41123	2.06914	68.3981	21.526	1.31951	1.3456	170.786	290.015	0.649993	0.251413	68.4074	17.5214	268.322	2.98027	203.284	278.763	88.0814	688.936	581.124	542.24	0.876595	0.527221	0.77153	256.219	4.5656	11.5034	1.22717	0.95411	4.40068	0.141531	1.19105	99.2006	89.9625	43.8307	0.522403	164.626	19.5089	571.548	2411.26	1796.33	
3.515	0.616671	0.685587	9.638	11.0854	6.85977	10.999	33.9008	3.85191	0.642735	0.272239	1.25531	2.30397	13.8875	22.2047	27.4371	38.3022	46.4839	51.1493	39.778	23.5479	1.48996	4.71662	7.82067	0.357319	1.04195	1.8708	2.92987	5.96234	1.12599	13.6311	0.262675	48.2411	9.07351	92.1469	1.22378	1.00257	5.67821	11.5322	33.9067	17.87	1.41102	2.07022	80.6666	16.7121	1.31929	1.3454	185.052	302.366	0.6983	0.231261	82.5565	16.8215	283.689	2.97633	213.218	290.996	93.5045	842.673	558.746	543.185	0.876001	6.0454	0.79327	267.85	3.75756	13.7438	1.09992	0.952848	3.46455	0.162443	1.1715	149.559	97.4682	50.4046	0.521658	187.567	21.6596	625.858	2489.2	1993.32	
3.52	0.61714	0.657214	9.95818	11.2453	7.44088	10.9929	34.066	4.49078	0.663492	0.280377	1.23493	2.25323	14.0069	23.5724	27.4283	68.9024	45.9309	49.6347	39.6414	23.5396	1.40764	4.44255	7.65429	0.414367	0.984814	1.8515	2.88831	5.96015	1.04983	10.8948	0.268985	49.1879	11.3567	90.4961	0.989523	1.04449	5.57884	11.2744	33.1236	17.4711	1.41081	2.07109	99.5352	12.4757	1.31908	1.3452	202.175	317.956	0.683915	0.233585	93.2246	16.3419	299.829	2.9724	224.481	304.822	99.821	886.422	534.208	545.627	0.875339	65.6955	0.822366	281.053	6.93947	16.6295	0.980629	0.951589	7.0014	0.186705	1.15255	180.58	106.807	57.1625	0.520914	210.455	24.0153	674.383	1383.81	2176.48	
3.525	0.621509	0.634235	10.2034	11.3619	8.01202	10.9867	34.2033	5.36154	0.691358	0.292538	1.21383	2.20208	14.1104	24.7126	27.4194	69.9761	46.3855	48.035	39.366	23.5315	1.32741	4.16736	7.45378	0.493863	0.939618	1.82975	2.84397	5.95798	0.986161	8.68864	0.275849	49.991	13.4021	88.7544	0.806273	1.0992	5.47354	11.0279	32.3824	17.0952	1.4106	2.07178	122.171	8.94772	1.31886	1.34501	222.624	337.063	0.696491	0.245477	101.188	16.1056	316.103	2.96848	236.858	319.95	107.087	851.746	511.876	548.554	0.874996	136.792	0.84822	295.47	6.45303	19.7777	0.871701	0.950333	4.32733	0.213781	1.13453	213.688	118.159	63.8772	0.520171	231.19	25.9976	715.416	1821.12	2334.98	
3.53	0.630019	0.615006	10.3805	11.4513	8.5538	10.9804	34.3155	6.50899	0.724788	0.307882	1.19257	2.15157	14.2003	25.6639	27.4106	69.6911	46.8629	46.3781	38.9352	43.4578	1.24964	3.89242	7.21856	0.601734	0.905346	1.80616	2.79799	5.95583	0.936354	7.04592	0.283837	50.674	14.9646	86.9646	0.669435	1.16153	5.36499	10.7645	31.6049	16.6947	1.41039	2.07228	145.343	6.23082	1.31864	1.34481	246.395	359.808	0.75358	0.265652	106.826	16.09	332.426	2.96457	250.017	335.998	115.376	794.039	492.562	550.947	0.874759	173.343	0.870223	310.634	5.25733	22.852	0.774489	0.949079	3.4664	0.244549	1.11773	257.172	131.705	70.2574	0.519429	245.6	27.3091	747.613	995.902	2461.84	
3.535	0.643215	0.599248	10.4996	11.5248	8.99313	10.974	34.4048	7.93207	0.762178	0.32571	1.17161	2.10242	14.2783	26.4604	27.4019	70.4392	47.2713	44.6976	38.3389	44.0475	1.1746	3.61969	6.95057	0.743471	0.884197	1.78139	2.75145	5.91081	0.8993	5.82256	0.293923	51.2558	15.9525	85.1087	0.573244	1.233	5.25568	10.4647	30.7381	16.24	1.41018	3.03175	166.213	4.32277	1.31842	1.34462	273.578	386.146	0.846527	0.295875	110.624	16.2384	348	2.96066	263.526	352.441	124.613	747.044	475.647	551.825	0.874595	175.414	0.88889	325.972	7.16053	25.6011	0.689612	0.947829	18.6378	0.2768	1.10235	305.708	147.57	76.0556	0.518687	245.026	27.9013	769.808	1536	2552.82	
3.54	0.661714	0.58833	10.5718	11.5885	9.37086	10.9675	34.4728	9.58286	0.804266	0.345421	1.15134	2.05506	14.3459	27.1309	28.3798	70.9295	47.6489	43.0283	37.574	43.7413	1.10222	3.35202	6.65395	0.915259	0.870831	1.75592	2.70512	11.3233	0.859675	4.93726	0.306313	51.7517	16.5154	83.1526	0.508985	1.31687	5.14782	10.1191	29.756	15.7141	1.40997	3.63295	182.347	3.08722	1.3182	1.34443	304.439	415.789	0.974801	0.337921	112.78	16.5052	362.491	2.95676	276.853	368.616	134.6	716.897	460.434	550.357	0.874453	174.194	0.904799	340.8	6.3543	27.8561	0.617006	0.946581	8.33953	0.308891	1.08844	355.726	165.758	81.1311	0.517947	199.948	27.8692	781.025	778.252	2605.46	
3.545	0.686793	0.583776	10.6066	11.6416	9.62565	10.9609	34.5209	11.3672	0.851571	0.367466	1.13202	2.01003	14.4044	27.6982	51.5809	71.3487	47.9783	41.3848	36.6552	44.5671	1.03203	3.09223	6.33144	1.10077	0.864519	1.73034	2.65988	11.9941	0.835374	4.31878	0.321672	52.174	16.8149	81.0657	0.465737	1.41441	5.04322	9.70954	28.6071	15.0894	1.40977	3.66713	191.837	2.33423	1.31798	1.34423	339.229	448.305	1.14394	0.392226	113.531	16.8407	375.285	2.95288	286.625	382.921	145.065	697.113	446.448	545.879	0.874317	118.005	0.918432	354.375	5.10404	29.5172	0.556137	0.945335	4.35562	0.337133	1.07598	407.605	186.14	85.4564	0.517208	127.674	27.372	780.589	1348.88	2618.88	
3.55	0.718739	0.588088	10.6113	11.678	9.78114	10.9542	34.5501	13.1358	0.903677	0.391975	1.11383	1.96772	14.4549	28.1807	48.8829	71.7331	48.2227	39.7472	35.6118	45.0148	0.961347	2.84308	5.98939	1.28261	0.866377	1.70499	2.61627	12.1711	0.818236	3.89608	0.341078	52.5326	16.965	78.8386	0.427484	1.52598	4.94316	9.22048	27.2468	14.3423	1.40956	3.65645	192.754	1.89402	1.31776	1.34404	378.011	483.058	1.35403	0.456837	113.468	17.1931	385.655	2.949	291.23	394.224	155.66	683.637	419.383	511.331	0.874182	29.0913	0.930184	365.969	5.94395	30.6014	0.506119	0.944093	3.44948	0.35838	1.06482	462.721	208.29	89.0451	0.51647	69.3079	26.5796	768.311	726.255	2593.69	
3.555	0.756595	0.622213	10.5902	11.6908	9.84967	10.9474	34.5609	14.8016	0.960593	0.418753	1.09692	1.92825	14.4981	28.5929	50.0496	72.0597	48.3616	38.0751	34.4792	45.3035	0.886693	2.60841	5.64588	1.44672	0.866063	1.68025	2.57452	12.2404	0.808424	3.60379	0.366006	52.8356	17.034	76.4864	0.385993	1.6526	4.84881	8.64977	25.6683	13.4701	1.40935	3.68596	183.002	1.64363	1.31754	1.34385	420.593	519.283	1.59353	0.526826	112.95	17.5261	392.902	2.94512	293.746	403.063	165.996	675.435	345.123	336.863	0.874046	6.98099	0.940368	374.968	5.1872	31.1652	0.46586	0.942853	3.27065	0.368693	1.05471	520.808	231.5	91.8762	0.515732	36.4134	25.6255	744.463	1205.13	2532.01	
3.56	0.800219	0.810177	10.545	11.6746	9.85118	10.9405	34.5539	16.3587	1.02158	0.447667	1.08133	1.8918	14.5348	28.9465	50.392	72.3312	48.3844	36.3308	33.2968	45.4864	0.815028	2.39337	5.31214	1.58569	0.879689	1.65646	2.5352	12.2842	0.806223	3.38602	0.398581	53.0895	17.0551	74.0376	0.353418	1.79342	4.76071	8.00592	23.8953	12.4864	1.40915	3.7293	159.194	1.50376	1.31731	1.34366	466.432	556.061	1.84042	0.595024	112.221	17.803	395.991	2.94126	294.072	408.811	175.603	671.717	261.179	58.8711	0.873909	1.9685	0.949238	380.999	4.23912	31.2834	0.434121	0.941616	7.19114	0.366051	1.04537	579.782	254.807	93.8467	0.514996	19.0517	24.5982	709.735	594.622	2437.59	
3.565	0.851079	1.05081	10.4769	11.627	9.79571	10.9335	34.5398	17.8405	1.08585	0.478447	1.06708	1.8582	14.5655	29.2509	50.597	72.5249	48.287	34.4965	32.1024	45.527	0.743455	2.19705	4.99684	1.69516	0.90168	1.63375	2.49822	12.2282	0.812525	3.14071	0.44225	53.2995	17.0386	71.5255	0.336011	1.94882	4.67922	7.31179	21.9896	11.4271	1.40895	28.4958	120.589	1.42657	1.31709	1.34347	514.856	592.456	2.06906	0.653791	111.408	17.997	394.145	2.9374	291.565	410.96	184.127	671.796	67.897	8.96111	0.873772	0.956683	0.956999	384.126	3.49067	31.0291	0.40969	0.940381	4.38244	0.349213	90.2778	638.938	277.379	94.7618	0.514261	10.1565	23.5509	665.195	1008.16	2315.56	
3.57	0.908064	1.30722	10.3876	11.5491	9.69472	10.9264	34.5272	19.3109	1.15205	0.510389	1.05417	1.82756	14.5908	29.5135	50.7787	72.6121	48.0811	32.5996	30.9317	45.4193	0.678551	2.0164	4.70649	1.77537	0.93292	1.61237	2.46397	12.0194	0.827749	2.87275	0.500994	94.3547	16.9843	68.9828	0.330237	2.11627	4.60446	6.59717	20.0305	10.3372	1.40874	164.188	80.2385	1.3843	1.31686	1.34328	565.143	627.494	2.2506	0.695977	110.525	18.0909	386.615	2.93355	285.904	409.154	191.216	674.582	10.1127	3.14598	0.873635	1.01084	0.963818	384.63	2.986	30.4658	0.391376	0.93915	3.47195	0.32087	255.821	695.675	298.335	94.3314	0.513526	5.89674	22.5036	612.535	1060.6	2172.43	
3.575	0.969798	1.54163	10.2776	11.4465	9.55317	10.9191	52.4662	20.8227	1.21892	0.542896	1.04251	1.79976	14.6109	29.7404	50.9235	72.5783	47.7863	30.7157	29.8083	45.1728	0.62516	1.85218	4.44127	1.83068	0.977866	1.59242	2.43234	11.6456	0.852994	2.70969	0.580146	103.204	16.8889	66.447	0.330437	2.29333	4.53659	5.90324	18.1264	9.2788	1.40854	321.135	49.5021	1.36127	1.31663	1.3431	616.733	660.239	2.36932	0.718289	109.451	18.0752	373.007	2.92971	277.269	403.471	196.654	679.337	2.90474	4.13504	0.873497	0.853171	0.96983	382.972	2.67427	29.6477	0.378097	0.937921	3.59789	0.285455	368.624	748.161	317.027	-0	0.512793	3.97023	21.4558	554.276	461.402	2016.31	
3.58	1.03371	1.74972	10.1451	11.325	9.3722	10.9118	65.6188	22.39	1.28497	0.575221	1.03209	1.77474	14.6263	42.0805	50.9889	72.3916	47.4161	28.9664	28.7292	44.8069	0.586513	1.70589	4.19487	1.8674	1.03815	1.57401	2.40354	11.1281	0.887793	2.66342	0.686201	105.282	16.7519	63.9524	0.333986	2.47601	4.47534	5.26753	16.375	8.30959	1.40834	429.498	30.0031	1.34876	1.3164	1.34291	668.906	689.869	2.43391	0.723579	108.219	17.9494	352.923	2.92588	266.003	394.225	200.375	685.385	2.21761	2.73164	0.873358	0.827904	0.975149	379.736	2.49171	28.6179	0.369062	0.936694	3.3274	0.24704	407.075	795.201	333.023	-1.23877	0.512061	3.11106	20.4044	493.539	645.818	1855.98	
3.585	1.09753	1.93046	9.98503	11.1826	9.14771	10.9043	67.2034	23.9501	1.34896	0.60668	1.02283	1.75238	14.6372	54.1957	50.954	72.0151	46.946	27.4895	27.6768	44.3493	0.56417	1.57904	3.96249	1.89026	1.1155	1.55715	2.37736	10.5338	0.929866	2.69131	0.826013	105.173	16.5774	61.5466	0.344491	2.6589	4.42046	4.71593	14.8416	7.46748	1.40814	453.225	18.2073	1.34195	1.31617	1.34272	720.552	715.708	2.45847	0.716041	106.732	17.6771	327.032	2.92206	252.505	381.892	202.444	692.026	2.65001	2.54117	0.873219	0.82955	0.97987	375.488	205.493	27.4262	0.364034	0.935471	3.24863	0.209884	407.27	835.591	346.135	-1.16205	0.51133	2.6998	19.3624	433.126	177.402	1700.14	
3.59	1.15632	2.08371	9.78893	11.0095	8.87177	10.8967	66.9126	25.3331	1.40971	0.636645	1.01466	1.73257	14.6437	55.2215	50.7963	71.4143	46.3258	26.3901	26.6407	43.839	0.558162	1.47197	3.74305	1.90269	1.20863	1.54192	2.35395	9.9399	0.981021	2.74216	1.00034	105.41	16.3686	59.2677	0.375042	2.83645	4.37172	4.25533	13.5444	6.76475	1.40794	350.533	11.1113	1.33822	1.31594	1.34254	770.235	737.348	2.45787	0.699601	104.87	17.3108	296.591	2.91824	237.24	367.074	203.046	698.541	2.21514	2.52322	0.873079	0.834329	0.984068	370.664	762.635	26.124	0.363483	0.93425	512.925	0.176659	395.895	868.527	356.379	-1.46198	0.510599	2.45875	18.3766	375.035	110.892	1553.99	
3.595	1.20651	2.2117	9.54676	10.7906	8.53335	10.889	66.8213	26.3622	1.46632	0.664609	1.00751	1.71514	14.646	56.0692	50.4993	70.5614	45.4954	25.7436	25.6202	43.3031	0.567073	1.38265	3.53591	1.90713	1.31612	1.52824	2.33311	9.37879	1.04804	2.80778	1.19721	106.132	16.126	57.1523	0.480369	3.00454	4.32887	3.87544	12.4507	6.18478	1.40774	232.233	6.91897	1.33614	1.31571	1.34235	816.471	754.715	2.44339	0.677377	102.483	16.8302	265.243	2.91443	220.711	350.42	202.455	704.08	2.16588	2.51906	0.872939	0.838971	0.987812	365.546	1347.49	24.7662	0.367705	0.933032	818.263	0.148995	384.677	893.829	363.95	-1.3212	0.50987	2.27363	17.5314	320.266	250.495	1417.82	
3.6	1.24501	2.31814	9.24941	10.5113	8.12211	10.8812	67.2026	26.9475	1.51789	0.690173	1.00131	1.69998	14.6442	56.8302	50.0562	69.4443	44.4046	25.7862	24.6276	42.719	0.587851	1.30662	3.3395	1.90522	1.44449	1.5162	2.31481	8.85043	1.13407	2.92778	1.39864	106.509	15.85	55.2399	0.630875	3.15958	4.29152	3.54807	11.4895	5.68654	1.40754	142.985	4.49647	1.33496	1.31548	1.34216	858.051	767.961	2.42128	0.65156	99.3774	16.2803	236.384	2.91063	203.391	332.525	200.986	708.233	2.16166	2.51664	0.872798	0.843101	0.991156	360.316	1847.19	23.5276	0.376815	0.931816	190.648	0.127569	378.494	911.906	369.169	-1.30991	0.509142	2.10222	16.8753	269.54	203.09	1289.63	
3.605	1.27042	2.40681	8.89276	10.1632	7.63896	10.8733	67.482	27.0875	1.56394	0.713008	0.996001	1.68692	14.6396	57.6482	49.4743	68.0721	43.0302	25.8745	23.6796	42.0613	0.616062	1.23757	3.15144	1.89807	1.60508	1.50567	2.29899	8.3251	1.24144	3.34332	1.58529	106.188	15.5414	53.5491	0.810253	3.29904	4.25942	3.24919	10.595	5.2317	1.40735	85.0361	3.12038	1.33424	1.31524	1.34198	894.326	777.384	2.39234	0.623628	95.232	15.6436	212.343	2.90684	185.704	313.898	198.967	710.087	2.16026	2.51415	0.872656	0.84677	0.994147	355.089	2197.77	23.0995	0.391205	0.930603	33.4453	0.112048	373.853	923.664	372.458	-1.28433	0.508415	1.92523	16.4425	223.533	194.722	1170.08	
3.61	1.28314	2.48104	8.48053	9.74787	7.10771	10.8652	67.4115	26.8875	1.60397	0.73286	0.991526	1.67591	19.1034	58.4741	48.7743	66.4804	41.3884	26.1364	22.7987	41.3218	0.645712	1.16891	2.9675	1.8863	1.80862	1.49673	2.2855	7.83437	1.37173	4.50338	1.74282	105.212	15.2011	52.0877	0.990525	3.42097	4.23225	2.95893	9.70672	4.79067	1.40715	49.6339	2.35102	1.33379	1.31501	1.3418	925.144	783.343	2.35422	0.594804	89.1098	14.9195	195.14	2.90305	168.01	294.948	196.709	708.196	2.1591	2.51166	0.872514	0.850039	0.996825	349.95	2385.29	22.6276	0.411221	0.929393	9.42601	0.10203	367.552	930.312	374.325	-1.26217	0.507689	1.72767	16.2258	182.803	183.849	1061.46	
3.615	1.28563	2.54355	8.02955	9.28016	6.56248	10.857	67.0314	26.5172	1.63775	0.749621	0.98784	1.66676	25.8244	59.1559	47.9915	64.7311	39.5409	26.4405	22.1081	40.5117	0.670379	1.09528	2.77836	1.87015	2.06244	1.48929	2.27434	7.42846	1.52395	5.86715	1.86283	103.666	14.8287	50.8604	1.15564	3.52389	4.20979	2.66901	8.79157	4.34349	2.32298	28.8103	1.92954	1.33346	1.31477	1.34161	950.798	786.218	2.30592	0.564776	80.6926	14.1265	184.878	2.89928	150.589	275.998	194.494	701.868	2.15789	2.50914	0.872371	0.852962	0.999223	344.976	2402.14	22.0129	0.437308	0.928185	5.88986	0.0970783	359.734	933.256	375.894	-1.22823	0.506964	1.45579	16.2239	147.67	144.014	964.85	
3.62	1.28131	2.59652	7.57666	8.79103	6.04078	10.8487	66.3851	26.0575	1.66509	0.763176	0.984873	1.65943	26.7348	59.5075	47.1736	62.9166	37.6058	26.6709	21.423	39.6566	0.684457	1.0136	2.58864	1.84986	2.36253	1.4833	2.26531	7.08268	1.69202	7.38335	1.94282	101.487	14.4228	49.8652	1.30233	3.60725	4.19181	2.4175	7.96734	3.94815	2.39634	16.9282	1.70608	1.33321	1.31453	2.2457	971.991	786.442	2.24886	0.533108	70.0178	13.1826	179.542	2.89551	133.67	257.276	192.569	690.724	2.15667	2.50662	0.872227	0.855579	1.00137	340.238	2338.54	21.2531	0.469573	0.92698	5.17139	0.0967341	351.326	933.975	377.287	-1.18426	0.50624	1.17172	16.3862	117.995	99.7767	878.917	
3.625	1.27345	2.64167	7.15935	8.32705	5.57736	10.8403	65.463	25.4723	1.68594	0.773494	0.982613	1.65379	27.0636	59.3798	46.3791	61.1518	35.764	26.7541	20.7719	38.8427	0.684689	0.923458	2.40834	1.82566	2.69013	1.4788	2.25844	6.76049	1.86382	8.81314	1.98595	98.488	13.983	49.1003	1.42981	3.67041	4.17803	2.24465	7.37739	3.67521	2.36971	10.265	1.59489	1.33299	1.31429	2.26132	989.767	784.475	2.18516	0.499376	58.3403	12.0799	177.417	2.89175	117.5	238.954	191.158	674.671	2.15546	2.50408	0.872083	0.857924	1.0033	335.824	2247.22	20.3893	0.508089	0.925778	4.96141	0.100477	342.884	933.902	378.598	-1.13041	0.505517	0.907842	16.6801	93.408	56.0572	801.248	
3.63	1.26506	2.68037	6.80775	7.92723	5.20228	10.8317	64.2701	24.7304	1.70027	0.780545	0.98102	1.64982	27.2464	58.7416	45.6714	59.573	34.1701	26.6467	20.1737	38.2064	0.671169	0.826643	2.22976	1.79787	3.01075	1.47571	2.25354	6.45215	2.02439	10.104	1.99983	94.7608	13.5088	48.5582	1.53779	3.71314	4.16835	2.11986	6.98691	3.49844	2.3897	6.55296	1.5475	1.3328	1.31405	2.25214	1005.43	780.813	2.11646	0.46317	46.8213	10.8276	181.234	2.88799	102.295	221.142	190.473	654.002	2.15424	2.50153	0.871938	0.860027	1.00502	331.819	2066.65	19.3597	0.552691	0.924579	4.92262	0.10773	334.586	934.434	380.211	-1.06767	0.504795	0.66332	17.0383	73.6494	16.4055	729.611	
3.635	1.25851	2.7137	6.54497	7.61932	4.93754	10.823	62.7693	23.8225	1.70805	0.784357	0.980046	1.64736	27.4754	57.6025	45.1163	58.2882	32.936	26.3386	19.6039	37.5443	0.646421	0.72637	2.05402	1.76682	3.28211	1.47401	2.25063	6.16233	2.15643	11.2392	1.99153	90.6118	12.998	48.2309	1.62801	3.73551	4.16256	1.87518	6.485	3.1261	2.40602	4.50565	1.53697	1.33261	1.31381	2.26909	1020.46	775.959	2.04447	0.423945	36.3738	9.64373	189.945	2.88425	88.2222	203.912	190.723	629.41	2.15301	2.49897	0.871792	0.861913	1.00656	328.296	1794.52	18.2571	0.603072	0.923382	4.93098	0.117403	326.5	937.681	382.514	-0.996838	0.504074	11.5253	17.3807	58.2148	12.6678	662.028	
3.64	1.25589	2.74255	6.38519	7.41978	4.79589	10.8142	60.9662	22.7416	1.70937	0.784908	0.979675	1.6464	27.6766	55.9014	44.7682	57.4101	32.1316	25.8466	19.0546	36.9959	0.613485	0.626466	1.882	1.73283	3.4621	1.47368	2.2496	5.90694	2.24328	12.2155	1.96618	86.2024	12.4444	48.1101	1.70313	3.7375	4.16043	1.67999	5.60225	2.76167	2.41799	3.36758	1.54823	1.33243	1.31357	2.28404	1036.41	770.37	1.97055	0.377345	20.1221	8.56304	187.479	2.88051	75.4189	187.305	192.132	601.937	2.15177	2.4964	0.871646	0.863605	1.00793	325.29	1920.82	16.9208	0.658678	0.922188	4.93439	0.128336	318.694	944.146	385.77	-0.919091	0.503354	13.6415	17.4302	47.3442	5.39253	596.946	
3.645	1.25901	2.76763	6.33646	7.33589	4.78478	10.8052	58.9605	21.5065	1.7043	0.78227	0.979862	1.64683	27.7494	53.7033	44.663	56.9724	31.7892	25.1853	18.5194	36.5471	0.575219	0.53068	1.71485	1.69624	3.51907	1.47471	2.25037	5.69011	2.2722	13.0365	1.92692	81.6058	11.8614	48.1827	1.76583	3.71933	4.16187	1.54187	5.02439	2.52148	2.42929	2.71576	1.57291	1.33226	1.31332	2.29435	1054.83	764.43	1.89495	0.318315	11.0558	7.61317	198.906	2.87678	63.9716	171.357	194.953	572.732	2.15053	2.49382	0.871499	0.865121	1.00914	322.825	1801.63	15.472	0.719568	0.920997	4.93311	0.138598	311.152	953.802	390.108	-0.835882	0.502635	5.32489	17.2417	40.8568	4.64566	533.421	
