CEINMS output
datacolumns 81
datarows 92
endheader
time	addbrev_r	addlong_r	addmagDist_r	addmagIsch_r	addmagMid_r	addmagProx_r	bflh_r	bfsh_r	edl_r	ehl_r	fdl_r	fhl_r	gaslat_r	gasmed_r	glmax1_r	glmax2_r	glmax3_r	glmed1_r	glmed2_r	glmed3_r	glmin1_r	glmin2_r	glmin3_r	grac_r	iliacus_r	perbrev_r	perlong_r	piri_r	psoas_r	recfem_r	sart_r	semimem_r	semiten_r	soleus_r	tfl_r	tibant_r	tibpost_r	vasint_r	vaslat_r	vasmed_r	addbrev_l	addlong_l	addmagDist_l	addmagIsch_l	addmagMid_l	addmagProx_l	bflh_l	bfsh_l	edl_l	ehl_l	fdl_l	fhl_l	gaslat_l	gasmed_l	glmax1_l	glmax2_l	glmax3_l	glmed1_l	glmed2_l	glmed3_l	glmin1_l	glmin2_l	glmin3_l	grac_l	iliacus_l	perbrev_l	perlong_l	piri_l	psoas_l	recfem_l	sart_l	semimem_l	semiten_l	soleus_l	tfl_l	tibant_l	tibpost_l	vasint_l	vaslat_l	vasmed_l	
3.19	219.248	-0.0587971	1485.25	1506.97	2038.05	-0.231105	5181.2	4318.54	450.978	214.749	733.085	2276.15	812.743	5447.55	851.41	2540.73	2643.83	24701.6	15909.3	3373.3	3099.84	3272.9	3700.79	283.607	275.667	239.241	2048.98	2781.43	287.279	-0.329326	371.981	14274.7	3830.82	20586.5	0.155198	702.359	2981.44	479.579	1590.47	825.458	33.7779	2331.38	-0.0290484	-0.0654925	-0.0487711	24.1408	100.643	112.998	782.062	1387.33	485.127	2015.3	1471.52	-0.801009	-0.262033	-0.27868	-0.136876	-0.117199	-0.240935	-0.289614	-0.0834871	-0.0746932	-0.141365	0.28053	-0.0135103	2202.53	5414.91	-0.269439	-0.024245	10689.9	218.688	6386.82	939.086	-2.38583	-0.105723	5962.23	8396.1	-0.0979465	-1.41443	-0.177386	
3.195	208.079	-0.0591708	1379.76	1410.91	1857.96	-0.231167	5087.52	4640.25	460.537	219.82	730.517	2262.15	847.827	5676.19	803.809	2432.82	2476.03	24702.7	15779.1	3200.98	3100.06	3273.06	3700.84	283.379	303.935	237.909	2038.67	2628.24	311.325	-0.32804	399.565	14349.9	3834.94	20045.3	1.20697	724.085	2965.83	446.267	1493.99	772.199	30.8191	2274.6	-0.0314333	-0.0679263	-0.0514425	18.3059	78.6563	101.221	785.508	1387.34	485.933	1995.96	1375.43	-0.801129	-0.262804	-0.280934	-0.138012	-0.11176	-0.240171	-0.290718	-0.0810546	-0.0706903	-0.141369	0.0275127	-0.011344	2189.64	5414.89	-0.269478	-0.0235544	10690.2	216.076	5751.31	866.143	-2.38634	-0.105738	5962.27	8395.99	-0.0979734	-1.36569	-0.145474	
3.2	197.791	-0.059599	1276.92	1310.89	1689.64	-0.232279	4970.2	4990.72	471.289	225.418	727.524	2246.92	893.536	5959.14	753.754	2322.68	2313.28	24703.7	15607.4	3024.24	3100.27	3273.2	3700.87	283.071	334.669	236.356	2026.95	2456.69	338.373	-0.326917	429.661	14414.7	3834.24	19459.8	4.34925	748.146	2948.4	407.554	1380.55	710.25	27.7349	2212.68	-0.0347112	-0.0716072	-0.0550569	13.228	40.1921	82.9365	789.09	1387.35	485.626	1903.69	1218.72	-0.801411	-0.266951	-0.288696	-0.147204	-0.104499	-0.235126	-0.291555	-0.0785891	-0.0675686	-0.141372	-0.00259175	-0.00860896	2176.58	5414.87	-0.269568	-0.0227023	10690.4	212.968	5053.4	788.892	-2.38891	-0.105776	5962.31	8396.12	-0.0983848	-1.3003	-0.103834	
3.205	188.666	-0.0600518	1180.96	1214.76	1535.75	-0.233866	4835.85	5360.34	482.126	231.007	724.67	2232.58	946.757	6270.42	702.331	2212.68	2158.74	24704.6	15383.1	2847	3100.46	3273.33	3700.89	282.63	367.478	234.855	2015.99	2279.86	367.203	-0.32453	462.34	14442.1	3825.14	18907.5	10.6315	772.286	2931.77	367.775	1262.82	646.556	22.9443	2112.39	-0.0374917	-0.0749835	-0.0582414	9.61469	11.6575	66.5986	758.901	1387.34	485.738	1812.16	1076.88	-0.801766	-0.270302	-0.29535	-0.15517	-0.0954113	-0.227339	-0.292023	-0.0764159	-0.0663488	-0.141376	-0.00616977	-0.0110623	2168.24	5414.85	-0.26968	-0.0313569	10690.7	209.332	4424.84	719.63	-2.39203	-0.105822	5962.34	8396.17	-0.0989708	-1.22608	-0.0570415	
3.21	180.716	-0.0605101	1092.5	1124.93	1396.4	-0.235559	4685.77	5741.73	491.779	235.972	722.214	2220.23	1003.21	6589.02	649.697	2102.87	2012.33	24705.2	15095.1	2671.51	3100.63	3273.43	3700.88	281.853	402.498	233.563	2006.67	2105.25	397.251	-0.32003	497.73	14409.7	3804.42	18438	19.805	793.893	2917.39	330.024	1149.91	585.91	18.0186	2005.27	-0.0391638	-0.0771341	-0.0605065	6.85012	0.431721	53.5566	722.55	1387.35	486.324	1747.51	966.842	-0.802138	-0.271628	-0.298924	-0.160137	-0.0850874	-0.223024	-0.292262	-0.0741945	-0.0648727	-0.14138	-0.00900861	-0.0162649	2163.15	5414.84	-0.269797	-0.0421176	10690.9	205.14	3875.68	656.574	-2.39471	-0.105872	5962.35	8396.12	-0.0995967	-1.15033	-0.0093675	
3.215	173.975	-0.0609671	1011.07	1041.02	1271.42	-0.237232	4518.17	6127.69	499.541	239.961	720.235	2210.38	1061.16	6912.91	595.981	1992.92	1873.58	24705.7	14734.4	2500.32	3100.77	3273.51	3700.85	280.609	440.188	232.53	1999.25	1936.38	428.568	-0.313194	535.93	14305.1	3769.88	18069.8	30.7168	811.395	2905.87	295.273	1044.81	529.798	13.8962	1911.73	-0.0399475	-0.0777856	-0.0621565	4.41238	-0.0154598	42.2037	695.418	1387.36	486.896	1706.65	878.362	-0.802506	-0.271664	-0.300344	-0.16356	-0.0752942	-0.220587	-0.292408	-0.0718292	-0.0622451	-0.141757	-0.0114202	-0.0212946	2159.67	5414.84	-0.270636	-0.0502037	10691	200.367	3388.06	597.306	-2.39669	-0.10592	5962.35	8396.06	-0.100356	-1.07545	5.99189	
3.22	168.512	-0.0614224	936.221	962.508	1160.53	-0.238872	4332.49	6510.21	504.996	242.755	718.826	2203.53	1121.29	7248.05	541.504	1882.62	1742.01	24706	14295.2	2336.07	3100.87	3273.55	3700.78	278.831	480.955	231.796	1994.05	1776.24	461.357	-0.30397	576.952	14120.3	3720.15	17814.7	42.4362	823.687	2897.78	263.742	948.408	478.625	10.5613	1829.37	-0.0403761	-0.0770493	-0.063715	2.3136	-0.036998	31.4943	677.838	1387.35	486.46	1681.25	801.208	-0.802869	-0.271219	-0.300771	-0.166596	-0.066158	-0.217837	-0.292523	-0.0693595	-0.058891	-0.142083	-0.0137819	-0.0251205	2158.21	5414.84	-0.271942	-0.0551536	10691.1	194.99	2951.65	541.892	-2.39802	-0.105968	5962.33	8396.01	-0.101344	-1.00137	32.0282	
3.225	164.395	-0.0618766	867.472	888.998	1063.06	-0.240496	4130.38	6881.28	507.77	244.152	718.098	2200.19	1184.93	7599.68	486.721	1771.94	1617.07	24705.9	13776.5	2180.86	3100.93	3273.56	3700.69	276.497	525.111	231.409	1991.45	1627.43	495.954	-0.292224	620.72	13851.9	3654.84	17686.1	54.5538	829.764	2893.71	235.593	861.431	432.73	7.74794	1748.37	-0.040897	-0.0753943	-0.0655414	0.802389	-0.057522	21.5109	665.746	1387.34	485.572	1665.92	731.018	-0.803229	-0.270514	-0.300616	-0.169419	-0.0575468	-0.214578	-0.292623	-0.0668109	-0.0549437	-0.142228	-0.0162633	-0.0278271	2159.87	5414.85	-0.273232	-0.0581501	10691.2	189.002	2558.03	490.877	-2.39885	-0.106016	5962.29	8395.97	-0.102556	-0.928208	74.7774	
3.23	161.69	-0.0623303	804.352	820.074	977.788	-0.242113	3915.13	7233.82	507.545	243.989	718.139	2200.74	1253.23	7972.19	432.209	1661.43	1498.08	24705.7	13182.8	2036.36	3100.96	3273.54	3700.57	273.634	572.862	231.412	1991.74	1492.2	532.703	-0.277784	667.076	13501.2	3574.55	17696.4	66.855	828.851	2894.12	210.862	784.22	392.218	5.29882	1661.77	-0.0416271	-0.0736699	-0.0676853	0.0538825	-0.077353	12.7942	655.806	1387.33	484.904	1658.49	666.708	-0.803588	-0.269415	-0.299756	-0.17176	-0.0486398	-0.210977	-0.292672	-0.0641886	-0.0507134	-0.142261	-0.0188817	-0.0298187	2165.19	5414.88	-0.275329	-0.0603067	10691.3	182.415	2207.64	444.481	-2.39933	-0.106063	5962.23	8395.95	-0.103938	-0.856162	130.601	
3.235	160.466	-0.0627838	746.425	755.439	903.468	-0.243728	3691.33	7561.91	504.132	242.171	718.996	2205.41	1327.25	8370.46	378.637	1551.76	1384.28	24705.1	12524.8	1903.7	3100.94	3273.48	3700.42	270.317	624.292	231.832	1995.1	1371.6	571.943	-0.260565	715.797	13075.1	3480.84	17855.1	79.1023	820.553	2899.3	189.389	716.504	356.863	3.19524	1567.1	-0.0424576	-0.0723954	-0.0700097	-0.00233578	-0.0964549	5.90844	646.204	1387.31	484.84	1658.34	607.942	-0.803946	-0.26776	-0.297942	-0.173358	-0.0391335	-0.206958	-0.291654	-0.0614901	-0.0467193	-0.143027	-0.0216097	-0.0314703	2172.98	5414.92	-0.277863	-0.0622662	10691.3	175.264	1899.61	402.781	-2.39955	-0.106121	5962.14	8395.95	-0.105438	-0.784919	197.285	
3.24	160.792	-0.0632371	693.262	694.853	838.943	-0.24534	3464.02	7860.03	497.491	238.681	720.682	2214.28	1408.09	8799.98	326.749	1443.67	1274.88	24704.3	11818.6	1782.62	3100.88	3273.38	3700.24	266.66	679.341	232.678	2001.6	1264.95	613.996	-0.240618	766.225	12584	3376.04	18169.9	91.0434	804.904	2909.34	170.921	657.693	326.289	1.50787	1464.35	-0.043237	-0.0715649	-0.0723579	-0.00737313	-0.114686	1.42634	636.073	1387.29	485.537	1665.25	554.202	-0.804303	-0.26546	-0.294989	-0.174069	-0.0289689	-0.202388	-0.289448	-0.0585512	-0.0431502	-0.144153	-0.0244263	-0.0330637	2182.46	5414.97	-0.280197	-0.064344	10691.3	167.613	1632.33	365.83	-2.3996	-0.107536	5962.02	8395.99	-0.107084	-0.713809	273.821	
3.245	162.745	-0.062979	644.437	638.019	783.203	-0.24695	3237.87	8124.62	487.733	233.582	723.169	2227.27	1496.97	9265.85	277.34	1337.94	1169.4	24703.2	11085.1	1670.78	3100.78	3273.25	3700.04	262.813	737.653	233.946	2011.2	1171.71	659.16	-0.218122	816.892	12040.5	3262.99	18646	102.461	782.37	2924.13	155.18	607.078	300.075	0.374179	1354.13	-0.0438628	-0.070856	-0.074374	-0.0126628	-0.131893	-7.77628e-05	624.954	1387.25	487.152	1678.98	504.766	-0.80466	-0.26246	-0.290772	-0.1738	-0.0180982	-0.197177	-0.286504	-0.0553371	-0.0395644	-0.144859	-0.0273191	-0.0348198	2193.96	5415.03	-0.283008	-0.0667173	10691.3	159.542	1405.18	333.557	-2.39954	-0.109892	5961.87	8396.07	-0.108927	-0.642993	358.791	
3.25	166.406	-0.0609259	599.546	584.544	735.389	-0.248557	3016.57	8355.74	475.119	227.018	726.392	2244.15	1595.24	9772.12	231.178	1235.31	1068.4	24701.9	10348.9	1567.62	3100.64	3273.08	3699.81	258.944	798.681	235.616	2023.77	1091.1	707.676	-0.19336	866.483	11459.4	3144.84	19285.8	113.186	753.853	2943.35	141.863	563.854	277.767	0.000151266	1236.85	-0.0442721	-0.069963	-0.0758661	-0.018122	-0.147917	-0.00869176	612.546	1387.22	489.684	1699.02	458.876	-0.805016	-0.258702	-0.285185	-0.172448	-0.00648636	-0.191245	-0.282829	-0.0520403	-0.0357754	-0.145107	-0.0302725	-0.0369325	2207.76	5415.11	-0.285997	-0.0695228	10691.2	151.151	1216.96	305.666	-2.39941	-0.112449	5961.7	8396.2	-0.111005	-0.573783	449.314	
3.255	171.865	-0.0575544	558.231	533.991	694.798	-0.25016	2802.68	8555.6	460.051	219.206	730.25	2264.48	1704.21	10322.4	188.931	1136.47	972.607	24700.3	9626.29	1472.57	3100.45	3272.88	3699.56	255.239	861.839	237.652	2039.04	1022.2	759.706	-0.166711	913.975	10856.2	3024.73	20086.7	123.082	720.6	2966.49	130.644	527.115	258.866	-0.00451477	1113.41	-0.0444181	-0.0687223	-0.0768711	-0.0237603	-0.162582	-0.0175343	598.646	1387.17	493.204	1724.81	415.986	-0.805371	-0.254131	-0.278143	-0.169883	0.253033	-0.18451	-0.278239	-0.0487421	-0.0317565	-0.145134	-0.0332621	-0.0395849	2223.6	5415.19	-0.288627	-0.0728853	10691.2	142.54	1063.44	281.816	-2.39924	-0.114799	5961.5	8396.36	-0.113289	-0.507945	541.557	
3.26	179.223	-0.0534704	520.228	486.166	660.891	-0.251761	2598.29	8728.38	443.051	210.427	734.608	2287.68	1824.9	10916.6	151.235	1042.02	882.655	24698.4	8925.83	1384.76	3100.22	3272.65	3699.28	251.886	926.54	239.999	2056.63	963.9	815.316	-0.138634	958.597	10246.4	2905.68	21039.2	132.074	684.069	2992.87	121.177	495.853	242.825	-0.0098986	986.97	-0.0442542	-0.0670516	-0.0775261	-0.0296285	-0.175754	-0.0265063	583.149	1385.55	497.8	1755.98	376.161	-0.805726	-0.248709	-0.269609	-0.16595	3.96385	-0.176903	-0.272593	-0.0454415	-0.0274979	-0.145985	-0.0362568	-0.0429446	2241.09	5415.29	-0.292033	-0.0769189	10691.2	133.805	939.402	261.672	-2.39903	-0.116826	5961.28	8396.56	-0.115721	-0.4467	632.402	
3.265	188.588	-0.0487651	485.53	441.328	633.282	-0.253358	2405.56	8879.17	424.742	201.009	739.309	2313.03	1957.78	11551.4	120.702	952.384	799.061	24696.4	8255.02	1303.12	3099.96	3272.39	3698.98	249.071	992.219	242.593	2076.06	914.768	874.478	-0.109661	999.817	9645.01	2790.28	22125.9	140.126	645.769	3021.63	113.106	468.994	229.072	-0.0157615	860.555	-0.0437282	-0.0648827	-0.0779656	-0.0357657	-0.187365	-0.0355145	566.052	1377.91	503.545	1792.42	339.561	-0.80608	-0.242418	-0.259591	-0.160537	12.3318	-0.168371	-0.265776	-0.0421389	-0.0229993	-0.14675	-0.0392217	-0.0471617	2259.84	5415.4	-0.295824	-0.0817158	10691.1	125.04	840.078	244.922	-2.39882	-0.118439	5961.03	8396.77	-0.118251	-0.390638	719.689	
3.27	200.123	-0.0433338	454.251	399.716	611.716	-0.254952	2226.31	9013.81	405.804	191.312	744.18	2339.71	2102.44	12221.8	97.2405	867.857	722.186	24693.8	7619.01	1226.38	3099.66	3272.09	3698.66	246.977	1058.37	245.354	2096.78	873.066	937.084	-0.0803795	1037.29	9065.91	2680.67	23322.1	147.174	607.099	3051.83	106.078	445.426	217.023	-0.0221015	736.762	-0.042787	-0.0621498	-0.0782845	-0.0421809	-0.197392	-0.0444249	547.445	1364.65	510.487	1834.15	306.291	-0.806433	-0.235255	-0.248115	-0.153629	25.5067	-0.158885	-0.25768	-0.0388302	-0.0182755	-0.144082	-0.0421193	-0.0524091	2279.51	5415.52	-0.29924	-0.0873467	10691.1	116.333	761.174	231.307	-2.3986	-0.11947	5960.75	8397	-0.120862	-0.339991	801.858	
3.275	214.085	-0.0371228	426.445	361.498	596.042	-0.256543	2061.63	9138.62	386.922	181.692	749.046	2366.93	2257.56	12920.9	79.2895	788.539	652.215	24221.3	7020.42	1153.18	3099.32	3271.76	3698.33	245.772	1124.58	248.195	2118.12	836.853	1002.85	-0.051413	1070.86	8521.42	2578.5	24595.5	153.147	569.272	3082.44	99.7462	424.033	206.099	-0.0289064	618.986	-0.0413821	-0.0588005	-0.0785393	-0.0488534	-0.205776	-0.0530323	527.51	1346.35	518.653	1881.32	276.399	-0.806786	-0.227235	-0.235233	-0.145261	43.4111	-0.148444	-0.248215	-0.0355279	-0.013357	-0.136138	-0.0449112	-0.0589074	2299.79	5415.64	-0.303681	-0.0938825	10691.1	107.754	699.081	220.63	-2.39839	-0.119478	5960.46	8397.25	-0.123557	-0.29445	878.254	
3.28	230.885	-0.030122	402.109	326.77	586.179	-0.25813	1911.91	9259.81	368.751	172.483	753.737	2393.78	2420.77	13638.7	65.2779	714.349	589.152	22966.7	6459.62	1082.23	3098.95	3271.41	3697.97	245.618	1190.54	251.024	2139.42	804.071	1071.41	-0.0233946	1100.48	8021.65	2485.19	25905	157.982	533.332	3112.43	93.7849	403.731	195.741	-0.0361514	511.713	-0.0394708	-0.054798	-0.0787603	-0.05574	-0.212433	-0.0611596	506.505	1323.61	528.038	1933.99	249.886	-0.807138	-0.218395	-0.221016	-0.135474	65.6964	-0.137083	-0.237327	-0.032264	-0.00829077	-0.125693	-0.0475594	-0.0668921	2320.31	5415.76	-0.309738	-0.101404	10691.1	99.3556	651.247	212.784	-2.3982	-0.117685	5960.15	8397.5	-0.126343	-0.252348	951.709	
3.285	251.093	-0.0223191	381.197	295.55	582.083	-0.259714	1777.09	9383.32	351.854	163.962	758.102	2419.34	2588.69	14362.3	54.0836	645.049	532.827	21088.6	5934.84	1012.43	3098.54	3271.03	3664.54	246.666	1256.06	253.746	2159.96	772.633	1142.4	-0.00134305	1126.21	7574.19	2402.15	27202.3	161.628	500.201	3140.8	87.896	383.501	185.428	-0.0437936	417.84	-0.0370177	-0.0501194	-0.0789632	-0.0627801	-0.217309	-0.0686895	512.911	1297.09	538.61	1992.13	226.707	-0.807489	-0.208792	-0.205563	-0.124325	91.7239	-0.124874	-0.225	-0.0290867	-0.00314099	-0.114692	-0.0500283	-0.0765138	2340.69	5415.89	-0.316071	-0.109995	10691.1	91.1642	616.189	207.823	-2.39803	-0.115791	5959.83	8397.76	-0.129234	-0.212604	1024.13	
3.29	275.461	-0.0136965	363.618	267.786	583.726	-0.261295	1657.19	9514.74	336.683	156.349	762.012	2442.73	2757.45	15076.8	44.9788	580.267	482.908	18779.9	5442.4	942.693	3098.11	3270.62	3515.2	249.054	1321.08	256.268	2179.03	740.557	1215.54	2.48396	1148.18	7183.94	2330.38	28434.6	164.057	470.648	3166.65	81.8236	362.428	174.698	-0.0517738	336.427	-0.033996	-0.0447559	-0.0791564	-0.0698986	-0.220328	-0.0755451	534.592	1267.53	550.309	2055.32	206.78	-0.807839	-0.198506	-0.188996	-0.111883	120.598	-0.111932	-0.211265	-0.0260564	0.079057	-0.103325	-0.0522869	-0.0878106	2360.58	5416.03	-0.321458	-0.119721	10691.1	83.1773	593.338	205.918	-2.39788	-0.115241	5959.49	8398.02	-0.130813	-0.231829	1086.8	
3.295	304.983	-0.0042414	349.247	243.356	591.08	-0.262872	1552.76	9658.78	323.599	149.811	765.361	2463.19	2922.84	15765.7	37.482	519.54	438.931	16275.2	4976.51	871.964	3097.65	3270.19	3274.2	252.915	1385.68	258.503	2195.95	706.137	1290.62	9.02514	1166.56	6853.24	2270.57	29547.5	165.265	445.286	3189.17	75.3699	339.756	163.178	-0.0600178	263.601	-0.030391	-0.0387157	-0.0793442	-0.0770069	-0.221239	-0.0816765	526.138	1235.61	563.033	2122.55	189.986	-0.808189	-0.187639	-0.171462	-0.0982355	151.28	-0.0984149	-0.196209	-0.0232417	1.5332	-0.0914432	-0.0543082	-0.100652	2379.69	5416.16	-0.32546	-0.130601	10691.2	75.3627	583.276	207.332	-2.39775	-0.116267	5959.15	8398.27	-0.127652	-0.279526	1131.33	
3.3	340.911	0.361052	337.929	222.083	604.174	-0.264446	1463.91	9819.05	312.889	144.484	768.072	2480.06	3080.39	16411.7	31.2531	462.389	400.329	13862.3	4528.18	799.376	3097.17	3269.73	2966.73	258.366	1450.23	260.37	2210.08	668.112	1367.52	17.4169	1181.51	6582.32	2223.02	30488.5	165.276	424.623	3207.66	68.4117	314.929	150.604	-0.0684368	195.423	-0.0262028	-0.0320264	-0.079529	-0.0840044	-0.21952	-0.0870724	500.359	1202.04	576.65	2192.23	176.186	-0.808537	-0.176311	-0.15314	-0.0835082	182.556	-0.0845171	-0.179975	-0.0207153	4.54355	-0.0791817	-0.0560659	-0.114804	2397.79	5416.28	-0.328173	-0.14263	10691.2	67.6682	588.888	212.483	-2.39765	-0.118534	5958.8	8398.52	-0.122274	-0.32357	1160.75	
3.305	384.757	3.87178	329.481	203.745	623.016	-0.266017	1390.32	9997.96	304.802	140.484	770.085	2492.73	3225.51	16997.5	26.0393	408.301	366.462	11774.1	4092.67	724.339	3096.66	3269.25	2618.24	265.512	1515.44	261.797	2220.81	625.891	1446.17	25.8058	1193.2	6369.63	2187.74	31208.9	164.144	409.125	3221.53	60.9209	287.66	136.853	-0.0769282	133.548	-0.021449	-0.024737	-0.0797121	-0.0907842	-0.213932	-0.0917527	475.703	1167.47	591.012	2262.61	165.251	-0.808886	-0.164664	-0.13424	-0.0678644	213.093	-0.0704676	-0.162758	-0.01855	8.67525	-0.0668191	-0.0575356	-0.130044	2414.68	5416.41	-0.329889	-0.155806	10691.2	60.1268	620.915	222.04	-2.39758	-0.121694	5958.46	8398.76	-0.116876	-0.352438	1186.59	
3.31	438.206	11.4174	323.697	188.087	647.509	-0.267584	1331.3	10196.4	299.568	137.919	771.352	2500.66	3353.58	17504.8	21.6474	356.73	336.654	10024.8	3672.5	646.639	3096.14	3268.75	2258.72	274.441	1582.05	262.721	2227.64	579.611	1526.6	32.86	1201.78	6212.29	2164.42	31665.7	161.948	399.257	3230.27	52.9938	257.977	121.97	-0.0853782	80.5495	-0.0161668	-0.0169182	-0.0798943	-0.0972398	-0.199812	-0.0957498	454.405	1132.54	605.948	2332.18	157.097	-0.809233	-0.152848	-0.114995	-0.0515004	241.526	-0.0565185	-0.144807	-0.0168136	13.4355	-0.0546238	-0.0586993	-0.146195	2430.21	5416.53	-0.332087	-0.170107	10691.3	52.8393	709.21	236.577	-2.39753	-0.125548	5958.11	8398.98	-0.11188	-0.340677	1216.01	
3.315	502.591	23.2639	320.351	174.833	677.753	-0.269148	1285.83	10413.5	297.424	136.905	771.826	2503.34	3459.94	17916.1	17.9285	307.419	310.225	8578.34	3271.35	566.51	3047.7	3268.22	1925.42	285.211	1650.96	263.084	2230.08	529.864	1608.87	37.7474	1207.35	6106.43	2152.46	31822.7	158.79	395.513	3233.41	44.9299	226.301	106.207	-0.0936662	38.7923	-0.0104136	-0.00866205	-0.0800759	-0.103276	-0.178483	-0.0990982	434.447	1097.84	621.267	2399.71	151.707	-0.80958	-0.14079	-0.0955961	-0.0346397	266.573	-0.0429328	-0.12641	-0.015564	18.3187	-0.0428452	-0.059544	-0.16319	2444.3	5416.64	-0.335371	-0.185454	10691.3	45.9065	847.74	255.983	-2.39751	-0.129998	5957.78	8399.2	-0.107129	-0.305258	1249.11	
3.32	578.921	39.5523	319.194	163.694	713.752	-0.270708	1252.66	10646.6	298.633	137.571	771.451	2500.34	3540.06	18215	14.7663	260.309	286.504	7376.68	2893.56	484.686	2772.36	3253.74	1635.56	297.846	1723	262.836	2227.74	477.218	1693.06	40.0726	1210.02	6047.51	2151	31651.8	154.794	398.419	3230.5	37.6579	193.509	90.093	-0.101672	11.1116	-0.00426685	-7.9984e-05	-0.0802571	-0.108815	-0.153316	-0.101837	415.514	1063.85	636.76	2464.38	149.145	-0.809926	-0.128497	-0.076135	-0.0175205	287.132	-0.02997	-0.107879	-0.0148443	22.8529	-0.0317311	-0.0600523	-0.180973	2456.91	5416.75	-0.339511	-0.20169	10691.3	39.4219	1028.67	280.033	-2.3975	-0.134997	5957.45	8399.4	-0.102646	-0.272933	1282.61	
3.325	667.988	60.2707	319.957	154.377	755.545	-0.272265	1230.24	10891.1	303.509	140.073	770.151	2491.23	3589.57	18384.6	12.0702	215.554	264.86	6344.6	2543.81	402.412	2368.22	3030.37	1389.16	312.326	1798.99	261.933	2220.29	422.338	1779.27	39.8345	1210.28	6030.23	2158.9	31133.4	150.101	408.541	3221.06	31.6421	161.297	74.9132	-0.109283	0.0977092	0.0442149	1.47448	-0.0780401	-0.113799	-0.126162	-0.104011	398.035	1031.03	652.21	2525.71	149.574	-0.810271	-0.116136	-0.0568086	-0.000383206	302.363	-0.0178715	-0.0895411	-0.0150871	26.6408	-0.0215166	-0.0601981	-0.199398	2468.06	5416.86	-0.343961	-0.218597	10691.2	33.4666	1257.23	308.981	-2.39751	-0.140422	5957.14	8399.59	-0.0986946	-0.254506	1312.97	
3.33	770.307	85.244	322.35	146.592	803.163	-0.273818	1216.79	11141	312.441	144.611	767.829	2475.63	3604.51	18409.8	9.76815	174.877	244.715	5433.66	2226.78	321.456	1939.96	2637.72	1181.9	328.578	1879.76	260.338	2207.47	366.404	1867.54	37.3791	1210.31	6048.47	2174.73	30258.6	144.864	426.516	3204.57	26.8088	133.48	62.2672	-0.116402	-0.0202267	1.52458	6.36688	-0.0740767	-0.117891	-0.0975127	-0.105645	382.164	999.713	667.406	2583.37	153.287	-0.810616	-0.10389	-0.0378378	3.47741	311.757	-0.00684552	-0.0717127	-0.0157786	29.3899	-0.0124032	-0.059948	-0.218219	2477.79	5416.95	-0.348149	-0.23594	10691.2	28.1042	1545.82	343.289	-2.39753	-0.145051	5956.84	8399.76	-0.0956031	-0.24968	1337.39	
3.335	886.144	114.2	326.062	140.053	856.576	-0.266795	1210.28	11388.8	325.912	151.439	764.364	2453.16	3581.52	18277.9	7.80311	141.36	225.567	4639.33	1945.28	246.384	1574.38	2185.45	1005.04	346.498	1966.16	258.017	2189.11	310.318	1957.85	33.3302	1210.34	6095.05	2196.79	29031	139.242	453.138	3180.51	22.903	111.183	52.2481	-0.122716	-0.0430716	5.0229	14.1542	-0.0697011	-0.120879	-0.067654	-0.106737	367.847	970.216	682.157	2637.11	160.723	-0.81096	-0.0919201	-0.019421	14.4923	315.265	0.0673889	-0.0546851	-0.0167696	30.7956	-0.00454248	-0.0592743	-0.237143	2486.19	5417.04	-0.352034	-0.253483	10691.1	23.3756	1899.34	383.393	-2.39755	-0.148261	5956.56	8399.92	-0.093655	-0.257128	1353.55	
3.34	1018.99	146.816	330.762	134.483	915.597	-0.250633	1208.54	11626.8	344.494	160.865	759.614	2423.49	3518.31	17979.6	6.12933	115.116	207.007	3958.87	1697.36	187.333	1294.32	1771.02	848.169	365.908	2058.96	254.949	2165.13	253.912	2050.43	28.5014	1210.37	6161.93	2223.15	27469.7	133.4	489.486	3148.35	19.6924	93.6125	44.308	-0.128074	-0.0639962	10.3201	24.1899	-0.0651484	-0.12281	-0.0370404	-0.10727	355.009	942.753	696.299	2686.73	172.539	-0.811303	-0.0803804	-0.00174305	31.316	313.74	1.98885	-0.0387137	-0.0181551	29.6202	0.059398	-0.0581725	-0.255864	2493.35	5417.12	-0.35564	-0.270981	10690.9	19.2978	2312.14	429.506	-2.39758	-0.15018	5956.29	8400.06	-0.0930869	-0.274739	1359.23	
3.345	1176.25	182.63	336.106	129.617	979.833	-0.234455	1209.21	11846.8	368.811	173.239	753.431	2386.33	3413.87	17511.2	4.71008	94.6628	188.718	3387.41	1479.41	144.865	1082.01	1446.55	709.796	386.53	2158.87	251.123	2135.58	198.279	2145.61	23.8406	1210.39	6239.85	2251.63	25612.2	127.497	537.208	3107.62	17.0117	79.5827	37.8907	-0.132625	-0.0820755	17.0851	35.7862	-0.0604451	-0.123904	-0.00608925	-0.107222	343.584	917.468	709.712	2732.17	189.793	-0.811646	-0.069401	1.75887	52.1607	307.766	5.49756	-0.0239982	-0.0199776	28.2449	1.33194	-0.0566894	-0.274086	2499.39	5417.19	-0.3589	-0.288191	10690.7	15.8656	2775.83	481.478	-2.3976	-0.151207	5952.54	8400.19	-0.094143	-0.295859	1352.03	
3.35	1363.87	221.01	341.734	125.206	1048.57	-0.218948	1209.85	12041.8	399.473	188.915	745.679	2341.71	3268.97	16757.9	3.51587	78.4418	170.495	2917.37	1287.1	114.661	918.604	1199.44	590.646	408.106	2266.51	246.548	2100.62	145.807	2243.49	19.8716	1210.42	6318.69	2279.89	23515.6	121.692	598.716	3058.01	14.7479	68.1496	32.6011	-0.136574	-0.0969897	24.9104	48.2558	-0.0557203	-0.124446	5.73891	-0.106567	333.499	894.447	722.21	2773.55	213.902	-0.812022	-0.059094	8.33096	75.3412	297.955	9.60131	-0.0106818	-0.022178	26.2774	3.25119	-0.0549155	-0.29152	2504.43	5417.26	-0.361727	-0.304873	10690.5	13.0536	3284.38	539.039	-2.39762	-0.15171	5925.01	8400.31	-0.0970236	-0.316431	1330.44	
3.355	1585.15	261.193	347.288	121.02	1120.74	-0.204	1207.99	12206.5	436.911	208.165	736.248	2289.75	3086.51	15767.3	2.52305	65.3142	152.234	2533.67	1115.08	92.4882	786.871	1010.11	491.146	430.368	2382.35	241.25	2060.6	103.331	2343.97	16.5986	1210.44	6387.73	2305.47	21253.2	116.139	676.98	2999.43	12.8205	58.6761	28.1791	-0.14004	-0.10906	33.3549	60.9649	-0.0511108	-0.124665	29.5114	-0.105259	324.674	873.759	733.848	2810.95	245.864	-0.81293	-0.0495503	18.4674	99.38	285.122	13.7578	-0.000850335	-0.0246084	23.5522	4.95998	-0.0529297	-0.307908	2508.57	5417.32	-0.36408	-0.320797	10690.3	10.8159	3853.7	601.891	-2.39764	-0.151943	5882.16	8400.41	-0.101806	-0.335575	1295.07	
3.36	1840.06	302.54	352.41	116.85	1194.89	-0.189814	1201.21	12337.8	481.269	231.104	725.081	2230.7	2871.78	14653.7	1.71279	54.5242	133.935	2219.2	957.686	75.5593	677.473	859.248	410.578	452.915	2506.72	235.281	2016	73.8638	2447.08	13.877	1210.46	6435.95	2325.9	18924.7	111.005	774.968	2932.13	11.1686	50.7338	24.4462	-0.143053	-0.118848	41.9829	73.3843	-0.0467329	-0.1247	68.0595	-0.10322	317.026	855.412	744.426	2844.25	285.156	-0.814556	-0.0408385	30.9142	123.118	270.204	17.5766	1.78039	-0.0271328	20.3282	6.0759	-0.0507778	-0.323044	2511.93	5417.37	-0.365907	-0.335764	10690	9.09646	4496.7	669.754	-2.39764	-0.152049	5832.53	8400.5	-0.108455	-0.353855	1248.62	
3.365	2115.19	345.482	356.756	112.515	1269.18	-0.176544	1187.21	12435.6	532.393	257.694	712.191	2165.33	2632.66	13471.8	1.07034	45.5605	115.697	1959.74	812.964	62.2471	587.712	733.839	345.746	475.215	2639.75	228.717	1967.51	54.6901	2552.56	11.5784	1210.48	6452.73	2338.76	16621.1	106.456	894.848	2856.69	9.744	44.0171	21.2711	-0.145632	-0.126797	50.3931	85.0757	-0.0426904	-0.124616	117.802	-0.100339	310.481	839.367	753.903	2873.23	330.677	-0.816423	-0.0330004	44.581	145.685	254.178	20.8028	6.17782	-0.029718	17.0996	4.65111	-0.0484917	-0.336778	2514.64	5417.41	-0.36723	-0.349616	10689.7	7.84136	5210.03	742.386	-2.39764	-0.152096	5781.51	8400.57	-0.116869	-0.372053	1194.31	
3.37	2380.06	390.533	360.008	107.863	1341.35	-0.164309	1163.91	12502.7	589.824	287.732	697.675	2094.61	2379.69	12255.5	0.584406	38.0552	97.7247	1743.47	682.181	51.5806	515.253	630.554	293.233	496.611	2781.41	221.659	1915.93	42.0198	2659.89	9.61686	1210.5	6428.39	2341.84	14365.1	102.649	1036.66	2774.14	8.50878	38.295	18.5519	-0.14781	-0.133034	58.2417	95.6867	-0.0390736	-0.124468	175.906	-0.0965366	304.969	825.583	762.321	2897.73	382.065	-0.818079	-0.0260541	58.5587	166.433	237.992	23.3456	11.9781	-0.0323087	14.1695	1.86094	-0.0461034	-0.349004	2516.79	5417.45	-0.368129	-0.362246	10689.5	7.46371	5985.91	819.604	-2.39764	-0.152114	5732.92	8400.64	-0.126861	-0.390769	1134.76	
3.375	2611.27	437.735	361.88	102.778	1409.06	-0.153216	1129.54	12544.1	652.844	320.888	681.718	2019.8	2125.55	11043	0.246759	31.7308	80.8793	1561.16	566.243	42.9239	457.832	547.004	250.007	516.345	2931.51	214.233	1862.21	33.1691	2768.41	7.93515	1210.52	6354.89	2333.22	12202.9	99.7314	1198.99	2685.95	7.43236	33.3872	16.2086	-0.149623	-0.137727	65.2553	104.952	-0.0359556	-0.124325	240.391	-0.091817	300.426	814.002	769.744	2917.79	439.446	-0.821021	-0.0200008	72.1045	184.898	222.503	25.2353	18.2642	-0.0347887	11.5313	0.265973	-0.0436447	-0.359649	2518.48	5417.48	-0.368715	-0.373593	10689.2	8.30417	6812.36	902.318	-2.39763	-0.152116	5689.32	8400.69	-0.138209	-0.410417	1071.69	
3.38	2794.63	486.607	362.133	97.1855	1470.05	-0.143347	1082.73	12566.5	720.585	356.764	664.609	1942.38	1881.1	9878	0.0519197	26.3728	66.5564	1406.26	465.509	35.8245	413.293	480.749	213.478	533.608	3088.85	206.583	1807.4	26.6419	2877.35	6.49111	1210.54	6226.42	2311.39	10198.5	97.8409	1379.47	2594.03	6.49016	29.152	14.1776	-0.151095	-0.141189	71.2244	112.691	-0.0333913	-0.124262	309.489	-0.086236	296.793	804.544	776.213	2933.6	502.944	-0.824763	-0.0148309	84.6224	200.773	208.437	26.574	20.1758	-0.0367564	9.68517	-0.000358613	-0.0411459	-0.368702	2519.77	5417.51	-0.369092	-0.38362	10688.9	9.68423	7654.68	992.629	-2.39762	-0.152109	5652.32	8400.74	-0.150723	-0.431327	1006.02	
3.385	2924.34	536.183	360.585	91.0523	1522.26	-0.134765	1022.59	12576.5	792.091	394.859	646.72	1864.06	1650.13	8787.96	-0.00443068	21.8139	54.9806	1275.87	379.791	29.9475	379.657	429.351	182.197	547.6	3250.65	198.862	1752.59	21.6507	2985.82	5.25132	1210.55	6040.04	2275.18	8437.81	97.1087	1575.36	2500.51	5.66224	25.4767	12.4081	-0.152223	-0.143746	76.0003	118.792	-0.0314181	-0.12434	381.492	-0.0798588	294.015	797.117	781.74	2945.46	573.856	-0.828288	-0.0105283	95.6432	213.891	196.359	27.4988	19.4439	-0.0380488	8.56275	-0.00328244	-0.0386365	-0.37619	2520.7	5417.52	-0.369333	-0.392292	10688.6	10.9468	8480.14	1092.13	-2.39761	-0.152096	5622.89	8400.77	-0.164264	-0.4538	938.162	
3.39	3001.8	585.168	357.118	84.3928	1563.96	-0.12751	948.827	12578.8	866.164	434.681	628.489	1786.55	1433.63	7778.61	0.00109091	17.9227	45.6938	1168.98	308.396	25.0412	355.123	390.448	155.957	557.597	3414.02	191.223	1698.94	17.7498	3092.89	4.20018	1210.57	5796.26	2223.83	6972.17	97.6588	1783.24	2407.58	4.93231	22.2714	10.8594	-0.153035	-0.14561	79.4898	123.206	-0.030056	-0.124583	455.536	-0.0727526	292.037	791.629	786.374	2953.73	654.306	-0.832522	-0.00707494	104.809	224.202	186.679	28.1544	17.4392	-0.0387781	7.36605	-0.000825154	-0.0361464	-0.382145	2521.32	5417.54	-0.369478	-0.399574	10688.3	12.2416	9258.92	1201.65	-2.3976	-0.152081	5601.54	8400.8	-0.178714	-0.4781	868.341	
3.395	3034.13	632.075	351.685	77.2707	1593.88	-0.121598	861.834	12574.6	941.749	475.682	610.377	1711.55	1233.13	6856.59	-0.0034108	14.5952	38.1472	1084.44	250.264	20.9153	338.284	361.786	134.528	563.012	3576.17	183.815	1647.51	14.6541	3197.55	4.62257	1210.58	5499.45	2157.18	5760.82	99.6064	2001.66	2317.17	4.28697	19.4637	9.49847	-0.153667	-0.146935	81.6489	125.931	-0.0293079	-0.124845	533.502	-0.0650024	290.806	787.98	790.177	2958.82	746.188	-0.836998	-0.0044538	111.867	231.636	179.657	28.6716	15.9532	-0.0391595	6.36884	1.03611	-0.0337057	-0.386599	2521.72	5417.55	-0.369554	-0.405454	10688	13.8511	9950.35	1321.02	-2.3976	-0.152064	5588.36	8400.81	-0.193935	-0.50443	796.735	
3.4	3036.84	675.351	344.316	69.796	1611.25	-0.117029	762.834	12560.1	1017.14	516.924	592.834	1640.59	1048.05	6026.92	-0.00804197	11.7489	31.9173	1021.08	204.123	17.4245	328.156	341.595	117.567	563.448	3734.45	176.772	1599.25	12.1648	3298.78	8.90987	1210.59	5157.17	2075.64	4757.89	103.053	2227.6	2230.98	3.71511	16.9948	8.29835	-0.154196	-0.14786	82.4757	127	-0.0291482	-0.125062	616.377	-0.0567253	290.263	786.057	793.207	2961.17	850.777	-0.840907	-0.00283125	116.458	236.122	175.431	29.1531	15.5521	-0.0411114	5.79409	3.05034	-0.031344	-0.388661	2521.9	5417.55	-0.369583	-0.409224	10687.7	15.8605	10484.3	1449.05	-2.39762	-0.152046	5583.04	8400.82	-0.209819	-0.532914	723.58	
3.405	3036.96	713.686	335.115	62.1188	1615.83	-0.113779	654.02	12525.4	1090.36	557.326	576.259	1574.98	875.151	5296.68	-0.0126692	9.31737	26.7121	977.723	168.514	14.4568	324.104	328.6	104.668	558.728	3886.44	170.214	1554.9	10.1388	3395.53	21.467	1210.59	4778.35	1980.25	3922.85	108.079	2455.03	2150.64	3.20748	14.8167	7.23686	-0.154628	-0.148513	82.0032	126.476	-0.0293024	-0.125247	703.295	-0.0480684	290.341	785.72	795.525	2961.21	968.383	-0.845471	-0.00214191	118.514	237.635	174.036	29.667	15.9396	-0.043071	5.63949	3.58374	-0.0290895	-0.388569	2521.9	5417.55	-0.369583	-0.402811	10687.5	18.2889	10680.5	1583.44	-2.39767	-0.152028	5584.93	8400.82	-0.226424	-0.56382	648.93	
3.41	3037.05	746.064	324.259	54.4202	1607.95	-0.111808	538.8	12455.3	1159.49	595.704	560.987	1515.77	715.206	4670.48	-0.0172921	7.2475	22.3276	953.342	141.937	11.9246	325.769	321.923	95.403	548.916	4029.88	164.24	1515.03	8.47167	3486.76	47.8371	1210.6	4370.51	1872.56	3213.4	114.732	2676.14	2077.5	2.75635	12.8898	6.29565	-0.154959	-0.148993	80.2939	124.44	-0.0295448	-0.125443	791.804	-0.0392557	290.962	786.799	797.196	2959.33	1098.07	-0.85028	-0.0023088	118.012	236.226	175.423	30.2444	16.6035	-0.0430092	5.88464	3.56497	-0.0269683	-0.38735	2521.73	5417.54	-0.369565	-0.394569	10687.2	21.1441	10682	1720.82	-2.39776	-0.15201	5593.07	8400.81	-0.243869	-0.597636	572.676	
3.415	3037.11	771.779	311.99	46.9015	1588.43	-0.11106	423.299	12330	1222.64	630.886	547.305	1463.74	569.997	4146.81	-0.0219105	5.49636	18.6131	947.043	122.993	9.75889	333.02	320.981	89.3681	534.314	4162.87	158.932	1480.05	7.08662	3571.41	92.3318	1210.6	3940.37	1754.49	2618.42	123.007	2882.56	2012.62	2.35519	11.1812	5.45943	-0.155268	-0.149372	74.6055	118.727	-0.0297848	-0.125677	878.646	-0.0305501	292.035	789.081	798.283	2955.93	1237.08	-0.854483	-0.00327738	115.116	232.015	179.473	30.8798	17.1316	-0.0423728	6.53709	4.01088	-0.0250031	-0.385231	2521.42	5417.54	-0.369537	-0.390066	10686.9	24.419	10683.5	1855.46	-2.39791	-0.151991	5606.2	8400.8	-0.262197	-0.634888	495.192	
3.42	3037.14	790.431	298.6	39.7762	1558.53	-0.111461	323.322	12127.4	1278.1	661.854	535.443	1419.46	440.892	3714.47	-0.0265245	4.02944	15.4521	958.093	110.475	7.90486	345.922	325.419	86.2075	515.436	4283.72	154.356	1450.24	5.92654	3648.35	157.532	1210.59	3496.66	1628.51	2135.14	132.882	3066.75	1956.86	1.99851	9.66354	4.71541	-0.155661	-0.149693	67.254	108.31	-0.0300081	-0.125922	960.563	-0.0221149	293.448	792.305	798.862	2951.41	1382.04	-0.858407	-0.00497482	110.115	225.184	185.996	24.672	17.284	-0.0414116	7.61848	5.01765	-0.0232159	-0.381949	2520.99	5417.53	-0.369504	-0.386907	10686.7	28.095	10684.8	1980.06	-2.39814	-0.151972	5622.81	8400.79	-0.281315	-0.67591	417.668	
3.425	3037.15	801.892	284.423	33.2855	1519.84	-0.1129	247.909	11825.4	1324.55	687.816	525.568	1383.27	330.059	3337.44	-0.0311341	2.81909	12.7532	985.896	103.41	6.3186	364.716	335.062	85.624	492.963	4391.3	150.558	1425.81	4.94828	3716.58	244.919	1210.59	3047.47	1497.62	1755.39	144.367	3222.61	1910.8	1.68165	19.3939	8.03212	-0.156087	-0.149982	60.177	96.0122	-0.0302221	-0.126149	1034.58	-0.01406	295.071	796.159	799.013	2946.15	1529.76	-0.861885	-0.00733008	103.311	215.929	194.735	20.7715	16.9505	-0.0400964	9.1526	6.41801	-0.021631	-0.377385	2520.48	5417.52	-0.369468	-0.382557	10686.5	32.1459	10685.9	2089.34	-2.39844	-0.151954	5641.18	8400.77	-0.301002	-0.720673	341.95	
3.43	3037.13	806.284	269.813	27.836	1474.13	-0.114728	194.043	11405.2	1361.07	708.239	517.783	1355.27	243.547	2963.87	-0.0357394	1.84342	10.4434	1029.96	101.079	4.96484	389.794	349.885	87.3746	467.672	4484.72	147.571	1406.83	4.11874	3775.05	355.207	1210.57	2594.29	1365.24	1469.19	157.486	3345.79	1874.77	4.74753	54.8595	23.4751	-0.156467	-0.150253	53.6972	84.1786	-0.0304333	-0.126366	1097.99	-0.00647882	296.753	800.277	798.825	2940.57	1677.43	-0.864651	-0.0102914	94.9966	204.438	205.358	18.2518	16.0919	-0.0384785	11.1521	8.12707	-0.0202704	-0.3716	2519.93	5417.5	-0.369431	-0.37677	10686.3	36.5381	10686.8	2180.01	-2.39884	-0.151935	5659.51	8400.75	-0.320929	-0.76869	270.286	
3.435	3037.09	803.926	255.128	23.4377	1423.3	-0.116602	155.197	10854.3	1387.13	722.786	512.141	1335.37	182.302	2607.52	-0.0403403	1.08542	8.46489	1089.84	103.015	3.81513	421.672	369.999	91.2655	440.352	4563.68	145.41	1393.27	3.41225	3822.67	488.649	1210.56	2137.2	1235.08	1266.05	172.283	3433.87	1848.88	17.0249	122.718	56.0453	-0.156854	-0.150514	47.4911	73.5197	-0.0306446	-0.126569	1148.47	-0.000245954	298.322	804.244	798.411	2935.13	1822.74	-0.866994	-0.0138239	85.4673	190.908	217.46	17.177	14.7082	-0.0366167	13.6045	10.122	-0.0191455	-0.364686	2519.41	5417.49	-0.369393	-0.369898	10686.1	41.232	10687.5	2250.33	-2.39935	-0.151916	5675.93	8400.73	-0.340674	-0.818952	204.997	
3.44	3037.04	795.292	240.719	19.8958	1369.23	-0.118433	126.136	10169.8	1402.58	731.365	508.645	1323.4	140.386	2285.27	-0.0449368	0.532336	6.77113	1165.1	108.981	2.84654	460.833	395.627	97.1406	411.623	4628.22	144.072	1385.04	2.80864	3858.47	643.946	1210.54	1687.44	1110.68	1136.24	188.816	3485.69	1833.02	41.4101	219.12	104.105	-0.157227	-0.15077	41.2932	63.8374	-0.0308563	-0.126753	1184.23	0.995993	299.588	807.599	797.857	2930.37	1963.98	-0.86915	-0.0178997	75.0381	175.617	230.568	16.0951	12.8333	-0.0345732	16.4629	12.329	-0.0182568	-0.356734	2518.96	5417.48	-0.369354	-0.362077	10686	46.1838	10688.1	2299.76	-2.39997	-0.151897	5688.56	8400.72	-0.359792	-0.870044	148.091	
3.445	3036.96	780.961	226.912	17.0026	1313.65	-0.120231	103.612	9362.81	1407.59	734.08	507.252	1319.04	111.086	1994.96	-0.0495291	0.175197	5.32475	1255.31	118.932	2.04064	507.619	427.09	104.876	381.907	4678.8	143.537	1381.95	2.29197	3881.49	817.146	1210.51	1261.09	994.025	1072.12	207.075	3501.58	1826.94	75.9783	341.905	166.191	-0.157545	-0.151023	35.0517	54.7799	-0.0310681	-0.126917	1203.89	3.635	300.352	809.856	797.51	2926.93	2100.08	-0.871008	-0.0224898	64.0507	158.929	244.155	15.6211	10.5474	-0.0324145	19.6424	14.5982	-0.0176643	-0.347843	2518.68	5417.48	-0.369315	-0.353371	10686	51.3467	10688.4	2328.47	-2.4007	-0.151879	5695.54	8400.71	-0.377874	-0.920469	100.863	
3.45	3036.87	761.57	214.003	14.6014	1258.14	-0.122016	85.726	8462.44	1402.62	731.189	507.879	1321.96	89.702	1727.62	-0.0541171	0.00853023	4.09563	1359.96	132.984	1.38272	562.24	464.744	114.375	351.499	4716.04	143.771	1383.78	1.84951	3890.85	1002.52	1210.48	904.811	885.762	1069.09	226.881	3483.06	1830.21	119.422	489.857	241.873	-0.157793	-0.151274	28.8558	46.1305	-0.03128	-0.127065	1206.65	7.2683	300.409	810.521	797.145	2925.47	2230.87	-0.87245	-0.02756	52.8688	141.249	257.657	15.1978	7.99615	-0.0302088	23.0229	16.7401	-0.0174198	-0.338128	2518.64	5417.48	-0.369276	-0.343896	10686	56.6721	10688.5	2336.97	-2.40154	-0.15186	5694.98	8400.7	-0.394618	-0.969028	63.6647	
3.455	3036.81	737.782	202.251	12.5838	1204.04	-0.123797	71.2973	7521.91	1388.36	723.076	510.41	1331.75	73.4729	1479.98	-0.0587009	0.000376103	3.05945	1478.55	151.394	0.861253	624.774	508.832	125.572	320.881	4740.57	144.731	1390.25	1.47107	3885.73	1202.22	1210.44	651.117	786.202	1125.42	247.834	3432.56	1842.29	171.478	659.889	329.913	-0.157979	-0.151523	22.8566	37.8328	-0.0314917	-0.127202	1192.48	11.3868	299.563	809.117	797.178	2926.74	2357.51	-0.873626	-0.0330709	41.8698	122.989	270.5	15.0038	5.38333	-0.0280229	26.4581	18.5601	-0.0174921	-0.327711	2518.91	5417.48	-0.369237	-0.333782	10686	62.1106	10688.5	2325.93	-2.40249	-0.151841	5684.88	8400.71	-0.40985	-1.01495	36.1146	
3.46	3027.24	710.257	191.878	10.8733	1152.41	-0.125578	59.5226	6617.17	1365.66	710.221	514.698	1347.95	60.8177	1250.71	-0.0632804	-0.00133017	2.19665	1610.89	174.548	0.467389	695.183	559.55	138.436	290.681	4752.8	146.361	1401.03	1.14844	3865.46	1424.71	1210.4	483.518	695.24	1241.44	269.351	3353.38	1862.54	231.732	849.603	429.283	-0.158121	-0.151772	17.2278	29.9425	-0.0317033	-0.127331	1161.94	15.6078	297.639	801.419	799.122	2931.47	2480.68	-0.874585	-0.038978	31.4361	104.569	282.126	14.7483	2.96823	-0.0259205	29.7861	19.8769	-0.0178091	-0.316718	2519.55	5417.5	-0.369198	-0.323156	10686.1	67.6136	10688.3	2296	-2.40355	-0.151823	5659.63	8400.73	-0.4235	-1.04163	17.3076	
3.465	2997.68	679.629	183.076	9.41266	1104.05	-0.127358	49.818	5788.83	1335.56	693.213	520.576	1370.06	50.769	1039.43	-0.0678557	-0.00776847	1.4916	1758.47	202.967	0.194691	773.37	617.102	152.983	261.506	4752.59	148.599	1415.76	0.874977	3829.5	1675.74	1210.35	372.056	612.031	1418.41	290.705	3249.44	1890.23	299.736	1058.08	539.757	-0.158236	-0.152021	12.1488	22.5844	-0.0319148	-0.127457	1115.8	19.6586	275.1	788.721	858.979	2940.41	2601.36	-0.875334	-0.0452318	21.9449	86.4177	292.022	14.5318	1.07185	-0.0239601	32.8436	20.5405	-0.018306	-0.305279	2520.6	5417.52	-0.369159	-0.312137	10686.3	73.1339	10687.8	2247.97	-2.40476	-0.151804	5615.89	8400.76	-0.435582	-1.04426	5.99361	
3.47	2946.07	646.509	176.012	8.15775	1059.46	-0.129137	41.7475	5050.68	1299.16	672.709	527.858	1397.52	42.6783	846.569	-0.0724268	-0.0142019	0.932038	1924.04	237.315	0.0388901	859.216	681.742	169.274	233.925	4739.01	151.377	1434.05	0.645355	3777.47	1952.03	1210.3	294.067	535.245	1657.63	311.121	3124.99	1924.57	373.95	1280.6	659.006	-0.158335	-0.152269	7.79108	15.93	-0.0321262	-0.12758	1055.45	23.3566	249.355	775.33	946.103	2954.23	2721.01	-0.875901	-0.0517754	13.7626	68.9638	299.741	14.5734	0.0678675	-0.0221932	35.4784	20.4489	-0.0189387	-0.293523	2522.06	5417.55	-0.36912	-0.300841	10686.5	78.6401	10687.3	2183.04	-2.40615	-0.151785	5555.11	8400.81	-0.446151	-1.04306	0.780285	
3.475	2871.43	611.491	170.839	7.07355	1019	-0.130913	34.982	4406.05	1257.67	649.385	536.346	1429.74	36.0842	673.119	-0.0769937	-0.0206296	0.508545	2111.3	278.411	-0.00385242	953.331	753.825	187.426	208.428	4710.12	154.621	1455.5	0.455283	3709.27	2238.3	1209.15	236.516	464.556	1959.87	329.874	2984.58	1964.69	451.244	1507.39	781.885	-0.158424	-0.150038	4.30404	10.1794	-0.0323375	-0.127702	983.7	26.5899	229.101	761.728	986.603	2973.47	2841.42	-0.876332	-0.0585448	7.23126	52.6563	304.925	14.234	-0.00329118	-0.0206633	37.5599	19.5628	-0.0196766	-0.281575	2523.85	5417.59	-0.369081	-0.289377	10686.7	84.1407	10686.5	2102.93	-2.40777	-0.151767	5470.96	8400.88	-0.455272	-1.03889	-0.00333002	
3.48	2773.71	575.158	167.707	6.13213	982.893	-0.132688	29.2717	3847.1	1212.29	623.939	545.836	1466.03	30.6493	521.426	-0.0815564	-0.0270512	0.214248	2325.03	327.225	0.000994682	1058.7	833.856	207.605	185.403	4662.93	158.257	1479.69	0.301355	3625.12	2513.17	1198.26	192.454	400.878	2324.89	346.304	2833.02	2009.71	528.198	1728.16	902.92	-0.158509	-0.143784	1.80333	5.5409	-0.0325487	-0.127823	904.893	29.2978	214.006	746.427	991.366	2998.53	2964.03	-0.876674	-0.0654661	2.66061	37.9417	307.31	9.14159	-0.0102015	-0.0194054	38.9866	17.9182	-0.0204877	-0.269555	2525.8	5417.64	-0.369042	-0.277845	10687	89.6439	10685.7	2010.17	-2.40966	-0.151748	5371.9	8400.96	-0.463014	-1.06593	-0.0202266	
3.485	2653.73	538.078	166.779	5.59674	951.281	-0.134461	24.4246	3355.52	1164.22	597.061	556.118	1505.71	26.1242	396.36	-0.086115	-0.0334668	0.0445679	2570.98	384.911	-0.0028272	1178.66	922.493	230.024	165.097	4593.53	162.212	1506.15	0.180913	3525.45	2760.49	1175.57	157.956	344.922	2750.7	359.833	2674.94	2058.71	602.401	1936.17	1018.49	-0.158277	-0.13498	0.364104	2.28881	-0.0327598	-0.127943	823.866	31.4581	208.694	735.049	990.739	3029.53	3089.62	-0.87696	-0.0724706	0.296114	25.2245	306.74	4.82974	-0.0174341	-0.0184448	39.6904	15.6431	-0.0213414	-0.257572	2527.6	5417.7	-0.369003	-0.266337	10687.3	95.1499	10684.7	1908.01	-2.41191	-0.151729	5257.37	8401.06	-0.469438	-1.0756	-0.0348204	
3.49	2513.16	500.707	168.237	6.66609	924.273	-0.136232	20.292	2915.14	1114.59	569.411	566.984	1548.06	22.3226	303.252	-0.0906694	-0.0398764	-0.00427066	2855.71	452.798	-0.00677775	1316.33	1021.64	255.142	147.461	4497.34	166.413	1534.46	0.0919489	3411.16	2969.66	1141.27	130.529	297.119	3232.46	369.975	2514.67	2110.79	672.277	2127.44	1126.41	-0.155865	-0.125088	0.000170591	0.53151	-0.0329708	-0.128063	744.748	33.0818	213.703	727.318	997.794	3066.29	3219.29	-0.877214	-0.0795	-0.00350702	14.8497	303.159	1.86678	-0.0249338	-0.0177979	39.333	9.06619	-0.0222086	-0.245725	2528.84	5417.77	-0.368965	-0.254931	10687.6	100.652	10683.7	1800.45	-2.4146	-0.151711	5115.99	8401.18	-0.474627	-1.06936	-0.0472513	
3.495	2354.72	463.378	172.299	9.62952	901.978	-0.138001	16.7568	2532.76	1064.42	541.587	578.231	1592.38	19.1035	237.033	-0.0952196	-0.04628	0.00118412	3186.34	532.312	-0.010725	1474.34	1135.73	283.888	132.234	4369.77	170.792	1564.19	0.0330324	3283.51	3133.4	1096.12	108.441	257.622	3762.02	376.343	2356.06	2165.07	737.048	2302.7	1226.01	-0.152547	-0.114468	-0.00390157	-0.000108275	-0.0331817	-0.128182	670.097	34.2083	232.435	712.15	973.512	3108.17	3353.87	-0.877449	-0.0865032	-0.0142678	7.08805	296.538	0.324091	-0.0326324	-0.0174717	37.8306	3.36347	-0.0230634	-0.234099	2529.15	5417.85	-0.368926	-0.243697	10687.8	106.141	10682.5	1691.95	-2.41783	-0.151692	4945.03	8401.3	-0.478674	-1.07124	-0.0577073	
3.5	2182.31	426.297	179.224	14.4955	884.531	-0.139768	13.7265	2208.76	1014.6	514.107	589.672	1637.99	16.3591	189.516	-0.0997658	-0.0526777	-0.00285511	3569.74	624.885	-0.0146687	1654.76	1269.94	317.525	119.136	4206.84	175.28	1594.9	0.00326268	3144.12	3246.68	1041.41	90.4406	226.342	4332.79	378.649	2202.27	2220.69	797.887	2471.58	1320.62	-0.148959	-0.103001	-0.00797158	-0.00352424	-0.0333925	-0.128301	601.236	34.8987	237.767	686.837	936.38	3153.08	3493.06	-0.877673	-0.0934344	-0.0249242	2.12655	285.337	-0.000342466	-0.0404504	-0.0174616	35.6791	0.595384	-0.0238833	-0.222767	2529.14	5417.94	-0.368887	-0.232691	10688.1	111.603	10681.3	1586.99	-2.42171	-0.151674	4750.37	8401.42	-0.481692	-1.07541	-0.066386	
3.505	2001.54	389.62	189.316	21.6282	872.119	-0.141533	11.1272	1939.88	965.879	487.394	601.132	1684.21	14.0052	154.224	-0.104308	-0.0590695	-0.00710416	4009.78	731.827	-0.0186087	1858.8	1429.72	357.687	107.914	4006.08	179.818	1626.18	-0.000302991	2994.99	3308.93	978.909	75.6125	203.019	4951.72	376.711	2055.59	2276.84	857.422	2638.76	1414.01	-0.145067	-0.0906392	-0.012209	-0.00865041	-0.0336032	-0.12842	538.54	35.2289	227.723	658.308	907.264	3197.61	3635.39	-0.877891	-0.100255	-0.0354292	0.0623665	271.758	-0.00580422	-0.0483108	-0.0176126	32.4629	-0.000121316	-0.0246488	-0.211784	2529.16	5418.03	-0.368848	-0.221959	10688.4	117.028	10678.8	1488.15	-2.42634	-0.151655	4536.96	8401.56	-0.48382	-1.07721	-0.0734807	
3.51	1820.08	353.528	202.924	31.8211	864.987	-0.143296	8.89942	1721.31	918.888	461.766	612.447	1730.41	11.976	127.084	-0.108846	-0.0654555	-0.0113497	4508.26	854.149	-0.022545	2081.7	1620.45	406.362	98.3275	3767.52	184.347	1657.61	-3.25694e-05	2838.4	3326.2	910.802	63.2819	187.326	5627.62	370.459	1917.53	2332.75	916.115	2802.4	1506.16	-0.140854	-0.077444	-0.0164698	-0.0144656	-0.0338138	-0.128539	481.677	35.2834	214.291	629.822	890.59	3239.32	3778.88	-0.878105	-0.106936	-0.0457532	-0.00622447	253.745	-0.0114191	-0.0561503	-0.0178135	29.7595	-0.00469044	-0.0253431	-0.201193	2529.18	5418.12	-0.36881	-0.211532	10688.7	122.404	10458.3	1396.9	-2.43181	-0.151456	4310.54	8401.69	-0.48522	-1.06705	-0.0791874	
3.515	1647.36	318.131	220.433	45.9915	863.449	-0.145057	6.99538	1546.96	874.155	437.471	623.472	1776	10.2191	105.678	-0.113379	-0.0718356	0.957499	5065.14	992.395	-0.0264777	2308.52	1846.92	465.832	90.1693	3494.85	188.815	1688.81	-0.00103128	2676.79	3300.71	839.691	52.9458	178.972	6367.82	359.943	1789.06	2387.75	972.997	2959.44	1595.34	-0.136348	-0.0634887	-0.0205271	-0.0205111	-0.0340243	-0.128657	429.894	35.1504	202.468	602.089	883.188	3277.44	3921.26	-0.878317	-0.113461	-0.0558759	-0.0154493	234.188	-0.017297	-0.0639228	-0.0181068	27.1085	-0.00926751	-0.0259516	-0.191018	2529.21	5418.21	-0.368771	-0.201432	10688.9	127.727	10067.3	1314.09	-2.4382	-0.149799	4079.45	8401.83	-0.486056	-1.05094	-0.0836827	
3.52	1487.91	283.344	242.244	64.9975	867.891	-0.146816	5.37635	1409.52	831.994	414.695	634.082	1820.46	8.69264	88.5033	-0.117909	-0.0407756	13.9114	5678	1146.87	-0.0304067	2524.64	2110.83	538.49	83.2821	3196.58	193.178	1719.42	-0.00202927	2512.59	3232.48	768.536	44.2231	177.777	7174.58	345.336	1670.36	2441.29	1027.44	3108.69	1680.69	-0.131564	-0.0488167	-0.0242653	-0.0263695	-0.0342347	-0.128776	382.272	34.9179	191.803	575.797	881.216	3312.28	4060.69	-0.878527	-0.119814	-0.0657785	-0.0242935	215.405	-0.0234556	-0.0716001	-0.0184166	23.5036	-0.0140742	-0.0264615	-0.181272	2529.24	5418.3	-0.368732	-0.191672	10689.1	132.995	9636.21	1240.06	-2.44553	-0.14673	3853.04	8401.96	-0.48645	-1.04055	-0.0870656	
3.525	1342.69	248.858	268.747	89.618	878.763	-0.148573	4.01103	1301.85	792.478	393.516	644.177	1863.34	7.36264	74.5458	-0.122435	0.82842	43.7437	6341.72	1321.71	-0.0343322	2717.22	2395.31	625.941	77.5682	2887.69	197.393	1749.13	-0.0030264	2348	3123.82	700.634	36.8217	183.701	8040.67	326.971	1560.69	2492.84	1079.53	3250.69	1762.43	-0.12651	-0.0334548	-0.0276703	-0.0318468	-0.034445	-0.126671	338.108	34.6706	181.639	551.699	882.18	3344.35	4195.24	-0.878737	-0.125982	-0.0754484	-0.0327354	196.86	-0.0298695	-0.0791705	-0.0186795	19.6308	-0.0191705	-0.0268603	-0.171952	2529.26	5418.39	-0.368694	-0.182252	10689.3	138.214	9189.63	1174.72	-2.45382	-0.143155	3640.52	8402.08	-0.48648	-1.03707	-0.08935	
3.53	1212.08	214.719	300.283	120.516	896.647	-0.150328	2.87423	1218.11	755.619	373.896	653.68	1904.29	6.20161	63.0765	-0.126956	19.2602	92.8501	7048.22	1524.37	0.000251612	2875.75	2674.33	729.07	72.9984	2587.52	201.429	1777.68	-0.00402261	2184.83	2979.08	638.732	30.5145	196.842	8949.78	305.367	1459.7	2541.98	1129.22	3385.57	1840.56	-0.121196	-0.0174257	-0.0307632	-0.0369085	-0.0346552	-0.122054	297.522	34.4876	172.199	530.413	884.749	3373.83	4323.04	-0.878945	-0.131958	-0.0848833	-0.040767	177.569	-0.0365043	-0.0866375	-0.0188862	15.9387	-0.0245522	-0.0271346	-0.163046	2529.28	5418.46	-0.368655	-0.173165	10689.5	143.395	8745.31	1117.7	-2.46303	-0.139776	3449.93	8402.19	-0.486235	-1.03731	-0.0905376	
3.535	1095.71	181.467	337.094	158.143	921.899	-0.152081	1.94581	1153.62	721.472	355.786	662.538	1943.01	5.18701	53.5568	-0.131474	61.6652	162.781	7795.93	1762.89	11.8814	2992.89	2922.47	848.276	69.553	2305.52	205.258	1804.86	-0.0050477	2024.09	2803.26	583.201	25.123	217.387	9878.81	281.269	1367.33	2588.36	1176.04	3512.27	1914.34	-0.115633	-0.000749272	-0.0335641	-0.0415866	-0.0348731	-0.116797	260.656	34.4401	163.939	512.439	888.181	3400.53	4441.57	-0.879153	-0.137747	-0.0940926	-0.0483913	157.439	-0.0433313	-0.0940186	-0.0190547	12.4402	-0.0301996	-0.0272719	-0.154527	2529.3	5418.53	-0.368616	-0.164397	10689.6	148.555	8322.25	1068.47	-2.47291	-0.136821	3287.12	8402.28	-0.485843	-1.04003	-0.0907083	
3.54	992.482	149.69	379.272	202.683	955.204	-0.153832	1.20992	1104.72	690.031	339.175	670.72	1979.28	4.30031	45.583	-0.135335	128.351	253.542	8590.57	2044.67	53.561	3065.39	3116.33	983.481	67.202	2046.87	208.859	1830.48	0.367879	1864.24	2601.88	533.861	20.5059	245.534	10807.1	255.679	1283.43	2631.73	1219.13	3628.68	1982.38	-0.10983	3.57145	-0.0359519	-0.0458836	-0.0353273	-0.111358	227.488	34.5923	157.187	498.203	891.963	3424.05	4548.14	-0.879361	-0.143351	-0.103089	-0.0556213	136.989	-0.0503297	-0.101343	-0.0192044	9.13353	-0.0360931	-0.0272571	-0.146364	2529.32	5418.58	-0.368578	-0.155927	10689.8	153.714	7931.98	1026.37	-2.4834	-0.134263	3154.82	8402.36	-0.485529	-1.04541	-0.0902016	
3.545	900.633	120	426.7	254.099	997.112	-0.155581	0.65446	1068.5	661.269	324.028	678.215	2012.97	3.5262	38.8502	-0.0895633	217.987	363.952	9427.72	2375.2	124.336	3094.73	3235.92	1134.53	65.9092	1814.25	212.217	1854.43	13.5512	1704.94	2381.51	490.392	16.5503	281.413	11717.8	229.736	1207.76	2671.91	1257.34	3731.83	2042.81	-0.103799	15.8244	-0.0376101	-0.0494663	-0.0359392	-0.105622	197.878	35.0009	152.166	488.081	895.67	3443.74	4639.64	-0.879568	-0.148803	-0.111896	-0.0624803	116.765	-0.0574853	-0.108647	-0.019347	6.1347	-0.0422145	-0.027076	-0.142903	2529.33	5418.62	-0.368539	-0.147732	10689.9	158.894	7579.25	990.736	-2.49451	-0.132809	3055.2	8402.41	-0.485567	-1.05634	-0.0896468	
3.55	817.897	93.018	479.011	312.04	1048.03	-0.157328	0.270573	1042.71	635.131	310.303	685.025	2044	2.85201	33.1252	-0.0386676	327.962	491.745	10291.8	2754.68	223.126	3096.01	3267.89	1306.44	65.6352	1607.3	215.324	1876.64	53.9744	1548.37	2150.2	452.372	13.1659	325.012	12597.2	204.192	1140.03	2708.83	1289.25	3817.99	2093.34	-0.0975533	35.8944	-0.0384196	-0.0522106	-0.0365502	-0.0995894	171.611	35.7145	149.084	482.428	898.938	3458.56	4713.01	-0.879775	-0.154173	-0.120566	-0.0690017	97.1867	-0.0647891	-0.112915	-0.0194876	3.5965	-0.0485472	-0.0267197	-0.142157	2529.34	5418.65	-0.368501	-0.139783	10690	164.116	7265.83	960.906	-2.50622	-0.132158	2990.56	8402.44	-0.486159	-1.08256	-0.0896828	
3.555	742.524	69.639	535.563	375.771	1108.15	-0.159073	0.0524144	1025.65	611.536	297.944	691.167	2072.35	2.2672	28.2277	0.0325411	454.852	634.145	11158.7	3177.03	346.389	3096.15	3268.16	1504.94	66.3382	1421.37	218.176	1897.07	116.596	1397.09	1917.98	419.315	10.2796	376.112	13434.5	179.309	1079.83	2742.48	1313.41	3883.28	2131.62	-0.0911053	62.9498	-0.0389305	-0.0543639	-0.0370713	-0.0933204	148.424	36.7744	148.156	481.614	901.472	3467.16	4765.19	-0.879981	-0.159526	-0.129156	-0.0752262	78.6105	-0.0722357	-0.115903	-0.0196278	1.65264	-0.0550766	-0.0261877	-0.140491	2529.34	5418.65	-0.368462	-0.132053	10690	169.399	6992.07	936.264	-2.51846	-0.131516	2964.14	8402.45	-0.487405	-1.1038	-0.0907791	
3.56	674.38	51.9766	595.596	444.164	1177.42	-0.160815	-0.00573624	1016.19	590.376	286.887	696.667	2098.05	1.76305	24.0165	8.43567	595.346	787.796	12000.2	3633.83	489.525	3096.25	3268.4	1732.09	67.9762	1250.51	220.772	1915.7	193.331	1253.59	1694.56	390.712	7.83266	434.271	14222.1	155.359	1026.68	2772.91	1328.5	3924.19	2155.54	-0.085733	94.6208	-0.0394909	-0.0561634	-0.0374887	-0.086852	128.034	38.2142	149.597	486.052	903.03	3468.27	4793.03	-0.880187	-0.164903	-0.137721	-0.0811998	61.3897	-0.0798228	-0.117455	-0.0197678	0.418388	-0.0617892	-0.0254877	-0.138747	2529.34	5418.64	-0.368424	-0.124515	10690.1	174.755	6756.7	916.219	-2.5311	-0.130523	2981.12	8402.44	-0.48933	-1.12499	-0.0932068	
3.565	613.366	39.6731	659.04	515.747	1255.28	-0.162556	0.00156273	1013.67	571.527	277.06	701.559	2121.18	1.33234	20.38	30.6506	746.245	948.769	12789.1	4115.3	647.997	3096.33	3268.62	1986.16	70.5052	1093.27	223.118	1932.57	280.965	1120.23	1483.42	366.094	5.77747	498.814	14954.8	132.63	980.068	2800.21	1333.59	3938.21	2163.61	-0.0798063	132.593	-0.0400837	-0.0577364	-0.0378246	-0.0802165	110.157	40.0605	153.613	496.232	903.406	3460.9	4793.4	-0.880393	-0.170333	-0.146313	-0.0869709	45.8554	-0.0875499	-0.118118	-0.0199078	-0.000330516	-0.0686698	-0.024632	-0.137215	2529.33	5418.61	-0.368385	-0.117141	10690.1	180.194	6557.56	900.215	-2.54398	-0.129275	3049.58	8402.4	-0.491926	-1.14395	-0.0970916	
3.57	559.157	31.1729	725.978	588.915	1340.45	-0.164294	-0.00398633	1018.02	554.847	268.382	705.88	2141.83	0.969125	17.229	64.7556	904.009	1112.91	13503.9	4611.44	817.01	3096.39	3268.81	2262.54	73.8815	951.435	225.221	1947.72	378.923	998.949	1284.34	345.068	13.2449	568.92	15629.4	111.033	939.452	2824.53	1328.26	3924.21	2155.19	-0.073232	176.828	-0.040454	-0.059093	-0.038107	-0.0734487	94.5308	42.3303	160.405	512.751	902.409	3444.3	4763.24	-0.880598	-0.175842	-0.154982	-0.0925884	32.285	-0.0954167	-0.118471	-0.0200476	-0.00305663	-0.0733802	-0.0236363	-0.135473	2529.31	5418.55	-0.368347	-0.109908	10690.1	185.717	6391.48	887.714	-2.5569	-0.128045	3181.39	8402.32	-0.495188	-1.16317	-0.10247	
3.575	511.24	25.0923	796.146	663.239	1430.91	-0.16603	0.000752595	1029.7	540.186	260.768	709.673	2160.13	0.668549	14.4917	108.519	1065.04	1276.11	14132.4	5113.66	991.726	3096.43	3268.98	2546.67	78.0612	826.284	227.093	1961.22	496.052	891.127	1098.42	327.342	78.1464	644.156	16244.4	90.5737	904.268	2846.03	1312.68	3882.59	2130.51	-0.0663396	225.738	-0.0406042	-0.0602673	-0.0383573	-0.0665839	80.9201	45.0295	170.161	536.339	899.849	3417.79	4699.66	-0.880803	-0.181456	-0.163774	-0.0981	20.9002	-0.103422	-0.118793	-0.0201873	-0.00661474	-0.0759661	-0.0225188	-0.133053	2529.29	5418.48	-0.368309	-0.102771	10690.2	191.319	6254.58	878.188	-2.82318	-0.126987	3388.66	8402.22	-0.499111	-1.17972	-0.109322	
3.58	468.977	20.5498	868.821	738.816	1524.01	-0.167765	13.2903	1049.8	527.383	254.131	712.98	2176.23	0.426723	16.1401	159.584	1225.94	1435.26	14673.1	5623.77	1167.64	3096.45	3269.13	2817.56	83.0015	718.411	228.745	1973.16	639.734	797.182	925.883	312.797	269.855	725.855	16799.7	71.7143	873.968	2864.9	1287.57	3815.3	2090.76	-0.0590197	275.674	-0.0406209	-0.0612593	-0.0385892	-0.0596562	69.1016	48.1484	183.034	567.872	895.522	3380.61	4600.3	-0.881007	-0.187202	-0.172734	-0.103549	11.871	-0.111566	-0.119149	-0.020327	-0.0102039	-0.0777812	-0.0212992	-0.129692	2529.26	5418.37	-0.36827	-0.0959165	10690.2	196.988	6142.65	871.121	-2.99506	-0.126184	3677.68	8402.08	-0.503672	-1.19337	-0.117581	
3.585	431.691	17.0414	942.768	815.132	1616.67	-0.169496	96.9106	1080.05	516.275	248.382	715.845	2190.29	0.240607	34.3584	215.628	1383.61	1590.23	15132.9	6144.67	1341.85	3096.46	3269.26	3062.17	88.6757	627.631	230.193	1983.63	808.909	716.035	764.216	301.433	581.955	816.056	17296.1	54.8666	848.022	2881.36	1254.13	3725.48	2037.83	-0.0511865	333.797	-0.0409853	-0.0624085	-0.0388107	-0.052698	58.8578	51.66	199.222	608.337	889.212	3331.82	4463.53	-0.881211	-0.193102	-0.181897	-0.108974	5.32208	-0.119632	-0.119531	-0.0204666	-0.0138202	-0.0807625	-0.0199993	-0.12531	2529.22	5418.24	-0.368232	-0.0888393	10690.2	198.583	6051.32	866.018	-3.05142	-0.12555	4045.18	8401.9	-0.508821	-1.20605	-0.127108	
3.59	398.702	14.2718	1016.31	891.08	1705.5	-0.171226	263.048	1122.9	506.698	243.433	718.312	2202.48	0.107927	87.136	274.517	1535.39	1740.42	15527.8	6675.41	1516.14	3096.47	3269.38	3273.08	95.1063	552.631	231.453	1992.75	996.024	646.14	614.712	293.234	967.894	917.176	17735.9	40.5345	825.921	2895.6	1213.8	3616.9	1974	-0.0432358	405.107	-0.0414294	-0.0639734	-0.0390262	-0.0457399	49.9803	55.5209	219.079	658.751	880.703	3270.31	4288.83	-0.881415	-0.199175	-0.191296	-0.114405	1.34241	-0.128054	-0.119921	-0.0206061	-0.0174641	-0.0846186	-0.0186439	-0.119862	2529.18	5418.09	-0.368194	-0.0817584	10690.2	198.755	5976.32	862.408	-3.05478	-0.125033	4478.3	8401.67	-0.514469	-1.23439	-0.13767	
3.595	369.354	12.0518	1087.48	965.065	1787.19	-0.172954	478.745	1181.67	498.491	239.197	720.424	2212.98	0.0271177	189.069	334.402	1679.11	1884.14	15883.7	7213.24	1692.19	3096.47	3269.49	3446.07	102.355	490.92	232.541	2000.63	1195.9	586.037	479.772	288.164	1411.65	1031.9	18122.2	29.6118	807.186	2907.85	1168	3493.28	1901.59	-0.0353684	490.733	-0.041569	-0.0654428	-0.0392383	-0.0388094	42.2767	59.6754	243.155	720.03	869.787	3195.3	4076.83	-0.881618	-0.205433	-0.20095	-0.119863	-0.000990927	-0.136736	-0.120311	-0.0207456	-0.0211402	-0.0873938	-0.0172537	-0.113614	2529.13	5417.9	-0.368155	-0.0748089	10690.1	201.283	5913.62	859.86	-3.04668	-0.124656	4953.21	8401.4	-0.520506	-1.25654	-0.149066	
3.6	342.976	10.2496	1154.28	1035.25	1858.68	-0.174679	726.252	1260.75	491.494	235.59	722.223	2221.98	-0.0028574	344.097	393.773	1813.19	2019.1	16242.5	7755.41	1870.23	3096.49	3269.61	3577.83	110.519	440.12	233.476	2007.4	1406.75	534.347	361.386	286.167	1916.83	1163.04	18458.9	22.0248	791.367	2918.33	1117.88	3357.56	1822.43	-0.0276033	591.941	-0.0414642	-0.0663624	-0.0394484	-0.0319302	35.5771	64.0611	272.316	792.861	856.258	3106.21	3830.43	-0.881821	-0.211879	-0.21087	-0.125361	-0.00840155	-0.145519	-0.1207	-0.0208849	-0.0248574	-0.0886389	-0.0158362	-0.106741	2526.99	5417.69	-0.368117	-0.0679389	10690.1	206.293	5859.5	857.994	-3.04101	-0.124894	5426.72	8401.07	-0.52686	-1.28713	-0.161182	
3.605	318.974	8.76954	1214.88	1099.88	1917.53	-0.176402	1005.25	1365.84	485.553	232.53	723.749	2229.65	0.0003811	553.153	451.493	1936.57	2142.92	16630.9	8300.31	2049.61	3096.51	3269.72	3664.13	119.737	398.193	234.274	2013.19	1627.46	489.762	263.961	287.166	2481.36	1313.57	18750.4	16.8872	778.048	2927.25	1064.22	3211.63	1737.79	-0.0199488	710.294	-0.0413225	-0.0667282	-0.0396574	-0.0251217	29.7371	68.6152	307.717	877.213	839.944	3002.88	3555.44	-0.882023	-0.218511	-0.221053	-0.130899	-0.018246	-0.154381	-0.121088	-0.0210243	-0.0286281	-0.0906825	-0.0143825	-0.0990626	2517.55	5417.45	-0.368079	-0.0611067	10690.1	212.146	5810.69	856.494	-3.03877	-0.125924	5818.9	8400.69	-0.533506	-1.30854	-0.173947	
3.61	296.869	7.54077	1267.83	1157.51	1962.1	-0.178123	1314.45	1504.24	480.516	229.939	725.041	2236.18	-0.00327653	819.606	506.809	2049.05	2253.59	17067.9	8848.52	2229.25	3096.55	3269.85	3697.8	130.185	363.411	234.954	2018.13	1857.88	451.1	193.356	291.064	3100.07	1485.83	19001.6	13.3096	766.837	2934.83	1007.39	3056.26	1648.3	-0.0124018	845.554	-0.0412042	-0.0669078	-0.0398657	-0.0183984	24.6383	73.2784	350.515	970.449	820.729	2885.5	3260.57	-0.882225	-0.225323	-0.231488	-0.136471	-0.028029	-0.163368	-0.121475	-0.0211635	-0.0324678	-0.0935741	-0.0128799	-0.0907919	2499.55	5417.18	-0.368041	-0.0543138	10690.1	217.817	5764.53	855.12	-3.03811	-0.127617	5956.38	8400.25	-0.540443	-1.33096	-0.187267	
3.615	276.293	6.51065	1312.21	1207.24	1991.66	-0.179841	1648.72	1684.98	476.236	227.738	726.139	2241.75	3.56442	1148.35	559.28	2151.13	2349.81	17567.9	9413.15	2408.09	3096.61	3269.98	3698.08	142.07	334.353	235.535	2022.35	2094.27	417.35	145.489	297.734	3805.52	1681.64	19218.1	10.6999	757.369	2941.29	947.391	2891.17	1553.97	-0.00494924	997.328	-0.0410744	-0.0672775	-0.0400736	-0.0117689	20.1863	77.9985	401.566	1068.61	798.555	2754.67	2956.7	-0.882427	-0.232304	-0.242154	-0.142062	-0.0377983	-0.172512	-0.121861	-0.0213027	-0.0363944	-0.096703	-0.0113298	-0.0821635	2472.19	5416.88	-0.368003	-0.0475683	10690.1	223.161	5719.04	853.768	-3.03779	-0.129809	5957.37	8399.75	-0.547656	-1.34472	-0.201017	
3.62	256.966	5.63953	1347.82	1248.74	2006.51	-0.181557	2004.36	1917.84	472.571	225.853	727.079	2246.54	29.5386	1540.42	608.744	2243.49	2431.2	18138	10002.2	2585.33	3096.69	3270.12	3698.33	155.609	309.873	236.034	2025.98	2333.48	387.697	112.907	307.003	4661.6	1902.99	19405.9	8.71925	749.299	2946.83	884.46	2716.71	1455.13	0.0558314	1166.27	-0.0409012	-0.0679304	-0.0402812	-0.00523623	16.3079	82.7322	461.04	1167.08	773.427	2611.76	2655.26	-0.882628	-0.239441	-0.253024	-0.147647	-0.0476118	-0.181816	-0.122247	-0.0214418	-0.0404275	-0.0989797	-0.00974308	-0.0731606	2435.01	5416.55	-0.367965	-0.0408725	10690	228.304	5672.94	852.421	-3.03739	-0.132279	5958.37	8399.19	-0.555093	-1.35716	-0.215052	
3.625	238.677	4.89719	1375.07	1282.32	2007.86	-0.183271	2394.73	2211.14	469.379	224.212	727.896	2250.73	92.9506	1989.95	655.309	2327.02	2498.35	18776.9	10617.9	2761.44	3096.78	3270.27	3698.57	171.016	289.04	236.469	2029.15	2573.27	361.59	89.7572	318.641	5726.77	2152.03	19571.1	7.17554	742.298	2951.67	819.608	2535.52	1353.38	1.78293	1353.86	-0.0406686	-0.0687315	-0.0404887	0.00293579	12.9475	87.4471	528.422	1259.94	745.395	2459.03	2365.08	-0.882829	-0.246713	-0.264069	-0.153196	-0.0575351	-0.191272	-0.122632	-0.0215808	-0.0445872	-0.100312	-0.00812955	-0.0635375	2387.93	5416.19	-0.367926	-0.0342273	10690	233.281	5625.74	851.104	-3.03689	-0.134792	5959.36	8398.56	-0.562647	-1.36414	-0.229244	
3.63	221.258	4.26023	1394.99	1308.83	1997.75	-0.184983	2844.39	2571.28	466.524	222.743	728.627	2254.49	190.653	2494.84	699.322	2402.94	2552.81	19473.8	11254.6	2939.45	3096.89	3270.43	3698.8	188.486	271.115	236.859	2032.01	2812.16	338.472	72.522	332.345	7038.98	2431.29	19720.5	5.95087	736.051	2956.01	753.833	2351.19	1250.67	5.72377	1565.37	-0.0403622	-0.0695365	-0.0406959	1.08699	10.063	92.1224	603.02	1338.41	714.57	2298.09	2090.44	-0.883029	-0.254097	-0.275255	-0.158674	-0.0676399	-0.20087	-0.123017	-0.0217198	-0.0488928	-0.102447	-0.00649419	-0.0531252	2331.24	5415.82	-0.367888	-0.0276333	10690	238.045	5577.64	849.882	-3.03636	-0.137182	5960.33	8397.88	-0.57015	-1.36664	-0.243496	
3.635	204.565	3.71038	1409.06	1329.62	1978.9	-0.186692	3374.85	3001.99	463.871	221.377	729.306	2258.01	315.223	3090.1	741.357	2472.81	2596.97	20209	11904.7	3120.76	3097.01	3270.6	3699.04	208.102	255.451	237.222	2034.67	3049.83	317.724	59.2488	347.739	8600.27	2743.45	19860.7	4.96589	730.256	2960.05	684.749	2162.77	1143.91	11.634	1806.36	-0.0399652	-0.0702649	-0.0409031	3.96005	7.62202	96.7497	684.13	1385.06	681.139	2130.49	1831.24	-0.883229	-0.261559	-0.28654	-0.164038	-0.0780024	-0.210598	-0.123402	-0.0218587	-0.0533617	-0.105308	-0.00483794	-0.041925	2265.67	5415.42	-0.36785	-0.02109	10689.9	242.551	5529.76	848.882	-3.03582	-0.139368	5961.28	8397.14	-0.577343	-1.36726	-0.257752	
3.64	188.466	3.23316	1419.13	1346.38	1954.45	-0.188398	4000.66	3500.59	461.286	220.044	729.967	2261.46	463.175	3813.28	782.19	2538.63	2633.86	20955.1	12560.7	3307.22	3097.14	3270.77	3699.27	229.845	241.372	237.575	2037.28	3285.12	298.693	48.8038	364.445	10411.5	3096.15	19998.5	4.16406	724.617	2964	610.336	1959.76	1028.82	19.2976	2079.24	-0.0394596	-0.0708423	-0.0411101	8.4354	5.59739	101.333	771.244	1387.31	645.478	1958.5	1585.28	-0.883429	-0.269066	-0.297879	-0.169243	-0.0887001	-0.220436	-0.123785	-0.0219975	-0.0580079	-0.108297	-0.00315902	-0.0339835	2192.22	5415	-0.367812	-0.0145959	10689.9	246.776	5483.88	848.293	-3.0353	-0.141342	5962.19	8396.35	-0.583775	-1.36752	-0.271996	
3.645	172.843	2.81699	1427.29	1361.03	1927.8	-0.190103	4725.6	4061.01	458.64	218.679	730.643	2265.01	632.371	4677.2	822.768	2602.76	2666.97	21679.7	13215	3501.67	3097.27	3270.94	3699.5	253.641	228.183	237.937	2039.97	3518.08	280.71	40.4595	382.023	12497.4	3502.37	20141.1	3.50406	718.852	2968.06	531.294	1738.5	905.304	28.5231	2383.83	-0.0388279	-0.0712736	-0.041317	14.3676	3.96262	105.888	863.857	1387.5	607.841	1784.93	1360.27	-0.883628	-0.276586	-0.309221	-0.17424	-0.0998094	-0.23036	-0.124169	-0.0221363	-0.0628421	-0.110314	-0.00145341	-0.0259877	2112.19	5414.56	-0.367774	-0.00814823	10689.9	250.71	5442.04	848.346	-3.03478	-0.143131	5963.06	8395.62	-0.589292	-1.36791	-0.286257	
