CEINMS output
datacolumns 6
datarows 92
endheader
time	hip_flexion_l	hip_adduction_l	hip_rotation_l	knee_angle_l	ankle_angle_l	
3.19	42.1744	-125.836	16.6522	-190.597	2.81951	
3.195	76.4317	-170.654	18.3947	-256.997	8.85886	
3.2	34.7967	-132.011	16.3657	-266.626	6.68061	
3.205	-24.4707	-95.242	-20.6515	-265.552	7.09986	
3.21	-10.6923	-91.6105	-47.916	-269.612	9.5869	
3.215	44.2452	-101.54	-52.9929	-275.138	13.1932	
3.22	100.044	-111.325	-52.6424	-276.663	17.1703	
3.225	132.807	-109.245	-50.2528	-274.195	20.0041	
3.23	147.992	-101.011	-49.0205	-275.421	22.061	
3.235	149.706	-97.281	-48.4807	-282.281	23.637	
3.24	142.993	-99.1645	-49.2203	-289.577	25.0015	
3.245	136.453	-85.2816	-54.9378	-286.631	26.2999	
3.25	125.804	-73.5691	-59.6753	-270.888	27.6236	
3.255	111.076	-69.4621	-61.3249	-246.825	29.0195	
3.26	94.7085	-69.6037	-60.5584	-218.361	30.4567	
3.265	78.2302	-71.9577	-58	-186.028	31.7592	
3.27	59.9898	-75.3679	-54.6397	-150.727	32.7573	
3.275	37.6685	-77.2653	-50.7978	-112.428	33.3237	
3.28	10.8489	-72.8514	-46.1584	-70.8838	33.3649	
3.285	-22.3473	-63.5471	-41.5484	-41.5545	29.4365	
3.29	-63.9946	-49.7113	-37.0649	-30.0166	23.4234	
3.295	-116.655	-30.7836	-32.8418	-25.1279	19.8198	
3.3	-176.998	-7.99218	-28.7553	-21.4604	17.1217	
3.305	-234.369	14.8185	-25.1139	-25.167	13.5011	
3.31	-257.169	28.066	-22.1516	-32.046	8.67589	
3.315	-247.884	32.1084	-19.6671	-32.4821	4.36862	
3.32	-225.128	34.9226	-17.9552	-33.1336	2.77698	
3.325	-202.372	33.9936	-6.83504	-33.7561	0.357806	
3.33	-180.187	32.0129	5.34779	-33.9721	-3.72121	
3.335	-160.743	30.5052	13.0232	-33.664	-8.18446	
3.34	-145.127	25.2546	20.9521	-25.8095	-12.3949	
3.345	-132.519	20.8927	24.3589	-11.1369	-15.9601	
3.35	-123.117	18.3361	24.5841	13.803	-19.0475	
3.355	-117.794	18.9627	22.1577	46.8196	-20.6023	
3.36	-117.409	22.663	18.4639	86.5994	-18.2081	
3.365	-122.234	27.9791	13.0721	131.552	-12.3067	
3.37	-136.832	37.1451	10.922	176.082	-5.51039	
3.375	-163.083	53.0667	12.6123	216.105	0.876574	
3.38	-188.42	71.1578	14.3878	257.829	2.20043	
3.385	-217.252	78.7542	11.4677	306.774	1.20567	
3.39	-246.182	77.5771	12.6019	356.069	0.143408	
3.395	-269.314	81.4127	11.4502	390.228	-0.941204	
3.4	-284.155	85.7277	12.433	413.174	-2.02138	
3.405	-314.374	79.3061	12.6815	414.148	-3.03471	
3.41	-338.035	68.6251	14.2857	401.937	-3.95196	
3.415	-345.991	66.0459	11.1615	387.223	-4.64421	
3.42	-357.203	67.6917	16.5417	372.679	-5.16355	
3.425	-380.67	77.9424	27.0999	356.642	-5.88004	
3.43	-396.755	84.0716	33.8107	342.281	-6.68971	
3.435	-404.571	86.6995	37.0524	327.634	-6.99016	
3.44	-404.129	86.6074	37.2285	310.623	-7.13987	
3.445	-398.831	86.5601	35.9912	287.137	-7.09152	
3.45	-389.928	85.8998	32.8771	255.113	-6.84339	
3.455	-378.729	85.1355	28.2673	217.581	-6.61831	
3.46	-366.24	84.9938	23.0246	176.52	-6.08837	
3.465	-353.265	85.7914	17.7861	167.588	-5.59594	
3.47	-340.569	87.4877	12.7569	159.47	-5.99745	
3.475	-328.891	90.2187	8.59565	150.34	-8.14622	
3.48	-316.619	80.4817	8.29865	117.768	-12.8697	
3.485	-298.99	66.0044	6.80102	98.237	-21.6966	
3.49	-286.923	51.5036	6.34358	85.7857	-36.3119	
3.495	-277.453	33.1345	8.65416	68.5398	-54.5516	
3.5	-271.964	15.7838	12.8296	52.5301	-69.9773	
3.505	-272.735	1.36804	18.7128	39.7403	-83.1921	
3.51	-272.079	-9.97167	26.3169	30.2306	-95.6763	
3.515	-264.57	-16.6174	30.9357	18.4622	-107.968	
3.52	-251.37	-19.6039	27.9502	2.7683	-119.704	
3.525	-236.355	-29.7367	29.9122	-11.6571	-130.342	
3.53	-223.631	-24.8936	17.2457	-21.3311	-139.432	
3.535	-210.917	-25.6264	6.12545	-27.9061	-146.627	
3.54	-195.611	-34.3757	-2.11226	-39.2465	-151.736	
3.545	-164.438	-38.2804	-3.15573	-47.9893	-154.61	
3.55	-129.144	-33.7938	-0.442296	-53.9394	-155.205	
3.555	-94.7524	-25.7344	-0.381513	-57.0753	-153.568	
3.56	-61.1777	-17.3566	0.334718	-57.4925	-149.921	
3.565	-30.6145	-9.89977	0.42056	-55.3361	-144.624	
3.57	-3.32169	-4.3037	-0.0329634	-50.9122	-138.082	
3.575	20.2916	-1.23995	-0.195775	-44.6685	-130.185	
3.58	40.0113	-1.24579	-0.157167	-37.0689	-119.795	
3.585	55.6699	-4.66874	-0.225303	-28.7935	-105.807	
3.59	67.2859	-11.557	-0.947392	-27.5732	-88.1198	
3.595	75.2035	-21.6784	-1.88891	-29.6501	-67.5264	
3.6	79.8121	-27.3133	-2.44334	-36.5842	-45.7486	
3.605	85.8639	-27.0392	-2.58497	-47.3282	-26.1071	
3.61	94.2843	-23.7134	-2.57678	-60.0081	-15.548	
3.615	101.227	-18.3954	-3.26095	-74.1759	-10.0176	
3.62	107.191	-11.6166	-4.27982	-89.3034	-4.4422	
3.625	112.046	-2.79213	-5.5887	-105.022	0.867616	
3.63	115.526	8.63394	-7.32817	-119.246	4.77724	
3.635	117.991	23.1929	-9.57948	-131.582	6.81239	
3.64	128.65	38.6864	-9.76109	-142.942	7.87614	
3.645	142.505	55.8797	-9.20178	-152.251	6.95316	
