CEINMS output
datacolumns 81
datarows 92
endheader
time	addbrev_r	addlong_r	addmagDist_r	addmagIsch_r	addmagMid_r	addmagProx_r	bflh_r	bfsh_r	edl_r	ehl_r	fdl_r	fhl_r	gaslat_r	gasmed_r	glmax1_r	glmax2_r	glmax3_r	glmed1_r	glmed2_r	glmed3_r	glmin1_r	glmin2_r	glmin3_r	grac_r	iliacus_r	perbrev_r	perlong_r	piri_r	psoas_r	recfem_r	sart_r	semimem_r	semiten_r	soleus_r	tfl_r	tibant_r	tibpost_r	vasint_r	vaslat_r	vasmed_r	addbrev_l	addlong_l	addmagDist_l	addmagIsch_l	addmagMid_l	addmagProx_l	bflh_l	bfsh_l	edl_l	ehl_l	fdl_l	fhl_l	gaslat_l	gasmed_l	glmax1_l	glmax2_l	glmax3_l	glmed1_l	glmed2_l	glmed3_l	glmin1_l	glmin2_l	glmin3_l	grac_l	iliacus_l	perbrev_l	perlong_l	piri_l	psoas_l	recfem_l	sart_l	semimem_l	semiten_l	soleus_l	tfl_l	tibant_l	tibpost_l	vasint_l	vaslat_l	vasmed_l	
3.19	1.2228	0.918062	1.32951	1.3314	1.37147	0.842303	1.33822	1.43162	1.3219	1.32258	1.43718	1.4851	1.17515	1.32824	1.15469	1.2364	1.29361	1.65007	1.56474	1.33584	1.82057	1.87252	1.73418	1.36123	1.19137	1.25827	1.44522	1.49408	1.16167	0.863297	1.41599	1.41941	1.45433	1.42656	1.00596	1.28731	1.43645	1.16506	1.17371	1.17096	1.07834	1.48682	0.937581	0.859975	0.895841	1.06719	1.09458	1.16239	1.39583	1.62045	1.3787	1.47002	1.35108	0.663109	0.650274	0.743444	0.81479	0.863154	0.581841	0.558815	0.709639	0.755536	0.579693	1.00989	0.981684	1.55331	1.68046	0.656814	0.977029	3.02935	1.34271	1.5026	1.42498	0.479505	0.663109	1.774	1.61199	0.926172	0.638619	0.917529	
3.195	1.21616	0.917547	1.31997	1.32286	1.35898	0.842259	1.33584	1.44158	1.32461	1.3256	1.43669	1.48435	1.17946	1.33359	1.14974	1.23073	1.28506	1.65726	1.5629	1.32901	1.83371	1.88166	1.73643	1.36112	1.2026	1.25753	1.44454	1.48726	1.16926	0.863835	1.42621	1.42016	1.45448	1.42277	1.01725	1.29128	1.43572	1.15843	1.16759	1.16456	1.07461	1.48382	0.932565	0.854717	0.890141	1.05908	1.08288	1.15254	1.39645	1.62134	1.3785	1.46864	1.34218	0.663056	0.649183	0.741288	0.813212	0.869622	0.583266	0.557118	0.718474	0.769068	0.579682	1.0029	0.984306	1.55219	1.67979	0.656761	0.977628	3.06153	1.34113	1.49011	1.4134	0.479384	0.663056	1.77508	1.60987	0.926153	0.651812	0.932168	
3.2	1.20985	0.916957	1.30996	1.31335	1.34637	0.84149	1.33279	1.45142	1.3276	1.32886	1.43612	1.48352	1.18499	1.33994	1.14441	1.22473	1.27613	1.66402	1.56057	1.32165	1.84651	1.89029	1.73808	1.36098	1.21435	1.25666	1.44375	1.479	1.17755	0.864305	1.43641	1.42081	1.45445	1.41853	1.03339	1.29554	1.4349	1.15049	1.16021	1.15691	1.07054	1.48043	0.925657	0.847003	0.88258	1.05081	1.05917	1.13785	1.3971	1.62226	1.37872	1.46263	1.32643	0.662931	0.643314	0.733857	0.800453	0.878196	0.593163	0.555783	0.727398	0.779576	0.57967	0.986671	0.987614	1.55191	1.67941	0.65664	0.978367	3.09312	1.33923	1.47424	1.39996	0.47877	0.662931	1.77622	1.61225	0.925847	0.669412	0.951162	
3.205	1.20412	0.916332	1.29986	1.30351	1.33386	0.840391	1.32923	1.46081	1.33055	1.33204	1.43558	1.48274	1.1913	1.34663	1.13878	1.21853	1.26701	1.66988	1.55766	1.31385	1.85828	1.89787	1.73881	1.36077	1.22625	1.25582	1.44301	1.46966	1.18614	0.865304	1.44644	1.42108	1.45414	1.41439	1.05312	1.29966	1.43411	1.14203	1.15231	1.14878	1.06381	1.47468	0.919785	0.840029	0.875949	1.04364	1.03304	1.12353	1.39158	1.62184	1.38094	1.45628	1.31046	0.662773	0.638565	0.727473	0.789341	0.888968	0.607287	0.555159	0.735241	0.783671	0.579658	0.970971	0.984647	1.55176	1.67906	0.656489	0.970849	3.12415	1.33698	1.45724	1.387	0.478026	0.662773	1.77712	1.61333	0.925412	0.689248	0.972361	
3.21	1.19904	0.9157	1.28973	1.29355	1.32152	0.839218	1.32514	1.46962	1.33313	1.33481	1.43511	1.48206	1.19787	1.35319	1.13286	1.21215	1.25772	1.67455	1.55408	1.30563	1.86859	1.90406	1.73842	1.3604	1.23813	1.25509	1.44238	1.45943	1.19485	0.867186	1.45627	1.42076	1.45342	1.41077	1.07373	1.30323	1.43342	1.13366	1.14447	1.14075	1.0562	1.46812	0.916248	0.835704	0.871199	1.03688	1.00928	1.1105	1.38471	1.62297	1.38197	1.45147	1.29655	0.662608	0.63669	0.724041	0.78239	0.901163	0.615024	0.55304	0.743234	0.788618	0.579646	0.958487	0.978347	1.55151	1.67877	0.656331	0.961474	3.15454	1.33434	1.43944	1.37435	0.477385	0.662608	1.77761	1.61287	0.924947	0.709343	0.993805	
3.215	1.19467	0.91507	1.27959	1.28342	1.30941	0.838059	1.32043	1.47777	1.33517	1.337	1.43472	1.48151	1.20449	1.35959	1.12663	1.20558	1.24825	1.67782	1.5498	1.29706	1.87709	1.90861	1.73678	1.35981	1.24995	1.2545	1.44187	1.44837	1.20369	0.870042	1.46586	1.41972	1.45221	1.40786	1.09328	1.30605	1.43287	1.12563	1.1369	1.13303	1.04906	1.46203	0.914588	0.834586	0.867665	1.02961	0.988063	1.09752	1.37941	1.6235	1.38179	1.44822	1.28409	0.662444	0.636646	0.722682	0.777594	0.912697	0.619521	0.551434	0.75172	0.797404	0.576994	0.947871	0.972243	1.55118	1.67869	0.654	0.95441	3.18413	1.33128	1.42053	1.36157	0.476919	0.662444	1.7776	1.61221	0.924456	0.729062	1.01481	
3.22	1.19109	0.914442	1.26947	1.27312	1.2976	0.836921	1.31501	1.48521	1.33659	1.33851	1.43445	1.48113	1.2112	1.36596	1.12007	1.19883	1.23864	1.67949	1.54481	1.28821	1.88347	1.9113	1.7338	1.35895	1.26168	1.25408	1.44152	1.43658	1.21268	0.873893	1.47517	1.41785	1.45044	1.40582	1.11125	1.308	1.43248	1.11801	1.12969	1.12571	1.04253	1.45632	0.91368	0.836364	0.864203	1.02185	0.968229	1.08371	1.37589	1.62301	1.38115	1.44605	1.27206	0.662283	0.637283	0.722277	0.773339	0.922081	0.624604	0.550794	0.760553	0.810109	0.572634	0.937455	0.967592	1.55088	1.67889	0.649318	0.950077	3.21265	1.32775	1.40071	1.34864	0.476613	0.662283	1.77701	1.61178	0.923899	0.748429	1.03511	
3.225	1.18836	0.913815	1.25938	1.26262	1.28617	0.835795	1.30884	1.49191	1.33731	1.33926	1.43431	1.48095	1.2181	1.37239	1.1132	1.19193	1.22891	1.67944	1.53915	1.2792	1.88753	1.91197	1.72946	1.35783	1.27329	1.25386	1.44134	1.42428	1.2218	0.878788	1.4842	1.41509	1.44807	1.40478	1.12783	1.30895	1.43228	1.11089	1.12294	1.11888	1.03622	1.45034	0.912577	0.839851	0.860118	1.01382	0.948996	1.06892	1.37342	1.62191	1.38055	1.44461	1.25999	0.662123	0.63829	0.722432	0.769376	0.932344	0.630579	0.550691	0.769638	0.822832	0.567932	0.92647	0.964297	1.55071	1.67942	0.64318	0.947451	3.2398	1.3237	1.38059	1.3357	0.476425	0.662123	1.77575	1.61148	0.923234	0.767426	1.05456	
3.23	1.18656	0.913189	1.24937	1.25193	1.27519	0.834673	1.30192	1.49788	1.33725	1.33918	1.43432	1.48098	1.22526	1.37895	1.10606	1.18489	1.21909	1.67758	1.53287	1.27017	1.88907	1.91054	1.72374	1.35644	1.28472	1.25386	1.44136	1.41184	1.23103	0.884794	1.49291	1.4114	1.44507	1.40486	1.14324	1.3088	1.4323	1.10435	1.11671	1.11261	1.02977	1.4435	0.911029	0.843264	0.855379	1.00543	0.930172	1.05325	1.37137	1.62025	1.38015	1.44378	1.24786	0.661963	0.639854	0.723265	0.766086	0.942793	0.637161	0.550908	0.778955	0.83725	0.565223	0.914821	0.96187	1.55078	1.6803	0.637097	0.94556	3.26552	1.31911	1.36054	1.32285	0.47632	0.661963	1.77378	1.61127	0.922429	0.786006	1.07321	
3.235	1.18574	0.912563	1.2395	1.24108	1.26476	0.833552	1.29428	1.50312	1.33637	1.3382	1.43448	1.48124	1.23271	1.38571	1.09867	1.17774	1.20923	1.67387	1.52602	1.26127	1.88801	1.90694	1.71668	1.35482	1.29593	1.2541	1.44159	1.39973	1.24034	0.89194	1.50129	1.40678	1.44144	1.40614	1.15752	1.3075	1.43256	1.09842	1.11105	1.10692	1.02294	1.43541	0.909267	0.845654	0.850303	0.995577	0.911864	1.03672	1.36937	1.61796	1.37997	1.44355	1.23576	0.661804	0.642204	0.725017	0.763835	0.953662	0.644496	0.553214	0.78851	0.849277	0.564333	0.902622	0.959856	1.55114	1.68154	0.632047	0.94384	3.28992	1.31395	1.34063	1.31017	0.476272	0.661766	1.77103	1.61131	0.921495	0.804257	1.0913	
3.24	1.18596	0.911937	1.22982	1.23012	1.25495	0.832433	1.28599	1.50769	1.33464	1.3363	1.43481	1.48173	1.24047	1.39272	1.0911	1.17052	1.19937	1.66832	1.51868	1.25256	1.88429	1.90119	1.70835	1.353	1.30688	1.25458	1.44204	1.38829	1.24972	0.900196	1.50934	1.40129	1.43723	1.40866	1.17068	1.30502	1.43304	1.0931	1.10595	1.10181	1.01559	1.42585	0.907613	0.847179	0.845235	0.984482	0.894253	1.0193	1.36722	1.61497	1.38005	1.44393	1.22382	0.661645	0.645467	0.727862	0.762829	0.965236	0.652811	0.557018	0.799161	0.860475	0.564269	0.889961	0.957911	1.55182	1.68317	0.628321	0.942016	3.31309	1.30818	1.3209	1.29776	0.476262	0.658163	1.76748	1.61179	0.920459	0.822357	1.10914	
3.245	1.18726	0.912293	1.22042	1.21914	1.24584	0.831314	1.27713	1.51163	1.33206	1.33349	1.43529	1.48245	1.24856	1.40004	1.08341	1.16327	1.18959	1.66095	1.51092	1.24399	1.87792	1.89333	1.69883	1.35108	1.31752	1.2553	1.44269	1.37767	1.25912	0.90948	1.51704	1.395	1.43249	1.41239	1.18269	1.30134	1.43375	1.08837	1.10142	1.09728	1.00758	1.41464	0.906284	0.848568	0.84101	0.972873	0.877525	1.00097	1.36484	1.61128	1.38039	1.44495	1.21211	0.661487	0.649715	0.731917	0.763202	0.977575	0.662259	0.561843	0.810363	0.872124	0.564388	0.876894	0.955767	1.55281	1.68518	0.625792	0.939931	3.33465	1.3018	1.30154	1.28578	0.476278	0.65237	1.76312	1.61287	0.919348	0.840268	1.12671	
3.25	1.1897	0.915127	1.21135	1.20824	1.23754	0.830198	1.2678	1.515	1.32865	1.32978	1.43591	1.48337	1.25698	1.40768	1.07568	1.15602	1.17993	1.65183	1.50278	1.23559	1.86895	1.88342	1.6882	1.34911	1.3278	1.25625	1.44354	1.36793	1.26852	0.919663	1.52442	1.38804	1.4273	1.41724	1.19355	1.29653	1.43466	1.08421	1.09743	1.09329	0.99879	1.40161	0.905415	0.85043	0.837954	0.961082	0.861872	0.981831	1.36214	1.6069	1.38101	1.44659	1.20071	0.661328	0.655026	0.737278	0.765097	0.990696	0.672976	0.567896	0.821825	0.884417	0.564474	0.863489	0.953185	1.55403	1.68757	0.62375	0.937464	3.35397	1.29479	1.28282	1.27437	0.476311	0.646275	1.75795	1.61471	0.91809	0.857664	1.1437	
3.255	1.19329	0.919774	1.20269	1.19749	1.23011	0.829083	1.25807	1.51789	1.32447	1.32524	1.43664	1.48447	1.26573	1.41557	1.068	1.14883	1.17047	1.64104	1.49419	1.22744	1.85748	1.87157	1.67655	1.34721	1.33771	1.25739	1.44456	1.35915	1.27787	0.930584	1.53146	1.38052	1.42176	1.42306	1.20327	1.29065	1.43575	1.08057	1.09393	1.08981	0.989115	1.38674	0.905105	0.853071	0.83592	0.949047	0.847504	0.962101	1.35906	1.60185	1.38189	1.44879	1.18969	0.66117	0.66147	0.744018	0.768696	1.0046	0.68509	0.575457	0.833283	0.897394	0.564509	0.849853	0.94994	1.55536	1.69032	0.621693	0.934504	3.37043	1.28715	1.26506	1.2637	0.476354	0.640877	1.752	1.6174	0.916657	0.874114	1.15971	
3.26	1.19808	0.925394	1.1945	1.187	1.22364	0.827969	1.24804	1.52036	1.3196	1.31995	1.43747	1.48572	1.27476	1.42359	1.06046	1.14173	1.16128	1.62867	1.48508	1.21955	1.84363	1.8579	1.66398	1.34547	1.34722	1.25869	1.44573	1.35133	1.28713	0.942047	1.53818	1.37258	1.41601	1.42963	1.21184	1.28386	1.43698	1.0774	1.09088	1.08677	0.978484	1.37014	0.905453	0.856652	0.834594	0.936583	0.834599	0.942005	1.35556	1.59628	1.38308	1.45145	1.17912	0.661012	0.669094	0.752161	0.774212	1.01923	0.698707	0.584719	0.844708	0.911087	0.564519	0.83613	0.945825	1.55678	1.6934	0.619541	0.93095	3.3837	1.27886	1.24865	1.25395	0.476403	0.636597	1.7453	1.62089	0.915071	0.889333	1.17451	
3.265	1.20407	0.931855	1.18686	1.17683	1.2182	0.826858	1.23787	1.52251	1.31415	1.31403	1.43835	1.48706	1.28399	1.43158	1.05372	1.13476	1.15242	1.61484	1.47545	1.21192	1.82756	1.84251	1.65054	1.34399	1.3563	1.26011	1.447	1.34442	1.29626	0.953828	1.54458	1.36438	1.41017	1.43667	1.21927	1.27629	1.4383	1.07461	1.08819	1.08409	0.966865	1.35175	0.90657	0.861315	0.833693	0.923556	0.823266	0.921737	1.3516	1.59061	1.38458	1.45448	1.16907	0.660855	0.677913	0.76169	0.78179	1.03452	0.713899	0.595855	0.856111	0.925483	0.564524	0.822483	0.940652	1.55837	1.69678	0.617482	0.926718	3.39352	1.26994	1.23393	1.24527	0.476456	0.633716	1.73791	1.62501	0.913372	0.903194	1.18804	
3.27	1.2113	0.939296	1.1798	1.16707	1.21384	0.825749	1.22775	1.52443	1.30826	1.30765	1.43925	1.48845	1.2933	1.43942	1.04798	1.12795	1.14396	1.59965	1.46532	1.20452	1.80944	1.82554	1.63627	1.34288	1.36496	1.26161	1.44833	1.3383	1.30522	0.965687	1.55066	1.35608	1.4044	1.4439	1.22555	1.26815	1.43967	1.07211	1.08578	1.08169	0.954248	1.33137	0.908568	0.867193	0.833027	0.90992	0.813553	0.901507	1.34718	1.58499	1.3864	1.45778	1.15961	0.660698	0.687919	0.772564	0.791434	1.05034	0.730691	0.609021	0.867498	0.940523	0.572186	0.809088	0.934202	1.56011	1.70041	0.615671	0.921742	3.39973	1.26039	1.22116	1.23784	0.476508	0.632836	1.72988	1.62954	0.911591	0.91566	1.20027	
3.275	1.21976	0.947782	1.17338	1.15777	1.21063	0.824641	1.21791	1.52621	1.3021	1.30097	1.44015	1.48984	1.30254	1.447	1.04315	1.12132	1.13596	1.58362	1.45468	1.19728	1.78944	1.80711	1.62122	1.34224	1.3732	1.26314	1.44969	1.33277	1.31398	0.977372	1.55646	1.34786	1.39884	1.45107	1.2307	1.25964	1.44104	1.06979	1.08355	1.07947	0.940646	1.30883	0.911549	0.874389	0.832487	0.895699	0.805479	0.881658	1.3423	1.57942	1.38853	1.46131	1.1508	0.660541	0.699077	0.78472	0.803073	1.06655	0.749054	0.624328	0.878823	0.956101	0.596395	0.796129	0.926194	1.56198	1.70424	0.612857	0.915955	3.40222	1.25024	1.21046	1.23177	0.476559	0.635436	1.72131	1.63434	0.909742	0.926823	1.21124	
3.28	1.22948	0.957317	1.16764	1.149	1.20858	0.823535	1.20853	1.52793	1.29586	1.29422	1.44101	1.4912	1.31156	1.45422	1.03901	1.11487	1.12846	1.56709	1.44352	1.19012	1.76776	1.78732	1.60537	1.34215	1.38103	1.26463	1.45103	1.32758	1.32253	0.988631	1.56197	1.33991	1.39361	1.45792	1.23476	1.251	1.44237	1.06755	1.08138	1.07731	0.926095	1.28409	0.915598	0.882969	0.832013	0.880965	0.799117	0.862718	1.33698	1.57388	1.39098	1.465	1.1427	0.660385	0.711323	0.798074	0.816624	1.08296	0.768899	0.641828	0.889975	0.972063	0.62918	0.783796	0.916325	1.56392	1.70823	0.6095	0.909282	3.40094	1.23952	1.20187	1.22721	0.476606	0.642918	1.71228	1.63931	0.907819	0.937106	1.22133	
3.285	1.24046	0.967909	1.1626	1.1408	1.20772	0.822431	1.19978	1.52969	1.28975	1.28762	1.4418	1.49248	1.32022	1.46099	1.03539	1.1086	1.12148	1.55004	1.4318	1.18291	1.74458	1.76629	1.589	1.34271	1.38848	1.26606	1.4523	1.32242	1.33084	0.999222	1.56722	1.33242	1.38883	1.46425	1.23776	1.24251	1.44361	1.06528	1.07917	1.07511	0.910668	1.25736	0.920787	0.892967	0.831574	0.865833	0.794594	0.84515	1.33862	1.56841	1.39371	1.46882	1.13538	0.660228	0.724563	0.812517	0.83198	1.09933	0.790066	0.661502	0.900791	0.9882	0.663633	0.772266	0.904388	1.56592	1.71231	0.606444	0.901641	3.39599	1.22827	1.19541	1.22431	0.476648	0.652163	1.70288	1.64438	0.905809	0.94678	1.2308	
3.29	1.25271	0.97957	1.15829	1.13323	1.20807	0.821329	1.1918	1.53157	1.28399	1.28139	1.4425	1.49363	1.3284	1.46723	1.03217	1.10249	1.11505	1.53242	1.41951	1.17554	1.7201	1.74411	1.5728	1.34398	1.39559	1.26737	1.45347	1.31693	1.33894	1.00886	1.57223	1.32555	1.3846	1.4699	1.23972	1.23451	1.44472	1.06286	1.07682	1.07277	0.89447	1.22881	0.927166	0.904388	0.831154	0.850454	0.792078	0.829191	1.34405	1.56303	1.39669	1.47273	1.12887	0.660073	0.738674	0.827921	0.84902	1.1154	0.81233	0.683252	0.911069	1.00426	0.698674	0.761703	0.89031	1.56796	1.71644	0.602073	0.892967	3.38788	1.21654	1.19111	1.22331	0.476684	0.65654	1.69323	1.64948	0.903918	0.95347	1.23953	
3.295	1.26619	0.992305	1.15471	1.12632	1.2096	0.820229	1.18469	1.53364	1.27879	1.27578	1.4431	1.49463	1.33598	1.47288	1.02928	1.09651	1.10917	1.51415	1.40664	1.16786	1.69452	1.72088	1.55659	1.346	1.4024	1.26852	1.45449	1.31079	1.34681	1.01725	1.57703	1.31945	1.38099	1.47473	1.24069	1.22729	1.44568	1.0602	1.07422	1.07018	0.877641	1.19856	0.934758	0.917197	0.830745	0.835017	0.791868	0.814925	1.34196	1.55775	1.39989	1.47667	1.12324	0.659917	0.753504	0.844133	0.867595	1.13086	0.835397	0.706893	0.920584	1.01993	0.734742	0.752241	0.874224	1.57001	1.72057	0.597026	0.883232	3.37654	1.2044	1.18915	1.22442	0.476713	0.654062	1.68342	1.65453	0.905238	0.946158	1.2453	
3.3	1.28087	1.00609	1.15185	1.12007	1.2123	0.819131	1.17852	1.53596	1.27436	1.27101	1.44358	1.49544	1.34285	1.47789	1.02666	1.09062	1.1038	1.4951	1.39316	1.15974	1.66802	1.69668	1.54007	1.34882	1.40895	1.26947	1.45534	1.30364	1.35447	1.02419	1.58163	1.31424	1.37807	1.47862	1.2407	1.22118	1.44646	1.05721	1.07129	1.06727	0.860353	1.16703	0.943554	0.931317	0.830342	0.819739	0.794676	0.802364	1.33539	1.5526	1.40326	1.4806	1.1185	0.659762	0.768878	0.860976	0.887505	1.14539	0.85892	0.732156	0.929099	1.03488	0.771479	0.743993	0.85639	1.57205	1.72464	0.592452	0.872431	3.36201	1.19193	1.19011	1.22785	0.476737	0.645043	1.67357	1.65946	0.908747	0.933887	1.2487	
3.305	1.29666	1.0208	1.14969	1.11449	1.21614	0.818035	1.1733	1.53857	1.27091	1.2673	1.44394	1.49605	1.34892	1.48221	1.02427	1.08475	1.09892	1.4752	1.37906	1.15106	1.6408	1.67163	1.523	1.35243	1.41528	1.27019	1.45597	1.29517	1.36195	1.02963	1.58607	1.31	1.37587	1.4815	1.23979	1.21647	1.44705	1.05384	1.06795	1.06395	0.842809	1.13469	0.953507	0.946627	0.829943	0.804857	0.80306	0.791479	1.32881	1.54759	1.40676	1.48443	1.11471	0.659607	0.784597	0.878247	0.908505	1.15869	0.882505	0.758695	0.936376	1.04879	0.80805	0.737069	0.837061	1.57406	1.72862	0.585698	0.860553	3.3445	1.17924	1.19584	1.2338	0.476754	0.630536	1.66378	1.66424	0.912674	0.923532	1.25146	
3.31	1.31349	1.03633	1.1482	1.10956	1.22102	0.81694	1.16904	1.54151	1.26863	1.26486	1.44416	1.49643	1.35408	1.48581	1.02207	1.07884	1.09447	1.45456	1.3643	1.1417	1.61307	1.64583	1.5051	1.35683	1.42145	1.27065	1.45638	1.28515	1.36926	1.03356	1.59035	1.30677	1.3744	1.48328	1.23802	1.21341	1.44741	1.05006	1.06415	1.06019	0.825244	1.10188	0.964526	0.962961	0.829545	0.790614	0.819987	0.782211	1.32287	1.54273	1.41031	1.48808	1.1119	0.659452	0.800453	0.895727	0.93031	1.17045	0.905731	0.786097	0.942199	1.06136	0.843667	0.731579	0.816431	1.57603	1.73247	0.574962	0.847605	3.32423	1.16643	1.21146	1.24219	0.476765	0.612353	1.65414	1.6688	0.916405	0.927263	1.25457	
3.315	1.33124	1.0526	1.14734	1.10526	1.22689	0.815848	1.16571	1.54478	1.26768	1.26389	1.44425	1.49655	1.35824	1.48862	1.02003	1.07284	1.09039	1.43338	1.34886	1.13158	1.58532	1.61939	1.48604	1.36199	1.42751	1.27083	1.45652	1.27336	1.37643	1.03606	1.59451	1.30455	1.37364	1.48389	1.23543	1.21224	1.44754	1.04593	1.05988	1.05597	0.807908	1.06884	0.976481	0.980112	0.829148	0.777231	0.842355	0.774492	1.31707	1.53806	1.41388	1.4915	1.11014	0.659298	0.816542	0.913239	0.952609	1.1804	0.928176	0.813903	0.946383	1.07228	0.877646	0.727622	0.79456	1.57792	1.73616	0.560864	0.833643	3.30145	1.15363	1.23421	1.25253	0.47677	0.592578	1.64476	1.67313	0.919924	0.936529	1.25804	
3.32	1.34977	1.06955	1.14704	1.10155	1.23362	0.814758	1.16326	1.54839	1.26821	1.26453	1.44418	1.49641	1.36131	1.49062	1.01813	1.06669	1.0866	1.41189	1.33277	1.12065	1.55881	1.59253	1.46571	1.36784	1.43352	1.27071	1.45638	1.25953	1.38347	1.03719	1.59856	1.3033	1.37355	1.48323	1.2321	1.21315	1.44742	1.0419	1.05515	1.05135	0.79106	1.03588	0.989202	0.997835	0.828752	0.764892	0.867168	0.768249	1.31131	1.53358	1.41739	1.49466	1.10949	0.659144	0.832852	0.930702	0.975078	1.18832	0.949432	0.841636	0.94879	1.08132	0.909344	0.725292	0.771488	1.57975	1.73966	0.545581	0.818799	3.27649	1.14098	1.25981	1.2643	0.476771	0.574431	1.63569	1.6772	0.923208	0.94467	1.26147	
3.325	1.36894	1.08707	1.14723	1.09836	1.2411	0.813669	1.16159	1.55231	1.27035	1.26691	1.44395	1.49598	1.36318	1.49173	1.01634	1.06038	1.08302	1.39037	1.31608	1.10889	1.53323	1.56639	1.44417	1.3743	1.4395	1.27026	1.45594	1.24336	1.39041	1.03708	1.6025	1.30292	1.37405	1.48121	1.22809	1.21629	1.44703	1.03828	1.05014	1.04664	0.774947	1.00456	1.00248	1.01578	0.83287	0.753741	0.893445	0.763409	1.30576	1.52932	1.4208	1.49757	1.11004	0.65899	0.849156	0.947943	0.997403	1.19407	0.969134	0.868817	0.94912	1.0883	0.938175	0.724703	0.74738	1.58148	1.74296	0.531263	0.803257	3.24968	1.12864	1.2863	1.27717	0.476768	0.560597	1.62703	1.68099	0.926089	0.94895	1.26449	
3.33	1.38858	1.10507	1.14785	1.09564	1.24917	0.812583	1.16058	1.55649	1.27417	1.27112	1.44354	1.49523	1.36374	1.4919	1.01466	1.0541	1.07958	1.36898	1.29887	1.09634	1.50812	1.54099	1.4216	1.38128	1.4455	1.26945	1.45518	1.22479	1.39725	1.03588	1.60632	1.30332	1.37505	1.47769	1.22351	1.22175	1.44633	1.03514	1.04543	1.04236	0.759793	0.976651	1.01606	1.03352	0.84134	0.74446	0.921008	0.759921	1.3005	1.52527	1.42407	1.50022	1.11189	0.658837	0.865219	0.964768	1.01925	1.19756	0.986976	0.894998	0.946511	1.0931	0.963661	0.72598	0.722533	1.58311	1.74603	0.519787	0.787224	3.2214	1.11677	1.31317	1.29085	0.476763	0.55122	1.61882	1.68448	0.928346	0.950328	1.26685	
3.335	1.40852	1.12343	1.14881	1.0933	1.2577	0.817491	1.16009	1.56089	1.27973	1.2772	1.44292	1.49414	1.36288	1.49103	1.01305	1.04841	1.0762	1.34784	1.28124	1.08347	1.48316	1.51592	1.39832	1.38867	1.45154	1.26827	1.45408	1.20407	1.404	1.03381	1.61003	1.30431	1.37644	1.47252	1.21846	1.22956	1.44531	1.03239	1.04132	1.03868	0.746166	0.953169	1.02966	1.05076	0.850879	0.737598	0.949497	0.757753	1.29554	1.52146	1.42715	1.50262	1.11517	0.658684	0.880832	0.981011	1.04031	1.19886	1.00273	0.919784	0.942618	1.09572	0.98547	0.729218	0.697321	1.58463	1.74887	0.511615	0.770912	3.19207	1.10553	1.33999	1.30508	0.476756	0.545256	1.61111	1.68769	0.929779	0.94855	1.26838	
3.34	1.42851	1.14202	1.15002	1.09128	1.26652	0.828754	1.15996	1.56544	1.28699	1.28512	1.44207	1.49268	1.36049	1.48905	1.01152	1.0435	1.0728	1.3271	1.26327	1.07212	1.45843	1.49088	1.37464	1.39636	1.45763	1.26669	1.45262	1.18158	1.41065	1.03119	1.61361	1.30572	1.37808	1.46551	1.21308	1.23966	1.44393	1.02996	1.03779	1.03552	0.734542	0.934261	1.04305	1.06726	0.860725	0.733147	0.978385	0.756892	1.29092	1.51789	1.43003	1.5048	1.12003	0.658531	0.895805	0.996519	1.06032	1.1983	1.01621	0.942843	0.937754	1.0958	1.00342	0.734416	0.672143	1.58604	1.75147	0.506229	0.754545	3.16215	1.09507	1.36622	1.31963	0.476748	0.541604	1.60396	1.6906	0.930236	0.944129	1.26893	
3.345	1.44831	1.16068	1.15139	1.08948	1.27547	0.839983	1.16001	1.57005	1.29588	1.29479	1.44095	1.49083	1.35645	1.48585	1.01006	1.0393	1.06931	1.30695	1.24507	1.06295	1.43423	1.46581	1.35068	1.40419	1.46378	1.26469	1.45079	1.15761	1.41718	1.02844	1.61707	1.30734	1.37983	1.45643	1.20751	1.25196	1.44216	1.02778	1.03475	1.03276	0.724701	0.919571	1.05601	1.08284	0.870848	0.730671	1.00726	0.75736	1.28665	1.51457	1.43269	1.50675	1.12668	0.658378	0.90998	1.01116	1.07907	1.19608	1.02735	0.963929	0.931611	1.09343	1.01739	0.741371	0.647407	1.58734	1.75384	0.502819	0.738353	3.13208	1.08554	1.39151	1.33433	0.476742	0.539444	1.59743	1.69322	0.929601	0.937997	1.26837	
3.35	1.46766	1.17923	1.15282	1.08783	1.28437	0.850705	1.16006	1.57462	1.30623	1.30602	1.43953	1.48855	1.35069	1.48047	1.00864	1.03566	1.06569	1.28755	1.22683	1.05567	1.41092	1.441	1.32662	1.41201	1.46998	1.26225	1.44858	1.13256	1.42356	1.02589	1.6204	1.30896	1.38156	1.44503	1.20192	1.26631	1.43995	1.02581	1.03207	1.03031	0.716197	0.908381	1.06831	1.09733	0.880989	0.729513	1.03566	0.75924	1.28275	1.51152	1.43512	1.5085	1.13524	0.658226	0.923223	1.02481	1.09639	1.19241	1.03648	0.982883	0.924194	1.09006	1.02753	0.749689	0.623523	1.58851	1.75597	0.500654	0.722566	3.1023	1.07707	1.41566	1.34901	0.476737	0.538211	1.59178	1.69557	0.927784	0.931532	1.26658	
3.355	1.48634	1.19748	1.15422	1.08624	1.29306	0.861002	1.15992	1.57906	1.3178	1.31855	1.43778	1.48583	1.34311	1.47289	1.00727	1.03244	1.06188	1.26902	1.20873	1.04976	1.38886	1.41681	1.30278	1.41964	1.47624	1.25938	1.44599	1.10955	1.42977	1.0236	1.62358	1.31037	1.3831	1.43106	1.19648	1.28249	1.43728	1.02402	1.02969	1.02812	0.708732	0.899943	1.07978	1.11058	0.890849	0.729103	1.06324	0.76268	1.27923	1.50873	1.43732	1.51005	1.14561	0.658071	0.935432	1.03739	1.11214	1.18756	1.04396	0.999631	0.916288	1.08404	1.03424	0.759003	0.600873	1.58957	1.75786	0.499258	0.707409	3.07322	1.06974	1.43831	1.3636	0.476734	0.537534	1.58699	1.69764	0.924732	0.925412	1.26352	
3.36	1.50415	1.21521	1.1555	1.08463	1.30138	0.87074	1.15941	1.58326	1.33032	1.3321	1.43566	1.48264	1.33368	1.46359	1.00594	1.02955	1.05785	1.25148	1.19096	1.04478	1.36823	1.39363	1.27942	1.42692	1.48252	1.25606	1.44301	1.09126	1.43579	1.02152	1.62661	1.31134	1.38433	1.41452	1.19137	1.30011	1.43413	1.02237	1.02754	1.02613	0.702212	0.893674	1.09026	1.1225	0.900182	0.729091	1.0899	0.767883	1.27609	1.50622	1.43929	1.51141	1.15746	0.65786	0.946532	1.04885	1.12626	1.18181	1.04994	1.01432	0.907855	1.07737	1.03803	0.769077	0.579776	1.59051	1.75952	0.498329	0.693087	3.0452	1.06364	1.45907	1.37803	0.476733	0.537176	1.58292	1.69946	0.920436	0.919688	1.2592	
3.365	1.52094	1.23224	1.15659	1.08293	1.30918	0.87982	1.15835	1.58711	1.34351	1.34635	1.43316	1.47898	1.3224	1.45259	1.00463	1.02694	1.05358	1.23507	1.17371	1.04049	1.34921	1.37175	1.25673	1.43368	1.48881	1.25231	1.43968	1.07767	1.44161	1.01961	1.62947	1.31168	1.38509	1.3959	1.18678	1.3187	1.43048	1.02086	1.0256	1.02432	0.696601	0.889141	1.09965	1.133	0.908773	0.729322	1.11564	0.775039	1.27335	1.50399	1.44103	1.51257	1.17045	0.657389	0.956482	1.05915	1.13871	1.17552	1.05454	1.02717	0.898945	1.07102	1.02833	0.779745	0.560481	1.59133	1.76096	0.497744	0.679763	3.0185	1.06051	1.47782	1.39225	0.476734	0.536998	1.57946	1.70102	0.914921	0.914179	1.25371	
3.37	1.53665	1.24837	1.1574	1.08108	1.31632	0.888166	1.15658	1.59048	1.35707	1.36101	1.43027	1.47485	1.30935	1.4398	1.00335	1.02455	1.04905	1.21995	1.15716	1.03673	1.33196	1.35137	1.23497	1.43978	1.49509	1.24816	1.43601	1.06753	1.44721	1.01782	1.63214	1.31119	1.38528	1.37557	1.18288	1.3378	1.42634	1.01945	1.02383	1.02267	0.69183	0.885977	1.10784	1.14205	0.916439	0.729679	1.14048	0.784239	1.27098	1.50203	1.44255	1.51355	1.18442	0.656592	0.965273	1.0683	1.14952	1.16901	1.05794	1.03824	0.890032	1.06477	1.01411	0.790853	0.543184	1.59204	1.76218	0.497414	0.667556	2.9933	1.06161	1.49473	1.40626	0.476737	0.536919	1.57657	1.70235	0.908246	0.908691	1.24715	
3.375	1.55123	1.26349	1.15786	1.07901	1.32269	0.895712	1.15394	1.59325	1.37076	1.37581	1.427	1.47028	1.29472	1.42522	1.00208	1.02236	1.04445	1.20622	1.14147	1.03341	1.31666	1.33271	1.21448	1.44511	1.50133	1.24365	1.43204	1.05961	1.45256	1.01615	1.63462	1.3097	1.38476	1.35356	1.17986	1.357	1.42174	1.01814	1.0222	1.02115	0.687656	0.883836	1.1148	1.14965	0.923031	0.730015	1.16445	0.795466	1.269	1.50036	1.44387	1.51436	1.19932	0.655694	0.972912	1.07627	1.15871	1.16264	1.06036	1.04527	0.882923	1.05917	1.00197	0.80225	0.528026	1.59263	1.76319	0.497256	0.656541	2.96967	1.06487	1.51008	1.42002	0.476741	0.536894	1.5742	1.70346	0.900486	0.903081	1.23965	
3.38	1.56461	1.27745	1.15793	1.07669	1.32818	0.902409	1.15029	1.59533	1.38433	1.39051	1.42339	1.46531	1.27875	1.40923	1.00083	1.02033	1.04017	1.19399	1.12679	1.03043	1.30344	1.31598	1.19554	1.44954	1.5075	1.23886	1.42783	1.05314	1.45765	1.01456	1.6369	1.30706	1.38346	1.33001	1.17789	1.37597	1.41675	1.01692	1.02071	1.01974	0.684252	0.882399	1.12048	1.1558	0.928441	0.730168	1.18753	0.808636	1.2674	1.49898	1.44501	1.515	1.21506	0.654906	0.979421	1.08307	1.16635	1.15671	1.06202	1.04754	0.878276	1.05438	0.992961	0.813794	0.515064	1.59311	1.764	0.497201	0.64677	2.94761	1.06782	1.52443	1.43347	0.476746	0.536898	1.57232	1.70435	0.891703	0.897241	1.23129	
3.385	1.57672	1.29016	1.15754	1.07407	1.33271	0.90822	1.14552	1.5966	1.39764	1.40494	1.41949	1.46	1.26146	1.39253	0.999577	1.01844	1.03639	1.18334	1.11329	1.02774	1.29242	1.30137	1.17838	1.45299	1.51359	1.23386	1.42346	1.04768	1.46246	1.01305	1.63895	1.30314	1.38127	1.3055	1.17712	1.39446	1.41146	1.01577	1.01932	1.01843	0.681708	0.881407	1.1249	1.16054	0.932597	0.729997	1.20967	0.823612	1.26615	1.49788	1.44597	1.5155	1.23148	0.653796	0.984827	1.08871	1.17249	1.1515	1.06315	1.04676	0.875672	1.04939	0.998494	0.825348	0.504292	1.59348	1.76462	0.497204	0.63829	2.92712	1.0708	1.53842	1.44655	0.476751	0.536919	1.57089	1.70504	0.881935	0.891076	1.22214	
3.39	1.58748	1.30152	1.15668	1.07114	1.33624	0.913124	1.13953	1.59696	1.41046	1.41877	1.41539	1.45443	1.24284	1.37557	0.998329	1.01667	1.03307	1.17432	1.10108	1.0253	1.28369	1.28902	1.16317	1.45538	1.51958	1.22875	1.41902	1.043	1.46698	1.01163	1.64075	1.2978	1.37812	1.28066	1.1777	1.41221	1.40601	1.01469	1.01803	1.01721	0.679917	0.880674	1.12806	1.16391	0.935463	0.729442	1.23076	0.840213	1.26526	1.49706	1.44676	1.51587	1.24837	0.652502	0.989159	1.0932	1.17723	1.14723	1.06394	1.04446	0.87432	1.0449	1.01703	0.836777	0.495692	1.59375	1.76506	0.497238	0.631148	2.90825	1.07468	1.55257	1.45919	0.476754	0.536948	1.56988	1.70554	0.871231	0.884508	1.21224	
3.395	1.59682	1.31149	1.15532	1.0679	1.33871	0.917114	1.13221	1.59633	1.42248	1.43157	1.41118	1.44872	1.22318	1.35849	0.997082	1.01499	1.03012	1.16698	1.09026	1.02306	1.27732	1.27904	1.15004	1.45665	1.52545	1.22365	1.4146	1.03893	1.4712	1.01222	1.64229	1.29096	1.37394	1.25546	1.17973	1.42873	1.40052	1.01367	1.01682	1.01606	0.678673	0.880085	1.12998	1.16597	0.937036	0.728837	1.25061	0.858206	1.2647	1.49651	1.44742	1.51612	1.26545	0.651319	0.992379	1.09652	1.1806	1.14409	1.06456	1.04292	0.870663	1.04156	1.02757	0.847944	0.48924	1.59392	1.76532	0.497288	0.625367	2.89048	1.07963	1.56741	1.47129	0.476753	0.536983	1.56927	1.70586	0.859693	0.877476	1.20168	
3.4	1.60467	1.32004	1.15347	1.06434	1.34013	0.920194	1.12353	1.59466	1.43336	1.44307	1.40698	1.44299	1.203	1.34142	0.995835	1.01341	1.02748	1.16134	1.0809	1.02099	1.27331	1.27148	1.13908	1.45675	1.53119	1.21867	1.41032	1.03535	1.47511	1.01714	1.64352	1.28256	1.3687	1.23026	1.1833	1.44357	1.39512	1.01269	1.01569	1.01499	0.677765	0.879572	1.13071	1.16677	0.937371	0.728335	1.26899	0.877289	1.26445	1.49622	1.44794	1.51627	1.28243	0.64999	0.994455	1.09864	1.1826	1.14217	1.06513	1.04286	0.865111	1.03957	1.02912	0.858719	0.486247	1.594	1.76543	0.497347	0.624074	2.87352	1.08556	1.58388	1.48274	0.476747	0.53702	1.56903	1.70601	0.847426	0.869942	1.19057	
3.405	1.61093	1.32719	1.15113	1.06051	1.3405	0.922383	1.11346	1.59189	1.44296	1.45319	1.4029	1.43738	1.18278	1.3246	0.994588	1.0119	1.02507	1.15741	1.07305	1.01907	1.27168	1.26636	1.13033	1.45565	1.53676	1.21391	1.40627	1.03218	1.4787	1.02694	1.64441	1.27253	1.36234	1.20592	1.18842	1.45657	1.38995	1.01177	1.01462	1.01397	0.677083	0.8791	1.1303	1.16638	0.937047	0.727937	1.28571	0.897101	1.26449	1.49617	1.44833	1.51633	1.29903	0.648638	0.995461	1.09961	1.18327	1.14153	1.06573	1.0438	0.859034	1.03901	1.02782	0.86898	0.486381	1.594	1.76539	0.497411	0.631438	2.85735	1.09236	1.60449	1.49345	0.476733	0.537058	1.56912	1.70602	0.834415	0.861831	1.17886	
3.41	1.61563	1.33295	1.14835	1.05645	1.33986	0.923709	1.10203	1.58801	1.45125	1.46191	1.39906	1.43204	1.16279	1.30834	0.993343	1.01045	1.02286	1.15517	1.0667	1.01727	1.27235	1.26364	1.12378	1.45331	1.54214	1.20949	1.40254	1.02933	1.48197	1.04077	1.64491	1.26074	1.35486	1.18332	1.19509	1.46771	1.38512	1.01088	1.0136	1.013	0.67657	0.87865	1.12878	1.16484	0.936538	0.727604	1.30059	0.917118	1.26477	1.49633	1.44861	1.5163	1.315	0.647477	0.995415	1.09944	1.18263	1.14217	1.0664	1.04498	0.853869	1.03988	1.02823	0.878614	0.488151	1.59392	1.76523	0.497477	0.637612	2.84199	1.09991	1.62815	1.50329	0.476708	0.537097	1.56949	1.7059	0.820614	0.85301	1.16643	
3.415	1.61882	1.33737	1.14516	1.05222	1.33826	0.924212	1.08952	1.58299	1.45825	1.46926	1.39555	1.42712	1.14316	1.29293	0.992097	1.00905	1.02082	1.15459	1.06184	1.01558	1.27525	1.26325	1.11938	1.44972	1.54729	1.2055	1.3992	1.02675	1.4849	1.05744	1.64498	1.24701	1.34624	1.16299	1.2032	1.47705	1.38072	1.01003	1.01264	1.01208	0.67618	0.878212	1.1235	1.15843	0.936033	0.727301	1.31355	0.936744	1.26526	1.49668	1.4488	1.5162	1.33016	0.646214	0.994312	1.09816	1.18073	1.144	1.06714	1.04585	0.85526	1.04211	1.03082	0.887512	0.491224	1.59379	1.76496	0.497545	0.640618	2.82754	1.10808	1.65091	1.51218	0.476671	0.537136	1.5701	1.70567	0.806051	0.843341	1.15318	
3.42	1.62056	1.3405	1.14162	1.04792	1.33578	0.923942	1.07748	1.57684	1.464	1.47528	1.39245	1.42276	1.12402	1.27852	0.990853	1.0077	1.01892	1.15561	1.05845	1.01398	1.28025	1.26507	1.11703	1.44487	1.55218	1.20201	1.3963	1.0244	1.48749	1.07618	1.64456	1.2313	1.33646	1.1452	1.2126	1.48468	1.37684	1.00921	1.01173	1.0112	0.675872	0.87778	1.11653	1.14907	0.935563	0.727009	1.32462	0.955629	1.2659	1.49716	1.44889	1.51605	1.3444	0.64494	0.992233	1.09585	1.17764	1.14693	1.05969	1.04614	0.858665	1.0456	1.03463	0.895559	0.495975	1.59361	1.76462	0.497614	0.643494	2.81421	1.11675	1.67109	1.52005	0.476617	0.537176	1.57088	1.70535	0.79086	0.832732	1.13915	
3.425	1.62095	1.34239	1.1378	1.04368	1.33251	0.922974	1.06729	1.56958	1.46856	1.48005	1.38983	1.41906	1.10573	1.26441	0.989609	1.00639	1.01714	1.15816	1.05645	1.01245	1.28718	1.26893	1.11659	1.43877	1.55676	1.19908	1.3939	1.02223	1.48973	1.09657	1.64359	1.21372	1.32557	1.13011	1.22307	1.49068	1.37358	1.00842	1.01679	1.01474	0.675617	0.877352	1.10961	1.13916	0.935114	0.726724	1.3338	0.973541	1.26663	1.49774	1.44892	1.51586	1.35765	0.643848	0.989285	1.09262	1.1734	1.15079	1.05444	1.04571	0.863159	1.05018	1.03915	0.902642	0.502568	1.5934	1.76423	0.497684	0.647831	2.80229	1.12579	1.68862	1.52685	0.476543	0.537216	1.57177	1.70498	0.775255	0.82118	1.12447	
3.43	1.62006	1.3431	1.1338	1.0398	1.32854	0.921744	1.05914	1.5612	1.472	1.48365	1.38774	1.41613	1.08965	1.24868	0.988366	1.00511	1.01546	1.16214	1.05578	1.01099	1.29585	1.27464	1.1179	1.43144	1.56099	1.19676	1.39201	1.02023	1.49161	1.11837	1.64203	1.19451	1.3136	1.11787	1.23435	1.49518	1.37098	1.0144	1.02867	1.02559	0.675392	0.876926	1.10302	1.12977	0.934669	0.726441	1.34109	0.990276	1.26738	1.49835	1.4489	1.51566	1.36989	0.642786	0.985554	1.08853	1.16806	1.15539	1.05082	1.04452	0.868705	1.05564	1.04419	0.90869	0.5109	1.59318	1.76383	0.497753	0.653475	2.79217	1.13511	1.70342	1.5325	0.476447	0.537255	1.57267	1.70459	0.759516	0.808796	1.10939	
3.435	1.618	1.34272	1.12968	1.03641	1.32399	0.920482	1.05261	1.55171	1.47437	1.48613	1.38621	1.414	1.07676	1.23182	0.987124	1.00385	1.01388	1.16746	1.05634	1.00959	1.30603	1.28199	1.12077	1.42292	1.5648	1.19508	1.39064	1.01836	1.49312	1.14139	1.63982	1.17388	1.30065	1.1086	1.24618	1.49827	1.36909	1.0278	1.04349	1.04011	0.675185	0.876501	1.09641	1.12091	0.934225	0.72616	1.34651	1.00567	1.26807	1.49894	1.44882	1.51545	1.38112	0.6418	0.981094	1.08365	1.16162	1.16053	1.04919	1.04251	0.875092	1.06176	1.04957	0.913589	0.520822	1.59298	1.76345	0.497823	0.660134	2.78433	1.14459	1.71525	1.53693	0.476327	0.537295	1.57351	1.70422	0.743983	0.795824	1.09425	
3.44	1.61488	1.3413	1.12555	1.03345	1.31898	0.919248	1.04721	1.54111	1.47576	1.48756	1.38526	1.4127	1.06682	1.21492	0.985882	1.00262	1.01237	1.17399	1.05803	1.00824	1.3175	1.29074	1.12503	1.41324	1.56814	1.19403	1.38981	1.01661	1.49423	1.1653	1.63693	1.15197	1.28684	1.10236	1.25831	1.50004	1.36792	1.04402	1.05887	1.05539	0.674988	0.876076	1.08941	1.11224	0.93378	0.725881	1.35006	1.01959	1.26863	1.49943	1.44873	1.51527	1.3914	0.640991	0.975947	1.07803	1.15415	1.16598	1.04747	1.03961	0.882088	1.0683	1.05497	0.91715	0.532187	1.59281	1.76315	0.497892	0.667717	2.77911	1.15415	1.72389	1.54008	0.476182	0.537334	1.57416	1.70391	0.729013	0.782616	1.07941	
3.445	1.61079	1.33892	1.12151	1.03085	1.31363	0.918036	1.04262	1.5294	1.4762	1.48801	1.38488	1.41223	1.05907	1.19849	0.984641	1.00139	1.01092	1.18163	1.06076	1.00693	1.33002	1.30069	1.13047	1.40246	1.57094	1.19361	1.3895	1.01496	1.49494	1.1896	1.63332	1.12905	1.27226	1.09917	1.27052	1.50058	1.36747	1.06045	1.07447	1.07087	0.674796	0.875652	1.0819	1.10347	0.933334	0.725603	1.35177	1.03198	1.26897	1.49976	1.44863	1.51513	1.40078	0.640267	0.970149	1.07173	1.1457	1.17151	1.04662	1.03579	0.88946	1.07501	1.06006	0.919267	0.544831	1.59271	1.76296	0.497962	0.676139	2.77669	1.16373	1.72932	1.54193	0.476011	0.537374	1.57453	1.70371	0.714917	0.769549	1.06519	
3.45	1.60583	1.33564	1.11763	1.02852	1.30805	0.916832	1.03863	1.51655	1.47576	1.48753	1.38505	1.41255	1.0528	1.18257	0.9834	1.00018	1.00954	1.19025	1.06444	1.00565	1.34337	1.31161	1.13695	1.39068	1.57315	1.19379	1.38968	1.0134	1.49523	1.21367	1.62899	1.10742	1.25701	1.09902	1.28254	1.49995	1.36772	1.0768	1.09029	1.08658	0.674608	0.875198	1.07383	1.09441	0.932888	0.725325	1.35161	1.04288	1.269	1.49986	1.44856	1.51508	1.40936	0.639611	0.963742	1.06481	1.13637	1.1769	1.04583	1.03102	0.896975	1.08165	1.06455	0.920002	0.558577	1.59269	1.76294	0.498032	0.685273	2.77702	1.17324	1.73158	1.54246	0.475814	0.537413	1.5745	1.70366	0.701892	0.756926	1.0518	
3.455	1.60009	1.3315	1.11402	1.02641	1.30237	0.91563	1.03511	1.5025	1.47449	1.48617	1.38574	1.41361	1.04758	1.16703	0.98216	0.998963	1.0082	1.19975	1.06901	1.0044	1.35734	1.32332	1.14432	1.37801	1.57468	1.19455	1.39034	1.01191	1.49507	1.23702	1.62393	1.08983	1.24124	1.10183	1.29408	1.49822	1.36861	1.09326	1.10615	1.10243	0.674422	0.874657	1.06526	1.08496	0.932442	0.725048	1.34962	1.05234	1.26862	1.49965	1.44853	1.51513	1.41721	0.639063	0.956774	1.05733	1.12624	1.18193	1.0454	1.0253	0.904403	1.08797	1.06817	0.919538	0.573236	1.59279	1.76312	0.498101	0.694987	2.78	1.18263	1.73075	1.54172	0.475587	0.537453	1.57397	1.70382	0.69003	0.744948	1.03935	
3.46	1.59369	1.32657	1.11077	1.0245	1.29669	0.914429	1.03199	1.48719	1.47242	1.48399	1.38691	1.41535	1.04312	1.15179	0.980921	0.99775	1.0069	1.21004	1.07442	1.00316	1.37174	1.33567	1.15249	1.36455	1.57546	1.19582	1.39142	1.01048	1.49445	1.25947	1.61814	1.07659	1.22518	1.10744	1.30487	1.49545	1.37009	1.10989	1.122	1.11836	0.674237	0.874027	1.05625	1.07506	0.931997	0.724772	1.34578	1.06043	1.26777	1.49908	1.44866	1.51531	1.42441	0.638641	0.949299	1.04936	1.11541	1.18641	1.04486	1.01863	0.911529	1.09378	1.07069	0.918105	0.588614	1.59302	1.76355	0.498171	0.705157	2.78553	1.19184	1.72693	1.53975	0.475329	0.537492	1.57278	1.70422	0.679358	0.737152	1.02791	
3.465	1.58672	1.32086	1.10795	1.02275	1.29111	0.913227	1.02918	1.47065	1.46961	1.48102	1.38849	1.41769	1.03926	1.13677	0.979682	0.996537	1.00563	1.22104	1.08066	1.00195	1.38644	1.34852	1.16139	1.35042	1.57545	1.19756	1.3929	1.0091	1.49333	1.28088	1.61166	1.06665	1.20912	1.1156	1.31473	1.49168	1.3721	1.12668	1.13787	1.13443	0.674053	0.873378	1.04687	1.0647	0.931551	0.724496	1.34005	1.06724	1.25735	1.49719	1.45712	1.51566	1.43105	0.638329	0.941376	1.04097	1.10396	1.19018	1.04434	1.01102	0.918159	1.09889	1.07193	0.915914	0.60452	1.59343	1.76427	0.49824	0.715662	2.79347	1.20083	1.72026	1.53665	0.475034	0.537532	1.57077	1.70491	0.669864	0.735644	1.01748	
3.47	1.57925	1.3144	1.10565	1.02113	1.28572	0.912025	1.02664	1.453	1.46609	1.47731	1.39044	1.42053	1.03589	1.122	0.978444	0.995325	1.00439	1.23267	1.08771	1.00074	1.40131	1.36179	1.171	1.33577	1.57458	1.19971	1.39471	1.00777	1.49169	1.30078	1.6045	1.05888	1.19335	1.12602	1.3235	1.48696	1.37456	1.14336	1.15352	1.15039	0.67387	0.872769	1.03721	1.05389	0.931106	0.72422	1.33243	1.07287	1.24434	1.49486	1.47006	1.51621	1.43725	0.638098	0.933072	1.03223	1.09199	1.19309	1.04397	1.00255	0.924121	1.10313	1.07176	0.913135	0.620766	1.59403	1.76531	0.49831	0.72639	2.80367	1.20956	1.71095	1.53252	0.474695	0.537571	1.56805	1.70591	0.66152	0.734956	1.00807	
3.475	1.57132	1.30721	1.10394	1.01964	1.28062	0.910825	1.02432	1.43443	1.46192	1.4729	1.39269	1.42379	1.03291	1.10752	0.977207	0.994113	1.00317	1.24488	1.09561	0.999541	1.41626	1.37542	1.18132	1.32079	1.57279	1.20221	1.39682	1.00647	1.4895	1.31847	1.59671	1.05253	1.17812	1.13837	1.33109	1.48135	1.37739	1.15944	1.16845	1.16573	0.673687	0.872217	1.02739	1.04269	0.930661	0.723945	1.32302	1.07742	1.2332	1.49252	1.47606	1.51697	1.44314	0.637917	0.924459	1.0232	1.0796	1.19502	1.04418	0.99335	0.929274	1.10639	1.07009	0.909908	0.637174	1.59488	1.76668	0.498379	0.737234	2.8159	1.21799	1.69929	1.52749	0.474302	0.537611	1.5645	1.70726	0.654283	0.735018	0.999658	
3.48	1.56294	1.29928	1.1029	1.01825	1.27588	0.909625	1.02219	1.41517	1.45713	1.46785	1.39517	1.42734	1.03025	1.09356	0.97597	0.992902	1.00196	1.25765	1.1044	0.998342	1.43118	1.38941	1.19239	1.30567	1.57004	1.20498	1.39916	1.00521	1.48672	1.33348	1.58842	1.04717	1.16369	1.15235	1.33743	1.47489	1.38052	1.17445	1.18222	1.18	0.673504	0.871713	1.01751	1.03129	0.930216	0.723671	1.31206	1.08099	1.22435	1.49	1.47682	1.51797	1.4488	0.637766	0.915618	1.01397	1.0669	1.19591	1.03591	0.983564	0.933503	1.10859	1.06691	0.906365	0.65358	1.59598	1.76839	0.498448	0.748099	2.82992	1.22609	1.68559	1.52169	0.473842	0.53765	1.56054	1.70898	0.648102	0.727605	0.992237	
3.485	1.55412	1.29062	1.10259	1.01741	1.27157	0.908426	1.02022	1.39556	1.45179	1.46221	1.39782	1.43111	1.02786	1.08073	0.974734	0.991691	1.00077	1.27095	1.11413	0.997142	1.44598	1.40375	1.20427	1.29061	1.56632	1.20797	1.4017	1.00397	1.48332	1.34577	1.5797	1.04256	1.15029	1.16765	1.34245	1.46766	1.38385	1.18821	1.19465	1.19302	0.673322	0.871244	1.00766	1.02019	0.929772	0.723397	1.29985	1.08368	1.22082	1.48832	1.4771	1.51921	1.45429	0.637633	0.906631	1.00461	1.054	1.1957	1.02728	0.973287	0.936729	1.10966	1.06228	0.902629	0.669835	1.59734	1.77043	0.498518	0.758899	2.84541	1.23384	1.67021	1.51525	0.473295	0.537689	1.55618	1.71104	0.642906	0.725881	0.985784	
3.49	1.54486	1.2812	1.10307	1.01905	1.26777	0.907228	1.01838	1.37595	1.44594	1.45603	1.40058	1.43499	1.02569	1.07001	0.973498	0.990482	0.999578	1.28476	1.12486	0.995943	1.46062	1.41844	1.21703	1.27581	1.56158	1.21111	1.40437	1.00275	1.47927	1.35545	1.57059	1.03855	1.13819	1.18395	1.3461	1.4597	1.38733	1.20064	1.20568	1.20472	0.675513	0.870796	0.998288	1.00988	0.929327	0.723123	1.28668	1.08558	1.22415	1.48728	1.47799	1.52069	1.45965	0.637509	0.89757	0.995193	1.041	1.19437	1.01736	0.962593	0.9389	1.10958	1.04681	0.89882	0.685808	1.59894	1.77279	0.498587	0.769561	2.86205	1.24123	1.6535	1.5083	0.472642	0.537728	1.55113	1.71342	0.638618	0.725001	0.980251	
3.495	1.53512	1.27101	1.10443	1.02301	1.26454	0.906031	1.01665	1.35693	1.43966	1.44938	1.40339	1.4389	1.02371	1.06147	0.972263	0.989273	0.99839	1.29903	1.13665	0.994745	1.47505	1.43345	1.23074	1.26142	1.55582	1.21433	1.40713	1.00155	1.47453	1.36263	1.56113	1.03503	1.12761	1.20093	1.34835	1.45112	1.39089	1.21175	1.21542	1.21513	0.682063	0.87036	0.989578	1.00042	0.928883	0.72285	1.2728	1.08681	1.23525	1.48449	1.47452	1.52237	1.46492	0.637391	0.888505	0.985774	1.02801	1.19147	1.00729	0.951575	0.939994	1.10836	1.02802	0.895047	0.701391	1.60063	1.77542	0.498656	0.780023	2.87947	1.24824	1.63581	1.50096	0.471858	0.537768	1.54539	1.71593	0.635154	0.724537	0.975567	
3.5	1.5249	1.25998	1.1067	1.02841	1.26196	0.904835	1.01503	1.33885	1.43301	1.44233	1.40621	1.44277	1.02189	1.05466	0.971029	0.988064	0.997202	1.31372	1.14954	0.993547	1.48921	1.44875	1.24545	1.2476	1.54904	1.21759	1.40993	1.00035	1.46907	1.36743	1.55135	1.03189	1.11877	1.21823	1.34916	1.44201	1.39447	1.22173	1.22442	1.22458	0.689938	0.86993	0.981213	0.991151	0.928438	0.722577	1.25848	1.08747	1.23814	1.47989	1.46941	1.52417	1.47009	0.637277	0.879501	0.976413	1.01513	1.18701	0.997824	0.940344	0.940028	1.10601	1.01149	0.891409	0.716495	1.60208	1.77826	0.498725	0.790234	2.89734	1.25489	1.61749	1.49335	0.470918	0.537807	1.53919	1.71849	0.632429	0.722935	0.97165	
3.505	1.51415	1.24806	1.10995	1.03493	1.26008	0.903639	1.01349	1.32198	1.42608	1.43497	1.40898	1.44655	1.02021	1.04908	0.969795	0.986856	0.996015	1.32876	1.16357	0.99235	1.50307	1.46431	1.26122	1.23457	1.54123	1.22084	1.41273	0.999154	1.46285	1.37	1.5413	1.02908	1.11185	1.23547	1.34848	1.43247	1.39801	1.23103	1.23291	1.23344	0.698296	0.876158	0.972641	0.981014	0.927994	0.722305	1.24391	1.08768	1.23241	1.47461	1.46537	1.52598	1.47511	0.637164	0.870611	0.967157	1.00244	1.18175	0.988751	0.929009	0.939468	1.09985	0.997666	0.887996	0.731054	1.60343	1.78126	0.498795	0.800156	2.9153	1.26118	1.5989	1.48558	0.469795	0.537846	1.53264	1.72122	0.630348	0.722776	0.968415	
3.51	1.50286	1.23525	1.11423	1.04267	1.259	0.902444	1.01202	1.30653	1.41896	1.42738	1.41166	1.45019	1.01864	1.04437	0.968562	0.985649	0.994828	1.34406	1.17872	0.991154	1.51658	1.48006	1.27806	1.2225	1.53239	1.22402	1.41548	0.997961	1.45586	1.37071	1.53099	1.02653	1.10702	1.25236	1.34627	1.42263	1.40148	1.2397	1.24081	1.24174	0.707325	0.891566	0.963937	0.969397	0.92755	0.722033	1.2293	1.08756	1.22451	1.46905	1.46305	1.52768	1.47996	0.637052	0.861879	0.958035	0.990032	1.17495	0.97961	0.917659	0.938708	1.09467	0.985061	0.88489	0.745021	1.60498	1.78434	0.498864	0.809762	2.93304	1.26712	1.58289	1.47781	0.468468	0.537885	1.52581	1.72408	0.6288	0.725096	0.965772	
3.515	1.491	1.22157	1.11957	1.05169	1.25876	0.90125	1.01061	1.29268	1.41179	1.41969	1.41423	1.45365	1.01718	1.04032	0.967329	0.984442	1.00445	1.35951	1.19496	0.989958	1.52975	1.49591	1.29592	1.21159	1.52251	1.22711	1.41816	0.996768	1.44806	1.36966	1.52045	1.0242	1.10439	1.26872	1.34249	1.41268	1.40482	1.24766	1.24802	1.24934	0.717026	0.911403	0.955519	0.956899	0.927106	0.721762	1.2148	1.08721	1.21729	1.46329	1.46203	1.52925	1.48457	0.636941	0.853334	0.949069	0.978015	1.16736	0.970084	0.906363	0.935941	1.08923	0.97238	0.882166	0.758371	1.60674	1.78743	0.498933	0.819035	2.95027	1.27274	1.57048	1.47016	0.46692	0.537924	1.51884	1.72693	0.627661	0.730298	0.963627	
3.52	1.47858	1.20712	1.126	1.06197	1.25944	0.900057	1.00926	1.28052	1.40467	1.412	1.41666	1.45691	1.01581	1.03678	0.966098	0.990312	1.01792	1.37498	1.21219	0.988763	1.54255	1.51173	1.31467	1.20196	1.51158	1.23008	1.42073	0.995576	1.43945	1.36683	1.50969	1.02206	1.104	1.28441	1.33706	1.4028	1.40801	1.25487	1.25453	1.25625	0.727326	0.932051	0.947687	0.944463	0.926662	0.721478	1.20058	1.08675	1.21054	1.45749	1.46177	1.5307	1.48891	0.63683	0.844998	0.940271	0.96645	1.15968	0.960075	0.895163	0.932343	1.0824	0.959005	0.879894	0.771099	1.60849	1.79042	0.499002	0.827967	2.96671	1.27806	1.56033	1.46275	0.465142	0.537963	1.51191	1.72964	0.626802	0.735546	0.961882	
3.525	1.46566	1.19199	1.1335	1.07345	1.26109	0.898865	1.00795	1.27006	1.39771	1.40445	1.41893	1.45995	1.01451	1.03365	0.964866	1.00333	1.03233	1.39031	1.23027	0.987568	1.55493	1.52747	1.33417	1.19375	1.49955	1.23289	1.42318	0.994384	1.43001	1.36222	1.49876	1.02008	1.10588	1.29926	1.32994	1.39314	1.41102	1.26142	1.26045	1.26254	0.738185	0.952951	0.940523	0.932675	0.926219	0.724976	1.18679	1.0863	1.20393	1.45185	1.46193	1.53205	1.49293	0.63672	0.83688	0.931649	0.955371	1.15173	0.949609	0.884075	0.929286	1.07492	0.944757	0.878139	0.783215	1.61013	1.79325	0.499071	0.836562	2.98214	1.28311	1.55134	1.4557	0.463131	0.540502	1.50517	1.73215	0.626105	0.738283	0.960447	
3.53	1.45232	1.17628	1.14207	1.08604	1.26376	0.897674	1.00668	1.26127	1.39097	1.39714	1.42102	1.46276	1.01329	1.03087	0.963636	1.0173	1.04776	1.40533	1.24903	0.998077	1.56679	1.5431	1.35423	1.18703	1.48639	1.23554	1.42548	0.993192	1.41978	1.35587	1.48768	1.01823	1.10997	1.31311	1.32109	1.38377	1.41383	1.26737	1.26583	1.26827	0.749571	0.974537	0.934006	0.921733	0.925775	0.73508	1.17356	1.08595	1.19765	1.44657	1.46231	1.53329	1.49659	0.63661	0.828988	0.923208	0.944794	1.14314	0.938742	0.873097	0.925039	1.06716	0.929636	0.876966	0.794746	1.61159	1.79583	0.49914	0.844828	2.99639	1.28793	1.54319	1.44909	0.460897	0.547141	1.49882	1.7344	0.625467	0.738925	0.959243	
3.535	1.43865	1.1601	1.15164	1.09966	1.26743	0.896483	1.00545	1.25406	1.3845	1.39013	1.42295	1.46535	1.01212	1.02837	0.962405	1.03149	1.0641	1.41983	1.26828	1.01724	1.57802	1.55854	1.37466	1.18187	1.47213	1.23801	1.42763	0.991966	1.40879	1.3478	1.47652	1.01649	1.11615	1.32588	1.31047	1.37476	1.41643	1.27274	1.27068	1.27346	0.761453	0.996963	0.928098	0.911627	0.925332	0.747007	1.16099	1.0858	1.19207	1.44188	1.46282	1.53442	1.49985	0.636501	0.82132	0.914941	0.934721	1.1338	0.927521	0.862204	0.917673	1.05894	0.913685	0.876436	0.805729	1.61286	1.79808	0.499209	0.852782	3.0093	1.29254	1.53582	1.443	0.458456	0.556157	1.49306	1.73633	0.624798	0.738291	0.958188	
3.54	1.42478	1.14358	1.16214	1.11416	1.27211	0.895294	1.00423	1.24832	1.37834	1.38345	1.42469	1.46771	1.011	1.02611	0.961353	1.04604	1.08111	1.43358	1.28777	1.03746	1.58846	1.57372	1.39524	1.1783	1.45686	1.2403	1.42962	1.00579	1.397	1.33801	1.46536	1.01485	1.12424	1.33756	1.29813	1.36614	1.41882	1.27748	1.27498	1.27806	0.773797	1.01995	0.922922	0.902526	0.924889	0.759222	1.1491	1.08592	1.18743	1.43801	1.46337	1.53542	1.50267	0.636391	0.813872	0.906842	0.925137	1.12383	0.915977	0.851355	0.907722	1.05012	0.896944	0.876605	0.816215	1.6139	1.79991	0.499278	0.860443	3.02079	1.29698	1.52921	1.43748	0.45583	0.565222	1.48812	1.73789	0.624007	0.736923	0.957196	
3.545	1.41085	1.12688	1.17344	1.12939	1.27777	0.894105	1.00304	1.24392	1.3725	1.37714	1.42627	1.46985	1.00993	1.02405	0.973798	1.06073	1.09855	1.44636	1.30722	1.05809	1.59798	1.58852	1.41573	1.17632	1.44066	1.2424	1.43145	1.03738	1.38444	1.32649	1.45431	1.0133	1.13405	1.34819	1.28418	1.35798	1.42099	1.28153	1.27867	1.282	0.786572	1.04304	0.919042	0.89495	0.924446	0.772011	1.13794	1.0864	1.18394	1.43516	1.46391	1.53625	1.50501	0.636282	0.806599	0.898887	0.916016	1.11336	0.904128	0.840492	0.898988	1.04074	0.879454	0.877513	0.826271	1.61466	1.80127	0.499347	0.867838	3.03078	1.30128	1.52329	1.43256	0.453046	0.57316	1.48421	1.73904	0.623008	0.734884	0.956166	
3.55	1.39703	1.11022	1.1854	1.14517	1.2843	0.892917	1.00186	1.24069	1.36702	1.37122	1.42769	1.47178	1.00889	1.02216	0.987575	1.07539	1.11621	1.45802	1.32638	1.07916	1.60635	1.60283	1.43573	1.17589	1.42371	1.24432	1.43312	1.07712	1.37119	1.31328	1.44349	1.01182	1.14534	1.3578	1.26867	1.3503	1.42295	1.28481	1.28167	1.2852	0.799744	1.06607	0.916849	0.889208	0.924003	0.785409	1.12748	1.08728	1.18178	1.43354	1.46439	1.53689	1.50683	0.636173	0.79941	0.891032	0.907316	1.10252	0.891983	0.834126	0.891277	1.03091	0.861778	0.87917	0.828066	1.61513	1.8021	0.499415	0.874991	3.03925	1.30546	1.51801	1.42826	0.450118	0.57853	1.4816	1.73974	0.621737	0.732194	0.954977	
3.555	1.38345	1.09413	1.19783	1.16128	1.29159	0.891731	1.00069	1.23852	1.36192	1.36571	1.42895	1.47351	1.00789	1.0204	1.00061	1.08982	1.13384	1.46844	1.345	1.10033	1.61335	1.61622	1.45489	1.17698	1.40605	1.24606	1.43463	1.11708	1.35733	1.2985	1.43301	1.0104	1.15785	1.36645	1.25147	1.34314	1.42471	1.28724	1.28389	1.28757	0.812345	1.08913	0.915361	0.884985	0.92356	0.799269	1.11771	1.0886	1.18113	1.4333	1.46476	1.53727	1.50808	0.636065	0.79222	0.883225	0.898987	1.09137	0.879547	0.829662	0.883598	1.02071	0.847165	0.881568	0.828226	1.61527	1.80232	0.49948	0.88193	3.04623	1.30955	1.51334	1.42458	0.447078	0.582608	1.4805	1.73995	0.620129	0.728785	0.953525	
3.56	1.37023	1.08043	1.21053	1.17749	1.29947	0.890545	0.999525	1.2373	1.3572	1.36062	1.43006	1.47506	1.00692	1.01878	1.01359	1.10394	1.1512	1.47756	1.36287	1.12132	1.61895	1.62841	1.47297	1.17948	1.38786	1.24763	1.43599	1.15536	1.34298	1.28235	1.42303	1.00903	1.17135	1.3742	1.23257	1.33654	1.42627	1.28873	1.28526	1.28903	0.824023	1.10965	0.914084	0.881922	0.923118	0.813497	1.10862	1.09038	1.18214	1.43458	1.46498	1.53734	1.50872	0.635956	0.784971	0.875416	0.890969	1.08001	0.866822	0.827339	0.875762	1.0102	0.836689	0.884692	0.830676	1.61506	1.8019	0.49954	0.888682	3.05176	1.31357	1.50925	1.4215	0.443965	0.586625	1.48121	1.73963	0.618137	0.724687	0.951727	
3.565	1.35745	1.06966	1.22328	1.19353	1.30776	0.88936	0.998362	1.23698	1.35288	1.35596	1.43105	1.47642	1.00598	1.01726	1.0264	1.11767	1.16807	1.48539	1.37982	1.14186	1.6232	1.63936	1.4898	1.18331	1.36935	1.24903	1.43721	1.19256	1.3283	1.26482	1.4137	1.00771	1.18559	1.38111	1.21236	1.33048	1.42766	1.28923	1.28573	1.28952	0.836809	1.12766	0.913216	0.879819	0.922675	0.828017	1.10015	1.09264	1.18495	1.43746	1.46503	1.53704	1.50866	0.635848	0.777626	0.867557	0.8832	1.06851	0.853804	0.826346	0.867877	0.999437	0.8281	0.888504	0.834257	1.61446	1.80077	0.499592	0.89527	3.05591	1.31753	1.50571	1.41898	0.440823	0.590512	1.48399	1.73874	0.615736	0.719875	0.949516	
3.57	1.34518	1.06133	1.23585	1.20915	1.31623	0.888176	0.997198	1.23754	1.34895	1.35173	1.43191	1.47763	1.00505	1.01583	1.03885	1.13089	1.18422	1.49196	1.39574	1.16174	1.62622	1.64909	1.5053	1.18834	1.35072	1.25027	1.43829	1.22913	1.31348	1.24573	1.40518	1.01186	1.20036	1.38725	1.1914	1.32499	1.42888	1.28871	1.28526	1.28901	0.850255	1.14775	0.912569	0.878085	0.922233	0.842751	1.09228	1.09535	1.18965	1.44197	1.46489	1.53635	1.50785	0.63574	0.770146	0.859603	0.875615	1.05695	0.840546	0.825817	0.860002	0.988464	0.819998	0.892944	0.838468	1.61344	1.79891	0.499639	0.901719	3.05878	1.32042	1.50269	1.41697	0.437692	0.593989	1.48913	1.73723	0.612907	0.714409	0.946846	
3.575	1.33346	1.05473	1.24801	1.2241	1.32468	0.886993	0.998913	1.23904	1.34542	1.34792	1.43266	1.47868	1.00415	1.01448	1.05081	1.14348	1.19949	1.4974	1.41055	1.18074	1.62818	1.65768	1.51952	1.19446	1.33222	1.25136	1.43924	1.26466	1.29871	1.22526	1.39763	1.02958	1.21547	1.39266	1.17017	1.32005	1.42995	1.28717	1.28386	1.2875	0.864791	1.17284	0.911839	0.876016	0.921791	0.857619	1.08496	1.0985	1.19628	1.44807	1.46452	1.53522	1.50621	0.635632	0.762493	0.851509	0.868151	1.04538	0.830196	0.825336	0.852161	0.977324	0.812281	0.89793	0.843424	1.61198	1.79626	0.499682	0.908067	3.06051	1.32175	1.50013	1.41542	0.372247	0.596873	1.49669	1.73503	0.609635	0.708305	0.943686	
3.58	1.32226	1.0493	1.25958	1.23815	1.33286	0.885811	1.01478	1.24159	1.34227	1.34452	1.43331	1.4796	1.00326	1.0153	1.0622	1.15535	1.2137	1.50184	1.42419	1.19872	1.62932	1.66529	1.53268	1.20156	1.3141	1.25233	1.44007	1.29801	1.28419	1.20395	1.3912	1.05628	1.23076	1.39742	1.14901	1.31565	1.43088	1.28464	1.28157	1.28504	0.879785	1.20037	0.910819	0.873195	0.921349	0.872544	1.07817	1.10205	1.20484	1.45567	1.4639	1.53366	1.50363	0.635524	0.754632	0.843235	0.86075	1.03384	0.820193	0.824802	0.844384	0.966045	0.804977	0.903364	0.848562	1.61005	1.79278	0.499723	0.91434	3.06122	1.32251	1.49799	1.41426	0.329021	0.599098	1.50637	1.73208	0.605914	0.701662	0.940028	
3.585	1.31156	1.04472	1.27039	1.25113	1.34057	0.88463	1.04117	1.24534	1.33948	1.34151	1.43387	1.48039	1.00238	1.02258	1.07293	1.16642	1.22674	1.50548	1.43665	1.21557	1.62991	1.67211	1.54496	1.20953	1.29663	1.25316	1.4408	1.32836	1.27007	1.18239	1.38602	1.08457	1.24616	1.40158	1.12824	1.31176	1.43169	1.28119	1.27844	1.28168	0.895065	1.22756	0.9099	0.869881	0.920907	0.887458	1.07186	1.10594	1.21526	1.46462	1.46299	1.53163	1.50001	0.635417	0.746534	0.834744	0.853362	1.02238	0.807259	0.82423	0.836699	0.954638	0.798005	0.909144	0.853429	1.60759	1.78843	0.499766	0.920549	3.06107	1.32446	1.49621	1.41342	0.314671	0.600684	1.5178	1.7283	0.601755	0.694534	0.935882	
3.59	1.30128	1.04079	1.28027	1.26293	1.3476	0.88345	1.06944	1.25049	1.33703	1.33888	1.43435	1.48107	1.00151	1.03648	1.08296	1.17666	1.23852	1.50853	1.44796	1.23123	1.63026	1.67838	1.55653	1.21826	1.28001	1.25388	1.44143	1.35569	1.25648	1.16098	1.38219	1.11147	1.26163	1.40518	1.10849	1.30835	1.43238	1.2769	1.27455	1.2775	0.91102	1.25366	0.90966	0.86654	0.920466	0.902295	1.06599	1.11011	1.22738	1.4747	1.46175	1.52913	1.49522	0.635309	0.738178	0.826009	0.845944	1.01101	0.791374	0.823646	0.829115	0.943098	0.791418	0.915152	0.858267	1.60459	1.7832	0.49981	0.926702	3.06019	1.32775	1.49473	1.41281	0.313814	0.601699	1.53086	1.72361	0.5972	0.687039	0.931312	
3.595	1.29135	1.03736	1.28913	1.27347	1.3538	0.882271	1.09568	1.25725	1.3349	1.33658	1.43476	1.48166	1.00064	1.05459	1.09225	1.18603	1.249	1.51122	1.45824	1.24567	1.63066	1.68434	1.56758	1.22767	1.2644	1.25451	1.44197	1.38048	1.24356	1.13994	1.37978	1.13744	1.27719	1.40828	1.09145	1.30538	1.43297	1.27183	1.26997	1.27258	0.927028	1.27883	0.910104	0.863666	0.920024	0.916998	1.0605	1.11446	1.24102	1.48566	1.46014	1.52613	1.48909	0.635202	0.729551	0.817009	0.838469	0.99973	0.772581	0.822987	0.821626	0.931411	0.785014	0.921293	0.863715	1.60102	1.77704	0.499854	0.932804	3.05874	1.33155	1.49346	1.41239	0.315883	0.602231	1.54563	1.71793	0.592309	0.679246	0.926394	
3.6	1.28166	1.03436	1.29689	1.2827	1.35903	0.881094	1.12022	1.26582	1.33306	1.3346	1.43511	1.48216	0.999784	1.07487	1.1008	1.19452	1.25816	1.51391	1.46758	1.25892	1.6314	1.69024	1.57831	1.23769	1.24993	1.25504	1.44243	1.40335	1.23143	1.1195	1.37882	1.16338	1.29285	1.41093	1.07802	1.30282	1.43347	1.26604	1.26473	1.26697	0.942772	1.30318	0.910775	0.861619	0.919583	0.931519	1.05535	1.11894	1.256	1.49725	1.45809	1.52257	1.48147	0.635096	0.720651	0.807739	0.830919	0.988536	0.754653	0.822345	0.814212	0.919545	0.780995	0.927484	0.87095	1.59688	1.76996	0.499902	0.938857	3.05683	1.33527	1.49236	1.41207	0.317329	0.60238	1.5624	1.7112	0.587135	0.671276	0.921189	
3.605	1.27212	1.0317	1.30353	1.29061	1.36322	0.879917	1.14413	1.27638	1.33147	1.3329	1.4354	1.48258	0.998925	1.0966	1.10862	1.20215	1.26604	1.51677	1.47613	1.27103	1.63274	1.69631	1.58892	1.24827	1.23672	1.25549	1.44282	1.42428	1.22019	1.10058	1.3793	1.18953	1.30862	1.41319	1.06775	1.30062	1.4339	1.25953	1.25885	1.26067	0.958204	1.32671	0.911319	0.860218	0.919085	0.945821	1.05048	1.12347	1.27217	1.5092	1.45557	1.5184	1.47219	0.634989	0.71148	0.7982	0.82329	0.977408	0.738394	0.82174	0.806836	0.90746	0.779312	0.933704	0.880161	1.5923	1.76195	0.499955	0.94486	3.05459	1.33878	1.49136	1.41182	0.317902	0.602271	1.58193	1.70336	0.581702	0.663196	0.91572	
3.61	1.26263	1.02933	1.30904	1.29726	1.36632	0.878741	1.16781	1.28903	1.33012	1.33144	1.43565	1.48294	0.999706	1.11983	1.11575	1.20895	1.27269	1.51997	1.48402	1.28208	1.63487	1.70274	1.59965	1.25935	1.22482	1.25587	1.44316	1.44276	1.2099	1.085	1.38116	1.21586	1.32454	1.41511	1.05976	1.29874	1.43426	1.25226	1.25228	1.25367	0.973316	1.34946	0.911713	0.858907	0.918292	0.959875	1.04585	1.12799	1.28926	1.52149	1.45251	1.51358	1.46112	0.634882	0.702043	0.788403	0.815593	0.966308	0.722676	0.821156	0.799448	0.895101	0.773327	0.939997	0.890177	1.58738	1.75302	0.500014	0.950813	3.0521	1.34212	1.4904	1.41159	0.318071	0.602134	1.60619	1.69436	0.576011	0.655369	0.909997	
3.615	1.25311	1.02719	1.31348	1.30271	1.36834	0.877566	1.19123	1.30377	1.32896	1.33019	1.43586	1.48324	1.00998	1.14464	1.12223	1.21497	1.27819	1.52361	1.49151	1.29217	1.63794	1.70965	1.61047	1.2709	1.21424	1.2562	1.44344	1.45875	1.20055	1.07303	1.3843	1.24241	1.34066	1.41674	1.0533	1.29713	1.43456	1.24413	1.24493	1.24587	0.988128	1.37156	0.912073	0.857306	0.917148	0.973669	1.04143	1.13246	1.3069	1.53421	1.44885	1.50805	1.4482	0.634776	0.692352	0.778364	0.80785	0.955182	0.706597	0.820578	0.791985	0.882407	0.764451	0.946457	0.90053	1.58215	1.74321	0.500077	0.956714	3.04943	1.34533	1.48945	1.41136	0.318154	0.602035	1.63339	1.68418	0.570066	0.648664	0.904041	
3.62	1.24351	1.02525	1.31694	1.30708	1.36935	0.876393	1.21437	1.3205	1.32795	1.32911	1.43604	1.4835	1.02968	1.1709	1.12813	1.22029	1.28266	1.52774	1.49875	1.30139	1.642	1.71714	1.62119	1.28288	1.20491	1.25648	1.44369	1.47259	1.1921	1.06386	1.38858	1.26926	1.35701	1.41813	1.0479	1.29574	1.43483	1.23508	1.23673	1.2372	1.00267	1.39323	0.912489	0.85545	0.915899	0.987199	1.03719	1.13684	1.32475	1.54753	1.44453	1.50174	1.43346	0.63467	0.682422	0.768106	0.800093	0.943964	0.689979	0.820001	0.784373	0.869311	0.754983	0.95313	0.911352	1.57666	1.73257	0.500142	0.96256	3.04663	1.34837	1.48847	1.41113	0.318256	0.601968	1.66128	1.67284	0.563895	0.643613	0.897898	
3.625	1.2338	1.02348	1.31953	1.31051	1.36944	0.875221	1.23727	1.33899	1.32707	1.32816	1.43619	1.48373	1.0538	1.1982	1.1335	1.22497	1.28623	1.5324	1.50581	1.30991	1.64703	1.72522	1.63184	1.2952	1.19673	1.25673	1.4439	1.48469	1.18449	1.0566	1.39381	1.29623	1.37362	1.41935	1.04328	1.29452	1.43505	1.22518	1.22772	1.22774	1.01695	1.41458	0.913011	0.853553	0.914768	1.00048	1.03311	1.14111	1.34253	1.56173	1.43948	1.49456	1.41703	0.634564	0.672278	0.757658	0.792366	0.932576	0.672939	0.819423	0.776533	0.855741	0.745851	0.959995	0.923057	1.57092	1.72115	0.500209	0.968351	3.04371	1.35124	1.48746	1.41091	0.318384	0.601916	1.6894	1.66036	0.55757	0.641246	0.891623	
3.63	1.22397	1.02185	1.32139	1.31315	1.36876	0.874049	1.26002	1.35895	1.32628	1.32731	1.43633	1.48394	1.07862	1.22609	1.13845	1.22912	1.28905	1.53754	1.51273	1.31798	1.65293	1.73382	1.64248	1.3078	1.18953	1.25694	1.44409	1.4954	1.17758	1.05062	1.39979	1.32291	1.39052	1.42044	1.03927	1.29342	1.43526	1.21455	1.21805	1.21763	1.03095	1.43517	0.91368	0.851802	0.912973	1.01349	1.02918	1.14527	1.36003	1.57736	1.43362	1.48637	1.3993	0.634459	0.661949	0.747049	0.784718	0.920935	0.655559	0.818846	0.768375	0.841627	0.737462	0.967016	0.935831	1.56499	1.70904	0.500276	0.974086	3.04065	1.35392	1.48643	1.4107	0.318522	0.601868	1.71757	1.64681	0.551219	0.640594	0.885267	
3.635	1.21402	1.02035	1.32269	1.31519	1.36747	0.872879	1.28257	1.37999	1.32554	1.32651	1.43646	1.48413	1.10311	1.25421	1.14306	1.23285	1.29128	1.5431	1.51958	1.32572	1.6595	1.74284	1.6531	1.32059	1.18311	1.25715	1.44427	1.505	1.17124	1.04556	1.40629	1.34908	1.40773	1.42145	1.03576	1.29239	1.43545	1.20281	1.20767	1.20658	1.04471	1.45459	0.914534	0.849616	0.910747	1.02624	1.0254	1.14931	1.37716	1.59571	1.42689	1.47703	1.38074	0.634353	0.65147	0.736314	0.777209	0.908948	0.63785	0.818269	0.759811	0.826903	0.731208	0.974173	0.949625	1.55888	1.69633	0.500344	0.979766	3.03743	1.35641	1.48538	1.41054	0.31866	0.601821	1.74544	1.63227	0.545029	0.640538	0.878862	
3.64	1.204	1.01896	1.32361	1.3168	1.36579	0.87171	1.30471	1.40159	1.32482	1.32573	1.43659	1.48431	1.12747	1.28197	1.14745	1.23629	1.29312	1.54896	1.52639	1.33326	1.66651	1.75209	1.66366	1.33348	1.17722	1.25734	1.44444	1.51385	1.1653	1.04119	1.41305	1.37477	1.42509	1.42244	1.03265	1.29138	1.43563	1.18964	1.19603	1.19415	1.05825	1.4727	0.915612	0.847357	0.908607	1.03878	1.0218	1.15325	1.39386	1.61795	1.4192	1.46639	1.36112	0.634248	0.640879	0.725493	0.769905	0.896522	0.619821	0.817692	0.750751	0.811513	0.727969	0.981469	0.959117	1.55265	1.68312	0.500412	0.985393	3.03397	1.35872	1.48438	1.41044	0.318794	0.601774	1.77268	1.61686	0.539388	0.640541	0.872422	
3.645	1.19393	1.01766	1.32435	1.3182	1.36394	0.870542	1.32624	1.42292	1.32408	1.32492	1.43672	1.4845	1.1518	1.30853	1.15173	1.23957	1.29475	1.55498	1.5332	1.34072	1.67363	1.76137	1.6741	1.34638	1.17159	1.25754	1.44462	1.52228	1.15955	1.03738	1.41981	1.4003	1.44229	1.42345	1.02987	1.29034	1.43582	1.17504	1.18285	1.18028	1.0716	1.48952	0.916954	0.845541	0.906239	1.05115	1.01839	1.1571	1.41008	1.64076	1.41059	1.4543	1.34085	0.634143	0.630216	0.714622	0.762875	0.883561	0.601504	0.817117	0.74111	0.79541	0.720736	0.988913	0.969413	1.54634	1.66955	0.50048	0.990968	3.03021	1.36084	1.48345	1.41045	0.318926	0.601728	1.79902	1.60071	0.534501	0.640475	0.865934	
