CEINMS output
datacolumns 7
datarows 92
endheader
time	addbrev_r	addlong_r	addmagDist_r	addmagIsch_r	addmagMid_r	addmagProx_r	bflh_r	bfsh_r	edl_r	ehl_r	fdl_r	fhl_r	gaslat_r	gasmed_r	glmax1_r	glmax2_r	glmax3_r	glmed1_r	glmed2_r	glmed3_r	glmin1_r	glmin2_r	glmin3_r	grac_r	iliacus_r	perbrev_r	perlong_r	piri_r	psoas_r	recfem_r	sart_r	semimem_r	semiten_r	soleus_r	tfl_r	tibant_r	tibpost_r	vasint_r	vaslat_r	vasmed_r	addbrev_l	addlong_l	addmagDist_l	addmagIsch_l	addmagMid_l	addmagProx_l	bflh_l	bfsh_l	edl_l	ehl_l	fdl_l	fhl_l	gaslat_l	gasmed_l	glmax1_l	glmax2_l	glmax3_l	glmed1_l	glmed2_l	glmed3_l	glmin1_l	glmin2_l	glmin3_l	grac_l	iliacus_l	perbrev_l	perlong_l	piri_l	psoas_l	recfem_l	sart_l	semimem_l	semiten_l	soleus_l	tfl_l	tibant_l	tibpost_l	vasint_l	vaslat_l	vasmed_l	
3.19	75810.8	19.3038	8.75564	10	1	400	
3.195	94644.4	15.3707	6.81942	10	1	400	
3.2	73404.9	6.15831	2.50055	10	1	400	
3.205	77396.4	11.5023	2.18704	10	1	400	
3.21	85113.8	11.5523	2.23272	10	1	400	
3.215	79920.6	9.96766	1.717	10	1	400	
3.22	71462.1	9.20962	1.53679	10	1	400	
3.225	66601.3	9.04836	1.55962	10	1	400	
3.23	67404.2	9.08717	1.64482	10	1	400	
3.235	73253.3	10.2498	2.69013	10	1	400	
3.24	80258.2	9.96397	3.12922	10	1	400	
3.245	82654.8	9.88764	3.15411	10	1	400	
3.25	78985.7	9.88315	3.14636	10	1	400	
3.255	71293.7	11.8966	3.27372	10	1	400	
3.26	61742	12.2771	3.18013	10	1	400	
3.265	51386.2	10.8634	3.14466	10	1	400	
3.27	42235.2	10.8057	3.12512	10	1	400	
3.275	35275.8	10.8699	3.09931	10	1	400	
3.28	30153.6	10.8403	3.11432	10	1	400	
3.285	28058.7	9.74706	3.12507	10	1	400	
3.29	28882.1	9.58506	3.22677	10	1	400	
3.295	33013.6	10.8028	4.97798	10	1	400	
3.3	40275.9	11.0388	5.25057	10	1	400	
3.305	46938.6	11.2732	5.1824	10	1	400	
3.31	41156.4	10.6549	4.30847	10	1	400	
3.315	29798.7	10.1588	4.00143	10	1	400	
3.32	19993.2	9.1242	3.35446	10	1	400	
3.325	13164.3	8.05705	2.56469	10	1	400	
3.33	8735.83	7.93292	1.74899	10	1	400	
3.335	6038.83	7.26873	1.08461	10	1	400	
3.34	4500.38	7.4266	1.1861	10	1	400	
3.345	3536.57	7.97478	1.59231	10	1	400	
3.35	3096.02	8.07486	1.66668	10	1	400	
3.355	3584.1	7.83709	1.81525	10	1	400	
3.36	5598.35	8.09939	2.03221	10	1	400	
3.365	9691.38	8.47396	2.24854	10	1	400	
3.37	15616.7	8.59809	2.40464	10	1	400	
3.375	23232	8.57655	2.53666	10	1	400	
3.38	32300.4	8.67732	2.65144	10	1	400	
3.385	43918.6	7.89157	2.81108	10	1	400	
3.39	56581.6	8.89384	2.99087	10	1	400	
3.395	63513.7	8.97309	2.96842	10	1	400	
3.4	66364.5	7.37055	3.0925	10	1	400	
3.405	58869.3	7.14466	3.20061	10	1	400	
3.41	47322.5	7.81884	3.56763	10	1	400	
3.415	38398.3	10.1998	5.82644	10	1	400	
3.42	31703.9	11.4971	6.11559	10	1	400	
3.425	26149	10.4947	5.8541	10	1	400	
3.43	22429.2	10.7477	5.5374	10	1	400	
3.435	19878.3	10.8583	4.8266	10	1	400	
3.44	17794.4	11.6528	4.27309	10	1	400	
3.445	15355	12.0142	3.93584	10	1	400	
3.45	12574.8	12.4721	3.67711	10	1	400	
3.455	10389.9	12.6031	3.46034	10	1	400	
3.46	9244.93	11.4474	2.7585	10	1	400	
3.465	8026.84	10.7531	2.63906	10	1	400	
3.47	6451.06	10.7488	2.4744	10	1	400	
3.475	4698.06	10.2972	2.49581	10	1	400	
3.48	668.754	11.1142	1.89016	10	1	400	
3.485	230.152	8.10527	1.54941	10	1	400	
3.49	65.497	9.14051	0.528761	10	1	400	
3.495	46.2693	9.54849	0.507522	10	1	400	
3.5	169.617	12.069	0.839905	10	1	400	
3.505	795.184	14.0532	1.92377	10	1	400	
3.51	2497.9	14.2114	2.60693	10	1	400	
3.515	5438.36	15.2876	2.92545	10	1	400	
3.52	8682.91	16.3165	3.23077	10	1	400	
3.525	11034.2	16.3131	3.36013	10	1	400	
3.53	11841.6	16.1862	3.40849	10	1	400	
3.535	11512.2	15.5613	3.28736	10	1	400	
3.54	11425.8	13.7713	2.30707	10	1	400	
3.545	12101.1	12.8113	1.16688	10	1	400	
3.55	13852.8	11.9492	1.15028	10	1	400	
3.555	15689.2	10.6228	1.29845	10	1	400	
3.56	17361	10.1579	1.10806	10	1	400	
3.565	18568.6	10.2141	0.998132	10	1	400	
3.57	19058.8	9.92821	0.97773	10	1	400	
3.575	18771.5	8.95421	0.898131	10	1	400	
3.58	18012	9.80794	0.885447	10	1	400	
3.585	17177.7	10.0657	0.814885	10	1	400	
3.59	16583.6	10.0738	0.835793	10	1	400	
3.595	16401.7	10.7041	0.827604	10	1	400	
3.6	16575.8	11.3964	0.857732	10	1	400	
3.605	16984.5	11.0156	0.824799	10	1	400	
3.61	17231.9	10.7046	0.832736	10	1	400	
3.615	19413.9	10.0723	0.705746	10	1	400	
3.62	25121	9.56132	0.591787	10	1	400	
3.625	34612.8	9.04874	0.601846	10	1	400	
3.63	47726.2	8.48477	0.657905	10	1	400	
3.635	64414.2	8.17	0.77134	10	1	400	
3.64	79532.8	7.57846	0.736122	10	1	400	
3.645	102253	6.95714	1.15747	10	1	400	
