CEINMS output
datacolumns 6
datarows 92
endheader
time	hip_flexion_l	hip_adduction_l	hip_rotation_l	knee_angle_l	ankle_angle_l	
3.19	49.7147	-111.221	30.5201	-190.636	2.9807	
3.195	80.2723	-164.154	38.8712	-257.076	9.04434	
3.2	36.573	-133.019	16.227	-269.052	7.17874	
3.205	-19.5528	-98.8135	-22.9723	-271.439	7.65649	
3.21	-1.76862	-96.9614	-49.1466	-278.161	10.3696	
3.215	56.044	-108.266	-53.5224	-285.107	13.9133	
3.22	111.431	-114.944	-46.8222	-287.386	17.7615	
3.225	145.818	-113.506	-44.4365	-285.576	20.5007	
3.23	162.478	-105.885	-43.4458	-287.541	22.6276	
3.235	162.349	-111.808	-43.1192	-295.229	24.4489	
3.24	160.581	-103.81	-46.5992	-303.428	26.2517	
3.245	155.901	-90.3317	-51.5967	-301.514	28.1745	
3.25	146.992	-78.4716	-55.971	-286.954	30.2986	
3.255	133.978	-73.5342	-57.6874	-264.282	32.6429	
3.26	119.113	-72.9751	-57.1252	-237.456	35.1395	
3.265	103.87	-74.5185	-54.9329	-206.981	37.5744	
3.27	86.9736	-77.2984	-52.0587	-173.969	39.7918	
3.275	66.8794	-78.3134	-48.7594	-138.915	41.7093	
3.28	42.4742	-72.723	-44.9351	-101.015	43.2643	
3.285	11.6936	-62.3873	-41.3556	-68.4361	41.0238	
3.29	-26.0539	-49.5178	-37.6468	-37.6022	36.8785	
3.295	-70.6721	-34.4043	-33.705	-23.0341	35.3352	
3.3	-120.353	-17.1082	-29.5988	-20.3606	34.9208	
3.305	-161.293	-1.96756	-25.4158	-27.1023	33.9058	
3.31	-164.661	2.89758	-21.5408	-32.0407	32.1925	
3.315	-146.694	2.41945	-18.1835	-32.4305	30.0893	
3.32	-124.813	3.81327	-15.7393	-33.0859	27.8173	
3.325	-104.809	8.93746	-13.1538	-33.5849	25.5187	
3.33	-87.479	8.84036	-2.98042	-33.8388	23.3845	
3.335	-73.1368	6.59511	6.36369	-32.6671	21.6786	
3.34	-63.0966	4.35901	8.86292	-30.0179	20.7447	
3.345	-56.6876	0.035419	10.0498	-22.533	20.8746	
3.35	-53.425	-1.7273	9.34059	-8.68737	21.5508	
3.355	-54.5743	-0.74308	7.19133	13.5948	22.6604	
3.36	-60.1927	3.81166	4.52604	44.1612	23.9784	
3.365	-75.1549	12.8418	2.74173	78.9828	25.1603	
3.37	-101.127	27.072	3.2011	113.926	26.1009	
3.375	-130.726	41.8134	3.39278	152.245	26.8502	
3.38	-159.799	50.9413	4.98861	195.071	27.4638	
3.385	-189.021	57.0317	6.10205	243.423	27.9452	
3.39	-218.017	60.0301	7.62864	291.54	28.2344	
3.395	-242.408	62.9579	11.8841	325.06	28.2514	
3.4	-270.615	64.6991	14.9555	349.044	27.8868	
3.405	-306.348	58.6195	15.2934	352.063	27.0515	
3.41	-319.601	55.7887	13.865	343.073	25.7	
3.415	-329.585	63.604	12.7827	331.667	23.8344	
3.42	-346.097	69.3455	19.5259	320.169	21.52	
3.425	-361.454	73.5036	26.7974	307.239	18.8559	
3.43	-371.704	75.6631	31.4575	296.234	15.9218	
3.435	-375.436	75.6447	33.4645	285.489	12.7872	
3.44	-374.43	74.8077	33.3789	273.199	9.49939	
3.445	-369.851	73.9538	31.4927	255.299	6.06375	
3.45	-362.568	73.2982	28.1856	229.442	2.45665	
3.455	-352.965	72.9921	23.8243	198.083	-1.40885	
3.46	-341.603	73.1618	18.7816	174.467	-5.49864	
3.465	-329.241	73.8362	13.3606	167.495	-5.92286	
3.47	-316.6	74.9642	7.78012	159.313	-5.57055	
3.475	-304.181	76.388	2.26291	150.198	-7.31389	
3.48	-296.15	67.9295	3.13222	118.293	-11.6812	
3.485	-288.286	59.533	3.27886	100.221	-21.6919	
3.49	-279.778	48.7276	4.10973	85.4704	-36.3119	
3.495	-271.157	32.5489	8.18038	68.3336	-53.9718	
3.5	-263.951	15.5329	12.8548	52.1819	-68.4176	
3.505	-258.763	1.6718	19.8239	39.5543	-80.7815	
3.51	-251.694	-11.1229	26.8021	30.0902	-92.8436	
3.515	-240.053	-24.2246	30.461	21.538	-104.899	
3.52	-225.007	-32.9678	27.8222	10.4477	-116.55	
3.525	-208.651	-34.5186	19.9013	-6.32418	-127.145	
3.53	-193.87	-32.7328	10.2289	-23.3654	-136.29	
3.535	-182.133	-31.4238	1.34537	-37.4084	-143.6	
3.54	-171.8	-29.5034	-6.59213	-47.8051	-148.906	
3.545	-159.484	-37.2902	-8.70203	-54.6395	-152	
3.55	-128.422	-34.7021	-5.69499	-58.3491	-152.847	
3.555	-91.9078	-26.6243	-2.18896	-59.4761	-151.478	
3.56	-60.307	-17.8469	-2.64111	-58.7068	-148.098	
3.565	-30.2343	-10.0683	-2.67984	-56.6137	-143.059	
3.57	-2.61922	-4.66361	-2.86765	-52.6941	-136.763	
3.575	21.1653	-1.5281	-3.67128	-46.7994	-129.1	
3.58	41.2629	-1.65776	-4.10485	-40.4607	-118.916	
3.585	56.2112	-4.81774	-3.48361	-37.8018	-105.112	
3.59	67.2992	-11.5837	-2.29042	-39.6926	-87.581	
3.595	75.862	-22.0788	-1.42754	-45.0005	-67.1141	
3.6	82.7153	-29.1287	-1.35963	-52.5701	-45.432	
3.605	88.4948	-29.3172	-1.79967	-61.8938	-25.8498	
3.61	94.6297	-24.965	-2.17191	-72.8829	-15.3198	
3.615	101.041	-18.2426	-2.47282	-85.3409	-9.791	
3.62	107.133	-9.91334	-2.92217	-99.2646	-4.19881	
3.625	112.174	0.252382	-3.79377	-113.898	1.14208	
3.63	115.846	12.6622	-5.24894	-127.42	5.08979	
3.635	118.502	27.903	-7.29095	-139.066	7.18035	
3.64	131.421	43.2035	-6.76423	-150.358	8.32321	
3.645	143.283	60.932	-6.75485	-159.813	7.48223	
