CEINMS output
datacolumns 100
datarows 92
endheader
time	addbrev_l_hip_flexion_l	addlong_l_hip_flexion_l	addmagDist_l_hip_flexion_l	addmagIsch_l_hip_flexion_l	addmagMid_l_hip_flexion_l	addmagProx_l_hip_flexion_l	bflh_l_hip_flexion_l	glmax1_l_hip_flexion_l	glmax2_l_hip_flexion_l	glmax3_l_hip_flexion_l	glmed1_l_hip_flexion_l	glmed2_l_hip_flexion_l	glmed3_l_hip_flexion_l	glmin1_l_hip_flexion_l	glmin2_l_hip_flexion_l	glmin3_l_hip_flexion_l	grac_l_hip_flexion_l	iliacus_l_hip_flexion_l	piri_l_hip_flexion_l	psoas_l_hip_flexion_l	recfem_l_hip_flexion_l	sart_l_hip_flexion_l	semimem_l_hip_flexion_l	semiten_l_hip_flexion_l	tfl_l_hip_flexion_l	addbrev_l_hip_adduction_l	addlong_l_hip_adduction_l	addmagDist_l_hip_adduction_l	addmagIsch_l_hip_adduction_l	addmagMid_l_hip_adduction_l	addmagProx_l_hip_adduction_l	bflh_l_hip_adduction_l	glmax1_l_hip_adduction_l	glmax2_l_hip_adduction_l	glmax3_l_hip_adduction_l	glmed1_l_hip_adduction_l	glmed2_l_hip_adduction_l	glmed3_l_hip_adduction_l	glmin1_l_hip_adduction_l	glmin2_l_hip_adduction_l	glmin3_l_hip_adduction_l	grac_l_hip_adduction_l	iliacus_l_hip_adduction_l	piri_l_hip_adduction_l	psoas_l_hip_adduction_l	recfem_l_hip_adduction_l	sart_l_hip_adduction_l	semimem_l_hip_adduction_l	semiten_l_hip_adduction_l	tfl_l_hip_adduction_l	addbrev_l_hip_rotation_l	addlong_l_hip_rotation_l	addmagDist_l_hip_rotation_l	addmagIsch_l_hip_rotation_l	addmagMid_l_hip_rotation_l	addmagProx_l_hip_rotation_l	bflh_l_hip_rotation_l	glmax1_l_hip_rotation_l	glmax2_l_hip_rotation_l	glmax3_l_hip_rotation_l	glmed1_l_hip_rotation_l	glmed2_l_hip_rotation_l	glmed3_l_hip_rotation_l	glmin1_l_hip_rotation_l	glmin2_l_hip_rotation_l	glmin3_l_hip_rotation_l	grac_l_hip_rotation_l	iliacus_l_hip_rotation_l	piri_l_hip_rotation_l	psoas_l_hip_rotation_l	recfem_l_hip_rotation_l	sart_l_hip_rotation_l	semimem_l_hip_rotation_l	semiten_l_hip_rotation_l	tfl_l_hip_rotation_l	bflh_l_knee_angle_l	bfsh_l_knee_angle_l	gaslat_l_knee_angle_l	gasmed_l_knee_angle_l	grac_l_knee_angle_l	recfem_l_knee_angle_l	sart_l_knee_angle_l	semimem_l_knee_angle_l	semiten_l_knee_angle_l	tfl_l_knee_angle_l	vasint_l_knee_angle_l	vaslat_l_knee_angle_l	vasmed_l_knee_angle_l	edl_l_ankle_angle_l	ehl_l_ankle_angle_l	fdl_l_ankle_angle_l	fhl_l_ankle_angle_l	gaslat_l_ankle_angle_l	gasmed_l_ankle_angle_l	perbrev_l_ankle_angle_l	perlong_l_ankle_angle_l	soleus_l_ankle_angle_l	tibant_l_ankle_angle_l	tibpost_l_ankle_angle_l	
3.19	0	0	-0	-0	0	0	-0	-0	-0	-0	-0	-0	-0	-0	-0	-0	0	0	-0	0	0	0	-0	-0	0	0	0	0	0	0	0	0	-0	-0	0	-0	-0	-0	-0	-0	-0	0	-0	-0	0	-0	-0	0	0	-0	0	0	-0	0	-0	-0	-0	-0	-0	-0	0	-0	-0	0	0	-0	-0	0	-0	0	-0	-0	-0	-0	-0	0	0	0	0	0	-0	0	0	0	-0	-0	-0	-0	0	0	-0	-0	-0	-0	-0	-0	-0	0	-0	
3.195	0.98051	103.496	-5.70773	-11.4482	0.760665	0.493964	-4.47078	-0.0507097	-0.282541	-0.0151373	-65.0859	-18.9303	-2.09303e-11	-4.08901	-10.5798	-0	0.106596	0.0193599	-0	0.0542712	346.681	14.3462	-255.149	-41.2231	2.49218e-16	1.73147	128.788	19.386	16.1091	7.61005	1.14084	3.49001	-0.0203759	-0.0402049	0.0140358	-123.055	-33.2573	-3.87371e-11	-15.8953	-38.457	-0	0.447419	-0.00511182	-0	0.00837248	-277.247	-16.3861	165.98	37.1084	-8.00621e-16	0.111613	10.7702	-0.0568168	1.52207	-0.0460877	-0.169041	-0.522147	-0.0146898	-0.0772258	-0.00457611	51.2812	-7.07133	-3.78986e-11	4.53185	1.03773	-0	-0.0390387	0.00557465	-0	0.00142057	-28.0066	-1.7742	-0.565413	-1.00356	-2.57363e-17	3.60433	3.30714	38.8244	0	0.243843	-548.233	12.8801	273.912	46.3906	-1.89385e-16	-0	-0.123616	-0.000421937	25.334	48.0233	-9.79561	-36.5769	-62.4442	-0	-17.8789	-60.9857	-0	223.12	-104.424	
3.2	0.580372	101.18	-5.35051	-10.7213	0.714831	0.234312	-0.273653	-1.92841e-09	-5.59394e-10	-2.17869e-09	-74.9671	-25.2885	-1.87117e-08	-4.66343	-3.32729	-0	0	0.434898	-0	0.164225	355.637	13.8162	-223.205	-36.3045	0	1.01707	125.25	18.3424	14.9846	6.74643	0.534648	0.211664	-7.43011e-10	-7.53281e-11	2.00502e-09	-140.361	-43.2955	-3.30639e-08	-17.8121	-11.7117	-0	0	-0.113339	-0	0.025622	-281.642	-15.584	143.378	32.437	-0	0.0643053	10.4688	-0.060622	1.43314	-0.0429453	-0.0798051	-0.0319821	-5.60917e-10	-1.49946e-10	-6.49143e-10	57.0986	-9.8464	-3.33341e-08	4.9613	0.248414	-0	-0	0.124066	-0	0.00371877	-27.6675	-1.71846	-0.522331	-0.931953	-0	0.224629	2.25818	35.0931	0	0	-556.056	13.2349	247.685	42.5004	-0	-2.81272e-12	-14.6502	-7.97649	25.4796	48.0077	-9.75915	-36.472	-55.4157	-0	-17.9099	-61.0043	-3.76599e-07	223.073	-104.969	
3.205	0.465576	99.052	-6.60616	-11.5323	1.0706	0.262764	-0	-2.14838	-8.2536	-2.91679e-11	-67.5253	-29.8699	-1.58371e-08	-4.74296	-1.99137	-5.22235e-13	0.480595	0.639211	-1.79425e-10	0.203022	353.352	13.336	-198.25	-35.0219	1.85216e-10	0.810253	122.056	22.8078	15.9841	9.60017	0.592841	0	-0.793966	-1.05509	2.65991e-11	-125.095	-49.8128	-2.67212e-08	-17.7789	-6.78657	-1.55839e-12	1.87272	-0.164122	-6.49128e-10	0.0320928	-276.781	-14.825	125.507	30.9986	-6.16715e-10	0.0501875	10.1936	-0.0849836	1.54946	-0.0647361	-0.0891911	-0	-0.625815	-2.16544	-8.55365e-12	49.7675	-12.0329	-2.77153e-08	4.85186	0.110074	-5.35468e-13	-0.172571	0.180683	-7.44806e-10	0.00386823	-26.3754	-1.66811	-0.420977	-0.927894	-1.71741e-11	0	2.39021	34.6571	5.43128e-09	1.10387	-546.419	13.5435	226.436	42.4542	-1.40078e-10	-0	-21.4846	-11.7313	25.5755	47.9631	-9.69786	-36.5997	-53.6843	-8.68794e-09	-18.1625	-61.1594	-2.18671e-11	222.68	-106.062	
3.21	0.378588	96.7549	-7.28176	-12.2056	1.24509	0.246528	-1.48748e-12	-3.82562	-17.5479	-2.897e-11	-66.6973	-29.048	-2.17229e-08	-2.50408	-0.639363	-4.61812e-12	1.52985	0.606141	-0	0.181388	351.504	12.8907	-174.782	-32.5223	1.22131e-10	0.654907	118.773	25.2238	16.7386	10.7019	0.550583	1.12319e-12	-1.35721	-2.14039	2.61195e-11	-122.16	-47.1646	-3.50022e-08	-9.20168	-2.10953	-1.31757e-11	5.78027	-0.152926	-0	0.0291296	-271.885	-14.0828	108.78	28.4445	-4.13014e-10	0.0396788	9.90819	-0.106535	1.64767	-0.0773618	-0.0835492	-1.72894e-13	-1.11213	-4.49421	-8.34545e-12	47.6807	-12.003	-3.72545e-08	2.47205	0.0262997	-4.62823e-12	-0.54619	0.169779	-0	0.00278482	-25.0455	-1.62123	-0.269323	-0.870205	-1.02949e-11	1.26189e-12	2.32964	34.0996	6.45187e-10	3.53264	-535.725	13.7882	204.551	40.6236	-9.14463e-11	-6.47784e-09	-21.5162	-11.7195	25.6358	47.9229	-9.60996	-36.6916	-51.7912	-9.86385e-10	-18.2542	-61.2645	-0	222.345	-107.011	
3.215	0.273734	94.1383	-6.44542	-11.6946	1.04848	0.122211	-0	-3.64516	-18.302	-0.329308	-67.5976	-17.588	-2.28155e-08	-1.26125	-0.335498	-2.25542e-13	1.96322	0.529634	-2.24116e-07	0.142443	350.111	12.4655	-152.569	-29.614	1.05015e-10	0.471183	115.224	22.2822	15.8215	8.72827	0.270558	0	-1.24315	-2.14492	0.292703	-122.322	-27.7946	-3.51173e-08	-4.53937	-1.07184	-6.15773e-13	7.221	-0.130853	-6.83292e-07	0.0233174	-266.85	-13.3348	93.0729	25.5126	-3.5954e-10	0.0278712	9.59759	-0.1075	1.58487	-0.068591	-0.0414478	-0	-1.0531	-4.56076	-0.092955	47.0507	-7.38416	-3.82239e-08	1.20843	0.0111264	-2.19875e-13	-0.702674	0.147008	-8.1373e-07	0.00163855	-23.6653	-1.57583	-0.087114	-0.781726	-7.6203e-12	0	1.87748	32.5257	7.34794e-10	4.59765	-521.891	13.9468	182.059	37.9115	-7.73248e-11	-1.38712e-08	-20.287	-11.0713	25.6659	47.9084	-9.52982	-36.6894	-48.4378	-1.07727e-09	-18.2245	-61.2871	-2.07078e-08	222.194	-107.551	
3.22	0.151383	91.1452	-4.78802	-9.9705	0.702513	0	-0.00671835	-3.70106	-17.8148	-3.76034	-66.0192	-4.20172	-0	-0.710408	-0.344211	-5.29914e-08	1.90612	0.453964	-4.50472e-06	0.0978783	349.306	12.0524	-132.911	-27.084	4.12064e-06	0.259604	111.343	16.4074	13.2598	5.73166	0	0.00489648	-1.21578	-2.0232	3.2838	-117.975	-6.46168	-0	-2.50285	-1.06526	-1.38607e-07	6.85937	-0.109373	-1.26826e-05	0.0163941	-261.671	-12.5704	79.2028	22.8979	-1.42199e-05	0.0149598	9.25624	-0.0911159	1.35524	-0.0496824	-0	-0.000767776	-1.05763	-4.30337	-1.03697	44.9742	-1.77422	-0	0.66564	0.0110269	-4.99665e-08	-0.689832	0.124862	-1.52984e-05	0.000731627	-22.237	-1.53077	0.106268	-0.686943	-2.33816e-07	0.00583647	1.33784	30.5354	4.21375e-05	4.56944	-503.795	14.0018	160.846	35.3255	-2.95876e-06	-0.000135741	-19.3447	-10.7283	25.6565	47.9244	-9.48572	-36.6704	-44.6077	-5.943e-05	-18.1954	-61.2696	-0.000726438	222.248	-107.746	
3.225	0.0871222	87.7781	-3.1639	-7.5033	0.406729	0	-0.00547389	-4.06181	-18.8028	-3.69376	-57.0893	-0.571859	-1.08085e-05	-0.462436	-0.354838	-5.26498e-08	1.69326	3.45679	-4.11643e-06	4.65162	349.232	11.6538	-116.282	-24.8819	3.91479e-06	0.149046	107.131	10.6599	9.76909	3.2965	0	0.00389813	-1.28847	-2.08933	3.15698	-100.721	-0.855882	-1.52093e-05	-1.59464	-1.06465	-1.3213e-07	6.01049	-0.808122	-1.0746e-05	0.800426	-256.364	-11.7932	67.4377	20.5581	-1.35391e-05	0.00834708	8.88451	-0.0684869	1.02184	-0.0319692	-0	-0.000617129	-1.14227	-4.38504	-0.991759	38.3125	-0.24027	-1.70819e-05	0.427716	0.0135534	-4.77062e-08	-0.621801	0.942106	-1.30648e-05	0.0151139	-20.7665	-1.48622	0.298937	-0.587771	-1.41788e-07	0.00478701	0.830146	28.6477	4.19981e-05	4.17158	-483.616	13.9504	141.891	32.8518	-2.71346e-06	-0.000127328	-18.3867	-10.8582	25.5979	47.974	-9.47201	-36.692	-41.0833	-5.71584e-05	-18.1915	-61.2327	-0.000785993	222.541	-107.702	
3.23	0.0693416	83.9861	-2.00762	-5.09588	0.230173	0	-0.00168112	-4.48293	-20.566	-3.94193	-47.684	-0.64561	-1.29429e-05	-0.359659	-0.369659	-0	1.52389	9.32677	-1.32987e-05	13.4172	350.044	11.2781	-102.197	-22.943	1.39736e-06	0.118515	102.521	6.59044	6.46669	1.88244	0	0.00116498	-1.37747	-2.25876	3.28366	-83.067	-0.940728	-1.74438e-05	-1.2144	-1.07663	-0	5.38523	-2.10339	-3.23319e-05	2.38155	-250.961	-11.0159	57.4564	18.4423	-4.80958e-06	0.00643342	8.47722	-0.0492749	0.694346	-0.0206329	-0	-0.000186286	-1.23406	-4.61081	-1.02671	31.7683	-0.266869	-1.97391e-05	0.331923	0.0191915	-0	-0.570294	2.51838	-3.93935e-05	-0.0158399	-19.2677	-1.44312	0.483129	-0.485612	-1.49057e-08	0.00147349	0.349038	27.0181	1.55673e-05	3.8787	-467.875	13.8017	124.969	30.4525	-9.23997e-07	-5.07398e-05	-17.3877	-11.5567	25.4838	48.0609	-9.48777	-36.7784	-38.0848	-2.05069e-05	-18.2014	-61.1724	-0.000313914	223.065	-107.485	
3.235	0.0449557	79.6989	-1.43141	-3.5479	0.147809	0.00033432	-0	-4.94381	-22.3429	-5.02571	-39.0588	-0.914733	-3.59213e-05	-0.321698	-0.390282	-2.23792e-05	1.39618	15.4184	-0	19.272	352.058	10.9348	-89.7375	-21.2736	2.10183e-07	0.0768844	97.4167	4.53401	4.36796	1.24228	0.000728423	0	-1.4767	-2.45	4.06264	-67.2145	-1.29857	-4.64482e-05	-1.06465	-1.10529	-5.20098e-05	4.96384	-3.33177	-0	3.54239	-245.613	-10.2534	48.7149	16.5597	-7.14179e-07	0.00403393	8.02716	-0.0395316	0.482985	-0.0155272	-0.000117095	-0	-1.32495	-4.7949	-1.26493	26.0573	-0.367572	-5.26251e-05	0.299729	0.0286257	-1.83085e-05	-0.5353	4.12401	-0	-0.11194	-17.7665	-1.40264	0.64927	-0.383333	4.17576e-09	0	0	25.576	2.40721e-06	3.69544	-458.405	13.5679	109.247	28.1771	-1.30833e-07	-1.28065e-05	-16.6243	-12.898	25.3092	48.1876	-9.52175	-36.9279	-35.4954	-3.07887e-06	-18.2185	-61.0796	-6.09375e-05	223.821	-107.119	
3.24	0	74.9006	-1.25573	-2.869	0.117701	0.000140392	-0	-5.49001	-24.1213	-6.42449	-30.3915	-0.984883	-0	-0.311816	-0.414391	-0	1.27307	20.653	-0	19.9944	355.393	10.6323	-78.7836	-19.8924	0	0	91.7874	3.80045	3.4108	1.03939	0.000306522	0	-1.60047	-2.6657	5.01782	-51.7083	-1.36362	-0	-1.01309	-1.14366	-0	4.60896	-4.24279	-0	3.81936	-240.346	-9.51998	41.1384	14.9258	-0	0	7.53258	-0.0386477	0.389628	-0.0148821	-4.99942e-05	-0	-1.42467	-4.93458	-1.55661	20.4928	-0.37982	-0	0.296914	0.0425055	-0	-0.503305	5.471	-0	-0.212228	-16.277	-1.36586	0.791023	-0.283344	0	0	0	24.2415	0	3.53232	-450.636	13.2654	94.8292	26.0879	-0	-0	-16.1175	-14.7627	25.0708	48.3551	-9.56489	-37.1357	-33.1941	-0	-18.2425	-60.9497	-0	224.817	-106.626	
3.245	0	69.6272	-1.35236	-2.85783	0.115314	5.74426e-05	-0	-6.12142	-25.9934	-7.8805	-20.551	-1.0852	-0	-0.313474	-0.440759	-4.50144e-06	1.14187	24.1488	-1.78704e-06	14.9842	360.08	10.374	-69.508	-18.809	0.177716	0	85.6618	3.87404	3.26608	1.10004	0.000126051	0	-1.74923	-2.91923	5.92188	-34.6157	-1.46751	-0	-1.00214	-1.18862	-9.79091e-06	4.26961	-4.67308	-3.61486e-06	2.98364	-235.145	-8.82528	34.7882	13.5442	-0.572617	0	6.99685	-0.0459648	0.386638	-0.0181074	-2.08772e-05	-0	-1.53003	-5.04954	-1.83138	14.1431	-0.396043	-0	0.308844	0.0615694	-3.20663e-06	-0.469287	6.33395	-4.25861e-06	-0.233241	-14.8044	-1.33334	0.908642	-0.186902	0.0166363	0	0	22.9798	0	3.35466	-436.155	12.9087	82.1302	24.2284	-0.0938886	-0	-15.5089	-16.7095	24.7662	48.563	-9.61594	-37.3993	-31.1257	-0	-18.2706	-60.7806	-0	226.048	-106.022	
3.25	6.02947e-05	63.9577	-1.68101	-3.34411	0.129248	0	-0	-6.82122	-27.8682	-9.47503	-9.866	-1.25732	-0.782136	-0.319227	-0.468949	-3.93776e-05	1.00842	25.8831	-4.0788e-05	5.57619	365.885	10.1585	-62.0416	-18.0366	0.358535	0.000104463	79.1182	4.51875	3.65885	1.38202	0	0	-1.91942	-3.20289	6.82353	-16.4809	-1.66369	-0.90632	-1.00713	-1.23967	-8.32677e-05	3.96076	-4.66712	-7.84467e-05	1.16019	-229.853	-8.17375	29.6709	12.4156	-1.10883	4.85528e-06	6.42747	-0.0623675	0.450091	-0.0261572	-0	-0	-1.63382	-5.12361	-2.10503	6.99851	-0.427404	-0.987956	0.32938	0.0866866	-2.57334e-05	-0.43533	6.72012	-9.00348e-05	-0.114959	-13.3458	-1.30495	1.00797	-0.0942666	0.0483107	0	0.00162567	21.787	0	3.17686	-413.196	12.5075	71.4496	22.6379	-0.17063	-0	-14.3737	-18.236	24.3948	48.8094	-9.66887	-37.7154	-29.2737	-0	-18.2982	-60.5706	-0	227.505	-105.308	
3.255	0.000342519	58.0293	-2.39339	-4.37761	0.161635	0	-1.40673e-05	-7.57256	-29.5944	-11.2305	-3.52549	-1.45123	-0.793758	-0.325429	-0.497727	-0	0.879126	24.1972	-0	0.339686	372.848	9.98148	-56.4361	-17.5916	0.388155	0.000598625	72.3042	5.99258	4.569	2.04227	0	7.98466e-06	-2.10834	-3.50039	7.72389	-5.85383	-1.88305	-0.892295	-1.01693	-1.29452	-0	3.70351	-4.01303	-0	0.0739753	-224.521	-7.56768	25.7272	11.5375	-1.14136	2.65284e-05	5.83758	-0.0959943	0.585404	-0.0443966	-0	-1.35576e-06	-1.72982	-5.13552	-2.37866	2.60316	-0.451052	-0.945704	0.355775	0.118635	-0	-0.404196	6.21715	-0	-0.00873147	-11.9161	-1.28035	1.09883	-0.00462454	0.0686748	1.14387e-05	0.000563581	20.6666	0	3.01959	-386.059	12.0714	62.9086	21.3474	-0.164006	-0	-12.7569	-19.2383	23.9577	49.0918	-9.71712	-38.0785	-27.6373	-0	-18.3217	-60.3181	-0	229.171	-104.469	
3.26	0.000200772	51.9108	-3.80799	-6.19664	0.206832	0	-2.55054e-05	-8.3597	-31.0978	-13.0492	-2.50898	-1.65497	-0.960296	-0.329949	-0.525539	-0	0.755356	18.5563	-0	0.008123	380.985	9.83943	-52.6391	-17.5056	0.344792	0.000354919	65.2802	8.82667	6.1519	3.36039	0	1.37592e-05	-2.31429	-3.80207	8.54616	-4.15247	-2.11113	-1.05105	-1.02575	-1.35043	-0	3.50527	-2.78593	-0	0.00185332	-219.201	-7.00909	22.8351	10.9117	-0.955401	1.49326e-05	5.23325	-0.163259	0.822455	-0.0837064	-0	-2.37178e-06	-1.81319	-5.08395	-2.62957	1.94705	-0.459705	-1.07445	0.386485	0.158022	-0	-0.377021	4.71707	-0	-0.000249864	-10.5332	-1.25925	1.19222	0.0839062	0.0754198	2.00426e-05	0.000117152	19.6364	5.51647e-08	2.89285	-358.194	11.6109	56.4236	20.3901	-0.127604	-1.90045e-06	-10.9284	-19.8061	23.4571	49.4065	-9.75919	-38.4798	-26.2304	-6.38852e-08	-18.337	-60.0219	-0	231.022	-103.478	
3.265	7.50391e-05	45.5537	-6.15178	-9.05446	0.217532	0	-9.94347e-06	-9.17061	-32.3825	-14.7955	-2.68612	-1.86936	-1.25839	-0.33121	-0.55037	-2.67063e-05	0.635222	11.2033	-5.32535e-05	0	390.377	9.72929	-50.525	-17.8337	0.283186	0.000134587	57.9532	13.1406	8.53245	5.35516	0	5.0857e-06	-2.5371	-4.10635	9.20681	-4.44599	-2.35106	-1.34622	-1.02973	-1.4038	-5.31409e-05	3.3658	-1.49258	-9.11506e-05	0	-214	-6.49958	20.8403	10.5485	-0.733513	5.34996e-06	4.60838	-0.279125	1.19196	-0.152285	-0	-8.91349e-07	-1.88099	-4.98307	-2.83331	2.21147	-0.450479	-1.31655	0.420158	0.20508	-1.21578e-05	-0.353916	2.81701	-9.21524e-05	-0	-9.21802	-1.24144	1.29813	0.174467	0.0733178	7.50629e-06	0	18.7172	4.58376e-08	2.79974	-330.42	11.1366	51.7693	19.8075	-0.0906798	-2.62395e-06	-9.16244	-20.0213	22.8973	49.707	-9.79175	-38.9098	-25.0687	-5.25596e-08	-18.34	-59.6822	-0	233.033	-102.318	
3.27	1.85681e-06	38.996	-9.65765	-12.9468	0.128678	0	-0	-9.99652	-33.4851	-16.4108	-2.93962	-2.08788	-1.56699	-0.327924	-0.569901	-0.000109048	0.515661	4.4249	-0	0.00129504	400.855	9.6481	-50.0769	-18.6655	0.216104	3.39078e-06	50.3265	18.9526	11.5671	7.89331	0	0	-2.77788	-4.41573	9.68906	-4.88494	-2.59719	-1.64517	-1.02581	-1.45042	-0.000214536	3.28564	-0.509762	-0	0.00032425	-208.896	-6.03978	19.6424	10.471	-0.519585	1.26631e-07	3.96505	-0.459368	1.68949	-0.255218	-0	-0	-1.93184	-4.85117	-2.98599	2.59122	-0.418645	-1.52642	0.455263	0.259491	-4.16456e-05	-0.334878	1.10038	-0	-5.2366e-05	-7.9862	-1.22676	1.4283	0.271782	0.0640489	0	0	17.9267	1.76474e-08	2.74331	-304.013	10.6602	48.7941	19.6562	-0.0592667	-0	-7.5701	-19.9489	22.2839	49.8469	-9.81061	-39.3547	-24.1681	-2.00993e-08	-18.3272	-59.2997	-0	235.173	-100.986	
3.275	0	32.3977	-14.8482	-18.4462	-0.124806	0	-0	-10.832	-34.4609	-17.8999	-3.28732	-2.29942	-1.88879	-0.318948	-0.581741	-0	0.392504	0.415506	-0	0.000817298	412.33	9.59268	-51.5359	-20.1316	0.138152	0	42.5506	26.7297	15.6211	10.9228	0	0	-3.03906	-4.7363	10.0212	-5.50939	-2.8389	-1.95428	-1.01104	-1.48589	-0	3.26851	-0.0399592	-0	0.000214042	-203.942	-5.62916	19.2443	10.7164	-0.306523	0	3.31719	-0.735351	2.38569	-0.39957	-0	-0	-1.96558	-4.70686	-3.09756	3.13069	-0.359499	-1.7056	0.48974	0.320228	-0	-0.320001	0.102186	-0	-3.6675e-05	-6.85677	-1.21498	1.60139	0.382554	0.0456509	0	0	17.2858	2.79846e-09	2.72833	-279.296	10.1903	47.552	20.0077	-0.0321899	-0	-6.47977	-20.1081	21.6239	49.785	-9.81314	-39.8009	-23.5489	-3.17557e-09	-18.2955	-58.8766	-0	237.422	-99.4947	
3.28	0	26.0374	-21.6144	-25.9348	-0.612879	0	-0	-11.6694	-35.3605	-19.2822	-3.7021	-2.49187	-2.23703	-0.30349	-0.583485	-1.65102	0.259794	0.000474827	-3.03549e-06	0.000484559	424.634	9.55959	-55.3954	-22.4011	0.0507533	0	34.9317	35.685	20.833	14.4222	0	0	-3.32277	-5.07521	10.2391	-6.29023	-3.0649	-2.29084	-0.983016	-1.50535	-3.22328	3.32149	-3.62112e-05	-4.87226e-06	0.00013249	-199.174	-5.26626	19.7336	11.333	-0.103431	0	2.69065	-1.10652	3.32418	-0.594099	-0	-0	-1.98189	-4.56495	-3.18022	3.84392	-0.269924	-1.86407	0.521085	0.385332	-0.367395	-0.309432	0.000115491	-4.01864e-06	-2.37041e-05	-5.84429	-1.20584	1.84454	0.515481	0.0183048	0	0	16.8148	0	2.76151	-255.914	9.73398	48.2527	20.94	-0.0099909	-1.46281e-06	-5.76869	-21.0953	20.9258	49.542	-9.79694	-40.2416	-23.2351	-0	-18.2431	-58.416	-0	239.77	-97.8728	
3.285	0	20.275	-30.337	-34.9336	-1.39133	0	-4.54223	-12.487	-36.1852	-20.5801	-4.13331	-2.65266	-2.59697	-0.281137	-0.573187	-1.72753	0.108931	0	-0.000142075	0.000369733	438.291	9.5459	-62.4098	-25.6225	0	0	27.905	45.9827	26.6633	18.1156	0	1.8601	-3.62739	-5.43423	10.3773	-7.16268	-3.26333	-2.64352	-0.939635	-1.50443	-3.38695	3.4558	-0	-0.000225744	0.0001053	-194.74	-4.94933	21.2738	12.3517	-0	0	2.12019	-1.59682	4.43827	-0.835659	-0	-0.355092	-1.97827	-4.43127	-3.24578	4.7228	-0.148905	-1.98688	0.546213	0.451918	-0.233294	-0.303361	0	-0.000170784	-1.94051e-05	-5.26654	-1.19912	2.19466	0.679448	0	2.79603	0	16.528	0	2.85211	-244.523	9.29781	51.2291	22.483	-0	-3.656e-06	-5.37747	-22.0399	20.1995	49.1346	-9.76048	-40.6585	-23.2496	-0	-18.1697	-57.9219	-0	242.187	-96.1513	
3.29	0	15.1061	-39.9706	-45.4198	-2.51647	0	-13.3307	-13.2405	-36.8658	-21.8112	-4.53385	-2.76929	-2.94901	-0.252071	-0.549584	-1.56792	-0.0725411	0.00125021	-0	0.000785516	452.584	9.54858	-73.652	-29.7567	0	0	21.4346	55.7363	33.0261	22.0479	0	5.17376	-3.94442	-5.80484	10.4643	-8.06873	-3.42188	-2.99686	-0.879596	-1.47936	-3.10494	3.68848	-4.31257e-05	-0	0.000232392	-190.649	-4.6762	24.1187	13.7167	-0	0	1.60353	-2.15046	5.7219	-1.13292	-0	-1.01398	-1.94931	-4.30183	-3.30413	5.75722	0.00200189	-2.0597	0.561663	0.516164	-0.0640643	-0.302052	0.000297677	-0	-4.35875e-05	-4.90628	-1.19455	2.70022	0.877212	0	7.7604	5.54342e-06	16.4357	3.10529e-10	3.0131	-237.919	8.88617	56.9536	24.4986	-0	-7.69301e-06	-4.9852	-22.7896	19.4553	48.575	-9.70337	-41.0484	-23.6104	-3.54234e-10	-18.0754	-57.3994	-0	244.641	-94.3607	
3.295	0	10.5034	-48.755	-56.1508	-4.01667	0	-22.8388	-13.8731	-37.2911	-22.947	-4.85644	-2.83069	-3.27382	-0.217164	-0.513559	-1.58394	-0.30273	0.00162193	-0	0	466.994	9.56471	-89.8772	-34.4964	0	0	15.4514	62.7343	39.0324	26.0415	0	8.42159	-4.26017	-6.16995	10.5045	-8.9474	-3.5288	-3.33571	-0.802591	-1.43076	-3.18767	4.04353	-2.11339e-05	-0	0	-186.947	-4.44452	28.411	15.2724	-0	0	1.13591	-2.6679	7.01747	-1.48165	-0	-1.69707	-1.88901	-4.16754	-3.35733	6.92686	0.178283	-2.07308	0.563788	0.574795	0.0977219	-0.305798	0.000382376	-0	-0	-4.61846	-1.19186	3.39614	1.09966	0	12.5881	2.53339e-06	16.5408	7.38299e-10	3.26199	-230.883	8.50236	65.5553	26.6787	-0	-9.93545e-06	-4.50741	-23.3243	18.7042	47.8845	-9.62614	-41.4008	-24.3269	-8.47373e-10	-17.9608	-56.8544	-0	247.103	-92.5289	
3.3	0	6.70082	-54.7219	-63.6836	-5.80583	0	-32.1144	-14.327	-37.3498	-23.9274	-5.05725	-2.82888	-3.55079	-0.178005	-0.483995	-1.62075	-0.607354	0.00087263	-1.00391e-05	0.00222177	480.504	9.59161	-110.608	-39.3042	0.000313349	0	10.2849	65.2248	42.5031	29.4717	0	11.2889	-4.55793	-6.50849	10.4885	-9.73694	-3.57429	-3.6429	-0.709448	-1.41037	-3.3365	4.55122	7.44666e-06	-1.59823e-05	0.000683441	-183.435	-4.25205	33.941	16.7992	-0.000443129	0	0.741442	-3.03346	7.89985	-1.8361	-0	-2.34132	-1.7927	-4.01907	-3.40264	8.19928	0.372408	-2.02106	0.549009	0.647589	0.283396	-0.314724	0.000203845	-8.71191e-06	-0.000126564	-4.34686	-1.19077	4.26365	1.32499	0.000138826	16.8073	0	16.8333	8.20982e-10	3.62018	-225.723	8.14939	76.3227	28.6376	-3.1645e-05	-0.268215	-4.03583	-23.9426	17.9572	47.0806	-9.53028	-41.7063	-25.3896	-9.49376e-10	-17.8279	-56.2932	-0	249.549	-90.681	
3.305	0	3.4658	-57.2254	-63.5037	-7.82623	0	-38.3495	-14.5707	-37.0001	-24.7031	-5.10034	-2.76	-3.75995	-0.136852	-0.462244	-1.56989	-1.02019	0.000233036	-4.6699e-05	0.0069113	493.209	9.62813	-133.848	-43.5299	0.000112345	0	5.58997	63.4747	40.8966	32.4293	0	12.9057	-4.82561	-6.80687	10.4134	-10.3782	-3.5515	-3.9003	-0.602238	-1.42647	-3.32912	5.24152	6.98399e-06	-7.51731e-05	0.00213174	-180.296	-4.09719	40.1229	18.0666	-0.000144741	0	0.39431	-3.20346	7.82364	-2.2171	-0	-2.75554	-1.6602	-3.85348	-3.43849	9.52906	0.574186	-1.90218	0.51416	0.743963	0.473479	-0.328324	5.39873e-05	-3.56565e-05	-0.000383321	-4.1945	-1.19117	5.21467	1.52316	5.11411e-05	19.1471	0	17.2886	7.79554e-10	4.10804	-223.164	7.83035	87.7907	30.0221	-9.76159e-06	-1.66729	-3.62082	-24.7431	17.2247	46.1859	-9.41768	-41.9672	-26.7601	-9.08991e-10	-17.6794	-55.7227	-2.98173e-06	251.96	-88.84	
3.31	0	0.791143	-58.6021	-60.147	-10.1712	0	-41.2031	-14.6959	-36.2841	-25.2449	-4.96233	-2.62522	-3.88504	-0.0964725	-0.439064	-1.45608	-1.57956	0	-3.8799e-05	0	504.696	9.67903	-152.818	-46.6663	4.41307e-05	0	1.35169	60.8026	37.5861	35.4254	0	13.3424	-5.1133	-7.06392	10.2843	-10.8197	-3.45755	-4.09125	-0.484259	-1.45652	-3.205	6.13348	0	-6.34719e-05	0	-177.574	-3.98083	45.06	18.9274	-5.18363e-05	0	0.0930845	-3.30035	7.36365	-2.63988	-0	-2.93097	-1.46827	-3.67436	-3.46498	10.859	0.771518	-1.72062	0.456856	0.858364	0.649286	-0.345103	0	-2.56443e-05	-0	-4.14904	-1.19363	5.96595	1.66767	2.05082e-05	19.752	0	17.8714	7.25105e-10	4.73761	-222.545	7.55202	95.9013	30.6657	-3.33805e-06	-1.82554	-3.26441	-25.68	16.5165	45.2253	-9.29126	-42.1814	-28.3701	-8.5269e-10	-17.5178	-55.1499	-1.88074e-06	254.32	-87.0268	
3.315	0	0.000377098	-60.4988	-59.6519	-12.7564	0	-42.6017	-15.1021	-35.6324	-25.5445	-4.63604	-2.431	-3.9166	-0.0598958	-0.407205	-1.31062	-2.32062	0	-0	0	514.607	9.75775	-161.859	-48.8172	0	0	0.000688624	59.0481	36.3908	38.253	0	13.3532	-5.66155	-7.36353	10.1116	-11.0219	-3.29427	-4.20339	-0.359901	-1.4794	-3.01945	7.22613	0	-0	0	-175.323	-3.90712	47.2924	19.48	-0	0	4.61935e-05	-3.41418	7.26123	-3.10124	-0	-3.0133	-1.10228	-3.51632	-3.48333	12.1228	0.951517	-1.48637	0.375889	0.980931	0.80364	-0.362794	0	-0	-0	-4.19695	-1.19977	6.28043	1.75566	0	19.7675	0	18.5456	6.84505e-10	5.50768	-223.179	7.32646	97.9982	30.8191	-0	-1.54516	-2.92697	-26.6623	15.8409	44.2179	-9.15416	-42.3456	-30.1332	-8.11347e-10	-17.3465	-54.5814	-1.43535e-06	256.61	-85.2599	
3.32	0	0	-61.844	-60.945	-15.1632	0	-43.7217	-15.5171	-34.9775	-25.6108	-4.133	-2.18837	-7.2716	-0.0300926	-0.362565	-1.14322	-3.28788	0	-0	0.00429727	522.684	9.88829	-166.748	-50.4133	0	0	0	57.1309	36.5278	39.9009	0	13.3538	-6.26713	-7.68888	9.90901	-10.9635	-3.06794	-7.98288	-0.234442	-1.47784	-2.78249	8.55275	0	-0	0.00135383	-173.608	-3.8841	48.6493	19.9304	-0	0	0	-3.49013	7.37988	-3.49551	-0	-3.0879	-0.711741	-3.3701	-3.49521	13.2511	1.10173	-2.29115	0.271652	1.0986	0.926873	-0.381646	0	-0	-0.000212325	-4.35257	-1.21243	6.3794	1.79938	0	19.8232	0	19.2895	6.54724e-10	6.44678	-224.459	7.17154	98.373	30.8793	-0	-1.30752	-2.57025	-27.5931	15.2046	43.19	-9.00978	-42.466	-31.9687	-7.81268e-10	-17.1687	-54.0238	-9.05694e-07	258.8	-83.5553	
3.325	0	0.00178403	-61.3496	-60.7775	-17.144	7.57088e-08	-44.5694	-15.8005	-34.2998	-25.4684	-3.48266	-1.91211	-13.9798	-0.00961894	-0.304687	-0.960491	-4.5196	0	-2.93253e-05	0.00204877	528.737	10.0965	-172.379	-51.7307	0	0	0.00384014	53.9845	36.0221	40.226	5.3324e-07	13.3618	-6.87069	-8.02938	9.69153	-10.6434	-2.7895	-15.7541	-0.113953	-1.44009	-2.49603	10.1264	0	-5.18579e-05	0.000653307	-172.494	-3.9205	50.6082	20.4045	-0	0	0.000242856	-3.44951	7.32436	-3.7754	-1.21197e-07	-3.15552	-0.29343	-3.23215	-3.50268	14.1772	1.21165	-3.47907	0.146849	1.19672	1.00754	-0.401632	0	-1.02416e-05	-9.64265e-05	-4.59826	-1.23465	6.44894	1.80713	0	19.9547	0	20.0913	6.2962e-10	7.57241	-225.956	7.10422	100.208	31.0869	-0	-1.1727	-2.17711	-28.3908	14.6134	42.1594	-8.86155	-42.5474	-33.8001	-7.54962e-10	-16.9877	-53.483	-4.16244e-07	260.818	-81.9271	
3.33	0	0.00290296	-59.0838	-58.5468	-18.7106	0	-44.911	-15.9206	-33.5083	-25.1714	-2.72903	-1.61886	-19.5738	-0.000194854	-0.23651	-0.773431	-5.94057	0	-3.02515e-05	0	532.645	10.4217	-179.454	-52.9159	0	0	0.00690961	49.8525	34.5362	39.7011	0	13.3186	-7.44506	-8.357	9.48109	-10.0812	-2.47301	-22.7172	-0.00576143	-1.36052	-2.17257	11.7447	0	-5.54287e-05	0	-172.025	-4.03083	53.42	20.9677	-0	-0	0.000423065	-3.30267	7.02442	-3.95922	-0	-3.19941	0.141775	-3.09063	-3.51048	14.8441	1.27372	-3.5245	0.00828029	1.26078	1.03849	-0.41629	0	-7.22297e-06	-0	-4.94736	-1.27106	6.50734	1.7829	0	20.08	0	20.9482	6.06364e-10	8.74709	-227.097	7.149	104.047	31.5731	-0	-1.08959	-1.74095	-28.9526	14.0702	41.1436	-8.71257	-42.5908	-35.559	-7.28855e-10	-16.8068	-52.9644	-0	262.488	-80.3869	
3.335	0	0.000728669	-55.4846	-54.8906	-19.821	0	-44.7127	-15.9355	-32.6897	-25.0836	-1.99653	-1.32544	-23.6466	5.24969e-09	-0.163697	-0.59394	-7.39628	0	-1.45051e-05	0	534.395	10.6764	-187.706	-54.0681	1.38459e-07	0	0.00194577	45.1906	32.4275	38.5149	0	13.221	-8.00172	-8.68315	9.41213	-9.44164	-2.13479	-28.3505	-2.15375e-07	-1.24035	-1.83004	13.1609	0	-2.76656e-05	0	-172.239	-4.14289	57.0628	21.6628	-1.05758e-07	-0	0.000115164	-3.07457	6.55878	-4.04911	-0	-3.2162	0.582661	-2.95161	-3.56671	15.2193	1.28443	-2.55073	3.46276e-07	1.27909	1.01812	-0.42198	0	-1.77052e-06	-0	-5.37779	-1.29866	6.53258	1.72877	6.69227e-08	20.1928	0	21.8621	5.84258e-10	9.80611	-227.502	7.17658	109.905	32.4264	-6.56833e-09	-1.05379	-1.26891	-29.273	13.5769	40.1628	-8.5656	-42.6054	-37.1864	-7.02069e-10	-16.6287	-52.4724	-0	263.527	-78.9432	
3.34	0	0	-50.689	-49.9439	-20.2471	0	-44.1184	-15.8601	-31.8836	-25.299	-1.33287	-1.04843	-25.5987	0	-0.0933494	-0.431968	-8.73566	0	-5.64679e-07	0	534.054	9.44755	-197.139	-55.263	3.6875e-07	0	0	40.1162	29.7204	36.4432	0	13.1098	-8.53452	-9.00952	9.51617	-8.79322	-1.79399	-31.7933	-0	-1.08717	-1.48642	14.2257	0	-1.12623e-06	0	-173.145	-3.70251	61.6008	22.5207	-2.61146e-07	-0	0	-2.77859	5.94481	-4.00853	-0	-3.21464	1.02081	-2.81743	-3.68429	15.3239	1.24617	-0.807286	0	1.24517	0.94945	-0.420697	0	1.5431e-09	-0	-5.89308	-1.14599	6.51022	1.64561	1.78135e-07	20.3488	0	22.8417	5.63512e-10	10.6547	-227.005	6.25485	117.994	33.7136	-1.67445e-08	-1.07737	-0.783115	-29.3918	13.1341	39.2267	-8.42334	-42.5968	-38.6527	-6.75013e-10	-16.456	-52.0109	-0	264.217	-77.6036	
3.345	0	0	-44.8675	-43.7293	-19.7656	0	-43.6246	-15.7156	-31.1101	-25.6884	-0.704808	-0.822911	-25.1513	1.74819e-05	-0.032298	-0.294561	-9.84253	0	-0	0.000127465	531.812	6.07365	-207.911	-56.5407	1.9493e-07	0	0	34.7248	26.3481	33.2983	0	13.1246	-9.04134	-9.33364	9.74361	-8.11316	-1.50863	-32.441	-0.000103728	-0.912664	-1.15811	14.8792	0	-0	4.36279e-05	-174.736	-2.41807	67.1494	23.556	-1.28621e-07	-0	0	-2.42828	5.18601	-3.80461	-0	-3.22954	1.44911	-2.68958	-3.84496	15.2838	1.19727	1.24813	0.000210815	1.1587	0.839866	-0.416504	0	0	-4.78076e-06	-6.46731	-0.734557	6.42796	1.53274	9.39448e-08	20.7603	0	23.9099	5.44092e-10	11.2553	-225.689	3.97979	128.649	35.4754	-8.61717e-09	-1.15331	-0.324934	-29.3234	12.7408	38.348	-8.28798	-42.569	-39.9711	-6.47944e-10	-16.2911	-51.5826	-0	264.947	-76.3727	
3.35	0	0	-38.7449	-36.9123	-18.5108	-0	-43.6826	-15.5325	-30.5015	-26.1514	-0.129612	-0.68539	-22.9898	2.40945e-05	0.0142328	-0.190496	-10.6728	0	-0	0.00136361	527.897	2.73518	-220.039	-57.9327	4.87221e-08	0	0	29.5003	22.6185	29.4655	0	13.3953	-9.52675	-9.68896	10.0558	-7.35285	-1.34722	-30.8628	-9.35211e-05	-0.730682	-0.881946	15.1635	0	-0	0.000476804	-176.961	-1.11165	73.7783	24.7774	-3.01176e-08	-0	0	-2.06623	4.36226	-3.47367	-0	-3.29445	1.86245	-2.58003	-4.03316	14.9593	1.16895	3.12911	0.000214784	1.02603	0.719155	-0.413941	0	0	-4.81137e-05	-7.09482	-0.32975	6.26668	1.38931	2.33903e-08	21.6396	4.07866e-07	25.1125	5.25877e-10	11.6355	-223.847	1.78149	142.141	37.7418	-2.13284e-09	-1.25561	-4.97308	-29.0612	12.3946	37.5339	-8.16129	-42.5269	-41.2141	-6.2115e-10	-16.1361	-51.19	-0	265.652	-75.2538	
3.355	0	0	-33.1181	-30.4783	-16.8423	-8.59097e-11	-44.3039	-15.3299	-30.1429	-26.6133	0.366169	-0.595277	-19.8209	1.52694e-05	0.0435954	-0.116971	-11.2676	0	-0	0	522.65	1.2057	-233.446	-59.4612	0	0	0	24.9429	19.0596	25.5509	1.35097e-09	13.9264	-9.99079	-10.1018	10.4222	-6.58528	-1.26322	-27.7444	-4.23514e-05	-0.554394	-0.66513	15.2064	0	-0	0	-179.753	-0.502144	81.5124	26.1863	-0	-0	0	-1.73857	3.58983	-3.08858	-3.5056e-10	-3.41186	2.25597	-2.4968	-4.23556	14.4415	1.19056	4.52213	0.00011024	0.858721	0.60448	-0.41711	0	0	-0	-7.74132	-0.144866	6.0043	1.21453	0	23.0105	2.56643e-07	26.4948	5.08503e-10	11.881	-222.028	0.783383	158.674	40.5293	-0	-1.3572	-14.8608	-28.6263	12.0932	36.7927	-8.04461	-42.4764	-42.4739	-5.94706e-10	-15.9927	-50.8346	-6.72336e-07	265.462	-74.2487	
3.36	0	0	-27.9544	-24.7178	-14.8306	-5.84946e-08	-45.2985	-15.1248	-29.9739	-27.0388	0.771401	-0.524487	-16.5733	2.9027e-05	0.0559474	-0.065749	-11.6964	0	-0	0.00128294	516.417	0.756437	-248.762	-61.1564	0	0	0	20.9253	15.8139	21.6104	6.29647e-07	14.6599	-10.4336	-10.5571	10.8237	-5.84865	-1.2099	-24.2433	-6.05788e-05	-0.394679	-0.489322	15.1329	0	-0	0.000468287	-183.009	-0.323666	90.6086	27.784	-0	-0	0	-1.44237	2.90199	-2.66337	-1.6629e-07	-3.56882	2.62521	-2.43271	-4.44344	13.7826	1.23007	5.50698	0.000179115	0.672016	0.491475	-0.428076	0	0	-4.00247e-05	-8.40835	-0.0905615	5.63787	1.00862	0	24.7932	6.78507e-07	28.0858	4.91612e-10	12.0744	-220.723	0.491579	178.91	43.8488	-0	-1.44169	-24.6947	-28.0661	11.8339	36.125	-7.9387	-42.4232	-43.8243	-5.68742e-10	-15.8621	-50.5175	-1.7632e-06	264.423	-73.3576	
3.365	0	0	-23.0035	-19.3718	-12.3962	-0	-46.5042	-14.9249	-29.9143	-27.3939	1.08497	-0.451123	-12.3342	0	0.0539742	-0.0313972	-12.0043	0	-0	0.000249243	509.593	0.634045	-266.903	-63.049	0	0	0	17.1822	12.6975	17.4712	0	15.5405	-10.8498	-11.0291	11.2385	-5.17044	-1.1388	-18.8615	-0	-0.25929	-0.34097	15.008	0	-0	9.28245e-05	-186.61	-0.279108	101.439	29.5679	-0	-0	0	-1.16666	2.26743	-2.18442	-0	-3.75318	2.96446	-2.37888	-4.64703	13.0345	1.23975	5.39742	0	0.483131	0.375298	-0.446377	0	0	-7.30873e-06	-9.07327	-0.0756269	5.16599	0.772904	0	26.9017	3.01673	29.883	4.74767e-10	12.253	-220.482	0.412802	203.763	47.6993	-0	-1.50626	-34.5555	-27.4591	11.6141	35.5361	-7.84411	-42.3715	-45.2987	-5.43258e-10	-15.745	-50.239	-2.53667e-06	262.974	-72.5799	
3.37	-0	0	-18.0065	-14.9863	-9.48814	-0	-47.8535	-14.7325	-29.9072	-27.6258	1.31487	-0.385268	-8.36131	0	0.0422077	-0.0108845	-12.2146	0	-0	0.000692978	502.573	0.626099	-288.201	-65.1739	8.53032e-09	0	0	13.4626	10.0671	13.0145	0	16.5354	-11.2303	-11.4656	11.6327	-4.57323	-1.07059	-13.3601	-0	-0.152526	-0.218779	14.8564	0	-0	0.000262807	-190.403	-0.28359	114.163	31.5337	-4.33006e-09	-0	0	-0.897288	1.74895	-1.6437	-0	-3.95889	3.26685	-2.35218	-4.83214	12.2599	1.23824	4.5335	0	0.309189	0.261574	-0.470095	0	0	-1.90795e-05	-9.68606	-0.0743988	4.57232	0.510255	3.99134e-09	29.2774	5.12544	31.8573	4.57633e-10	12.4232	-222.005	0.408645	233.745	52.068	-4.22317e-10	-1.55656	-42.6449	-26.9066	11.4313	35.0235	-7.76101	-42.3239	-46.9002	-5.18311e-10	-15.6424	-49.9993	-2.82093e-06	261.386	-71.9142	
3.375	-0	0	-13.3754	-11.8337	-6.54023	-0	-49.3256	-14.5435	-29.9045	-27.6892	1.47593	-0.328926	-5.38775	8.62042e-06	0.0260636	-0.00103969	-12.3453	0	-0	0	495.73	0.693173	-312.472	-67.5746	1.47622e-09	0	0	10.0319	8.14104	8.77805	0	17.6217	-11.561	-11.8426	11.9706	-4.07174	-1.01073	-8.98234	-9.18488e-06	-0.0753847	-0.125087	14.692	0	-0	0	-194.258	-0.322736	128.699	33.6773	-7.25587e-10	-0	0	-0.655134	1.37737	-1.11593	-0	-4.18255	3.52406	-2.34844	-4.98456	11.5208	1.23165	3.46839	3.96146e-05	0.165017	0.160932	-0.49691	0	0	-0	-10.2847	-0.082067	3.83901	0.225247	6.85384e-10	31.8692	5.50613	33.9703	4.39897e-10	12.5834	-225.951	0.45342	268.853	56.9335	-7.79934e-11	-1.59674	-50.4227	-26.4903	11.2831	34.5879	-7.6894	-42.2828	-48.6294	-4.93898e-10	-15.5546	-49.798	-2.77444e-06	259.813	-71.3581	
3.38	-0	0	-9.83128	-9.81147	-4.249	-0	-50.9081	-14.3473	-29.8318	-27.5559	1.58649	-0.281757	-4.06607	7.93182e-05	0.0108202	0.00188067	-12.4132	0.00015541	-0	0	489.411	0.806312	-339.382	-70.3702	5.02818e-08	0	0	7.40701	6.90103	5.6064	0	18.7746	-11.8223	-12.1187	12.2208	-3.67309	-0.959518	-7.05554	-7.08599e-05	-0.0262049	-0.060437	14.5244	3.36248e-05	-0	0	-198.021	-0.385103	144.828	36.0306	-2.40896e-08	-0	0	-0.473987	1.13926	-0.715395	-0	-4.42049	3.72614	-2.36511	-5.09247	10.8713	1.22113	3.00585	0.000342424	0.0613748	0.0828287	-0.524514	3.56718e-05	0	-0	-10.8356	-0.0951336	2.96318	-0.0759459	2.31635e-08	34.6135	6.00462	36.1954	4.21431e-10	12.7303	-232.459	0.527996	308.725	62.3273	-2.86297e-09	-1.62101	-58.5929	-26.1975	11.1673	34.2281	-7.62982	-42.2503	-50.5094	-4.70098e-10	-15.4818	-49.6346	-2.70326e-06	258.368	-70.9088	
3.385	-0	-0	-7.50179	-8.6067	-2.66188	-0	-52.6263	-14.1283	-29.6355	-27.4019	1.66552	-0.243933	-4.61606	0	0.00080853	0.00151474	-12.4318	0	-0	8.34987e-05	483.923	0.947253	-367.979	-73.7141	1.91e-09	0	0	5.68051	6.17349	3.46674	0	19.9798	-11.9909	-12.2679	12.3443	-3.37894	-0.919558	-8.3069	-0	-0.00170076	-0.0225087	14.3594	0	-0	3.27971e-05	-201.521	-0.462721	161.974	38.6449	-8.97469e-10	-0	0	-0.356391	0.997262	-0.443091	-0	-4.6714	3.86255	-2.39463	-5.15796	10.3547	1.21105	3.8088	0	0.00421525	0.0325041	-0.550745	0	0	-1.85931e-06	-11.2558	-0.111421	1.96025	-0.386914	8.73214e-10	37.4589	6.68074	38.5254	4.02194e-10	12.8586	-238.81	0.619787	352.116	68.3123	-1.18039e-10	-1.59903	-65.4907	-25.6701	11.0818	33.9417	-7.58216	-42.228	-52.5877	-4.46997e-10	-15.4241	-49.508	-2.77123e-06	257.129	-70.5627	
3.39	-0	-0	-6.08849	-7.87778	-1.60322	-0	-54.5982	-13.868	-29.259	-27.0838	1.72979	-0.215403	-6.9256	0	0	0.00058182	-12.411	0	-0	5.0602e-05	479.387	1.10897	-397.056	-77.7255	7.43352e-08	0	0	4.63283	5.74382	2.06798	0	21.2579	-12.0418	-12.2613	12.3363	-3.18707	-0.89369	-12.8645	-0	-0	-0.00588005	14.1992	0	-0	1.9939e-05	-204.705	-0.552001	179.34	41.5554	-3.44516e-08	-0	0	-0.285572	0.911268	-0.264355	-0	-4.94187	3.92337	-2.43092	-5.16888	10.0004	1.20658	6.21587	0	0	0.00884375	-0.573695	0	0	-1.0332e-06	-11.7758	-0.130114	0.874868	-0.700898	3.3741e-08	40.4164	7.28895	40.9689	3.82067e-10	12.9621	-247.703	0.723244	397.13	74.9227	-5.00981e-09	-1.53317	-69.9497	-24.8234	11.0244	33.7257	-7.54567	-42.2166	-54.9317	-4.24443e-10	-15.3813	-49.4167	-2.78822e-06	256.146	-70.3149	
3.395	-0	-0	-5.22188	-7.41638	-0.919981	-0	-56.9617	-13.5544	-28.6676	-26.5153	1.79212	-0.195598	-10.8654	0	0.0022627	0.000468643	-12.3599	0	-2.22362e-07	3.25316e-05	475.381	1.28897	-425.626	-82.4825	6.6718e-08	0	0	3.98983	5.47582	1.17876	0	22.6413	-11.959	-12.083	12.2017	-3.09329	-0.883107	-20.7134	-0	-0.00394162	-0.00375215	14.0461	0	-8.52031e-07	1.27964e-05	-207.547	-0.650993	196.149	44.774	-3.06544e-08	-0	0	-0.242472	0.856831	-0.150563	-0	-5.24059	3.9032	-2.46782	-5.11942	9.82387	1.21069	10.3521	0	0.0105175	0.00580665	-0.591917	0	4.55842e-07	-6.01189e-07	-12.9845	-0.150952	-0.22072	-1.00991	3.00848e-08	43.5205	7.82039	43.5391	3.61203e-10	13.0366	-270.626	0.83557	441.745	82.1488	-4.91593e-09	-1.45727	-71.9976	-23.7121	10.993	33.5764	-7.51943	-42.2161	-57.6069	-4.02481e-10	-15.3526	-49.359	-2.64306e-06	255.445	-70.1601	
3.4	-0	-0	-4.6776	-7.09534	-0.474384	-0	-59.7997	-13.1871	-27.8628	-25.6581	1.8604	-0.183724	-16.052	1.8534e-06	0.0199289	0.00244278	-12.2902	0	-0	0	472.259	1.48662	-452.525	-88.0133	5.92636e-08	0	0	3.58457	5.28318	0.605295	0	24.1435	-11.7406	-11.7371	11.9157	-3.09265	-0.887345	-31.1994	-1.09769e-06	-0.0329468	-0.0169385	13.9073	0	-0	0	-209.675	-0.758282	211.52	48.2824	-2.71159e-08	-0	0	-0.215507	0.819103	-0.0772092	-0	-5.57145	3.80354	-2.50098	-5.00026	9.82659	1.22368	15.8561	6.88424e-06	0.0892556	0.0266386	-0.604676	0	0	-0	-14.1415	-0.173906	-1.23853	-1.30378	2.65684e-08	46.7739	8.29564	46.2495	3.39869e-10	13.0846	-293.924	0.954972	483.571	89.9217	-4.7741e-09	-1.48782	-73.7139	-23.3128	10.9852	33.4894	-7.5027	-42.2258	-60.6645	-3.81204e-10	-15.3371	-49.3323	-1.79567e-06	255.032	-70.0913	
3.405	-0	-0	-4.30173	-6.82995	-0.173412	-0	-63.1248	-12.7672	-26.8634	-24.5715	1.9374	-0.179021	-22.0609	0.000120715	0.0447674	0.00881611	-12.2154	0	-7.58175e-08	0.000199179	470.714	1.70242	-475.593	-94.2978	4.79509e-08	0	0	3.30163	5.10667	0.220843	0	25.7508	-11.3922	-11.2404	11.5012	-3.18019	-0.904637	-43.4061	-7.04203e-05	-0.0720602	-0.056399	13.7933	0	-3.09532e-07	7.69213e-05	-211.287	-0.872767	224.124	52.0314	-2.19352e-08	-0	0	-0.197255	0.788238	-0.0281227	-0	-5.93171	3.63031	-2.5266	-4.82222	9.99823	1.24343	22.077	0.00043969	0.195277	0.0890261	-0.611923	0	1.70273e-07	-2.86047e-06	-15.2249	-0.19909	-2.08228	-1.57002	2.13906e-08	50.1295	8.6944	49.1006	3.18193e-10	13.114	-318.451	1.08036	519.112	98.112	-4.21625e-09	-1.52286	-79.6187	-23.7597	10.9984	33.46	-7.49415	-42.2441	-64.1355	-3.60482e-10	-15.3335	-49.3338	-1.41698e-06	254.898	-70.1	
3.41	-0	-0	-3.99511	-6.56819	-0	-8.84816e-09	-66.8905	-12.2963	-25.6915	-23.309	2.02141	-0.1808	-27.7454	0	0.0744779	0.0194276	-12.1503	0.000374046	-0	0.00163039	470.739	1.93729	-489.163	-101.247	3.59697e-08	0	0	3.06636	4.91027	0	3.98087e-08	27.4255	-10.9241	-10.6154	10.9809	-3.35139	-0.932098	-54.8571	-0	-0.119538	-0.120627	13.7176	7.46544e-05	-0	0.000619557	-212.333	-0.993414	231.049	55.9317	-1.65091e-08	-0	0	-0.182911	0.758169	-0	-1.11162e-08	-6.313	3.39288	-2.54071	-4.59626	10.3197	1.26582	27.4987	0	0.319438	0.18883	-0.614218	8.66718e-05	0	-1.9958e-05	-16.1984	-0.226669	-2.64356	-1.79389	1.59809e-08	53.4975	8.83728	52.0722	2.96474e-10	13.1379	-343.942	1.21099	541.113	106.514	-3.44284e-09	-1.37042	-83.7704	-23.5417	11.0295	33.482	-7.49338	-42.2689	-68.0198	-3.40344e-10	-15.3405	-49.3598	-1.22547e-06	255.017	-70.1759	
3.415	-0	-0	-5.13297	-6.98619	-0	-1.19071e-08	-70.9623	-11.7776	-24.371	-21.9087	2.10724	-0.188369	-31.3475	0	0.107835	0.030921	-12.1052	0	-1.67433e-10	0	472.239	2.19202	-491.602	-108.71	2.35632e-08	0	0	3.934	5.20062	0	5.45882e-08	29.0951	-10.3529	-9.88827	10.3734	-3.60211	-0.965843	-61.8352	-0	-0.176388	-0.194823	13.6903	0	-6.88971e-10	0	-212.775	-1.11906	231.445	59.8605	-1.08854e-08	-0	0	-0.235162	0.806925	-0	-1.51483e-08	-6.69877	3.1037	-2.53944	-4.3314	10.7658	1.28531	30.0939	0	0.458742	0.299029	-0.612378	0	3.657e-10	-0	-17.0317	-0.256795	-2.85749	-1.9598	1.04356e-08	56.7303	8.86054	55.1172	2.7496e-10	13.1676	-369.123	1.34605	547.068	114.862	-2.44571e-09	-1.10502	-85.4011	-22.6746	11.0751	33.5483	-7.49902	-42.2975	-72.2677	-3.20786e-10	-15.3559	-49.4059	-1.0857e-06	255.354	-70.3066	
3.42	-0	-0	-7.29601	-8.0458	-0	-5.2718e-09	-75.1345	-11.217	-22.9316	-20.4106	2.18745	-0.200881	-32.9467	0	0.142266	0.0406475	-12.0767	0	-0	0.00153243	475.199	2.4667	-491.779	-116.386	1.22128e-08	0	0	5.5764	5.94138	0	2.4957e-08	30.6621	-9.69966	-9.089	9.6996	-3.92847	-1.00119	-64.4061	-0	-0.241889	-0.271096	13.7077	0	-0	0.000557528	-212.662	-1.24823	229.589	63.6192	-5.6955e-09	-0	0	-0.335282	0.930256	-0	-6.86893e-09	-7.06654	2.7773	-2.51988	-4.0377	11.3086	1.2957	29.9758	0	0.605221	0.403722	-0.60688	0	0	-1.24636e-05	-17.71	-0.289529	-2.77087	-2.05155	5.39581e-09	59.6405	8.80669	58.1691	2.53919e-10	13.2025	-393.266	1.48463	546.835	122.751	-1.36865e-09	-0.813763	-85.0311	-21.3628	11.1312	33.6504	-7.50825	-42.3268	-76.7971	-3.01812e-10	-15.3775	-49.4668	-1.20928e-06	255.858	-70.4776	
3.425	-5.22699e-09	0	-9.44861	-9.21372	-0.00052485	-1.07682e-09	-79.161	-10.6234	-21.4168	-18.8717	2.25314	-0.975872	-33.0547	1.55799e-05	0.175719	0.0473747	-12.0461	0	-3.05614e-07	0	479.499	2.76081	-494.227	-123.873	3.96109e-09	7.72368e-08	0	7.19423	6.72641	0.000676845	5.33723e-09	32.0206	-8.9895	-8.25256	8.99	-4.32588	-4.64158	-63.6599	-1.14761e-05	-0.316102	-0.349265	13.7498	0	-1.20308e-06	0	-212.035	-1.37925	227.738	66.9707	-1.87e-09	-2.62507e-09	0	-0.436574	1.06673	-8.53393e-05	-1.45414e-09	-7.39182	2.42927	-2.48166	-3.72886	11.9173	5.80121	27.8951	5.53114e-05	0.753499	0.499912	-0.597749	0	5.79435e-07	-0	-18.2245	-0.324851	-2.43626	-2.05597	1.74698e-09	62.037	8.757	61.1723	2.33508e-10	13.2268	-415.513	1.62589	545.868	129.717	-4.77098e-10	-0.560226	-83.4825	-19.762	11.1929	33.7781	-7.51977	-42.3531	-81.5225	-2.83316e-10	-15.4024	-49.5363	-1.1522e-06	256.474	-70.6719	
3.43	-2.92803e-09	0	-10.963	-10.1045	-0.000168277	-0	-82.769	-10.0074	-19.8751	-17.3893	2.29521	-2.57258	-32.2064	0.000325152	0.206585	0.0501691	-11.9838	0	-0	0.0065646	484.944	3.07319	-498.514	-130.835	3.86651e-09	5.46884e-08	0	8.30967	7.27154	0.000218822	0	33.0659	-8.24835	-7.41329	8.27523	-4.78883	-11.5258	-60.8065	-0.00026595	-0.39946	-0.429239	13.7851	0	-0	0.00226418	-210.934	-1.51038	225.81	69.7341	-1.85275e-09	-1.7349e-09	0	-0.509966	1.17171	-2.7471e-05	-0	-7.65009	2.07459	-2.42654	-3.42173	12.5611	13.8249	24.6707	0.00116069	0.899994	0.585567	-0.584792	0	0	-2.99652e-05	-18.5738	-0.362646	-1.88374	-1.96808	1.70302e-09	63.745	8.71349	64.0988	2.14038e-10	13.2137	-431.78	1.76897	544.147	135.415	-4.98053e-10	-0.371169	-80.8202	-17.8197	11.2549	33.9197	-7.53038	-42.3728	-86.3674	-2.6543e-10	-15.4276	-49.6078	-2.17211e-07	257.137	-70.8708	
3.435	-7.31287e-10	0	-11.7505	-10.5677	-5.59089e-05	-0	-85.6659	-9.38422	-18.3589	-16.1008	2.30492	-4.30705	-30.7665	0	0.233467	0.048199	-11.8568	0.00203263	-3.72077e-09	0	491.404	3.40169	-503.769	-137.011	3.73432e-09	1.97976e-08	0	8.86333	7.47861	7.34777e-05	0	33.6995	-7.50403	-6.603	7.57292	-5.30972	-18.034	-56.7267	-0	-0.492205	-0.508728	13.7772	0.000317118	-1.35216e-08	0	-209.448	-1.63969	223.527	71.7949	-1.82097e-09	-5.75948e-10	0	-0.551144	1.22757	-9.17154e-06	-0	-7.8181	1.72725	-2.35861	-3.13254	13.2083	20.6426	20.9189	0	1.04166	0.656632	-0.56793	0.000472147	5.54396e-09	-0	-18.768	-0.402663	-1.14614	-1.79205	1.64301e-09	64.6135	8.69129	66.9217	1.95641e-10	13.1339	-442.479	1.91308	541.225	139.655	-5.11974e-10	-0.28375	-78.2345	-15.8635	11.3112	34.0619	-7.53777	-42.3825	-91.2557	-2.48135e-10	-15.4498	-49.6738	-2.04225e-07	257.782	-71.0533	
3.44	-4.29253e-11	0	-12.0055	-10.6408	-0	-0	-87.5762	-8.77406	-16.915	-14.8094	2.27478	-6.00128	-28.8965	6.90774e-05	0.255077	0.0410849	-11.6392	0	-0	0.00448396	498.632	3.74335	-509.705	-142.21	3.17741e-09	2.36501e-09	0	9.01207	7.39152	0	0	33.8442	-6.78458	-5.84666	6.87264	-5.87859	-23.4017	-51.8876	-7.1359e-05	-0.593999	-0.584568	13.6966	0	-0	0.00146173	-207.624	-1.76524	220.892	73.0967	-1.58066e-09	-6.17516e-11	0	-0.567931	1.2383	-0	-0	-7.87729	1.39901	-2.28325	-2.84424	13.8276	25.4334	17.0205	0.000252689	1.17528	0.70937	-0.547657	0	0	-8.25515e-06	-18.8189	-0.44453	-0.263429	-1.54024	1.39644e-09	64.5384	8.72875	69.6219	1.78344e-10	12.9665	-449.091	2.0576	537.338	142.376	-4.61574e-10	-0.336117	-76.9782	-14.2602	11.3553	34.19	-7.54127	-42.3786	-96.1088	-2.31347e-10	-15.4657	-49.726	-0	262.363	-71.197	
3.445	0	0	-11.9057	-10.4154	-0	-4.29141e-11	-88.313	-8.19992	-15.5813	-13.5086	2.19932	-7.55215	-26.6821	0.000149073	0.270284	0.0290139	-11.3212	0	-3.07365e-08	0.00164053	506.241	4.09448	-516.171	-146.297	0	0	0	8.89779	7.09223	0	3.02616e-10	33.4695	-6.11573	-5.16142	6.17795	-6.48272	-27.4237	-46.5817	-0.000174255	-0.703763	-0.652866	13.5306	0	-1.01503e-07	0.000520413	-205.46	-1.88517	217.966	73.6301	-0	-0	0	-0.568383	1.21422	-0	-7.76833e-11	-7.81964	1.0983	-2.20632	-2.55822	14.3886	28.1709	13.2379	0.00055572	1.29739	0.740751	-0.525244	0	3.28764e-08	-1.35303e-06	-18.7373	-0.487764	0.72305	-1.23092	0	63.5078	8.8677	72.1908	1.62206e-10	12.7077	-455.189	2.20211	532.87	143.618	-0	-0.578154	-78.0986	-13.2641	11.3801	34.2881	-7.53957	-42.358	-100.857	-2.15072e-10	-15.4724	-49.7562	-0	267.315	-71.2791	
3.45	0	0	-11.5785	-9.97595	-0	-8.86009e-11	-87.7933	-7.68374	-14.3755	-12.215	2.07562	-8.79822	-24.2805	0	0.278123	0.0127907	-10.9079	0.00259789	-3.7823e-10	0	513.928	4.45072	-522.922	-149.206	2.31881e-07	0	0	8.62179	6.6534	0	7.23795e-10	32.5912	-5.51739	-4.55389	5.50134	-7.10648	-29.8215	-41.1839	-0	-0.819346	-0.708879	13.282	0.000337569	-1.18987e-09	0	-202.987	-1.99777	214.769	73.4318	-1.20895e-07	-0	0	-0.557629	1.16489	-0	-1.82202e-10	-7.64779	0.82931	-2.13195	-2.27966	14.8627	28.8378	9.79665	0	1.404	0.748419	-0.502436	0.000603534	3.30345e-10	-0	-18.5393	-0.531781	1.77201	-0.885936	1.01575e-07	61.5903	9.08249	74.6442	1.47229e-10	12.3688	-463.611	2.34632	528.076	143.51	-3.73391e-08	-1.06375	-81.9967	-12.968	11.3786	34.3392	-7.52943	-42.3179	-105.454	-1.99304e-10	-15.4665	-49.7556	-0	269.293	-71.2757	
3.455	7.2157e-11	0	-11.1155	-9.38788	-0	-1.00893e-10	-86.0298	-7.23775	-13.2973	-10.921	1.90386	-9.55151	-21.943	7.14951e-06	0.277949	-0.0061353	-10.4156	0	-5.45391e-10	0.00630682	521.326	4.8072	-529.754	-150.889	0	1.49424e-09	0	8.25583	6.13037	0	9.91775e-10	31.2618	-4.99814	-4.02236	4.84231	-7.73178	-30.3424	-36.1682	-1.07712e-05	-0.937529	-0.746997	12.966	0	-1.63706e-09	0.00190473	-200.21	-2.1015	211.331	72.5517	-0	-2.27911e-11	0	-0.539413	1.09778	-0	-2.44369e-10	-7.37277	0.591618	-2.0622	-2.00844	15.2246	27.5206	6.86025	2.80438e-05	1.4909	0.730748	-0.481118	0	3.76876e-10	3.77999e-06	-18.2434	-0.575914	2.84419	-0.527733	0	58.9059	9.32972	77.0292	1.33454e-10	11.971	-473.099	2.49014	523.194	142.192	-0	-1.75574	-87.9745	-13.2406	11.3437	34.3264	-7.50423	-42.2553	-109.904	-1.84128e-10	-15.4436	-49.7156	-0	267.904	-71.1626	
3.46	1.96263e-10	0	-10.5809	-8.70074	-0	-1.00294e-10	-83.1345	-6.8655	-12.3459	-9.62766	1.6875	-9.69592	-19.7374	0.000248511	0.269573	-0.0256988	-9.86767	1.46811e-07	-0	0	528.298	5.15894	-536.556	-151.321	2.54666e-09	2.698e-09	0	7.84931	5.56333	0	1.25337e-09	29.5652	-4.55773	-3.56409	4.20304	-8.33878	-29.017	-31.6452	-0.000425867	-1.0541	-0.761306	12.606	1.68068e-08	-0	0	-197.215	-2.19522	207.712	71.0517	-1.4029e-09	-2.98361e-11	0	-0.516766	1.01859	-0	-3.01715e-10	-7.01289	0.381835	-1.99902	-1.74554	15.4534	24.6047	4.43447	0.00100633	1.55408	0.687396	-0.463021	3.41177e-08	0	0	-17.8795	-0.619467	3.90354	-0.177642	1.10832e-09	55.6199	9.57779	79.4057	1.2078e-10	11.5416	-482.827	2.63364	518.497	139.812	-4.47908e-10	-2.59951	-95.6271	-14.0722	11.269	34.233	-7.45573	-42.1672	-114.246	-1.69475e-10	-15.3982	-49.6281	-1.03973e-06	264.806	-70.9157	
3.465	3.50995e-10	0	-10.0151	-7.95242	-0	-8.94974e-11	-79.3259	-6.56784	-11.5245	-8.3491	1.43322	-9.06859	-17.7082	0.138139	0.253333	-0.04337	-9.29073	0.00388647	-6.43723e-11	0.00449395	534.637	5.50098	-543.234	-150.496	0	3.588e-09	0	7.43237	4.98119	0	1.55541e-09	27.614	-4.19272	-3.18338	3.59009	-8.90694	-25.7174	-27.6633	-0.269484	-1.16394	-0.746218	12.2303	0.000417555	-1.77501e-10	0.00130615	-194.046	-2.27813	203.974	68.9978	-0	-2.37157e-11	0	-0.491485	0.931724	-0	-3.65119e-10	-6.59327	0.195295	-1.93979	-1.49369	15.5342	20.3273	2.4829	0.579851	1.59001	0.619653	-0.449618	0.000903541	2.38268e-11	6.5829e-06	-17.4767	-0.661743	4.91808	0.145696	0	51.9387	9.80445	81.836	1.09117e-10	11.1101	-492.123	2.77699	514.211	136.504	-0	-3.58923	-102.558	-15.5364	11.1489	34.0437	-7.37544	-42.0502	-118.519	-1.55319e-10	-15.3237	-49.4853	-3.56156e-06	261.981	-70.5117	
3.47	5.47293e-10	0	-9.43666	-7.17035	-0	-6.55763e-11	-74.8835	-6.34525	-10.8388	-7.1064	1.15042	-7.81009	-15.9544	0.206905	0.230189	-0.0564315	-8.71169	0	-7.75322e-11	0.00170414	540.171	5.82851	-549.679	-148.434	5.09658e-10	4.42895e-09	0	7.01827	4.40328	0	1.89825e-09	25.5298	-3.89873	-2.87147	3.01179	-9.41583	-21.1189	-24.3385	-0.459766	-1.26161	-0.697246	11.8699	0	-2.06133e-10	0.0004883	-190.747	-2.3498	200.16	66.464	-2.98529e-10	-1.06932e-11	0	-0.464425	0.840351	-0	-4.33719e-10	-6.14131	0.0267425	-1.89241	-1.25624	15.4583	15.5196	0.950238	0.903772	1.59642	0.530638	-0.442101	0	1.78497e-11	3.08485e-06	-17.0637	-0.702054	5.86033	0.427191	2.19195e-10	48.0759	9.99494	84.3725	9.84571e-11	10.706	-500.361	2.92027	510.471	132.397	-9.6767e-11	-4.76511	-105.981	-17.7167	10.9792	33.7452	-7.21961	-41.9002	-122.758	-1.41771e-10	-15.214	-49.2807	-6.05744e-06	259.679	-69.93	
3.475	7.9956e-10	0	-8.84947	-6.37497	-0	-2.56603e-11	-70.0531	-6.19798	-10.3149	-5.92559	0.850476	-6.15629	-14.5592	0.0834459	0.201615	-0.0623433	-8.15445	4.22759e-05	-3.81179e-11	0	544.769	6.13807	-555.737	-145.178	7.24969e-10	5.3495e-09	0	6.60852	3.84237	0	2.27327e-09	23.4097	-3.67109	-2.62858	2.4774	-9.84651	-15.9752	-21.7482	-0.211299	-1.34154	-0.611722	11.5553	4.00634e-06	-9.81669e-11	0	-187.359	-2.41059	196.292	63.5244	-4.38627e-10	9.74328e-12	0	-0.435779	0.746984	-0	-5.04615e-10	-5.67886	-0.129372	-1.86534	-1.03687	15.2236	10.8901	-0.250475	0.380654	1.57227	0.425202	-0.441439	9.84344e-06	3.89404e-12	0	-16.6687	-0.739884	6.70654	0.655936	3.09131e-10	44.1945	10.1405	87.0605	8.87419e-11	10.3559	-506.787	3.06386	507.306	127.599	-1.42501e-10	-6.16165	-104.515	-20.6689	13.1856	34.159	-6.93686	-41.7135	-126.999	-1.2888e-10	-15.0672	-49.0088	-8.13287e-06	257.186	-69.1553	
3.48	1.11698e-09	0	-8.25602	-5.58452	-0	3.2081e-11	-65.015	-6.1261	-9.96422	-4.83841	0.545848	-3.88012	-13.7829	0.0910049	0.169504	-0.0591575	-7.63709	0.00433514	-7.47392e-12	0.00444626	548.339	6.42923	-561.276	-140.811	2.24878e-10	6.37698e-09	0	6.20326	3.30824	0	2.67472e-09	21.3193	-3.50513	-2.45168	1.99767	-10.1825	-9.72475	-20.2415	-0.262637	-1.39861	-0.48953	11.3135	0.000386325	-1.87368e-11	0.00125145	-183.926	-2.46217	192.396	60.2621	-1.40648e-10	3.93752e-11	0	-0.405745	0.653917	-0	-5.75752e-10	-5.22031	-0.278681	-1.86421	-0.839819	14.8349	6.13772	-1.19062	0.434912	1.51819	0.309676	-0.448424	0.00101061	-1.17329e-13	1.15342e-05	-16.3163	-0.775088	7.43701	0.825539	9.48681e-11	40.3966	10.2422	89.9412	7.97475e-11	10.0822	-511.663	3.2093	504.711	122.225	-4.56672e-11	-7.80399	-97.5746	-24.4777	16.6646	34.5224	-6.72196	-41.4863	-131.273	-1.16462e-10	-14.8837	-48.666	-1.04314e-05	254.039	-68.1796	
3.485	1.50359e-09	0	-7.36768	-4.67656	-0	1.08758e-10	-59.9202	-6.12787	-9.7977	-3.88153	0.248966	-4.65718	-13.3496	0.0682295	0.135945	-0.0460904	-7.17031	0	-0	0	550.816	6.70219	-566.214	-135.474	3.4988e-10	7.5029e-09	0	5.58173	2.72737	0	3.10063e-09	19.3069	-3.39566	-2.33799	1.58463	-10.41	-11.3455	-19.351	-0.224386	-1.42846	-0.335005	11.1658	0	-0	0	-180.489	-2.50643	188.513	56.7726	-2.26335e-10	7.9669e-11	0	-0.36034	0.546893	-0	-6.46033e-10	-4.7762	-0.426636	-1.89475	-0.669921	14.3018	6.61965	-2.00146	0.342506	1.43623	0.19215	-0.463737	0	-0	0	-16.0271	-0.807604	8.03691	0.93408	1.45684e-10	36.7538	10.3127	93.0456	7.14732e-11	9.9008	-515.261	3.3579	502.68	116.404	-7.32735e-11	-9.70061	-98.8832	-29.2166	19.054	34.1868	-6.59191	-41.2151	-135.606	-1.04646e-10	-14.6646	-48.251	-1.2235e-05	250.007	-67.0033	
3.49	1.96035e-09	4.86955e-07	-6.2987	-3.68406	-0	2.05069e-10	-54.9281	-6.2019	-9.83026	-3.09132	-0.0286757	-6.35201	-12.9385	0.0472097	0.103008	-0.0243697	-6.75776	0.000225388	-3.12054e-11	0.00356123	552.177	6.95685	-570.512	-129.36	3.5976e-12	8.7137e-09	1.17565e-06	4.82206	2.11923	0	3.5508e-09	17.4186	-3.33834	-2.28636	1.24966	-10.5189	-15.1346	-18.5818	-0.176822	-1.42782	-0.160288	11.1275	1.78157e-05	-7.52868e-11	0.000998093	-177.092	-2.5452	184.697	53.1608	-2.40786e-12	1.31794e-10	7.57727e-08	-0.305627	0.430013	-0	-7.14812e-10	-4.35675	-0.578393	-1.96381	-0.531913	13.6392	8.15423	-2.71528	0.249436	1.32977	0.0830216	-0.48802	5.27237e-05	-7.09745e-12	1.36331e-05	-15.8174	-0.837351	8.49595	0.983982	1.47461e-12	33.3359	10.3712	96.4046	6.38562e-11	9.82154	-517.797	3.51025	501.19	110.282	-7.75734e-13	-11.8442	-104.607	-34.8796	19.6018	33.0024	-6.46196	-40.8968	-140.017	-9.34692e-11	-14.4116	-47.7649	-1.36927e-05	244.981	-65.6346	
3.495	2.48665e-09	0	-5.33323	-2.763	-0	3.21239e-10	-50.2166	-6.34788	-10.0756	-2.50215	-0.277339	-7.92824	-12.6067	0.0287804	0.0725346	-0.000705486	-6.39738	0.000483243	-0	0.00117648	552.44	7.1931	-574.163	-122.735	2.21182e-09	9.99926e-09	0	4.13512	1.57107	0	4.02337e-09	15.7018	-3.33016	-2.29624	1.00319	-10.5027	-18.5856	-18.0073	-0.122629	-1.39462	-0.00429686	11.2092	3.60209e-05	-0	0.000330508	-173.785	-2.58029	181.007	49.5481	-1.53183e-09	1.9663e-10	0	-0.255795	0.321695	-0	-7.81185e-10	-3.97306	-0.738896	-2.07836	-0.430412	12.8649	9.24087	-3.36311	0.160253	1.20313	0.00200076	-0.521934	0.000113298	-0	5.54575e-06	-15.6987	-0.864255	8.80811	0.981363	8.89893e-10	30.2207	10.4385	100.028	5.68187e-11	9.84946	-519.456	3.66641	500.207	104.048	-4.9036e-10	-14.217	-105.734	-41.3044	15.6716	31.0508	-6.30903	-40.5284	-144.509	-8.29294e-11	-14.127	-47.2116	-1.39987e-05	238.978	-64.0903	
3.5	3.08058e-09	0	-4.59165	-2.02957	-0	4.57279e-10	-45.9307	-6.56517	-10.4927	-2.14516	-0.48959	-9.38731	-12.3858	0.0129543	0.045986	-0	-6.08274	0.00143938	-5.43347e-11	0	551.649	7.411	-577.187	-115.91	1.09131e-09	1.13517e-08	0	3.61394	1.14342	0	4.51888e-09	14.1906	-3.36866	-2.35591	0.854522	-10.3587	-21.6346	-17.6637	-0.0626825	-1.32818	-0	11.4174	0.000101208	-1.28834e-10	0	-170.621	-2.61359	177.509	46.0615	-7.82075e-10	2.74788e-10	0	-0.217004	0.235558	-0	-8.44824e-10	-3.63357	-0.912752	-2.23421	-0.369935	11.9987	9.67428	-3.97878	0.076051	1.06135	0	-0.566155	0.000338346	-2.26971e-11	0	-15.6781	-0.888271	8.97171	0.935037	4.29634e-10	27.4656	10.5347	103.913	5.02756e-11	9.98547	-520.398	3.82599	499.69	97.9151	-2.48463e-10	-16.7874	-106.464	-48.1885	10.5889	29.4726	-6.17978	-40.1088	-149.074	-7.29987e-11	-13.8205	-46.5985	-1.14026e-05	231.977	-62.4014	
3.505	3.73866e-09	0	-4.11922	-1.54616	-2.52851e-09	6.13559e-10	-42.1501	-6.85246	-11.0314	-2.04569	-1.17663	-9.87972	-12.2681	0	0.0243388	-0	-5.80436	0	-0	0.00255201	549.876	7.61063	-579.623	-109.219	1.25584e-10	1.27629e-08	0	3.29871	0.865294	5.22608e-09	5.04248e-09	12.8978	-3.45171	-2.45316	0.811231	-17.9678	-22.4845	-17.5343	-0	-1.22921	-0	11.7552	0	-0	0.000725375	-167.659	-2.647	174.274	42.8245	-9.31151e-11	3.66558e-10	0	-0.191037	0.178774	-4.09835e-10	-9.06308e-10	-3.34181	-1.10412	-2.42407	-0.354652	19.703	8.95304	-4.58601	0	0.909752	0	-0.621346	0	-0	1.82299e-05	-15.7583	-0.909372	8.98903	0.855202	4.82149e-11	25.0917	10.6797	108.04	4.41617e-11	10.2271	-520.772	3.98817	499.59	92.1102	-2.93339e-11	-19.498	-108.269	-55.3802	8.32005	28.3247	-6.06249	-39.6397	-153.687	-6.36641e-11	-13.5126	-45.9362	-1.31065e-05	223.971	-60.6176	
3.51	4.4549e-09	0	-3.97247	-1.3354	-5.41787e-09	7.89936e-10	-38.8755	-7.20697	-11.6761	-2.22541	-2.29156	-9.85262	-12.2261	4.64206e-07	0.00805746	-9.68515e-05	-5.55082	0	-1.64663e-12	0	547.207	7.79233	-581.478	-102.895	1.33151e-10	1.42209e-08	0	3.24432	0.744457	1.18461e-08	5.59418e-09	11.8127	-3.57711	-2.58453	0.880415	-28.1861	-22.2653	-17.5762	-2.87408e-06	-1.09955	-0.000516943	12.2231	0	-3.91684e-12	0	-164.955	-2.6825	171.36	39.913	-1.02127e-10	4.7176e-10	0	-0.1801	0.153718	-8.65427e-10	-9.65293e-10	-3.09561	-1.31642	-2.64724	-0.38889	29.2952	7.8624	-5.1965	3.0234e-06	0.753549	0.000169054	-0.688068	0	-9.84636e-13	0	-15.938	-0.927568	8.86495	0.751159	4.96732e-11	23.0776	10.8923	112.375	3.85214e-11	10.5688	-520.72	4.15183	499.816	86.7773	-3.18848e-11	-22.2455	-108.034	-63.0428	7.81646	27.2169	-5.92448	-39.1282	-158.318	-5.50579e-11	-13.2188	-45.2389	-6.58557e-06	215.135	-58.7856	
3.515	5.22437e-09	0	-4.28273	-1.42593	-7.49722e-09	9.86133e-10	-36.0866	-7.62464	-12.4272	-2.66333	-3.64872	-9.53421	-12.2313	0	-0.00285922	-0.00015908	-5.3099	0	-0	0.00235783	543.739	7.95674	-574.993	-97.0778	3.79047e-12	1.57205e-08	0	3.57554	0.794215	1.73981e-08	6.17412e-09	10.92	-3.74261	-2.7503	1.0536	-38.4176	-21.4987	-17.7471	-0	-0.942239	-0.000832525	12.819	0	-0	0.000682228	-162.569	-2.72217	166.57	37.3622	-3.00694e-12	5.90066e-10	0	-0.189015	0.16331	-1.17604e-09	-1.02159e-09	-2.89166	-1.55228	-2.90614	-0.470294	37.8937	6.70034	-5.81469	0	0.59773	0.000238404	-0.76671	0	-0	2.47306e-05	-16.2127	-0.942925	8.49314	0.630756	1.36878e-12	21.3941	11.1903	116.847	2.45452e-10	11.0023	-520.382	4.31576	493.606	81.988	-9.30097e-13	-24.9088	-97.1	-71.0624	7.57968	26.0831	-5.76792	-38.5876	-162.904	-3.4749e-10	-12.9412	-44.524	-0	205.765	-56.9332	
3.52	6.04065e-09	0	-5.1377	-1.85219	-9.13739e-09	1.20187e-09	-33.779	-8.0992	-13.285	-3.24532	-4.81439	-9.16924	-12.2581	6.52714e-06	-0.00879356	-0	-5.06903	0.0021812	-2.54307e-12	0.000641087	539.573	8.10472	-558.012	-91.8535	3.60338e-11	1.72534e-08	0	4.3952	1.03394	2.25809e-08	6.78286e-09	10.2112	-3.94526	-2.95085	1.28694	-45.0782	-20.7166	-18.0079	-5.10032e-05	-0.761315	-0	13.5383	0.0001193	-6.18602e-12	0.00018735	-160.556	-2.76808	159.434	35.1873	-2.95611e-11	7.20725e-10	0	-0.219827	0.210954	-1.40221e-09	-1.07521e-09	-2.72847	-1.81309	-3.2032	-0.580368	42.2533	5.66571	-6.43998	4.68315e-05	0.446813	0	-0.857335	0.000519606	-1.97962e-12	7.99865e-06	-16.5749	-0.955553	7.87008	0.500246	1.25444e-11	20.0261	11.5902	121.386	2.38627e-10	11.5162	-519.897	4.47862	479.006	77.7792	-9.05847e-12	-27.3714	-81.8646	-78.9191	7.17749	24.9749	-5.59021	-38.033	-167.413	-3.34511e-10	-12.6741	-43.8118	-0	196.292	-55.0895	
3.525	6.89543e-09	0	-6.47792	-2.57752	-2.32454e-08	1.43693e-09	-31.9593	-8.62082	-14.2405	-3.91129	-5.37137	-8.82723	-12.2822	4.02222e-05	-0.111631	-0	-4.81578	0	-3.59344e-12	0.00119948	534.806	8.23744	-535.636	-87.2777	1.86867e-10	1.88072e-08	0	5.69218	1.4468	6.14702e-08	7.42097e-09	9.68345	-4.18058	-3.18404	1.55885	-45.7999	-20.0524	-18.3204	-0.00035122	-6.03391	-0	14.3721	0	-8.89717e-12	0.000354057	-158.968	-2.82231	151.498	33.3929	-1.58529e-10	8.62482e-10	0	-0.267731	0.291784	-3.51879e-09	-1.12632e-09	-2.60595	-2.09857	-3.53843	-0.709771	40.8255	4.77786	-7.06715	0.000301922	3.27377	0	-0.95951	0	-3.13257e-12	1.75588e-05	-17.0155	-0.965614	7.10643	0.364482	6.24461e-11	18.9689	12.1048	125.898	2.35099e-10	12.0954	-519.397	4.63918	460.253	74.1705	-4.81316e-11	-29.551	-65.5505	-86.119	6.72503	23.9296	-5.40365	-37.4836	-171.802	-3.2643e-10	-12.4138	-43.1251	-0	187.125	-53.3041	
3.53	7.77985e-09	0	-8.10361	-3.46233	-1.23368e-07	1.69073e-09	-30.6121	-9.17518	-15.2745	-4.65987	-5.6612	-8.52059	-12.28	0	-0.312324	-0.000142354	-4.53856	0	-4.34962e-12	0	529.527	8.35612	-511.942	-83.3677	9.06605e-11	2.03688e-08	0	7.33143	1.96082	3.50078e-07	8.08698e-09	9.32944	-4.44189	-3.44587	1.8717	-43.7438	-19.5142	-18.6441	-0	-12.9184	-0.000736859	15.3073	0	-1.10044e-11	0	-157.851	-2.88686	143.914	31.9724	-7.95444e-11	1.01369e-09	0	-0.322011	0.389402	-1.81923e-08	-1.17493e-09	-2.52266	-2.4062	-3.9083	-0.859509	36.7149	4.01363	-7.68606	0	6.47284	0.00013126	-1.07219	0	-4.21324e-12	0	-17.5237	-0.973301	6.29045	0.226815	2.895e-11	18.2076	12.7423	130.259	2.21165e-10	12.7207	-519.002	4.79623	440.704	71.1578	-2.39359e-11	-31.393	-56.4683	-92.3234	6.35275	22.9745	-5.22069	-36.9658	-176.008	-3.04486e-10	-12.1642	-42.4882	-0	178.653	-51.6463	
3.535	8.6848e-09	0	-9.67779	-4.33276	-1.68909e-09	1.96254e-09	-29.7199	-9.74237	-16.36	-5.49061	-5.77595	-8.24167	-12.2289	8.97028e-06	-0.450127	-0.000481535	-4.22672	0.00201406	-4.84861e-12	0.00093388	523.816	8.46206	-488.644	-80.1144	4.12587e-11	2.19243e-08	0	9.03636	2.4842	5.16477e-09	8.77829e-09	9.14386	-4.71942	-3.729	2.22893	-41.2112	-19.0674	-18.9364	-9.71917e-05	-15.5881	-0.00251135	16.324	8.42522e-05	-1.25778e-11	0.000280797	-157.241	-2.96362	137.112	30.9127	-3.74501e-11	1.17233e-09	0	-0.368086	0.483969	-2.41866e-10	-1.22113e-09	-2.4774	-2.7306	-4.30689	-1.03079	32.6196	3.34405	-8.2821	7.34691e-05	7.20296	0.000366381	-1.19346	0.000485588	-5.18921e-12	1.80436e-05	-18.0878	-0.978846	5.46965	0.0894666	1.25289e-11	17.7289	13.5051	134.366	2.08229e-10	13.3679	-518.818	4.94874	421.713	68.7215	-1.11739e-11	-32.8533	-45.2783	-97.3321	6.06833	22.137	-5.05423	-36.5085	-180.027	-2.84762e-10	-11.9357	-41.9259	-0	170.964	-50.1885	
3.54	9.60108e-09	1.08782	-10.8893	-5.05719	-3.56613e-09	2.25155e-09	-29.2771	-10.299	-17.4611	-6.38976	-5.88266	-7.98325	-12.109	1.68465e-05	-0.492574	-0	-3.87155	0	-5.33401e-12	0	517.734	8.55644	-466.427	-77.4873	2.09121e-10	2.34596e-08	1.6828	10.5189	2.94559	1.18029e-08	9.49183e-09	9.12764	-5.00103	-4.02328	2.62928	-39.2468	-18.68	-19.1543	-0.000203484	-14.9738	-0	17.3955	0	-1.42298e-11	0	-157.168	-3.05427	131.224	30.1965	-1.96476e-10	1.33611e-09	0.126397	-0.394637	0.56095	-4.93802e-10	-1.26513e-09	-2.47018	-3.06384	-4.7245	-1.22231	29.3384	2.74686	-8.83746	0.000144416	6.36913	0	-1.3205	0	-6.28142e-12	0	-18.6955	-0.982484	4.67209	-0.046193	6.00813e-11	17.5288	14.3877	138.074	1.95006e-10	14.0081	-518.926	5.09578	403.78	66.829	-5.81573e-11	-33.8861	-48.4442	-101.009	5.8559	21.4417	-4.91521	-36.1406	-183.816	-2.6556e-10	-11.7415	-41.4631	-0	163.259	-48.9983	
3.545	1.05196e-08	5.06493	-11.6016	-5.56139	-2.22492e-09	2.55694e-09	-29.2811	-11.0291	-18.6207	-7.33277	-6.01879	-7.74107	-11.9065	0	-0.504417	-0	-3.46648	0	-5.81621e-12	0.00328906	511.331	8.64018	-445.751	-75.4358	3.14178e-10	2.49598e-08	7.67339	11.6222	3.3019	8.01241e-09	1.02239e-08	9.2856	-5.4188	-4.33431	3.06749	-37.8556	-18.3279	-19.2597	-0	-13.8102	-0	18.4853	0	-1.5995e-11	0.00100297	-157.65	-3.16027	126.316	29.8031	-3.05775e-10	1.5025e-09	0.579804	-0.398873	0.612578	-2.96864e-10	-1.30733e-09	-2.50153	-3.40629	-5.17316	-1.43044	26.761	2.20589	-9.3336	0	5.39441	0	-1.44933	0	-7.51314e-12	7.94041e-05	-19.334	-0.984463	3.91799	-0.179274	8.49319e-11	17.6068	15.377	141.27	1.8186e-10	14.6069	-519.383	5.23656	387.238	65.4347	-8.98457e-11	-34.4443	-34.5744	-103.271	5.7191	20.9088	-4.81416	-35.8913	-187.367	-2.47407e-10	-11.5953	-41.1233	-0	155.642	-48.1353	
3.55	1.14314e-08	5.66388	-11.8027	-5.80945	-3.36704e-09	2.87792e-09	-29.7209	-11.5881	-19.6566	-8.2904	-6.16926	-7.51297	-11.6135	2.6898e-06	-0.52795	-0.000392642	-3.00855	0.00309424	-6.29974e-12	0	504.637	8.71391	-426.955	-73.8958	3.34979e-07	2.64099e-08	8.42252	12.2917	3.52759	1.32738e-08	1.09705e-08	9.62308	-5.76121	-4.61567	3.53627	-36.7624	-17.9928	-19.2206	-4.11793e-05	-13.1848	-0.00212345	19.5503	6.63233e-05	-1.78912e-11	0	-158.697	-3.28284	122.431	29.7095	-3.38078e-07	1.66874e-09	0.639593	-0.383179	0.635583	-4.3142e-10	-1.34828e-09	-2.57143	-3.70233	-5.60047	-1.65021	24.605	1.70927	-9.75266	2.57964e-05	4.71513	0.000121771	-1.57512	0.000756007	-8.90507e-12	0	-19.9911	-0.985012	3.22155	-0.309093	8.46978e-08	17.959	16.453	143.819	1.68737e-10	15.1276	-520.211	5.37038	372.342	64.4834	-9.86692e-08	-34.4944	-36.9115	-104.078	5.67094	20.5553	-4.76035	-35.7875	-190.648	-2.30196e-10	-11.5093	-40.9275	-0	149.715	-47.652	
3.555	1.23274e-08	6.13926	-11.4254	-5.76237	-3.54876e-09	3.21367e-09	-30.5679	-11.8794	-20.4828	-9.22796	-6.34043	-7.29818	-11.23	1.71138e-06	-0.297944	-0.000451821	-2.49912	0	-6.76282e-12	0.00251571	497.669	8.7777	-410.247	-72.7826	0	2.77934e-08	8.97779	12.4007	3.59009	1.54267e-08	1.1727e-08	10.1427	-5.96999	-4.84185	4.02548	-35.8891	-17.661	-19.0156	-3.01542e-05	-6.81661	-0.00247276	20.5425	0	-1.98561e-11	0.00077298	-160.307	-3.42287	119.584	29.8872	-0	1.83196e-09	0.684669	-0.348882	0.626443	-4.35313e-10	-1.38866e-09	-2.67837	-3.91685	-5.97653	-1.87506	22.7653	1.24826	-10.08	1.77506e-05	2.2233	7.36751e-05	-1.6924	0	-1.04401e-11	7.20452e-05	-20.654	-0.984336	2.59127	-0.434812	0	18.572	17.5895	145.606	1.55733e-10	15.534	-521.409	5.49655	359.25	63.904	-0	-34.0237	-30.5084	-103.431	5.72118	20.3957	-4.76122	-35.8519	-193.619	-2.13964e-10	-11.4932	-40.8939	-0	146.554	-47.5934	
3.56	1.31985e-08	7.424	-10.3692	-5.37933	-3.66946e-09	3.5634e-09	-31.7737	-12.0581	-21.1347	-10.109	-6.55111	-7.09755	-5.13112	6.24396e-07	-0.258823	-0	-1.94182	0.335879	-7.21319e-12	0.000736259	490.429	8.83099	-395.617	-71.9961	4.25504e-09	2.90936e-08	10.6924	11.7586	3.44936	1.77453e-08	1.24884e-08	10.8431	-6.11534	-5.01538	4.52314	-35.2524	-17.3246	-8.88416	-1.30221e-05	-5.41866	-0	21.4154	0.00104612	-2.19029e-11	0.000226425	-162.475	-3.58087	117.746	30.3024	-4.63808e-09	1.98915e-09	0.818504	-0.296469	0.581489	-4.29488e-10	-1.42927e-09	-2.8191	-4.09349	-6.30546	-2.09739	21.2111	0.816431	-4.91315	7.20188e-06	1.60413	0	-1.79834	0.0828355	-1.21386e-11	2.25405e-05	-21.3109	-0.982585	2.03081	-0.555261	9.21967e-10	19.4217	18.7553	146.527	1.42956e-10	15.8185	-522.941	5.61437	347.951	63.6121	-1.3378e-09	-33.0405	-32.6053	-101.375	5.87511	20.4431	-4.82279	-36.1	-196.218	-1.98715e-10	-11.5547	-41.0364	-5.14175e-07	146.082	-47.995	
3.565	1.40351e-08	9.22264	-8.59329	-4.63632	-3.61441e-09	3.92623e-09	-33.2679	-12.1241	-21.5737	-10.8917	-6.81413	-5.30323	-0	0	-0.38745	-0.000148409	-1.34418	2.72022	-2.17029e-11	0.873326	482.915	8.87284	-382.855	-71.4219	0	3.02924e-08	13.098	10.208	3.06886	1.9662e-08	1.32492e-08	11.7169	-6.19151	-5.12184	5.01314	-34.8437	-13.0259	-0	-0	-7.3901	-0.000824597	22.1347	-0.0192235	-6.81274e-11	0.268254	-165.186	-3.75708	116.838	30.9145	-0	2.13723e-09	1.00616	-0.228959	0.498801	-4.02963e-10	-1.47102e-09	-2.9882	-4.22802	-6.56986	-2.30783	19.9012	0.313922	-0	0	1.97387	-1.94727e-05	-1.89243	0.674112	-3.97385e-11	0.0282373	-21.9505	-0.979889	1.54087	-0.668651	0	20.4711	19.9152	146.473	1.30528e-10	15.9948	-524.764	5.72314	338.266	63.5104	-0	-31.5676	-24.825	-98.0139	6.13569	20.7103	-4.9485	-36.5385	-198.323	-1.8443e-10	-11.6987	-41.3645	-5.62268e-07	148.08	-48.8817	
3.57	1.48268e-08	13.2852	-6.35433	-3.60345	-3.44594e-09	4.30123e-09	-34.9759	-12.0477	-21.7695	-11.547	-7.14166	-0.97761	-0.00649199	0	-0.6056	-0.000124662	-0.724324	10.233	-0	1.6199	475.104	11.3678	-371.773	-70.9592	7.8762e-10	3.13699e-08	18.6225	7.92892	2.46912	2.13873e-08	1.4004e-08	12.755	-6.17846	-5.14964	5.48275	-34.6571	-2.40914	-0.0117057	-0	-10.4616	-0.000693162	22.693	-0.184381	-0	0.492433	-168.416	-5.04601	116.799	31.6862	-9.34527e-10	2.27301e-09	1.43548	-0.157316	0.386287	-3.65488e-10	-1.51492e-09	-3.17964	-4.30586	-6.75416	-2.49899	18.8013	0.00334285	-0.00703499	0	2.50243	-3.45325e-05	-1.96863	2.54853	-0	0.0556055	-22.5621	-1.24681	1.12097	-0.772961	1.41243e-10	21.6811	21.0349	145.371	1.18505e-10	16.0283	-526.804	7.4351	330.045	63.5134	-2.66877e-10	-29.6323	-24.9658	-93.4968	6.50457	21.2105	-5.1394	-37.1633	-199.773	-1.70994e-10	-11.9278	-41.8822	-0	152.57	-50.2665	
3.575	1.55622e-08	18.5654	-4.31311	-2.50208	-3.15852e-09	4.68722e-09	-36.829	-11.8136	-21.7012	-12.0469	-7.54018	-0.000155993	-0	0	-0.686795	-0	-0.0954898	26.2095	-1.24035e-05	2.7529	466.981	11.1422	-362.018	-70.508	6.40375e-11	3.23057e-08	25.704	5.66915	1.77956	2.27892e-08	1.47464e-08	13.9503	-6.06484	-5.09116	5.91731	-34.6634	-0.000384367	-0	-0	-10.6801	-0	23.0939	-0.781001	-4.14298e-05	0.820321	-172.145	-5.2029	117.522	32.5774	-7.9568e-11	2.39331e-09	1.98844	-0.0986561	0.267666	-3.1918e-10	-1.56196e-09	-3.38769	-4.31707	-6.8458	-2.66316	17.8702	-8.14508e-06	-0	0	2.2668	-0	-2.02666	6.56137	-2.67139e-05	0.100631	-23.1367	-1.21468	0.769325	-0.865947	1.02643e-11	23.0168	22.0797	143.144	1.07044e-10	15.9329	-529.003	7.3868	322.994	63.5357	-2.26184e-11	-27.2873	-17.6847	-88.0437	6.98165	21.9589	-5.39379	-37.9583	-200.346	-1.58408e-10	-12.2419	-42.5883	-0	159.661	-52.1499	
3.58	1.62295e-08	22.4597	-2.90933	-1.61911	-2.76756e-09	5.08283e-09	-38.7651	-11.4314	-21.3761	-12.3771	-8.01774	-0.00164221	-0.0016983	0	-0.572198	-0	0.531079	42.9252	-0	2.20585	458.522	13.8869	-353.245	-69.9884	1.02767e-08	3.30792e-08	30.7292	4.04024	1.19838	2.38105e-08	1.54706e-08	15.2962	-5.85393	-4.9475	6.30613	-34.8464	-0.00403064	-0.00316132	-0	-7.96764	-0	23.3542	-1.82241	-0	0.642161	-176.342	-6.84319	118.902	33.552	-1.34102e-08	2.49508e-09	2.3864	-0.061185	0.173138	-2.66998e-10	-1.61319e-09	-3.60707	-4.26088	-6.84148	-2.79524	17.0796	-0.000176474	-0.00206715	0	1.48317	-0	-2.06777	10.8045	-0	0.0847799	-23.6661	-1.50637	0.483792	-0.945515	1.4488e-09	24.4472	23.0185	139.749	9.60962e-11	15.7312	-531.292	9.33043	316.832	63.5093	-3.79496e-09	-24.6249	-14.8714	-81.9301	7.56472	22.9735	-5.70712	-38.8952	-199.782	-1.4638e-10	-12.6385	-43.4762	-0	169.537	-54.5197	
3.585	1.68162e-08	24.8737	-2.05835	-1.05448	-2.29271e-09	5.48638e-09	-40.7079	-10.9178	-20.8161	-12.5368	-8.58067	-0	-0	-0	-0.50192	-0	1.14727	56.9923	-0	1.38817	449.702	16.9446	-345.137	-69.3391	3.61534e-09	3.36704e-08	33.6431	3.02974	0.814211	2.44001e-08	1.61704e-08	16.7788	-5.55523	-4.72557	6.6429	-35.1853	-0	-0	-0	-6.23364	-0	23.5009	-3.19311	-0	0.393372	-180.977	-8.83711	120.837	34.5784	-4.97032e-09	2.57544e-09	2.6239	-0.0395515	0.112937	-2.13188e-10	-1.66963e-09	-3.83106	-4.14036	-6.74392	-2.89291	16.4038	-0	-0	0	1.00274	-0	-2.09442	14.4276	-0	0.0554455	-24.1448	-1.83128	0.261748	-1.01009	4.38712e-10	25.9338	23.8243	135.152	8.58044e-11	15.4512	-533.719	11.5394	311.308	63.3837	-1.40016e-09	-21.7929	-7.57112	-75.5311	8.249	24.275	-6.07192	-39.9343	-197.774	-1.34943e-10	-13.1128	-44.5337	-3.75061e-17	182.304	-57.3511	
3.59	3.282e-10	26.6152	-1.5191	-0.725839	-1.76107e-09	5.89598e-09	-42.5572	-10.2912	-20.0524	-12.5367	-9.23218	-0.000293091	-0	-0	-0.626591	-0	1.74844	67.3809	-3.13701e-06	1.16687	440.501	20.5254	-337.38	-68.5188	2.76411e-07	6.45813e-10	35.5959	2.37824	0.586078	2.45359e-08	1.68402e-08	18.3698	-5.18129	-4.43657	6.92602	-35.6506	-0.000705164	-0	-0	-6.92466	-0	23.5637	-4.75287	-1.12569e-05	0.3206	-186.017	-11.3592	123.217	35.6301	-4.01752e-07	4.99008e-11	2.78948	-0.0265638	0.0780415	-1.60618e-10	-1.73224e-09	-4.05055	-3.96038	-6.56043	-2.95662	15.8174	-6.30708e-05	-0	0	0.944109	-0	-2.10955	17.1611	-8.44046e-06	0.0479111	-24.5692	-2.21351	0.0996778	-1.05876	2.79977e-08	27.4219	24.4778	129.391	7.62099e-11	15.1205	-536.366	14.1733	306.167	63.1263	-1.12638e-07	-18.9404	-0.809486	-69.2271	9.02792	25.8856	-6.47784	-41.0219	-194.046	-1.23999e-10	-13.6581	-45.7437	-0	197.749	-60.6072	
3.595	3.45492e-10	28.375	-1.03497	-0.505773	-1.20179e-09	6.3093e-09	-44.201	-9.57183	-19.1222	-12.3979	-9.97216	-0	-0	-5.95634e-10	-0.999238	-0	2.33259	75.0504	-8.26816e-06	1.1573	430.901	23.321	-329.698	-67.5045	0	6.68337e-10	37.5308	1.72986	0.428061	2.42146e-08	1.74743e-08	20.0285	-4.74744	-4.09471	7.15867	-36.2064	-0	-0	-1.6784e-08	-9.81919	-0	23.5673	-6.45416	-3.01514e-05	0.306981	-191.426	-13.7295	125.935	36.6863	-0	5.19716e-11	2.95676	-0.0163647	0.0547204	-1.12731e-10	-1.80185e-09	-4.25511	-3.72778	-6.30198	-2.98938	15.2971	-0	-0	5.87109e-09	1.10535	-0	-2.11583	19.2378	-2.37994e-05	0.0483519	-24.9388	-2.51401	-0.00713724	-1.09149	0	28.8472	24.9728	122.525	6.80348e-11	14.761	-539.25	16.3402	301.194	62.7211	-0	-16.1765	-0.186712	-63.3033	9.90046	27.8242	-6.91187	-42.0931	-188.363	-1.13433e-10	-14.2657	-47.0846	-6.50963e-17	215.257	-64.2404	
3.6	6.17189e-11	30.8787	-0.635256	-0.293622	-6.45754e-10	6.72346e-09	-45.5366	-8.78181	-18.0657	-12.1479	-10.7947	-0	-0	-1.1728e-09	-1.30688	-1.16329e-06	2.89906	80.7534	-0	1.14762	420.887	23.8787	-321.874	-66.2889	6.08175e-08	1.17406e-10	40.396	1.1382	0.261082	2.34506e-08	1.80671e-08	21.7085	-4.27129	-3.7158	7.34835	-36.8053	-0	-0	-2.26702e-08	-11.4278	-5.67309e-06	23.5285	-8.26957	-0	0.292538	-197.17	-14.9898	128.895	37.7318	-9.99696e-08	9.1543e-12	3.20114	-0.008998	0.0320506	-7.10634e-11	-1.87909e-09	-4.43503	-3.45143	-5.98206	-2.99627	14.8193	-0	-0	7.39532e-09	1.02321	-1.17608e-06	-2.11521	20.8417	-0	0.0483194	-25.2558	-2.57819	-0.0646442	-1.1091	3.60077e-09	30.1488	25.3155	114.728	6.06081e-11	14.3876	-542.395	16.9947	296.223	62.1667	-2.77362e-08	-13.5531	-0	-57.8343	10.8766	30.1013	-7.35861	-43.0783	-180.662	-1.03261e-10	-14.9252	-48.5313	-0	233.657	-68.1936	
3.605	6.74138e-11	34.5254	-0.375084	-0.106221	-1.2208e-10	7.135e-09	-46.4948	-7.94311	-16.9215	-11.8168	-11.6735	-0	-1.02819e-06	-7.90043e-10	-1.45522	-7.48536e-07	3.44749	84.5274	-0	1.11615	410.45	23.0744	-313.756	-64.8771	0	1.26139e-10	44.676	0.723714	0.0994583	2.22753e-08	1.86128e-08	23.369	-3.77095	-3.31565	7.50561	-37.3464	-0	-1.95971e-06	-1.14277e-08	-11.3461	-3.49572e-06	23.4562	-10.1219	-0	0.272043	-203.211	-15.4811	132.012	38.7568	-0	9.82566e-12	3.56281	-0.0047108	0.0117313	-3.72732e-11	-1.96425e-09	-4.58365	-3.1413	-5.61518	-2.9836	14.3444	-0	-1.61129e-06	3.4724e-09	0.762803	-8.18757e-07	-2.10899	21.975	-0	0.0469262	-25.5248	-2.50065	-0.08025	-1.1132	0	31.2836	25.5202	106.202	5.37046e-11	14.0091	-545.819	16.7046	291.144	61.4731	-0	-11.0969	-0	-52.7215	11.985	32.7132	-7.7993	-43.8997	-171.004	-9.33344e-11	-15.6182	-50.0552	-0	251.028	-72.4025	
3.61	2.30967e-07	39.3339	-0.225339	-0	3.42608e-10	3.77033e-10	-47.0461	-7.0763	-15.724	-11.4345	-12.5608	-0	-8.24021e-06	-8.10006e-10	-1.56316	-2.40206e-07	3.97741	86.3412	-0	1.08952	399.587	21.8791	-305.249	-63.274	0	4.25205e-07	50.3482	0.470592	0	2.07348e-08	9.55378e-10	24.9805	-3.2637	-2.9087	7.64314	-37.692	-0	-1.56182e-05	-9.24212e-09	-10.9003	-1.06972e-06	23.3551	-11.9152	-0	0.252506	-209.517	-15.7257	135.218	39.7567	-0	3.2969e-08	4.04242	-0.00246572	0	-1.16046e-11	-1.02876e-10	-4.69811	-2.80777	-5.21544	-2.95822	13.827	-0	-1.34942e-05	2.61282e-09	0.497434	-2.79653e-07	-2.09802	22.6208	-0	0.0453443	-25.7533	-2.38551	-0.0627215	-1.11318	0	32.2315	25.6045	97.192	4.73879e-11	13.6304	-549.534	16.1403	285.892	60.7798	-0	-8.83407	-0	-47.8915	13.2506	35.6227	-8.21552	-44.4827	-159.586	-8.37848e-11	-16.3048	-51.6261	-0	264.048	-76.7967	
3.615	0	45.1529	-0.141537	-2.54006e-07	7.26459e-10	1.33821e-07	-47.1912	-6.19919	-14.5013	-11.0281	-13.4109	-9.98676e-06	-4.10332e-06	-1.31787e-09	-1.68356	-0	4.48828	86.7086	-9.27109e-07	1.06835	388.296	20.736	-296.311	-61.4854	0	0	57.1754	0.32178	2.65633e-07	1.8889e-08	3.29594e-07	26.5237	-2.76468	-2.5073	7.77483	-37.7478	-2.13751e-05	-7.71093e-06	-1.22956e-08	-10.5406	-0	23.2284	-13.6253	-3.46524e-06	0.233995	-216.053	-16.0063	138.464	40.7321	-0	0	4.6233	-0.00131768	2.8977e-08	6.22956e-12	-3.63979e-08	-4.77863	-2.46076	-4.79561	-2.92702	13.2449	-4.46522e-06	-7.00987e-06	3.23033e-09	0.260618	-0	-2.083	22.9042	-3.38718e-06	0.0436594	-25.9511	-2.28027	-0.0220182	-1.12267	-0	32.9896	25.5859	87.9919	4.15864e-11	13.255	-553.537	15.6213	280.45	60.2977	-0	-6.79388	-0	-43.4118	14.6796	38.7035	-8.58807	-44.7533	-146.8	-7.45148e-11	-16.9465	-53.2123	-0	266.064	-81.3025	
3.62	1.69058	51.855	-0.0964584	-0	1.01364e-09	0	-46.9581	-5.32633	-13.2759	-10.6204	-14.1843	-7.66975e-06	-1.10636e-06	-1.97702e-09	-1.8032	-0	4.97967	84.7796	-6.59231e-07	1.04794	376.579	19.6503	-286.947	-59.5987	0	3.01573	64.9614	0.240328	0	1.68084e-08	0	27.9919	-2.28632	-2.12145	7.91494	-37.4671	-1.58934e-05	-2.05611e-06	-1.54881e-08	-10.1824	-0	23.0792	-15.0171	-2.46128e-06	0.215411	-222.788	-16.3335	141.72	41.716	-0	0.229165	5.29151	-0.000734787	0	1.71266e-11	-0	-4.82821	-2.10923	-4.36702	-2.89642	12.5958	-3.71735e-06	-1.96919e-06	3.77672e-09	0.0454162	-0	-2.06455	22.5904	-2.54399e-06	0.0417424	-26.13	-2.18517	0.03138	-1.12825	-0	33.5716	25.4809	78.8978	3.63288e-11	12.8851	-557.811	15.1557	274.831	59.8019	-0	-5.00193	-0	-39.3522	16.2723	41.7622	-8.89744	-44.6492	-133.146	-6.56788e-11	-17.5144	-54.7815	-0	260.452	-85.8445	
3.625	1.52964	59.414	-0.0742358	-0.000232139	1.1955e-09	1.1159	-46.3968	-4.4698	-12.064	-10.2293	-14.8425	-2.60696e-06	-0	-2.56026e-09	-1.90344	-0	5.45135	81.9665	-1.77692e-07	1.02747	364.442	18.556	-277.198	-57.6235	1.03753e-09	2.68748	73.6438	0.204287	0.000273996	1.45722e-08	2.60238	29.3925	-1.83838	-1.75869	8.07789	-36.825	-5.22089e-06	-0	-1.7194e-08	-9.74305	-0	22.9111	-16.2252	-6.62121e-07	0.196638	-229.694	-16.6583	144.977	42.7106	-2.53347e-09	0.201086	6.04348	-0.000430237	2.77055e-05	2.22661e-11	-0.306077	-4.8523	-1.76122	-3.93903	-2.87234	11.8842	-1.35375e-06	-0	3.88601e-09	-0.148298	-0	-2.04329	22.043	-7.2446e-07	0.0396384	-26.304	-2.09254	0.0868058	-1.13258	-7.82581e-11	34.0059	25.3062	70.1555	3.15896e-11	12.5227	-562.06	14.6952	269.077	59.3002	-6.80505e-10	-3.46638	-0	-35.6871	18.0196	44.5918	-9.12723	-44.1201	-119.145	-5.73239e-11	-17.9838	-56.3015	-1.31748e-19	253.516	-90.3479	
3.63	1.30432	67.7727	-0.0648155	-6.68169e-05	1.27102e-09	0.899048	-45.5719	-3.64266	-10.8785	-9.86887	-15.3498	-2.14171e-07	-0	-3.01137e-09	-1.98239	-0	5.90371	77.7819	-0	1.00786	351.892	17.4394	-267.092	-55.5684	4.00179e-10	2.25803	83.1257	0.198844	8.41602e-05	1.2264e-08	2.04282	30.7468	-1.42926	-1.42456	8.27869	-35.8173	-4.14028e-07	-0	-1.76322e-08	-9.24798	-0	22.729	-17.0788	-0	0.177895	-236.749	-16.9659	148.247	43.7193	-1.07906e-09	0.165778	6.87243	-0.000243885	8.19896e-06	2.30285e-11	-0.249132	-4.8581	-1.42484	-3.51977	-2.86028	11.119	-1.18057e-07	-0	3.68715e-09	-0.31816	-0	-2.01991	21.1227	-0	0.0374693	-26.4887	-2.00024	0.111008	-1.13841	-4.54436e-11	34.332	25.0783	61.9563	2.73253e-11	12.1693	-565.617	14.2275	263.774	58.7984	-2.87763e-10	-2.17914	-0.00435787	-32.3082	19.887	46.9624	-9.26467	-43.1389	-105.273	-4.94655e-11	-18.3337	-57.7399	-8.83091e-20	246.123	-94.7398	
3.635	1.51447	76.9352	-0.0618993	-5.96185e-06	1.2468e-09	0.796472	-44.5545	-2.85798	-9.72827	-9.54936	-15.679	-0	-0	-3.34685e-09	-2.04078	-9.7655e-09	6.33752	70.8587	-0	0.989457	338.946	16.3148	-256.674	-53.4562	1.91838e-10	2.58468	93.39	0.214113	8.0412e-06	9.96892e-09	1.765	32.0889	-1.06531	-1.12256	8.53335	-34.4659	-0	-0	-1.73318e-08	-8.72657	-3.34467e-08	22.5379	-17.1472	-0	0.159241	-243.935	-17.2672	151.564	44.7604	-5.76343e-10	0.185572	7.77768	-8.47013e-05	7.54891e-07	2.09584e-11	-0.223659	-4.85389	-1.10767	-3.11553	-2.86553	10.3143	-0	-0	3.34579e-09	-0.464242	-1.35169e-08	-1.99511	19.4423	-0	0.0353365	-26.702	-1.90933	0.0735892	-1.14876	-3.04951e-11	34.5971	24.8128	54.577	2.34568e-11	11.8263	-568.57	13.7625	259.503	58.3181	-1.52589e-10	-1.15897	-0.00141266	-29.1604	21.8265	48.5779	-9.30224	-41.7014	-92.1064	-4.20866e-11	-18.5465	-59.0649	-3.45967e-20	237.918	-98.9496	
3.64	1.70121	87.2266	-0.0616857	-0	0	0.915508	-43.4158	-2.12685	-8.61973	-9.27778	-15.8161	-0	-0	-3.5838e-09	-2.07543	-9.21665e-09	6.75353	61.6369	-0	0.972295	325.614	15.1917	-246.165	-51.3086	0	2.86373	104.806	0.244011	0	0	1.9807	33.4644	-0.750135	-0.854668	8.85919	-32.8196	-0	-0	-1.662e-08	-8.18373	-3.00274e-08	22.3417	-16.3466	-0	0.140646	-251.235	-17.5721	155.019	45.8575	-0	0.200444	8.79086	9.70691e-05	0	0	-0.26113	-4.84852	-0.815688	-2.73135	-2.89328	9.48803	-0	-0	2.9526e-09	-0.587167	-1.3054e-08	-1.96941	17.098	-0	0.0333326	-26.9615	-1.82032	0.00834946	-1.16678	-0	34.8525	24.5243	48.1576	2.00578e-11	11.4937	-571.015	13.3062	255.406	57.8824	-0	-0.404938	-0.00455882	-26.1711	23.7935	48.9214	-9.23297	-39.8282	-79.7338	-3.54156e-11	-18.6117	-60.2448	-3.56536e-21	228.979	-102.91	
3.645	1.89223	98.7527	-0.0618182	-0	7.86101e-09	1.03323	-42.2207	-1.45842	-7.55659	-9.05875	-15.7627	-0	-1.03818e-08	-3.72231e-09	-2.08195	-3.92979e-09	7.15153	62.7005	-0	0.956493	311.909	14.0703	-235.647	-49.1399	8.01948e-09	3.14358	117.469	0.284787	0	4.69882e-08	2.18488	34.9282	-0.484852	-0.621465	9.27606	-30.9503	-0	-1.80227e-08	-1.56323e-08	-7.6175	-1.22172e-08	22.1404	-18.1353	-0	0.122069	-258.633	-17.8831	158.686	47.0342	-3.09265e-08	0.213913	9.92108	0.00033051	0	1.07649e-10	-0.299829	-4.85076	-0.55318	-2.37055	-2.9491	8.66047	-0	-2.2843e-08	2.5446e-09	-0.687274	-5.69829e-09	-1.94299	17.5959	-0	0.0315548	-27.2853	-1.73276	-0.0934757	-1.19536	-2.28134e-09	35.1508	24.2251	41.5951	1.70236e-11	11.1694	-573.026	12.8569	251.556	57.5084	-8.07169e-09	-0	-0.000166632	-23.2704	25.7537	47.6142	-9.02012	-37.5584	-67.0865	-2.93464e-11	-18.5214	-61.2471	-0	219.801	-106.556	
