CEINMS output
datacolumns 11
datarows 217
endheader
time	hip_flexion_r	hip_adduction_r	hip_rotation_r	knee_angle_r	ankle_angle_r	hip_flexion_l	hip_adduction_l	hip_rotation_l	knee_angle_l	ankle_angle_l	
0.175	9.53638	-13.045	2.4891	1.6915	-8.7125	-3.48674	0.640155	-4.55237	5.06589	1.38565	
0.18	5.66254	-18.3248	2.77528	1.5059	-7.08591	-1.94255	3.54199	-4.70563	4.91362	1.72959	
0.185	0.35746	-23.4525	2.20496	2.28945	-6.21705	-3.0404	3.27648	-6.58725	5.36755	2.04724	
0.19	-5.00491	-26.0697	1.79327	2.94596	-5.83526	-2.90027	2.14563	-7.426	5.52807	2.25	
0.195	-7.10128	-24.2773	2.21981	3.48312	-5.75391	0.021008	1.29186	-5.96466	4.84212	2.40387	
0.2	-6.45729	-19.6708	3.11823	4.30841	-5.67209	3.56849	0.756979	-3.68064	3.82659	2.56089	
0.205	-5.70755	-15.9333	3.86599	5.19611	-5.59508	5.64673	0.323209	-2.34921	3.08783	2.73288	
0.21	-5.97703	-14.4564	4.23709	5.90096	-5.52087	6.45357	-0.0304835	-1.93946	2.6803	2.91662	
0.215	-8.99482	-16.3014	3.73576	6.41597	-5.45279	6.769	-0.231677	-1.87746	2.4825	3.10795	
0.22	-14.2346	-20.5277	2.43134	6.79933	-5.39083	7.10021	-0.0759748	-1.91329	2.37668	3.30611	
0.225	-20.2313	-25.9017	0.643139	6.96833	-5.33523	7.93021	0.953374	-1.9275	2.32096	3.5108	
0.23	-25.089	-31.3328	-1.19562	6.67516	-5.28627	9.30049	2.9655	-1.9207	2.30504	3.7208	
0.235	-27.5244	-36.9473	-2.77954	5.60835	-5.24408	10.9657	5.59784	-1.89512	2.3208	3.93409	
0.24	-26.2745	-42.2035	-3.16251	3.85201	-5.20862	12.6197	8.38392	-1.85803	2.3537	4.14819	
0.245	-21.6686	-46.3205	-2.19272	1.82541	-5.17965	14.0842	11.0248	-1.81021	-3.36143	4.36029	
0.25	-16.0622	-49.8111	-0.930091	-0.229391	-5.1569	15.2834	13.368	-1.74877	-10.6166	4.56751	
0.255	-11.2621	-52.544	-0.0346885	-1.89009	-5.14008	16.1109	15.3541	-1.67235	-14.4344	4.77272	
0.26	-7.87557	-54.798	0.363596	-3.08034	-5.12901	15.6688	18.5571	-1.99137	-11.2455	4.98738	
0.265	-5.83721	-56.8388	0.339732	-3.85122	-5.12347	15.7367	18.3784	-1.71085	-7.77385	5.21528	
0.27	-4.65325	-58.6665	0.0628288	-4.28658	-5.12315	15.1708	18.1731	-1.52969	-5.70337	5.40103	
0.275	-3.75473	-60.1821	-0.312514	-4.52517	-5.12788	14.1077	17.474	-1.38184	-4.50839	5.68327	
0.28	-2.79776	-61.3046	-0.668827	-4.66304	-5.1386	12.7199	16.0118	-1.21749	-3.6021	5.75762	
0.285	-1.68843	-62.0878	-0.958167	-4.74913	-5.15169	11.1129	13.9351	-1.05516	-2.82592	6.10684	
0.29	-0.447308	-62.6836	-1.13635	-4.79108	-5.16387	9.39245	11.4619	-0.912621	-2.20632	6.27962	
0.295	0.895736	-63.244	-1.18257	-4.80166	-5.17628	7.79656	9.02901	-0.791151	-1.73431	6.42756	
0.3	2.34655	-63.831	-1.09045	-4.79228	-5.19044	4.07319	6.43158	-1.54846	-1.35561	6.53368	
0.305	3.91086	-64.4612	-0.86834	-4.77466	-5.20591	0.720521	4.18332	-2.37208	-1.04452	6.60245	
0.31	5.56704	-65.1231	-0.542001	-4.75516	-5.22185	-1.43394	2.37585	-2.9128	-0.770137	6.62747	
0.315	7.27945	-65.7928	-0.142389	-4.73602	-5.23743	-2.39436	0.942421	-3.14737	-1.97831	6.60881	
0.32	9.02607	-66.3919	0.295988	-4.71962	-5.25212	-2.62952	-1.145	-3.80694	-3.85357	6.54618	
0.325	10.6545	-66.8762	0.662255	-4.70451	-5.26552	-3.26159	-4.01447	-4.96966	-5.76718	6.44099	
0.33	11.8931	-67.2583	0.772782	-4.69231	-5.27735	-2.65235	-5.47577	-5.08626	-7.60423	6.29541	
0.335	12.6098	-67.5114	0.537238	-4.68104	-5.2897	-0.928173	-5.47157	-4.31605	-9.25964	6.11255	
0.34	12.9156	-67.5685	0.0250854	-4.67091	-5.30803	0.637895	-5.29918	-3.56014	-10.6503	5.89639	
0.345	13.0024	-67.3953	-0.642219	-4.66148	-5.33233	2.15777	-4.96078	-2.80461	-11.7109	5.6517	
0.35	12.9745	-67.0097	-1.3497	-4.65112	-5.3597	3.38603	-4.75095	-2.21809	-12.4087	5.38379	
0.355	12.8695	-66.4548	-2.05933	-4.6422	-5.38712	4.21865	-4.82984	-1.86968	-12.7266	5.0985	
0.36	12.7574	-65.6843	-2.72692	-4.50031	-5.72919	4.76569	-5.12785	-1.69408	-12.6814	4.80194	
0.365	12.632	-64.7241	-3.36172	-4.1972	-6.45198	5.15189	-5.54678	-1.61278	-12.3064	4.50114	
0.37	12.4986	-63.5805	-3.9529	-3.75372	-7.50828	5.45682	-5.99022	-1.57789	-11.6407	4.20446	
0.375	12.361	-62.2489	-4.49503	-3.23843	-8.72983	5.72063	-6.44475	-1.56868	-10.7431	3.92082	
0.38	12.2215	-60.7367	-4.98868	-2.71324	-9.96485	5.96103	-6.89383	-1.57273	-9.66792	3.66454	
0.385	12.0865	-59.0621	-5.42977	-2.20675	-11.1504	6.16183	-7.25831	-1.57471	-8.47486	3.47342	
0.39	11.9502	-57.2584	-5.81656	-1.72762	-12.2717	6.25815	-7.37586	-1.55492	-7.21512	3.29522	
0.395	11.8135	-55.3647	-6.14615	-1.27506	-13.3181	6.15091	-7.02859	-1.49323	-5.9357	3.12467	
0.4	11.6664	-53.4221	-6.41899	-0.841808	-14.3048	5.91629	-6.49751	-1.42191	-4.67746	2.96247	
0.405	11.5053	-51.4615	-6.63709	-0.423216	-15.2479	5.45919	-5.80153	-1.36012	-3.46564	2.80937	
0.41	11.335	-49.5131	-6.80205	-0.0164452	-16.1569	4.73248	-4.89512	-1.30569	-2.32741	2.66572	
0.415	11.264	-47.5387	-6.93536	0.380551	-17.0398	3.97174	-3.98176	-1.29657	-1.28117	2.53167	
0.42	11.1602	-45.6297	-7.02316	0.897892	-18.2049	3.24545	-3.20695	-1.34345	-0.324422	2.40725	
0.425	10.9324	-43.8585	-7.0546	1.61155	-19.8368	2.06807	-3.22072	-1.59715	0.535037	2.29235	
0.43	10.7409	-42.1306	-7.06111	2.35714	-21.5381	0.836392	-3.52143	-1.83465	1.29702	2.18682	
0.435	10.5623	-40.4589	-7.04321	3.02414	-24.411	-0.254698	-3.85169	-1.95659	1.92145	2.09036	
0.44	11.0358	-37.9476	-6.96759	3.52536	-29.8026	-1.27945	-4.15238	-1.98059	2.4156	2.00262	
0.445	11.256	-35.862	-6.88161	3.79475	-35.2144	-2.18551	-4.40868	-1.96077	2.77493	1.92319	
0.45	11.1148	-34.5866	-6.82956	3.93703	-39.5417	-2.92893	-4.62945	-1.96292	3.04659	1.84533	
0.455	11.4925	-33.2042	-6.84063	4.15842	-42.3666	-3.49798	-4.83193	-1.97683	3.2888	1.78743	
0.46	12.1055	-31.5834	-6.90212	4.33284	-44.1696	-3.90851	-5.01015	-1.97767	3.48416	1.69504	
0.465	12.464	-30.331	-6.84488	4.46509	-45.4925	-4.17442	-5.15165	-1.96416	3.61671	1.67925	
0.47	12.5849	-29.4844	-6.83345	4.61695	-46.6892	-4.29479	-5.26703	-1.94675	3.7104	1.63345	
0.475	12.645	-28.7913	-6.84265	4.80763	-47.8822	-4.27209	-5.35241	-1.92232	3.76095	1.59473	
0.48	12.6479	-28.1581	-6.84332	4.94872	-49.0569	-4.12875	-5.41814	-1.89366	3.77146	1.55976	
0.485	12.6025	-27.6005	-6.85413	5.06932	-50.163	-3.88106	-5.4712	-1.86435	3.74954	1.53	
0.49	12.5047	-27.1057	-6.88607	5.18062	-51.1709	-3.55102	-5.51927	-1.83777	3.70196	1.50407	
0.495	12.3685	-26.6926	-6.93891	5.2775	-52.068	-3.16769	-5.57269	-1.8184	3.64009	1.48185	
0.5	12.2294	-26.3995	-7.0134	5.34822	-52.8686	-2.7534	-5.79373	-1.37934	3.70436	1.46286	
0.505	12.0713	-26.2136	-7.11027	5.40999	-53.5862	-2.37484	-6.03534	-0.82478	3.75815	1.44681	
0.51	11.8947	-26.1331	-7.22625	5.47526	-54.2347	-2.0982	-6.0504	-0.940959	3.67971	1.43336	
0.515	11.6985	-26.1595	-7.37029	5.54425	-54.8232	-1.86232	-6.25627	-1.00002	3.66319	1.42218	
0.52	11.4831	-26.2822	-7.54129	5.61258	-55.3532	-1.82611	-6.46686	-1.02037	3.709	1.41298	
0.525	11.2636	-26.4992	-7.73348	5.67906	-55.8264	-2.02502	-6.73081	-1.08637	3.78959	1.40549	
0.53	11.0322	-26.792	-7.94742	5.74195	-56.2494	-2.49723	-7.07628	-1.19164	3.94219	1.39943	
0.535	10.7909	-27.1562	-8.18037	5.8035	-56.64	-3.28161	-7.5214	-1.31008	4.18363	1.39457	
0.54	10.5435	-27.5872	-8.42607	5.86731	-57.0204	-4.40648	-8.07498	-1.42319	4.522	1.39068	
0.545	10.281	-28.0733	-8.68472	5.93848	-57.4245	-5.83577	-8.81705	-1.49503	5.0974	1.38756	
0.55	10.0067	-28.596	-8.9502	6.02366	-57.8832	-7.58118	-9.6343	-1.51943	5.78486	1.38501	
0.555	9.73338	-29.1466	-9.21522	6.12767	-58.4261	-9.68996	-10.4657	-1.51121	6.46864	1.38286	
0.56	9.45525	-29.6977	-9.47887	6.25383	-59.0771	-12.0957	-11.2864	-1.58329	7.23113	1.38095	
0.565	9.18062	-30.2328	-9.73577	6.40238	-59.852	-14.7819	-12.0249	-1.57392	8.31878	1.37912	
0.57	8.92831	-30.7408	-9.97742	6.57281	-60.7575	-17.564	-12.7942	-1.54878	9.40405	1.37726	
0.575	8.69182	-31.1968	-10.207	6.76101	-61.7862	-20.4373	-13.4193	-1.49914	10.4878	1.37528	
0.58	8.49453	-31.563	-10.4155	6.96473	-62.9245	-23.2928	-13.7314	-1.41107	11.7038	1.37307	
0.585	8.32944	-31.8699	-10.5953	7.17735	-64.1527	-26.0401	-13.7895	-1.2967	12.997	1.37061	
0.59	8.18834	-32.096	-10.7471	7.39525	-65.4503	-28.6132	-13.5196	-1.10985	14.3823	1.36784	
0.595	8.07749	-32.2342	-10.8646	7.61391	-66.7963	-30.9608	-12.8288	-0.917948	15.7967	1.36478	
0.6	8.00463	-32.2707	-10.9474	7.84828	-68.1704	-33.0423	-11.6934	-0.711543	17.2296	1.36145	
0.605	7.97135	-32.2117	-10.9977	8.06318	-69.5474	-34.803	-10.1614	-0.486885	18.7108	1.33882	
0.61	7.98357	-32.0545	-11.0155	8.25401	-70.9103	-36.223	-8.29681	-0.258926	20.1883	1.31375	
0.615	8.04898	-31.7989	-10.9973	8.42935	-72.23	-37.3432	-6.05524	-0.0267635	21.5881	1.30172	
0.62	8.14425	-31.435	-10.9635	8.5925	-73.4695	-38.1653	-3.59661	0.192578	22.8818	1.29694	
0.625	8.27428	-30.9664	-10.9067	8.74033	-74.5989	-38.7059	-1.05728	0.388857	24.0679	1.28303	
0.63	8.44465	-30.3985	-10.8209	8.86491	-75.5922	-39.0074	1.39759	0.553646	25.1246	1.26488	
0.635	8.64694	-29.7359	-10.7098	8.9645	-76.417	-39.1003	3.61593	0.672922	26.0341	1.26305	
0.64	9.03096	-28.7495	-10.5894	9.03422	-77.0444	-39.0141	5.44607	0.718209	26.7689	1.26926	
0.645	9.65015	-27.3666	-10.4905	9.06965	-77.4369	-38.7985	6.80883	0.785122	27.1904	1.27851	
0.65	10.0243	-26.329	-10.3421	9.06656	-77.5546	-38.4636	7.55745	0.801468	27.3884	1.2902	
0.655	10.4478	-25.1879	-10.1836	9.02044	-77.3519	-37.9829	7.64321	0.76637	27.3439	1.30527	
0.66	10.8793	-23.9887	-10.015	8.94943	-76.7797	-37.3637	7.01873	0.68486	27.006	1.32423	
0.665	11.4982	-22.4862	-9.84276	8.80283	-75.7867	-36.5873	5.6948	0.58216	26.4015	1.34708	
0.67	12.1556	-20.9484	-9.67099	8.56589	-74.3138	-35.6118	3.79774	0.412821	25.5071	1.37361	
0.675	12.6146	-19.751	-9.49426	8.25586	-72.3173	-34.4299	1.35884	0.17986	24.3194	1.40342	
0.68	13.1922	-18.3589	-9.32566	7.87029	-69.744	-33.0595	-1.36784	-0.0861097	22.9437	1.43543	
0.685	13.7927	-16.9534	-9.16029	7.38745	-66.5639	-31.3898	-4.29961	-0.388203	21.3644	1.46511	
0.69	14.3786	-15.5775	-8.99882	6.81929	-62.7613	-29.4448	-7.30994	-0.726502	19.6188	1.49841	
0.695	14.9406	-14.2434	-8.83995	6.16547	-58.3422	-27.2297	-10.1722	-1.08117	17.7942	1.53624	
0.7	15.4562	-12.9894	-8.67709	5.42977	-53.3455	-24.7643	-12.7542	-1.43613	15.9366	1.57852	
0.705	15.8895	-11.8563	-8.51126	4.62176	-47.8495	-22.0557	-14.8705	-1.76191	14.1064	1.62509	
0.71	16.2193	-10.8711	-8.33686	3.75569	-41.9482	-19.1889	-16.3958	-2.03125	12.3518	1.67561	
0.715	16.4512	-10.0318	-8.15034	2.85315	-35.777	-16.2957	-17.3718	-2.25158	10.7096	1.72968	
0.72	16.599	-9.3019	-7.9489	1.94306	-29.5195	-13.2934	-17.5599	-2.36169	9.21256	1.78675	
0.725	16.6944	-8.63133	-7.73121	1.10728	-23.53	-10.4395	-17.0682	-2.3569	7.90991	1.84617	
0.73	16.7754	-7.97392	-7.49247	0.334492	-17.9985	-7.88856	-15.8707	-2.21617	6.85587	1.9072	
0.735	16.8514	-7.29494	-7.23656	-0.409669	-13.0309	-5.68469	-14.024	-1.9334	6.05741	1.96901	
0.74	17.0599	-6.27055	-6.96934	-1.09293	-8.89757	-3.6764	-11.9471	-1.5788	5.25217	2.0307	
0.745	17.2379	-5.27883	-6.6804	-1.61251	-6.50172	-1.88414	-9.84962	-1.1929	4.2777	2.09135	
0.75	17.2837	-4.55556	-6.37728	-1.70346	-6.13955	-0.463078	-7.69114	-0.762825	3.27567	2.15001	
0.755	17.4309	-3.61556	-6.08625	-1.71311	-5.96801	0.559636	-5.85713	-0.391491	2.49689	2.20579	
0.76	17.6323	-2.64153	-5.8952	-7.61717	-5.78849	0.878913	-4.93918	-0.215348	1.98384	2.25782	
0.765	17.8848	-1.64613	-5.73967	-17.5786	-5.59091	0.85543	-4.5504	-0.0911074	1.68347	2.3053	
0.77	18.1986	-0.689415	-5.6418	-26.4899	-5.33714	0.705987	-4.47067	0.010718	1.49948	2.34756	
0.775	18.566	0.29168	-5.59205	-29.1348	-5.04443	0.595503	-4.6572	0.109148	1.3583	2.38405	
0.78	18.9436	1.37589	-5.51425	-25.9497	-4.80708	0.500142	-4.99221	0.194081	1.27535	2.41435	
0.785	19.2646	2.45575	-5.40675	-20.6393	-4.60733	0.359808	-5.35811	0.257424	1.26509	2.43819	
0.79	19.3189	3.84328	-5.36261	-19.6296	-4.43207	0.193787	-5.74603	0.309454	1.32316	2.45545	
0.795	18.8061	5.98201	-5.52143	-19.046	-4.27348	0.0259232	-6.15345	0.358382	1.42375	2.46616	
0.8	18.9497	5.56662	-5.18217	-17.4015	-4.12882	-0.137322	-6.58833	0.40492	1.53398	2.47047	
0.805	18.8535	7.6522	-6.00751	-18.3337	-3.24418	-0.630322	-7.25791	0.350635	1.63856	2.46867	
0.81	16.4213	12.9104	-7.83602	-19.6236	-2.75911	-1.68133	-8.2882	0.1148	1.74686	2.46114	
0.815	14.4787	13.5681	-8.63917	-20.554	-2.68822	-2.68893	-9.28814	-0.135747	1.86125	2.44835	
0.82	12.0357	13.299	-8.8265	-18.9956	-2.75197	-3.56041	-10.195	-0.371811	1.97357	2.43082	
0.825	9.56338	12.3096	-8.48769	-15.9262	-2.82683	-4.26229	-10.9841	-0.579823	2.07248	2.40914	
0.83	7.54077	10.74	-7.93181	-13.0006	-2.91145	-4.74368	-11.6212	-0.738546	2.13132	2.38387	
0.835	6.12666	8.73685	-7.37272	-10.7592	-3.02648	-4.9718	-12.0888	-0.83407	2.12327	2.3556	
0.84	5.25672	6.41213	-6.84597	-9.19553	-3.17801	-4.93042	-12.3822	-0.858514	2.03662	2.3249	
0.845	4.78766	3.90238	-6.32063	-8.07488	-3.36122	-4.62426	-12.5049	-0.808137	1.86523	2.2923	
0.85	4.68941	1.32365	-5.79492	-7.90786	-3.56941	-4.07662	-12.4653	-0.682713	1.6234	2.25832	
0.855	4.87754	-1.22697	-5.27646	-7.56198	-3.79625	-3.32799	-12.2794	-0.488196	1.37369	2.22339	
0.86	5.22924	-3.67081	-4.79106	-6.64261	-4.03323	-2.62499	-12.078	-0.315946	1.18581	2.18794	
0.865	5.22696	-6.24436	-4.63655	-6.13271	-4.26769	-2.16812	-11.9641	-0.249101	1.06116	2.1523	
0.87	6.35827	-7.83347	-4.28748	-6.67476	-4.48098	-1.92854	-11.9128	-0.280132	0.985434	2.11678	
0.875	7.38288	-9.16756	-4.27914	-7.86529	-4.65685	-1.79444	-11.8562	-0.363836	0.942161	2.08163	
0.88	8.20159	-10.2279	-4.46167	-9.08186	-4.75195	-1.7001	-11.7555	-0.470943	0.918913	2.04703	
0.885	8.87689	-10.9231	-4.74328	-10.1864	-4.83215	-1.65203	-11.6129	-0.602659	0.908227	2.01313	
0.89	9.33317	-11.2754	-5.03963	-10.9354	-4.90748	-1.13266	-11.3742	-0.792979	1.14112	1.98003	
0.895	9.55581	-11.3196	-5.34608	-11.3949	-4.97749	-0.522583	-11.0488	-0.979669	1.41886	1.94779	
0.9	9.49753	-11.1294	-5.64764	-11.6207	-5.04145	-0.0616579	-10.6546	-1.12539	1.61392	1.91641	
0.905	9.18275	-10.7563	-5.94958	-11.661	-5.0991	0.301237	-10.198	-1.23545	1.75042	1.88589	
0.91	8.51486	-10.3956	-6.38101	-11.5185	-5.15038	0.604265	-9.68565	-1.31499	1.84873	1.85619	
0.915	8.07526	-9.52439	-6.47223	-11.1461	-5.19551	0.873597	-9.12413	-1.36703	1.92274	1.82722	
0.92	7.36094	-8.73102	-6.51754	-10.5072	-5.23476	1.12329	-8.52093	-1.39359	1.98049	1.79891	
0.925	6.45784	-8.03324	-6.48732	-9.67228	-5.26852	1.37333	-7.86508	-1.39861	2.03657	1.77116	
0.93	5.48564	-7.40498	-6.35961	-8.75546	-5.29726	1.66659	-7.02921	-1.38599	2.12285	1.74386	
0.935	4.49041	-6.87002	-6.1336	-7.80907	-5.32144	1.92257	-6.31128	-1.35197	2.17671	1.71691	
0.94	3.51047	-6.44503	-5.79548	-6.85672	-5.3416	2.21419	-5.59223	-1.30893	2.25299	1.69018	
0.945	2.55062	-6.16867	-5.32184	-5.92431	-5.35822	2.65966	-4.81585	-1.23272	2.3184	1.6636	
0.95	1.60712	-6.06869	-4.69402	-5.05975	-5.37177	2.95433	-4.10626	-1.15981	2.37763	1.63706	
0.955	0.728237	-6.1239	-3.96029	-4.34995	-5.38273	3.2185	-3.44744	-1.09157	2.45018	1.61049	
0.96	-0.00865138	-6.26392	-3.239	-3.81039	-5.39153	3.49247	-2.8306	-1.02855	2.52884	1.58382	
0.965	-0.543127	-6.41409	-2.63994	-3.39322	-8.55834	3.71748	-2.29159	-0.992563	2.59888	1.55701	
0.97	-0.859787	-6.5287	-2.2093	-3.09666	-11.0057	3.8651	-1.8599	-0.985799	2.65406	1.53001	
0.975	-1.1991	-6.87752	-1.87844	-2.98726	-11.4758	3.9617	-1.47862	-0.974912	2.69153	1.50281	
0.98	-1.55438	-7.43508	-1.60931	-2.89031	-11.1016	4.05519	-1.15504	-0.951023	2.70873	1.4754	
0.985	-2.08321	-8.35893	-1.44145	-2.64987	-10.6223	4.1235	-0.942225	-0.915149	2.70436	1.44777	
0.99	-2.44109	-9.29393	-1.63757	-2.47617	-10.2186	4.12965	-0.829923	-0.870302	2.67765	1.41995	
0.995	-2.70398	-10.2592	-1.55958	-2.3223	-9.84982	4.09098	-0.73066	-0.822786	2.62668	1.39195	
1	-2.8368	-11.0169	-1.51669	-2.06948	-9.47552	3.99652	-0.643558	-0.773133	2.54461	1.36381	
1.005	-2.81095	-11.7852	-1.47494	-1.81832	-9.0944	3.89701	-0.506367	-0.730429	2.41477	1.33554	
1.01	-2.64707	-12.4361	-1.40062	-1.57112	-8.72053	3.68882	-0.369939	-0.678645	2.21403	1.3072	
1.015	-2.33738	-12.9873	-1.3095	-1.29723	-8.36361	3.27703	-0.298999	-0.602963	1.94423	1.2788	
1.02	-1.87849	-13.4316	-1.2066	-1.00181	-8.03234	2.87734	-0.221261	-0.534978	1.67997	1.25039	
1.025	-1.27004	-13.7655	-1.09015	-0.69509	-7.71947	2.56468	-0.155775	-0.484495	1.47409	1.22201	
1.03	-0.76739	-13.5966	-0.618859	0.546259	-7.42363	2.33773	-0.119006	-0.451594	1.33509	1.19368	
1.035	-0.255973	-13.4796	0.102473	1.8503	-7.14722	2.17858	-0.10842	-0.432169	1.29605	1.16543	
1.04	0.656634	-13.7418	0.716615	2.24264	-6.89187	2.06948	-0.11628	-0.423131	1.37556	1.13729	
1.045	1.86641	-14.0996	1.0797	2.07292	-6.65823	1.99665	-0.138216	-0.42274	1.49893	1.1093	
1.05	2.87753	-14.0831	1.25581	2.28516	-6.44671	1.9488	-0.171755	-0.429354	1.61073	1.08147	
1.055	3.85113	-13.9056	1.27237	2.51775	-6.25735	1.91675	-0.212923	-0.441455	1.69343	1.05384	
1.06	4.72718	-13.6277	1.1718	2.69445	-6.09039	1.89557	-0.257574	-0.457994	1.74899	1.02644	
1.065	5.43416	-13.3243	1.03092	2.94225	-5.94587	1.88173	-0.303546	-0.478057	1.78007	0.999311	
1.07	5.89921	-13.0382	0.882802	3.27525	-6.20435	1.87211	-0.350459	-0.500862	1.79021	0.972481	
1.075	6.04794	-12.8068	0.759693	3.78863	-7.50135	1.83598	-0.474366	-0.638807	1.7825	0.945995	
1.08	5.82103	-12.6643	0.65014	4.20573	-8.32858	1.81956	-0.548336	-0.704349	1.76284	0.919901	
1.085	5.20492	-12.618	0.566022	4.81882	-8.59125	1.81647	-0.586694	-0.716203	1.7363	0.894247	
1.09	4.13338	-12.7144	0.482202	5.58013	-8.59937	1.80041	-0.709434	-0.763875	1.70952	0.869098	
1.095	2.54335	-12.9447	0.374297	6.40244	-8.2387	1.78457	-0.797199	-0.815072	1.68807	0.844516	
1.1	0.414679	-13.2897	0.186472	7.30251	-7.81387	1.76333	-0.877314	-0.897262	1.67705	0.820568	
1.105	-2.20798	-13.7582	-0.0846938	8.32416	-7.66978	1.73051	-1.00866	-1.0291	1.67967	0.797327	
1.11	-5.30639	-14.2723	-0.392884	9.40205	-7.68487	1.70349	-1.1104	-1.1209	1.69677	0.774878	
1.115	-8.66086	-15.02	-0.691694	10.9091	-7.77643	1.6838	-1.17856	-1.16588	1.72586	0.753299	
1.12	-12.3561	-15.6221	-0.988003	12.4391	-7.91996	1.66788	-1.22753	-1.1832	1.76503	0.732676	
1.125	-16.2843	-15.9791	-1.2675	13.9455	-8.11347	1.65367	-1.26619	-1.1877	1.80798	0.713104	
1.13	-20.271	-16.1561	-1.33882	15.6255	-8.35022	1.64033	-1.29714	-1.18537	1.84876	0.694675	
1.135	-24.254	-15.886	-1.19105	17.4748	-9.00507	1.62836	-1.31957	-1.17654	1.87977	0.67749	
1.14	-28.0827	-15.105	-0.800143	19.4126	-9.80897	1.61849	-1.33156	-1.15985	1.89378	0.661648	
1.145	-31.6166	-13.6551	-0.324767	21.3139	-10.3388	1.61187	-1.33127	-1.13432	1.88317	0.647254	
1.15	-34.8079	-11.4549	0.219699	23.3226	-10.6877	1.60939	-1.31704	-1.09931	1.83572	0.634415	
1.155	-37.5799	-8.53629	0.825217	25.254	-10.9798	1.58245	-1.42824	-1.08554	1.74532	0.623239	
1.16	-39.9135	-4.9014	1.46909	27.0906	-11.2464	1.53443	-1.6417	-1.09592	1.61503	0.613834	
1.165	-41.7684	-0.688745	2.02719	28.8143	-11.4884	1.59004	-1.45954	-1.00835	1.4824	0.606306	
1.17	-43.1431	3.93218	2.32812	30.3582	-11.6845	1.98011	-1.31678	-0.952784	1.5901	0.600761	
1.175	-44.1999	8.30519	2.36257	31.6629	-11.823	2.50288	-1.22657	-0.938175	1.82817	0.597298	
1.18	-45.1947	11.6065	2.08704	32.6228	-11.9028	2.97083	-1.15339	-0.945747	2.05142	0.595567	
1.185	-45.9616	13.9187	1.61056	33.2161	-11.9165	3.33249	-1.10055	-0.940761	2.19117	0.594351	
1.19	-46.3466	15.3349	1.20115	33.5521	-11.8612	3.5654	-1.12255	-0.930903	2.23811	0.59615	
1.195	-46.1073	16.1062	0.917694	33.4949	-11.7349	3.68752	-1.11719	-0.901197	2.22216	0.60141	
1.2	-45.1381	16.2718	0.802956	32.871	-11.5348	3.66464	-1.02948	-0.839947	2.14957	0.60968	
1.205	-43.377	15.8056	0.833839	31.777	-11.2678	3.42454	-0.823641	-0.735758	1.98473	0.620549	
1.21	-40.7488	14.7173	0.96893	30.2171	-10.9408	3.06859	-0.55553	-0.609109	1.88818	0.633859	
1.215	-37.2265	13.0305	1.18139	28.1291	-10.5673	2.75074	-0.279938	-0.485883	1.99698	0.649548	
1.22	-32.8078	10.7666	1.44716	25.5042	-10.1644	2.86752	0.42721	-0.38123	2.24802	0.667535	
1.225	-27.5193	7.932	1.72574	22.3498	-9.76035	2.94942	0.895382	-0.320259	2.57386	0.687687	
1.23	-21.4153	4.53485	1.96387	18.6566	-9.44779	2.82882	0.94731	-0.287749	2.93486	0.709815	
1.235	-14.9336	-0.1201	2.01836	14.548	-9.23158	2.79559	1.0039	-0.285074	3.33271	0.733694	
1.24	-7.78233	-4.96593	2.0244	10.3996	-9.00101	2.82	1.08546	-0.288837	3.71585	0.75905	
1.245	-0.364031	-8.73735	2.13205	7.34124	-8.76464	2.84532	1.13059	-0.298632	4.07085	0.785577	
1.25	6.3648	-11.8587	2.21958	5.4001	-8.53144	2.86243	1.14848	-0.311399	4.39811	0.812923	
1.255	11.2168	-14.3572	2.28537	4.30556	-8.30958	2.87763	1.15452	-0.326011	4.70169	0.840713	
