CEINMS output
datacolumns 81
datarows 92
endheader
time	addbrev_r	addlong_r	addmagDist_r	addmagIsch_r	addmagMid_r	addmagProx_r	bflh_r	bfsh_r	edl_r	ehl_r	fdl_r	fhl_r	gaslat_r	gasmed_r	glmax1_r	glmax2_r	glmax3_r	glmed1_r	glmed2_r	glmed3_r	glmin1_r	glmin2_r	glmin3_r	grac_r	iliacus_r	perbrev_r	perlong_r	piri_r	psoas_r	recfem_r	sart_r	semimem_r	semiten_r	soleus_r	tfl_r	tibant_r	tibpost_r	vasint_r	vaslat_r	vasmed_r	addbrev_l	addlong_l	addmagDist_l	addmagIsch_l	addmagMid_l	addmagProx_l	bflh_l	bfsh_l	edl_l	ehl_l	fdl_l	fhl_l	gaslat_l	gasmed_l	glmax1_l	glmax2_l	glmax3_l	glmed1_l	glmed2_l	glmed3_l	glmin1_l	glmin2_l	glmin3_l	grac_l	iliacus_l	perbrev_l	perlong_l	piri_l	psoas_l	recfem_l	sart_l	semimem_l	semiten_l	soleus_l	tfl_l	tibant_l	tibpost_l	vasint_l	vaslat_l	vasmed_l	
3.175	0.001	0.001	0.001	0.001	0.001	0.001	0.001	0.001	0.001	0.001	0.001	0.001	0.001	0.001	0.001	0.001	0.001	0.001	0.001	0.001	0.001	0.001	0.001	0.001	0.001	0.001	0.001	0.001	0.001	0.001	0.001	0.001	0.001	0.001	0.001	0.001	0.001	0.001	0.001	0.000997281	0.001	0.001	0.999	0.999	0.999	0.001	0.999	0.374614	0.001	0.001	0.48649	0.0252838	0.999	0.001	0.999	0.999	0.89971	0.999	0.999	0.001	0.999	0.999	0.001	0.999	0.001	0.0519522	0.0114881	0.001	0.001	0.0732342	0.999	0.999	0.999	0.148959	0.001	0.0746828	0.270935	0.001	0.001	0.001	
3.18	0.001	0.001	0.001	0.001	0.001	0.001	0.001	0.001	0.001	0.001	0.001	0.001	0.001	0.001	0.001	0.001	0.001	0.001	0.001	0.001	0.001	0.001	0.001	0.001	0.001	0.001	0.001	0.001	0.001	0.001	0.001	0.001	0.001	0.001	0.001	0.001	0.001	0.001	0.001	0.000997281	0.001	0.001	0.999	0.999	0.999	0.483164	0.393554	0.163601	0.001	0.001	0.345109	0.0707682	0.754901	0.001	0.967602	0.999	0.0363737	0.654371	0.999	0.001	0.001	0.001	0.001	0.466136	0.001	0.149797	0.0339176	0.001	0.001	0.001	0.999	0.999	0.451812	0.11961	0.001	0.001	0.440952	0.001	0.001	0.001	
3.185	0.001	0.001	0.001	0.001	0.001	0.001	0.001	0.001	0.001	0.001	0.001	0.001	0.001	0.001	0.001	0.001	0.001	0.001	0.001	0.001	0.001	0.001	0.001	0.001	0.001	0.001	0.001	0.001	0.001	0.001	0.001	0.001	0.001	0.001	0.001	0.001	0.001	0.001	0.001	0.000997281	0.001	0.001	0.999	0.6825	0.685148	0.156978	0.105671	0.105084	0.001	0.001	0.184164	0.0118518	0.132537	0.001	0.121711	0.150198	0.0596114	0.549485	0.37521	0.001	0.001	0.001	0.001	0.623734	0.001	0.0299325	0.00643604	0.001	0.001	0.001	0.94284	0.001	0.180789	0.0947923	0.001	0.182628	0.001	0.001	0.001	0.001	
3.19	0.001	0.001	0.001	0.001	0.001	0.001	0.001	0.001	0.001	0.001	0.001	0.001	0.001	0.001	0.001	0.001	0.001	0.001	0.001	0.001	0.001	0.001	0.001	0.001	0.001	0.001	0.001	0.001	0.001	0.001	0.001	0.001	0.001	0.001	0.001	0.001	0.001	0.001	0.001	0.000997281	0.999	0.999	0.001	0.001	0.001	0.130137	0.07708	0.105086	0.135716	0.0716908	0.001	0.001	0.122146	0.001	0.001	0.001	0.001	0.324755	0.001	0.001	0.999	0.999	0.001	0.621016	0.999	0.001	0.001	0.001	0.999	0.104581	0.994263	0.001	0.158655	0.0732967	0.001	0.232553	0.001	0.001	0.001	0.001	
3.195	0.001	0.001	0.001	0.001	0.001	0.001	0.001	0.001	0.001	0.001	0.001	0.001	0.001	0.001	0.001	0.001	0.001	0.001	0.001	0.001	0.001	0.001	0.001	0.001	0.001	0.001	0.001	0.001	0.001	0.001	0.001	0.001	0.001	0.001	0.001	0.001	0.001	0.001	0.001	0.000997281	0.999	0.993789	0.001	0.001	0.001	0.303077	0.0644545	0.101687	0.0917387	0.0400999	0.001	0.00881796	0.11125	0.001	0.001	0.001	0.001	0.0860202	0.001	0.001	0.999	0.999	0.001	0.595042	0.999	0.00846337	0.001	0.001	0.999	0.154196	0.998114	0.0436796	0.142843	0.0548386	0.001	0.267353	0.001	0.001	0.001	0.001	
3.2	0.001	0.001	0.001	0.001	0.001	0.001	0.001	0.001	0.001	0.001	0.001	0.001	0.001	0.001	0.001	0.001	0.001	0.001	0.001	0.001	0.001	0.001	0.001	0.001	0.001	0.001	0.001	0.001	0.001	0.001	0.001	0.001	0.001	0.001	0.001	0.001	0.001	0.001	0.001	0.000997281	0.999	0.595899	0.001	0.001	0.001	0.332754	0.0665342	0.0980527	0.0314632	0.00796958	0.001	0.00130998	0.104855	0.001	0.001	0.001	0.001	0.0259967	0.001	0.00197742	0.999	0.906281	0.00197809	0.586009	0.999	0.00304822	0.0019696	0.0062149	0.999	0.16435	0.999	0.0607711	0.136513	0.0409558	0.001	0.302979	0.00195928	0.00558188	0.001	0.001	
3.205	0.001	0.001	0.001	0.001	0.001	0.001	0.001	0.001	0.001	0.001	0.001	0.001	0.001	0.001	0.001	0.001	0.001	0.001	0.001	0.001	0.001	0.001	0.001	0.001	0.001	0.001	0.001	0.001	0.001	0.001	0.001	0.001	0.001	0.001	0.001	0.001	0.001	0.001	0.001	0.000997281	0.999	0.530318	0.001	0.001	0.001	0.250914	0.0678168	0.0942917	0.001	0.001	0.0211104	0.00392654	0.101415	0.001	0.001	0.001	0.001	0.0575946	0.001	0.0187355	0.999	0.460968	0.00611817	0.57304	0.999	0.00592962	0.00282936	0.00995742	0.999	0.183603	0.999	0.0875456	0.132817	0.0292358	0.001	0.338915	0.00451468	0.00520262	0.001	0.001	
3.21	0.001	0.001	0.001	0.001	0.001	0.001	0.001	0.001	0.001	0.001	0.001	0.001	0.001	0.001	0.001	0.001	0.001	0.001	0.001	0.001	0.001	0.001	0.001	0.001	0.001	0.001	0.001	0.001	0.001	0.001	0.001	0.001	0.001	0.001	0.001	0.001	0.001	0.001	0.001	0.000997281	0.999	0.56984	0.001	0.001	0.001	0.209283	0.0642898	0.0907928	0.001	0.001	0.0877372	0.0206539	0.100345	0.001	0.001	0.001	0.001	0.001	0.001	0.00326324	0.999	0.292647	0.0201363	0.554605	0.999	0.0282128	0.0178687	0.0205296	0.999	0.2214	0.999	0.11654	0.128986	0.020441	0.001	0.374669	0.0256255	0.00474285	0.001	0.001	
3.215	0.001	0.001	0.001	0.001	0.001	0.001	0.001	0.001	0.001	0.001	0.001	0.001	0.001	0.001	0.001	0.001	0.001	0.001	0.001	0.001	0.001	0.001	0.001	0.001	0.001	0.001	0.001	0.001	0.001	0.001	0.001	0.001	0.001	0.001	0.001	0.001	0.001	0.001	0.001	0.000997281	0.999	0.640504	0.001	0.001	0.001	0.419165	0.0597291	0.0887014	0.001	0.001	0.168271	0.0243396	0.103407	0.001	0.001	0.001	0.001	0.001	0.001	0.001	0.999	0.001	0.0039154	0.545623	0.999	0.0585157	0.0106316	0.0105379	0.999	0.252707	0.999	0.138829	0.126228	0.0150712	0.001	0.389591	0.0648414	0.00192168	0.001	0.001	
3.22	0.001	0.001	0.001	0.001	0.001	0.001	0.001	0.001	0.001	0.001	0.001	0.001	0.001	0.001	0.001	0.001	0.001	0.001	0.001	0.001	0.001	0.001	0.001	0.001	0.001	0.001	0.001	0.001	0.001	0.001	0.001	0.001	0.001	0.001	0.001	0.001	0.001	0.001	0.001	0.000997281	0.999	0.743074	0.001	0.001	0.001	0.999	0.0572466	0.0874079	0.001	0.001	0.211626	0.037088	0.110731	0.001	0.001	0.001	0.001	0.001	0.001	0.001	0.999	0.001	0.001	0.558082	0.999	0.0957131	0.0158703	0.001	0.999	0.268941	0.999	0.161056	0.127379	0.0108894	0.001	0.407545	0.132127	0.00189275	0.001	0.001	
3.225	0.001	0.001	0.001	0.001	0.001	0.001	0.001	0.001	0.001	0.001	0.001	0.001	0.001	0.001	0.001	0.001	0.001	0.001	0.001	0.001	0.001	0.001	0.001	0.001	0.001	0.001	0.001	0.001	0.001	0.001	0.001	0.001	0.001	0.001	0.001	0.001	0.001	0.001	0.001	0.000997281	0.999	0.722835	0.001	0.001	0.001	0.999	0.0543338	0.084077	0.001	0.001	0.242683	0.05887	0.121675	0.001	0.001	0.001	0.001	0.001	0.001	0.001	0.347707	0.001	0.00282256	0.550465	0.999	0.133333	0.0300508	0.001	0.999	0.281209	0.999	0.183144	0.129672	0.00841825	0.517561	0.421235	0.199691	0.00136177	0.001	0.001	
3.23	0.001	0.001	0.001	0.001	0.001	0.001	0.001	0.001	0.001	0.001	0.001	0.001	0.001	0.001	0.001	0.001	0.001	0.001	0.001	0.001	0.001	0.001	0.001	0.001	0.001	0.001	0.001	0.001	0.001	0.001	0.001	0.001	0.001	0.001	0.001	0.001	0.001	0.001	0.001	0.000997281	0.999	0.744844	0.001	0.001	0.001	0.999	0.0508755	0.0755842	0.001	0.001	0.293667	0.0709653	0.129101	0.001	0.001	0.001	0.001	0.001	0.001	0.001	0.153021	0.001	0.00439038	0.538665	0.999	0.166263	0.0310486	0.0281068	0.999	0.301067	0.999	0.193662	0.132182	0.00783585	0.524205	0.427459	0.261935	0.002898	0.001	0.001	
3.235	0.001	0.001	0.001	0.001	0.001	0.001	0.001	0.001	0.001	0.001	0.001	0.001	0.001	0.001	0.001	0.001	0.001	0.001	0.001	0.001	0.001	0.001	0.001	0.001	0.001	0.001	0.001	0.001	0.001	0.001	0.001	0.001	0.001	0.001	0.001	0.001	0.001	0.001	0.001	0.000997281	0.999	0.78142	0.001	0.001	0.001	0.999	0.0455903	0.0477202	0.001	0.001	0.327369	0.0892901	0.131412	0.001	0.001	0.001	0.001	0.001	0.001	0.001	0.001	0.001	0.001	0.520712	0.999	0.197693	0.0388306	0.001	0.999	0.333977	0.999	0.191671	0.13155	0.00809906	0.53	0.435064	0.298032	0.00652627	0.001	0.001	
3.24	0.001	0.001	0.001	0.001	0.001	0.001	0.001	0.001	0.001	0.001	0.001	0.001	0.001	0.001	0.001	0.001	0.001	0.001	0.001	0.001	0.001	0.001	0.001	0.001	0.001	0.001	0.001	0.001	0.001	0.001	0.001	0.001	0.001	0.001	0.001	0.001	0.001	0.001	0.001	0.000997281	0.999	0.8208	0.001	0.001	0.001	0.999	0.0407898	0.0475771	0.001	0.001	0.360478	0.107185	0.129819	0.001	0.001	0.001	0.001	0.001	0.001	0.001	0.001	0.001	0.001	0.507476	0.999	0.222009	0.0473136	0.001	0.999	0.366576	0.999	0.179575	0.130472	0.00974378	0.501959	0.457061	0.309184	0.00634261	0.001	0.001	
3.245	0.001	0.001	0.001	0.001	0.001	0.001	0.001	0.001	0.001	0.001	0.001	0.001	0.001	0.001	0.001	0.001	0.001	0.001	0.001	0.001	0.001	0.001	0.001	0.001	0.001	0.001	0.001	0.001	0.001	0.001	0.001	0.001	0.001	0.001	0.001	0.001	0.001	0.001	0.001	0.000997281	0.999	0.8653	0.001	0.001	0.001	0.999	0.0378676	0.0473439	0.001	0.001	0.391811	0.124473	0.125994	0.001	0.001	0.001	0.001	0.001	0.001	0.001	0.001	0.001	0.0136666	0.498271	0.999	0.243794	0.0489963	0.020088	0.999	0.391678	0.999	0.1642	0.129781	0.0116354	0.398711	0.481689	0.298827	0.00699796	0.001	0.001	
3.25	0.001	0.001	0.001	0.001	0.001	0.001	0.001	0.001	0.001	0.001	0.001	0.001	0.001	0.001	0.001	0.001	0.001	0.001	0.001	0.001	0.001	0.001	0.001	0.001	0.001	0.001	0.001	0.001	0.001	0.001	0.001	0.001	0.001	0.001	0.001	0.001	0.001	0.001	0.001	0.000997281	0.999	0.911795	0.001	0.001	0.001	0.999	0.0363772	0.046992	0.001	0.001	0.41849	0.138149	0.120097	0.001	0.001	0.001	0.001	0.001	0.001	0.001	0.001	0.001	0.001	0.489531	0.999	0.253658	0.0611425	0.001	0.999	0.409284	0.999	0.145775	0.128819	0.0141446	0.247644	0.505895	0.274257	0.00385636	0.001	0.001	
3.255	0.001	0.001	0.001	0.001	0.001	0.001	0.001	0.001	0.001	0.001	0.001	0.001	0.001	0.001	0.001	0.001	0.001	0.001	0.001	0.001	0.001	0.001	0.001	0.001	0.001	0.001	0.001	0.001	0.001	0.001	0.001	0.001	0.001	0.001	0.001	0.001	0.001	0.001	0.001	0.000997281	0.999	0.959406	0.001	0.001	0.001	0.999	0.0349449	0.0464593	0.001	0.001	0.44185	0.149687	0.112178	0.001	0.001	0.001	0.001	0.001	0.001	0.001	0.001	0.001	0.001	0.477905	0.999	0.259597	0.0676607	0.001	0.999	0.420153	0.999	0.120323	0.126142	0.0164778	0.001	0.534021	0.235591	0.00434667	0.001	0.001	
3.26	0.001	0.001	0.001	0.001	0.001	0.001	0.001	0.001	0.001	0.001	0.001	0.001	0.001	0.001	0.001	0.001	0.001	0.001	0.001	0.001	0.001	0.001	0.001	0.001	0.001	0.001	0.001	0.001	0.001	0.001	0.001	0.001	0.001	0.001	0.001	0.001	0.001	0.001	0.001	0.000997281	0.999	0.999	0.00556713	0.001	0.001	0.999	0.0313381	0.0455584	0.001	0.001	0.460736	0.158682	0.101857	0.001	0.001	0.001	0.001	0.001	0.001	0.001	0.001	0.001	0.001	0.462022	0.999	0.257879	0.0752495	0.0196401	0.999	0.423984	0.999	0.0825719	0.118228	0.0192526	0.001	0.563847	0.214168	0.00505247	0.001	0.001	
3.265	0.001	0.001	0.001	0.001	0.001	0.001	0.001	0.001	0.001	0.001	0.001	0.001	0.001	0.001	0.001	0.001	0.001	0.001	0.001	0.001	0.001	0.001	0.001	0.001	0.001	0.001	0.001	0.001	0.001	0.001	0.001	0.001	0.001	0.001	0.001	0.001	0.001	0.001	0.001	0.000997281	0.999	0.999	0.42006	0.001	0.001	0.999	0.0196716	0.0444114	0.001	0.001	0.472664	0.155043	0.0906212	0.001	0.001	0.001	0.001	0.001	0.001	0.001	0.001	0.001	0.001	0.428618	0.999	0.257126	0.073412	0.00939368	0.999	0.423915	0.999	0.0179586	0.0978405	0.0224058	0.001	0.59934	0.158908	0.00768996	0.001	0.001	
3.27	0.001	0.001	0.001	0.001	0.001	0.001	0.001	0.001	0.001	0.001	0.001	0.001	0.001	0.001	0.001	0.001	0.001	0.001	0.001	0.001	0.001	0.001	0.001	0.001	0.001	0.001	0.001	0.001	0.001	0.001	0.001	0.001	0.001	0.001	0.001	0.001	0.001	0.001	0.001	0.000997281	0.999	0.999	0.001	0.001	0.001	0.999	0.001	0.0428004	0.001	0.001	0.48931	0.160092	0.0796068	0.001	0.001	0.001	0.001	0.001	0.001	0.001	0.001	0.001	0.001	0.386718	0.999	0.247148	0.0724475	0.001	0.999	0.415023	0.999	0.001	0.0589545	0.0244248	0.001	0.635684	0.142809	0.00863367	0.001	0.001	
3.275	0.001	0.001	0.001	0.001	0.001	0.001	0.001	0.001	0.001	0.001	0.001	0.001	0.001	0.001	0.001	0.001	0.001	0.001	0.001	0.001	0.001	0.001	0.001	0.001	0.001	0.001	0.001	0.001	0.001	0.001	0.001	0.001	0.001	0.001	0.001	0.001	0.001	0.001	0.001	0.000997281	0.999	0.999	0.001	0.001	0.001	0.999	0.001	0.040934	0.001	0.001	0.49653	0.154268	0.0659105	0.001	0.001	0.001	0.001	0.001	0.001	0.001	0.001	0.001	0.001	0.341169	0.999	0.236304	0.0695783	0.001	0.999	0.404318	0.999	0.001	0.001	0.026409	0.123031	0.672879	0.135761	0.0108114	0.001	0.001	
3.28	0.001	0.001	0.001	0.001	0.001	0.001	0.001	0.001	0.001	0.001	0.001	0.001	0.001	0.001	0.001	0.001	0.001	0.001	0.001	0.001	0.001	0.001	0.001	0.001	0.001	0.001	0.001	0.001	0.001	0.001	0.001	0.001	0.001	0.001	0.001	0.001	0.001	0.001	0.001	0.000997281	0.999	0.999	0.001	0.001	0.001	0.999	0.001	0.0388517	0.001	0.001	0.499013	0.146633	0.060528	0.001	0.001	0.001	0.001	0.001	0.001	0.001	0.001	0.001	0.001	0.300446	0.999	0.224339	0.0653162	0.0257325	0.999	0.388866	0.999	0.001	0.001	0.0281798	0.303474	0.710792	0.134531	0.178032	0.999	0.454165	
3.285	0.001	0.001	0.001	0.001	0.001	0.001	0.001	0.001	0.001	0.001	0.001	0.001	0.001	0.001	0.001	0.001	0.001	0.001	0.001	0.001	0.001	0.001	0.001	0.001	0.001	0.001	0.001	0.001	0.001	0.001	0.001	0.001	0.001	0.001	0.001	0.001	0.001	0.001	0.001	0.000997281	0.999	0.999	0.001	0.001	0.001	0.999	0.001	0.0350422	0.001	0.001	0.49872	0.138468	0.0644652	0.001	0.001	0.001	0.001	0.001	0.001	0.001	0.001	0.001	0.001	0.258989	0.999	0.212729	0.0607461	0.001	0.999	0.372212	0.999	0.001	0.001	0.0294903	0.335353	0.747992	0.132584	0.248206	0.999	0.385947	
3.29	0.001	0.001	0.001	0.001	0.001	0.001	0.001	0.001	0.001	0.001	0.001	0.001	0.001	0.001	0.001	0.001	0.001	0.001	0.001	0.001	0.001	0.001	0.001	0.001	0.001	0.001	0.001	0.001	0.001	0.001	0.001	0.001	0.001	0.001	0.001	0.001	0.001	0.001	0.001	0.000997281	0.999	0.999	0.001	0.001	0.001	0.999	0.001	0.0334047	0.001	0.001	0.493715	0.125546	0.0732368	0.001	0.001	0.001	0.001	0.001	0.001	0.001	0.001	0.001	0.001	0.216548	0.999	0.198512	0.053353	0.001	0.999	0.351672	0.999	0.001	0.001	0.0305242	0.001	0.783629	0.132652	0.119655	0.725711	0.172215	
3.295	0.001	0.001	0.001	0.001	0.001	0.001	0.001	0.001	0.001	0.001	0.001	0.001	0.001	0.001	0.001	0.001	0.001	0.001	0.001	0.001	0.001	0.001	0.001	0.001	0.001	0.001	0.001	0.001	0.001	0.001	0.001	0.001	0.001	0.001	0.001	0.001	0.001	0.001	0.001	0.000997281	0.999	0.999	0.001	0.001	0.001	0.999	0.001	0.0318719	0.001	0.001	0.485436	0.113187	0.0823572	0.001	0.001	0.001	0.001	0.001	0.001	0.001	0.001	0.001	0.001	0.186969	0.999	0.186458	0.0468863	0.0197299	0.999	0.325191	0.999	0.001	0.001	0.0314308	0.001	0.817472	0.1308	0.0329602	0.147403	0.0267247	
3.3	0.001	0.001	0.001	0.001	0.001	0.001	0.001	0.001	0.001	0.001	0.001	0.001	0.001	0.001	0.001	0.001	0.001	0.001	0.001	0.001	0.001	0.001	0.001	0.001	0.001	0.001	0.001	0.001	0.001	0.001	0.001	0.001	0.001	0.001	0.001	0.001	0.001	0.001	0.001	0.000997281	0.999	0.999	0.001	0.001	0.001	0.999	0.001	0.0295179	0.001	0.001	0.473495	0.103371	0.0886717	0.001	0.001	0.001	0.001	0.001	0.001	0.001	0.001	0.001	0.001	0.161751	0.999	0.176074	0.0413963	0.001	0.999	0.297468	0.999	0.001	0.001	0.0319424	0.00123576	0.849007	0.125418	0.0426793	0.20236	0.0359939	
3.305	0.001	0.001	0.001	0.001	0.001	0.001	0.001	0.001	0.001	0.001	0.001	0.001	0.001	0.001	0.001	0.001	0.001	0.001	0.001	0.001	0.001	0.001	0.001	0.001	0.001	0.001	0.001	0.001	0.001	0.001	0.001	0.001	0.001	0.001	0.001	0.001	0.001	0.001	0.001	0.000997281	0.999	0.746893	0.001	0.001	0.001	0.999	0.001	0.0275596	0.001	0.001	0.460234	0.0919504	0.0964498	0.001	0.001	0.001	0.001	0.001	0.001	0.001	0.001	0.001	0.001	0.130665	0.999	0.162941	0.035599	0.001	0.999	0.270633	0.999	0.001	0.001	0.0323971	0.00306051	0.878816	0.118593	0.0535054	0.188301	0.0455986	
3.31	0.001	0.001	0.001	0.001	0.001	0.001	0.001	0.001	0.001	0.001	0.001	0.001	0.001	0.001	0.001	0.001	0.001	0.001	0.001	0.001	0.001	0.001	0.001	0.001	0.001	0.001	0.001	0.001	0.001	0.001	0.001	0.001	0.001	0.001	0.001	0.001	0.001	0.001	0.001	0.000997281	0.999	0.001	0.001	0.001	0.001	0.999	0.001	0.0262417	0.001	0.001	0.443454	0.0788395	0.105529	0.001	0.001	0.001	0.001	0.001	0.001	0.001	0.001	0.001	0.001	0.0785318	0.999	0.152175	0.0285576	0.0102613	0.999	0.245934	0.999	0.001	0.001	0.0325019	0.00128586	0.907396	0.114547	0.0679594	0.236966	0.0608313	
3.315	0.001	0.001	0.001	0.001	0.001	0.001	0.001	0.001	0.001	0.001	0.001	0.001	0.001	0.001	0.001	0.001	0.001	0.001	0.001	0.001	0.001	0.001	0.001	0.001	0.001	0.001	0.001	0.001	0.001	0.001	0.001	0.001	0.001	0.001	0.001	0.001	0.001	0.001	0.001	0.000997281	0.999	0.001	0.001	0.001	0.001	0.207931	0.001	0.0258468	0.001	0.001	0.426861	0.0696966	0.118465	0.001	0.001	0.001	0.001	0.001	0.001	0.001	0.001	0.001	0.001	0.00892722	0.999	0.14314	0.0238184	0.00184813	0.999	0.221761	0.999	0.001	0.001	0.0322473	0.001	0.935931	0.109761	0.0819945	0.25909	0.0740362	
3.32	0.001	0.001	0.001	0.001	0.001	0.001	0.001	0.001	0.001	0.001	0.001	0.001	0.001	0.001	0.001	0.001	0.001	0.001	0.001	0.001	0.001	0.001	0.001	0.001	0.001	0.001	0.001	0.001	0.001	0.001	0.001	0.001	0.001	0.001	0.001	0.001	0.001	0.001	0.001	0.000997281	0.482382	0.001	0.001	0.001	0.001	0.001	0.001	0.0263549	0.001	0.001	0.411094	0.0629001	0.136017	0.001	0.001	0.001	0.001	0.001	0.001	0.001	0.001	0.405513	0.001	0.001	0.999	0.137028	0.020323	0.001	0.999	0.197912	0.999	0.001	0.001	0.031556	0.001	0.966374	0.106482	0.10893	0.460125	0.110992	
3.325	0.001	0.001	0.001	0.001	0.001	0.001	0.001	0.001	0.001	0.001	0.001	0.001	0.001	0.001	0.001	0.001	0.001	0.001	0.001	0.001	0.001	0.001	0.001	0.001	0.001	0.001	0.001	0.001	0.001	0.001	0.001	0.001	0.001	0.001	0.001	0.001	0.001	0.001	0.001	0.000997281	0.0972785	0.001	0.001	0.001	0.001	0.001	0.001	0.0279444	0.001	0.001	0.397954	0.0586533	0.166784	0.001	0.001	0.001	0.001	0.001	0.001	0.001	0.001	0.269819	0.001	0.001	0.999	0.135363	0.0179446	0.001	0.999	0.174477	0.999	0.001	0.001	0.030642	0.001	0.999	0.105868	0.138549	0.673263	0.154013	
3.33	0.001	0.001	0.001	0.001	0.001	0.001	0.001	0.001	0.001	0.001	0.001	0.001	0.001	0.001	0.001	0.001	0.001	0.001	0.001	0.001	0.001	0.001	0.001	0.001	0.001	0.001	0.001	0.001	0.001	0.001	0.001	0.001	0.001	0.001	0.001	0.001	0.001	0.001	0.001	0.000997281	0.001	0.001	0.001	0.001	0.001	0.001	0.001	0.0296624	0.001	0.001	0.390046	0.0573637	0.19971	0.001	0.001	0.001	0.001	0.001	0.001	0.001	0.001	0.439297	0.001	0.001	0.999	0.138849	0.0168334	0.00227589	0.999	0.151885	0.999	0.001	0.001	0.0297086	0.001	0.999	0.10803	0.18863	0.999	0.237731	
3.335	0.001	0.001	0.001	0.001	0.001	0.001	0.001	0.001	0.001	0.001	0.001	0.001	0.001	0.001	0.001	0.001	0.001	0.001	0.001	0.001	0.001	0.001	0.001	0.001	0.001	0.001	0.001	0.001	0.001	0.001	0.001	0.001	0.001	0.001	0.001	0.001	0.001	0.001	0.001	0.000997281	0.001	0.001	0.001	0.001	0.001	0.001	0.001	0.0295077	0.001	0.001	0.383221	0.0566201	0.196161	0.001	0.001	0.001	0.001	0.001	0.001	0.001	0.001	0.427421	0.001	0.001	0.999	0.143041	0.0158295	0.00218257	0.999	0.130486	0.999	0.001	0.001	0.0288481	0.001	0.999	0.110083	0.256242	0.999	0.355824	
3.34	0.001	0.001	0.001	0.001	0.001	0.001	0.001	0.001	0.001	0.001	0.001	0.001	0.001	0.001	0.001	0.001	0.001	0.001	0.001	0.001	0.001	0.001	0.001	0.001	0.001	0.001	0.001	0.001	0.001	0.001	0.001	0.001	0.001	0.001	0.001	0.001	0.001	0.001	0.001	0.000997281	0.001	0.001	0.001	0.001	0.001	0.001	0.001	0.0229619	0.001	0.001	0.378526	0.0566109	0.0868851	0.001	0.001	0.001	0.001	0.001	0.001	0.001	0.001	0.468602	0.001	0.001	0.999	0.147961	0.015041	0.001	0.999	0.111072	0.999	0.001	0.001	0.0282254	0.001	0.999	0.113017	0.341833	0.999	0.505249	
3.345	0.001	0.001	0.001	0.001	0.001	0.001	0.001	0.001	0.001	0.001	0.001	0.001	0.001	0.001	0.001	0.001	0.001	0.001	0.001	0.001	0.001	0.001	0.001	0.001	0.001	0.001	0.001	0.001	0.001	0.001	0.001	0.001	0.001	0.001	0.001	0.001	0.001	0.001	0.001	0.000997281	0.001	0.001	0.001	0.001	0.001	0.001	0.001	0.00546153	0.001	0.001	0.375117	0.0584611	0.001	0.00108388	0.001	0.001	0.001	0.001	0.001	0.001	0.001	0.382656	0.24789	0.001	0.999	0.152123	0.0144293	0.001	0.999	0.0940899	0.001	0.001	0.001	0.0277835	0.001	0.999	0.113577	0.417105	0.999	0.62748	
3.35	0.001	0.001	0.001	0.001	0.001	0.001	0.001	0.001	0.001	0.001	0.001	0.001	0.001	0.001	0.001	0.001	0.001	0.001	0.001	0.001	0.001	0.001	0.001	0.001	0.001	0.001	0.001	0.001	0.001	0.001	0.001	0.001	0.001	0.001	0.001	0.001	0.001	0.001	0.001	0.000997281	0.001	0.001	0.001	0.001	0.001	0.001	0.001	0.001	0.001	0.001	0.372877	0.0590107	0.001	0.00230026	0.001	0.001	0.001	0.001	0.001	0.001	0.001	0.346638	0.433128	0.001	0.999	0.157547	0.0141288	0.001	0.999	0.0808566	0.001	0.001	0.001	0.02731	0.001	0.999	0.116097	0.479453	0.999	0.718599	
3.355	0.001	0.001	0.001	0.001	0.001	0.001	0.001	0.001	0.001	0.001	0.001	0.001	0.001	0.001	0.001	0.001	0.001	0.001	0.001	0.001	0.001	0.001	0.001	0.001	0.001	0.001	0.001	0.001	0.001	0.001	0.001	0.001	0.001	0.001	0.001	0.001	0.001	0.001	0.001	0.000997281	0.001	0.001	0.001	0.001	0.001	0.001	0.001	0.001	0.001	0.001	0.371384	0.0612116	0.001	0.00924618	0.001	0.001	0.001	0.001	0.001	0.00352785	0.001	0.265164	0.625259	0.001	0.999	0.160847	0.013901	0.001	0.999	0.0684343	0.001	0.001	0.001	0.02757	0.001	0.999	0.116334	0.539003	0.999	0.800451	
3.36	0.001	0.001	0.001	0.001	0.001	0.001	0.001	0.001	0.001	0.001	0.001	0.001	0.001	0.001	0.001	0.001	0.001	0.001	0.001	0.001	0.001	0.001	0.001	0.001	0.001	0.001	0.001	0.001	0.001	0.001	0.001	0.001	0.001	0.001	0.001	0.001	0.001	0.001	0.001	0.000997281	0.00113663	0.001	0.001	0.001	0.001	0.001	0.001	0.001	0.001	0.001	0.371191	0.0609694	0.001	0.00777328	0.001	0.001	0.001	0.001	0.001	0.0947082	0.001	0.001	0.542879	0.001	0.999	0.163309	0.0138178	0.001	0.999	0.0590785	0.001	0.001	0.001	0.0279614	0.001	0.999	0.11657	0.604228	0.999	0.88142	
3.365	0.001	0.001	0.001	0.001	0.001	0.001	0.001	0.001	0.001	0.001	0.001	0.001	0.001	0.001	0.001	0.001	0.001	0.001	0.001	0.001	0.001	0.001	0.001	0.001	0.001	0.001	0.001	0.001	0.001	0.001	0.001	0.001	0.001	0.001	0.001	0.001	0.001	0.001	0.001	0.000997281	0.001	0.001	0.001	0.001	0.001	0.001	0.001	0.001	0.001	0.001	0.370465	0.0631929	0.001	0.001	0.001	0.001	0.001	0.001	0.001	0.19222	0.00134914	0.001	0.0246438	0.001	0.999	0.165304	0.0138599	0.001	0.999	0.05204	0.001	0.001	0.001	0.0286273	0.001	0.999	0.115289	0.670159	0.999	0.954275	
3.37	0.001	0.001	0.001	0.001	0.001	0.001	0.001	0.001	0.001	0.001	0.001	0.001	0.001	0.001	0.001	0.001	0.001	0.001	0.001	0.001	0.001	0.001	0.001	0.001	0.001	0.001	0.001	0.001	0.001	0.001	0.001	0.001	0.001	0.001	0.001	0.001	0.001	0.001	0.001	0.000997281	0.001	0.001	0.001	0.001	0.001	0.001	0.001	0.001	0.001	0.001	0.369646	0.0671502	0.001	0.001	0.001	0.001	0.001	0.001	0.001	0.460309	0.00468058	0.001	0.001	0.001	0.999	0.169726	0.0144457	0.001	0.999	0.0472075	0.001	0.001	0.001	0.0302709	0.001	0.999	0.118753	0.742144	0.999	0.999	
3.375	0.001	0.001	0.001	0.001	0.001	0.001	0.001	0.001	0.001	0.001	0.001	0.001	0.001	0.001	0.001	0.001	0.001	0.001	0.001	0.001	0.001	0.001	0.001	0.001	0.001	0.001	0.001	0.001	0.001	0.001	0.001	0.001	0.001	0.001	0.001	0.001	0.001	0.001	0.001	0.000997281	0.001	0.001	0.001	0.001	0.001	0.001	0.001	0.001	0.001	0.001	0.376045	0.0650479	0.001	0.0224391	0.0196779	0.001	0.0515753	0.001	0.001	0.660618	0.00343687	0.001	0.001	0.001	0.999	0.169057	0.0140007	0.001	0.999	0.0442554	0.001	0.001	0.001	0.0320619	0.001	0.999	0.115999	0.807664	0.999	0.999	
3.38	0.001	0.001	0.001	0.001	0.001	0.001	0.001	0.001	0.001	0.001	0.001	0.001	0.001	0.001	0.001	0.001	0.001	0.001	0.001	0.001	0.001	0.001	0.001	0.001	0.001	0.001	0.001	0.001	0.001	0.001	0.001	0.001	0.001	0.001	0.001	0.001	0.001	0.001	0.001	0.000997281	0.00188126	0.001	0.001	0.001	0.001	0.001	0.001	0.001	0.001	0.001	0.372435	0.0670083	0.001	0.001	0.256849	0.256551	0.126943	0.001	0.001	0.999	0.001	0.001	0.001	0.001	0.001	0.169993	0.0143648	0.001	0.999	0.0419497	0.001	0.001	0.001	0.0352633	0.001	0.999	0.117807	0.826281	0.999	0.999	
3.385	0.001	0.001	0.001	0.001	0.001	0.001	0.001	0.001	0.001	0.001	0.001	0.001	0.001	0.001	0.001	0.001	0.001	0.001	0.001	0.001	0.001	0.001	0.001	0.001	0.001	0.001	0.001	0.001	0.001	0.001	0.001	0.001	0.001	0.001	0.001	0.001	0.001	0.001	0.001	0.000997281	0.00255731	0.001	0.001	0.001	0.001	0.001	0.001	0.001	0.001	0.001	0.371715	0.0733674	0.001	0.001	0.270541	0.311893	0.158555	0.001	0.001	0.999	0.001	0.001	0.001	0.001	0.001	0.154263	0.0130449	0.001	0.19631	0.0415347	0.001	0.001	0.001	0.0380717	0.001	0.999	0.107795	0.857886	0.999	0.999	
3.39	0.001	0.001	0.001	0.001	0.001	0.001	0.001	0.001	0.001	0.001	0.001	0.001	0.001	0.001	0.001	0.001	0.001	0.001	0.001	0.001	0.001	0.001	0.001	0.001	0.001	0.001	0.001	0.001	0.001	0.001	0.001	0.001	0.001	0.001	0.001	0.001	0.001	0.001	0.001	0.000997281	0.0013905	0.001	0.001	0.001	0.001	0.001	0.001	0.001	0.001	0.001	0.366942	0.071403	0.001	0.0196228	0.27054	0.327869	0.178624	0.001	0.001	0.873662	0.0195743	0.001	0.001	0.001	0.001	0.170583	0.0308231	0.001	0.001	0.0409744	0.001	0.001	0.001	0.0482476	0.001	0.999	0.124484	0.844908	0.999	0.999	
3.395	0.001	0.001	0.001	0.001	0.001	0.001	0.001	0.001	0.001	0.001	0.001	0.001	0.001	0.001	0.001	0.001	0.001	0.001	0.001	0.001	0.001	0.001	0.001	0.001	0.001	0.001	0.001	0.001	0.001	0.001	0.001	0.001	0.001	0.001	0.001	0.001	0.001	0.001	0.001	0.000997281	0.001	0.001	0.328631	0.001	0.001	0.001	0.001	0.001	0.001	0.001	0.366938	0.0650369	0.001	0.001	0.55661	0.664482	0.243427	0.001	0.001	0.999	0.001	0.001	0.001	0.001	0.001	0.162033	0.0140957	0.001	0.001	0.0392615	0.001	0.001	0.0418416	0.0477664	0.001	0.999	0.114354	0.794616	0.999	0.958187	
3.4	0.001	0.001	0.001	0.001	0.001	0.001	0.001	0.001	0.001	0.001	0.001	0.001	0.001	0.001	0.001	0.001	0.001	0.001	0.001	0.001	0.001	0.001	0.001	0.001	0.001	0.001	0.001	0.001	0.001	0.001	0.001	0.001	0.001	0.001	0.001	0.001	0.001	0.001	0.001	0.000997281	0.001	0.001	0.999	0.776015	0.001	0.001	0.001	0.001	0.001	0.001	0.360293	0.0623611	0.001	0.001	0.821549	0.923514	0.274335	0.001	0.0076667	0.999	0.001	0.001	0.001	0.001	0.001	0.155032	0.013364	0.001	0.001	0.0380082	0.001	0.001	0.158175	0.0531301	0.001	0.999	0.111135	0.729457	0.999	0.892476	
3.405	0.001	0.001	0.001	0.001	0.001	0.001	0.001	0.001	0.001	0.001	0.001	0.001	0.001	0.001	0.001	0.001	0.001	0.001	0.001	0.001	0.001	0.001	0.001	0.001	0.001	0.001	0.001	0.001	0.001	0.001	0.001	0.001	0.001	0.001	0.001	0.001	0.001	0.001	0.001	0.000997281	0.001	0.001	0.999	0.908381	0.001	0.001	0.001	0.001	0.001	0.001	0.349889	0.0572906	0.001	0.0148209	0.874275	0.995523	0.287064	0.001	0.838058	0.999	0.001	0.001	0.001	0.001	0.001	0.14242	0.0123731	0.001	0.001	0.0375352	0.001	0.001	0.251659	0.0583068	0.001	0.999	0.103282	0.666427	0.999	0.832663	
3.41	0.001	0.001	0.001	0.001	0.001	0.001	0.001	0.001	0.001	0.001	0.001	0.001	0.001	0.001	0.001	0.001	0.001	0.001	0.001	0.001	0.001	0.001	0.001	0.001	0.001	0.001	0.001	0.001	0.001	0.001	0.001	0.001	0.001	0.001	0.001	0.001	0.001	0.001	0.001	0.000997281	0.00182372	0.001	0.999	0.999	0.001	0.001	0.180667	0.0563466	0.001	0.001	0.333314	0.0511704	0.001	0.001	0.860205	0.995524	0.297413	0.001	0.240439	0.999	0.001	0.001	0.001	0.001	0.001	0.127657	0.0111644	0.001	0.001	0.0371357	0.001	0.001	0.334585	0.0647561	0.001	0.999	0.0941409	0.608026	0.999	0.767372	
3.415	0.001	0.001	0.001	0.001	0.001	0.001	0.001	0.001	0.001	0.001	0.001	0.001	0.001	0.001	0.001	0.001	0.001	0.001	0.001	0.001	0.001	0.001	0.001	0.001	0.001	0.001	0.001	0.001	0.001	0.001	0.001	0.001	0.001	0.001	0.001	0.001	0.001	0.001	0.001	0.000997281	0.00124573	0.001	0.999	0.999	0.001	0.001	0.356444	0.144361	0.001	0.001	0.329639	0.0499516	0.001	0.001	0.8369	0.980067	0.30904	0.001	0.489233	0.999	0.0105845	0.001	0.001	0.001	0.001	0.127525	0.0110212	0.001	0.001	0.0368395	0.001	0.0392157	0.406421	0.0697994	0.001	0.999	0.0977444	0.563163	0.999	0.713635	
3.42	0.001	0.001	0.001	0.001	0.001	0.001	0.001	0.001	0.001	0.001	0.001	0.001	0.001	0.001	0.001	0.001	0.001	0.001	0.001	0.001	0.001	0.001	0.001	0.001	0.001	0.001	0.001	0.001	0.001	0.001	0.001	0.001	0.001	0.001	0.001	0.001	0.001	0.001	0.001	0.000997281	0.001	0.001	0.999	0.999	0.001	0.001	0.481865	0.22477	0.001	0.001	0.310785	0.0450155	0.001	0.00913762	0.811667	0.963739	0.322632	0.001	0.486455	0.999	0.001	0.001	0.001	0.164834	0.001	0.116019	0.0100276	0.001	0.001	0.0358811	0.001	0.304156	0.470753	0.0742005	0.001	0.999	0.091754	0.528144	0.999	0.671203	
3.425	0.001	0.001	0.001	0.001	0.001	0.001	0.001	0.001	0.001	0.001	0.001	0.001	0.001	0.001	0.001	0.001	0.001	0.001	0.001	0.001	0.001	0.001	0.001	0.001	0.001	0.001	0.001	0.001	0.001	0.001	0.001	0.001	0.001	0.001	0.001	0.001	0.001	0.001	0.001	0.000997281	0.001	0.001	0.999	0.999	0.001	0.001	0.568849	0.305311	0.001	0.001	0.291744	0.0383997	0.001	0.00248641	0.78609	0.941739	0.33502	0.001	0.616705	0.999	0.001	0.001	0.001	0.403635	0.001	0.10177	0.00866932	0.001	0.001	0.0329208	0.001	0.496274	0.527108	0.0790957	0.001	0.999	0.0847479	0.498456	0.999	0.629196	
3.43	0.001	0.001	0.001	0.001	0.001	0.001	0.001	0.001	0.001	0.001	0.001	0.001	0.001	0.001	0.001	0.001	0.001	0.001	0.001	0.001	0.001	0.001	0.001	0.001	0.001	0.001	0.001	0.001	0.001	0.001	0.001	0.001	0.001	0.001	0.001	0.001	0.001	0.001	0.001	0.000997281	0.001	0.001	0.999	0.999	0.001	0.001	0.633994	0.393264	0.001	0.001	0.265879	0.0309808	0.001	0.001	0.753956	0.910997	0.344806	0.001	0.500176	0.999	0.0138351	0.001	0.001	0.590545	0.001	0.085392	0.00707147	0.001	0.001	0.0259109	0.001	0.626764	0.577903	0.0840529	0.001	0.999	0.0747327	0.452166	0.999	0.563562	
3.435	0.001	0.001	0.001	0.001	0.001	0.001	0.001	0.001	0.001	0.001	0.001	0.001	0.001	0.001	0.001	0.001	0.001	0.001	0.001	0.001	0.001	0.001	0.001	0.001	0.001	0.001	0.001	0.001	0.001	0.001	0.001	0.001	0.001	0.001	0.001	0.001	0.001	0.001	0.001	0.000997281	0.001	0.00103981	0.999	0.999	0.001	0.001	0.683898	0.487939	0.001	0.001	0.240317	0.0275355	0.001	0.001	0.717449	0.87255	0.351862	0.001	0.497618	0.999	0.001	0.001	0.001	0.729215	0.001	0.0764824	0.00632579	0.001	0.001	0.0141756	0.001	0.696791	0.624237	0.0906256	0.00102201	0.999	0.067581	0.384715	0.999	0.462633	
3.44	0.001	0.001	0.001	0.001	0.001	0.001	0.001	0.001	0.001	0.001	0.001	0.001	0.001	0.001	0.001	0.001	0.001	0.001	0.001	0.001	0.001	0.001	0.001	0.001	0.001	0.001	0.001	0.001	0.001	0.001	0.001	0.001	0.001	0.001	0.001	0.001	0.001	0.001	0.001	0.000997281	0.001	0.00112672	0.999	0.999	0.001	0.001	0.722839	0.579524	0.001	0.001	0.174318	0.0130312	0.00683067	0.00118447	0.679483	0.829606	0.355189	0.001	0.422943	0.999	0.001	0.001	0.001	0.817101	0.001	0.0390602	0.00300707	0.001	0.001	0.001	0.001	0.716657	0.664722	0.0965301	0.00122664	0.999	0.0373004	0.308278	0.999	0.342352	
3.445	0.001	0.001	0.001	0.001	0.001	0.001	0.001	0.001	0.001	0.001	0.001	0.001	0.001	0.001	0.001	0.001	0.001	0.001	0.001	0.001	0.001	0.001	0.001	0.001	0.001	0.001	0.001	0.001	0.001	0.001	0.001	0.001	0.001	0.001	0.001	0.001	0.001	0.001	0.001	0.000997281	0.001	0.00103776	0.999	0.999	0.001	0.001	0.751401	0.648241	0.001	0.001	0.0953276	0.00603818	0.112282	0.001	0.639566	0.78221	0.356294	0.001	0.362048	0.999	0.04115	0.001	0.001	0.843096	0.001	0.0184562	0.001419	0.001	0.001	0.001	0.001	0.710002	0.694149	0.10398	0.00235644	0.830434	0.0180488	0.258853	0.487092	0.258167	
3.45	0.001	0.001	0.001	0.001	0.001	0.001	0.001	0.001	0.001	0.001	0.001	0.001	0.001	0.001	0.001	0.001	0.001	0.001	0.001	0.001	0.001	0.001	0.001	0.001	0.001	0.001	0.001	0.001	0.001	0.001	0.001	0.001	0.001	0.001	0.001	0.001	0.001	0.001	0.001	0.000997281	0.001	0.001	0.999	0.999	0.001	0.001	0.766369	0.675825	0.20457	0.136728	0.001	0.001	0.11062	0.001	0.601844	0.734978	0.356724	0.001	0.225569	0.999	0.001	0.001	0.001	0.80038	0.001	0.001	0.001	0.001	0.001	0.001	0.001	0.698015	0.705877	0.114325	0.00293004	0.702267	0.001	0.287193	0.121848	0.287094	
3.455	0.001	0.001	0.001	0.001	0.001	0.001	0.001	0.001	0.001	0.001	0.001	0.001	0.001	0.001	0.001	0.001	0.001	0.001	0.001	0.001	0.001	0.001	0.001	0.001	0.001	0.001	0.001	0.001	0.001	0.001	0.001	0.001	0.001	0.001	0.001	0.001	0.001	0.001	0.001	0.000997281	0.001	0.001	0.999	0.999	0.001	0.001	0.778302	0.700768	0.450032	0.291559	0.001	0.001	0.112396	0.001	0.557303	0.676501	0.353019	0.001	0.181366	0.999	0.001	0.001	0.001	0.751206	0.001	0.001	0.001	0.001	0.001	0.001	0.001	0.696237	0.712652	0.126264	0.001	0.649904	0.001	0.319575	0.236571	0.320577	
3.46	0.001	0.001	0.001	0.001	0.001	0.001	0.001	0.001	0.001	0.001	0.001	0.001	0.001	0.001	0.001	0.001	0.001	0.001	0.001	0.001	0.001	0.001	0.001	0.001	0.001	0.001	0.001	0.001	0.001	0.001	0.001	0.001	0.001	0.001	0.001	0.001	0.001	0.001	0.001	0.000997281	0.001	0.001	0.999	0.999	0.001	0.001	0.787575	0.722823	0.706139	0.426123	0.001	0.001	0.106559	0.001	0.509181	0.611319	0.34633	0.001	0.0663895	0.999	0.001	0.001	0.001	0.698751	0.001	0.001	0.001	0.001	0.001	0.00148879	0.001	0.697197	0.714495	0.140609	0.001	0.580652	0.001	0.352359	0.106385	0.35427	
3.465	0.001	0.001	0.001	0.001	0.001	0.001	0.001	0.001	0.001	0.001	0.001	0.001	0.001	0.001	0.001	0.001	0.001	0.001	0.001	0.001	0.001	0.001	0.001	0.001	0.001	0.001	0.001	0.001	0.001	0.001	0.001	0.001	0.001	0.001	0.001	0.001	0.001	0.001	0.001	0.000997281	0.001	0.001	0.999	0.872704	0.001	0.001	0.769052	0.741102	0.505016	0.310414	0.001	0.001	0.134381	0.001	0.379418	0.422677	0.302417	0.001	0.747959	0.999	0.001	0.001	0.001	0.585995	0.001	0.001	0.001	0.001	0.001	0.0321414	0.001	0.688268	0.695603	0.157637	0.001	0.687268	0.001	0.390032	0.827722	0.395497	
3.47	0.001	0.001	0.001	0.001	0.001	0.001	0.001	0.001	0.001	0.001	0.001	0.001	0.001	0.001	0.001	0.001	0.001	0.001	0.001	0.001	0.001	0.001	0.001	0.001	0.001	0.001	0.001	0.001	0.001	0.001	0.001	0.001	0.001	0.001	0.001	0.001	0.001	0.001	0.001	0.000997281	0.001	0.001	0.999	0.621443	0.001	0.001	0.77792	0.759781	0.217714	0.113333	0.001	0.001	0.175129	0.001	0.348305	0.377987	0.298823	0.001	0.427435	0.999	0.001	0.001	0.001	0.545678	0.001	0.001	0.001	0.001	0.001	0.0419563	0.001	0.685641	0.690504	0.177498	0.001	0.754378	0.001	0.414251	0.00743828	0.417172	
3.475	0.001	0.001	0.001	0.001	0.001	0.001	0.001	0.001	0.001	0.001	0.001	0.001	0.001	0.001	0.001	0.001	0.001	0.001	0.001	0.001	0.001	0.001	0.001	0.001	0.001	0.001	0.001	0.001	0.001	0.001	0.001	0.001	0.001	0.001	0.001	0.001	0.001	0.001	0.001	0.000997281	0.001	0.001	0.714375	0.413179	0.001	0.001	0.78689	0.775617	0.0412188	0.00467975	0.001	0.001	0.20135	0.001	0.339769	0.356158	0.299205	0.001	0.999	0.999	0.001	0.001	0.0971203	0.503787	0.001	0.001	0.001	0.001	0.001	0.051914	0.001	0.678028	0.680741	0.200304	0.001	0.747135	0.001	0.439975	0.2812	0.442171	
3.48	0.001	0.001	0.001	0.001	0.001	0.001	0.001	0.001	0.001	0.001	0.001	0.001	0.001	0.001	0.001	0.001	0.001	0.001	0.001	0.001	0.001	0.001	0.001	0.001	0.001	0.001	0.001	0.001	0.001	0.001	0.001	0.001	0.001	0.001	0.001	0.001	0.001	0.001	0.001	0.000997281	0.001	0.001	0.560778	0.346745	0.001	0.001	0.797796	0.788601	0.001	0.001	0.0885909	0.00813925	0.244037	0.001	0.355603	0.367982	0.308202	0.0768469	0.999	0.999	0.001	0.001	0.574981	0.467242	0.001	0.037523	0.00161405	0.001	0.001	0.05896	0.001	0.665759	0.667444	0.225944	0.001	0.837124	0.0478211	0.463397	0.102003	0.464994	
3.485	0.001	0.001	0.001	0.001	0.001	0.001	0.001	0.001	0.001	0.001	0.001	0.001	0.001	0.001	0.001	0.001	0.001	0.001	0.001	0.001	0.001	0.001	0.001	0.001	0.001	0.001	0.001	0.001	0.001	0.001	0.001	0.001	0.001	0.001	0.001	0.001	0.001	0.001	0.001	0.000997281	0.001	0.001	0.700711	0.462271	0.001	0.001	0.808352	0.797163	0.001	0.001	0.191928	0.0306264	0.318044	0.001	0.387897	0.403916	0.325171	0.189899	0.999	0.999	0.001	0.001	0.791863	0.437264	0.001	0.136727	0.00536394	0.001	0.001	0.0622277	0.001	0.649341	0.650686	0.254098	0.001	0.999	0.16221	0.482465	0.239948	0.482205	
3.49	0.001	0.001	0.001	0.001	0.001	0.001	0.001	0.001	0.001	0.001	0.001	0.001	0.001	0.001	0.001	0.001	0.001	0.001	0.001	0.001	0.001	0.001	0.001	0.001	0.001	0.001	0.001	0.001	0.001	0.001	0.001	0.001	0.001	0.001	0.001	0.001	0.001	0.001	0.001	0.000997281	0.001	0.001	0.999	0.690694	0.001	0.001	0.817002	0.800108	0.001	0.001	0.266327	0.0618636	0.405106	0.001	0.450244	0.475642	0.349698	0.336088	0.999	0.999	0.001	0.313907	0.999	0.407855	0.001	0.247002	0.0101615	0.001	0.001	0.0623112	0.001	0.630278	0.631026	0.284416	0.001	0.999	0.252059	0.499839	0.105534	0.497944	
3.495	0.001	0.001	0.001	0.001	0.001	0.001	0.001	0.001	0.001	0.001	0.001	0.001	0.001	0.001	0.001	0.001	0.001	0.001	0.001	0.001	0.001	0.001	0.001	0.001	0.001	0.001	0.001	0.001	0.001	0.001	0.001	0.001	0.001	0.001	0.001	0.001	0.001	0.001	0.001	0.000997281	0.001	0.001	0.999	0.999	0.001	0.001	0.827446	0.797494	0.001	0.001	0.327091	0.0948781	0.492155	0.001	0.563274	0.610109	0.388485	0.658657	0.999	0.999	0.001	0.47833	0.999	0.386309	0.001	0.321719	0.0146292	0.001	0.001	0.0540505	0.001	0.615055	0.613541	0.316826	0.001	0.999	0.262939	0.512674	0.0963474	0.507281	
3.5	0.001	0.001	0.001	0.001	0.001	0.001	0.001	0.001	0.001	0.001	0.001	0.001	0.001	0.001	0.001	0.001	0.001	0.001	0.001	0.001	0.001	0.001	0.001	0.001	0.001	0.001	0.001	0.001	0.001	0.001	0.001	0.001	0.001	0.001	0.001	0.001	0.001	0.001	0.001	0.000997281	0.001	0.001	0.999	0.999	0.001	0.001	0.834608	0.78859	0.001	0.001	0.368066	0.123489	0.568993	0.001	0.683747	0.757953	0.434104	0.999	0.999	0.999	0.001	0.543153	0.999	0.373145	0.001	0.348382	0.0182693	0.001	0.001	0.0431457	0.001	0.603126	0.597524	0.351021	0.001	0.999	0.212676	0.521841	0.0468734	0.511758	
3.505	0.001	0.001	0.001	0.001	0.001	0.001	0.001	0.001	0.001	0.001	0.001	0.001	0.001	0.001	0.001	0.001	0.001	0.001	0.001	0.001	0.001	0.001	0.001	0.001	0.001	0.001	0.001	0.001	0.001	0.001	0.001	0.001	0.001	0.001	0.001	0.001	0.001	0.001	0.001	0.000997281	0.001	0.001	0.999	0.999	0.001	0.00111266	0.830463	0.772775	0.001	0.001	0.395408	0.147608	0.635142	0.001	0.779883	0.873287	0.472754	0.999	0.999	0.999	0.00236008	0.999	0.999	0.354744	0.001	0.342337	0.0201798	0.001	0.001	0.0380496	0.001	0.585166	0.579297	0.38677	0.001	0.999	0.144776	0.526622	0.0377205	0.510072	
3.51	0.001	0.001	0.001	0.001	0.001	0.001	0.001	0.001	0.001	0.001	0.001	0.001	0.001	0.001	0.001	0.001	0.001	0.001	0.001	0.001	0.001	0.001	0.001	0.001	0.001	0.001	0.001	0.001	0.001	0.001	0.001	0.001	0.001	0.001	0.001	0.001	0.001	0.001	0.001	0.000997281	0.001	0.001	0.999	0.999	0.001	0.001	0.809778	0.749776	0.001	0.001	0.416075	0.165655	0.688956	0.001	0.827339	0.922973	0.494034	0.999	0.999	0.999	0.001	0.999	0.999	0.320551	0.001	0.317582	0.0222705	0.001	0.001	0.0446908	0.001	0.560242	0.554955	0.42412	0.001	0.999	0.0912302	0.528001	0.0275147	0.504057	
3.515	0.001	0.001	0.001	0.001	0.001	0.001	0.001	0.001	0.001	0.001	0.001	0.001	0.001	0.001	0.001	0.001	0.001	0.001	0.001	0.001	0.001	0.001	0.001	0.001	0.001	0.001	0.001	0.001	0.001	0.001	0.001	0.001	0.001	0.001	0.001	0.001	0.001	0.001	0.001	0.000997281	0.001	0.001	0.999	0.999	0.001	0.001	0.77467	0.721592	0.001	0.001	0.431136	0.179768	0.733915	0.001	0.811492	0.89513	0.496098	0.999	0.999	0.999	0.001	0.999	0.999	0.279135	0.001	0.287175	0.0220272	0.001	0.001	0.0633792	0.001	0.530338	0.525093	0.461835	0.001	0.999	0.0642315	0.526079	0.0300843	0.49392	
3.52	0.001	0.001	0.001	0.001	0.001	0.001	0.001	0.001	0.001	0.001	0.001	0.001	0.001	0.001	0.001	0.001	0.001	0.001	0.001	0.001	0.001	0.001	0.001	0.001	0.001	0.001	0.001	0.001	0.001	0.001	0.001	0.001	0.001	0.001	0.001	0.001	0.001	0.001	0.001	0.000997281	0.001	0.001	0.999	0.999	0.001	0.001	0.729288	0.689335	0.001	0.001	0.442243	0.187145	0.768747	0.001	0.734885	0.798573	0.482265	0.999	0.999	0.999	0.001	0.999	0.999	0.243977	0.001	0.259485	0.0222501	0.001	0.001	0.0920754	0.001	0.496585	0.49176	0.49984	0.001	0.999	0.0606578	0.520887	0.0322399	0.480116	
3.525	0.001	0.001	0.001	0.001	0.001	0.001	0.001	0.001	0.001	0.001	0.001	0.001	0.001	0.001	0.001	0.001	0.001	0.001	0.001	0.001	0.001	0.001	0.001	0.001	0.001	0.001	0.001	0.001	0.001	0.001	0.001	0.001	0.001	0.001	0.001	0.001	0.001	0.001	0.001	0.000997281	0.001	0.001	0.999	0.881107	0.001	0.001	0.677885	0.654317	0.001	0.001	0.450946	0.193859	0.799764	0.001	0.620743	0.657839	0.453914	0.999	0.999	0.999	0.001	0.999	0.999	0.213744	0.001	0.239844	0.0219669	0.001	0.001	0.127898	0.001	0.460968	0.457118	0.538671	0.001	0.999	0.0678454	0.511594	0.0415479	0.461999	
3.53	0.001	0.001	0.001	0.001	0.001	0.001	0.001	0.001	0.001	0.001	0.001	0.001	0.001	0.001	0.001	0.001	0.001	0.001	0.001	0.001	0.001	0.001	0.001	0.001	0.001	0.001	0.001	0.001	0.001	0.001	0.001	0.001	0.001	0.001	0.001	0.001	0.001	0.001	0.001	0.000997281	0.001	0.001	0.297314	0.361619	0.001	0.001	0.62537	0.6175	0.001	0.001	0.45829	0.190617	0.8261	0.001	0.488091	0.496474	0.417566	0.999	0.999	0.999	0.001	0.999	0.999	0.200112	0.001	0.225411	0.0215491	0.001	0.001	0.164749	0.001	0.42754	0.425322	0.579046	0.001	0.999	0.0844218	0.49824	0.0491999	0.440204	
3.535	0.001	0.001	0.001	0.001	0.001	0.001	0.001	0.001	0.001	0.001	0.001	0.001	0.001	0.001	0.001	0.001	0.001	0.001	0.001	0.001	0.001	0.001	0.001	0.001	0.001	0.001	0.001	0.001	0.001	0.001	0.001	0.001	0.001	0.001	0.001	0.001	0.001	0.001	0.001	0.000997281	0.001	0.001	0.001	0.0709412	0.001	0.001	0.578933	0.578772	0.001	0.001	0.463579	0.196623	0.851489	0.001	0.402419	0.397646	0.389943	0.999	0.999	0.234002	0.001	0.999	0.999	0.202201	0.188992	0.220468	0.0229103	0.001	0.001	0.189327	0.001	0.406202	0.405178	0.620695	0.001	0.999	0.0943417	0.479107	0.0599254	0.414056	
3.54	0.001	0.001	0.001	0.001	0.001	0.001	0.001	0.001	0.001	0.001	0.001	0.001	0.001	0.001	0.001	0.001	0.001	0.001	0.001	0.001	0.001	0.001	0.001	0.001	0.001	0.001	0.001	0.001	0.001	0.001	0.001	0.001	0.001	0.001	0.001	0.001	0.001	0.001	0.001	0.000997281	0.001	0.001	0.001	0.11058	0.001	0.001	0.539342	0.539085	0.001	0.001	0.469864	0.189853	0.873803	0.001	0.375972	0.374001	0.374308	0.999	0.999	0.001	0.001	0.999	0.779725	0.215114	0.408068	0.219351	0.0215943	0.001	0.001	0.197862	0.001	0.400431	0.399743	0.662769	0.001	0.999	0.108334	0.454275	0.0657928	0.38481	
3.545	0.001	0.001	0.001	0.001	0.001	0.001	0.001	0.001	0.001	0.001	0.001	0.001	0.001	0.001	0.001	0.001	0.001	0.001	0.001	0.001	0.001	0.001	0.001	0.001	0.001	0.001	0.001	0.001	0.001	0.001	0.001	0.001	0.001	0.001	0.001	0.001	0.001	0.001	0.001	0.000997281	0.140346	0.001	0.267096	0.20961	0.001	0.001	0.500982	0.500295	0.001	0.001	0.476046	0.185478	0.892254	0.001	0.34281	0.343938	0.35198	0.999	0.659938	0.001	0.001	0.999	0.001	0.232448	0.50432	0.222693	0.022323	0.001	0.001	0.202077	0.001	0.401168	0.400695	0.703581	0.001	0.999	0.112498	0.423452	0.067059	0.353414	
3.55	0.001	0.001	0.001	0.001	0.001	0.001	0.001	0.001	0.001	0.001	0.001	0.001	0.001	0.001	0.001	0.001	0.001	0.001	0.001	0.001	0.001	0.001	0.001	0.001	0.001	0.001	0.001	0.001	0.001	0.001	0.001	0.001	0.001	0.001	0.001	0.001	0.001	0.001	0.001	0.000997281	0.151381	0.001	0.186204	0.179746	0.001	0.001	0.464837	0.464419	0.001	0.001	0.480908	0.180516	0.905714	0.001	0.312467	0.313131	0.321477	0.999	0.509215	0.001	0.001	0.999	0.001	0.235438	0.622614	0.225234	0.0218179	0.001	0.001	0.203528	0.001	0.406363	0.405882	0.740901	0.001	0.999	0.115924	0.387482	0.0597196	0.320505	
3.555	0.001	0.001	0.001	0.001	0.001	0.001	0.001	0.001	0.001	0.001	0.001	0.001	0.001	0.001	0.001	0.001	0.001	0.001	0.001	0.001	0.001	0.001	0.001	0.001	0.001	0.001	0.001	0.001	0.001	0.001	0.001	0.001	0.001	0.001	0.001	0.001	0.001	0.001	0.001	0.000997281	0.125789	0.001	0.107459	0.135668	0.001	0.001	0.432596	0.432509	0.001	0.001	0.484654	0.172929	0.91225	0.001	0.278463	0.278337	0.287078	0.999	0.35702	0.001	0.001	0.999	0.001	0.239363	0.799813	0.224516	0.0242525	0.001	0.001	0.200237	0.001	0.414952	0.414523	0.771813	0.001	0.999	0.118185	0.347944	0.0395812	0.286895	
3.56	0.001	0.001	0.001	0.001	0.001	0.001	0.001	0.001	0.001	0.001	0.001	0.001	0.001	0.001	0.001	0.001	0.001	0.001	0.001	0.001	0.001	0.001	0.001	0.001	0.001	0.001	0.001	0.001	0.001	0.001	0.001	0.001	0.001	0.001	0.001	0.001	0.001	0.001	0.001	0.000997281	0.0833631	0.001	0.0780659	0.111547	0.001	0.001	0.40435	0.404432	0.001	0.001	0.487874	0.164162	0.909261	0.001	0.243995	0.24369	0.251481	0.999	0.223481	0.001	0.001	0.999	0.001	0.246	0.777561	0.224763	0.0223329	0.001	0.001	0.191369	0.001	0.425434	0.424987	0.792499	0.001	0.999	0.118599	0.305184	0.001	0.251029	
3.565	0.001	0.001	0.001	0.001	0.001	0.001	0.001	0.001	0.001	0.001	0.001	0.001	0.001	0.001	0.001	0.001	0.001	0.001	0.001	0.001	0.001	0.001	0.001	0.001	0.001	0.001	0.001	0.001	0.001	0.001	0.001	0.001	0.001	0.001	0.001	0.001	0.001	0.001	0.001	0.000997281	0.0623674	0.001	0.230598	0.179024	0.001	0.001	0.376916	0.378152	0.001	0.001	0.508822	0.152464	0.875541	0.001	0.215934	0.217141	0.221682	0.999	0.230892	0.001	0.001	0.943672	0.001	0.294534	0.637961	0.211337	0.0310499	0.001	0.001	0.173109	0.353568	0.454274	0.452399	0.803768	0.001	0.999	0.170455	0.249095	0.113824	0.181745	
3.57	0.001	0.001	0.001	0.001	0.001	0.001	0.001	0.001	0.001	0.001	0.001	0.001	0.001	0.001	0.001	0.001	0.001	0.001	0.001	0.001	0.001	0.001	0.001	0.001	0.001	0.001	0.001	0.001	0.001	0.001	0.001	0.001	0.001	0.001	0.001	0.001	0.001	0.001	0.001	0.000997281	0.001	0.001	0.162418	0.162518	0.001	0.001	0.358349	0.362526	0.001	0.001	0.488543	0.145212	0.87842	0.001	0.176206	0.176827	0.183446	0.999	0.121991	0.001	0.001	0.999	0.001	0.308113	0.697428	0.228175	0.0232902	0.001	0.001	0.154827	0.981279	0.451617	0.4471	0.793336	0.001	0.999	0.109446	0.175056	0.001	0.0849251	
3.575	0.001	0.001	0.001	0.001	0.001	0.001	0.001	0.001	0.001	0.001	0.001	0.001	0.001	0.001	0.001	0.001	0.001	0.001	0.001	0.001	0.001	0.001	0.001	0.001	0.001	0.001	0.001	0.001	0.001	0.001	0.001	0.001	0.001	0.001	0.001	0.001	0.001	0.001	0.001	0.000997281	0.001	0.001	0.0174638	0.125327	0.001	0.001	0.33564	0.344632	0.001	0.001	0.495532	0.137829	0.849937	0.001	0.144885	0.144233	0.15107	0.999	0.487772	0.001	0.001	0.999	0.001	0.356105	0.922115	0.228204	0.0236598	0.001	0.001	0.13287	0.999	0.461798	0.452707	0.7741	0.001	0.999	0.121927	0.0925265	0.209067	0.001	
3.58	0.001	0.001	0.001	0.001	0.001	0.001	0.001	0.001	0.001	0.001	0.001	0.001	0.001	0.001	0.001	0.001	0.001	0.001	0.001	0.001	0.001	0.001	0.001	0.001	0.001	0.001	0.001	0.001	0.001	0.001	0.001	0.001	0.001	0.001	0.001	0.001	0.001	0.001	0.001	0.000997281	0.001	0.001	0.001	0.0443259	0.001	0.001	0.311283	0.326749	0.001	0.001	0.499311	0.13244	0.813769	0.001	0.124461	0.122161	0.121827	0.999	0.999	0.001	0.001	0.999	0.001	0.408601	0.804849	0.229735	0.0248025	0.001	0.001	0.110172	0.973182	0.47135	0.454916	0.743029	0.001	0.999	0.136965	0.001	0.00512561	0.001	
3.585	0.001	0.001	0.001	0.001	0.001	0.001	0.001	0.001	0.001	0.001	0.001	0.001	0.001	0.001	0.001	0.001	0.001	0.001	0.001	0.001	0.001	0.001	0.001	0.001	0.001	0.001	0.001	0.001	0.001	0.001	0.001	0.001	0.001	0.001	0.001	0.001	0.001	0.001	0.001	0.000997281	0.001	0.001	0.001	0.001	0.00118801	0.001	0.284122	0.30749	0.001	0.001	0.50107	0.126035	0.76963	0.001	0.126491	0.118193	0.0917998	0.999	0.999	0.001	0.001	0.999	0.001	0.405299	0.694863	0.226963	0.0272521	0.001	0.001	0.0908934	0.956435	0.476039	0.450401	0.702372	0.001	0.999	0.14941	0.001	0.12604	0.001	
3.59	0.001	0.001	0.001	0.001	0.001	0.001	0.001	0.001	0.001	0.001	0.001	0.001	0.001	0.001	0.001	0.001	0.001	0.001	0.001	0.001	0.001	0.001	0.001	0.001	0.001	0.001	0.001	0.001	0.001	0.001	0.001	0.001	0.001	0.001	0.001	0.001	0.001	0.001	0.001	0.000997281	0.001	0.001	0.001	0.001	0.00326853	0.001	0.254858	0.287354	0.001	0.001	0.500928	0.118676	0.719681	0.001	0.150902	0.132061	0.0591821	0.999	0.999	0.001	0.001	0.999	0.001	0.328908	0.705053	0.221778	0.0269777	0.001	0.001	0.0762067	0.953996	0.473776	0.439048	0.654397	0.001	0.999	0.16158	0.001	0.001	0.001	
3.595	0.001	0.001	0.001	0.001	0.001	0.001	0.001	0.001	0.001	0.001	0.001	0.001	0.001	0.001	0.001	0.001	0.001	0.001	0.001	0.001	0.001	0.001	0.001	0.001	0.001	0.001	0.001	0.001	0.001	0.001	0.001	0.001	0.001	0.001	0.001	0.001	0.001	0.001	0.001	0.000997281	0.001	0.001	0.001	0.001	0.00425245	0.001	0.225119	0.266809	0.001	0.001	0.488534	0.103397	0.663592	0.001	0.191893	0.16138	0.0261717	0.999	0.999	0.001	0.001	0.999	0.001	0.188881	0.68809	0.201905	0.0257655	0.001	0.001	0.0668634	0.947813	0.465866	0.42226	0.6016	0.001	0.999	0.159396	0.001	0.0651035	0.001	
3.6	0.001	0.001	0.001	0.001	0.001	0.001	0.001	0.001	0.001	0.001	0.001	0.001	0.001	0.001	0.001	0.001	0.001	0.001	0.001	0.001	0.001	0.001	0.001	0.001	0.001	0.001	0.001	0.001	0.001	0.001	0.001	0.001	0.001	0.001	0.001	0.001	0.001	0.001	0.001	0.000997281	0.001	0.001	0.001	0.001	0.001	0.001	0.196481	0.246857	0.001	0.001	0.4606	0.091993	0.604473	0.001	0.243469	0.203295	0.001	0.999	0.999	0.001	0.001	0.999	0.001	0.001	0.655261	0.182158	0.023593	0.001	0.001	0.0625824	0.940059	0.453464	0.402063	0.54582	0.001	0.839155	0.148357	0.001	0.001	0.001	
3.605	0.001	0.001	0.001	0.001	0.001	0.001	0.001	0.001	0.001	0.001	0.001	0.001	0.001	0.001	0.001	0.001	0.001	0.001	0.001	0.001	0.001	0.001	0.001	0.001	0.001	0.001	0.001	0.001	0.001	0.001	0.001	0.001	0.001	0.001	0.001	0.001	0.001	0.001	0.001	0.000997281	0.001	0.001	0.001	0.001	0.001	0.001	0.168605	0.228237	0.001	0.001	0.440039	0.0660868	0.544146	0.001	0.300476	0.254367	0.001	0.999	0.999	0.001	0.001	0.999	0.001	0.001	0.603029	0.145783	0.0201178	0.001	0.001	0.0634936	0.931637	0.438628	0.379763	0.487943	0.001	0.666457	0.144293	0.001	0.0242434	0.001	
3.61	0.001	0.001	0.001	0.001	0.001	0.001	0.001	0.001	0.001	0.001	0.001	0.001	0.001	0.001	0.001	0.001	0.001	0.001	0.001	0.001	0.001	0.001	0.001	0.001	0.001	0.001	0.001	0.001	0.001	0.001	0.001	0.001	0.001	0.001	0.001	0.001	0.001	0.001	0.001	0.000997281	0.001	0.001	0.001	0.001	0.012491	0.001	0.143631	0.211623	0.001	0.001	0.409231	0.0532642	0.485309	0.001	0.360775	0.315198	0.001	0.999	0.999	0.001	0.001	0.999	0.001	0.001	0.524764	0.125497	0.0176096	0.001	0.001	0.0683813	0.923437	0.421281	0.355121	0.429776	0.001	0.562175	0.136574	0.001	0.001	0.001	
3.615	0.001	0.001	0.001	0.001	0.001	0.001	0.001	0.001	0.001	0.001	0.001	0.001	0.001	0.001	0.001	0.001	0.001	0.001	0.001	0.001	0.001	0.001	0.001	0.001	0.001	0.001	0.001	0.001	0.001	0.001	0.001	0.001	0.001	0.001	0.001	0.001	0.001	0.001	0.001	0.000997281	0.001	0.001	0.001	0.001	0.001	0.001	0.119714	0.195883	0.001	0.001	0.377878	0.0452308	0.427366	0.001	0.421172	0.383816	0.001	0.999	0.999	0.001	0.001	0.999	0.001	0.001	0.427668	0.11053	0.0156312	0.001	0.001	0.0801503	0.915875	0.399101	0.326375	0.372532	0.001	0.443219	0.126515	0.001	0.001	0.001	
3.62	0.001	0.001	0.001	0.001	0.001	0.001	0.001	0.001	0.001	0.001	0.001	0.001	0.001	0.001	0.001	0.001	0.001	0.001	0.001	0.001	0.001	0.001	0.001	0.001	0.001	0.001	0.001	0.001	0.001	0.001	0.001	0.001	0.001	0.001	0.001	0.001	0.001	0.001	0.001	0.000997281	0.001	0.001	0.001	0.001	0.001	0.001	0.0974037	0.182077	0.001	0.001	0.336223	0.0308566	0.374041	0.001	0.476419	0.456371	0.001	0.999	0.999	0.001	0.001	0.999	0.001	0.001	0.317733	0.0849076	0.0121749	0.001	0.001	0.0956389	0.908509	0.374874	0.295012	0.318722	0.001	0.327419	0.112925	0.00496695	0.001	0.001	
3.625	0.001	0.001	0.001	0.001	0.001	0.001	0.001	0.001	0.001	0.001	0.001	0.001	0.001	0.001	0.001	0.001	0.001	0.001	0.001	0.001	0.001	0.001	0.001	0.001	0.001	0.001	0.001	0.001	0.001	0.001	0.001	0.001	0.001	0.001	0.001	0.001	0.001	0.001	0.001	0.000997281	0.001	0.001	0.001	0.0212661	0.010543	0.001	0.0609437	0.159853	0.001	0.001	0.145563	0.00933281	0.31324	0.001	0.482911	0.453251	0.001	0.999	0.999	0.001	0.001	0.999	0.001	0.001	0.999	0.0271464	0.00390362	0.001	0.001	0.128441	0.902225	0.301929	0.234537	0.267873	0.001	0.179514	0.0388242	0.00258672	0.001	0.001	
3.63	0.001	0.001	0.001	0.001	0.001	0.001	0.001	0.001	0.001	0.001	0.001	0.001	0.001	0.001	0.001	0.001	0.001	0.001	0.001	0.001	0.001	0.001	0.001	0.001	0.001	0.001	0.001	0.001	0.001	0.001	0.001	0.001	0.001	0.001	0.001	0.001	0.001	0.001	0.001	0.000997281	0.001	0.001	0.001	0.001	0.001	0.001	0.051722	0.15198	0.001	0.001	0.156795	0.00651767	0.274169	0.001	0.564752	0.608732	0.001	0.999	0.999	0.001	0.001	0.999	0.001	0.001	0.001	0.0208889	0.00296241	0.001	0.001	0.14538	0.895009	0.299335	0.213667	0.221068	0.001	0.151627	0.033967	0.001	0.001	0.001	
