Model Marker Errors from IK
version=1
nRows=1463
nColumns=4
inDegrees=no
endheader
time	total_squared_error	marker_error_RMS	marker_error_max
      0.00500000	      2.08665837	      0.28890541	      1.06023838
      0.01000000	      2.08670029	      0.28890831	      1.06024001
      0.01500000	      2.08675041	      0.28891178	      1.06024171
      0.02000000	      2.08680636	      0.28891565	      1.06024349
      0.02500000	      2.08686797	      0.28891992	      1.06024526
      0.03000000	      2.08693740	      0.28892472	      1.06024696
      0.03500000	      2.08700705	      0.28892955	      1.06024857
      0.04000000	      2.08708390	      0.28893486	      1.06024998
      0.04500000	      2.08716477	      0.28894046	      1.06025119
      0.05000000	      2.08725026	      0.28894638	      1.06025206
      0.05500000	      2.08733901	      0.28895252	      1.06025249
      0.06000000	      2.08743136	      0.28895891	      1.06025237
      0.06500000	      2.08752426	      0.28896534	      1.06025159
      0.07000000	      2.08761816	      0.28897184	      1.06024994
      0.07500000	      2.08770900	      0.28897813	      1.06024735
      0.08000000	      2.08779821	      0.28898430	      1.06024389
      0.08500000	      2.08788209	      0.28899011	      1.06023953
      0.09000000	      2.08795611	      0.28899523	      1.06023458
      0.09500000	      2.08802817	      0.28900022	      1.06022927
      0.10000000	      2.08809724	      0.28900500	      1.06022417
      0.10500000	      2.08816848	      0.28900993	      1.06021968
      0.11000000	      2.08823569	      0.28901458	      1.06021631
      0.11500000	      2.08830000	      0.28901903	      1.06021427
      0.12000000	      2.08836932	      0.28902383	      1.06021386
      0.12500000	      2.08843957	      0.28902869	      1.06021515
      0.13000000	      2.08850653	      0.28903332	      1.06021822
      0.13500000	      2.08857172	      0.28903783	      1.06022305
      0.14000000	      2.08863779	      0.28904240	      1.06022958
      0.14500000	      2.08869671	      0.28904648	      1.06023771
      0.15000000	      2.08875808	      0.28905073	      1.06024732
      0.15500000	      2.08882429	      0.28905531	      1.06025817
      0.16000000	      2.08888674	      0.28905963	      1.06027024
      0.16500000	      2.08895742	      0.28906452	      1.06028342
      0.17000000	      2.08903440	      0.28906985	      1.06029767
      0.17500000	      2.08911862	      0.28907567	      1.06031300
      0.18000000	      2.08920826	      0.28908188	      1.06032935
      0.18500000	      2.08930418	      0.28908851	      1.06034662
      0.19000000	      2.08940981	      0.28909582	      1.06036465
      0.19500000	      2.08952284	      0.28910364	      1.06038329
      0.20000000	      2.08964425	      0.28911204	      1.06040232
      0.20500000	      2.08976326	      0.28912027	      1.06042169
      0.21000000	      2.08989491	      0.28912938	      1.06044121
      0.21500000	      2.09003677	      0.28913919	      1.06046096
      0.22000000	      2.09017884	      0.28914902	      1.06048086
      0.22500000	      2.09033169	      0.28915959	      1.06050100
      0.23000000	      2.09048955	      0.28917051	      1.06052145
      0.23500000	      2.09065435	      0.28918190	      1.06054229
      0.24000000	      2.09082431	      0.28919366	      1.06056353
      0.24500000	      2.09099631	      0.28920555	      1.06058522
      0.25000000	      2.09116968	      0.28921754	      1.06060726
      0.25500000	      2.09134031	      0.28922934	      1.06062958
      0.26000000	      2.09150734	      0.28924089	      1.06065210
      0.26500000	      2.09167222	      0.28925229	      1.06067474
      0.27000000	      2.09183081	      0.28926326	      1.06069726
      0.27500000	      2.09198346	      0.28927381	      1.06071958
      0.28000000	      2.09212886	      0.28928386	      1.06074154
      0.28500000	      2.09226596	      0.28929334	      1.06076290
      0.29000000	      2.09239580	      0.28930232	      1.06078360
      0.29500000	      2.09251779	      0.28931075	      1.06080343
      0.30000000	      2.09262998	      0.28931851	      1.06082232
      0.30500000	      2.09273643	      0.28932587	      1.06084022
      0.31000000	      2.09283797	      0.28933289	      1.06085715
      0.31500000	      2.09293510	      0.28933960	      1.06087312
      0.32000000	      2.09303153	      0.28934626	      1.06088821
      0.32500000	      2.09313073	      0.28935312	      1.06090248
      0.33000000	      2.09323320	      0.28936020	      1.06091615
      0.33500000	      2.09334697	      0.28936807	      1.06092922
      0.34000000	      2.09346680	      0.28937635	      1.06094192
      0.34500000	      2.09359902	      0.28938549	      1.06095448
      0.35000000	      2.09374300	      0.28939544	      1.06096721
      0.35500000	      2.09389892	      0.28940621	      1.06098023
      0.36000000	      2.09406301	      0.28941755	      1.06099373
      0.36500000	      2.09423417	      0.28942938	      1.06100774
      0.37000000	      2.09441073	      0.28944158	      1.06102237
      0.37500000	      2.09458772	      0.28945381	      1.06103773
      0.38000000	      2.09476418	      0.28946600	      1.06105397
      0.38500000	      2.09494048	      0.28947818	      1.06107124
      0.39000000	      2.09511743	      0.28949041	      1.06108961
      0.39500000	      2.09528598	      0.28950205	      1.06110918
      0.40000000	      2.09545290	      0.28951359	      1.06112971
      0.40500000	      2.09561368	      0.28952469	      1.06115105
      0.41000000	      2.09577148	      0.28953559	      1.06117292
      0.41500000	      2.09591465	      0.28954548	      1.06119512
      0.42000000	      2.09605334	      0.28955506	      1.06121740
      0.42500000	      2.09618311	      0.28956402	      1.06123961
      0.43000000	      2.09630462	      0.28957242	      1.06126150
      0.43500000	      2.09642096	      0.28958045	      1.06128294
      0.44000000	      2.09652556	      0.28958768	      1.06130383
      0.44500000	      2.09662939	      0.28959485	      1.06132425
      0.45000000	      2.09673277	      0.28960199	      1.06134424
      0.45500000	      2.09683985	      0.28960938	      1.06136399
      0.46000000	      2.09695332	      0.28961722	      1.06138353
      0.46500000	      2.09707522	      0.28962564	      1.06140291
      0.47000000	      2.09720717	      0.28963475	      1.06142210
      0.47500000	      2.09734901	      0.28964454	      1.06144108
      0.48000000	      2.09749943	      0.28965493	      1.06145964
      0.48500000	      2.09765705	      0.28966581	      1.06147778
      0.49000000	      2.09782007	      0.28967707	      1.06149544
      0.49500000	      2.09798551	      0.28968849	      1.06151256
      0.50000000	      2.09815136	      0.28969994	      1.06152912
      0.50500000	      2.09831360	      0.28971114	      1.06154503
      0.51000000	      2.09847270	      0.28972212	      1.06156043
      0.51500000	      2.09862801	      0.28973284	      1.06157540
      0.52000000	      2.09877585	      0.28974305	      1.06159015
      0.52500000	      2.09891956	      0.28975297	      1.06160490
      0.53000000	      2.09905808	      0.28976253	      1.06161986
      0.53500000	      2.09919169	      0.28977175	      1.06163518
      0.54000000	      2.09931970	      0.28978059	      1.06165101
      0.54500000	      2.09944378	      0.28978915	      1.06166744
      0.55000000	      2.09956084	      0.28979723	      1.06168454
      0.55500000	      2.09967400	      0.28980504	      1.06170229
      0.56000000	      2.09978249	      0.28981252	      1.06172085
      0.56500000	      2.09988661	      0.28981971	      1.06174017
      0.57000000	      2.09998744	      0.28982667	      1.06176023
      0.57500000	      2.10008484	      0.28983339	      1.06178110
      0.58000000	      2.10018199	      0.28984009	      1.06180284
      0.58500000	      2.10027199	      0.28984630	      1.06182548
      0.59000000	      2.10036579	      0.28985278	      1.06184918
      0.59500000	      2.10046113	      0.28985935	      1.06187402
      0.60000000	      2.10055981	      0.28986616	      1.06190016
      0.60500000	      2.10066374	      0.28987333	      1.06192756
      0.61000000	      2.10077473	      0.28988099	      1.06195630
      0.61500000	      2.10089100	      0.28988901	      1.06198622
      0.62000000	      2.10101488	      0.28989756	      1.06201736
      0.62500000	      2.10114547	      0.28990657	      1.06204949
      0.63000000	      2.10128115	      0.28991593	      1.06208250
      0.63500000	      2.10142277	      0.28992570	      1.06211629
      0.64000000	      2.10156843	      0.28993575	      1.06215065
      0.64500000	      2.10171803	      0.28994607	      1.06218543
      0.65000000	      2.10187169	      0.28995667	      1.06222052
      0.65500000	      2.10202559	      0.28996728	      1.06225589
      0.66000000	      2.10218272	      0.28997812	      1.06229144
      0.66500000	      2.10234206	      0.28998911	      1.06232719
      0.67000000	      2.10250408	      0.29000028	      1.06236312
      0.67500000	      2.10266409	      0.29001132	      1.06239934
      0.68000000	      2.10282340	      0.29002230	      1.06243582
      0.68500000	      2.10298320	      0.29003332	      1.06247252
      0.69000000	      2.10314190	      0.29004427	      1.06250958
      0.69500000	      2.10329951	      0.29005513	      1.06254692
      0.70000000	      2.10345661	      0.29006597	      1.06258459
      0.70500000	      2.10361094	      0.29007661	      1.06262242
      0.71000000	      2.10376434	      0.29008718	      1.06266033
      0.71500000	      2.10391587	      0.29009763	      1.06269818
      0.72000000	      2.10406437	      0.29010787	      1.06273579
      0.72500000	      2.10421205	      0.29011805	      1.06277312
      0.73000000	      2.10435745	      0.29012807	      1.06280996
      0.73500000	      2.10450153	      0.29013800	      1.06284624
      0.74000000	      2.10464392	      0.29014782	      1.06288196
      0.74500000	      2.10478345	      0.29015744	      1.06291702
      0.75000000	      2.10492176	      0.29016697	      1.06295135
      0.75500000	      2.10505397	      0.29017608	      1.06298485
      0.76000000	      2.10518372	      0.29018503	      1.06301736
      0.76500000	      2.10530795	      0.29019359	      1.06304891
      0.77000000	      2.10542727	      0.29020181	      1.06307953
      0.77500000	      2.10554106	      0.29020965	      1.06310930
      0.78000000	      2.10564768	      0.29021700	      1.06313824
      0.78500000	      2.10574732	      0.29022387	      1.06316650
      0.79000000	      2.10583988	      0.29023025	      1.06319421
      0.79500000	      2.10592526	      0.29023613	      1.06322151
      0.80000000	      2.10600391	      0.29024155	      1.06324854
      0.80500000	      2.10607553	      0.29024648	      1.06327544
      0.81000000	      2.10614038	      0.29025095	      1.06330227
      0.81500000	      2.10619985	      0.29025505	      1.06332918
      0.82000000	      2.10625659	      0.29025896	      1.06335618
      0.82500000	      2.10630265	      0.29026213	      1.06338339
      0.83000000	      2.10634837	      0.29026528	      1.06341070
      0.83500000	      2.10639204	      0.29026829	      1.06343814
      0.84000000	      2.10643816	      0.29027147	      1.06346577
      0.84500000	      2.10647644	      0.29027411	      1.06349349
      0.85000000	      2.10652285	      0.29027731	      1.06352122
      0.85500000	      2.10656909	      0.29028049	      1.06354881
      0.86000000	      2.10661968	      0.29028398	      1.06357614
      0.86500000	      2.10667248	      0.29028761	      1.06360297
      0.87000000	      2.10672753	      0.29029141	      1.06362915
      0.87500000	      2.10678382	      0.29029529	      1.06365452
      0.88000000	      2.10683930	      0.29029911	      1.06367887
      0.88500000	      2.10689703	      0.29030309	      1.06370196
      0.89000000	      2.10695268	      0.29030692	      1.06372361
      0.89500000	      2.10700499	      0.29031052	      1.06374355
      0.90000000	      2.10705574	      0.29031402	      1.06376174
      0.90500000	      2.10710292	      0.29031727	      1.06377817
      0.91000000	      2.10714676	      0.29032029	      1.06379290
      0.91500000	      2.10718648	      0.29032303	      1.06380620
      0.92000000	      2.10722379	      0.29032560	      1.06381826
      0.92500000	      2.10725551	      0.29032778	      1.06382929
      0.93000000	      2.10728529	      0.29032983	      1.06383945
      0.93500000	      2.10731393	      0.29033181	      1.06384892
      0.94000000	      2.10733589	      0.29033332	      1.06385771
      0.94500000	      2.10735626	      0.29033472	      1.06386596
      0.95000000	      2.10737553	      0.29033605	      1.06387347
      0.95500000	      2.10738866	      0.29033695	      1.06388017
      0.96000000	      2.10740097	      0.29033780	      1.06388587
      0.96500000	      2.10740498	      0.29033808	      1.06389043
      0.97000000	      2.10740604	      0.29033815	      1.06389366
      0.97500000	      2.10740205	      0.29033788	      1.06389551
      0.98000000	      2.10739402	      0.29033732	      1.06389615
      0.98500000	      2.10738086	      0.29033642	      1.06389563
      0.99000000	      2.10736476	      0.29033531	      1.06389424
      0.99500000	      2.10734568	      0.29033399	      1.06389211
      1.00000000	      2.10732026	      0.29033224	      1.06388917
      1.00500000	      2.10729201	      0.29033030	      1.06388535
      1.01000000	      2.10726143	      0.29032819	      1.06388045
      1.01500000	      2.10721957	      0.29032531	      1.06387429
      1.02000000	      2.10717343	      0.29032213	      1.06386677
      1.02500000	      2.10712045	      0.29031848	      1.06385785
      1.03000000	      2.10705747	      0.29031414	      1.06384749
      1.03500000	      2.10698771	      0.29030933	      1.06383587
      1.04000000	      2.10690728	      0.29030379	      1.06382320
      1.04500000	      2.10681333	      0.29029732	      1.06380981
      1.05000000	      2.10671357	      0.29029045	      1.06379592
      1.05500000	      2.10660531	      0.29028299	      1.06378195
      1.06000000	      2.10649084	      0.29027510	      1.06376827
      1.06500000	      2.10637072	      0.29026682	      1.06375524
      1.07000000	      2.10624610	      0.29025824	      1.06374327
      1.07500000	      2.10611881	      0.29024947	      1.06373257
      1.08000000	      2.10599025	      0.29024061	      1.06372322
      1.08500000	      2.10585818	      0.29023151	      1.06371530
      1.09000000	      2.10572540	      0.29022236	      1.06370871
      1.09500000	      2.10559392	      0.29021330	      1.06370333
      1.10000000	      2.10546258	      0.29020424	      1.06369895
      1.10500000	      2.10533403	      0.29019538	      1.06369520
      1.11000000	      2.10520604	      0.29018656	      1.06369173
      1.11500000	      2.10508739	      0.29017839	      1.06368808
      1.12000000	      2.10498070	      0.29017103	      1.06368388
      1.12500000	      2.10487164	      0.29016352	      1.06367885
      1.13000000	      2.10477362	      0.29015676	      1.06367255
      1.13500000	      2.10468371	      0.29015056	      1.06366487
      1.14000000	      2.10459871	      0.29014470	      1.06365552
      1.14500000	      2.10451595	      0.29013900	      1.06364437
      1.15000000	      2.10443281	      0.29013327	      1.06363139
      1.15500000	      2.10434891	      0.29012748	      1.06361660
      1.16000000	      2.10425877	      0.29012127	      1.06360012
      1.16500000	      2.10416501	      0.29011481	      1.06358223
      1.17000000	      2.10406511	      0.29010792	      1.06356317
      1.17500000	      2.10395945	      0.29010063	      1.06354313
      1.18000000	      2.10384466	      0.29009272	      1.06352211
      1.18500000	      2.10372185	      0.29008425	      1.06350026
      1.19000000	      2.10358998	      0.29007516	      1.06347757
      1.19500000	      2.10345275	      0.29006570	      1.06345410
      1.20000000	      2.10329719	      0.29005497	      1.06342992
      1.20500000	      2.10313571	      0.29004384	      1.06340513
      1.21000000	      2.10296461	      0.29003204	      1.06337998
      1.21500000	      2.10278589	      0.29001972	      1.06335460
      1.22000000	      2.10259922	      0.29000684	      1.06332921
      1.22500000	      2.10240733	      0.28999361	      1.06330389
      1.23000000	      2.10221188	      0.28998013	      1.06327877
      1.23500000	      2.10201549	      0.28996658	      1.06325392
      1.24000000	      2.10182064	      0.28995314	      1.06322935
      1.24500000	      2.10162834	      0.28993988	      1.06320492
      1.25000000	      2.10144156	      0.28992699	      1.06318065
      1.25500000	      2.10126299	      0.28991468	      1.06315638
      1.26000000	      2.10109068	      0.28990279	      1.06313200
      1.26500000	      2.10092851	      0.28989160	      1.06310766
      1.27000000	      2.10077612	      0.28988109	      1.06308330
      1.27500000	      2.10063425	      0.28987130	      1.06305896
      1.28000000	      2.10050018	      0.28986205	      1.06303471
      1.28500000	      2.10037351	      0.28985331	      1.06301049
      1.29000000	      2.10025013	      0.28984479	      1.06298627
      1.29500000	      2.10012940	      0.28983646	      1.06296201
      1.30000000	      2.10000894	      0.28982815	      1.06293765
      1.30500000	      2.09988553	      0.28981964	      1.06291322
      1.31000000	      2.09976105	      0.28981105	      1.06288868
      1.31500000	      2.09963397	      0.28980228	      1.06286402
      1.32000000	      2.09950316	      0.28979325	      1.06283925
      1.32500000	      2.09936849	      0.28978395	      1.06281449
      1.33000000	      2.09923045	      0.28977443	      1.06278982
      1.33500000	      2.09908911	      0.28976467	      1.06276541
      1.34000000	      2.09894338	      0.28975461	      1.06274139
      1.34500000	      2.09879454	      0.28974434	      1.06271789
      1.35000000	      2.09864168	      0.28973379	      1.06269501
      1.35500000	      2.09848838	      0.28972320	      1.06267293
      1.36000000	      2.09832921	      0.28971222	      1.06265187
      1.36500000	      2.09817058	      0.28970127	      1.06263199
      1.37000000	      2.09801371	      0.28969044	      1.06261355
      1.37500000	      2.09785997	      0.28967982	      1.06259681
      1.38000000	      2.09771330	      0.28966969	      1.06258200
      1.38500000	      2.09757708	      0.28966029	      1.06256939
      1.39000000	      2.09745388	      0.28965178	      1.06255915
      1.39500000	      2.09734656	      0.28964437	      1.06255138
      1.40000000	      2.09725468	      0.28963803	      1.06254622
      1.40500000	      2.09717949	      0.28963284	      1.06254369
      1.41000000	      2.09711987	      0.28962872	      1.06254370
      1.41500000	      2.09707489	      0.28962561	      1.06254615
      1.42000000	      2.09704285	      0.28962340	      1.06255076
      1.42500000	      2.09702123	      0.28962191	      1.06255729
      1.43000000	      2.09700873	      0.28962104	      1.06256531
      1.43500000	      2.09700214	      0.28962059	      1.06257433
      1.44000000	      2.09699927	      0.28962039	      1.06258388
      1.44500000	      2.09699803	      0.28962031	      1.06259351
      1.45000000	      2.09699748	      0.28962027	      1.06260279
      1.45500000	      2.09699333	      0.28961998	      1.06261133
      1.46000000	      2.09698782	      0.28961960	      1.06261912
      1.46500000	      2.09697928	      0.28961901	      1.06262589
      1.47000000	      2.09696686	      0.28961815	      1.06263169
      1.47500000	      2.09695073	      0.28961704	      1.06263666
      1.48000000	      2.09693201	      0.28961575	      1.06264104
      1.48500000	      2.09691209	      0.28961437	      1.06264526
      1.49000000	      2.09689168	      0.28961296	      1.06264969
      1.49500000	      2.09687278	      0.28961166	      1.06265490
      1.50000000	      2.09685727	      0.28961058	      1.06266129
      1.50500000	      2.09684679	      0.28960986	      1.06266945
      1.51000000	      2.09684510	      0.28960974	      1.06267979
      1.51500000	      2.09684945	      0.28961004	      1.06269271
      1.52000000	      2.09686475	      0.28961110	      1.06270854
      1.52500000	      2.09689259	      0.28961302	      1.06272756
      1.53000000	      2.09693380	      0.28961587	      1.06274998
      1.53500000	      2.09699093	      0.28961981	      1.06277600
      1.54000000	      2.09706557	      0.28962497	      1.06280590
      1.54500000	      2.09715901	      0.28963142	      1.06283977
      1.55000000	      2.09726980	      0.28963907	      1.06287773
      1.55500000	      2.09739961	      0.28964804	      1.06291973
      1.56000000	      2.09754759	      0.28965825	      1.06296592
      1.56500000	      2.09771411	      0.28966975	      1.06301640
      1.57000000	      2.09789723	      0.28968239	      1.06307144
      1.57500000	      2.09809434	      0.28969600	      1.06313133
      1.58000000	      2.09830728	      0.28971070	      1.06319636
      1.58500000	      2.09853506	      0.28972643	      1.06326658
      1.59000000	      2.09877308	      0.28974286	      1.06334214
      1.59500000	      2.09902689	      0.28976038	      1.06342291
      1.60000000	      2.09929498	      0.28977888	      1.06350882
      1.60500000	      2.09958245	      0.28979872	      1.06359972
      1.61000000	      2.09988933	      0.28981990	      1.06369543
      1.61500000	      2.10021937	      0.28984267	      1.06379598
      1.62000000	      2.10056982	      0.28986685	      1.06390123
      1.62500000	      2.10094217	      0.28989254	      1.06401120
      1.63000000	      2.10133879	      0.28991991	      1.06412593
      1.63500000	      2.10175999	      0.28994896	      1.06424546
      1.64000000	      2.10219890	      0.28997923	      1.06436983
      1.64500000	      2.10265999	      0.29001103	      1.06449902
      1.65000000	      2.10313975	      0.29004412	      1.06463310
      1.65500000	      2.10363483	      0.29007825	      1.06477206
      1.66000000	      2.10414350	      0.29011332	      1.06491598
      1.66500000	      2.10466536	      0.29014930	      1.06506476
      1.67000000	      2.10519760	      0.29018598	      1.06521857
      1.67500000	      2.10574139	      0.29022346	      1.06537739
      1.68000000	      2.10629661	      0.29026172	      1.06554145
      1.68500000	      2.10686455	      0.29030085	      1.06571086
      1.69000000	      2.10744530	      0.29034085	      1.06588577
      1.69500000	      2.10803804	      0.29038168	      1.06606627
      1.70000000	      2.10863942	      0.29042310	      1.06625229
      1.70500000	      2.10925097	      0.29046521	      1.06644377
      1.71000000	      2.10986852	      0.29050773	      1.06664048
      1.71500000	      2.11049312	      0.29055073	      1.06684212
      1.72000000	      2.11112420	      0.29059416	      1.06704831
      1.72500000	      2.11176003	      0.29063792	      1.06725860
      1.73000000	      2.11240191	      0.29068209	      1.06747240
      1.73500000	      2.11304789	      0.29072653	      1.06768889
      1.74000000	      2.11369772	      0.29077123	      1.06790731
      1.74500000	      2.11434767	      0.29081593	      1.06812671
      1.75000000	      2.11500272	      0.29086098	      1.06834622
      1.75500000	      2.11564111	      0.29090487	      1.06856495
      1.76000000	      2.11627629	      0.29094854	      1.06878197
      1.76500000	      2.11689672	      0.29099118	      1.06899642
      1.77000000	      2.11750023	      0.29103266	      1.06920751
      1.77500000	      2.11808462	      0.29107282	      1.06941459
      1.78000000	      2.11864264	      0.29111116	      1.06961702
      1.78500000	      2.11917786	      0.29114793	      1.06981431
      1.79000000	      2.11968197	      0.29118255	      1.07000608
      1.79500000	      2.12015990	      0.29121538	      1.07019189
      1.80000000	      2.12061079	      0.29124634	      1.07037151
      1.80500000	      2.12103125	      0.29127521	      1.07054467
      1.81000000	      2.12142458	      0.29130222	      1.07071118
      1.81500000	      2.12178768	      0.29132715	      1.07087089
      1.82000000	      2.12211577	      0.29134967	      1.07102357
      1.82500000	      2.12241111	      0.29136994	      1.07116890
      1.83000000	      2.12267047	      0.29138775	      1.07130639
      1.83500000	      2.12289058	      0.29140285	      1.07143558
      1.84000000	      2.12307146	      0.29141527	      1.07155578
      1.84500000	      2.12320981	      0.29142476	      1.07166620
      1.85000000	      2.12330041	      0.29143098	      1.07176591
      1.85500000	      2.12333899	      0.29143363	      1.07185396
      1.86000000	      2.12331987	      0.29143232	      1.07192927
      1.86500000	      2.12323909	      0.29142677	      1.07199073
      1.87000000	      2.12309214	      0.29141669	      1.07203711
      1.87500000	      2.12287430	      0.29140174	      1.07206725
      1.88000000	      2.12258397	      0.29138181	      1.07207995
      1.88500000	      2.12221793	      0.29135668	      1.07207415
      1.89000000	      2.12177838	      0.29132651	      1.07204874
      1.89500000	      2.12124541	      0.29128992	      1.07200270
      1.90000000	      2.12063164	      0.29124777	      1.07193520
      1.90500000	      2.11992687	      0.29119937	      1.07184550
      1.91000000	      2.11912751	      0.29114447	      1.07173299
      1.91500000	      2.11823280	      0.29108300	      1.07159715
      1.92000000	      2.11723910	      0.29101471	      1.07143741
      1.92500000	      2.11614476	      0.29093950	      1.07125341
      1.93000000	      2.11495318	      0.29085757	      1.07104497
      1.93500000	      2.11366179	      0.29076876	      1.07081202
      1.94000000	      2.11227034	      0.29067304	      1.07055470
      1.94500000	      2.11078240	      0.29057064	      1.07027331
      1.95000000	      2.10919664	      0.29046147	      1.06996827
      1.95500000	      2.10751786	      0.29034585	      1.06964014
      1.96000000	      2.10575173	      0.29022417	      1.06928961
      1.96500000	      2.10390311	      0.29009675	      1.06891747
      1.97000000	      2.10197789	      0.28996399	      1.06852473
      1.97500000	      2.09998228	      0.28982631	      1.06811246
      1.98000000	      2.09792261	      0.28968415	      1.06768197
      1.98500000	      2.09580303	      0.28953777	      1.06723457
      1.99000000	      2.09362846	      0.28938752	      1.06677164
      1.99500000	      2.09140200	      0.28923361	      1.06629440
      2.00000000	      2.08912665	      0.28907623	      1.06580393
      2.00500000	      2.08680729	      0.28891572	      1.06530122
      2.01000000	      2.08444530	      0.28875216	      1.06478694
      2.01500000	      2.08204455	      0.28858583	      1.06426168
      2.02000000	      2.07960377	      0.28841663	      1.06372567
      2.02500000	      2.07712462	      0.28824466	      1.06317887
      2.03000000	      2.07460627	      0.28806987	      1.06262102
      2.03500000	      2.07204642	      0.28789209	      1.06205163
      2.04000000	      2.06944323	      0.28771119	      1.06146983
      2.04500000	      2.06679422	      0.28752699	      1.06087482
      2.05000000	      2.06409667	      0.28733929	      1.06026562
      2.05500000	      2.06134725	      0.28714785	      1.05964136
      2.06000000	      2.05854379	      0.28695253	      1.05900105
      2.06500000	      2.05568335	      0.28675309	      1.05834388
      2.07000000	      2.05276196	      0.28654926	      1.05766906
      2.07500000	      2.04977599	      0.28634078	      1.05697593
      2.08000000	      2.04672198	      0.28612738	      1.05626387
      2.08500000	      2.04359898	      0.28590900	      1.05553257
      2.09000000	      2.04040313	      0.28568536	      1.05478197
      2.09500000	      2.03713463	      0.28545645	      1.05401208
      2.10000000	      2.03379722	      0.28522253	      1.05322320
      2.10500000	      2.03039174	      0.28498363	      1.05241570
      2.11000000	      2.02691404	      0.28473946	      1.05159010
      2.11500000	      2.02337487	      0.28449076	      1.05074687
      2.12000000	      2.01977507	      0.28423758	      1.04988675
      2.12500000	      2.01611704	      0.28398007	      1.04901048
      2.13000000	      2.01240502	      0.28371852	      1.04811884
      2.13500000	      2.00864406	      0.28345328	      1.04721266
      2.14000000	      2.00483384	      0.28318431	      1.04629279
      2.14500000	      2.00097857	      0.28291190	      1.04535991
      2.15000000	      1.99707973	      0.28263614	      1.04441467
      2.15500000	      1.99314158	      0.28235733	      1.04345770
      2.16000000	      1.98916184	      0.28207530	      1.04248954
      2.16500000	      1.98514876	      0.28179061	      1.04151071
      2.17000000	      1.98110208	      0.28150326	      1.04052158
      2.17500000	      1.97702606	      0.28121352	      1.03952245
      2.18000000	      1.97292434	      0.28092165	      1.03851362
      2.18500000	      1.96879721	      0.28062767	      1.03749516
      2.19000000	      1.96464957	      0.28033192	      1.03646724
      2.19500000	      1.96048495	      0.28003464	      1.03542980
      2.20000000	      1.95630146	      0.27973569	      1.03438265
      2.20500000	      1.95209957	      0.27943511	      1.03332556
      2.21000000	      1.94787579	      0.27913264	      1.03225826
      2.21500000	      1.94362676	      0.27882803	      1.03118027
      2.22000000	      1.93934965	      0.27852107	      1.03009117
      2.22500000	      1.93504042	      0.27821146	      1.02899036
      2.23000000	      1.93069370	      0.27789881	      1.02787736
      2.23500000	      1.92630848	      0.27758303	      1.02675162
      2.24000000	      1.92187909	      0.27726371	      1.02561248
      2.24500000	      1.91740457	      0.27694076	      1.02445930
      2.25000000	      1.91287976	      0.27661379	      1.02329149
      2.25500000	      1.90830520	      0.27628284	      1.02210859
      2.26000000	      1.90367692	      0.27594760	      1.02091004
      2.26500000	      1.89899484	      0.27560804	      1.01969551
      2.27000000	      1.89425760	      0.27526406	      1.01846471
      2.27500000	      1.88946321	      0.27491549	      1.01721739
      2.28000000	      1.88461485	      0.27456255	      1.01595330
      2.28500000	      1.87971022	      0.27420505	      1.01467226
      2.29000000	      1.87475082	      0.27384308	      1.01337410
      2.29500000	      1.86973526	      0.27347653	      1.01205879
      2.30000000	      1.86466471	      0.27310545	      1.01072630
      2.30500000	      1.85954055	      0.27272994	      1.00937670
      2.31000000	      1.85436212	      0.27234993	      1.00801020
      2.31500000	      1.84913156	      0.27196555	      1.00662704
      2.32000000	      1.84384564	      0.27157656	      1.00522756
      2.32500000	      1.83850931	      0.27118328	      1.00381221
      2.33000000	      1.83312218	      0.27078569	      1.00238144
      2.33500000	      1.82768567	      0.27038385	      1.00093585
      2.34000000	      1.82220214	      0.26997794	      0.99947616
      2.34500000	      1.81667368	      0.26956807	      0.99800327
      2.35000000	      1.81110523	      0.26915462	      0.99651812
      2.35500000	      1.80549932	      0.26873774	      0.99502174
      2.36000000	      1.79985737	      0.26831753	      0.99351499
      2.36500000	      1.79418437	      0.26789433	      0.99199893
      2.37000000	      1.78848119	      0.26746822	      0.99047453
      2.37500000	      1.78275342	      0.26703958	      0.98894266
      2.38000000	      1.77700349	      0.26660859	      0.98740420
      2.38500000	      1.77123644	      0.26617561	      0.98586003
      2.39000000	      1.76544893	      0.26574039	      0.98431105
      2.39500000	      1.75965680	      0.26530411	      0.98275813
      2.40000000	      1.75385452	      0.26486634	      0.98120220
      2.40500000	      1.74805516	      0.26442807	      0.97964413
      2.41000000	      1.74225685	      0.26398916	      0.97808479
      2.41500000	      1.73646615	      0.26355008	      0.97652490
      2.42000000	      1.73068420	      0.26311094	      0.97496516
      2.42500000	      1.72491067	      0.26267171	      0.97340615
      2.43000000	      1.71915423	      0.26223304	      0.97184838
      2.43500000	      1.71341426	      0.26179490	      0.97029235
      2.44000000	      1.70768712	      0.26135701	      0.96873840
      2.44500000	      1.70198174	      0.26092004	      0.96718695
      2.45000000	      1.69629619	      0.26048387	      0.96563813
      2.45500000	      1.69063140	      0.26004856	      0.96409215
      2.46000000	      1.68498464	      0.25961392	      0.96254914
      2.46500000	      1.67936281	      0.25918046	      0.96100943
      2.47000000	      1.67376182	      0.25874789	      0.95947318
      2.47500000	      1.66818653	      0.25831659	      0.95794069
      2.48000000	      1.66263417	      0.25788634	      0.95641218
      2.48500000	      1.65710938	      0.25745752	      0.95488781
      2.49000000	      1.65161093	      0.25703003	      0.95336775
      2.49500000	      1.64613842	      0.25660385	      0.95185215
      2.50000000	      1.64070674	      0.25618015	      0.95034115
      2.50500000	      1.63528727	      0.25575670	      0.94883493
      2.51000000	      1.62991843	      0.25533652	      0.94733376
      2.51500000	      1.62456244	      0.25491665	      0.94583786
      2.52000000	      1.61926136	      0.25450040	      0.94434749
      2.52500000	      1.61397630	      0.25408473	      0.94286286
      2.53000000	      1.60873751	      0.25367203	      0.94138436
      2.53500000	      1.60353547	      0.25326156	      0.93991230
      2.54000000	      1.59836892	      0.25285323	      0.93844703
      2.54500000	      1.59324084	      0.25244729	      0.93698868
      2.55000000	      1.58814685	      0.25204340	      0.93553757
      2.55500000	      1.58309291	      0.25164204	      0.93409376
      2.56000000	      1.57807663	      0.25124304	      0.93265749
      2.56500000	      1.57309846	      0.25084644	      0.93122883
      2.57000000	      1.56815926	      0.25045233	      0.92980790
      2.57500000	      1.56325899	      0.25006071	      0.92839466
      2.58000000	      1.55839593	      0.24967146	      0.92698913
      2.58500000	      1.55357625	      0.24928508	      0.92559137
      2.59000000	      1.54879774	      0.24890141	      0.92420164
      2.59500000	      1.54405831	      0.24852029	      0.92282017
      2.60000000	      1.53937126	      0.24814280	      0.92144740
      2.60500000	      1.53473378	      0.24776875	      0.92008373
      2.61000000	      1.53014719	      0.24739824	      0.91872966
      2.61500000	      1.52561273	      0.24703139	      0.91738567
      2.62000000	      1.52111989	      0.24666738	      0.91605231
      2.62500000	      1.51669041	      0.24630797	      0.91473021
      2.63000000	      1.51231893	      0.24595275	      0.91341999
      2.63500000	      1.50800718	      0.24560189	      0.91212228
      2.64000000	      1.50375562	      0.24525543	      0.91083767
      2.64500000	      1.49957080	      0.24491393	      0.90956663
      2.65000000	      1.49543111	      0.24457564	      0.90830950
      2.65500000	      1.49136566	      0.24424297	      0.90706651
      2.66000000	      1.48736635	      0.24391526	      0.90583782
      2.66500000	      1.48342496	      0.24359187	      0.90462345
      2.67000000	      1.47954362	      0.24327298	      0.90342335
      2.67500000	      1.47572995	      0.24295925	      0.90223738
      2.68000000	      1.47197894	      0.24265028	      0.90106527
      2.68500000	      1.46828993	      0.24234603	      0.89990695
      2.69000000	      1.46465696	      0.24204603	      0.89876219
      2.69500000	      1.46109038	      0.24175114	      0.89763085
      2.70000000	      1.45757681	      0.24146029	      0.89651294
      2.70500000	      1.45412389	      0.24117412	      0.89540828
      2.71000000	      1.45072657	      0.24089222	      0.89431687
      2.71500000	      1.44737972	      0.24061419	      0.89323869
      2.72000000	      1.44409208	      0.24034076	      0.89217372
      2.72500000	      1.44085708	      0.24007141	      0.89112195
      2.73000000	      1.43767747	      0.23980638	      0.89008330
      2.73500000	      1.43455028	      0.23954543	      0.88905765
      2.74000000	      1.43147349	      0.23928840	      0.88804478
      2.74500000	      1.42845031	      0.23903559	      0.88704441
      2.75000000	      1.42547523	      0.23878653	      0.88605618
      2.75500000	      1.42254938	      0.23854135	      0.88507967
      2.76000000	      1.41965616	      0.23829865	      0.88411442
      2.76500000	      1.41681152	      0.23805978	      0.88315998
      2.77000000	      1.41400430	      0.23782383	      0.88221587
      2.77500000	      1.41123283	      0.23759064	      0.88128174
      2.78000000	      1.40848926	      0.23735958	      0.88035719
      2.78500000	      1.40578446	      0.23713156	      0.87944188
      2.79000000	      1.40310789	      0.23690571	      0.87853558
      2.79500000	      1.40045837	      0.23668193	      0.87763793
      2.80000000	      1.39784171	      0.23646071	      0.87674862
      2.80500000	      1.39525420	      0.23624176	      0.87586733
      2.81000000	      1.39268948	      0.23602453	      0.87499373
      2.81500000	      1.39015367	      0.23580956	      0.87412748
      2.82000000	      1.38764581	      0.23559676	      0.87326835
      2.82500000	      1.38516193	      0.23538580	      0.87241607
      2.83000000	      1.38270260	      0.23517675	      0.87157062
      2.83500000	      1.38026815	      0.23496963	      0.87073195
      2.84000000	      1.37784770	      0.23476352	      0.86990030
      2.84500000	      1.37545307	      0.23455942	      0.86907583
      2.85000000	      1.37308156	      0.23435713	      0.86825879
      2.85500000	      1.37073359	      0.23415666	      0.86744941
      2.86000000	      1.36840918	      0.23395805	      0.86664788
      2.86500000	      1.36609776	      0.23376037	      0.86585447
      2.87000000	      1.36382147	      0.23356553	      0.86506931
      2.87500000	      1.36157434	      0.23337303	      0.86429280
      2.88000000	      1.35935885	      0.23318309	      0.86352524
      2.88500000	      1.35717972	      0.23299611	      0.86276712
      2.89000000	      1.35501841	      0.23281052	      0.86201881
      2.89500000	      1.35290306	      0.23262872	      0.86128078
      2.90000000	      1.35082176	      0.23244972	      0.86055355
      2.90500000	      1.34877422	      0.23227348	      0.85983745
      2.91000000	      1.34676687	      0.23210057	      0.85913283
      2.91500000	      1.34479978	      0.23193101	      0.85843983
      2.92000000	      1.34285962	      0.23176364	      0.85775856
      2.92500000	      1.34096104	      0.23159974	      0.85708905
      2.93000000	      1.33909365	      0.23143843	      0.85643125
      2.93500000	      1.33726271	      0.23128015	      0.85578493
      2.94000000	      1.33546155	      0.23112434	      0.85514976
      2.94500000	      1.33369158	      0.23097113	      0.85452529
      2.95000000	      1.33195267	      0.23082051	      0.85391110
      2.95500000	      1.33022284	      0.23067057	      0.85330672
      2.96000000	      1.32852640	      0.23052344	      0.85271163
      2.96500000	      1.32684785	      0.23037776	      0.85212519
      2.97000000	      1.32518154	      0.23023306	      0.85154675
      2.97500000	      1.32353748	      0.23009020	      0.85097562
      2.98000000	      1.32190263	      0.22994805	      0.85041111
      2.98500000	      1.32028119	      0.22980698	      0.84985259
      2.99000000	      1.31867337	      0.22966701	      0.84929950
      2.99500000	      1.31707457	      0.22952774	      0.84875150
      3.00000000	      1.31549100	      0.22938971	      0.84820831
      3.00500000	      1.31391058	      0.22925188	      0.84766970
      3.01000000	      1.31234330	      0.22911511	      0.84713547
      3.01500000	      1.31078859	      0.22897935	      0.84660540
      3.02000000	      1.30923738	      0.22884382	      0.84607940
      3.02500000	      1.30770118	      0.22870953	      0.84555736
      3.03000000	      1.30617032	      0.22857562	      0.84503919
      3.03500000	      1.30465299	      0.22844282	      0.84452472
      3.04000000	      1.30314242	      0.22831053	      0.84401380
      3.04500000	      1.30164381	      0.22817921	      0.84350636
      3.05000000	      1.30015068	      0.22804830	      0.84300233
      3.05500000	      1.29866976	      0.22791839	      0.84250170
      3.06000000	      1.29719779	      0.22778918	      0.84200458
      3.06500000	      1.29573491	      0.22766070	      0.84151111
      3.07000000	      1.29428315	      0.22753313	      0.84102156
      3.07500000	      1.29284579	      0.22740675	      0.84053620
      3.08000000	      1.29142062	      0.22728138	      0.84005537
      3.08500000	      1.29001025	      0.22715724	      0.83957937
      3.09000000	      1.28861501	      0.22703436	      0.83910844
      3.09500000	      1.28724019	      0.22691322	      0.83864280
      3.10000000	      1.28587374	      0.22679275	      0.83818265
      3.10500000	      1.28452882	      0.22667411	      0.83772810
      3.11000000	      1.28319744	      0.22655661	      0.83727918
      3.11500000	      1.28188699	      0.22644090	      0.83683599
      3.12000000	      1.28059192	      0.22632648	      0.83639858
      3.12500000	      1.27931892	      0.22621396	      0.83596701
      3.13000000	      1.27806986	      0.22610350	      0.83554137
      3.13500000	      1.27684402	      0.22599505	      0.83512178
      3.14000000	      1.27564799	      0.22588918	      0.83470829
      3.14500000	      1.27447031	      0.22578488	      0.83430113
      3.15000000	      1.27332394	      0.22568331	      0.83390040
      3.15500000	      1.27220361	      0.22558401	      0.83350635
      3.16000000	      1.27111124	      0.22548714	      0.83311918
      3.16500000	      1.27004865	      0.22539287	      0.83273917
      3.17000000	      1.26901518	      0.22530115	      0.83236659
      3.17500000	      1.26801342	      0.22521220	      0.83200167
      3.18000000	      1.26704327	      0.22512603	      0.83164451
      3.18500000	      1.26610219	      0.22504241	      0.83129517
      3.19000000	      1.26519382	      0.22496167	      0.83095361
      3.19500000	      1.26431484	      0.22488351	      0.83061981
      3.20000000	      1.26346786	      0.22480817	      0.83029368
      3.20500000	      1.26265037	      0.22473543	      0.82997504
      3.21000000	      1.26186378	      0.22466542	      0.82966373
      3.21500000	      1.26110907	      0.22459823	      0.82935942
      3.22000000	      1.26038489	      0.22453373	      0.82906184
      3.22500000	      1.25969139	      0.22447195	      0.82877078
      3.23000000	      1.25902877	      0.22441290	      0.82848595
      3.23500000	      1.25839453	      0.22435637	      0.82820731
      3.24000000	      1.25778906	      0.22430239	      0.82793474
      3.24500000	      1.25721072	      0.22425082	      0.82766829
      3.25000000	      1.25665684	      0.22420141	      0.82740792
      3.25500000	      1.25612628	      0.22415408	      0.82715379
      3.26000000	      1.25562091	      0.22410898	      0.82690588
      3.26500000	      1.25513914	      0.22406599	      0.82666437
      3.27000000	      1.25468372	      0.22402533	      0.82642948
      3.27500000	      1.25425227	      0.22398681	      0.82620145
      3.28000000	      1.25385051	      0.22395093	      0.82598060
      3.28500000	      1.25347608	      0.22391749	      0.82576742
      3.29000000	      1.25313373	      0.22388691	      0.82556238
      3.29500000	      1.25282484	      0.22385932	      0.82536619
      3.30000000	      1.25255025	      0.22383478	      0.82517941
      3.30500000	      1.25231135	      0.22381344	      0.82500257
      3.31000000	      1.25210544	      0.22379503	      0.82483614
      3.31500000	      1.25193528	      0.22377983	      0.82468054
      3.32000000	      1.25179899	      0.22376765	      0.82453613
      3.32500000	      1.25169777	      0.22375860	      0.82440330
      3.33000000	      1.25163236	      0.22375275	      0.82428221
      3.33500000	      1.25159915	      0.22374978	      0.82417306
      3.34000000	      1.25160156	      0.22375000	      0.82407587
      3.34500000	      1.25163854	      0.22375331	      0.82399071
      3.35000000	      1.25171146	      0.22375982	      0.82391749
      3.35500000	      1.25181726	      0.22376928	      0.82385615
      3.36000000	      1.25195688	      0.22378176	      0.82380656
      3.36500000	      1.25212797	      0.22379705	      0.82376843
      3.37000000	      1.25232802	      0.22381493	      0.82374138
      3.37500000	      1.25255291	      0.22383502	      0.82372487
      3.38000000	      1.25279637	      0.22385677	      0.82371816
      3.38500000	      1.25305428	      0.22387981	      0.82372032
      3.39000000	      1.25332140	      0.22390368	      0.82373024
      3.39500000	      1.25359339	      0.22392797	      0.82374650
      3.40000000	      1.25386125	      0.22395189	      0.82376755
      3.40500000	      1.25412317	      0.22397528	      0.82379174
      3.41000000	      1.25437349	      0.22399763	      0.82381748
      3.41500000	      1.25460444	      0.22401825	      0.82384324
      3.42000000	      1.25481317	      0.22403689	      0.82386766
      3.42500000	      1.25499299	      0.22405294	      0.82388932
      3.43000000	      1.25513800	      0.22406588	      0.82390691
      3.43500000	      1.25524762	      0.22407567	      0.82391923
      3.44000000	      1.25530573	      0.22408085	      0.82392510
      3.44500000	      1.25532007	      0.22408213	      0.82392359
      3.45000000	      1.25528361	      0.22407888	      0.82391398
      3.45500000	      1.25519556	      0.22407102	      0.82389586
      3.46000000	      1.25505590	      0.22405856	      0.82386917
      3.46500000	      1.25486545	      0.22404155	      0.82383411
      3.47000000	      1.25462628	      0.22402020	      0.82379109
      3.47500000	      1.25434147	      0.22399477	      0.82374082
      3.48000000	      1.25401454	      0.22396558	      0.82368417
      3.48500000	      1.25365059	      0.22393308	      0.82362219
      3.49000000	      1.25325548	      0.22389779	      0.82355613
      3.49500000	      1.25283664	      0.22386037	      0.82348735
      3.50000000	      1.25240034	      0.22382139	      0.82341728
      3.50500000	      1.25195527	      0.22378161	      0.82334737
      3.51000000	      1.25150639	      0.22374149	      0.82327909
      3.51500000	      1.25106120	      0.22370169	      0.82321394
      3.52000000	      1.25062564	      0.22366275	      0.82315327
      3.52500000	      1.25019990	      0.22362468	      0.82309832
      3.53000000	      1.24979142	      0.22358814	      0.82305029
      3.53500000	      1.24940063	      0.22355318	      0.82301011
      3.54000000	      1.24903275	      0.22352027	      0.82297855
      3.54500000	      1.24868045	      0.22348874	      0.82295624
      3.55000000	      1.24835415	      0.22345954	      0.82294355
      3.55500000	      1.24805217	      0.22343251	      0.82294076
      3.56000000	      1.24777455	      0.22340766	      0.82294796
      3.56500000	      1.24752278	      0.22338512	      0.82296499
      3.57000000	      1.24729779	      0.22336497	      0.82299162
      3.57500000	      1.24709752	      0.22334704	      0.82302736
      3.58000000	      1.24692531	      0.22333162	      0.82307157
      3.58500000	      1.24677928	      0.22331854	      0.82312347
      3.59000000	      1.24665901	      0.22330777	      0.82318229
      3.59500000	      1.24656602	      0.22329944	      0.82324713
      3.60000000	      1.24649875	      0.22329342	      0.82331719
      3.60500000	      1.24645554	      0.22328955	      0.82339161
      3.61000000	      1.24643496	      0.22328770	      0.82346970
      3.61500000	      1.24643547	      0.22328775	      0.82355073
      3.62000000	      1.24645720	      0.22328970	      0.82363416
      3.62500000	      1.24649141	      0.22329276	      0.82371955
      3.63000000	      1.24654339	      0.22329742	      0.82380664
      3.63500000	      1.24660784	      0.22330319	      0.82389528
      3.64000000	      1.24668279	      0.22330990	      0.82398535
      3.64500000	      1.24676598	      0.22331735	      0.82407672
      3.65000000	      1.24685260	      0.22332511	      0.82416934
      3.65500000	      1.24694162	      0.22333308	      0.82426289
      3.66000000	      1.24702579	      0.22334062	      0.82435694
      3.66500000	      1.24710398	      0.22334762	      0.82445080
      3.67000000	      1.24717208	      0.22335372	      0.82454359
      3.67500000	      1.24722405	      0.22335837	      0.82463418
      3.68000000	      1.24725912	      0.22336151	      0.82472136
      3.68500000	      1.24727362	      0.22336281	      0.82480380
      3.69000000	      1.24726258	      0.22336182	      0.82488039
      3.69500000	      1.24722621	      0.22335856	      0.82495009
      3.70000000	      1.24715854	      0.22335251	      0.82501225
      3.70500000	      1.24706349	      0.22334399	      0.82506634
      3.71000000	      1.24694046	      0.22333298	      0.82511227
      3.71500000	      1.24679133	      0.22331962	      0.82515016
      3.72000000	      1.24662055	      0.22330433	      0.82518049
      3.72500000	      1.24643212	      0.22328745	      0.82520386
      3.73000000	      1.24623231	      0.22326955	      0.82522124
      3.73500000	      1.24602437	      0.22325092	      0.82523365
      3.74000000	      1.24581219	      0.22323191	      0.82524221
      3.74500000	      1.24560129	      0.22321302	      0.82524819
      3.75000000	      1.24539387	      0.22319443	      0.82525275
      3.75500000	      1.24518956	      0.22317612	      0.82525714
      3.76000000	      1.24499615	      0.22315879	      0.82526252
      3.76500000	      1.24481437	      0.22314250	      0.82526992
      3.77000000	      1.24464730	      0.22312752	      0.82528026
      3.77500000	      1.24449451	      0.22311383	      0.82529426
      3.78000000	      1.24435741	      0.22310154	      0.82531245
      3.78500000	      1.24423951	      0.22309097	      0.82533526
      3.79000000	      1.24414165	      0.22308220	      0.82536276
      3.79500000	      1.24406198	      0.22307505	      0.82539485
      3.80000000	      1.24400146	      0.22306963	      0.82543124
      3.80500000	      1.24395952	      0.22306587	      0.82547134
      3.81000000	      1.24393117	      0.22306332	      0.82551449
      3.81500000	      1.24391699	      0.22306205	      0.82555987
      3.82000000	      1.24390691	      0.22306115	      0.82560651
      3.82500000	      1.24390172	      0.22306068	      0.82565348
      3.83000000	      1.24389474	      0.22306006	      0.82569982
      3.83500000	      1.24387871	      0.22305862	      0.82574470
      3.84000000	      1.24385112	      0.22305615	      0.82578733
      3.84500000	      1.24380556	      0.22305206	      0.82582725
      3.85000000	      1.24373993	      0.22304618	      0.82586416
      3.85500000	      1.24365391	      0.22303846	      0.82589796
      3.86000000	      1.24354276	      0.22302850	      0.82592883
      3.86500000	      1.24341165	      0.22301674	      0.82595707
      3.87000000	      1.24326178	      0.22300330	      0.82598324
      3.87500000	      1.24309931	      0.22298873	      0.82600809
      3.88000000	      1.24292635	      0.22297321	      0.82603242
      3.88500000	      1.24275098	      0.22295748	      0.82605725
      3.89000000	      1.24257443	      0.22294165	      0.82608376
      3.89500000	      1.24240409	      0.22292636	      0.82611310
      3.90000000	      1.24224443	      0.22291204	      0.82614636
      3.90500000	      1.24209675	      0.22289879	      0.82618452
      3.91000000	      1.24196545	      0.22288701	      0.82622830
      3.91500000	      1.24185282	      0.22287690	      0.82627812
      3.92000000	      1.24175869	      0.22286845	      0.82633421
      3.92500000	      1.24167816	      0.22286123	      0.82639649
      3.93000000	      1.24161595	      0.22285564	      0.82646467
      3.93500000	      1.24156635	      0.22285119	      0.82653826
      3.94000000	      1.24153037	      0.22284796	      0.82661665
      3.94500000	      1.24150000	      0.22284524	      0.82669908
      3.95000000	      1.24147678	      0.22284315	      0.82678483
      3.95500000	      1.24145765	      0.22284144	      0.82687311
      3.96000000	      1.24143738	      0.22283962	      0.82696314
      3.96500000	      1.24141789	      0.22283787	      0.82705415
      3.97000000	      1.24139349	      0.22283568	      0.82714536
      3.97500000	      1.24136443	      0.22283307	      0.82723588
      3.98000000	      1.24133147	      0.22283011	      0.82732514
      3.98500000	      1.24128904	      0.22282630	      0.82741256
      3.99000000	      1.24123990	      0.22282189	      0.82749780
      3.99500000	      1.24118425	      0.22281690	      0.82758062
      4.00000000	      1.24111562	      0.22281074	      0.82766087
      4.00500000	      1.24104000	      0.22280395	      0.82773846
      4.01000000	      1.24095792	      0.22279658	      0.82781330
      4.01500000	      1.24086770	      0.22278848	      0.82788530
      4.02000000	      1.24077226	      0.22277991	      0.82795450
      4.02500000	      1.24067153	      0.22277087	      0.82802091
      4.03000000	      1.24056871	      0.22276164	      0.82808461
      4.03500000	      1.24046012	      0.22275189	      0.82814577
      4.04000000	      1.24035112	      0.22274210	      0.82820460
      4.04500000	      1.24024393	      0.22273248	      0.82826125
      4.05000000	      1.24013537	      0.22272273	      0.82831601
      4.05500000	      1.24002899	      0.22271318	      0.82836902
      4.06000000	      1.23992522	      0.22270386	      0.82842043
      4.06500000	      1.23981839	      0.22269426	      0.82847036
      4.07000000	      1.23971342	      0.22268484	      0.82851883
      4.07500000	      1.23960835	      0.22267540	      0.82856586
      4.08000000	      1.23950216	      0.22266586	      0.82861134
      4.08500000	      1.23939557	      0.22265629	      0.82865515
      4.09000000	      1.23928448	      0.22264631	      0.82869709
      4.09500000	      1.23916829	      0.22263587	      0.82873700
      4.10000000	      1.23904852	      0.22262511	      0.82877462
      4.10500000	      1.23892095	      0.22261365	      0.82880968
      4.11000000	      1.23878966	      0.22260186	      0.82884206
      4.11500000	      1.23865006	      0.22258931	      0.82887169
      4.12000000	      1.23850816	      0.22257656	      0.82889864
      4.12500000	      1.23836484	      0.22256368	      0.82892319
      4.13000000	      1.23822192	      0.22255084	      0.82894569
      4.13500000	      1.23808182	      0.22253825	      0.82896668
      4.14000000	      1.23794599	      0.22252604	      0.82898680
      4.14500000	      1.23781592	      0.22251435	      0.82900668
      4.15000000	      1.23769295	      0.22250330	      0.82902706
      4.15500000	      1.23757758	      0.22249293	      0.82904867
      4.16000000	      1.23747126	      0.22248337	      0.82907212
      4.16500000	      1.23737697	      0.22247489	      0.82909794
      4.17000000	      1.23728945	      0.22246703	      0.82912661
      4.17500000	      1.23721472	      0.22246031	      0.82915843
      4.18000000	      1.23715291	      0.22245475	      0.82919375
      4.18500000	      1.23710387	      0.22245034	      0.82923283
      4.19000000	      1.23706802	      0.22244712	      0.82927588
      4.19500000	      1.23704622	      0.22244516	      0.82932302
      4.20000000	      1.23703962	      0.22244457	      0.82937427
      4.20500000	      1.23704910	      0.22244542	      0.82942953
      4.21000000	      1.23707594	      0.22244783	      0.82948872
      4.21500000	      1.23712025	      0.22245181	      0.82955180
      4.22000000	      1.23718273	      0.22245743	      0.82961871
      4.22500000	      1.23726321	      0.22246467	      0.82968955
      4.23000000	      1.23736449	      0.22247377	      0.82976443
      4.23500000	      1.23747912	      0.22248408	      0.82984341
      4.24000000	      1.23761430	      0.22249623	      0.82992670
      4.24500000	      1.23776711	      0.22250996	      0.83001445
      4.25000000	      1.23793905	      0.22252542	      0.83010680
      4.25500000	      1.23812840	      0.22254244	      0.83020391
      4.26000000	      1.23833851	      0.22256132	      0.83030594
      4.26500000	      1.23856001	      0.22258122	      0.83041302
      4.27000000	      1.23880298	      0.22260305	      0.83052536
      4.27500000	      1.23906745	      0.22262681	      0.83064323
      4.28000000	      1.23934611	      0.22265185	      0.83076686
      4.28500000	      1.23964860	      0.22267902	      0.83089658
      4.29000000	      1.23997432	      0.22270827	      0.83103259
      4.29500000	      1.24032346	      0.22273962	      0.83117516
      4.30000000	      1.24069812	      0.22277326	      0.83132466
      4.30500000	      1.24109924	      0.22280927	      0.83148155
      4.31000000	      1.24152881	      0.22284782	      0.83164646
      4.31500000	      1.24198910	      0.22288913	      0.83182004
      4.32000000	      1.24248219	      0.22293337	      0.83200311
      4.32500000	      1.24301149	      0.22298085	      0.83219649
      4.33000000	      1.24357992	      0.22303183	      0.83240105
      4.33500000	      1.24418796	      0.22308635	      0.83261767
      4.34000000	      1.24483873	      0.22314468	      0.83284702
      4.34500000	      1.24553334	      0.22320693	      0.83308962
      4.35000000	      1.24627197	      0.22327310	      0.83334561
      4.35500000	      1.24705456	      0.22334319	      0.83361496
      4.36000000	      1.24788063	      0.22341716	      0.83389731
      4.36500000	      1.24874896	      0.22349487	      0.83419211
      4.37000000	      1.24965882	      0.22357628	      0.83449865
      4.37500000	      1.25060716	      0.22366110	      0.83481586
      4.38000000	      1.25159323	      0.22374926	      0.83514232
      4.38500000	      1.25261361	      0.22384044	      0.83547614
      4.39000000	      1.25366439	      0.22393431	      0.83581509
      4.39500000	      1.25474125	      0.22403047	      0.83615673
      4.40000000	      1.25583938	      0.22412848	      0.83649858
      4.40500000	      1.25695482	      0.22422799	      0.83683845
      4.41000000	      1.25808367	      0.22432866	      0.83717451
      4.41500000	      1.25922405	      0.22443031	      0.83750560
      4.42000000	      1.26037579	      0.22453292	      0.83783144
      4.42500000	      1.26154351	      0.22463691	      0.83815292
      4.43000000	      1.26273523	      0.22474298	      0.83847240
      4.43500000	      1.26396482	      0.22485238	      0.83879371
      4.44000000	      1.26524237	      0.22496599	      0.83912213
      4.44500000	      1.26659137	      0.22508588	      0.83946400
      4.45000000	      1.26804027	      0.22521459	      0.83982655
      4.45500000	      1.26960087	      0.22535313	      0.84021722
      4.46000000	      1.27130373	      0.22550421	      0.84064314
      4.46500000	      1.27316564	      0.22566928	      0.84111051
      4.47000000	      1.27518919	      0.22584855	      0.84162416
      4.47500000	      1.27739900	      0.22604415	      0.84218728
      4.48000000	      1.27979151	      0.22625574	      0.84280134
      4.48500000	      1.28237228	      0.22648376	      0.84346633
      4.49000000	      1.28513572	      0.22672765	      0.84418113
      4.49500000	      1.28806105	      0.22698555	      0.84494382
      4.50000000	      1.29116184	      0.22725860	      0.84575216
      4.50500000	      1.29442325	      0.22754545	      0.84660368
      4.51000000	      1.29783431	      0.22784506	      0.84749562
      4.51500000	      1.30138080	      0.22815616	      0.84842486
      4.52000000	      1.30505575	      0.22847807	      0.84938784
      4.52500000	      1.30884199	      0.22880926	      0.85038051
      4.53000000	      1.31272355	      0.22914830	      0.85139832
      4.53500000	      1.31668264	      0.22949358	      0.85243636
      4.54000000	      1.32070110	      0.22984352	      0.85348965
      4.54500000	      1.32476167	      0.23019658	      0.85455343
      4.55000000	      1.32884855	      0.23055139	      0.85562345
      4.55500000	      1.33294567	      0.23090653	      0.85669649
      4.56000000	      1.33705406	      0.23126211	      0.85777034
      4.56500000	      1.34115536	      0.23161652	      0.85884420
      4.57000000	      1.34525953	      0.23197065	      0.85991875
      4.57500000	      1.34937422	      0.23232514	      0.86099652
      4.58000000	      1.35350910	      0.23268082	      0.86208211
      4.58500000	      1.35769476	      0.23304032	      0.86318225
      4.59000000	      1.36196095	      0.23340617	      0.86430545
      4.59500000	      1.36634000	      0.23378109	      0.86546146
      4.60000000	      1.37086150	      0.23416759	      0.86666066
      4.60500000	      1.37557137	      0.23456951	      0.86791286
      4.61000000	      1.38050434	      0.23498973	      0.86922654
      4.61500000	      1.38568523	      0.23543026	      0.87060767
      4.62000000	      1.39112003	      0.23589150	      0.87205930
      4.62500000	      1.39680099	      0.23637267	      0.87358156
      4.63000000	      1.40274883	      0.23687540	      0.87517208
      4.63500000	      1.40894423	      0.23739791	      0.87682676
      4.64000000	      1.41535425	      0.23793732	      0.87854066
      4.64500000	      1.42198367	      0.23849391	      0.88030886
      4.65000000	      1.42880726	      0.23906545	      0.88212682
      4.65500000	      1.43581604	      0.23965108	      0.88399057
      4.66000000	      1.44298919	      0.24024897	      0.88589650
      4.66500000	      1.45032314	      0.24085873	      0.88784108
      4.67000000	      1.45780443	      0.24147914	      0.88982061
      4.67500000	      1.46541843	      0.24210894	      0.89183118
      4.68000000	      1.47314229	      0.24274615	      0.89386901
      4.68500000	      1.48097866	      0.24339093	      0.89593052
      4.69000000	      1.48891457	      0.24404217	      0.89801279
      4.69500000	      1.49694220	      0.24469918	      0.90011397
      4.70000000	      1.50506090	      0.24536185	      0.90223323
      4.70500000	      1.51326214	      0.24602944	      0.90437090
      4.71000000	      1.52155998	      0.24670306	      0.90652807
      4.71500000	      1.52994736	      0.24738208	      0.90870596
      4.72000000	      1.53843735	      0.24806752	      0.91090545
      4.72500000	      1.54702005	      0.24875852	      0.91312684
      4.73000000	      1.55570357	      0.24945569	      0.91536967
      4.73500000	      1.56448288	      0.25015858	      0.91763281
      4.74000000	      1.57333768	      0.25086552	      0.91991471
      4.74500000	      1.58228170	      0.25157756	      0.92221381
      4.75000000	      1.59129709	      0.25229325	      0.92452860
      4.75500000	      1.60038393	      0.25301256	      0.92685794
      4.76000000	      1.60953774	      0.25373512	      0.92920073
      4.76500000	      1.61875678	      0.25446075	      0.93155576
      4.77000000	      1.62802532	      0.25518819	      0.93392165
      4.77500000	      1.63734360	      0.25591746	      0.93629643
      4.78000000	      1.64670613	      0.25664810	      0.93867770
      4.78500000	      1.65609774	      0.25737892	      0.94106252
      4.79000000	      1.66551095	      0.25810935	      0.94344773
      4.79500000	      1.67493851	      0.25883883	      0.94583029
      4.80000000	      1.68436222	      0.25956596	      0.94820754
      4.80500000	      1.69378308	      0.26029084	      0.95057725
      4.81000000	      1.70317952	      0.26101184	      0.95293758
      4.81500000	      1.71255924	      0.26172957	      0.95528712
      4.82000000	      1.72191616	      0.26244361	      0.95762445
      4.82500000	      1.73123742	      0.26315299	      0.95994810
      4.83000000	      1.74052296	      0.26385776	      0.96225635
      4.83500000	      1.74976458	      0.26455733	      0.96454731
      4.84000000	      1.75895395	      0.26525112	      0.96681896
      4.84500000	      1.76808246	      0.26593852	      0.96906932
      4.85000000	      1.77714297	      0.26661905	      0.97129666
      4.85500000	      1.78612928	      0.26729230	      0.97349958
      4.86000000	      1.79503773	      0.26795804	      0.97567710
      4.86500000	      1.80386088	      0.26861578	      0.97782855
      4.87000000	      1.81260107	      0.26926575	      0.97995375
      4.87500000	      1.82125145	      0.26990750	      0.98205267
      4.88000000	      1.82981789	      0.27054152	      0.98412561
      4.88500000	      1.83828900	      0.27116703	      0.98617272
      4.89000000	      1.84667302	      0.27178470	      0.98819430
      4.89500000	      1.85496422	      0.27239414	      0.99019048
      4.90000000	      1.86316476	      0.27299559	      0.99216153
      4.90500000	      1.87127341	      0.27358899	      0.99410764
      4.91000000	      1.87929232	      0.27417457	      0.99602923
      4.91500000	      1.88721998	      0.27475225	      0.99792664
      4.92000000	      1.89505615	      0.27532208	      0.99980022
      4.92500000	      1.90280010	      0.27588404	      1.00165007
      4.93000000	      1.91044976	      0.27643804	      1.00347607
      4.93500000	      1.91800148	      0.27698386	      1.00527756
      4.94000000	      1.92545069	      0.27752122	      1.00705345
      4.94500000	      1.93279278	      0.27804984	      1.00880227
      4.95000000	      1.94002083	      0.27856926	      1.01052227
      4.95500000	      1.94712754	      0.27907902	      1.01221143
      4.96000000	      1.95410538	      0.27957864	      1.01386774
      4.96500000	      1.96094551	      0.28006753	      1.01548909
      4.97000000	      1.96763635	      0.28054492	      1.01707324
      4.97500000	      1.97417275	      0.28101052	      1.01861770
      4.98000000	      1.98054218	      0.28146347	      1.02011982
      4.98500000	      1.98673051	      0.28190286	      1.02157668
      4.99000000	      1.99272739	      0.28232799	      1.02298525
      4.99500000	      1.99852267	      0.28273823	      1.02434234
      5.00000000	      2.00411294	      0.28313339	      1.02564470
      5.00500000	      2.00944315	      0.28350966	      1.02688909
      5.01000000	      2.01453606	      0.28386871	      1.02807240
      5.01500000	      2.01937572	      0.28420948	      1.02919176
      5.02000000	      2.02394664	      0.28453096	      1.03024432
      5.02500000	      2.02823703	      0.28483237	      1.03122763
      5.03000000	      2.03223668	      0.28511308	      1.03213923
      5.03500000	      2.03593408	      0.28537232	      1.03297680
      5.04000000	      2.03931923	      0.28560947	      1.03373827
      5.04500000	      2.04238209	      0.28582387	      1.03442169
      5.05000000	      2.04511131	      0.28601478	      1.03502546
      5.05500000	      2.04749944	      0.28618172	      1.03554844
      5.06000000	      2.04954429	      0.28632459	      1.03599025
      5.06500000	      2.05123596	      0.28644273	      1.03635128
      5.07000000	      2.05258528	      0.28653693	      1.03663273
      5.07500000	      2.05359631	      0.28660749	      1.03683680
      5.08000000	      2.05427804	      0.28665506	      1.03696647
      5.08500000	      2.05464807	      0.28668087	      1.03702555
      5.09000000	      2.05472692	      0.28668637	      1.03701862
      5.09500000	      2.05452907	      0.28667257	      1.03695104
      5.10000000	      2.05408759	      0.28664177	      1.03682887
      5.10500000	      2.05342933	      0.28659584	      1.03665896
      5.11000000	      2.05258131	      0.28653665	      1.03644881
      5.11500000	      2.05157936	      0.28646671	      1.03620647
      5.12000000	      2.05045579	      0.28638825	      1.03594039
      5.12500000	      2.04924863	      0.28630394	      1.03565927
      5.13000000	      2.04799253	      0.28621618	      1.03537163
      5.13500000	      2.04672029	      0.28612726	      1.03508606
      5.14000000	      2.04547647	      0.28604031	      1.03481052
      5.14500000	      2.04425893	      0.28595517	      1.03455258
      5.15000000	      2.04312506	      0.28587585	      1.03431916
      5.15500000	      2.04208746	      0.28580325	      1.03411648
      5.16000000	      2.04116632	      0.28573878	      1.03394977
      5.16500000	      2.04037803	      0.28568360	      1.03382342
      5.17000000	      2.03973556	      0.28563862	      1.03374085
      5.17500000	      2.03924763	      0.28560446	      1.03370431
      5.18000000	      2.03891846	      0.28558140	      1.03371500
      5.18500000	      2.03874891	      0.28556953	      1.03377275
      5.19000000	      2.03873956	      0.28556888	      1.03387654
      5.19500000	      2.03887011	      0.28557802	      1.03402417
      5.20000000	      2.03914259	      0.28559710	      1.03421262
      5.20500000	      2.03954058	      0.28562497	      1.03443803
      5.21000000	      2.04004822	      0.28566051	      1.03469578
      5.21500000	      2.04065070	      0.28570269	      1.03498060
      5.22000000	      2.04133042	      0.28575027	      1.03528693
      5.22500000	      2.04205138	      0.28580073	      1.03560892
      5.23000000	      2.04280953	      0.28585378	      1.03594062
      5.23500000	      2.04357552	      0.28590736	      1.03627599
      5.24000000	      2.04432193	      0.28595957	      1.03660916
      5.24500000	      2.04503360	      0.28600934	      1.03693466
      5.25000000	      2.04567814	      0.28605441	      1.03724724
      5.25500000	      2.04624746	      0.28609421	      1.03754232
      5.26000000	      2.04672554	      0.28612763	      1.03781576
      5.26500000	      2.04709645	      0.28615356	      1.03806410
      5.27000000	      2.04735407	      0.28617156	      1.03828465
      5.27500000	      2.04749238	      0.28618123	      1.03847518
      5.28000000	      2.04750192	      0.28618189	      1.03863431
      5.28500000	      2.04739783	      0.28617462	      1.03876119
      5.29000000	      2.04715102	      0.28615737	      1.03885565
      5.29500000	      2.04679163	      0.28613225	      1.03891815
      5.30000000	      2.04631297	      0.28609879	      1.03894971
      5.30500000	      2.04572457	      0.28605766	      1.03895181
      5.31000000	      2.04504457	      0.28601011	      1.03892643
      5.31500000	      2.04424857	      0.28595444	      1.03887594
      5.32000000	      2.04338424	      0.28589398	      1.03880312
      5.32500000	      2.04245460	      0.28582894	      1.03871098
      5.33000000	      2.04147004	      0.28576004	      1.03860284
      5.33500000	      2.04044826	      0.28568852	      1.03848214
      5.34000000	      2.03940276	      0.28561532	      1.03835247
      5.34500000	      2.03835082	      0.28554165	      1.03821734
      5.35000000	      2.03730828	      0.28546862	      1.03808037
      5.35500000	      2.03628644	      0.28539702	      1.03794501
      5.36000000	      2.03530465	      0.28532821	      1.03781458
      5.36500000	      2.03437796	      0.28526324	      1.03769215
      5.37000000	      2.03350876	      0.28520230	      1.03758044
      5.37500000	      2.03272516	      0.28514734	      1.03748182
      5.38000000	      2.03202005	      0.28509788	      1.03739833
      5.38500000	      2.03141541	      0.28505546	      1.03733152
      5.39000000	      2.03091305	      0.28502021	      1.03728252
      5.39500000	      2.03051890	      0.28499255	      1.03725204
      5.40000000	      2.03022133	      0.28497167	      1.03724026
      5.40500000	      2.03003355	      0.28495849	      1.03724682
      5.41000000	      2.02994816	      0.28495250	      1.03727107
      5.41500000	      2.02995402	      0.28495291	      1.03731172
      5.42000000	      2.03005104	      0.28495972	      1.03736740
      5.42500000	      2.03023065	      0.28497233	      1.03743631
      5.43000000	      2.03047902	      0.28498976	      1.03751657
      5.43500000	      2.03079187	      0.28501171	      1.03760608
      5.44000000	      2.03115429	      0.28503714	      1.03770269
      5.44500000	      2.03155567	      0.28506530	      1.03780410
      5.45000000	      2.03198694	      0.28509556	      1.03790807
      5.45500000	      2.03243712	      0.28512714	      1.03801234
      5.46000000	      2.03289824	      0.28515948	      1.03811468
      5.46500000	      2.03335934	      0.28519182	      1.03821316
      5.47000000	      2.03381368	      0.28522368	      1.03830600
      5.47500000	      2.03425553	      0.28525466	      1.03839175
      5.48000000	      2.03467947	      0.28528438	      1.03846926
      5.48500000	      2.03507961	      0.28531243	      1.03853760
      5.49000000	      2.03545625	      0.28533883	      1.03859620
      5.49500000	      2.03580672	      0.28536340	      1.03864470
      5.50000000	      2.03613044	      0.28538609	      1.03868306
      5.50500000	      2.03642968	      0.28540706	      1.03871142
      5.51000000	      2.03669780	      0.28542584	      1.03873006
      5.51500000	      2.03694316	      0.28544304	      1.03873951
      5.52000000	      2.03716337	      0.28545846	      1.03874033
      5.52500000	      2.03736447	      0.28547255	      1.03873340
      5.53000000	      2.03753495	      0.28548450	      1.03871956
      5.53500000	      2.03769470	      0.28549569	      1.03869998
      5.54000000	      2.03783979	      0.28550585	      1.03867569
      5.54500000	      2.03798852	      0.28551627	      1.03864792
      5.55000000	      2.03809858	      0.28552398	      1.03861758
      5.55500000	      2.03821956	      0.28553245	      1.03858582
      5.56000000	      2.03835695	      0.28554208	      1.03855356
      5.56500000	      2.03846750	      0.28554982	      1.03852196
      5.57000000	      2.03860366	      0.28555936	      1.03849200
      5.57500000	      2.03875237	      0.28556977	      1.03846490
      5.58000000	      2.03891814	      0.28558138	      1.03844179
      5.58500000	      2.03910044	      0.28559415	      1.03842360
      5.59000000	      2.03930082	      0.28560818	      1.03841107
      5.59500000	      2.03951953	      0.28562350	      1.03840484
      5.60000000	      2.03975665	      0.28564010	      1.03840530
      5.60500000	      2.04001150	      0.28565794	      1.03841269
      5.61000000	      2.04028358	      0.28567699	      1.03842721
      5.61500000	      2.04057258	      0.28569722	      1.03844894
      5.62000000	      2.04088037	      0.28571877	      1.03847780
      5.62500000	      2.04120604	      0.28574156	      1.03851357
      5.63000000	      2.04154693	      0.28576542	      1.03855591
      5.63500000	      2.04189823	      0.28579001	      1.03860428
      5.64000000	      2.04225848	      0.28581522	      1.03865823
      5.64500000	      2.04262485	      0.28584085	      1.03871726
      5.65000000	      2.04299601	      0.28586682	      1.03878078
      5.65500000	      2.04336863	      0.28589289	      1.03884838
      5.66000000	      2.04374094	      0.28591894	      1.03891944
      5.66500000	      2.04411147	      0.28594485	      1.03899362
      5.67000000	      2.04447923	      0.28597057	      1.03907047
      5.67500000	      2.04484431	      0.28599611	      1.03914969
      5.68000000	      2.04520563	      0.28602137	      1.03923096
      5.68500000	      2.04556217	      0.28604630	      1.03931399
      5.69000000	      2.04591379	      0.28607089	      1.03939848
      5.69500000	      2.04625983	      0.28609508	      1.03948410
      5.70000000	      2.04659682	      0.28611863	      1.03957055
      5.70500000	      2.04692388	      0.28614150	      1.03965754
      5.71000000	      2.04723885	      0.28616351	      1.03974471
      5.71500000	      2.04754073	      0.28618461	      1.03983175
      5.72000000	      2.04782638	      0.28620457	      1.03991830
      5.72500000	      2.04809459	      0.28622331	      1.04000395
      5.73000000	      2.04834677	      0.28624093	      1.04008828
      5.73500000	      2.04857672	      0.28625700	      1.04017098
      5.74000000	      2.04878798	      0.28627176	      1.04025155
      5.74500000	      2.04897838	      0.28628506	      1.04032958
      5.75000000	      2.04914853	      0.28629695	      1.04040458
      5.75500000	      2.04929308	      0.28630704	      1.04047605
      5.76000000	      2.04941555	      0.28631560	      1.04054360
      5.76500000	      2.04951538	      0.28632257	      1.04060686
      5.77000000	      2.04959436	      0.28632809	      1.04066569
      5.77500000	      2.04965477	      0.28633231	      1.04072007
      5.78000000	      2.04969680	      0.28633524	      1.04076996
      5.78500000	      2.04972343	      0.28633710	      1.04081549
      5.79000000	      2.04973470	      0.28633789	      1.04085675
      5.79500000	      2.04973649	      0.28633802	      1.04089388
      5.80000000	      2.04972925	      0.28633751	      1.04092699
      5.80500000	      2.04971491	      0.28633651	      1.04095631
      5.81000000	      2.04969527	      0.28633514	      1.04098214
      5.81500000	      2.04966696	      0.28633316	      1.04100459
      5.82000000	      2.04963743	      0.28633110	      1.04102405
      5.82500000	      2.04960455	      0.28632880	      1.04104085
      5.83000000	      2.04956878	      0.28632630	      1.04105524
      5.83500000	      2.04953146	      0.28632370	      1.04106748
      5.84000000	      2.04949380	      0.28632106	      1.04107784
      5.84500000	      2.04945307	      0.28631822	      1.04108642
      5.85000000	      2.04941566	      0.28631561	      1.04109340
      5.85500000	      2.04938254	      0.28631329	      1.04109880
      5.86000000	      2.04935058	      0.28631106	      1.04110270
      5.86500000	      2.04933525	      0.28630999	      1.04110507
      5.87000000	      2.04930100	      0.28630760	      1.04110593
      5.87500000	      2.04927987	      0.28630612	      1.04110521
      5.88000000	      2.04926063	      0.28630478	      1.04110294
      5.88500000	      2.04924450	      0.28630365	      1.04109918
      5.89000000	      2.04922637	      0.28630238	      1.04109381
      5.89500000	      2.04921606	      0.28630166	      1.04108685
      5.90000000	      2.04919938	      0.28630050	      1.04107811
      5.90500000	      2.04919052	      0.28629988	      1.04106743
      5.91000000	      2.04918524	      0.28629951	      1.04105460
      5.91500000	      2.04918385	      0.28629941	      1.04103939
      5.92000000	      2.04918680	      0.28629962	      1.04102174
      5.92500000	      2.04919563	      0.28630024	      1.04100156
      5.93000000	      2.04920914	      0.28630118	      1.04097882
      5.93500000	      2.04922846	      0.28630253	      1.04095370
      5.94000000	      2.04925038	      0.28630406	      1.04092638
      5.94500000	      2.04927461	      0.28630575	      1.04089702
      5.95000000	      2.04929931	      0.28630748	      1.04086596
      5.95500000	      2.04932184	      0.28630905	      1.04083350
      5.96000000	      2.04934095	      0.28631039	      1.04079992
      5.96500000	      2.04935326	      0.28631125	      1.04076552
      5.97000000	      2.04936100	      0.28631179	      1.04073070
      5.97500000	      2.04936140	      0.28631182	      1.04069594
      5.98000000	      2.04935526	      0.28631139	      1.04066168
      5.98500000	      2.04934416	      0.28631061	      1.04062852
      5.99000000	      2.04932871	      0.28630953	      1.04059698
      5.99500000	      2.04930899	      0.28630816	      1.04056744
      6.00000000	      2.04928763	      0.28630666	      1.04054037
      6.00500000	      2.04926827	      0.28630531	      1.04051608
      6.01000000	      2.04924953	      0.28630400	      1.04049480
      6.01500000	      2.04923776	      0.28630318	      1.04047687
      6.02000000	      2.04923661	      0.28630310	      1.04046267
      6.02500000	      2.04924912	      0.28630397	      1.04045244
      6.03000000	      2.04927560	      0.28630582	      1.04044656
      6.03500000	      2.04932172	      0.28630904	      1.04044528
      6.04000000	      2.04938618	      0.28631355	      1.04044873
      6.04500000	      2.04947183	      0.28631953	      1.04045707
      6.05000000	      2.04957906	      0.28632702	      1.04047049
      6.05500000	      2.04970857	      0.28633607	      1.04048916
      6.06000000	      2.04986039	      0.28634667	      1.04051318
      6.06500000	      2.05003384	      0.28635878	      1.04054280
      6.07000000	      2.05022916	      0.28637243	      1.04057808
      6.07500000	      2.05044423	      0.28638745	      1.04061911
      6.08000000	      2.05067991	      0.28640390	      1.04066587
      6.08500000	      2.05092832	      0.28642125	      1.04071831
      6.09000000	      2.05118856	      0.28643942	      1.04077627
      6.09500000	      2.05146321	      0.28645860	      1.04083963
      6.10000000	      2.05174045	      0.28647795	      1.04090803
      6.10500000	      2.05202594	      0.28649788	      1.04098135
      6.11000000	      2.05230951	      0.28651768	      1.04105922
      6.11500000	      2.05259419	      0.28653755	      1.04114153
      6.12000000	      2.05287866	      0.28655741	      1.04122801
      6.12500000	      2.05316266	      0.28657723	      1.04131862
      6.13000000	      2.05344295	      0.28659679	      1.04141320
      6.13500000	      2.05371934	      0.28661607	      1.04151151
      6.14000000	      2.05399197	      0.28663510	      1.04161340
      6.14500000	      2.05426229	      0.28665396	      1.04171856
      6.15000000	      2.05452363	      0.28667219	      1.04182676
      6.15500000	      2.05477814	      0.28668995	      1.04193772
      6.16000000	      2.05502943	      0.28670748	      1.04205107
      6.16500000	      2.05527711	      0.28672475	      1.04216659
      6.17000000	      2.05552502	      0.28674205	      1.04228399
      6.17500000	      2.05577141	      0.28675923	      1.04240307
      6.18000000	      2.05602236	      0.28677673	      1.04252363
      6.18500000	      2.05628213	      0.28679485	      1.04264575
      6.19000000	      2.05654694	      0.28681332	      1.04276939
      6.19500000	      2.05682295	      0.28683256	      1.04289464
      6.20000000	      2.05711242	      0.28685274	      1.04302163
      6.20500000	      2.05740798	      0.28687335	      1.04315030
      6.21000000	      2.05771114	      0.28689449	      1.04328058
      6.21500000	      2.05802504	      0.28691637	      1.04341230
      6.22000000	      2.05834832	      0.28693890	      1.04354509
      6.22500000	      2.05867311	      0.28696154	      1.04367854
      6.23000000	      2.05900303	      0.28698453	      1.04381210
      6.23500000	      2.05933595	      0.28700773	      1.04394529
      6.24000000	      2.05966780	      0.28703086	      1.04407764
      6.24500000	      2.06000144	      0.28705410	      1.04420873
      6.25000000	      2.06032992	      0.28707699	      1.04433816
      6.25500000	      2.06065828	      0.28709986	      1.04446562
      6.26000000	      2.06098097	      0.28712234	      1.04459066
      6.26500000	      2.06130083	      0.28714462	      1.04471305
      6.27000000	      2.06161236	      0.28716632	      1.04483236
      6.27500000	      2.06191916	      0.28718769	      1.04494833
      6.28000000	      2.06222113	      0.28720871	      1.04506073
      6.28500000	      2.06251378	      0.28722909	      1.04516937
      6.29000000	      2.06280209	      0.28724917	      1.04527412
      6.29500000	      2.06308242	      0.28726868	      1.04537490
      6.30000000	      2.06335659	      0.28728777	      1.04547164
      6.30500000	      2.06362537	      0.28730648	      1.04556417
      6.31000000	      2.06388815	      0.28732477	      1.04565229
      6.31500000	      2.06414354	      0.28734255	      1.04573585
      6.32000000	      2.06439485	      0.28736004	      1.04581472
      6.32500000	      2.06463739	      0.28737692	      1.04588875
      6.33000000	      2.06487913	      0.28739375	      1.04595781
      6.33500000	      2.06511096	      0.28740988	      1.04602174
      6.34000000	      2.06534101	      0.28742589	      1.04608031
      6.34500000	      2.06556403	      0.28744140	      1.04613330
      6.35000000	      2.06578354	      0.28745668	      1.04618060
      6.35500000	      2.06599383	      0.28747131	      1.04622204
      6.36000000	      2.06619544	      0.28748533	      1.04625746
      6.36500000	      2.06638688	      0.28749865	      1.04628674
      6.37000000	      2.06656702	      0.28751118	      1.04630988
      6.37500000	      2.06672942	      0.28752248	      1.04632684
      6.38000000	      2.06687507	      0.28753261	      1.04633768
      6.38500000	      2.06700289	      0.28754150	      1.04634243
      6.39000000	      2.06711369	      0.28754921	      1.04634124
      6.39500000	      2.06720951	      0.28755587	      1.04633428
      6.40000000	      2.06728345	      0.28756102	      1.04632166
      6.40500000	      2.06734470	      0.28756528	      1.04630377
      6.41000000	      2.06739076	      0.28756848	      1.04628083
      6.41500000	      2.06742340	      0.28757075	      1.04625325
      6.42000000	      2.06744233	      0.28757207	      1.04622139
      6.42500000	      2.06745529	      0.28757297	      1.04618567
      6.43000000	      2.06745705	      0.28757309	      1.04614658
      6.43500000	      2.06745601	      0.28757302	      1.04610450
      6.44000000	      2.06745450	      0.28757291	      1.04605985
      6.44500000	      2.06745202	      0.28757274	      1.04601300
      6.45000000	      2.06745144	      0.28757270	      1.04596442
      6.45500000	      2.06745352	      0.28757284	      1.04591436
      6.46000000	      2.06745754	      0.28757312	      1.04586314
      6.46500000	      2.06746311	      0.28757351	      1.04581094
      6.47000000	      2.06747226	      0.28757415	      1.04575806
      6.47500000	      2.06747410	      0.28757428	      1.04570452
      6.48000000	      2.06747742	      0.28757451	      1.04565048
      6.48500000	      2.06747447	      0.28757430	      1.04559598
      6.49000000	      2.06746731	      0.28757380	      1.04554096
      6.49500000	      2.06745157	      0.28757271	      1.04548547
      6.50000000	      2.06743376	      0.28757147	      1.04542944
      6.50500000	      2.06740488	      0.28756946	      1.04537274
      6.51000000	      2.06737258	      0.28756721	      1.04531529
      6.51500000	      2.06733802	      0.28756481	      1.04525704
      6.52000000	      2.06729773	      0.28756201	      1.04519792
      6.52500000	      2.06725986	      0.28755938	      1.04513795
      6.53000000	      2.06722420	      0.28755690	      1.04507707
      6.53500000	      2.06719132	      0.28755461	      1.04501534
      6.54000000	      2.06716307	      0.28755264	      1.04495264
      6.54500000	      2.06714025	      0.28755106	      1.04488897
      6.55000000	      2.06712212	      0.28754980	      1.04482435
      6.55500000	      2.06710590	      0.28754867	      1.04475873
      6.56000000	      2.06709035	      0.28754759	      1.04469205
      6.56500000	      2.06707248	      0.28754634	      1.04462424
      6.57000000	      2.06704863	      0.28754468	      1.04455521
      6.57500000	      2.06701930	      0.28754264	      1.04448495
      6.58000000	      2.06698102	      0.28753998	      1.04441344
      6.58500000	      2.06693057	      0.28753647	      1.04434068
      6.59000000	      2.06686658	      0.28753202	      1.04426681
      6.59500000	      2.06678594	      0.28752641	      1.04419195
      6.60000000	      2.06669340	      0.28751998	      1.04411636
      6.60500000	      2.06658513	      0.28751244	      1.04404026
      6.61000000	      2.06646794	      0.28750429	      1.04396397
      6.61500000	      2.06633840	      0.28749528	      1.04388765
      6.62000000	      2.06619932	      0.28748560	      1.04381151
      6.62500000	      2.06605324	      0.28747544	      1.04373564
      6.63000000	      2.06590841	      0.28746537	      1.04366019
      6.63500000	      2.06575561	      0.28745473	      1.04358524
      6.64000000	      2.06560727	      0.28744441	      1.04351091
      6.64500000	      2.06545923	      0.28743411	      1.04343740
      6.65000000	      2.06531042	      0.28742376	      1.04336483
      6.65500000	      2.06516412	      0.28741358	      1.04329347
      6.66000000	      2.06503216	      0.28740440	      1.04322351
      6.66500000	      2.06487396	      0.28739339	      1.04315503
      6.67000000	      2.06473036	      0.28738339	      1.04308828
      6.67500000	      2.06459110	      0.28737370	      1.04302331
      6.68000000	      2.06445815	      0.28736445	      1.04296017
      6.68500000	      2.06432913	      0.28735547	      1.04289890
      6.69000000	      2.06421135	      0.28734727	      1.04283944
      6.69500000	      2.06409894	      0.28733945	      1.04278169
      6.70000000	      2.06399785	      0.28733241	      1.04272566
      6.70500000	      2.06390614	      0.28732603	      1.04267128
      6.71000000	      2.06382374	      0.28732029	      1.04261847
      6.71500000	      2.06374963	      0.28731513	      1.04256718
      6.72000000	      2.06368122	      0.28731037	      1.04251737
      6.72500000	      2.06361785	      0.28730596	      1.04246904
      6.73000000	      2.06355548	      0.28730162	      1.04242209
      6.73500000	      2.06349321	      0.28729728	      1.04237660
      6.74000000	      2.06342932	      0.28729283	      1.04233256
      6.74500000	      2.06336172	      0.28728813	      1.04228989
      6.75000000	      2.06329175	      0.28728326	      1.04224860
      6.75500000	      2.06321777	      0.28727811	      1.04220871
      6.76000000	      2.06314307	      0.28727291	      1.04217020
      6.76500000	      2.06306726	      0.28726763	      1.04213311
      6.77000000	      2.06300441	      0.28726325	      1.04209732
      6.77500000	      2.06292408	      0.28725766	      1.04206283
      6.78000000	      2.06285936	      0.28725315	      1.04202932
      6.78500000	      2.06280717	      0.28724952	      1.04199658
      6.79000000	      2.06274903	      0.28724547	      1.04196426
      6.79500000	      2.06270286	      0.28724226	      1.04193192
      6.80000000	      2.06266221	      0.28723943	      1.04189924
      6.80500000	      2.06262142	      0.28723659	      1.04186591
      6.81000000	      2.06258343	      0.28723394	      1.04183176
      6.81500000	      2.06254466	      0.28723124	      1.04179671
      6.82000000	      2.06250621	      0.28722856	      1.04176061
      6.82500000	      2.06246088	      0.28722541	      1.04172350
      6.83000000	      2.06242001	      0.28722256	      1.04168546
      6.83500000	      2.06237014	      0.28721909	      1.04164663
      6.84000000	      2.06232070	      0.28721565	      1.04160703
      6.84500000	      2.06227117	      0.28721220	      1.04156689
      6.85000000	      2.06222099	      0.28720870	      1.04152628
      6.85500000	      2.06217171	      0.28720527	      1.04148524
      6.86000000	      2.06212315	      0.28720189	      1.04144377
      6.86500000	      2.06207522	      0.28719855	      1.04140177
      6.87000000	      2.06202779	      0.28719525	      1.04135906
      6.87500000	      2.06198084	      0.28719198	      1.04131536
      6.88000000	      2.06193353	      0.28718869	      1.04127039
      6.88500000	      2.06188554	      0.28718534	      1.04122390
      6.89000000	      2.06183639	      0.28718192	      1.04117563
      6.89500000	      2.06179525	      0.28717906	      1.04112546
      6.90000000	      2.06173860	      0.28717511	      1.04107328
      6.90500000	      2.06168781	      0.28717157	      1.04101917
      6.91000000	      2.06163822	      0.28716812	      1.04096317
      6.91500000	      2.06158782	      0.28716461	      1.04090537
      6.92000000	      2.06153669	      0.28716105	      1.04084590
      6.92500000	      2.06148611	      0.28715753	      1.04078477
      6.93000000	      2.06142560	      0.28715331	      1.04072204
      6.93500000	      2.06136937	      0.28714939	      1.04065768
      6.94000000	      2.06129746	      0.28714439	      1.04059162
      6.94500000	      2.06122984	      0.28713968	      1.04052380
      6.95000000	      2.06115246	      0.28713429	      1.04045415
      6.95500000	      2.06107540	      0.28712892	      1.04038252
      6.96000000	      2.06099873	      0.28712358	      1.04030878
      6.96500000	      2.06092489	      0.28711843	      1.04023291
      6.97000000	      2.06085247	      0.28711339	      1.04015482
      6.97500000	      2.06078307	      0.28710856	      1.04007448
      6.98000000	      2.06071300	      0.28710367	      1.03999190
      6.98500000	      2.06063995	      0.28709859	      1.03990707
      6.99000000	      2.06057126	      0.28709380	      1.03982015
      6.99500000	      2.06049830	      0.28708872	      1.03973116
      7.00000000	      2.06041556	      0.28708295	      1.03964026
      7.00500000	      2.06033206	      0.28707714	      1.03954745
      7.01000000	      2.06024086	      0.28707078	      1.03945277
      7.01500000	      2.06014415	      0.28706405	      1.03935611
      7.02000000	      2.06004367	      0.28705704	      1.03925740
      7.02500000	      2.05993802	      0.28704968	      1.03915648
      7.03000000	      2.05983057	      0.28704220	      1.03905316
      7.03500000	      2.05971915	      0.28703443	      1.03894723
      7.04000000	      2.05960255	      0.28702631	      1.03883858
      7.04500000	      2.05948174	      0.28701789	      1.03872700
      7.05000000	      2.05935325	      0.28700894	      1.03861240
      7.05500000	      2.05921930	      0.28699960	      1.03849475
      7.06000000	      2.05908034	      0.28698992	      1.03837402
      7.06500000	      2.05893062	      0.28697949	      1.03825012
      7.07000000	      2.05877346	      0.28696853	      1.03812300
      7.07500000	      2.05860508	      0.28695680	      1.03799250
      7.08000000	      2.05842361	      0.28694415	      1.03785833
      7.08500000	      2.05822868	      0.28693056	      1.03772030
      7.09000000	      2.05801960	      0.28691599	      1.03757799
      7.09500000	      2.05779600	      0.28690040	      1.03743113
      7.10000000	      2.05755772	      0.28688379	      1.03727941
      7.10500000	      2.05730458	      0.28686614	      1.03712264
      7.11000000	      2.05703544	      0.28684738	      1.03696076
      7.11500000	      2.05675003	      0.28682748	      1.03679369
      7.12000000	      2.05644665	      0.28680632	      1.03662142
      7.12500000	      2.05612409	      0.28678383	      1.03644383
      7.13000000	      2.05578040	      0.28675986	      1.03626075
      7.13500000	      2.05541386	      0.28673429	      1.03607198
      7.14000000	      2.05502372	      0.28670708	      1.03587707
      7.14500000	      2.05460340	      0.28667776	      1.03567572
      7.15000000	      2.05415487	      0.28664646	      1.03546745
      7.15500000	      2.05367378	      0.28661289	      1.03525182
      7.16000000	      2.05315630	      0.28657678	      1.03502820
      7.16500000	      2.05259994	      0.28653795	      1.03479593
      7.17000000	      2.05199979	      0.28649606	      1.03455437
      7.17500000	      2.05135193	      0.28645083	      1.03430276
      7.18000000	      2.05065581	      0.28640222	      1.03404037
      7.18500000	      2.04989752	      0.28634926	      1.03376655
      7.19000000	      2.04908439	      0.28629246	      1.03348074
      7.19500000	      2.04821095	      0.28623144	      1.03318242
      7.20000000	      2.04727610	      0.28616611	      1.03287121
      7.20500000	      2.04627501	      0.28609614	      1.03254676
      7.21000000	      2.04521072	      0.28602173	      1.03220904
      7.21500000	      2.04408206	      0.28594280	      1.03185819
      7.22000000	      2.04289234	      0.28585957	      1.03149476
      7.22500000	      2.04164492	      0.28577228	      1.03111970
      7.23000000	      2.04034905	      0.28568157	      1.03073446
      7.23500000	      2.03901296	      0.28558802	      1.03034088
      7.24000000	      2.03764633	      0.28549230	      1.02994144
      7.24500000	      2.03626207	      0.28539531	      1.02953919
      7.25000000	      2.03487481	      0.28529808	      1.02913791
      7.25500000	      2.03350200	      0.28520182	      1.02874183
      7.26000000	      2.03216203	      0.28510784	      1.02835602
      7.26500000	      2.03087459	      0.28501751	      1.02798611
      7.27000000	      2.02966256	      0.28493245	      1.02763816
      7.27500000	      2.02854886	      0.28485427	      1.02731851
      7.28000000	      2.02755430	      0.28478443	      1.02703338
      7.28500000	      2.02670074	      0.28472448	      1.02678834
      7.29000000	      2.02600450	      0.28467557	      1.02658809
      7.29500000	      2.02547236	      0.28463818	      1.02643537
      7.30000000	      2.02510714	      0.28461252	      1.02633027
      7.30500000	      2.02489457	      0.28459758	      1.02626908
      7.31000000	      2.02480814	      0.28459151	      1.02624313
      7.31500000	      2.02478576	      0.28458993	      1.02623758
