CEINMS output
datacolumns 11
datarows 203
endheader
time	hip_flexion_r	hip_adduction_r	hip_rotation_r	knee_angle_r	ankle_angle_r	hip_flexion_l	hip_adduction_l	hip_rotation_l	knee_angle_l	ankle_angle_l	
0.015	-29.8494	-16.8124	11.1279	16.4945	-13.1752	-8.53964	-14.3438	-11.0586	5.66872	1.03229	
0.015	-20.0241	-24.4808	14.6445	16.9833	-12.3699	3.43532	0.804303	-10.3287	6.27704	1.66153	
0.015	-8.65985	-32.8336	17.484	20.206	-11.4874	8.00383	16.6831	-12.9424	7.65625	2.47532	
0.019969	-1.986	-37.8654	17.6376	24.2475	-10.5	2.67475	11.3349	-15.1123	8.43308	2.83713	
0.024937	-3.21681	-39.4499	15.3783	27.2298	-9.47702	-0.975439	2.43588	-15.8328	8.08228	2.57962	
0.029906	-16.2745	-39.1051	12.3153	29.5178	-8.48723	-0.467319	-3.7277	-14.9442	7.38833	2.07149	
0.035091	-34.1937	-36.8399	8.83118	31.2648	-7.55526	2.21785	-9.29396	-12.2824	6.9395	1.63934	
0.040059	-46.3374	-31.2979	6.25135	32.2267	-6.68552	4.93929	-13.0784	-9.45946	6.69781	1.37175	
0.045028	-47.9727	-19.1605	5.93766	32.2795	-5.81115	7.08103	-15.9411	-6.86338	6.55894	1.23334	
0.049997	-44.1627	-7.72606	6.72278	31.2352	-4.99099	10.7579	-18.7678	-4.24399	6.43387	1.17336	
0.054965	-37.0692	-1.42212	6.9842	28.9263	-4.20688	16.8855	-21.7266	-1.85147	6.30166	1.16264	
0.059934	-27.8131	0.754566	6.61145	25.4419	-3.47942	24.6569	-24.8077	-0.209012	6.15551	1.27375	
0.064903	-20.5443	0.182729	6.0931	21.3517	-2.81005	33.5154	-25.5298	1.49953	5.99069	1.49434	
0.070087	-18.3541	-2.07468	5.56278	17.3946	-2.17906	42.8224	-22.1834	2.74701	5.80931	1.73389	
0.075056	-21.3055	-5.45187	4.9952	13.8131	-0.661727	51.058	-16.3125	3.11378	5.61813	1.98906	
0.080025	-25.4103	-9.12537	4.26569	10.7056	2.01311	58.4047	-8.87393	3.09027	5.44873	2.24357	
0.084994	-27.5439	-13.2272	3.85392	7.62443	5.02619	64.2433	-1.42848	3.12924	5.31262	2.50511	
0.089962	-29.7545	-17.684	3.67909	5.39777	8.15526	69.0122	6.46662	3.11342	5.2113	2.73514	
0.094931	-32.1458	-22.0911	3.47344	4.33967	11.2329	72.5435	14.4731	2.8763	5.14865	2.95336	
0.100116	-34.3471	-27.3261	4.13368	4.41535	14.2903	74.3068	21.4486	2.5354	4.6867	3.1255	
0.105084	-32.1708	-32.7065	5.61354	4.91219	15.7703	74.1727	26.8055	2.21894	3.92596	3.24461	
0.110053	-24.3009	-37.7308	7.59054	5.02095	14.7953	71.7848	30.2973	1.71105	3.90435	3.32476	
0.115022	-19.2434	-43.9935	6.5729	4.34214	12.9195	66.4817	31.2565	0.742046	3.78707	3.34362	
0.11999	-19.0948	-50.721	4.95582	3.18238	11.801	58.9354	30.1703	-0.530308	3.56352	3.3106	
0.124959	-22.0801	-55.4094	3.76676	2.15557	11.3283	49.4539	27.3494	-1.87222	3.36154	3.23041	
0.129928	-26.8802	-58.382	2.95815	1.62214	10.2735	38.5729	23.3004	-3.1321	3.23359	3.11613	
0.135112	-30.9535	-61.0703	1.83048	1.23659	8.91763	27.5257	19.2018	-4.00484	0.541628	2.97457	
0.140081	-33.5354	-63.8946	0.705154	0.946535	7.20083	16.3406	14.1916	-3.9251	-0.592252	2.8271	
0.14505	-34.5456	-66.7904	-0.214386	0.702501	5.2198	5.53746	8.62216	-2.88825	-0.280732	2.67635	
0.150018	-34.6188	-69.6319	-0.948536	0.48884	2.93911	-3.44252	3.5765	-1.51951	-0.0800851	2.52598	
0.154987	-34.04	-72.1267	-1.60824	0.308257	0.523819	-10.1247	-1.08373	-0.2698	-0.068032	2.42826	
0.159956	-32.8392	-74.131	-2.1615	0.122895	-1.79684	-14.7665	-5.38694	1.06146	0.0211687	2.33787	
0.164924	-31.1178	-75.5794	-2.5649	0.346818	-4.78003	-17.3612	-9.09012	2.43128	0.276063	2.29794	
0.170109	-28.9398	-76.4775	-2.97805	0.982479	-7.60682	-18.0235	-12.1224	3.78076	0.652896	2.24734	
0.175078	-26.3345	-77.0556	-3.30621	1.33893	-9.34871	-16.9648	-14.3654	5.01015	1.08748	2.24096	
0.180046	-23.285	-77.3112	-3.50557	1.30869	-10.3394	-14.5264	-15.8604	6.06038	0.54344	2.29263	
0.185015	-19.4823	-77.3249	-3.33123	1.02818	-11.0229	-10.5991	-16.7272	6.9173	-1.79327	2.29169	
0.189984	-16.0052	-76.9692	-3.17918	0.708074	-11.8793	-6.00871	-17.0417	7.61025	-5.42912	2.32373	
0.194952	-13.4337	-76.2645	-3.22091	0.640432	-13.07	-0.952181	-16.0724	7.86024	-9.38607	2.36035	
0.199921	-11.0257	-75.4324	-3.09475	0.870111	-14.367	4.00532	-13.8499	7.57234	-12.7862	2.38562	
0.205106	-8.34405	-74.6644	-2.54239	1.48799	-15.4621	7.93214	-12.0106	5.25124	-14.9317	2.40663	
0.210075	-5.84967	-74.0397	-1.85997	2.5408	-16.3526	9.84808	-11.609	3.22303	-15.7335	2.4134	
0.215043	-3.49498	-73.5725	-0.99474	4.20353	-17.9619	12.7291	-8.99414	2.66418	-15.732	2.40377	
0.220012	-1.3364	-73.2281	-0.0577941	6.04655	-19.9802	15.0663	-6.53825	2.6098	-15.5575	2.38179	
0.224981	0.63994	-72.8429	0.800179	7.36806	-21.5332	16.8858	-4.32628	3.18851	-15.5002	2.34065	
0.229949	2.3569	-72.547	1.35891	8.15439	-23.293	18.4929	-2.48021	3.27	-15.5099	2.2826	
0.234918	3.8751	-72.2793	1.16851	8.20141	-25.3382	19.7598	-1.08416	3.45419	-15.3856	2.21551	
0.240103	5.26702	-71.7158	0.430168	7.37461	-27.6174	20.8293	-0.0916524	3.73864	-14.9805	2.1252	
0.245071	6.65922	-70.8538	-0.614265	5.95565	-30.0714	21.8832	0.420603	4.04686	-14.3207	2.02281	
0.25004	7.89919	-69.6208	-1.8082	4.52866	-32.3876	22.9365	0.371064	4.34741	-13.5747	1.91474	
0.255009	8.61819	-67.8203	-2.85672	3.72554	-34.3783	23.4048	0.126591	4.51595	-12.974	1.79468	
0.259977	8.90526	-65.5818	-3.62506	3.55935	-35.9476	23.2936	-0.25774	4.69078	-12.7787	1.66621	
0.264946	9.02345	-63.1301	-4.20327	3.74427	-37.2629	21.9513	-1.30543	4.71809	-13.1658	1.53295	
0.269915	9.11923	-60.5736	-4.60607	3.98596	-38.4217	20.0528	-2.89658	4.39441	-14.1836	1.40553	
0.275099	9.28677	-57.9537	-4.92337	4.15516	-39.5123	16.9512	-3.19492	3.83688	-15.742	1.27964	
0.280068	9.63331	-55.322	-5.16121	4.17003	-40.5722	12.4955	-3.07863	3.35866	-17.6061	1.15895	
0.285037	10.4113	-52.8742	-5.114	4.01019	-41.6325	8.31638	-4.10836	3.7126	-19.4091	1.05071	
0.290005	11.755	-50.6343	-4.8428	3.27838	-43.1648	4.42216	-6.38018	4.67968	-20.6828	0.958587	
0.294974	13.4686	-48.5385	-4.9803	1.58974	-45.8013	0.510558	-9.36552	5.57744	-20.9295	0.879128	
0.299943	15.8426	-46.2848	-5.08594	-0.273148	-46.4295	-3.27915	-10.5247	6.04867	-19.5508	0.82504	
0.304911	18.6002	-44.2787	-5.1966	-0.75088	-47.0007	-6.70444	-8.09576	5.79567	-16.1662	0.787988	
0.310096	22.7308	-41.8246	-4.94466	-0.507214	-47.5923	-9.58772	-5.11606	5.2368	-11.4289	0.770906	
0.315065	26.399	-40.6143	-4.19602	-0.483922	-48.2119	-11.4952	-4.49554	4.60857	-6.57798	0.780598	
0.320033	27.9521	-40.5324	-3.57686	-0.105908	-48.8589	-13.1836	-5.67169	4.10785	-2.25119	0.812566	
0.325002	27.6601	-39.8099	-2.95686	1.34647	-49.5253	-14.9745	-6.85343	3.69809	1.30741	0.865518	
0.329971	25.481	-38.3598	-2.33248	4.12113	-50.2303	-15.5887	-7.58059	3.35242	3.98684	0.935602	
0.33494	22.9644	-36.5833	-1.84263	5.38192	-50.401	-15.7922	-8.50839	3.9435	5.83769	1.01963	
0.339908	18.4893	-33.7573	-1.88956	4.61453	-51.5645	-15.5477	-9.42038	4.9412	6.82813	1.11557	
0.345093	15.1067	-32.288	-2.30501	2.99297	-52.41	-15.062	-10.5685	6.33415	6.86188	1.22139	
0.350062	12.9244	-31.8219	-2.71934	1.34166	-53.1636	-13.402	-11.1184	7.33346	6.51591	1.33258	
0.35503	14.0055	-30.8493	-2.84193	0.162638	-53.957	-10.6975	-11.1526	7.65445	6.1079	1.44364	
0.359999	14.561	-31.6287	-2.76132	-0.477481	-54.7922	-7.7472	-11.0398	6.98392	5.7917	1.55441	
0.364968	15.1059	-32.4471	-2.85995	-0.786512	-55.6617	-4.3517	-10.961	5.48819	5.53627	1.66411	
0.369936	15.4563	-33.8265	-3.08817	-1.00619	-56.5595	-0.663849	-10.705	3.72604	5.32168	1.76994	
0.374905	15.7207	-35.873	-3.42619	-1.27555	-57.4831	2.79687	-10.3678	3.11407	5.11759	1.86922	
0.38009	16.6279	-37.1368	-3.39182	-1.5915	-58.433	6.17347	-9.8868	2.47379	4.88994	1.96518	
0.385058	18.2993	-37.2179	-3.39955	-1.81878	-59.4181	9.37219	-9.3754	1.79229	4.63561	2.04809	
0.390027	20.3606	-37.3133	-3.74276	-1.76302	-60.4584	12.2599	-8.79746	1.16436	4.3735	2.12608	
0.394996	22.4769	-37.3018	-4.0975	-1.31855	-61.5643	14.6407	-8.27321	0.580054	4.14037	2.19901	
0.399964	24.5136	-37.1303	-4.43524	-0.510804	-62.7515	16.3794	-7.89878	0.0830366	3.9774	2.26062	
0.404933	26.3954	-36.8139	-4.79218	0.550898	-64.0329	17.335	-7.75273	-0.270722	3.88596	2.3176	
0.409902	28.063	-36.3888	-5.16321	1.68646	-65.4272	17.3969	-7.91219	-0.436683	3.94459	2.36569	
0.415086	29.4868	-35.9495	-5.54698	2.65782	-66.9457	16.582	-8.39978	-0.451055	3.93502	2.40543	
0.420055	30.6862	-35.6236	-5.94937	3.33031	-68.6045	14.7599	-9.27039	-0.284444	3.97599	2.43591	
0.425024	31.7185	-35.5034	-6.36147	3.63361	-70.4175	11.952	-10.5537	0.0266869	4.16336	2.45523	
0.429992	32.685	-35.6672	-6.77367	3.30547	-72.388	8.21245	-12.2137	0.458224	4.50941	2.4619	
0.434961	33.676	-36.1415	-7.17253	2.49916	-74.5158	3.61978	-14.1302	0.996204	5.2755	2.45359	
0.43993	34.7816	-36.9332	-7.55675	1.51507	-76.7975	-1.62338	-16.1339	1.59469	6.64141	2.42842	
0.445114	36.0597	-38.0252	-7.92703	0.576186	-79.2177	-7.30117	-18.1776	2.16635	8.40612	2.38323	
0.450083	37.527	-39.3995	-8.2889	-0.225655	-81.7665	-13.2529	-20.0125	2.69581	10.1646	2.3152	
0.455052	39.1509	-41.0142	-8.64577	-0.816925	-84.4446	-19.1274	-21.4074	3.29711	11.7392	2.22161	
0.460021	40.873	-42.8053	-8.99475	-0.765321	-87.2605	-24.6551	-22.2808	3.70341	13.0331	2.1006	
0.464989	42.665	-44.7056	-9.33272	-0.281305	-90.1514	-29.5666	-22.4585	3.8177	14.1665	1.95064	
0.469958	44.5324	-46.6521	-9.6446	0.139556	-93.1193	-33.6059	-21.7877	3.6226	15.1843	1.77145	
0.474927	46.4082	-48.579	-9.8881	0.337592	-96.028	-36.7953	-19.9634	3.35905	16.0819	1.5649	
0.480111	48.1206	-50.3737	-10.0076	0.228542	-98.9995	-39.166	-16.776	3.22132	16.809	1.33176	
0.48508	49.5221	-51.8219	-10.1648	-0.0668498	-101.97	-40.626	-12.4997	3.07143	17.3528	1.07722	
0.490049	50.7295	-52.8402	-10.3031	-0.552065	-104.982	-41.252	-7.35329	2.92067	17.7091	0.817806	
0.495017	51.7214	-53.6658	-10.3551	-1.38401	-107.854	-41.2004	-1.64415	2.78941	17.8771	0.587681	
0.499986	52.5687	-54.4029	-10.3159	-2.77486	-110.589	-40.6691	4.2291	2.69312	17.8644	0.410488	
0.504955	53.4594	-55	-10.278	-4.85856	-113.191	-39.8844	9.8227	2.63683	17.6819	0.287998	
0.509923	54.5712	-55.4954	-10.2327	-7.30958	-115.995	-39.0582	14.6798	2.61645	17.3488	0.20855	
0.515108	56.086	-55.9846	-10.1754	-8.90254	-118.583	-38.3423	18.3576	2.61637	16.8938	0.158816	
0.520077	58.3767	-56.0399	-10.0263	-9.64416	-120.929	-37.8612	20.5448	2.62039	16.3555	0.129238	
0.525045	60.4528	-56.7768	-9.78213	-10.3368	-123.081	-37.614	20.9896	2.60431	15.7689	0.11473	
0.530014	62.4986	-57.1684	-9.38129	-10.7715	-124.965	-37.5451	19.6292	2.55144	15.1623	0.113798	
0.534983	64.3136	-56.4272	-8.84849	-11.0826	-126.317	-37.5154	16.5452	2.45168	14.5479	0.126435	
0.539951	65.3566	-54.6544	-8.25278	-11.2018	-126.769	-37.3389	11.9811	2.30543	13.9254	0.151494	
0.54492	66.0134	-51.7622	-7.74113	-10.9614	-126.964	-36.8005	6.30144	2.15358	13.2787	0.185777	
0.550105	65.135	-49.1209	-7.66022	-10.5489	-126.947	-35.6961	-0.0496514	1.97006	12.5855	0.225391	
0.555073	62.938	-47.0138	-7.96318	-10.1735	-126.312	-33.9424	-6.40745	1.85153	11.8264	0.263792	
0.560042	61.3841	-43.5106	-8.61914	-9.65014	-125.359	-31.3986	-12.2666	2.04765	11.0257	0.289177	
0.565011	59.9225	-39.8248	-9.56536	-9.09588	-123.908	-28.1469	-17.0346	2.67627	10.2704	0.305613	
0.569979	59.0531	-36.5963	-10.2685	-8.49262	-122.216	-24.175	-20.522	3.47412	9.61454	0.31911	
0.574948	59.4599	-34.456	-10.1359	-8.14493	-120.032	-19.5761	-23.3701	4.22558	8.7988	0.530258	
0.579917	61.6335	-33.8083	-9.51576	-8.34965	-117.483	-14.1443	-25.5461	4.53858	7.68561	0.79707	
0.585102	65.3908	-34.3956	-9.04997	-9.4637	-114.062	-16.0429	-29.0819	6.76582	7.0478	2.34615	
0.59007	69.6507	-35.1777	-8.7265	-10.8617	-109.695	-26.8685	-32.9522	9.43932	7.08888	5.3941	
0.595039	73.4267	-35.3197	-8.29412	-11.9628	-104.302	-39.2689	-32.5572	8.65615	7.51551	8.68829	
0.600008	75.7089	-33.9408	-7.50789	-12.6386	-98.0943	-46.6482	-24.0879	5.13487	8.04776	11.4109	
0.604976	75.8413	-30.189	-7.14845	-12.9371	-91.347	-46.0875	-10.579	2.05977	8.4549	12.5233	
0.609945	74.2253	-25.7135	-6.86218	-13.1863	-83.9093	-41.4479	1.92306	0.877283	8.64215	13.8056	
0.614914	72.1245	-21.2436	-6.49847	-13.6891	-75.6639	-36.9023	10.1916	0.436937	8.39737	15.307	
0.620098	70.0882	-17.1059	-6.22813	-14.5764	-67.2153	-34.6834	12.4127	0.0799228	7.53701	15.8402	
0.625067	68.2609	-13.6117	-5.87917	-15.7125	-58.9969	-33.26	10.9062	0.885767	6.26459	15.8906	
0.630036	66.6709	-10.4441	-5.59908	-16.7772	-51.2179	-32.5226	7.72923	1.57448	4.98132	15.459	
0.635004	65.2445	-7.38612	-5.38601	-17.443	-43.5692	-32.3378	4.12086	2.43654	4.07571	14.6575	
0.639973	64.12	-4.25351	-5.30361	-17.9963	-36.935	-32.3543	0.470319	3.63484	3.57527	13.6155	
0.644942	63.7686	-1.07449	-5.30309	-18.244	-33.2473	-31.9095	-3.89632	4.85429	3.38002	12.438	
0.64991	64.5198	2.06135	-5.48022	-18.7607	-31.5294	-30.506	-9.49661	5.76619	3.43011	11.1587	
0.655095	66.322	4.86839	-5.78266	-19.2128	-29.9762	-29.2157	-14.8695	6.54789	3.6704	9.80217	
0.660064	67.5173	7.60032	-6.1093	-19.1293	-25.2294	-28.4512	-19.493	7.26376	4.0903	8.40789	
0.665032	66.9567	10.0957	-6.4465	-18.7761	-17.0041	-28.4195	-23.3485	7.86667	4.63648	7.03934	
0.670001	64.2639	12.0741	-6.69801	-17.7837	-11.8923	-29.199	-26.6648	8.41853	5.22315	5.75485	
0.67497	59.6793	13.4228	-6.83366	-15.8012	-8.26835	-30.6911	-29.8048	8.9477	5.78686	4.5824	
0.679938	53.9839	13.9046	-6.85569	-13.1042	-5.20884	-32.7716	-32.9275	9.44701	6.26748	3.50032	
0.684907	47.7551	13.5578	-6.7996	-11.4056	-2.8814	-35.2724	-35.9872	9.9275	6.59014	2.47685	
0.690092	41.7126	12.3614	-6.5254	-8.87067	-1.20955	-37.7961	-38.9546	10.3219	6.74431	1.56065	
0.69506	36.2186	10.5359	-6.05591	-6.68662	-0.117731	-39.8496	-41.8148	10.6792	6.80892	0.839641	
0.700029	31.2335	8.58897	-5.49338	-6.07674	0.470965	-40.948	-44.5872	10.9888	6.89902	0.353665	
0.704998	23.0854	6.82047	-5.31103	-5.18876	2.28021	-40.9097	-47.2457	11.2472	7.12897	0.0755365	
0.709967	17.1874	5.2544	-4.67672	-3.45909	3.96623	-39.6329	-49.7864	11.3815	7.56694	-0.0792838	
0.714935	14.128	3.42481	-4.08642	-1.80001	4.27936	-37.631	-51.7024	11.5476	8.16991	-0.207786	
0.719904	12.1002	1.8818	-3.53666	-1.61142	3.55945	-34.5991	-53.0876	11.5088	8.90561	-0.408454	
0.725089	10.9637	0.81981	-3.06865	-2.6507	2.92897	-30.8679	-53.5982	11.3399	9.68353	-0.645189	
0.730057	10.6461	0.145653	-2.70403	-4.01547	3.37592	-26.582	-53.2199	11.0264	10.3801	-0.900066	
0.735026	10.8696	-0.107123	-2.4743	-5.30877	3.36727	-21.9726	-52.0898	10.5858	10.8485	-1.11522	
0.739995	11.4939	-0.0142484	-2.30729	-6.31914	3.19751	-17.2811	-50.4342	10.0521	10.909	-1.29371	
0.744963	12.2727	0.344726	-2.32088	-7.15352	2.61663	-12.8611	-48.4697	9.40031	10.3798	-1.48833	
0.749932	12.9208	0.949574	-2.38562	-7.95352	3.02844	-8.92306	-46.3793	8.7396	9.06155	-1.68585	
0.754901	13.2923	1.69563	-2.51515	-8.75962	2.55419	-5.67508	-44.2683	8.06148	7.18022	-1.84881	
0.760085	13.2717	2.47152	-2.69172	-9.50591	2.56715	-3.2075	-42.2602	7.39238	5.40019	-1.9917	
0.765054	12.8223	3.2073	-2.87329	-10.086	2.35181	-1.51516	-40.5091	6.74362	4.09588	-2.12723	
0.770023	11.9954	3.8261	-3.03314	-10.4575	2.11427	-0.523454	-39.1427	6.15552	3.33265	-2.25587	
0.774991	10.8745	4.26358	-3.1708	-10.742	1.78908	-0.110135	-38.2525	5.63899	2.9003	-2.37396	
0.77996	9.55239	4.49406	-3.27107	-10.9392	1.49814	-0.129729	-37.902	5.2022	2.74324	-2.40874	
0.784929	8.17229	4.48153	-3.31633	-10.9302	1.29166	-0.368527	-38.1767	4.82045	2.72614	-2.40271	
0.790113	6.88266	4.20123	-3.28929	-10.5514	1.13433	-0.586396	-39.0654	4.47972	2.75628	-2.49678	
0.795082	5.83723	3.62773	-3.17048	-9.59595	0.968082	-0.544089	-40.537	4.18152	2.88885	-2.64088	
0.800051	5.03229	2.80454	-2.97236	-7.81349	0.806793	-0.108316	-42.4153	3.89107	3.17372	-2.75341	
0.805019	4.48347	1.76132	-2.6882	-5.61333	0.549122	0.385032	-44.1395	3.74391	3.53108	-2.83321	
0.809988	4.22329	0.518961	-2.32835	-4.08524	-2.26344	0.689365	-45.2357	3.82522	3.76612	-2.87872	
0.814957	4.16795	-0.855273	-1.90354	-3.4662	-3.11676	0.872537	-45.6332	4.049	3.82309	-2.92148	
0.819925	4.28774	-2.31731	-1.42718	-3.22309	-2.64764	0.694735	-45.2461	4.57774	3.77789	-2.96163	
0.82511	4.50018	-3.79945	-0.918271	-2.85416	-1.96972	3.43787	-45.8068	3.82302	3.68407	-2.99533	
0.830079	4.71305	-5.2234	-0.392724	-2.17921	-1.42257	7.03692	-48.0821	2.67696	3.58709	-3.02308	
0.835048	4.88218	-6.53726	0.123871	-1.29061	-0.923167	11.5148	-50.2623	1.2004	3.52966	-3.04392	
0.840016	4.9826	-7.69318	0.604562	-0.479642	-0.395417	14.5239	-50.8231	-0.320581	3.5116	-3.06067	
0.844985	4.94574	-8.62483	1.04094	-0.0177086	0.152488	14.5837	-49.6565	-0.399001	3.50299	-3.07461	
0.849954	4.78631	-9.31282	1.41039	0.308419	0.625369	14.5174	-48.4548	-0.156428	3.48686	-3.04664	
0.854922	4.51496	-9.74831	1.69631	0.798332	0.834813	14.7724	-47.6978	-0.53544	3.48397	-2.98204	
0.860107	4.14691	-9.93329	1.89398	1.46797	0.726558	14.6992	-46.9465	-0.919796	3.49835	-3.0034	
0.865076	3.72136	-9.88513	2.014	2.20724	0.586501	14.3827	-46.1608	-1.23799	3.52447	-3.07324	
0.870044	3.26758	-9.64807	2.0528	2.94352	0.659979	13.9561	-45.2915	-1.56715	3.55398	-3.1362	
0.875013	2.82629	-9.27066	2.02183	3.62224	0.886912	13.5019	-44.2666	-1.90888	3.59066	-3.15291	
0.879982	2.44055	-8.81586	1.93885	4.15762	1.06499	13.1082	-43.0372	-2.26611	3.63368	-3.16365	
0.88495	2.12135	-8.33946	1.82435	4.92397	1.06285	12.8532	-41.5912	-2.641	3.67271	-3.15425	
0.889919	1.93899	-7.9142	1.68572	6.74429	-0.0054098	12.7858	-39.9809	-3.02663	3.70338	-3.15954	
0.895104	1.64586	-7.45198	1.62669	10.0568	-0.770574	12.9145	-38.288	-3.43862	3.74204	-3.19261	
0.900072	1.38961	-7.075	1.7273	14.572	-0.643155	13.205	-36.6092	-3.86116	3.83002	-3.23814	
0.905041	0.745465	-6.60276	1.80023	19.7687	0.490509	13.6244	-35.0302	-4.29456	4.03036	-3.2836	
0.91001	0.350695	-6.4057	1.8162	24.057	1.31736	14.153	-33.6362	-4.72185	4.40849	-3.32292	
0.914978	1.62828	-7.21199	1.62941	26.1359	1.76452	14.7769	-32.512	-5.15649	4.99012	-3.36162	
0.919947	3.20883	-8.40906	1.20114	26.1849	1.72035	15.4884	-31.7351	-5.60114	5.75539	-3.39502	
0.924916	3.72434	-8.96683	1.15069	25.1774	1.85697	16.2798	-31.3619	-6.06313	6.61086	-3.42796	
0.9301	4.16885	-9.47073	1.18106	23.7213	2.02162	17.1774	-31.4603	-6.54025	7.41156	-3.45726	
0.935069	4.66953	-9.99229	1.15088	22.4975	2.13538	18.2205	-32.0655	-7.02328	8.01619	-3.2907	
0.940038	5.0068	-10.3102	1.16767	21.92	2.22749	19.4705	-33.1682	-7.52012	8.22244	-2.90903	
0.945006	5.14075	-10.3721	1.25289	22.208	2.32784	20.9493	-34.737	-8.00648	7.93548	-2.82829	
0.949975	5.09421	-10.1607	1.35594	23.1679	2.39498	22.6427	-36.6974	-8.48133	7.249	-2.97136	
0.954944	4.95939	-9.65872	1.28576	24.2787	2.43492	24.5289	-39.0007	-8.9464	6.41117	-3.22573	
0.959913	4.70797	-8.98076	0.940735	24.9975	2.39522	26.5582	-41.5885	-9.40244	5.66226	-3.50404	
0.965097	4.15511	-8.13941	0.441228	24.9744	2.15689	28.6429	-44.3682	-9.84806	5.12046	-3.74261	
0.970066	2.98513	-7.10687	0.129082	23.874	2.30308	30.6738	-47.2369	-10.2837	4.79937	-3.93586	
0.975035	1.14636	-6.09607	0.220245	22.2674	2.43809	32.5222	-50.0805	-10.705	4.62622	-4.07939	
0.980003	-1.40437	-5.17509	0.741403	20.9307	2.34383	34.026	-52.739	-11.1269	4.52798	-4.18185	
0.984972	-5.17967	-4.35713	1.44533	20.1514	2.09497	35.1528	-55.148	-11.5397	4.46423	-4.26946	
0.989941	-10.2476	-3.74941	2.12394	19.9068	1.80698	35.8351	-57.1942	-11.9467	4.42528	-4.3479	
0.994909	-15.7165	-3.61402	2.91033	20.0486	1.52221	35.9886	-58.7382	-12.3048	4.41829	-4.41773	
1.00009	-20.2289	-4.90762	3.66516	20.3938	1.21122	35.9821	-59.9773	-12.6787	4.45528	-4.48283	
1.00506	-24.4457	-6.94235	4.04003	20.7911	0.832739	35.8691	-60.8913	-13.0986	4.53517	-4.53877	
1.01003	-28.9834	-8.48689	4.1124	21.3379	0.349437	35.5676	-61.3891	-13.4523	4.63946	-4.54725	
1.015	-33.7345	-10.183	4.08163	22.4083	-0.245462	35.2078	-61.4871	-13.7341	4.74638	-4.57355	
