CEINMS output
datacolumns 81
datarows 92
endheader
time	addbrev_r	addlong_r	addmagDist_r	addmagIsch_r	addmagMid_r	addmagProx_r	bflh_r	bfsh_r	edl_r	ehl_r	fdl_r	fhl_r	gaslat_r	gasmed_r	glmax1_r	glmax2_r	glmax3_r	glmed1_r	glmed2_r	glmed3_r	glmin1_r	glmin2_r	glmin3_r	grac_r	iliacus_r	perbrev_r	perlong_r	piri_r	psoas_r	recfem_r	sart_r	semimem_r	semiten_r	soleus_r	tfl_r	tibant_r	tibpost_r	vasint_r	vaslat_r	vasmed_r	addbrev_l	addlong_l	addmagDist_l	addmagIsch_l	addmagMid_l	addmagProx_l	bflh_l	bfsh_l	edl_l	ehl_l	fdl_l	fhl_l	gaslat_l	gasmed_l	glmax1_l	glmax2_l	glmax3_l	glmed1_l	glmed2_l	glmed3_l	glmin1_l	glmin2_l	glmin3_l	grac_l	iliacus_l	perbrev_l	perlong_l	piri_l	psoas_l	recfem_l	sart_l	semimem_l	semiten_l	soleus_l	tfl_l	tibant_l	tibpost_l	vasint_l	vaslat_l	vasmed_l	
3.19	218.362	1.51842	1470.1	1495.38	2015.13	0	5148.38	4248.11	445.226	212.46	724.512	2242.88	807.511	5426.11	834.746	2461.36	2549.94	24264.7	15599.1	3296.34	3085.72	3272.9	3700.97	281.459	268.99	236.579	2019.63	2765.51	282.82	0.434382	371.947	14083.7	3782.39	19892.8	0.208509	694.588	2946.44	480.33	1556.04	774.296	33.9561	2321.75	330.426	320.325	262.011	23.462	105.274	110.609	773.685	1377.31	867.671	1993.3	1468.36	0	3.84121	18.966	0.935371	2040.77	609.294	9.55842e-10	282.443	691.459	0	9.16742	0.628099	2197.72	5357.08	0	2.45709	10663	471.999	6326.59	927.236	0	1.06485e-14	5934.09	8410.91	0	2.5609	0.00905458	
3.195	187.174	3.44631e-07	1279.49	1322.82	1724.36	0	4990.29	4693.62	463.08	221.799	721.222	2226.17	923.787	5851.11	677.934	2174.94	2203.11	24449.8	15440.2	2990.89	3126.64	3302.94	3709.56	281.225	352.973	233.759	2006.18	2578.11	359.378	9.51244	411.988	14203.2	3789.9	19140.5	23.9456	740.105	2925.93	373.191	1259.63	615.894	19.8508	2252.01	352.32	330.541	267.777	25.9625	7.7907	73.0177	779.078	1378.63	865.237	1987.05	1304.14	0	4.94295	24.0861	7.65942e-10	2496.64	801.677	8.29586e-07	317.947	211.968	0	1.3165e-06	14.005	2212.43	5355.69	0	7.37777	11005.6	459.195	5556.36	821.888	8.37433e-06	0	5942.42	8457.05	6.13418e-11	310.872	175.921	
3.2	180.328	1.89768e-07	1172.59	1212.15	1557.3	0	4852.25	5049.02	476.317	228.67	718.366	2211.16	1006.38	6188.41	617.793	2054.05	2035.09	24439	15258.2	2802.79	3125.48	3300.54	3706.28	281.614	394.468	232.202	1995.03	2396.56	398.476	24.2887	443.858	14261.3	3788.09	18535	45.1349	771.147	2908.6	314.005	1092.15	528.763	15.7357	2188.21	484.073	387.93	361.427	43.1797	14.9115	82.2985	782.736	1378.69	861.64	2009.32	1312.11	2.11965e-07	177.842	598.133	0	2157.14	854.462	6.81499e-07	318.939	123.66	3.28731e-11	41.598	20.4335	2259.85	5388.92	2.21935e-08	9.0504	10997.2	447.222	4963.77	813.486	5.09917e-10	8.33881e-09	5938.97	8361.55	0	467.118	265.066	
3.205	173.807	8.25721e-08	1079.42	1118.33	1407.52	0	4705.66	5404.34	486.112	233.714	715.78	2197.62	1066.45	6489.65	563.494	1945.01	1884.88	24410.3	15025.4	2622.28	3120.87	3295.8	3701.8	281.052	425.715	231.115	1985.1	2216.82	426.602	40.8078	476.165	14259.1	3775.17	18034.5	56.5773	792.11	2893.31	275.845	980.223	471.561	46.1593	2144.61	556.514	433.135	394.93	44.2352	47.2809	82.8088	784.967	1378.24	854.592	2034.55	1316.37	2.4079e-08	308.878	1308.54	66.5247	1931.88	173.585	0	634.831	293.223	2.80461e-10	106.718	189.562	2286.28	5417.44	0	418.194	10992.1	435.16	4402.35	766.48	0	5.63142e-09	5933.91	8317.37	1.47155e-07	480.744	271.52	
3.21	167.959	2.85994e-08	990.957	1027.57	1270.9	0	4538.05	5772.74	493.995	237.784	713.514	2185.94	1121.29	6795.7	505.19	1832.02	1739.15	24381.7	14729.6	2442.47	3116.31	3291.06	3697.42	279.942	459.846	230.19	1976.49	2038.93	457.064	56.3591	511.23	14193.7	3750.1	17621.2	63.7472	808.813	2880.11	242.153	879.523	420.102	101.193	2106.66	486.816	423.216	312.283	31.9658	66.7852	67.3151	785.832	1377.72	845.735	2052.36	1265.71	2.63002e-08	316.738	1640.25	143.8	1399.85	1.16554	2.24639e-08	946.611	458.048	1.32216e-11	132.495	521.653	2288.3	5429.38	2.39745e-05	1168.83	10985.6	422.217	3860.36	701.051	3.10984e-07	4.94363e-09	5929.47	8340.64	3.23835e-07	468.92	264.747	
3.215	163.771	0.000474015	910.088	942.016	1149.62	0.00925993	4349.15	6144.62	499.965	240.864	711.744	2176.84	1179.61	7116.53	446.273	1720.02	1602.02	24346.2	14362.1	2268.92	3110.52	3285.39	3692.55	278.356	496.604	229.54	1969.84	1866.8	489.381	71.246	549.065	14053.3	3710.71	17311.1	71.2689	821.296	2869.89	210.973	785.467	372.326	148.45	2052.38	332.618	352.686	191.274	20.9393	68.51	48.8428	784.962	1377.11	840.657	2064.83	1185.71	0.00145025	296.918	1686.66	133.51	1196.16	9.14236	0	1113.84	113.459	0	129.712	926.661	2284.03	5432.36	0	1862.16	10976.4	407.937	3371.91	642.837	0.0168893	0.000197166	5925.2	8388.27	0.00326832	467.028	267.37	
3.22	161.125	0.000455039	836.227	862.341	1043	0.00890117	4141.24	6512.47	503.4	242.62	710.604	2170.9	1242.49	7451.7	386.987	1608.41	1472.55	24305.7	13917.7	2104.35	3103.81	3279.07	3687.4	276.203	535.996	229.286	1965.62	1704.35	522.757	86.804	589.681	13829	3655.71	17122.4	80.2601	827.755	2863.43	184.313	703.886	331.369	174.007	1974.67	195.723	251.24	106.063	16.2533	64.6711	32.7311	782	1376.37	840.629	2074.84	1102.74	0.00139331	293.572	1673.5	128.537	863.215	22.9626	0	1198.76	25.574	0.0088499	117.039	1302.91	2282.27	5434.09	0.016463	2396.06	10964	392.295	2951.57	591.373	0.0181391	0.000189296	5921.26	8440.77	0.0035469	466.338	283.59	
3.225	160.062	0.000162971	768.67	787.612	950.4	0.00318764	3916.97	6868.86	503.882	242.84	710.188	2168.54	1309.74	7804.17	327.908	1497.15	1350.17	24261.4	13396.2	1951.17	3096.44	3272.31	3682.17	273.489	578.494	229.468	1964.12	1554.57	557.723	103.746	633.017	13519	3584.97	17066.7	90.2093	827.205	2861.22	162.579	636.089	297.701	182.801	1878.28	104.194	150.84	76.9063	15.4339	63.6747	18.4922	776.72	1375.52	844.041	2086.72	1030.54	0.000499011	300.582	1703.26	146.115	493.734	22.9108	0.00395461	1244.05	21.7593	0	106.105	1586.75	2283.65	5437.23	0	2632.27	10948.2	375.566	2592.43	544.416	0.00727279	6.78027e-05	5917.08	8493.14	0.0013954	459.166	313.074	
3.23	160.636	2.45257e-05	707.131	717.413	870.601	0.000465824	3680.18	7207.12	501.193	241.413	710.559	2170.1	1381.92	8179.3	269.929	1386.95	1234.43	24214.5	12802.2	1811.28	3088.57	3265.29	3676.99	270.276	624.302	230.086	1965.56	1420.76	594.691	121.502	678.921	13127.3	3499.36	17152.1	100.355	819.186	2863.59	144.899	579.833	269.973	183.921	1770.61	55.9629	81.4496	74.7899	15.0142	67.5032	5.8471	768.983	1374.6	850.579	2102.26	968.964	7.47415e-05	307.634	1765.86	174.146	153.611	22.7976	0.0241743	1270.43	21.8051	0.00529175	97.8868	1766.32	2286.87	5441.08	0	2726.81	10934.2	358.148	2272.94	502.132	0.00143322	1.01509e-05	5912.49	8544.71	0.000384738	450.739	356.835	
3.235	162.887	0	651.333	651.999	802.398	0	3436.61	7521.6	495.245	238.292	711.747	2175.76	1460.14	8582.55	214.021	1278.7	1124.77	24166	12146.5	1685.88	3080.39	3258.16	3671.98	266.673	673.481	231.138	1970.05	1303.92	633.937	138.945	727.174	12663	3400.68	17384.6	110.321	803.57	2870.74	130.491	533.1	247.081	184.929	1656.58	30.751	43.1434	79.4267	16.2912	75.4088	0.000425169	758.717	1373.62	859.022	2122.06	915.162	0	314.127	1831.41	203.836	67.754	26.1296	3.80566	1056.05	22.0456	0	90.9387	1851.76	2292.47	5444.59	0	2733.88	10921.8	340.482	1989.22	465.399	0	0	5907.61	8592.21	0	447.03	415.195	
3.24	166.85	0	600.869	591.339	744.695	0	3192.31	7807.19	486.069	233.496	713.751	2185.55	1545.47	9019.06	161.16	1173.3	1020.64	24117.1	11444.8	1572.29	3072.08	3251.07	3667.23	262.819	725.992	232.611	1977.65	1202	675.766	155.27	777.127	12138.5	3291.5	17768.5	119.922	780.596	2882.68	119.048	495.151	228.633	185.768	1536.82	17.0875	25.5097	82.9906	18.9202	86.8797	0	745.927	1372.61	869.414	2146.52	867.543	0	321.812	1884.88	235.221	66.1349	30.1736	20.1601	715.134	22.989	0.0349462	84.5163	1859.49	2304.5	5447.34	0	2682.74	10909.4	322.903	1746.4	434.738	0	8.27222	5902.56	8630.83	0	447.83	486.205	
3.245	172.562	8.55345	555.352	535.21	696.538	0	2952.13	8060.4	473.847	227.126	716.524	2199.35	1639	9492.82	112.364	1071.58	921.688	24068.2	10717.9	1464.29	3063.78	3244.14	3662.77	258.887	781.515	234.473	1988.27	1113.62	720.452	169.895	827.331	11567.7	3174.89	18305.3	129.007	750.971	2899.19	110.181	464.945	214.074	182.286	1410.66	9.77791	18.0662	85.6724	20.6662	102.244	0	730.694	1371.58	881.4	2175.93	825.72	0	330.462	1922.62	269.428	69.5505	34.3486	18.5691	382.079	24.2273	0	78.7627	1800.45	2322.79	5449.3	0.0384611	2583.57	10888.8	305.609	1548.92	410.56	0	16.1503	5897.44	8656.06	0	442.444	562.033	
3.25	180.069	24.1966	514.382	483.227	657.05	0	2719.27	8281.56	458.924	219.369	719.987	2216.88	1741.83	10006.1	68.5587	974.329	828.519	24020.1	9989.05	1368.98	3055.64	3237.46	3658.63	255.064	839.543	236.68	2001.71	1038.22	768.196	182.309	876.461	10965.6	3054.16	18993.2	137.409	715.865	2919.87	103.363	440.994	202.618	178.521	1280.78	6.32325	15.0474	103.863	24.6888	122.358	0.0244631	713.168	1370.55	894.527	2210.59	789.734	0	338.862	1940.71	305.065	72.8655	39.0126	23.1456	188.354	25.5421	0.0423732	73.9832	1684.24	2343.72	5450.49	0	2444.71	10861.1	288.748	1398.32	393.351	0	16.7635	5892.33	8668.07	0.000121686	425.21	637.286	
3.255	189.421	27.3764	477.604	435.016	625.492	7.9627e-06	2496.02	8472.8	441.783	210.484	724.024	2237.67	1854.84	10559.3	30.4801	882.2	741.919	23973.1	9270.4	1281.78	3047.76	3231.1	3654.8	251.545	899.528	239.167	2017.67	974.835	819.124	192.044	923.498	10347.6	2932.69	19825.1	144.965	676.79	2944.14	98.0161	421.672	193.43	179.08	1149.3	44.7638	14.4693	148.372	33.3309	148.483	0.00967498	693.559	1369.55	908.675	2250.56	759.751	1.52163e-06	346.321	1936	339.034	77.0169	44.2044	30.1131	94.5061	26.9271	0.00443055	70.31	1520.99	2364.69	5450.88	0	2274.22	10827.8	272.482	1293.25	383.808	0	14.154	5887.34	8671.54	0.000417644	397.727	709.808	
3.26	200.682	29.979	444.729	390.316	601.298	7.56853e-06	2286.08	8638.53	423.031	200.794	728.492	2261.11	1978.35	11151	0	795.605	662.498	23927.5	8573.32	1201.75	3040.24	3225.09	3651.22	248.526	960.942	241.863	2035.74	921.973	873.293	198.676	967.674	9730.2	2813.6	20787.8	151.585	635.412	2971.25	93.5736	405.331	185.679	180.879	1014.47	148.905	31.2386	215.229	43.8585	182.958	0	672.129	1367.44	923.203	2295.41	736.087	1.24648e-06	352.711	1910.77	368.045	84.1855	49.7706	37.0099	52.1535	28.3202	0.0186883	67.7455	1329.05	2384.8	5450.44	0.00306949	2081.57	10793.3	256.977	1230.99	383.038	0	10.9659	5882.56	8669.79	0.000112344	366.867	780.557	
3.265	213.93	34.6123	415.639	349.22	584.008	2.87072e-06	2093.67	8783.65	403.382	190.677	733.23	2286.45	2112.09	11778.1	0.00181566	714.801	590.679	23883.5	7906.97	1127.42	3033.14	3219.46	3647.84	246.196	1023.27	244.686	2055.41	877.779	930.691	201.875	1008.46	9128.71	2699.55	21863.3	157.233	593.389	3000.33	89.4992	390.379	178.568	178.474	875.647	307.419	86.6819	290.173	52.2565	229.632	0	649.187	1360.4	937.931	2344.83	719.317	4.74696e-07	357.933	1870.28	391.144	95.3799	55.5728	44.3558	34.1098	29.6424	0	66.2958	1129.43	2404.3	5449.2	0.0785694	1881.05	10755.8	242.374	1209.86	392.717	0	7.8434	5878.07	8664.12	0	334.636	847.738	
3.27	229.313	39.6928	390.495	311.971	573.293	0	1921.21	8914.06	383.587	180.528	738.066	2312.93	2255.07	12437	0	639.721	526.672	23840.9	7274.35	1056.91	3026.51	3214.19	3644.57	244.728	1086.08	247.548	2076.11	840.127	991.269	201.424	1045.52	8557.7	2592.62	23028.9	161.876	552.202	3030.41	85.2885	375.303	171.338	169.802	736.176	512.932	177.665	373.064	56.6842	294.104	0	625.064	1347.6	952.55	2398.12	710.247	7.47127e-08	361.812	1819.34	409.355	110.551	61.4492	52.509	26.5857	30.8096	16.6563	66.0251	929.001	2423.46	5447.25	0	1683.76	10716.7	228.771	1233.51	415.108	0	4.67598	5874.12	8655.03	0	301.783	909.874	
3.275	247.075	44.4133	369.185	278.711	568.872	0	1769.54	9036.04	364.392	170.733	742.828	2339.73	2405.75	13121	0.0911797	570.124	470.436	23357.5	6678.33	988.286	3020.38	3209.28	3641.32	244.284	1149	250.357	2097.2	806.718	1054.83	197.237	1078.69	8029.61	2494.39	24254.4	165.471	513.182	3060.49	80.5031	358.708	163.311	157.451	602.074	726.65	281.614	462.527	58.2269	384.083	0	600.12	1329.91	966.823	2454.13	709.753	0	364.137	1761.7	424.131	129.397	67.1906	61.2071	23.3806	31.7237	77.7192	67.068	738.481	2442.39	5444.68	0	1492.2	10676.8	216.226	1312.62	452.884	0	1.5961	5871	8643.07	6.01548e-06	272.955	967.408	
3.28	267.726	49.0495	351.661	249.463	570.51	0	1638.24	9155.59	346.51	161.661	747.357	2365.97	2562.04	13820.2	0.0336755	505.473	421.702	22108.3	6119.1	919.777	3014.77	3204.7	3638.02	245.009	1211.79	253.024	2117.99	775.184	1121.04	189.358	1107.94	7554.48	2406.15	25501.4	167.964	477.625	3089.58	74.7694	339.399	153.9	142.252	480.328	925.35	337.47	551.197	57.5632	505.207	5.31891e-05	574.728	1308.04	980.459	2512.24	718.652	0	364.635	1700.22	436.888	151.386	72.5572	70.1814	21.7502	32.2877	75.9014	69.646	577.843	2460.95	5441.6	0.00538002	1308.95	10636.3	204.775	1462.99	508.161	0	0	5868.7	8629.02	0.000376848	259.83	1030.63	
3.285	291.713	53.7967	337.778	224.163	577.991	0	1526.54	9278.55	330.535	153.601	751.512	2390.73	2720.72	14522.4	0.00763558	445.132	379.968	20242.8	5594.78	849.929	3009.67	3200.42	3603.52	247.032	1274.31	255.461	2137.8	743.209	1189.64	177.954	1133.32	7139.47	2329.11	26724.9	169.316	446.743	3116.74	67.8	316.369	142.622	125.45	373.589	1077.48	286.458	641.569	55.7566	657.572	0.000103628	549.252	1282.58	993.22	2571.23	737.637	8.2638e-09	363.111	1636.71	448.847	175.715	77.2931	79.1544	20.5222	32.4077	72.436	74.097	461.165	2478.89	5438.12	0.0205047	1139.58	10598.5	194.423	1700.2	579.879	0	0	5867.22	8613.61	0.000378569	247.082	1092.42	
3.29	319.741	58.6062	327.33	202.646	591.102	0	1433.59	9410.38	316.919	146.772	755.176	2413.19	2878.21	15213.2	0	388.271	344.545	17958.1	5101.97	777.44	3005.11	3196.43	3456.73	250.47	1336.55	257.586	2155.95	708.721	1260.4	164.085	1154.98	6788.66	2264.16	27876.2	169.512	421.384	3141.12	59.4168	288.894	129.145	110.146	275.284	1126.12	206.405	741.302	54.6407	861.318	2.71727e-05	524.049	1254.28	1004.99	2629.91	767.312	1.97365e-08	359.463	1571.86	459.993	201.357	81.138	87.7875	19.1935	32.074	76.4629	80.8848	376.275	2496.02	5434.35	0.00585011	990.71	10568.6	185.152	2033.21	662.582	0	0	5866.57	8597.47	0.000436352	229.657	1149.43	
3.295	352.796	63.393	320.078	184.676	609.628	0	1358.61	9555.53	306.014	141.342	758.256	2432.64	3030.4	15876.6	0	334.109	314.602	15480.6	4635.38	701.294	3001.07	3192.72	3214.15	255.424	1398.61	259.326	2171.78	670.07	1333.16	149.45	1173.07	6503.2	2211.75	28903.6	168.558	402.128	3161.96	49.5611	256.531	113.306	99.9877	190.598	925.581	146.747	865.531	56.638	1106.81	0	499.448	1223.76	1015.58	2687.83	808.206	2.20911e-08	353.587	1505.32	469.537	227.191	83.8519	95.6937	17.5505	32.4453	80.7115	90.5682	312.721	2512.15	5430.39	0.00516608	867.237	10531.7	176.932	2461.77	746.544	0	0.00726149	5866.77	8581.08	25.3544	209.386	1202.54	
3.3	392.049	68.3576	315.725	169.941	633.619	0	1300.8	9717.37	298.096	137.442	760.683	2448.42	3173.01	16495.6	0	281.875	289.194	13091.2	4185.78	620.768	2997.58	3189.3	2905	261.982	1460.86	260.612	2184.66	626.142	1407.83	134.757	1187.77	6282.01	2171.96	29757.8	166.491	389.417	3178.62	38.321	219.209	95.1086	94.9047	117.628	641.28	110.416	1004.12	61.8772	1336.11	0	475.74	1191.72	1024.97	2744.13	860.56	2.11446e-08	345.396	1436.83	476.743	251.988	85.2314	102.478	15.5098	33.7792	81.5136	103.667	264.628	2527.07	5426.34	3.17399e-08	765.732	10498.6	169.745	2982.05	817.82	7.77532e-05	0.00241805	5867.84	8564.79	89.0594	609.014	1258.47	
3.305	438.934	75.5364	313.968	158.079	662.66	4.5296e-06	1259.01	9898.17	293.39	135.178	762.403	2459.96	3301.6	17053.4	0	230.517	267.354	11021.1	3748.21	535.646	2994.64	3186.2	2554.08	270.215	1523.99	261.385	2194.05	576.677	1484.4	119.606	1199.24	6121.67	2144.53	30391.9	163.38	383.602	3190.54	26.0006	177.343	74.7999	91.6264	52.4293	421.947	87.729	1102.43	68.0494	1443.11	0	453.183	1158.87	1033.13	2797.97	923.685	1.98405e-08	334.878	1366.56	481.292	274.482	85.1318	107.773	13.0547	35.6213	80.0443	120.491	226.411	2540.6	5422.27	0	680.338	10468.1	163.661	3518.75	863.167	5.0459e-05	0.000884499	5869.82	8548.91	100.577	1438.31	1326.79	
3.31	495.061	86.4559	314.469	148.702	696.146	0	1231.61	10098.6	292.074	134.635	763.369	2466.71	3411.54	17531.3	0	178.966	248.094	9290.45	3325.48	446.192	2992.27	3183.45	2190.95	280.177	1588.77	261.589	2199.42	522.228	1562.88	103.269	1207.63	6017.32	2128.87	30764.4	159.318	384.987	3197.24	13.2691	131.847	52.9112	85.7048	1.65937	275.191	73.752	1158.04	72.2305	1465.99	0	431.969	1125.72	1040.09	2849.26	995.255	1.88939e-08	322.229	1295.06	483.279	293.443	83.4853	111.302	10.2109	37.4995	77.2279	141.656	194.774	2552.65	5418.25	0.000148794	610.617	10439.9	158.865	3736.33	886.519	4.2623e-05	0	5872.76	8533.64	99.5127	1893.65	1393.89	
3.315	561.705	101.452	316.886	141.388	734.883	0	1216.41	10317.4	294.309	135.884	763.533	2468.19	3498.15	17912.2	0	128.56	230.519	7861.34	2921.77	353.216	2944.49	3181.09	1852.77	291.89	1656.17	261.174	2200.33	463.407	1643.34	85.4145	1213.03	5962.74	2124.06	30840	154.432	393.822	3198.24	1.93392	84.525	30.4819	71.8221	0	181.218	65.7105	1211.17	70.5651	1471.79	0	412.252	1092.95	1045.91	2897.63	1071.39	1.82167e-08	310.642	1224.08	483.291	307.807	80.3025	112.879	7.03951	38.9703	73.0642	168.604	164.237	2563.21	5414.35	0.0270185	555.075	10414.6	155.674	3734.55	900.779	3.0566e-05	0	5876.73	8519.16	102.277	1617.77	1450.39	
3.32	639.806	120.48	320.865	135.718	777.79	0	1211.1	10551.9	300.255	138.995	762.833	2463.97	3556.91	18179.6	0	78.9152	213.802	6679.5	2541.73	258.12	2676.91	3165.69	1558.23	305.354	1726.8	260.093	2196.4	400.016	1725.85	66.2603	1215.55	5951.41	2129.04	30590.3	148.872	410.286	3193.09	0	38.3653	9.49528	47.7265	0	223.738	99.3639	1179.57	60.0365	1477.94	0	394.139	1060.98	1050.7	2942.74	1147.4	1.76325e-08	300.028	1158.26	481.9	316.755	75.6877	112.429	3.64278	39.6591	67.4895	199.995	136.388	2572.29	5410.61	0	512.473	10392.7	127.621	3713.42	912.962	2.38243e-05	0	5881.64	8505.55	108.904	1296.98	1496.06	
3.325	730.111	143.446	326.038	131.284	825.292	0	1213	10797.2	310.104	144.061	761.184	2453.62	3583.32	18315.8	0	30.8898	197.267	5671.41	2190.49	162.852	2275.35	2947.68	1307.78	320.518	1801.52	258.304	2187.31	333.043	1810.48	46.6691	1215.66	5975.79	2142.38	29995.5	142.809	434.517	3181.28	0	1.42043	0	21.5477	0.148516	288.405	166.331	986.828	44.6609	1479.77	0	377.667	1030.2	1054.59	2984.73	1218.8	1.70561e-08	291.113	1097.1	479.52	319.791	69.8203	109.991	0.197374	39.2836	60.6957	231.695	80.2117	2579.95	5407.05	0	404.742	10374.6	75.4529	3744.37	925.953	4.63514e-06	0	5887.21	8492.89	115.262	1074.84	1531.56	
3.33	833.115	170.15	332.048	127.7	877.186	0	1219.42	11047.5	324.108	151.206	758.478	2436.74	3573.41	18305.9	0	0.0010639	180.363	4783.72	1873.16	70.1175	1850.22	2556.07	1097.08	337.287	1881.12	255.766	2172.82	265.885	1897.21	27.9878	1215.51	6027.89	2162.48	29045.3	136.432	466.652	3162.26	0.0185474	0	0	2.79178	0.0754591	319.336	215.748	768.154	31.4927	1472.51	0	362.843	1001.06	1057.69	3023.48	1282.1	1.6465e-08	284.665	1041.98	480.669	316.824	62.9539	105.717	0	37.6956	53.0021	259.804	7.65135	2586.28	5403.7	0.00015653	279.39	10360.8	35.6266	3832.88	941.59	0	2.05332e-06	5892.72	8481.2	119.891	1051.97	1556.59	
3.335	949.034	200.288	338.532	124.604	933.385	101.277	1227.55	11294.8	342.591	160.605	754.583	2412.98	3523.84	18136.7	0	0	162.681	4014.19	1592.25	0	1486.86	2103.92	918.51	355.576	1966.36	252.451	2152.75	200.681	1985.97	11.9991	1215.37	6099.06	2187.46	27741.7	129.943	507.02	3135.47	0.0166731	0	0	1.78547e-05	0.0297719	320.275	223.388	597.537	23.5598	1458.74	0	349.636	973.715	1060.14	3058.88	1334.97	1.58669e-08	280.424	992.891	487.277	308.734	55.4626	99.8815	0	34.9055	44.7643	281.488	0.105188	2591.39	5400.57	0.00598625	74.7488	10351.4	19.1468	3975.54	961.15	0	5.21504e-06	5897.1	8470.48	122.919	1246.37	1570.27	
3.34	1081.02	233.405	345.115	121.688	993.592	138.304	1234.84	11531.5	365.92	172.466	749.35	2381.96	3432.59	17798.6	0	0	144.033	3361.52	1345.39	0	1209.66	1689.25	760.622	375.156	2057.95	248.339	2127.04	137.072	2076.85	1.02167	1215.23	6180.64	2215.37	26101.7	123.54	556.308	3100.36	0.00637173	0.0988876	0.053745	0	0	312.059	210.214	472.265	20.295	1441.69	1.27963e-05	337.985	948.425	1062.04	3090.9	1376.49	1.52663e-08	278.29	949.477	497.84	298.636	49.0145	156.719	0.00441462	31.0618	36.3622	295.059	0	2595.4	5397.65	0.00378722	0	10347	12.8011	4176.31	985.223	0	2.64077e-06	5899.39	8460.69	124.72	1578.28	1572.78	
3.345	1236.6	268.973	351.451	118.652	1057.47	92.536	1238.41	11749.3	394.495	187.025	742.625	2343.4	3298.79	17288.1	0	0.100023	124.246	2819.91	1130.53	0	1000.98	1364.87	621.254	395.726	2156.58	243.431	2095.76	75.1345	2170.16	0	1215.08	6262.33	2243.86	24160.1	117.416	616.123	3056.46	2.89065e-05	0.0485404	0.0144767	0.0272263	0	290.292	183.599	377.13	20.3981	1428.87	85.1626	327.788	925.298	1063.47	3119.69	1408.51	1.4669e-08	278.267	913.225	510.917	284.144	44.2003	225.674	0.00426265	26.4359	28.9329	300.841	0.0973747	2598.44	5394.94	0.000438937	0.224397	10347.1	9.49596	4436.72	1014.14	0	6.35063e-07	5897.5	8451.8	125.537	2060.71	1565.61	
3.35	1421.78	306.208	357.176	115.268	1124.22	106.531	1235.86	11941.4	428.701	204.525	734.274	2297.42	3123.81	16434.6	0	0.0401909	103.432	2381.71	944.515	0.220567	841.918	1119.53	502.29	417.013	2262.77	237.747	2059.1	19.1797	2265.93	0	1214.91	6334.33	2270.69	21971.3	111.754	688.656	3003.48	0	0.0156319	0.00242997	0.0160339	0	244.683	157.605	291.045	22.7529	1426.17	139.902	318.956	904.467	1064.52	3145.39	1435.21	1.40759e-08	280.124	885.927	525.283	267.333	41.9419	236.901	0.00208572	21.3665	22.8331	301.235	0.0828354	2600.63	5392.44	0.0107698	0	10352	7.76656	4753.57	1047.98	2.70756e-05	0	5874.96	8443.75	125.516	2608.7	1550.21	
3.355	1639.87	344.347	361.968	111.327	1192.9	103.111	1224.69	12102	468.846	225.175	724.196	2244.06	2910.98	15386.6	0	0.00894613	81.6869	2029.73	781.465	0.0832945	715.38	932.868	404.226	438.736	2376.99	231.339	2017.44	0.00130522	2364.12	0.0174889	1214.74	6385.97	2293.41	19608.4	106.732	775.994	2941.38	0	0	0	0.00449314	0	192.064	140.774	205.905	22.6123	1433.11	153.532	311.39	885.887	1065.22	3168.02	1461.04	1.34895e-08	283.596	865.782	540.136	249.305	40.7183	191.999	0.00957884	16.2202	17.5895	298.716	0.0172064	2602.11	5390.13	0	0.0775184	10360.7	7.17773	5135.6	1086.86	5.26858e-05	0	5836.88	8436.49	124.741	3214.03	1527.27	
3.36	1890.95	382.763	365.5	106.669	1262.11	97.7387	1202.63	12228.4	515.015	249.068	712.348	2183.61	2666.12	14231.9	0	0	59.289	1748.85	636.036	0.0155513	611.29	786.104	326.029	460.516	2499.51	224.284	1971.32	0	2464.94	0.0257021	1214.54	6406.72	2309.62	17196.4	102.526	880.079	2870.49	0	0	0	0	0	151.479	132.365	138.008	18.4142	1446.07	162.253	304.999	869.635	1065.64	3187.62	1488.42	1.29095e-08	288.006	849.732	554.454	231.01	38.8789	112.437	0	11.3597	12.8301	294.278	0	2602.98	5387.99	0	0	10372.8	7.41267	5600.53	1130.77	7.36216e-05	0	5794.23	8429.95	123.39	3746.91	1497.49	
3.365	2161.93	421.827	367.5	101.175	1330.14	91.882	1167.74	12320.2	567.035	276.155	698.767	2116.99	2398	12994.6	0	0	36.6044	1526.11	506.088	0	527.3	665.31	263.867	481.844	2630.46	216.693	1921.46	0.0374223	2567.9	0.00538316	1214.33	6386.72	2317.04	14857.5	99.3085	1002.95	2791.52	0	0	0	0	0	125.194	129.34	91.9874	13.1892	1461.98	175.393	299.7	855.6	1065.78	3204.27	1516.88	1.23373e-08	292.19	834.424	566.486	213.469	37.0771	64.9799	0	7.11003	8.60466	287.741	0	2603.36	5386.02	0	0	10387.2	8.28382	6155.78	1179.68	8.10502e-05	9.93187e-08	5752.24	8424.08	121.766	4116.63	1461.95	
3.37	2422.71	462.348	367.723	94.781	1394.88	85.3703	1118.36	12380	624.496	306.261	683.58	2045.11	2118.7	11720.8	0	0	14.2274	1348.57	392.689	0	461.112	567.277	215.534	502.09	2769.81	208.714	1868.75	0.0898125	2672.55	0	1214.1	6317.18	2313.58	12573.7	97.2385	1145.1	2705.67	0	0	0	0	0	109.325	129.221	61.1397	8.94434	1479.16	187.101	295.413	843.757	1065.69	3218.1	1544.67	1.17727e-08	295.099	817.133	574.485	197.606	35.4762	56.1186	0.00463873	3.72503	5.12821	278.84	0	2603.34	5384.19	0.00401902	0.105356	10403	9.66709	6794.25	1233.59	7.89487e-05	1.68678e-08	5713.42	8418.8	119.993	4331.22	1421.4	
3.375	2649.66	504.489	365.977	87.4597	1454.18	78.1739	1053.32	12412.9	686.798	339.125	667.01	1969.34	1842.8	10456.4	0	0	0	1206.82	296.696	0	410.346	489.824	177.742	520.517	2917.35	200.524	1814.2	0.0250182	2778.26	0	1213.86	6191.06	2297.5	10372.4	96.4569	1305.4	2614.68	0	0	0	0	0	100.31	130.377	40.8498	5.74498	1496.64	195.713	292.068	834.042	1065.35	3229.23	1572.13	0	296.472	796.131	577.11	184.16	34.0734	56.905	0.00744237	1.36475	2.57242	268	0	2603.01	5382.5	0.00363484	0.320545	10419.1	11.4633	7502.81	1293.74	7.73967e-05	5.65734e-07	5679.49	8414.08	117.842	4408.53	1375.59	
3.38	2828.69	547.736	362.136	79.2509	1505.95	70.4764	971.929	12425.5	753.236	374.44	649.397	1891.23	1580.36	9260.88	0	0	0	1094.3	218.186	0	372.797	430.342	147.509	536.344	3071.91	192.31	1758.92	0	2884.26	0	1213.6	6003.75	2267.51	8346.98	97.0815	1482	2520.72	0	0	0	0	0	95.294	131.696	27.3699	3.20932	1513.77	203.004	289.597	826.368	1064.78	3237.79	1601.61	0	296.011	770.505	573.455	173.681	32.9543	169.487	0	0.0926334	0.989444	255.779	0	2602.46	5380.93	0.00200805	0	10434.6	13.5979	8251	1362.13	7.42509e-05	2.12263e-08	5651.71	8409.85	114.821	4381.4	1323.56	
3.385	2954.02	591.203	356.144	70.2399	1548.35	62.3858	874.13	12424.4	822.979	411.69	631.161	1812.58	1328.69	8168.49	0	0	0	1007.73	156.627	0	346.424	386.289	123.262	548.795	3230.85	184.267	1704.11	0	2989.72	0	1213.31	5753.63	2222.42	6615.59	99.2016	1672.81	2426.17	0	0	0	0	0	92.211	132.442	18.0051	1.09869	1530.95	209.899	287.937	820.632	1064.01	3243.92	1635.56	0.000513697	293.466	739.993	563.377	166.493	32.2216	364.067	0	0	0.265257	242.57	0	2601.74	5379.48	0.000580388	0	10450.5	16.0218	9000.35	1440.31	8.97546e-05	8.1833e-07	5630.79	8406.08	111.37	4272.68	1266.64	
3.39	3027	633.771	348.02	60.5841	1579.86	54.0179	760.476	12414.4	894.563	450.054	612.786	1735.16	1091.87	7161	0	0	0.0458841	945.84	110.943	0	329.37	355.203	104.613	557.175	3391.27	176.58	1651	0	3093.71	0.520303	1213	5442.9	2161.69	5201	102.875	1873.71	2333.34	0	0	0	0	0	89.7332	132.185	11.1133	0	1550.45	216.288	287.023	816.721	1063	3247.73	1675.87	0.00944158	288.899	705.069	547.297	162.724	31.9218	640.304	0.0248044	0.2278	0.172458	228.66	0	2600.89	5378.15	0	0.0259232	10467.7	18.7075	9716.57	1528.96	6.78561e-05	7.29508e-07	5616.99	8402.75	109.131	4109.04	1209.03	
3.395	3054.78	674.126	337.869	50.5088	1599.46	45.5061	632.179	12396.8	966.406	488.962	594.762	1660.76	880.604	6239.2	0	0	0.0195533	907.37	79.7588	0	320.167	334.761	91.2607	560.918	3550.41	169.417	1600.67	0	3195.24	60.8152	1212.65	5077.74	2085.37	3998.5	108.128	2080.97	2244.18	0	0	0	0	0	87.0666	130.706	5.70103	0	1574.72	221.75	286.787	814.511	1061.8	3249.4	1724.12	0	282.608	666.975	524.639	162.317	32.0399	980.995	0	1.9274	0.787113	214.29	0	2599.98	5376.93	0	0.0419793	10473.7	21.645	10361.1	1627.95	5.84992e-05	6.45225e-07	5610.17	8399.83	109.515	3917.1	1154.33	
3.4	3052.75	710.818	325.871	40.2831	1606.58	36.9923	491.274	12368.1	1037.3	527.975	577.549	1590.94	694.594	5417.42	0	0	0.0052851	890.812	61.2829	0	317.745	323.128	82.7304	559.647	3705.67	162.911	1554.03	0	3293.33	152.125	1212.25	4666.6	1994.04	3054.22	114.949	2294.08	2160.35	0	0	0	0	0	83.7668	127.912	1.28957	0	1604.79	225.984	287.153	813.861	1060.35	3249.11	1781.66	0	274.925	627.14	496.982	165.062	32.5108	1363.79	0	4.21553	2.62887	199.649	0	2599.02	5375.84	0	0.0412061	10481.3	24.8345	10872.9	1736.05	3.11365e-05	5.21038e-07	5609.9	8397.32	109.969	3718.01	1101.55	
3.405	3047.78	742.622	312.287	30.2228	1601.26	28.6099	341.164	12319	1106.01	566.141	561.533	1527.07	527.107	4705.93	0	0	0	894.573	53.6695	0	321.304	318.935	78.481	553.203	3854.63	157.171	1511.78	0	3386.92	232.256	1211.8	4216.94	1888.92	2341.82	123.292	2508.84	2083.29	0	0	0	0	0	79.6169	123.79	5.60939e-06	0.00538322	1640.09	228.928	288.036	814.602	1058.75	3247.08	1849.35	0.00249485	266.476	587.138	465.835	170.649	33.2281	1695.46	0	6.91182	5.59686	184.877	0	2598.06	5374.89	0	0	10489.7	28.2806	11104	1850.96	3.32861e-05	3.90948e-07	5615.44	8395.23	103.63	3472.28	1029.2	
3.41	3043.14	768.589	297.442	20.6784	1584.02	20.4911	187.437	12234.4	1170.69	602.29	547.029	1470.18	374.558	4108.83	0	0	0	916.666	55.1578	0	330.298	321.077	77.9479	541.669	3995.03	152.27	1474.39	0	3475	304.046	1211.28	3731.3	1771.6	1791.63	133.078	2717.43	2014.26	0	0	0	0	0	137.44	143.835	0	0.000989231	1678.94	229.916	289.337	816.536	1057.11	3243.55	1926.9	0.0228307	258.041	548.43	432.296	178.701	34.0523	1874.39	0.0229028	9.97465	8.93426	170.181	0	2597.12	5374.09	0	0	10497.9	31.9868	11068.2	1969.25	4.60077e-05	2.56711e-07	5625.78	8393.57	94.0161	3180.06	942.922	
3.415	3038.56	788.078	281.714	12.0379	1555.88	12.7528	47.8485	12095.3	1229.48	635.311	534.291	1421.03	237.975	3621.83	1.47635e-05	0	0	955.136	64.0784	0	344.425	328.609	80.5631	525.363	4124.99	148.253	1442.19	0	3556.5	380.552	1210.7	3216.53	1643.93	1368.31	144.186	2911.75	1954.3	0	0	0	0	0	244.157	188	0.00188881	0.000307416	1717.18	229.396	290.938	819.424	1055.36	3238.85	2012.82	0	250.007	511.808	397.321	188.817	34.8241	1926.31	0	13.2579	12.2103	157.225	0	2596.25	5373.47	2.47673e-05	0.0336614	10507.9	35.949	10974	2085.09	1.93908e-05	1.33641e-07	5639.66	8392.39	84.2652	2879.12	853.644	
3.42	3034.17	800.754	265.511	4.77267	1518.25	5.52181	0	11879.8	1280.8	664.231	523.508	1380.12	120.428	3228.07	9.88412e-06	0	0	1008.35	78.7065	0	363.618	340.878	85.7093	504.817	4242.78	145.143	1415.38	0	3630.26	471.398	1210.05	2691.32	1508.7	1062.11	156.468	3084.57	1904.12	0	0	0	0	0	352.934	236.765	0.00601238	0	1749.23	229.249	292.705	822.986	1053.62	3233.34	2104.92	0	242.092	477.224	362.053	200.568	231.929	1883.47	0.00856308	16.6714	15.3689	147.426	0	2595.46	5373.04	0.000104947	0	10520.8	40.159	10909.2	2191.32	2.1851e-05	4.3623e-08	5655.67	8391.72	76.4466	2606.15	769.422	
3.425	3030.03	806.538	249.271	0	1472.86	0	0	11566.3	1323.37	688.275	514.814	1347.67	30.1712	2840.47	2.12558e-06	0	0	1075.04	97.4283	0	388.017	357.525	92.8191	480.73	4347.31	142.94	1394.06	0	3695.39	580.725	1209.33	2171.56	1369.07	866.337	169.828	3229.83	1864.16	0	387.49	144.636	0	0	444.488	276.242	0.00266273	0	1769.55	229.494	294.483	826.894	1051.93	3227.43	2200.77	0.00340198	233.764	444.3	327.943	213.521	483.608	1785.83	0.00784777	20.1627	18.3755	141.182	0	2594.82	5372.83	0	0.0714104	10536.8	44.6043	10861.7	2282.34	2.00766e-05	4.29377e-08	5672.21	8391.57	71.4923	2381.29	694.236	
3.43	3026.16	805.587	233.411	0	1421.58	0.000165546	0.0960246	11136.3	1356.28	706.923	508.278	1323.6	0	2370.13	0	0	0	1154.24	119.062	0	417.95	378.427	101.464	453.892	4437.58	141.626	1378.23	0	3750.72	709.791	1208.54	1660.57	1228.68	769.897	184.244	3343.23	1834.56	148.023	592.959	293.637	0	0	497.158	302.762	0.000606224	0	1773.24	230.432	296.098	830.778	1050.26	3221.62	2298.09	0.0112742	224.747	412.954	296	227.216	696.886	1657.08	0.00246329	23.6889	21.1205	138.147	0	2594.39	5372.86	0	0	10558.2	49.2643	10817.1	2354.63	0	4.18962e-08	5687.65	8391.97	70.9832	2218.14	633.31	
3.435	3022.59	798.237	218.343	0	1366.35	0	0.243928	10577.3	1379.01	719.818	503.915	1307.7	0	2015.8	0	0	0	1245.24	142.907	0	453.902	403.708	111.393	425.117	4513.35	141.168	1367.81	0	3795.2	858.097	1207.69	1153.84	1091.56	760.202	199.837	3422.4	1815.23	219.197	643.674	317.335	0	0	518.883	317.787	0	0	1756.38	232.934	297.36	834.221	1048.92	3216.43	2394.85	0	215.182	383.473	265.28	241.18	866.575	1509.9	0.0774646	27.1988	23.485	137.58	0	2594.2	5373.15	0.00375751	13.3016	10584.8	54.1125	10773.2	2406.24	0	3.60814e-08	5700.31	8392.96	76.6141	2128.95	591.934	
3.44	3019.33	784.964	204.443	0.0173322	1309.04	0.0211131	0.0802692	9886.69	1391.41	726.887	501.687	1299.63	0.0697044	1717.66	0	0	0	1347.67	168.692	0	496.343	433.637	122.448	394.981	4574.55	141.519	1362.61	0	3827.87	1021.63	1206.8	658.472	961.469	826.441	216.725	3466	1805.88	231.876	739.35	358.76	0	0	519.044	324.216	0	0	1717.42	238.15	298.066	836.777	1048.02	3212.47	2489.62	0	205.581	356.435	235.723	254.92	1002.84	1352.1	0	30.6296	25.3487	138.702	0	2594.26	5373.72	0	93.2078	10613.7	59.1182	10729.9	2436.65	0	0	5708.55	8394.56	88.3068	2114.89	571.157	
3.445	3016.36	766.33	192.032	0.0059097	1251.39	0.00645615	0	9075.26	1393.63	728.222	501.514	1299	0.13837	1447.49	0	0	0	1461.31	196.518	0	545.636	468.607	134.589	363.967	4621.65	142.618	1362.41	0	3847.76	1193.49	1205.88	205.252	839.854	959.284	234.838	3474.4	1806.05	263.257	882.77	428.957	0	0	505.568	324.246	0	0	1657.41	245.493	298.01	837.976	1047.49	3210.32	2581.73	0.000966098	196.502	332.069	207.673	267.929	1044.46	1194.07	0.013463	33.8963	26.5853	140.824	0	2594.61	5374.55	0	62.1676	10643.6	64.2457	10685.4	2446.55	0	0	5710.72	8396.73	104.908	2166.57	569.74	
3.45	3013.66	742.947	181.392	0.00140759	1194.93	0.00290127	0	8171.52	1386.11	724.063	503.281	1305.36	0.0317557	1194.95	0	0	0	1586.01	226.764	0	602.041	509.061	147.842	332.482	4655.21	144.397	1366.91	0	3853.96	1367.93	1204.94	0	727.106	1148.82	253.909	3449.06	1815.15	312.412	1036.56	506.802	0	0	484.905	319.267	0	0	1579.15	253.824	296.991	837.351	1047.58	3210.59	2671.83	0.00507566	188.291	310.347	181.017	279.701	1007.75	1049.15	24.6028	36.8963	27.0611	143.431	0	2595.27	5375.66	0.000295075	58.1458	10671.6	69.4552	10639	2436.92	0	2.20862e-05	5705.17	8399.43	124.272	2266.45	583.711	
3.455	3011.26	715.434	172.753	0	1140.91	0	0	7227.71	1369.52	714.794	506.844	1318.22	0	959.134	0	0	0	1721.66	260.017	0	665.707	555.347	162.289	300.899	4675.85	146.78	1375.8	0	3845.65	1551.76	1204	0	625.103	1385.1	273.532	3392.32	1832.52	368.149	1200.55	590.161	0	0	462.348	310.501	3.60059e-06	0	1486.51	262.238	294.824	834.451	1048.24	3213.86	2761.8	0	181.135	291.253	155.739	289.755	954.69	919.98	13.8195	39.5158	26.6541	146.208	0	2596.28	5377	0.000728045	67.0926	10699.3	74.707	10592.6	2409.03	2.68564e-05	0.000390756	5690.08	8402.54	145.911	2404.69	612.119	
3.46	2999.81	684.402	166.297	0	1090.33	0	0	6318.53	1344.72	700.877	512.037	1337.08	0	740.125	0	0	0	1868.42	297.073	0	736.696	607.78	178.06	269.882	4683.99	149.692	1388.71	0	3822.15	1757.68	1203.08	0	534.418	1661.1	293.253	3307.46	1857.4	430.031	1386.46	685.73	0	0	441.619	299.013	3.38346e-06	0	1384.52	270.065	291.358	828.873	1047.08	3220.6	2853.66	0	175.189	274.89	132.003	297.658	847.139	807.369	12.7151	41.634	25.2705	149.054	0	2597.35	5378.55	0.000390628	72.1362	10726	79.9615	10549.3	2364.12	0.000112771	0	5668.4	8405.84	170.561	2580.89	656.329	
3.465	2968.69	650.421	162.178	0	1043.91	0	0	5486.43	1312.71	682.91	518.679	1361.38	0	538.504	0	0	0	2028.16	338.884	0	815.032	666.683	195.322	240.089	4679.49	153.052	1405.27	0	3782.9	1989.28	1202.18	0.81618	453.976	1974.4	312.475	3198.36	1889.01	499.531	1593.11	793.446	0	0	424.768	285.614	1.11283e-06	0	1278.89	276.821	336.302	834.835	1013.19	3231.13	2948.97	0.000499657	170.582	261.316	110.036	303.036	700.37	714.283	12.7583	43.1423	22.8637	152.045	0	2597.73	5380.23	0	73.5041	10751.2	85.1782	10512.2	2303.66	0.000125603	0	5636.02	8408.86	199.21	2544.64	718.332	
3.47	2915.64	614.056	160.52	0	1002.06	0	0	4745.51	1274.6	661.543	526.576	1390.53	0	356.165	0	0	0	2203.94	386.53	0	900.69	732.432	214.275	212.11	4661.47	156.781	1425.08	0	3727.52	2234.06	1201.32	0.251285	382.488	2326.37	330.524	3069.18	1926.5	569.995	1797.03	900.933	0	0	412.655	270.721	0	0	1174.22	282.18	429.752	847.824	980.934	3245.69	3048.84	0.000693787	167.413	251.014	90.096	305.602	528.02	642.79	11.2794	43.9463	19.4473	155.363	0	2596.86	5381.99	0.000223607	74.5757	10774.4	90.3324	10481.5	2229.12	0.000191926	0.000123155	5583.97	8411.04	232.713	2156.78	799.88	
3.475	2839.75	575.847	161.436	0	965.087	1.46912e-06	0	4099.35	1231.58	637.438	535.53	1423.9	0	196.334	5.28432e-05	0	0	2399.91	441.166	0	994.25	805.5	235.161	186.462	4628.07	160.799	1447.72	0	3655.87	2477.59	1199.45	0	319.406	2719.71	346.715	2924.47	1969.02	636.712	1984.65	1001.29	0	0	405.522	254.434	3.59345e-06	0	1073.01	286.097	516.821	848.883	974.816	3264.42	3154.19	0.000292622	165.743	244.116	72.4838	305.172	340.856	592.159	9.61846	43.9803	15.1077	159.247	0.0499906	2594.53	5383.73	0.000116922	75.4131	10795.3	95.4385	10456.5	2142.28	0.000264775	0.000546101	5512.14	8411.92	271.761	1819.49	902.044	
3.48	2740.88	536.326	165.044	0	933.134	1.36739e-05	0	3541.54	1184.87	611.304	545.341	1460.84	0	69.8521	4.81748e-05	1.19618e-05	0	2621.15	504.028	0	1098.63	886.497	258.245	163.555	4576.39	165.034	1472.77	0	3568.23	2707.57	1188.05	0	265.489	3156.15	360.416	2769.12	2015.7	699.58	2156.76	1095.04	0	0	386.517	231.215	0	0	976.572	288.887	579.542	834.73	980.361	3287.3	3265.96	0	165.498	240.576	57.5313	301.649	375.001	556.388	7.82882	43.2082	10.05	163.933	17.376	2590.72	5385.39	5.23483e-06	75.5854	10813.2	100.515	10436.5	2045.45	0.000324078	0	5411.92	8411.28	316.725	1961.74	1023.83	
3.485	2619.79	496.055	171.472	8.58375	906.34	7.52046e-06	0	3055.04	1135.66	583.829	555.806	1500.68	0	0	0	1.79766e-05	0	2873.28	576.396	0	1217.38	976.118	283.789	143.638	4502.66	169.412	1499.8	0	3464.9	2912.87	1164.85	0	221.57	3634.08	371.079	2607.66	2065.68	759.424	2316.1	1183.68	0	1.00102e-06	354.644	201.075	0	0	886.19	291.095	560.401	795.991	988.265	3314.1	3385.08	0	166.687	240.546	45.5478	295.048	510.603	525.386	5.91143	41.6277	4.68051	169.664	112.951	2585.49	5386.88	0	75.1341	10827.7	105.57	10421.3	1941.47	0.000362536	0	5283.51	8409.12	367.573	1961.24	1161.95	
3.49	2478.14	455.434	180.864	47.4804	884.768	2.02897e-06	0	2623.36	1085.09	555.68	566.726	1542.78	0	0	0	6.95543e-06	0	3162.5	659.614	0	1353.58	1076.17	312.265	126.601	4402.4	173.873	1528.37	0	3346.91	3081.76	1130.11	0	188.056	4146.96	378.232	2444.52	2118.11	814.512	2458.34	1264.66	1.81337e-08	1.33727e-06	318.819	169.437	0	0	803.654	293.33	442.733	743.742	994.722	3344.41	3512.04	0	169.396	244.226	36.8023	285.472	605.171	500.935	3.91929	39.2656	0.122291	176.665	80.3708	2578.91	5388.13	0	74.2138	10838.6	110.609	10411	1833.99	0.000351428	7.09415e-05	5134.21	8405.63	423.857	1919.56	1314.63	
3.495	2318.59	414.68	193.401	64.1719	868.539	5.55887e-06	0	2259.03	1034.19	527.456	577.909	1586.49	0	0	0	1.85785e-06	0	3495.43	754.988	0	1509.88	1191.01	344.568	112.136	4271.18	178.357	1558.06	0	3215.42	3206.36	1084.57	0	164.98	4686.12	381.499	2283.58	2172.17	864.595	2591.38	1337.84	0	6.0915e-07	284.746	141.43	0	0	730.481	296.211	285.36	703.921	1013.28	3377.58	3647.02	0	173.721	250.832	31.5108	299.787	643.109	483.706	1.90984	36.1804	0	185.111	68.6943	2573.67	5389.08	0	72.907	10845.8	115.63	10405.8	1727.2	0.000323509	9.18315e-05	4964.71	8403.93	484.307	1919.49	1485.26	
3.5	2145.03	373.867	209.281	76.4088	857.789	1.6835e-05	0	1952.88	983.874	499.686	589.18	1631.18	0	0.252837	0	0	0	3878.53	863.682	0	1688.32	1325.9	381.984	100.062	4105.12	182.812	1588.48	0	3072.08	3281.32	1029.51	0	152.108	5244.05	380.602	2128.04	2227.09	914.605	2746.1	1416.77	9.67364e-11	1.3595e-07	259.302	121.163	2.84555e-08	0	667.355	300.349	213.969	674.285	1039.38	3413	3789.66	0	179.748	259.508	29.8418	522.15	621.938	472.902	0	32.4543	0	195.132	70.6577	2578.28	5389.67	0	71.282	10849.3	120.63	10406	1625.48	0.000355189	4.47487e-05	4769.92	8408.57	546.589	1942.23	1673.33	
3.505	1963.07	333.274	228.734	94.5104	852.711	2.75293e-05	0	1704.84	934.901	472.801	600.376	1676.25	0	0.0722986	0	0	0	4315.24	986.586	1.1045e-05	1890.09	1486.19	426.057	90.1517	3901.79	187.195	1619.23	0	2918.9	3309.07	966.694	0	149.011	5825.82	375.364	1980.3	2282.12	969.462	2893.4	1499.31	7.60741e-10	0	250.292	111.004	7.02093e-08	0	613.788	306.337	198.282	645.627	1061.67	3450.2	3939.22	0	187.542	270.076	31.9119	772.901	580.111	467.104	0	28.1858	0.0150588	206.781	70.1777	2591.83	5389.87	0	69.4122	10849.2	125.607	10411	1531.72	0.000167499	1.45863e-06	4556.72	8413.85	607.966	1919.48	1868.91	
3.51	1780.35	293.4	251.993	117.389	853.522	0	0	1509.13	887.995	447.126	611.355	1721.12	0	0	0	0	0	4806.8	1124.11	8.10712e-06	2110.57	1677.14	478.526	82.1168	3661.27	191.467	1649.93	0	2758.17	3299.58	898.304	0	155.129	6449.42	365.722	1841.98	2336.55	1020	3029.47	1575.26	7.88336e-07	0	267.065	113.816	1.16933e-07	0	569.035	314.751	192.389	616.746	1082.51	3488.53	4093.82	0	197.172	282.678	37.2931	1014.87	537.825	464.993	0	23.4882	0.0814337	220.034	66.4917	2604.77	5389.66	0	67.3744	10845.8	130.557	10281.5	1447.45	0	0	4335.99	8413.99	665.799	1726.95	2059.69	
3.515	1606.31	254.527	279.306	143.342	860.508	0	0	1358.58	843.712	422.947	621.985	1765.26	0	0	0	5.17979e-05	419.647	5352.65	1276.14	0	2335.06	1903.46	541.415	75.718	3387.18	195.592	1680.23	0	2592.35	3245.23	826.942	0	169.698	7129.41	351.73	1714.42	2389.76	1067.36	3158.47	1646.99	23.897	1.58058e-08	316.749	131.741	1.72789e-07	0	532.69	326.13	182.142	588.88	1097.5	3526.95	4251.5	0	208.69	297.514	44.4575	1114.14	502.075	465.425	0	142.403	0	234.821	63.1097	2610.42	5389.04	0	65.2363	10839.4	135.482	9978.44	1373.55	0	0	4117.03	8410.07	718.239	1374.14	2235.65	
3.52	1445.65	216.652	310.893	173.172	873.954	0	0	1245.09	802.31	400.47	632.16	1808.2	0	0	0	417.591	303.867	5950.03	1442.16	0	2548.79	2166.82	616.952	70.7754	3087.82	199.544	1709.81	0	2423.93	3147.79	755.563	0	191.725	7864.83	333.575	1597.64	2441.26	1113.5	3283.42	1717.06	41.6089	0	393.576	163.04	2.35257e-07	1.09605e-05	504.642	340.94	170.108	562.87	1108.98	3564.47	4409.7	0	222.04	314.579	52.6599	1062.75	472.668	467.351	0	321.683	0	250.967	60.3733	2609.73	5387.98	0	63.0644	10830.4	140.387	9590.67	1310.52	0	0	3908.03	8404.89	763.93	1028.8	2389.63	
3.525	1299.39	179.601	346.959	208.005	894.184	0	0	1160.97	763.772	379.739	641.798	1849.53	0	0	0	550.498	366.459	6593.62	1625.38	0	2738.91	2450.74	706.636	67.1614	2777.88	203.299	1738.4	0	2255.17	3012.12	687.468	0	220.252	8645.06	311.607	1490.49	2490.61	1158.75	3404.87	1785.78	31.6088	0	479.284	200.682	3.02527e-07	17.754	484.56	359.518	160.218	539.336	1117.83	3600.02	4564.38	0	236.961	333.523	61.8877	969.084	448.085	469.725	0.00533902	392.184	0.0516198	268.201	57.7904	2606.63	5386.52	0	60.9137	10819.2	145.282	9188.69	1258.42	0	0	3718.37	8399.6	801.716	772.347	2516.09	
3.53	1167.97	143.349	387.61	248.352	921.758	0	0	1099.9	728.032	360.665	650.835	1888.92	0	0	0	446.578	449.637	7275.07	1832.71	426.228	2894.88	2729.05	811.231	64.8079	2476.46	206.84	1765.77	0	2088.09	2842.05	625.434	0	254.561	9459.26	286.366	1392.25	2537.44	1201.74	3519.85	1851.19	35.3123	0.000192988	559.412	234.873	3.73121e-07	39.4462	472.134	382.032	152.789	518.886	1124.72	3632.25	4712.63	0	252.939	353.718	72.1486	884.601	427.069	471.507	0.00545189	366.29	0.196124	286.119	55.2812	2603.28	5384.65	0	58.8347	10806.2	150.179	8801.31	1217.01	0	0	3557.02	8394.18	830.089	614.628	2610.84	
3.535	1051.11	108.441	432.823	294.324	955.95	0	0	1056.78	695.07	343.159	659.23	1926.12	0	0	0	547.369	531.687	7991.31	2071.43	464.693	3009.32	2976.18	931.101	63.6632	2193.42	210.153	1791.73	0	1923.83	2641.53	569.878	0	294.236	10291.8	258.679	1302.85	2581.47	1241.44	3625.83	1911.75	38.3057	68.4461	620.863	259.386	4.46336e-07	30.6057	467.29	408.486	147.302	502.043	1129.84	3659.92	4849.86	0	269.267	374.252	83.293	820.033	408.711	471.706	0.00286575	324.532	0	304.189	52.9642	2599.96	5382.4	0	56.8666	10791.9	155.096	8439.29	1185.81	0	0	3432.53	8388.54	847.485	515.015	2670.75	
3.54	947.762	75.649	482.419	345.835	998.483	0	0	1027.57	664.889	327.177	666.963	1960.93	0	0	7.75916	625.929	628.649	8747.83	2347.86	434.831	3078.92	3168.73	1066.23	63.6555	1933.89	213.229	1816.14	143.435	1759.61	2415.91	520.624	0	339.182	11125.7	229.689	1222.21	2622.5	1276.88	3720.26	1965.9	39.6078	121.822	651.541	272.284	5.92534e-06	33.2133	470.052	438.625	143.765	489.226	1133.31	3681.98	4972.41	0	285.098	394.005	95.0417	769.452	392.314	469.49	0	299.076	0.00453374	321.751	50.8988	2596.55	5379.81	0	55.0414	10776.7	160.052	8109.84	1164.14	0	0	3350.28	8382.73	852.709	453.606	2694	
3.545	856.269	45.7875	535.969	402.617	1048.54	0	0	1009.13	637.459	312.691	674.027	1993.21	0	0	545.507	710.69	740.954	9542.17	2667.2	552.878	3105.11	3286.66	1216.03	64.6918	1700.65	216.065	1838.91	226.817	1596.89	2171.82	477.37	0	389.412	11944.6	200.68	1150.05	2660.42	1306.57	3799.18	2011.34	40.7919	125.252	643.116	272.884	7.13671e-08	36.6237	480.372	472.053	142.498	480.789	1135.23	3697.57	5075.75	0	296.195	410.687	107.065	727.507	377.327	464.205	0	283.442	0	338.073	49.201	2593.1	5376.9	0	53.3805	10761.1	165.065	7818.51	1151.14	0	4.32397e-06	3315.01	8376.88	845.216	405.932	2680.1	
3.55	774.351	19.7658	592.831	464.098	1106.49	0	0	999.2	612.695	299.653	680.431	2022.92	0	0	244.39	811.702	864.968	10359.8	3030.17	657.226	3102.63	3316.58	1384.87	66.6756	1493.54	218.658	1859.97	264.414	1437.36	1918.13	439.717	0	444.88	12735.9	172.008	1085.99	2695.16	1328.88	3858.31	2045.57	42.0509	137.462	590.686	260.332	1.89391e-07	38.2069	497.963	508.163	143.754	477.047	1135.66	3706	5156.02	0	300.37	422.617	118.961	692.909	363.347	455.463	0	269.945	0.117143	352.432	48.0456	2589.65	5373.7	0	51.8952	10745.3	170.153	7568.96	1145.67	0	0	3328.81	8371	825.168	370.862	2629.96	
3.555	700.144	0.756549	652.139	529.264	1172.11	0	0	996.288	590.506	287.996	686.194	2050.03	0	0	306.572	924.355	998.14	11178	3431.35	774.113	3098.23	3312.52	1579.36	69.5136	1307.12	221.012	1879.28	312.53	1283.79	1666.56	407.198	0	505.371	13490.1	143.445	1029.58	2726.75	1342.4	3893.93	2066.44	43.1715	166.068	482.323	232.15	1.17916e-07	39.285	522.269	546.22	147.675	478.316	1134.65	3706.63	5209.25	0	301.174	430.392	130.308	665.325	350.135	211.271	0	257.99	0.181763	364.199	47.0953	2586.19	5370.21	0	50.5805	10729.8	175.326	7361.33	1146.39	1.77367e-05	0	3391.12	8365.04	793.304	329.995	2545.83	
3.56	633.439	0	712.982	596.784	1245.24	0	0	999.739	570.761	277.647	691.343	2074.59	0	0	328.625	1049.11	1137.62	11970.5	3863.32	907.14	3094.27	3308.4	1801.83	73.1322	1137.02	223.134	1896.88	385.835	1138.94	1427.08	379.321	0	570.55	14199.9	116.231	980.281	2755.25	1346.01	3903.13	2072.22	55.2557	217.362	339.523	188.203	2.02469e-07	40.3722	552.403	585.326	154.352	484.943	1132.16	3698.84	5231.35	0	298.843	433.499	140.614	643.864	337.503	0	0	248.552	0	372.96	280.518	2582.72	5366.45	0.00164979	49.4447	10715	180.592	7192.23	1151.68	0	0	3497.19	8358.93	750.74	280.933	2431.38	
3.565	574.129	0	775.084	665.096	1324.96	0	0	1009.52	553.319	268.525	695.914	2096.66	0	0	341.195	1180.83	1279.61	12712	4317.16	1050.42	3090.37	3304.52	2050.72	77.4549	981.366	225.03	1912.76	472.43	1005.36	1196.75	355.641	0	639.822	14860.4	91.5007	937.537	2780.77	1339.12	3884.39	2062.04	116.964	292.237	233.785	141.93	2.35271e-07	41.2385	587.422	624.56	163.864	497.335	1128.09	3681.99	5218.66	0	292.972	431.685	149.539	627.973	263.856	0.275438	0	241.769	0	378.728	742.34	2579.24	5362.43	0.000844444	48.4455	10700.9	185.951	7058.95	1160.12	0	0	3638.08	8352.57	698.474	207.876	2291.4	
3.57	521.75	0.052935	838.635	732.721	1409.91	0	0	1026.33	538.02	260.538	699.944	2116.34	0	0	363.919	1314.23	1420.83	13382.8	4784.26	1199.8	3086.87	3300.65	2321.84	82.4336	841.939	226.712	1927	567.104	885.094	975.008	335.76	492.455	712.749	15468.2	69.1029	900.724	2803.45	1321.65	3837.58	2035.78	162.573	348.639	171.423	105.571	2.71293e-07	41.8618	626.493	662.941	176.272	516.002	1122.27	3655.41	5167.68	0	283.415	424.853	156.743	616.835	181.542	0	0	236.684	0.0199623	381.735	1180.59	2575.71	5358.15	0	47.6191	10688.1	191.399	6955.65	1170.26	0	0	3802.54	8345.83	637.706	109.927	2131.88	
3.575	475.677	0.0208264	903.545	799.251	1498	0	174.223	1051.4	524.695	253.594	703.474	2133.77	0	0	395.196	1448.23	1557.76	13972.1	5256.51	1351.42	3083.99	3297.17	2601.3	88.0258	720.291	228.193	1939.65	675.301	779.593	773.977	319.384	1373.83	789.186	16021.9	48.563	869.231	2823.46	1294.19	3764.31	1994.32	173.776	401.586	130.175	78.3532	3.00824e-07	42.2635	668.858	699.512	191.608	541.581	1114.48	3618.35	5075.59	0	270.54	413.346	162.041	609.933	113.946	0.0740352	0	232.371	0.0221936	382.404	1595.51	2572.1	5353.61	0	47.1345	10676.6	196.923	6876.6	1180.88	0	0	3988.97	8338.58	570.564	0.384332	1960.04	
3.58	435.159	0.00251287	969.264	865.156	1586.68	0	864.493	1086.46	513.167	247.598	706.545	2149.08	0	146.24	430.987	1579.74	1688.06	14479.4	5735.59	1501.82	3081.89	3294.26	2868.49	94.2031	616.963	229.486	1950.82	802.918	689.096	597.09	306.384	1655.09	870.736	16521.1	30.069	842.47	2840.99	1257.82	3667.54	1939.38	154.685	448.381	106.512	60.9208	3.27483e-07	42.461	713.493	733.383	209.873	574.853	1104.41	3570.12	4940.07	0	254.895	397.759	165.404	606.715	39.6573	0	0	228.357	0	381.326	1880.4	2568.39	5348.84	0	46.7101	10666.6	353.576	6816.46	1191.03	1.014e-15	0	4217.12	8330.71	500.305	0.703004	1783.95	
3.585	399.462	0	1034.76	930.622	1673	0	1037.91	1133.69	503.26	242.453	709.201	2162.43	0	485.109	470.106	1706.25	1812.18	14912.4	6225.71	1649.01	3080.67	3292.06	3109.92	100.955	531.671	230.606	1960.59	953.987	612.095	438.887	296.739	1842.65	960.2	16966.5	14.3455	819.867	2856.24	1214.04	3551.11	1873.2	124.098	492.356	97.9327	52.8166	3.49218e-07	42.4648	758.902	763.786	231.055	616.725	1091.78	3510.12	4760.46	0	237.063	378.84	166.945	606.541	7.05588	0	0	224.348	0.0171673	379.123	2077.07	2564.59	5343.84	0.000224723	46.3222	10658.2	539.455	6769.64	1200.01	0	0	4505.29	8322.18	430.498	0.000125083	1612.17	
3.59	367.802	0	1098.65	994.836	1753.88	2.60886e-05	1096.21	1195.71	494.798	238.065	711.483	2174	0	711.148	511.036	1825.85	1930.31	15287.7	6727.04	1795.49	3080.39	3290.68	3318.31	108.322	462.779	231.57	1969.08	1125.67	547.039	295.785	290.402	2164.7	1060.55	17360	2.94562	800.87	2869.41	1164.35	3418.99	1798.15	97.5945	546.12	83.8791	48.3693	3.65221e-07	42.2905	803.279	790.222	255.319	668.141	1076.3	3437.18	4537.95	6.68857e-05	217.617	357.395	166.898	608.726	80.4594	0	0	220.062	0.00359274	376.346	2317.81	2560.72	5338.67	0.00380628	45.9853	10651.2	612.886	6731.06	1207.39	1.67488e-15	0	4852.19	8312.99	363.747	0	1451.89	
3.595	339.483	0	1159.32	1056.45	1826.29	2.85879e-05	1243.3	1275.7	487.612	234.343	713.433	2183.95	0	886.075	552.475	1937.06	2041.51	15631.1	7237.14	1943.85	3081.06	3290.13	3489.53	116.387	407.538	232.394	1976.41	1313.25	492.777	169.11	287.279	2617.65	1174.42	17704.8	0	784.975	2880.72	1110.02	3274.32	1716.19	78.5989	617.148	60.4624	40.7105	3.74745e-07	41.9627	844.862	812.544	283.16	729.978	1057.67	3351.05	4277.46	5.59757e-05	197.132	334.256	165.589	612.442	193.55	0	1.07212e-07	215.24	0	373.409	2601.26	2556.82	5333.38	0.000213776	45.6795	10645.7	616.065	6696.55	1212.94	0	4.43008e-08	5240.63	8303.25	301.244	2.33148	1305.65	
3.6	313.812	0	1215.15	1114.01	1887.59	0	1483.34	1377.66	481.534	231.199	715.09	2192.47	5.92568e-05	1085.58	593.393	2038.92	2144.21	15988.1	7753.66	2094.94	3082.58	3290.37	3620.27	125.269	363.703	233.096	1982.69	1514.33	447.67	63.7912	287.243	3136.09	1304.53	18004.9	0	771.71	2890.37	1051.7	3118.62	1628.41	65.9775	707.755	38.569	28.5486	3.77485e-07	41.507	882.348	830.854	315.631	802.922	1035.54	3250.74	3985.83	4.86007e-05	176.17	310.198	163.382	616.021	245.618	4.68236e-05	2.03831e-07	209.678	0	370.47	2745.22	2551.71	5328.04	0	45.3759	10641.5	602.28	6662.85	1216.65	0	3.82369e-07	5634.66	8293.14	243.359	0	1170.36	
3.605	290.203	0	1264.7	1166.16	1935.77	1.10284e-07	1762.9	1506.54	476.405	228.548	716.496	2199.73	0	1345	633.107	2130.98	2236.73	16375.3	8275.11	2248.54	3084.85	3291.31	3706.37	135.131	329.09	233.692	1988.05	1722.47	410.063	0.868849	290.146	3696.03	1453.97	18264.5	0.0155089	760.646	2898.59	989.69	2952.39	1535.28	57.907	817.949	23.9189	16.0894	3.7341e-07	40.953	915.031	845.413	353.776	886.989	1009.77	3136.47	3671.39	3.96336e-05	155.262	285.871	160.65	617.254	239.652	0.000377033	2.31928e-07	203.259	0	367.406	2788.95	2541.45	5322.73	0	45.0654	10638.4	595.701	6627.72	1218.65	0	1.75225e-07	5965.17	8282.87	190.486	1.45347	1042.08	
3.61	268.21	0	1306.89	1211.84	1969.62	0	2060.97	1668.59	472.069	226.309	717.687	2205.91	55.213	1667.8	671.25	2213.63	2317.74	16814.1	8802.36	2403.95	3087.68	3292.79	3740.71	146.161	301.642	234.2	1992.63	1936.87	378.492	0	295.82	4306.9	1625.27	18488.5	0.0162135	751.383	2905.57	923.735	2774.66	1436.58	52.837	946.863	15.1448	7.23831	0	40.3339	942.686	856.543	398.265	980.069	980.293	3008.08	3344.9	3.2916e-05	134.85	261.809	157.745	614.664	215.727	0.000188505	2.26055e-07	195.945	0	363.893	2789.02	2523.17	5317.54	0.000409646	44.7392	10636.2	593.553	6589.82	1219.26	0	4.1762e-10	6082.87	8272.7	143.189	0	921.708	
3.615	247.526	0	1341.15	1250.49	1988.91	0	2380.11	1871.49	468.379	224.404	718.701	2211.19	325.383	2049.73	707.736	2287.88	2386.61	17317.2	9352.37	2560.43	3090.84	3294.64	3740.76	158.555	279.699	234.638	1996.55	2159.86	351.69	0	304.076	5012.79	1820.25	18682.2	0.00293235	743.543	2911.53	853.279	2583.46	1331.37	49.6346	1093.85	9.9422	2.24246	2.77093e-06	39.685	965.566	864.593	449.711	1078.26	947.1	2866	3017.5	2.70516e-05	115.268	238.426	154.981	607.544	196.18	5.10216e-05	2.0517e-07	187.815	0.000108039	359.539	2766.35	2495.87	5312.59	0.000102514	44.4005	10634.5	590.773	6548.74	1219.59	0	6.19673e-09	6081.77	8262.92	102.173	0	812.166	
3.62	227.952	0	1367.61	1282.08	1994.35	0	2724.11	2123.65	465.188	222.758	719.574	2215.75	457.218	2481.87	742.735	2355	2443.54	17890.1	9926.09	2717.45	3094.08	3296.62	3739.86	172.507	261.872	235.022	1999.93	2388.24	328.56	0.203099	314.696	5869.97	2040.74	18851.4	0	736.783	2916.68	779.655	2381.94	1221.54	47.6065	1259.79	6.97	0	0.000254087	39.0403	984.371	869.976	508.567	1177.04	910.36	2711.15	2699.03	2.20754e-05	96.746	216.009	152.633	595.499	180.025	0	1.78593e-07	178.993	8.00616e-05	353.929	2705.88	2459.23	5307.96	0.000348397	44.0481	10633.1	586.471	6504.84	1219.76	3.02275e-18	1.65988e-08	6082.21	8253.86	67.8818	0.215126	714.877	
3.625	209.35	0	1387	1307.16	1987.57	0	3105.61	2432.02	462.358	221.297	720.34	2219.76	528.22	2952.81	776.667	2416.41	2489.74	18530.5	10526.8	2877.17	3097.16	3298.54	3740.14	188.21	246.982	235.371	2002.92	2618.73	308.252	0.0648391	327.409	6913.31	2288.89	19002.1	0	730.768	2921.22	706.08	2178.78	1111.94	47.7196	1444.74	5.45889	0	0.00199096	38.4384	1000.16	873.14	574.669	1270.76	870.363	2545.06	2397.12	1.78117e-05	79.4736	194.769	150.944	578.411	162.652	0	1.50452e-07	169.667	3.63367e-05	346.627	2581.45	2413.21	5303.77	0.000118053	43.6897	10631.7	581.764	6459.22	1219.9	2.01495e-18	1.7608e-08	6089.03	8245.84	40.2974	0	628.969	
3.63	191.621	0	1400.58	1326.81	1970.96	0	3547.51	2801.86	459.75	219.95	721.035	2223.39	614.45	3466.56	810.168	2473.87	2527.21	19226.6	11149.8	3044.99	3099.79	3300.17	3740.19	205.848	234.032	235.702	2005.65	2849.75	289.985	0	341.889	8178.82	2567.32	19140.7	0	725.182	2925.34	633.031	1978.61	1004.76	50.4491	1649.95	4.8803	0	6.83382e-06	38.7694	1014.27	874.582	647.47	1351.24	827.565	2369.78	2121.14	1.42128e-05	63.6223	174.838	150.137	556.532	142.852	0	1.22618e-07	159.997	4.95523e-06	337.137	2377.53	2358.05	5300.11	0	43.3329	10630.1	577.32	6413.66	1220.5	7.89462e-19	9.72499e-09	6091.89	8239.12	19.5703	0.776877	552.589	
3.635	174.681	0	1410.04	1342.54	1947.51	0	4064.82	3236.4	457.23	218.648	721.692	2226.82	738.66	4059.09	844.082	2529.27	2558.67	19958.1	11786.8	3215.73	3101.77	3301.33	3740.1	225.499	222.158	236.033	2008.23	3081.03	272.94	0	357.744	9689.01	2878.27	19273.6	0	719.726	2929.26	547.316	1766.67	881.347	55.4319	1883.66	4.89165	0.0065858	0	40.8664	1028.21	874.816	726.49	1402.76	782.612	2187.83	1869.64	1.12097e-05	49.2999	156.285	150.428	530.506	121.438	0	9.61375e-08	150.031	2.68367e-06	325.435	2097.72	2294.46	5297.07	0	42.9842	10628	573.153	6371.64	1222.09	8.18414e-20	1.55983e-09	6090.94	8233.91	5.26258	0	483.416	
3.64	158.453	0	1417.36	1356.12	1920.59	0	4667.79	3730.01	454.665	217.322	722.346	2230.23	890.252	4751.57	879.397	2585.21	2587.3	20697.4	12430.5	3394.78	3102.86	3301.85	3739.85	247.143	210.503	236.381	2010.81	3311.88	256.295	0	374.587	11456	3226.39	19407.6	0	714.103	2933.17	455.528	1509.34	744.343	62.3192	2149.7	5.28299	0.00163658	0	44.7027	1043.59	874.317	811.495	1411.28	734.845	2002	1613.31	8.73807e-06	36.4941	139.046	152.048	501.318	99.0774	5.00014e-07	7.17958e-08	139.76	0	312.039	2130.54	2222.96	5294.71	0	42.6519	10625	569.111	6335.51	1225.16	0	2.07009e-07	6088.06	8230.06	0	0.157367	419.392	
3.645	142.87	0	1424.72	1369.51	1893.72	9.13114e-06	5364.87	4272.02	451.928	215.905	723.028	2233.78	1056.83	5550.78	917.195	2644.01	2616.62	21411.9	13073.4	3584.46	3102.9	3301.58	3739.31	270.704	198.252	236.764	2013.52	3542.26	239.256	0	391.977	13514.2	3624.37	19549.3	0	708.036	2937.27	361.638	1241.13	604.041	70.881	2447.57	5.93154	0.00288035	0.00137748	50.0809	1061.99	873.497	901.681	1407.99	685.229	1815.29	1401.39	6.72869e-06	25.234	123.169	155.247	470.066	76.1871	7.79079e-07	5.02429e-08	129.243	1.29627e-08	297.602	2037.84	2144.6	5293.1	0	42.337	10621.1	565.123	6307.34	1230.06	0	0	6081.71	8227.58	0	0	359.035	
