CEINMS output
datacolumns 7
datarows 203
endheader
time	addbrev_r	addlong_r	addmagDist_r	addmagIsch_r	addmagMid_r	addmagProx_r	bflh_r	bfsh_r	edl_r	ehl_r	fdl_r	fhl_r	gaslat_r	gasmed_r	glmax1_r	glmax2_r	glmax3_r	glmed1_r	glmed2_r	glmed3_r	glmin1_r	glmin2_r	glmin3_r	grac_r	iliacus_r	perbrev_r	perlong_r	piri_r	psoas_r	recfem_r	sart_r	semimem_r	semiten_r	soleus_r	tfl_r	tibant_r	tibpost_r	vasint_r	vaslat_r	vasmed_r	addbrev_l	addlong_l	addmagDist_l	addmagIsch_l	addmagMid_l	addmagProx_l	bflh_l	bfsh_l	edl_l	ehl_l	fdl_l	fhl_l	gaslat_l	gasmed_l	glmax1_l	glmax2_l	glmax3_l	glmed1_l	glmed2_l	glmed3_l	glmin1_l	glmin2_l	glmin3_l	grac_l	iliacus_l	perbrev_l	perlong_l	piri_l	psoas_l	recfem_l	sart_l	semimem_l	semiten_l	soleus_l	tfl_l	tibant_l	tibpost_l	vasint_l	vaslat_l	vasmed_l	
0.015	3503.92	19.5788	5.91531	10	1	500	
0.015	2667.46	16.7634	4.57932	10	1	500	
0.015	2174.08	11.663	2.63694	10	1	500	
0.019969	1555.08	7.91062	1.15483	10	1	500	
0.024937	1112.49	7.93564	1.0186	10	1	500	
0.029906	972.246	14.712	2.31506	10	1	500	
0.035091	877.099	9.32579	1.42356	10	1	500	
0.040059	943.763	8.73322	1.14331	10	1	500	
0.045028	1062.05	7.30118	0.963545	10	1	500	
0.049997	1415.28	7.56076	0.635939	10	1	500	
0.054965	1805.97	8.01741	0.598381	10	1	500	
0.059934	2075.93	8.25503	0.558228	10	1	500	
0.064903	2226.75	8.34981	0.599793	10	1	500	
0.070087	2249.48	8.05043	0.673695	10	1	500	
0.075056	2121.12	9.01435	0.577146	10	1	500	
0.080025	2009.98	9.04676	0.494604	10	1	500	
0.084994	2060.22	10.0286	0.400188	10	1	500	
0.089962	2307.69	8.31668	0.746001	10	1	500	
0.094931	2683.01	8.92355	1.57513	10	1	500	
0.100116	2988.98	9.25759	1.6638	10	1	500	
0.105084	3145.55	8.82593	1.46981	10	1	500	
0.110053	3118.57	10.9521	1.63715	10	1	500	
0.115022	2928.62	10.6039	1.40088	10	1	500	
0.11999	2661.51	8.01675	1.17874	10	1	500	
0.124959	2382.83	8.29024	1.06971	10	1	500	
0.129928	2118.73	7.04414	0.935935	10	1	500	
0.135112	1914.11	3.95034	0.907918	10	1	500	
0.140081	1766.55	6.57198	0.869499	10	1	500	
0.14505	1633.21	4.60969	0.829387	10	1	500	
0.150018	1513.15	3.54883	0.781667	10	1	500	
0.154987	1399.24	3.89746	0.731052	10	1	500	
0.159956	1282.97	4.35427	0.669104	10	1	500	
0.164924	1166.99	4.52702	0.599419	10	1	500	
0.170109	1083.58	3.97003	0.531825	10	1	500	
0.175078	1012.81	4.97679	0.49406	10	1	500	
0.180046	938.616	7.50317	0.475501	10	1	500	
0.185015	863.381	8.10955	0.420204	10	1	500	
0.189984	787.882	7.92558	0.427256	10	1	500	
0.194952	719.222	8.72317	0.467807	10	1	500	
0.199921	663.418	8.53422	0.475882	10	1	500	
0.205106	622.251	8.78248	0.523778	10	1	500	
0.210075	593.436	8.86926	0.576303	10	1	500	
0.215043	568.342	9.00979	0.64458	10	1	500	
0.220012	541.788	9.1204	0.670384	10	1	500	
0.224981	511.636	9.7288	0.611714	10	1	500	
0.229949	474.939	10.4915	0.50132	10	1	500	
0.234918	454.444	9.81616	0.400623	10	1	500	
0.240103	417.948	10.4694	0.340975	10	1	500	
0.245071	374.095	10.2087	0.324472	10	1	500	
0.25004	324.804	10.2	0.322549	10	1	500	
0.255009	278.897	8.66637	0.313653	10	1	500	
0.259977	240.146	8.73314	0.241463	10	1	500	
0.264946	196.999	9.29261	0.233612	10	1	500	
0.269915	157.42	5.17816	0.242867	10	1	500	
0.275099	133.429	6.50544	0.286888	10	1	500	
0.280068	124.276	7.93262	0.394249	10	1	500	
0.285037	108.664	6.67338	0.707978	10	1	500	
0.290005	81.7795	6.20653	0.699565	10	1	500	
0.294974	73.6271	6.08626	0.494569	10	1	500	
0.299943	72.2837	6.78012	0.427041	10	1	500	
0.304911	73.8929	6.37531	0.375886	10	1	500	
0.310096	74.3739	7.11571	0.437872	10	1	500	
0.315065	69.0303	9.60435	0.461017	10	1	500	
0.320033	46.0088	5.34545	0.310264	10	1	500	
0.325002	26.0548	5.76419	0.186045	10	1	500	
0.329971	18.892	8.68459	0.0758698	10	1	500	
0.33494	14.2273	10.3882	0.0548149	10	1	500	
0.339908	13.0942	10.0764	0.0424849	10	1	500	
0.345093	16.2898	9.22661	0.0331837	10	1	500	
0.350062	21.8843	9.31864	0.0412659	10	1	500	
0.35503	28.5331	8.02271	0.0492418	10	1	500	
0.359999	21.569	7.84298	0.0460702	10	1	500	
0.364968	16.7156	6.77011	0.0419624	10	1	500	
0.369936	11.9532	6.46105	0.0336657	10	1	500	
0.374905	10.2653	5.25627	0.0252035	10	1	500	
0.38009	13.1669	2.97383	0.0243172	10	1	500	
0.385058	16.9178	3.42681	0.0257379	10	1	500	
0.390027	20.4969	2.26709	0.0328576	10	1	500	
0.394996	23.8052	1.90298	0.0313856	10	1	500	
0.399964	26.8468	1.78892	0.0376689	10	1	500	
0.404933	28.7926	1.63266	0.0441881	10	1	500	
0.409902	28.421	1.49607	0.0492812	10	1	500	
0.415086	24.5119	1.38884	0.0498713	10	1	500	
0.420055	18.0884	1.37161	0.0454204	10	1	500	
0.425024	10.1863	1.19269	0.0338964	10	1	500	
0.429992	3.92499	1.58787	0.0137601	10	1	500	
0.434961	0.910776	3.66637	0.00398925	10	1	500	
0.43993	0.229107	3.95357	0.0020324	10	1	500	
0.445114	0.322486	4.30657	0.00270396	10	1	500	
0.450083	0.79901	6.26917	0.0063229	10	1	500	
0.455052	1.56441	6.94181	0.0111073	10	1	500	
0.460021	2.54218	7.35504	0.0164986	10	1	500	
0.464989	4.14845	7.05325	0.0237963	10	1	500	
0.469958	6.25593	8.24873	0.0342164	10	1	500	
0.474927	8.9072	8.97489	0.0482002	10	1	500	
0.480111	13.1941	10.4953	0.0687644	10	1	500	
0.48508	19.6512	10.5962	0.0998005	10	1	500	
0.490049	29.4429	9.93811	0.136947	10	1	500	
0.495017	43.3999	9.43562	0.183325	10	1	500	
0.499986	60.3558	9.50529	0.236678	10	1	500	
0.504955	77.9536	9.49744	0.2926	10	1	500	
0.509923	92.8799	11.4241	0.332522	10	1	500	
0.515108	101.911	11.4839	0.334165	10	1	500	
0.520077	108.927	9.86359	0.280367	10	1	500	
0.525045	116.086	9.17996	0.219207	10	1	500	
0.530014	121.502	9.45241	0.175801	10	1	500	
0.534983	123.017	10.0516	0.154145	10	1	500	
0.539951	120.221	11.5338	0.156705	10	1	500	
0.54492	114.148	11.8984	0.167619	10	1	500	
0.550105	104.817	13.6776	0.210517	10	1	500	
0.555073	90.0937	14.6868	0.332156	10	1	500	
0.560042	76.953	16.5259	0.420602	10	1	500	
0.565011	70.9693	16.1941	0.513168	10	1	500	
0.569979	71.8939	15.0663	0.584805	10	1	500	
0.574948	70.5396	14.1935	0.548123	10	1	500	
0.579917	63.8678	15.8028	0.412109	10	1	500	
0.585102	852.678	22.8464	1.96793	10	1	500	
0.59007	1130.29	16.8023	1.09118	10	1	500	
0.595039	1145.02	11.0591	0.63432	10	1	500	
0.600008	647.472	10.0543	0.395816	10	1	500	
0.604976	236.246	9.40109	0.201037	10	1	500	
0.609945	217.011	9.57074	0.110956	10	1	500	
0.614914	415.928	9.83729	0.0857359	10	1	500	
0.620098	625.064	9.87353	0.0812632	10	1	500	
0.625067	781.878	9.63054	0.125009	10	1	500	
0.630036	890.266	10.4876	0.120306	10	1	500	
0.635004	985.956	10.3368	0.0899701	10	1	500	
0.639973	1146.55	9.32765	0.0799152	10	1	500	
0.644942	1308.14	8.27214	0.123462	10	1	500	
0.64991	1564.88	8.22117	0.167775	10	1	500	
0.655095	1982.64	7.27832	0.235019	10	1	500	
0.660064	2510.1	6.45602	0.31645	10	1	500	
0.665032	3014.75	5.84642	0.379665	10	1	500	
0.670001	3438.18	5.66093	0.428925	10	1	500	
0.67497	3872.14	6.01764	0.460512	10	1	500	
0.679938	4242.31	7.27732	0.459691	10	1	500	
0.684907	4501.5	8.23436	0.462591	10	1	500	
0.690092	4600.78	8.36763	0.478319	10	1	500	
0.69506	4707.17	7.95429	0.526295	10	1	500	
0.700029	4786.76	7.89441	0.602306	10	1	500	
0.704998	4873.8	8.57753	0.787711	10	1	500	
0.709967	4896.21	9.09707	0.846448	10	1	500	
0.714935	4924.26	8.2762	0.996653	10	1	500	
0.719904	4917.27	8.8543	1.10463	10	1	500	
0.725089	4868.54	9.83849	1.12934	10	1	500	
0.730057	4783.46	7.77663	1.0452	10	1	500	
0.735026	4665.32	8.81986	0.892607	10	1	500	
0.739995	4514.09	9.08203	0.694807	10	1	500	
0.744963	4333.58	7.63139	0.540858	10	1	500	
0.749932	4123.81	9.47386	0.430315	10	1	500	
0.754901	3891.05	8.68975	0.361266	10	1	500	
0.760085	3643.03	10.1772	0.299768	10	1	500	
0.765054	3389.23	10.7166	0.250406	10	1	500	
0.770023	3146.74	10.854	0.207999	10	1	500	
0.774991	2926.46	8.73998	0.17489	10	1	500	
0.77996	2737.78	8.62841	0.162184	10	1	500	
0.784929	2583.72	8.10773	0.150718	10	1	500	
0.790113	2470.14	5.84425	0.144026	10	1	500	
0.795082	2400.53	5.62344	0.134471	10	1	500	
0.800051	2375.24	6.96728	0.129096	10	1	500	
0.805019	2389.27	9.84243	0.127975	10	1	500	
0.809988	2446.31	9.85266	0.123565	10	1	500	
0.814957	2535.36	10.07	0.121224	10	1	500	
0.819925	2636.79	9.20554	0.165622	10	1	500	
0.82511	2713.02	12.5395	0.0837907	10	1	500	
0.830079	2792.77	9.96498	0.054272	10	1	500	
0.835048	2884.86	5.88924	0.0528798	10	1	500	
0.840016	2981.97	6.10663	0.0574665	10	1	500	
0.844985	3081.72	7.32592	0.0515611	10	1	500	
0.849954	3182.28	6.40012	0.0505154	10	1	500	
0.854922	3286.94	6.27394	0.0519638	10	1	500	
0.860107	3387.73	6.06574	0.0490686	10	1	500	
0.865076	3489.19	5.78374	0.0503135	10	1	500	
0.870044	3592.64	5.87517	0.0531906	10	1	500	
0.875013	3703.33	6.38406	0.0669421	10	1	500	
0.879982	3813.22	6.08465	0.079769	10	1	500	
0.88495	3916.58	6.37743	0.0927597	10	1	500	
0.889919	4020.22	4.22952	0.11586	10	1	500	
0.895104	4131.7	4.42715	0.183765	10	1	500	
0.900072	4279.25	4.49505	0.297381	10	1	500	
0.905041	4435.74	3.27435	0.480325	10	1	500	
0.91001	4579.43	3.6538	0.710812	10	1	500	
0.914978	4724.52	4.01078	0.8423	10	1	500	
0.919947	4857.96	4.40993	0.869594	10	1	500	
0.924916	4992.39	4.49693	0.825734	10	1	500	
0.9301	5146.23	4.5313	0.696897	10	1	500	
0.935069	5327.56	4.95017	0.681344	10	1	500	
0.940038	5533.41	5.43633	0.744781	10	1	500	
0.945006	5761.3	5.89547	0.849181	10	1	500	
0.949975	6011.51	6.36665	0.946824	10	1	500	
0.954944	6283.21	7.35031	0.924634	10	1	500	
0.959913	6583.46	7.77848	0.80319	10	1	500	
0.965097	6865.52	7.92091	0.62227	10	1	500	
0.970066	7122.03	8.43179	0.466337	10	1	500	
0.975035	7374.22	9.58824	0.390355	10	1	500	
0.980003	7637.29	10.7001	0.334944	10	1	500	
0.984972	7917.74	11.5605	0.3319	10	1	500	
0.989941	8210.26	12.3761	0.354198	10	1	500	
0.994909	8512.24	13.1884	0.373815	10	1	500	
1.00009	8819.36	13.8323	0.371115	10	1	500	
1.00506	9132.41	14.3611	0.329226	10	1	500	
1.01003	9452.58	14.4117	0.299533	10	1	500	
1.015	9777.37	15.3473	0.264367	10	1	500	
