CEINMS output
datacolumns 6
datarows 92
endheader
time	hip_flexion_l	hip_adduction_l	hip_rotation_l	knee_angle_l	ankle_angle_l	
3.19	50.6069	-121.024	31.0012	-191.423	3.62785	
3.195	85.8128	-167.956	36.7716	-257.71	9.81806	
3.2	85.3544	-157.681	19.6482	-275.872	10.2739	
3.205	91.9642	-142.577	18.3203	-285.732	10.4783	
3.21	129.692	-141.15	21.5316	-297.495	12.3041	
3.215	179.187	-148.032	19.9997	-307.435	15.0391	
3.22	222.912	-153.619	15.3734	-311.643	17.8809	
3.225	259.582	-155.558	11.5323	-311.559	20.4792	
3.23	288.509	-154.01	8.70687	-315.334	22.9396	
3.235	309.265	-149.493	5.66042	-324.638	25.4611	
3.24	321.719	-142.115	0.722638	-334.479	28.1824	
3.245	325.724	-131.999	-4.83952	-334.294	31.1907	
3.25	321.674	-119.556	-10.3002	-321.83	34.4933	
3.255	312.124	-113.152	-12.0467	-301.781	38.0336	
3.26	295.988	-103.384	-13.6189	-277.09	41.6996	
3.265	273.723	-88.613	-15.6751	-249.132	45.2858	
3.27	247.471	-72.1467	-16.9113	-219.84	48.7072	
3.275	216.86	-56.2783	-17.1482	-189.855	51.9447	
3.28	185.56	-34.7491	-15.1778	-158.841	54.9494	
3.285	149.032	-12.7692	-12.6595	-134.996	57.6766	
3.29	109.673	4.4777	-10.1569	-111.624	60.0969	
3.295	77.1155	12.8462	-8.20187	-85.2198	62.1884	
3.3	52.5221	16.0938	-6.42588	-62.66	63.9725	
3.305	35.6068	18.3211	-4.54207	-46.8014	65.4997	
3.31	29.8025	22.8949	-2.35854	-43.1032	66.8139	
3.315	23.6898	23.9725	0.499316	-44.8146	67.9869	
3.32	16.0281	17.9076	2.96171	-45.5779	69.0825	
3.325	10.9652	8.99081	3.40392	-43.8557	69.8349	
3.33	7.05602	0.693211	4.22761	-39.9749	70.0493	
3.335	4.14929	-6.677	5.67567	-34.5189	70.2147	
3.34	1.78738	-12.5774	7.20584	-30.7362	70.7087	
3.345	-1.04118	-16.3278	8.04756	-25.3242	71.2942	
3.35	-5.46761	-17.5016	8.08941	-14.5072	70.9425	
3.355	-12.4481	-16.0477	7.2483	3.10152	69.5909	
3.36	-22.96	-11.9663	5.6268	28.1944	67.6389	
3.365	-38.2708	-5.44149	3.26448	57.0121	65.3578	
3.37	-60.4973	3.91264	0.602884	91.1326	62.9234	
3.375	-89.5465	15.1409	-1.71737	130.554	60.4415	
3.38	-123.5	26.6298	-2.97075	173.673	57.9233	
3.385	-160.201	37.02	-2.614	222.281	55.3306	
3.39	-197.964	45.2345	-0.619289	271.407	52.6153	
3.395	-235.956	50.9206	2.36311	306.889	49.7304	
3.4	-270.122	53.0943	6.63256	334.992	46.6302	
3.405	-293.282	51.5853	10.6126	345.088	43.282	
3.41	-305.85	51.6866	12.3252	341.278	39.6928	
3.415	-315.93	56.3288	11.963	333.377	35.8974	
3.42	-326.28	60.2497	15.5722	325.478	31.9386	
3.425	-334.723	62.2141	22.228	316.796	27.8552	
3.43	-340.934	62.9643	26.5507	310.195	23.6856	
3.435	-343.372	63.5339	29.5601	303.824	19.4553	
3.44	-342.62	63.8162	30.6985	295.752	15.177	
3.445	-338.855	64.0456	30.1089	282.04	15.3392	
3.45	-332.438	64.2662	28.008	260.471	15.2293	
3.455	-323.614	64.5956	24.7135	233.36	10.3387	
3.46	-312.862	65.1253	20.5927	202.354	2.16744	
3.465	-300.767	65.8488	15.9322	174.692	-5.28071	
3.47	-283.436	66.1796	12.4637	158.163	-7.37351	
3.475	-271.454	67.0177	7.01307	148.513	-8.65309	
3.48	-261.522	59.1853	6.75399	125.291	-12.9083	
3.485	-251.501	47.5609	8.24057	99.8691	-21.7075	
3.49	-241.987	37.3111	8.31497	82.9301	-36.3131	
3.495	-233.846	29.1102	7.00185	65.5179	-52.445	
3.5	-227.709	15.2007	14.0401	49.1974	-65.9108	
3.505	-218.034	2.18095	22.7064	36.5797	-78.0067	
3.51	-211.103	-12.3858	28.7037	28.421	-90.0886	
3.515	-197.537	-24.9358	29.5431	19.825	-102.109	
3.52	-179.887	-37.5409	27.8075	9.54859	-113.52	
3.525	-162.609	-46.0822	22.8997	-3.56711	-123.66	
3.53	-147.317	-47.6307	14.4541	-17.4903	-132.102	
3.535	-132.559	-45.173	6.10299	-31.4809	-139.61	
3.54	-116.614	-39.4306	-0.856069	-42.5153	-147.705	
3.545	-105.395	-39.8265	-7.24871	-53.1503	-155.592	
3.55	-95.3353	-40.6448	-12.961	-56.7494	-161.187	
3.555	-79.6998	-31.2472	-12.873	-63.5577	-163.78	
3.56	-58.2415	-18.4337	-11.0563	-59.3415	-163.703	
3.565	-29.2598	-10.751	-12.0014	-60.1372	-161.012	
3.57	-0.924736	-5.26286	-10.1764	-54.2296	-155.441	
3.575	22.1322	-2.10818	-7.85536	-48.5672	-146.554	
3.58	41.6913	-2.33943	-6.61004	-41.5377	-133.894	
3.585	57.7081	-5.40635	-7.0958	-37.8229	-117.297	
3.59	69.8874	-8.61554	-7.2709	-38.4035	-96.9902	
3.595	78.9212	-9.31435	-6.54598	-44.1719	-73.884	
3.6	85.9776	-7.49988	-5.62489	-53.4029	-49.729	
3.605	92.3089	-3.87095	-4.90445	-64.615	-27.8564	
3.61	98.768	1.12045	-4.37401	-77.1498	-15.327	
3.615	105.443	7.41871	-3.99301	-90.6409	-9.23116	
3.62	112.429	17.9581	-4.35821	-105.131	-3.6806	
3.625	117.586	26.5058	-4.6723	-119.9	1.66169	
3.63	121.408	37.4537	-5.75026	-133.3	5.65033	
3.635	124.235	51.3468	-7.59034	-144.556	7.79567	
3.64	138.35	64.7082	-6.62828	-155.272	9.35145	
3.645	149.007	80.9557	-6.89062	-164.361	8.55782	
