CEINMS output
datacolumns 81
datarows 92
endheader
time	addbrev_r	addlong_r	addmagDist_r	addmagIsch_r	addmagMid_r	addmagProx_r	bflh_r	bfsh_r	edl_r	ehl_r	fdl_r	fhl_r	gaslat_r	gasmed_r	glmax1_r	glmax2_r	glmax3_r	glmed1_r	glmed2_r	glmed3_r	glmin1_r	glmin2_r	glmin3_r	grac_r	iliacus_r	perbrev_r	perlong_r	piri_r	psoas_r	recfem_r	sart_r	semimem_r	semiten_r	soleus_r	tfl_r	tibant_r	tibpost_r	vasint_r	vaslat_r	vasmed_r	addbrev_l	addlong_l	addmagDist_l	addmagIsch_l	addmagMid_l	addmagProx_l	bflh_l	bfsh_l	edl_l	ehl_l	fdl_l	fhl_l	gaslat_l	gasmed_l	glmax1_l	glmax2_l	glmax3_l	glmed1_l	glmed2_l	glmed3_l	glmin1_l	glmin2_l	glmin3_l	grac_l	iliacus_l	perbrev_l	perlong_l	piri_l	psoas_l	recfem_l	sart_l	semimem_l	semiten_l	soleus_l	tfl_l	tibant_l	tibpost_l	vasint_l	vaslat_l	vasmed_l	
3.19	0.093799	0.150155	0.146043	0.125956	0.150646	0.372396	0.131156	0.183449	0.164544	0.148737	0.155759	0.172678	0.178526	0.124489	0.304925	0.294748	0.292624	0.189793	0.20028	0.235196	0.0955265	0	0.0100638	0.126069	0.234025	0.162684	0.170641	0.116487	0.185154	0.252072	0.018456	0.178356	0.165057	0.263997	0.0520496	0.151236	0.156972	0.0541506	0.214801	0.35753	0.106409	0.0924997	0.207851	0.195735	0.231829	0.291278	0.160578	0.226622	0.155755	0.121246	0.162423	0.174531	0.155077	0.251353	0.562265	0.504216	0.475729	0.368964	0.564529	0.610224	0.24721	0	0.0301103	0.170302	0.285281	0.13159	0.146583	0.267561	0.220675	0.0711365	0.0194634	0.168385	0.16849	0.888834	0.0790075	0.109546	0.139759	0.0681374	0.402536	0.462987	
3.195	0.0943126	0.15024	0.147107	0.126774	0.152041	0.372416	0.131391	0.182168	0.164203	0.148395	0.155812	0.172766	0.177866	0.123988	0.306282	0.296148	0.294631	0.18896	0.200519	0.236427	0.0948399	0	0.0100507	0.126079	0.2318	0.16278	0.170723	0.117024	0.183938	0.251911	0.0183237	0.178261	0.165041	0.264716	0.0514711	0.150767	0.157053	0.0544609	0.215945	0.359583	0.10678	0.0926874	0.208986	0.196955	0.233341	0.293896	0.162339	0.228591	0.155685	0.121178	0.162447	0.174718	0.156114	0.251374	0.563325	0.505821	0.476729	0.366124	0.562983	0.610222	0.244108	0	0.0301109	0.171501	0.2845	0.131686	0.146649	0.267583	0.220538	0.0703875	0.0194863	0.169809	0.169884	0.889145	0.0790138	0.109477	0.139944	0.0681388	0.393934	0.455163	
3.2	0.0948057	0.150338	0.148239	0.127696	0.153477	0.372774	0.131692	0.180919	0.16383	0.148028	0.155874	0.172863	0.177028	0.123397	0.307755	0.297643	0.296753	0.188183	0.200822	0.237769	0.0941803	0	0.0100412	0.126093	0.229516	0.162894	0.170816	0.117681	0.182628	0.251771	0.0181937	0.178179	0.165044	0.265527	0.0506667	0.150268	0.157143	0.0548373	0.217341	0.36207	0.107187	0.0929	0.210569	0.198833	0.235423	0.296585	0.166214	0.232031	0.155612	0.12111	0.162436	0.175354	0.157985	0.251422	0.569104	0.511444	0.484979	0.362414	0.553064	0.610216	0.241053	0	0.0301115	0.174353	0.283521	0.131684	0.146665	0.267633	0.220368	0.0696674	0.0195139	0.171656	0.171527	0.89073	0.0790288	0.109411	0.139738	0.0681614	0.383029	0.445413	
3.205	0.0952581	0.150441	0.1494	0.128665	0.154928	0.373285	0.132047	0.179743	0.163463	0.147672	0.155934	0.172956	0.17608	0.122781	0.309325	0.299204	0.298955	0.187515	0.201203	0.239208	0.0935821	0	0.010037	0.126112	0.227249	0.163004	0.170905	0.118432	0.181291	0.251474	0.0180674	0.178144	0.16508	0.266322	0.0497167	0.149788	0.15723	0.0552441	0.218855	0.364752	0.107868	0.0932636	0.211933	0.200593	0.237294	0.298852	0.170749	0.235471	0.156234	0.121141	0.162445	0.176021	0.15993	0.251483	0.573882	0.516384	0.492413	0.357895	0.53842	0.609813	0.238431	0	0.0301121	0.177211	0.284399	0.131693	0.146687	0.267696	0.222103	0.0689745	0.0195468	0.173678	0.173147	0.892666	0.0790476	0.109354	0.139645	0.0681934	0.37146	0.43503	
3.21	0.0956632	0.150546	0.150582	0.129662	0.156386	0.373832	0.132457	0.178655	0.163144	0.147363	0.155986	0.173036	0.175104	0.122183	0.310996	0.300829	0.301234	0.186985	0.201673	0.240744	0.0930644	0	0.0100393	0.126147	0.225032	0.1631	0.17098	0.119266	0.179955	0.250917	0.0179454	0.178185	0.165162	0.267023	0.0487616	0.149374	0.157306	0.0556522	0.22038	0.36744	0.108649	0.0936814	0.212764	0.201733	0.238646	0.30091	0.175082	0.23851	0.157016	0.121056	0.162476	0.176529	0.161666	0.251547	0.575803	0.519088	0.497186	0.352924	0.530683	0.608769	0.235818	0	0.0301128	0.179559	0.286282	0.131731	0.146711	0.267762	0.224306	0.0683089	0.0195854	0.175849	0.174761	0.894345	0.0790674	0.109322	0.139698	0.0682278	0.360448	0.425025	
3.215	0.0960141	0.15065	0.151784	0.130691	0.157845	0.374375	0.132933	0.177659	0.162893	0.14712	0.156028	0.1731	0.174132	0.121605	0.312776	0.302519	0.30359	0.186617	0.202238	0.242368	0.092642	0	0.0100487	0.126202	0.222868	0.163177	0.171041	0.120181	0.178619	0.250076	0.0178281	0.178317	0.165301	0.267587	0.047889	0.149049	0.157367	0.0560499	0.221872	0.370063	0.109391	0.0940756	0.213156	0.202081	0.239642	0.303134	0.17909	0.241425	0.157624	0.121017	0.162513	0.176876	0.163257	0.251611	0.575863	0.520175	0.500537	0.348377	0.526439	0.607397	0.233107	0	0.0301604	0.181614	0.288131	0.131775	0.146718	0.268135	0.225995	0.0676732	0.0196305	0.178215	0.176426	0.895574	0.0790869	0.109323	0.13978	0.0682683	0.350273	0.415678	
3.22	0.0963038	0.150754	0.153005	0.131755	0.159294	0.374909	0.133484	0.176759	0.162718	0.146953	0.156058	0.173145	0.173158	0.121035	0.31467	0.304276	0.306022	0.18643	0.2029	0.244066	0.0923268	0	0.010066	0.126282	0.220761	0.163232	0.171084	0.121172	0.177281	0.24895	0.0177155	0.178554	0.165505	0.267986	0.0471139	0.148826	0.15741	0.0564323	0.223311	0.372587	0.110079	0.0944479	0.213371	0.201688	0.240592	0.305634	0.182943	0.244538	0.158031	0.121053	0.162545	0.177114	0.164823	0.251674	0.575224	0.520506	0.503549	0.34417	0.521745	0.605778	0.23035	0	0.0302208	0.183682	0.289556	0.131807	0.146697	0.268709	0.227043	0.0670714	0.0196828	0.180764	0.178142	0.89639	0.0791062	0.10936	0.139846	0.0683214	0.340835	0.407037	
3.225	0.0965254	0.150859	0.15424	0.132856	0.160722	0.375439	0.134117	0.175957	0.162631	0.14687	0.156073	0.173167	0.172166	0.120465	0.316678	0.306095	0.308526	0.186435	0.203656	0.24582	0.092128	0	0.0100913	0.126387	0.218716	0.163261	0.171105	0.122224	0.175944	0.247535	0.0176077	0.178906	0.165779	0.26819	0.0464207	0.148717	0.157432	0.0567941	0.224677	0.374974	0.110752	0.0948402	0.213633	0.20081	0.241716	0.308322	0.18679	0.247981	0.158317	0.121136	0.162566	0.17728	0.166424	0.251736	0.57421	0.520392	0.50639	0.340339	0.516304	0.603732	0.227583	0	0.0302732	0.185918	0.290574	0.131821	0.146647	0.269277	0.227684	0.0665086	0.0197429	0.183427	0.179893	0.896892	0.0791254	0.109437	0.139896	0.06839	0.332069	0.399097	
3.23	0.0966725	0.150963	0.155486	0.133998	0.162117	0.375969	0.134834	0.175249	0.162638	0.146879	0.156072	0.173164	0.17115	0.119889	0.318795	0.307973	0.311094	0.186644	0.204503	0.247603	0.0920524	0	0.0101247	0.126517	0.216738	0.163261	0.171103	0.123306	0.174611	0.245819	0.017505	0.179379	0.166126	0.268174	0.0457949	0.148733	0.15743	0.0571307	0.225951	0.377195	0.111449	0.0952921	0.214002	0.199904	0.243051	0.311163	0.190684	0.251761	0.158556	0.121385	0.162568	0.177392	0.168069	0.251798	0.572636	0.519739	0.508774	0.336501	0.510445	0.601047	0.224814	0	0.0302996	0.188349	0.291328	0.131811	0.146566	0.27104	0.228147	0.065984	0.0198116	0.186161	0.181667	0.897173	0.0791445	0.10956	0.139926	0.0684721	0.323929	0.39178	
3.235	0.0967396	0.151067	0.156734	0.135177	0.163467	0.3765	0.135635	0.174631	0.162746	0.146988	0.156054	0.173133	0.170106	0.119301	0.321015	0.309904	0.313717	0.187062	0.205434	0.249389	0.0921044	0	0.0101664	0.126669	0.214833	0.163229	0.171075	0.124379	0.173286	0.24381	0.0174072	0.179975	0.166547	0.267923	0.0452292	0.148882	0.157402	0.0574396	0.227123	0.379232	0.112196	0.0958297	0.214423	0.199241	0.244518	0.314226	0.194616	0.255877	0.15879	0.12155	0.162552	0.177454	0.169742	0.251859	0.570283	0.518365	0.51042	0.332516	0.504084	0.597533	0.222043	0	0.030307	0.190962	0.291958	0.131773	0.146453	0.273575	0.22857	0.0654939	0.0198895	0.188959	0.183454	0.897303	0.0791681	0.109731	0.139924	0.0685637	0.316319	0.384941	
3.24	0.0967217	0.151172	0.157978	0.136388	0.164756	0.377032	0.136515	0.174097	0.162959	0.147198	0.156018	0.173075	0.169032	0.118698	0.323323	0.311881	0.316383	0.187692	0.206441	0.25116	0.0922868	0	0.0102159	0.12684	0.213006	0.163166	0.171022	0.125409	0.171973	0.241529	0.0173144	0.180688	0.16704	0.267432	0.0447206	0.149168	0.157349	0.0577197	0.228188	0.38108	0.113012	0.0964721	0.21482	0.198811	0.246021	0.317543	0.198546	0.260353	0.159041	0.12169	0.162514	0.177462	0.171429	0.251921	0.567048	0.516144	0.511159	0.328376	0.497072	0.593001	0.219164	0	0.0303072	0.193749	0.292568	0.131707	0.146306	0.276105	0.229021	0.0650352	0.0199771	0.191815	0.185237	0.89733	0.0797442	0.109952	0.139873	0.0686668	0.309124	0.378436	
3.245	0.096615	0.151112	0.159205	0.137624	0.165971	0.377565	0.137468	0.173638	0.163277	0.147511	0.155966	0.17299	0.167926	0.118074	0.325702	0.313892	0.319078	0.188535	0.207517	0.252929	0.0926008	0	0.0102732	0.127022	0.21126	0.163071	0.170944	0.126381	0.170676	0.239015	0.0172265	0.181512	0.167598	0.26671	0.0442662	0.149593	0.15727	0.0579708	0.229144	0.382736	0.113914	0.0972378	0.21514	0.198446	0.247329	0.32111	0.202427	0.265227	0.159321	0.121935	0.16245	0.177412	0.173118	0.251983	0.562892	0.51301	0.510886	0.32408	0.489349	0.587265	0.216046	0	0.0303062	0.19671	0.293244	0.131623	0.146126	0.280469	0.229538	0.0646141	0.0200751	0.194706	0.186994	0.89729	0.0807244	0.110225	0.139759	0.0687839	0.302324	0.372242	
3.25	0.0964168	0.150641	0.160407	0.138874	0.167096	0.378098	0.138486	0.173248	0.163699	0.147925	0.155898	0.172881	0.166791	0.117431	0.32813	0.315927	0.321783	0.189588	0.208657	0.254684	0.0930464	0	0.0103379	0.127208	0.209599	0.162948	0.170842	0.127285	0.169399	0.236318	0.0171431	0.182432	0.168213	0.265774	0.0438632	0.150153	0.157169	0.0581934	0.229993	0.384205	0.114921	0.0981448	0.21535	0.197989	0.248307	0.324934	0.206204	0.270517	0.15964	0.122269	0.162357	0.1773	0.174799	0.252045	0.557786	0.508923	0.509499	0.319634	0.480887	0.580162	0.21295	0	0.0303059	0.199842	0.294062	0.131526	0.145914	0.286544	0.230153	0.0642414	0.0201838	0.197588	0.1887	0.897204	0.0818197	0.11055	0.139572	0.0689137	0.296004	0.366448	
3.255	0.0961254	0.149874	0.161573	0.140129	0.168114	0.378633	0.139564	0.172915	0.16422	0.148436	0.155818	0.172751	0.165627	0.116773	0.330581	0.317975	0.324479	0.190851	0.209874	0.256414	0.0936227	0	0.0104097	0.127388	0.208024	0.162799	0.17072	0.128113	0.168148	0.233493	0.0170643	0.183437	0.168875	0.26466	0.0435087	0.150841	0.157049	0.0583894	0.230741	0.385497	0.11605	0.0992003	0.215425	0.197357	0.248971	0.329049	0.209809	0.276213	0.160005	0.122655	0.16223	0.177121	0.176459	0.252106	0.551719	0.503878	0.506886	0.315056	0.471683	0.571568	0.20996	0	0.030306	0.203133	0.295096	0.131416	0.145672	0.29321	0.230895	0.0639272	0.0203037	0.200401	0.190324	0.89709	0.0828562	0.110927	0.139312	0.0690527	0.29027	0.361155	
3.26	0.0957403	0.148957	0.162689	0.141376	0.169012	0.379168	0.140694	0.172631	0.164832	0.149035	0.155727	0.172605	0.164443	0.116113	0.333019	0.320022	0.327142	0.192318	0.211182	0.258111	0.0943279	0	0.0104884	0.127554	0.206535	0.162629	0.170581	0.128858	0.166927	0.2306	0.0169898	0.18451	0.169568	0.263415	0.0432007	0.151646	0.156914	0.0585615	0.231398	0.386633	0.117316	0.100406	0.21534	0.196514	0.249406	0.3335	0.213178	0.28229	0.160422	0.12308	0.16207	0.17687	0.178086	0.252168	0.54472	0.497918	0.502935	0.310381	0.461767	0.561415	0.207063	0	0.0303064	0.206559	0.296419	0.131291	0.145403	0.299565	0.231793	0.0636762	0.0204353	0.203075	0.191837	0.89696	0.0837802	0.111355	0.138993	0.0691979	0.285162	0.356398	
3.265	0.095262	0.147916	0.163747	0.142605	0.169774	0.379703	0.141857	0.172384	0.165522	0.149711	0.155631	0.172449	0.16325	0.115461	0.335235	0.322058	0.329752	0.193987	0.212581	0.259773	0.0951598	0	0.0105738	0.127695	0.205132	0.162444	0.17043	0.129524	0.16574	0.227701	0.0169194	0.185632	0.170276	0.262094	0.0429374	0.152552	0.156768	0.0587137	0.23198	0.387637	0.118733	0.101778	0.215071	0.195432	0.249699	0.338331	0.21626	0.28872	0.160895	0.123515	0.161874	0.176548	0.179666	0.252229	0.536856	0.491129	0.497611	0.305646	0.451204	0.549704	0.204258	0	0.0303068	0.210086	0.298099	0.131153	0.14511	0.306475	0.232871	0.0634916	0.0205789	0.205533	0.193207	0.896823	0.084591	0.111831	0.138633	0.0693491	0.280666	0.352163	
3.27	0.0946922	0.146736	0.164736	0.143807	0.170389	0.380239	0.143034	0.172165	0.166275	0.150448	0.155533	0.172286	0.162065	0.114829	0.337142	0.324073	0.332283	0.195852	0.214074	0.261407	0.0961159	0	0.010666	0.127802	0.203812	0.162249	0.170271	0.13012	0.164592	0.224856	0.016853	0.186782	0.170983	0.260751	0.0427172	0.153539	0.156618	0.0588508	0.232505	0.388543	0.12031	0.103341	0.21459	0.194088	0.249912	0.343572	0.219008	0.295431	0.161428	0.123949	0.161642	0.176161	0.181184	0.25229	0.528219	0.483614	0.491003	0.300896	0.440099	0.536512	0.201536	0	0.0302613	0.213673	0.300221	0.131004	0.144798	0.31427	0.234151	0.0633755	0.0207348	0.207713	0.194404	0.896685	0.085239	0.112351	0.138244	0.0695069	0.276744	0.348422	
3.275	0.0940335	0.145413	0.165645	0.14497	0.170846	0.380776	0.144198	0.171963	0.167069	0.151225	0.155435	0.172123	0.160905	0.114225	0.338767	0.326061	0.334716	0.197861	0.215664	0.263024	0.0971935	0	0.010765	0.127863	0.202572	0.162051	0.17011	0.130662	0.163485	0.222123	0.0167902	0.187934	0.17167	0.259434	0.0425381	0.154585	0.156468	0.0589783	0.232993	0.389387	0.122059	0.105127	0.213878	0.192469	0.250082	0.349236	0.221369	0.302279	0.16202	0.124382	0.161376	0.175722	0.182628	0.252352	0.518928	0.475492	0.48327	0.296182	0.428585	0.521993	0.198902	0	0.029266	0.217267	0.302899	0.130847	0.144471	0.322532	0.235658	0.0633291	0.0209031	0.209572	0.195397	0.896552	0.0855711	0.112913	0.137836	0.0696716	0.273324	0.345135	
3.28	0.0932881	0.143954	0.166467	0.146085	0.171139	0.381314	0.145325	0.171767	0.167881	0.15202	0.155342	0.171964	0.159789	0.113656	0.340172	0.328016	0.337029	0.199976	0.217358	0.264645	0.0983895	0	0.0108713	0.127871	0.201408	0.161858	0.169951	0.131176	0.162419	0.219551	0.016731	0.189062	0.17232	0.258187	0.0423982	0.155661	0.156323	0.0591022	0.233469	0.390209	0.123986	0.107159	0.212917	0.190575	0.25023	0.355322	0.223291	0.309104	0.162671	0.124814	0.161075	0.175244	0.183982	0.252413	0.50912	0.466893	0.474582	0.291561	0.416825	0.506379	0.196376	0	0.0277641	0.22081	0.306267	0.130684	0.144132	0.330671	0.237421	0.0633531	0.0210839	0.211087	0.196161	0.896429	0.0853588	0.113511	0.137415	0.0698432	0.270249	0.342163	
3.285	0.0924594	0.142368	0.167195	0.147141	0.171261	0.381852	0.146392	0.171567	0.168683	0.152806	0.155256	0.171816	0.158731	0.113127	0.341409	0.329941	0.339209	0.202206	0.219166	0.266296	0.0997009	0	0.0109833	0.127817	0.200312	0.161674	0.169801	0.131692	0.161395	0.217187	0.0166749	0.190138	0.172919	0.257045	0.0422956	0.156732	0.156187	0.0592287	0.233955	0.39105	0.126098	0.109446	0.211699	0.188415	0.250367	0.361809	0.224734	0.315765	0.162469	0.125244	0.160744	0.174743	0.185233	0.252474	0.498946	0.45795	0.465123	0.287095	0.404993	0.489958	0.193988	0	0.0263001	0.224239	0.310443	0.130516	0.143788	0.338916	0.239472	0.0634454	0.0212771	0.212239	0.196659	0.89632	0.0849868	0.11414	0.136988	0.0700218	0.26742	0.339426	
3.29	0.0915529	0.140662	0.167823	0.148131	0.171212	0.382391	0.147379	0.171354	0.169447	0.153555	0.15518	0.171682	0.157746	0.112644	0.342516	0.331839	0.341243	0.204563	0.221095	0.268008	0.101125	0	0.0110965	0.127696	0.199277	0.161505	0.169664	0.132243	0.160411	0.215079	0.0166217	0.191136	0.173453	0.256035	0.0422286	0.157758	0.156066	0.0593636	0.234475	0.39195	0.128394	0.112	0.210221	0.186007	0.250496	0.368659	0.225656	0.322134	0.161807	0.125669	0.160386	0.174236	0.186366	0.252535	0.488563	0.448798	0.455076	0.282845	0.393273	0.473056	0.191772	0	0.0249764	0.227487	0.31552	0.130345	0.143441	0.347532	0.241845	0.0635976	0.0214823	0.213007	0.196859	0.896226	0.0849701	0.114794	0.136563	0.0701011	0.269199	0.337537	
3.295	0.0905754	0.138845	0.168349	0.149048	0.170993	0.38293	0.14827	0.171121	0.170143	0.154236	0.155115	0.171566	0.156843	0.11221	0.343517	0.333719	0.343129	0.207068	0.223153	0.269814	0.102657	0	0.011212	0.127503	0.198297	0.161358	0.169543	0.132867	0.159465	0.213277	0.0165712	0.19203	0.173911	0.255178	0.0421957	0.158693	0.155961	0.0595128	0.235053	0.39295	0.13087	0.114838	0.208488	0.18338	0.250623	0.375809	0.225968	0.328095	0.162062	0.126088	0.160006	0.173731	0.187371	0.252595	0.478127	0.439568	0.444626	0.278875	0.381843	0.456013	0.189765	0	0.0237539	0.230486	0.321532	0.130174	0.143096	0.355518	0.244564	0.0638115	0.0216989	0.21335	0.196725	0.896148	0.0854393	0.115465	0.136143	0.069933	0.27287	0.336366	
3.3	0.089535	0.136931	0.168771	0.149886	0.170608	0.383471	0.149053	0.17086	0.17074	0.154819	0.155062	0.171472	0.156034	0.111828	0.34443	0.335594	0.344866	0.209745	0.225348	0.271751	0.104294	0	0.0113322	0.127236	0.197364	0.161236	0.169444	0.1336	0.158555	0.211809	0.0165229	0.192801	0.174283	0.254491	0.0421954	0.159494	0.155876	0.0596811	0.235708	0.394083	0.133515	0.117954	0.206516	0.180569	0.250747	0.383173	0.225524	0.333563	0.162866	0.126499	0.159609	0.173242	0.188238	0.252656	0.46779	0.430387	0.433965	0.275243	0.37087	0.439157	0.188005	0	0.0226242	0.233168	0.328477	0.130005	0.142758	0.361994	0.247655	0.0640875	0.0219259	0.213155	0.196223	0.896086	0.0863336	0.116148	0.135736	0.0696564	0.276145	0.33557	
3.305	0.0884414	0.134945	0.169091	0.150642	0.170065	0.384011	0.149721	0.170567	0.171208	0.155276	0.155024	0.171402	0.155327	0.1115	0.345268	0.337481	0.346462	0.212618	0.227693	0.273854	0.10603	0	0.0114593	0.126894	0.196469	0.161144	0.169369	0.134479	0.157677	0.210675	0.0164768	0.193433	0.174565	0.253985	0.0422262	0.160117	0.155813	0.0598723	0.23646	0.39538	0.136311	0.121332	0.20433	0.177617	0.25087	0.390636	0.224025	0.338486	0.163679	0.126899	0.1592	0.172776	0.188956	0.252717	0.457692	0.421376	0.423279	0.272003	0.360499	0.422787	0.186527	0	0.0215998	0.23547	0.336358	0.129837	0.142428	0.366704	0.251147	0.0644236	0.0221619	0.21207	0.19531	0.896041	0.0875865	0.116834	0.135344	0.0693732	0.278171	0.334797	
3.31	0.0873054	0.132911	0.169312	0.151316	0.169378	0.384553	0.150271	0.170239	0.17152	0.155577	0.155	0.171358	0.15473	0.11123	0.346043	0.339404	0.34793	0.215681	0.230201	0.276157	0.10786	0	0.0115956	0.12648	0.195605	0.161084	0.169321	0.135534	0.156829	0.209861	0.0164323	0.193918	0.174753	0.253673	0.0422867	0.160524	0.155774	0.0600883	0.23732	0.396861	0.139232	0.124963	0.201963	0.174573	0.250993	0.398066	0.220224	0.342839	0.164421	0.127288	0.158788	0.172339	0.189518	0.252777	0.447955	0.412644	0.412744	0.269202	0.350849	0.407158	0.185361	0	0.0206874	0.23734	0.345206	0.129675	0.142111	0.36956	0.255068	0.064817	0.0224054	0.20924	0.193987	0.89601	0.0891907	0.117517	0.134971	0.069101	0.277302	0.333901	
3.315	0.0861387	0.130844	0.169441	0.151909	0.16856	0.385094	0.150703	0.169875	0.17165	0.155698	0.154991	0.171343	0.154252	0.111018	0.346764	0.341381	0.349288	0.21892	0.232884	0.278692	0.109756	0	0.0117443	0.125999	0.194763	0.161061	0.169304	0.136796	0.156005	0.209348	0.0163895	0.194252	0.17485	0.253568	0.0423752	0.16068	0.155759	0.0603257	0.238296	0.398536	0.142239	0.128846	0.199457	0.171487	0.251116	0.405318	0.21456	0.346609	0.165152	0.127663	0.158378	0.171935	0.189911	0.252838	0.438506	0.404262	0.402517	0.266878	0.342013	0.392471	0.184532	0	0.0198864	0.238735	0.355123	0.129518	0.141808	0.370926	0.259438	0.0652647	0.022654	0.205309	0.192347	0.895992	0.0912042	0.118191	0.13462	0.0688345	0.274708	0.33291	
3.32	0.0849531	0.12876	0.169486	0.152425	0.167631	0.385637	0.151023	0.169475	0.171576	0.155619	0.154998	0.17136	0.153901	0.110869	0.347439	0.343428	0.350559	0.222308	0.235748	0.281484	0.11163	0	0.0119072	0.125457	0.193937	0.161077	0.169321	0.138308	0.155205	0.209116	0.016348	0.194441	0.174862	0.253683	0.04249	0.160559	0.155773	0.0605592	0.239383	0.400386	0.14529	0.132976	0.196858	0.168412	0.251239	0.41225	0.208173	0.349798	0.165884	0.128023	0.157977	0.171564	0.190122	0.252898	0.42934	0.396246	0.392726	0.265055	0.334054	0.378869	0.184058	0	0.0191932	0.239605	0.366237	0.129367	0.141522	0.371417	0.264253	0.0657627	0.0229051	0.201088	0.190506	0.895987	0.0937237	0.118848	0.134292	0.0685797	0.272381	0.331923	
3.325	0.0837608	0.126673	0.169456	0.152871	0.166612	0.38618	0.151242	0.169043	0.171285	0.155324	0.155023	0.17141	0.153689	0.110786	0.348076	0.345558	0.351766	0.225808	0.238795	0.284551	0.1135	0	0.0120848	0.124864	0.193121	0.161135	0.169372	0.140119	0.154424	0.209139	0.0163078	0.194497	0.174798	0.254037	0.0426286	0.160141	0.155815	0.0607704	0.240548	0.402292	0.148333	0.137355	0.194217	0.165409	0.249749	0.418729	0.201719	0.3524	0.166596	0.128367	0.157589	0.171226	0.190135	0.252958	0.420565	0.388647	0.383471	0.263749	0.327007	0.366444	0.184258	0	0.0186033	0.23989	0.378638	0.129225	0.141253	0.371614	0.269492	0.0663061	0.0231555	0.196907	0.188537	0.895991	0.0968164	0.119484	0.133987	0.068353	0.271106	0.331033	
3.33	0.0825733	0.124599	0.169364	0.153254	0.165525	0.386724	0.151374	0.168584	0.170766	0.154805	0.155067	0.171497	0.153625	0.110773	0.348679	0.347702	0.352936	0.229399	0.242021	0.287902	0.115398	0	0.0122767	0.12423	0.192309	0.161238	0.169462	0.142257	0.153662	0.209385	0.0162689	0.194438	0.174669	0.254656	0.0427884	0.159419	0.155891	0.0609554	0.241653	0.404038	0.151314	0.141999	0.19159	0.162544	0.247135	0.424116	0.195393	0.354394	0.167276	0.128692	0.157221	0.170921	0.189929	0.253019	0.412275	0.381514	0.374837	0.262961	0.320882	0.355242	0.184714	0	0.0181112	0.239521	0.392357	0.129091	0.141003	0.371781	0.275122	0.066889	0.0234017	0.19284	0.186489	0.896003	0.0997518	0.120094	0.133707	0.0681732	0.270873	0.330312	
3.335	0.0814018	0.122552	0.169221	0.153584	0.164392	0.38428	0.151439	0.168105	0.170017	0.154062	0.155134	0.171623	0.153723	0.110838	0.349254	0.34967	0.354095	0.233064	0.24542	0.291421	0.117349	0	0.0124811	0.123565	0.1915	0.16139	0.169592	0.144722	0.152918	0.20981	0.0162315	0.194288	0.174492	0.25557	0.0429657	0.158398	0.156002	0.0611177	0.242628	0.405555	0.154071	0.146855	0.189027	0.159855	0.244322	0.428071	0.189275	0.355758	0.167922	0.128998	0.156867	0.170648	0.189484	0.253079	0.404535	0.374878	0.366885	0.26267	0.315664	0.345263	0.18535	0	0.0177104	0.238458	0.407366	0.128967	0.140773	0.371965	0.281099	0.0675044	0.0236398	0.188949	0.184407	0.896019	0.101944	0.120679	0.133452	0.0680557	0.271526	0.329816	
3.34	0.0802599	0.120547	0.169042	0.153871	0.163237	0.37879	0.151456	0.167612	0.169048	0.153105	0.155226	0.171792	0.153996	0.110986	0.349805	0.351386	0.355268	0.236774	0.248985	0.294598	0.119349	0	0.0126961	0.122882	0.19069	0.161593	0.169764	0.147497	0.152191	0.210352	0.0161954	0.194076	0.174282	0.25682	0.0431565	0.157096	0.156152	0.0612621	0.243469	0.406868	0.156502	0.151702	0.186571	0.157363	0.241473	0.430666	0.183445	0.356469	0.16853	0.129284	0.156542	0.170404	0.188775	0.253139	0.397388	0.36876	0.359644	0.262796	0.311336	0.33648	0.186265	0	0.0173935	0.236711	0.423587	0.128851	0.140562	0.372139	0.287368	0.0681442	0.0238655	0.185292	0.182327	0.896036	0.103313	0.121246	0.133221	0.0680159	0.272801	0.329611	
3.345	0.0791605	0.1186	0.168839	0.154127	0.162082	0.373475	0.151449	0.167115	0.167878	0.151953	0.155348	0.172008	0.154457	0.111226	0.350335	0.352868	0.356477	0.240496	0.252703	0.297216	0.121372	0	0.0129214	0.122193	0.189879	0.161851	0.16998	0.150575	0.151484	0.210922	0.0161608	0.193832	0.174058	0.258457	0.0433557	0.155541	0.156346	0.061392	0.2442	0.408019	0.15864	0.15616	0.184257	0.15508	0.238609	0.432222	0.177958	0.356506	0.169094	0.129548	0.156245	0.170187	0.187763	0.253199	0.390859	0.363169	0.353119	0.263294	0.307847	0.328839	0.1875	0	0.0171546	0.234376	0.440882	0.128745	0.14037	0.372272	0.293856	0.0687996	0.0240751	0.181899	0.180275	0.896052	0.104058	0.121782	0.133012	0.0680719	0.274267	0.329775	
3.35	0.0781146	0.116726	0.168628	0.154363	0.160949	0.368541	0.151443	0.166625	0.166536	0.150637	0.155502	0.172274	0.155122	0.111632	0.350847	0.354165	0.357744	0.244193	0.256545	0.299329	0.123387	0	0.0131557	0.121513	0.189067	0.162166	0.170242	0.153931	0.1508	0.211453	0.0161276	0.193588	0.173839	0.260543	0.0435575	0.153763	0.156587	0.0615101	0.244846	0.409046	0.160552	0.159996	0.182111	0.153016	0.23581	0.43308	0.172837	0.355833	0.169613	0.129789	0.155978	0.169995	0.186397	0.253261	0.384954	0.358112	0.347303	0.264123	0.305049	0.322266	0.189021	0	0.0169853	0.231638	0.459036	0.12865	0.140199	0.372371	0.300475	0.069461	0.0242646	0.178774	0.17827	0.896064	0.104423	0.122243	0.132827	0.0682376	0.275693	0.330357	
3.355	0.0771308	0.11494	0.168421	0.154591	0.159858	0.363927	0.151461	0.166152	0.16506	0.149194	0.155694	0.172593	0.156004	0.112209	0.351346	0.355318	0.359085	0.247833	0.260476	0.301069	0.125358	0	0.0133965	0.120856	0.188257	0.162539	0.17055	0.157149	0.15014	0.211934	0.016096	0.193378	0.173643	0.263147	0.0437557	0.151809	0.15688	0.0616181	0.245424	0.409971	0.162273	0.163194	0.180155	0.151176	0.233152	0.433499	0.168109	0.354395	0.170085	0.130008	0.155737	0.169825	0.184663	0.253357	0.37967	0.353576	0.342179	0.26523	0.302794	0.316677	0.190728	0	0.0168752	0.22866	0.477754	0.128564	0.140046	0.372444	0.30712	0.0701192	0.0244309	0.175939	0.176324	0.896071	0.104591	0.122599	0.132665	0.0685178	0.277041	0.331336	
3.36	0.076216	0.113255	0.168232	0.154822	0.158827	0.35967	0.151529	0.165707	0.163492	0.147666	0.155925	0.172968	0.157116	0.112925	0.351832	0.356359	0.360515	0.251382	0.264453	0.302547	0.127258	0	0.0136411	0.120237	0.187449	0.162973	0.170905	0.159806	0.149506	0.212371	0.016066	0.193233	0.173487	0.266297	0.0439434	0.149736	0.157228	0.0617174	0.245947	0.410812	0.163804	0.165869	0.178404	0.149559	0.23069	0.433629	0.163771	0.352107	0.170506	0.130203	0.155521	0.169677	0.182654	0.253708	0.374993	0.349544	0.337718	0.26655	0.301014	0.311935	0.19258	0	0.0168136	0.225538	0.496689	0.128487	0.139912	0.372501	0.313681	0.0707656	0.024571	0.17342	0.174442	0.896073	0.104666	0.122879	0.132522	0.068909	0.278355	0.332651	
3.365	0.0753731	0.111684	0.168073	0.155067	0.157873	0.355792	0.151668	0.165302	0.161873	0.146091	0.1562	0.1734	0.158468	0.113784	0.352309	0.357306	0.362044	0.254795	0.268435	0.303834	0.129062	0	0.0138874	0.119667	0.186648	0.163465	0.171305	0.161839	0.148898	0.212776	0.0160379	0.193183	0.17339	0.269937	0.0441136	0.147609	0.157633	0.0618093	0.246423	0.411581	0.16514	0.168152	0.176865	0.148162	0.22847	0.433557	0.159787	0.348859	0.170878	0.130375	0.155332	0.169549	0.180496	0.254218	0.370899	0.345998	0.33388	0.268013	0.29966	0.307905	0.194493	0	0.0169672	0.222327	0.515444	0.128421	0.139796	0.372528	0.320046	0.0713926	0.024682	0.171206	0.172627	0.89607	0.104699	0.123124	0.1324	0.0694016	0.279693	0.334249	
3.37	0.0746009	0.110234	0.167954	0.155335	0.157009	0.352303	0.151903	0.164949	0.160241	0.144506	0.156518	0.17389	0.160061	0.114799	0.352779	0.358175	0.363678	0.258025	0.272372	0.304971	0.130742	0	0.0141321	0.119157	0.185855	0.164014	0.171747	0.16339	0.148318	0.213156	0.0160116	0.193256	0.173367	0.274029	0.044259	0.145487	0.158094	0.0618945	0.246858	0.412286	0.166287	0.170099	0.175543	0.146979	0.226526	0.433373	0.156116	0.344609	0.171199	0.130522	0.155168	0.169441	0.178246	0.254716	0.367358	0.342914	0.330622	0.269541	0.298668	0.304514	0.196433	0	0.0172027	0.219079	0.533578	0.128363	0.139697	0.372522	0.326113	0.0719948	0.0247172	0.169256	0.170877	0.896061	0.104711	0.12334	0.132296	0.069985	0.281098	0.336095	
3.375	0.0738983	0.10891	0.167886	0.155635	0.156247	0.349207	0.152253	0.164659	0.158628	0.142942	0.156879	0.174436	0.161885	0.115979	0.353244	0.358978	0.365356	0.261029	0.276214	0.305985	0.132271	0	0.0143705	0.118716	0.185074	0.164613	0.172228	0.164622	0.147767	0.213513	0.0159872	0.193478	0.173432	0.278603	0.0443723	0.143414	0.15861	0.0619741	0.247258	0.412938	0.167207	0.171679	0.174437	0.146001	0.22488	0.433186	0.152724	0.339464	0.171468	0.130646	0.155027	0.169351	0.175923	0.255425	0.364337	0.34027	0.327899	0.271056	0.297966	0.301704	0.198341	0	0.0174119	0.215845	0.550624	0.128315	0.139615	0.372491	0.331792	0.0725686	0.0246401	0.167523	0.169193	0.896047	0.104711	0.123522	0.132209	0.0706504	0.282603	0.338175	
3.38	0.0732651	0.107715	0.167877	0.155973	0.155596	0.346506	0.152739	0.164442	0.157059	0.141419	0.15728	0.175034	0.163925	0.117301	0.353707	0.359725	0.36693	0.263766	0.279907	0.306898	0.133621	0	0.0145982	0.118352	0.184307	0.165256	0.17274	0.165643	0.147248	0.213852	0.015965	0.193873	0.173597	0.283672	0.0444467	0.141423	0.159173	0.0620487	0.247628	0.413543	0.167888	0.17288	0.173542	0.145219	0.223548	0.433106	0.149588	0.333602	0.171688	0.130746	0.154905	0.169278	0.173539	0.256244	0.361803	0.338045	0.325673	0.272481	0.297484	0.30039	0.200025	0	0.0175714	0.212666	0.566148	0.128276	0.139549	0.372444	0.337002	0.0731126	0.0245217	0.165934	0.167578	0.896031	0.104705	0.123668	0.132139	0.0713937	0.284236	0.340489	
3.385	0.0727016	0.10665	0.167933	0.156356	0.155062	0.344197	0.15338	0.164311	0.155552	0.139957	0.157716	0.175678	0.166193	0.118714	0.354168	0.360423	0.368334	0.266198	0.283396	0.307726	0.134767	0	0.0148108	0.118069	0.183557	0.165932	0.173276	0.166513	0.14676	0.214175	0.0159451	0.194465	0.173875	0.28915	0.0444757	0.139536	0.159774	0.0621189	0.247972	0.414107	0.168407	0.173849	0.172854	0.144622	0.222534	0.433223	0.146694	0.327186	0.171858	0.130822	0.154802	0.16922	0.171121	0.25699	0.359725	0.336223	0.323903	0.273746	0.297159	0.301028	0.201249	0	0.0176958	0.209579	0.579784	0.128246	0.139499	0.372388	0.34166	0.0736255	0.0244207	0.164413	0.166038	0.896015	0.104696	0.12378	0.132085	0.0722141	0.286025	0.343047	
3.39	0.072208	0.105715	0.168059	0.156787	0.15465	0.342272	0.154194	0.164273	0.154126	0.138585	0.158177	0.176357	0.168706	0.120185	0.354631	0.361081	0.369575	0.268292	0.286627	0.308483	0.135688	0	0.0150044	0.117874	0.182826	0.166628	0.173824	0.167268	0.146304	0.214481	0.0159275	0.195276	0.174277	0.294925	0.0444539	0.13777	0.1604	0.0621852	0.248293	0.414635	0.168812	0.174648	0.172366	0.1442	0.221841	0.433565	0.144033	0.320368	0.171981	0.130876	0.154715	0.169174	0.168704	0.257837	0.358078	0.334787	0.322551	0.27479	0.296932	0.301984	0.201993	0	0.0175403	0.206617	0.591189	0.128225	0.139464	0.372329	0.345687	0.074104	0.0243232	0.162903	0.164578	0.895998	0.104684	0.123859	0.132047	0.0731121	0.287997	0.345858	
3.395	0.0717849	0.104909	0.168259	0.157268	0.154362	0.340723	0.155197	0.164338	0.152814	0.137338	0.158653	0.17706	0.171444	0.121703	0.355094	0.361703	0.370681	0.270022	0.289553	0.309181	0.13637	0	0.0151758	0.117771	0.182114	0.167329	0.174372	0.16793	0.145881	0.214354	0.0159127	0.196323	0.174812	0.301028	0.0443772	0.136168	0.161034	0.0622481	0.248595	0.415132	0.169119	0.175281	0.172069	0.143943	0.221463	0.433926	0.141606	0.313297	0.172058	0.130908	0.154645	0.169142	0.166327	0.25871	0.356839	0.333724	0.321597	0.275565	0.296755	0.302616	0.202394	0	0.017188	0.203806	0.600068	0.128211	0.139444	0.372267	0.349018	0.0745603	0.0242089	0.161347	0.163204	0.895986	0.104671	0.123907	0.132022	0.0740864	0.290179	0.348918	
3.4	0.0714332	0.104227	0.168532	0.157797	0.154197	0.339536	0.156406	0.164512	0.151645	0.136236	0.159131	0.17777	0.17435	0.12326	0.355558	0.362295	0.371682	0.271366	0.292133	0.309828	0.136801	0	0.0153218	0.117763	0.181424	0.16802	0.174907	0.168515	0.145492	0.213302	0.0159007	0.197626	0.175489	0.307395	0.0442434	0.134759	0.161662	0.062308	0.248878	0.4156	0.169343	0.175755	0.171957	0.143843	0.221382	0.434223	0.139422	0.306135	0.172092	0.130921	0.15459	0.16912	0.16403	0.259467	0.356101	0.333056	0.321028	0.27604	0.296591	0.302779	0.203496	0	0.0169978	0.20117	0.604918	0.128204	0.139436	0.372204	0.351616	0.0750011	0.0240754	0.159654	0.161925	0.895986	0.104658	0.123926	0.13201	0.0751369	0.29259	0.352216	
3.405	0.0711549	0.103663	0.168877	0.158372	0.154154	0.338698	0.157833	0.164801	0.150628	0.135281	0.159597	0.178471	0.177362	0.124833	0.356024	0.362861	0.372598	0.272311	0.294336	0.310432	0.136979	0	0.0154405	0.117853	0.180759	0.168684	0.175416	0.169039	0.145136	0.211234	0.0158921	0.199205	0.176316	0.313808	0.0440525	0.133549	0.162269	0.0623652	0.249146	0.416044	0.169501	0.176134	0.172021	0.143892	0.22146	0.43447	0.13749	0.29904	0.172087	0.130915	0.154547	0.16911	0.161844	0.260362	0.355825	0.33277	0.320836	0.276198	0.296418	0.302618	0.204973	0	0.0169622	0.198727	0.60498	0.128204	0.139441	0.372141	0.34814	0.0754264	0.023925	0.157585	0.160748	0.896008	0.104644	0.123919	0.132009	0.0762743	0.295266	0.355781	
3.41	0.0709476	0.103213	0.16929	0.158986	0.154228	0.338193	0.159484	0.165208	0.149761	0.13447	0.160039	0.179143	0.180445	0.126393	0.35649	0.363406	0.373443	0.272853	0.296141	0.311	0.136905	0	0.0155305	0.118043	0.180122	0.169307	0.175888	0.169511	0.144814	0.208387	0.0158872	0.201094	0.1773	0.320012	0.0438067	0.132529	0.16284	0.0624199	0.2494	0.416466	0.169663	0.176474	0.172255	0.144083	0.221582	0.434781	0.135814	0.2922	0.172048	0.130893	0.154516	0.16911	0.159798	0.261318	0.355949	0.332853	0.321009	0.276041	0.296225	0.302352	0.204939	0	0.016964	0.196494	0.602122	0.12821	0.139455	0.372077	0.343164	0.075835	0.0237606	0.155277	0.159681	0.89606	0.10463	0.123889	0.132019	0.0775148	0.298267	0.359664	
3.415	0.0708076	0.102871	0.169767	0.15963	0.154414	0.338001	0.161331	0.165736	0.149037	0.133793	0.160445	0.179768	0.183578	0.127908	0.356958	0.363931	0.374227	0.272994	0.297536	0.311535	0.136592	0	0.0155915	0.118337	0.179515	0.169873	0.176312	0.169941	0.144526	0.205053	0.0158866	0.203337	0.178448	0.32581	0.0435113	0.131686	0.163364	0.0624725	0.249642	0.416869	0.169845	0.176774	0.172996	0.144411	0.221705	0.435184	0.13439	0.28579	0.171981	0.130859	0.154497	0.169118	0.157905	0.262163	0.356429	0.333278	0.321538	0.275586	0.296015	0.302146	0.204432	0	0.0169337	0.194479	0.597501	0.128221	0.139478	0.372014	0.34046	0.0762233	0.0235853	0.153122	0.158729	0.89615	0.104615	0.123841	0.132037	0.0788719	0.301663	0.363913	
3.42	0.0707313	0.10263	0.170298	0.160292	0.154703	0.338104	0.163149	0.166388	0.148447	0.133244	0.160805	0.180326	0.18674	0.129357	0.357426	0.364441	0.37496	0.272747	0.29852	0.312044	0.136056	0	0.0156244	0.118736	0.178944	0.170372	0.176681	0.170335	0.144272	0.201433	0.0158906	0.205969	0.179767	0.331065	0.0431737	0.131006	0.163828	0.0625233	0.249873	0.417255	0.170022	0.177021	0.174041	0.145383	0.22182	0.435607	0.133198	0.279884	0.171893	0.130815	0.154487	0.169133	0.156173	0.263084	0.357235	0.334017	0.32241	0.274864	0.298013	0.302092	0.20364	0	0.0168718	0.192687	0.590886	0.128236	0.139508	0.37195	0.338735	0.076585	0.0234022	0.151262	0.157895	0.896293	0.104601	0.123779	0.132062	0.0803502	0.305515	0.368543	
3.425	0.0707147	0.102486	0.170875	0.160949	0.155087	0.338473	0.164721	0.167166	0.147983	0.132812	0.161111	0.1808	0.189866	0.130809	0.357895	0.364939	0.375648	0.272131	0.2991	0.31253	0.135319	0	0.0156305	0.119242	0.178411	0.170791	0.176989	0.170699	0.144054	0.197639	0.0159	0.208996	0.181261	0.335658	0.0428038	0.130475	0.164221	0.0625723	0.248602	0.415709	0.170171	0.177237	0.175147	0.146725	0.22193	0.43599	0.132218	0.274502	0.171793	0.130767	0.154485	0.169153	0.154598	0.264014	0.358347	0.335048	0.323616	0.273919	0.29952	0.302237	0.202561	0	0.0167958	0.191123	0.582089	0.128253	0.139541	0.371886	0.336445	0.0769115	0.0232142	0.149682	0.157182	0.896496	0.104587	0.123709	0.132091	0.0819436	0.309858	0.373535	
3.43	0.0707535	0.102431	0.171485	0.161553	0.155554	0.338943	0.166001	0.168072	0.147635	0.132488	0.161355	0.181179	0.192704	0.132466	0.358366	0.365426	0.376299	0.271175	0.299296	0.312996	0.134408	0	0.0156122	0.119855	0.177923	0.171125	0.177232	0.171038	0.143871	0.193736	0.0159151	0.212409	0.182931	0.33948	0.0424123	0.130081	0.164534	0.0622028	0.245671	0.411041	0.170326	0.177524	0.176238	0.148121	0.222038	0.436335	0.131436	0.269651	0.171691	0.130718	0.154489	0.169177	0.153174	0.264811	0.359753	0.336356	0.325153	0.272799	0.300575	0.302604	0.201248	0	0.0167138	0.189795	0.571377	0.12827	0.139575	0.371823	0.333427	0.0771908	0.0230237	0.148372	0.156593	0.896762	0.104573	0.123637	0.132121	0.0836347	0.314684	0.378834	
3.435	0.0708436	0.10246	0.172115	0.162087	0.156092	0.339426	0.167041	0.169109	0.147395	0.132266	0.161535	0.181455	0.19504	0.13429	0.358837	0.365905	0.376917	0.269909	0.299133	0.313445	0.133354	0	0.0155721	0.120576	0.177485	0.171369	0.177408	0.171354	0.143725	0.189781	0.0159366	0.216201	0.184773	0.342434	0.0420096	0.129811	0.164764	0.0613913	0.242112	0.404964	0.170491	0.1779	0.177345	0.149449	0.222147	0.436643	0.130844	0.265324	0.171595	0.130674	0.154497	0.169202	0.151891	0.265513	0.361446	0.337929	0.327024	0.271561	0.301089	0.303215	0.19976	0	0.0166285	0.188709	0.559164	0.128287	0.139607	0.371763	0.329918	0.0774086	0.0228329	0.147339	0.156134	0.897105	0.104559	0.123572	0.13215	0.0853932	0.319931	0.384342	
3.44	0.0709809	0.102569	0.172753	0.162555	0.15669	0.3399	0.16791	0.170283	0.147256	0.132138	0.161647	0.181623	0.19688	0.13617	0.35931	0.366378	0.377507	0.26837	0.298641	0.31388	0.132186	0	0.0155133	0.121406	0.177103	0.171521	0.177515	0.171652	0.143617	0.18584	0.0159648	0.22038	0.18678	0.344453	0.0416042	0.129657	0.164906	0.0604361	0.238527	0.398768	0.170647	0.17829	0.178516	0.150724	0.222255	0.436915	0.130437	0.261505	0.171519	0.13064	0.154507	0.169225	0.150738	0.266103	0.363425	0.339757	0.329228	0.27026	0.301579	0.304091	0.198155	0	0.0165436	0.18786	0.545848	0.128301	0.139634	0.371704	0.326029	0.0775541	0.0226437	0.146588	0.155808	0.897526	0.104544	0.12352	0.132174	0.0871799	0.325482	0.389942	
3.445	0.0711614	0.102752	0.173383	0.16297	0.157334	0.340367	0.168656	0.1716	0.147211	0.132098	0.161692	0.181685	0.198341	0.138049	0.359783	0.366847	0.378073	0.266593	0.29785	0.314303	0.130934	0	0.0154385	0.122344	0.176784	0.171582	0.177556	0.171934	0.143548	0.182001	0.016	0.22493	0.188945	0.345493	0.0412042	0.12961	0.164961	0.0594984	0.234997	0.392685	0.170776	0.178627	0.179782	0.151998	0.222363	0.437154	0.130213	0.25817	0.171473	0.130622	0.154516	0.169243	0.1497	0.266557	0.365685	0.34183	0.331754	0.268953	0.30181	0.305252	0.196491	0	0.0164641	0.187277	0.531806	0.128309	0.139651	0.371646	0.321823	0.0776218	0.0224574	0.14612	0.155616	0.898016	0.10453	0.123491	0.13219	0.0889538	0.331186	0.395514	
3.45	0.0713815	0.103005	0.17399	0.163342	0.15801	0.340832	0.169311	0.173069	0.147255	0.13214	0.161672	0.181644	0.199537	0.13992	0.360258	0.367314	0.378619	0.264615	0.296788	0.314717	0.129626	0	0.0153506	0.123386	0.176534	0.171555	0.177532	0.172202	0.143521	0.178353	0.0160425	0.2294	0.191266	0.345543	0.0408179	0.129664	0.164931	0.0585941	0.231527	0.386701	0.170879	0.17894	0.181153	0.153313	0.222471	0.437369	0.130172	0.255283	0.17147	0.130625	0.154524	0.169253	0.148764	0.266967	0.368222	0.344138	0.33459	0.267691	0.301999	0.306712	0.194823	0	0.0163946	0.187011	0.517384	0.128311	0.139655	0.371588	0.317382	0.0776126	0.0222753	0.14593	0.155559	0.898569	0.104516	0.123493	0.132193	0.0906799	0.336905	0.40097	
3.455	0.0716379	0.103326	0.174559	0.16368	0.158706	0.341297	0.169891	0.174704	0.147384	0.132262	0.161591	0.181506	0.200545	0.141795	0.360733	0.367782	0.379148	0.262469	0.295481	0.315123	0.128285	0	0.0152516	0.124526	0.17636	0.171446	0.177447	0.172459	0.143536	0.174951	0.0160926	0.23317	0.193727	0.344626	0.0404538	0.129815	0.164823	0.057711	0.228147	0.380856	0.170959	0.179222	0.182631	0.154695	0.222579	0.437568	0.130313	0.252808	0.17152	0.130654	0.154528	0.169251	0.147916	0.26734	0.371029	0.346669	0.337724	0.266524	0.302092	0.308481	0.193203	0	0.0163391	0.187044	0.502888	0.128303	0.139643	0.371529	0.312794	0.0775293	0.0220984	0.146005	0.155632	0.899189	0.104502	0.123535	0.132181	0.0923273	0.342528	0.406232	
3.46	0.0719263	0.103712	0.175076	0.163989	0.159407	0.341764	0.170411	0.176521	0.147592	0.132457	0.161453	0.18128	0.201414	0.143685	0.36121	0.36825	0.379663	0.260185	0.293947	0.315523	0.12693	0	0.0151435	0.125761	0.176271	0.171261	0.177307	0.172705	0.143596	0.171801	0.0161501	0.236092	0.196299	0.342808	0.0401189	0.130057	0.164642	0.0568455	0.224868	0.375159	0.171026	0.17946	0.184211	0.156158	0.222688	0.437758	0.130637	0.250708	0.172426	0.130893	0.154519	0.169235	0.147147	0.267647	0.374097	0.349411	0.341145	0.265492	0.302209	0.310571	0.191674	0	0.0163006	0.187315	0.488572	0.128284	0.13961	0.37147	0.308133	0.0773751	0.0219275	0.146335	0.155831	0.899886	0.104488	0.123639	0.132149	0.0938691	0.346252	0.411228	
3.465	0.0722426	0.104162	0.175526	0.164272	0.160102	0.342232	0.17088	0.178528	0.147877	0.132725	0.161267	0.180978	0.202172	0.145596	0.361688	0.36872	0.380166	0.257789	0.292201	0.315919	0.125578	0	0.0150275	0.127084	0.176273	0.17101	0.177118	0.172943	0.143704	0.168901	0.0162151	0.238335	0.198941	0.340197	0.0398181	0.130388	0.164399	0.0559975	0.221679	0.369587	0.171083	0.179015	0.185882	0.15771	0.222796	0.437941	0.131149	0.248947	0.173958	0.131215	0.154492	0.169201	0.146445	0.267876	0.377411	0.35235	0.34484	0.264632	0.302479	0.312987	0.190273	0	0.0162817	0.187764	0.474636	0.128252	0.139554	0.371409	0.303465	0.0771546	0.0217633	0.14691	0.156146	0.900676	0.104474	0.123791	0.132091	0.0952864	0.346454	0.415896	
3.47	0.0725849	0.104675	0.175895	0.164534	0.160778	0.342702	0.171307	0.18072	0.148234	0.13306	0.161039	0.180611	0.20284	0.147527	0.362167	0.36919	0.38066	0.255303	0.290251	0.316313	0.124238	0	0.0149042	0.128485	0.176372	0.1707	0.176885	0.173174	0.143864	0.166293	0.0162875	0.240119	0.201607	0.336924	0.039554	0.130804	0.164102	0.0551795	0.218622	0.364217	0.171136	0.177497	0.187634	0.159354	0.222904	0.438122	0.131859	0.247489	0.175537	0.131486	0.154406	0.169146	0.145796	0.268035	0.380958	0.355471	0.34879	0.263971	0.302704	0.315722	0.18903	0	0.0162843	0.188348	0.461234	0.128204	0.139472	0.371348	0.298844	0.0768735	0.0216062	0.147717	0.156569	0.90158	0.10446	0.124014	0.131993	0.0965677	0.346211	0.420197	
3.475	0.072952	0.105253	0.17617	0.164778	0.161424	0.343172	0.171699	0.183087	0.14866	0.13346	0.160777	0.180194	0.203434	0.14947	0.362646	0.369662	0.381146	0.252743	0.288097	0.316706	0.12292	0	0.014774	0.129951	0.176574	0.170342	0.176616	0.173399	0.144077	0.164042	0.0163669	0.241596	0.204249	0.333126	0.0393283	0.131302	0.163762	0.0544138	0.215784	0.359204	0.171186	0.175287	0.18945	0.161089	0.223013	0.438301	0.132768	0.246302	0.1769	0.131702	0.154271	0.169068	0.145185	0.268146	0.384716	0.358758	0.352977	0.263533	0.302649	0.31875	0.187969	0	0.0163097	0.189039	0.448475	0.128138	0.139364	0.371286	0.294315	0.0765388	0.0214567	0.148739	0.157088	0.902629	0.104445	0.124311	0.131843	0.0977052	0.3455	0.424103	
3.48	0.0733437	0.105898	0.176339	0.165005	0.162029	0.343643	0.172061	0.185607	0.149152	0.133922	0.160489	0.17974	0.203967	0.151392	0.363127	0.370135	0.381628	0.250122	0.285741	0.3171	0.121632	0	0.0146368	0.131465	0.176886	0.169946	0.176316	0.173619	0.144348	0.162179	0.0164523	0.242857	0.206819	0.328933	0.0391419	0.13188	0.163388	0.0537174	0.213231	0.354667	0.171234	0.172779	0.191313	0.162911	0.223121	0.438478	0.133863	0.245356	0.178059	0.131919	0.15412	0.168964	0.144604	0.268225	0.388655	0.362186	0.357376	0.263332	0.305155	0.322035	0.187108	0	0.0163583	0.189808	0.436431	0.128053	0.139228	0.371223	0.289916	0.076159	0.0213149	0.149957	0.157691	0.903862	0.104431	0.124631	0.131655	0.0986938	0.348887	0.427598	
3.485	0.0737606	0.106612	0.176389	0.165142	0.162583	0.344116	0.172397	0.188246	0.149705	0.134443	0.160183	0.179262	0.204448	0.153203	0.363609	0.370608	0.382107	0.247449	0.283177	0.317495	0.120381	0	0.0144923	0.133007	0.177312	0.169522	0.175994	0.173836	0.144681	0.160684	0.0165432	0.243952	0.209262	0.324465	0.0389955	0.132534	0.16299	0.053095	0.21098	0.35063	0.171281	0.170092	0.193207	0.16478	0.22323	0.438655	0.135118	0.244626	0.178483	0.132032	0.153768	0.168834	0.144047	0.268286	0.392739	0.365731	0.361961	0.26338	0.307842	0.32556	0.186456	0	0.0164296	0.190628	0.425141	0.127949	0.139067	0.371161	0.285673	0.0757435	0.021181	0.151348	0.158367	0.905329	0.104417	0.124972	0.131471	0.099529	0.350164	0.430669	
3.49	0.0742038	0.107398	0.17631	0.164874	0.163075	0.344589	0.172711	0.190962	0.150315	0.135017	0.159864	0.178772	0.204886	0.154751	0.364092	0.371083	0.382586	0.244735	0.280402	0.317891	0.119168	0	0.0143404	0.13456	0.177855	0.169079	0.175656	0.174049	0.14508	0.159528	0.0166391	0.244913	0.211522	0.319836	0.0388895	0.133261	0.162578	0.0525447	0.209021	0.347079	0.170415	0.167226	0.195009	0.166544	0.223339	0.438831	0.136507	0.244085	0.178002	0.132135	0.152369	0.16868	0.143509	0.268336	0.396939	0.369369	0.366702	0.263696	0.310972	0.329313	0.18602	0	0.0166725	0.191472	0.414621	0.127827	0.138881	0.371097	0.281606	0.0753025	0.0210549	0.15289	0.159103	0.90709	0.104403	0.125371	0.131294	0.100212	0.349056	0.433324	
3.495	0.0746751	0.108263	0.176092	0.164229	0.163495	0.345063	0.173007	0.193672	0.150976	0.13564	0.159541	0.178281	0.205288	0.156006	0.364576	0.371559	0.383065	0.241992	0.277417	0.318287	0.117998	0	0.0141807	0.136105	0.17852	0.168625	0.175308	0.174261	0.14555	0.158679	0.01674	0.245765	0.213537	0.315157	0.0388245	0.134054	0.162158	0.0520625	0.20732	0.343983	0.168696	0.164197	0.196672	0.168123	0.223448	0.439007	0.138005	0.24371	0.176298	0.132409	0.151941	0.168504	0.142985	0.26838	0.401228	0.373079	0.371569	0.264336	0.31419	0.333272	0.185801	0	0.0169773	0.192312	0.404863	0.127709	0.138674	0.371034	0.277728	0.0748459	0.0209366	0.154557	0.159887	0.909215	0.104389	0.125832	0.131112	0.100748	0.349239	0.435584	
3.5	0.0751768	0.109214	0.175726	0.163359	0.163833	0.345539	0.173287	0.196321	0.151682	0.136307	0.159219	0.177797	0.205658	0.157022	0.365061	0.372035	0.383545	0.239233	0.274224	0.318684	0.11687	0	0.0140132	0.137621	0.17931	0.168169	0.174956	0.174472	0.146095	0.158119	0.0168454	0.246527	0.215251	0.310531	0.0388013	0.134906	0.161739	0.0516366	0.205775	0.341221	0.166772	0.161046	0.198364	0.169688	0.223557	0.439183	0.139588	0.243474	0.175799	0.132828	0.152248	0.168315	0.142476	0.268421	0.405581	0.376841	0.376529	0.265315	0.317274	0.33741	0.185794	0	0.0172548	0.193127	0.395847	0.127594	0.13845	0.370971	0.274046	0.0743835	0.0208256	0.156321	0.16071	0.911781	0.104375	0.12634	0.13092	0.101149	0.349713	0.437478	
3.505	0.0757114	0.110262	0.175206	0.162321	0.164078	0.346015	0.173553	0.19886	0.152425	0.13701	0.158903	0.177328	0.206002	0.157865	0.365548	0.372513	0.384026	0.236473	0.270834	0.319082	0.115788	0	0.0138379	0.139084	0.180229	0.167718	0.174606	0.174682	0.14672	0.157819	0.0169554	0.247216	0.21661	0.306055	0.0388208	0.13581	0.161325	0.0512464	0.204338	0.338669	0.16476	0.157813	0.200186	0.171521	0.223666	0.439359	0.141236	0.243349	0.176605	0.133305	0.152687	0.168124	0.141989	0.26846	0.409975	0.380639	0.381548	0.266467	0.320285	0.341694	0.185921	0	0.0174938	0.193894	0.387539	0.127467	0.138215	0.370908	0.270562	0.0739243	0.0207218	0.158155	0.161557	0.914869	0.104361	0.126883	0.130725	0.101429	0.349934	0.439038	
3.51	0.0762814	0.11141	0.174526	0.161106	0.164222	0.346492	0.173807	0.201243	0.153196	0.137743	0.158598	0.176878	0.206323	0.158582	0.366035	0.372992	0.384508	0.233731	0.267266	0.319481	0.114752	0	0.0136555	0.140465	0.18128	0.167278	0.174263	0.174893	0.14743	0.157736	0.0170696	0.247843	0.217571	0.301797	0.0388845	0.136755	0.160923	0.0508874	0.203018	0.336317	0.162635	0.154533	0.202069	0.173668	0.223775	0.439534	0.142929	0.24331	0.177762	0.133812	0.152982	0.167936	0.141527	0.268497	0.414391	0.384463	0.386588	0.268087	0.323381	0.346096	0.186112	0	0.0177177	0.194597	0.379898	0.127325	0.137974	0.370844	0.267273	0.0734764	0.0206246	0.159767	0.162414	0.918555	0.104141	0.127455	0.130532	0.10161	0.348553	0.440298	
3.515	0.0768895	0.112662	0.173685	0.159712	0.164253	0.346971	0.174051	0.203429	0.15398	0.138495	0.158307	0.176453	0.206624	0.159205	0.366523	0.373471	0.380634	0.231026	0.263547	0.319881	0.113759	0	0.0134674	0.141739	0.182469	0.166853	0.17393	0.175105	0.14823	0.157858	0.0171879	0.248418	0.218099	0.297785	0.0389943	0.137724	0.160537	0.0505627	0.20183	0.33419	0.160415	0.15123	0.203897	0.175975	0.223884	0.43971	0.144649	0.24333	0.178832	0.134342	0.153113	0.167755	0.141095	0.268534	0.418815	0.388304	0.391604	0.269923	0.326674	0.350594	0.186449	0	0.0179488	0.195218	0.372879	0.127181	0.137734	0.370781	0.264175	0.0730467	0.0205335	0.161041	0.163267	0.922905	0.102821	0.128043	0.130342	0.10171	0.346716	0.441286	
3.52	0.0775365	0.114017	0.172684	0.158152	0.164163	0.34745	0.174287	0.205389	0.154767	0.139253	0.158034	0.176054	0.206907	0.159753	0.367013	0.37115	0.375345	0.228381	0.259714	0.320281	0.112811	0	0.0132753	0.142882	0.183805	0.166447	0.173612	0.175317	0.149123	0.158188	0.0173103	0.248949	0.218176	0.294038	0.0391526	0.1387	0.16017	0.0502719	0.200768	0.332282	0.158124	0.147928	0.20561	0.178283	0.223993	0.439885	0.146377	0.243383	0.179839	0.13488	0.15314	0.167581	0.140693	0.26857	0.42323	0.39215	0.396561	0.271772	0.330209	0.355173	0.186819	0	0.0181992	0.195745	0.36643	0.127042	0.137502	0.370718	0.261257	0.0726412	0.0204481	0.162098	0.164101	0.927973	0.100589	0.128633	0.13016	0.101739	0.345629	0.441995	
3.525	0.0782213	0.115471	0.17153	0.156447	0.163947	0.34793	0.174516	0.207105	0.155544	0.140007	0.157779	0.175684	0.207175	0.16024	0.367504	0.366104	0.369851	0.225818	0.255811	0.320682	0.111909	0	0.0130813	0.143872	0.185296	0.166063	0.17331	0.175529	0.150115	0.158728	0.0174367	0.249444	0.217799	0.290579	0.0393622	0.139669	0.159825	0.0500106	0.199812	0.330563	0.155779	0.144645	0.207196	0.180506	0.224102	0.436639	0.148092	0.243442	0.180836	0.135408	0.153117	0.167414	0.140321	0.268606	0.42762	0.395992	0.401434	0.273692	0.333989	0.359829	0.187118	0	0.0184736	0.196164	0.3605	0.126914	0.137283	0.370655	0.258512	0.0722645	0.0203675	0.163045	0.164903	0.933791	0.0981717	0.129212	0.129988	0.101699	0.345296	0.442411	
3.53	0.0789415	0.11702	0.170231	0.154619	0.163597	0.348412	0.174738	0.20857	0.156303	0.140744	0.157544	0.175342	0.20743	0.160676	0.367995	0.360847	0.364147	0.223363	0.251884	0.317187	0.111059	0	0.0128875	0.144692	0.186955	0.165704	0.173028	0.175742	0.151205	0.159478	0.0175666	0.249906	0.216984	0.287426	0.0396263	0.14062	0.159504	0.0497755	0.198952	0.329011	0.153394	0.141394	0.208661	0.182619	0.224211	0.429987	0.149775	0.243486	0.181794	0.135905	0.15307	0.167258	0.139981	0.268642	0.431975	0.399827	0.406205	0.275799	0.338009	0.364564	0.187331	0	0.0187742	0.196459	0.355036	0.126797	0.137085	0.370592	0.255925	0.0719204	0.0202914	0.163915	0.165663	0.940373	0.0960204	0.129763	0.129829	0.101598	0.345349	0.442528	
3.535	0.0796932	0.11866	0.168802	0.152689	0.163119	0.348894	0.174955	0.209786	0.157039	0.141459	0.15733	0.175029	0.207673	0.16107	0.368488	0.35566	0.358301	0.221043	0.247981	0.31101	0.110265	0	0.0126959	0.145328	0.188788	0.16537	0.172764	0.175961	0.152394	0.160441	0.0176994	0.250342	0.215764	0.28458	0.0399476	0.141549	0.159209	0.0495656	0.198182	0.327621	0.150982	0.138188	0.210008	0.184624	0.22435	0.42274	0.151413	0.24349	0.182655	0.136349	0.153013	0.167113	0.139678	0.268678	0.436292	0.403654	0.410861	0.278131	0.342264	0.369389	0.187482	0	0.019102	0.196612	0.349987	0.126697	0.136914	0.370529	0.253486	0.0716112	0.020219	0.164708	0.166369	0.947711	0.0942248	0.130266	0.12969	0.101463	0.345685	0.442373	
3.54	0.0804707	0.120382	0.167263	0.150687	0.162513	0.349377	0.175169	0.210765	0.157748	0.142146	0.157135	0.174745	0.207906	0.161428	0.368911	0.350498	0.352418	0.218889	0.244151	0.304751	0.109537	0	0.0125086	0.145772	0.190792	0.165062	0.172521	0.173518	0.15369	0.161625	0.0178341	0.250754	0.214186	0.282026	0.0403276	0.142447	0.158939	0.0493816	0.197505	0.326399	0.148555	0.135057	0.211146	0.18653	0.224669	0.415529	0.152994	0.243437	0.183377	0.136719	0.152953	0.166984	0.139413	0.268714	0.44057	0.407478	0.415394	0.280666	0.346758	0.374328	0.187599	0	0.0194585	0.196602	0.345302	0.126615	0.136774	0.370466	0.25118	0.0713385	0.0201498	0.165427	0.167014	0.955755	0.0928508	0.130702	0.129575	0.101344	0.346375	0.442055	
3.545	0.0812667	0.122175	0.165637	0.148639	0.161788	0.349862	0.17538	0.211523	0.158424	0.142802	0.15696	0.174487	0.20813	0.161756	0.363975	0.345437	0.346583	0.216924	0.240445	0.298624	0.108883	0	0.0123276	0.146019	0.192963	0.16478	0.172299	0.168182	0.155095	0.163041	0.0179696	0.251147	0.212305	0.279743	0.0407658	0.14331	0.158694	0.0492253	0.196928	0.325359	0.146125	0.132052	0.21192	0.188194	0.2251	0.408221	0.154512	0.243308	0.183923	0.136992	0.152895	0.166878	0.139192	0.268749	0.444827	0.411305	0.419806	0.283377	0.351498	0.37941	0.187702	0	0.0198456	0.196415	0.344221	0.126555	0.13667	0.370403	0.248994	0.071103	0.0200832	0.166076	0.167593	0.964473	0.0921819	0.131047	0.129489	0.101287	0.349596	0.441749	
3.55	0.0820724	0.124018	0.163951	0.146576	0.160957	0.350347	0.175588	0.212081	0.159065	0.143423	0.156803	0.174256	0.208347	0.162059	0.358666	0.340539	0.340875	0.215162	0.236905	0.29262	0.108313	0	0.0121558	0.146072	0.195291	0.164524	0.172096	0.161921	0.156606	0.164696	0.0181044	0.251523	0.210182	0.27771	0.0412643	0.14413	0.158474	0.0490994	0.196461	0.324518	0.143701	0.129183	0.212289	0.189556	0.225525	0.400853	0.155962	0.24309	0.184264	0.137148	0.152845	0.1668	0.139017	0.268785	0.449117	0.415156	0.424104	0.286243	0.356496	0.382455	0.1878	0	0.0202652	0.196044	0.343717	0.126518	0.136608	0.37034	0.246916	0.0709043	0.0200188	0.166659	0.168103	0.973833	0.0919238	0.13128	0.129436	0.101324	0.352568	0.441618	
3.555	0.0828798	0.125852	0.162234	0.144528	0.160041	0.350834	0.175795	0.212459	0.159666	0.144006	0.156664	0.174049	0.208557	0.162339	0.353786	0.33585	0.335366	0.213612	0.233564	0.286828	0.107841	0	0.0119957	0.145937	0.197775	0.164292	0.171913	0.156081	0.158219	0.166588	0.0182368	0.251883	0.207876	0.275906	0.0418319	0.144904	0.158277	0.0490067	0.196117	0.323899	0.141294	0.126432	0.21258	0.190691	0.22588	0.393516	0.157341	0.242775	0.184367	0.13717	0.152806	0.166757	0.138893	0.268821	0.45349	0.419056	0.428304	0.289251	0.361766	0.384621	0.187897	0	0.0207198	0.195492	0.342912	0.126507	0.136591	0.370279	0.244933	0.0707417	0.0199562	0.167178	0.168542	0.983804	0.0916104	0.131378	0.129421	0.101465	0.355583	0.441771	
3.56	0.0836815	0.127456	0.160516	0.142526	0.159062	0.351321	0.176002	0.212671	0.160226	0.144548	0.15654	0.173866	0.208761	0.162601	0.349062	0.331388	0.330114	0.212272	0.230446	0.281312	0.107467	0	0.0118485	0.145625	0.200402	0.164084	0.171749	0.150869	0.159924	0.168706	0.0183647	0.252232	0.205446	0.274309	0.0424735	0.145625	0.158101	0.0489499	0.195905	0.32352	0.139349	0.123779	0.21293	0.19166	0.226155	0.386266	0.158649	0.242355	0.184207	0.137047	0.152782	0.166752	0.138827	0.268856	0.457984	0.423031	0.432427	0.292383	0.367328	0.385758	0.187993	0	0.0212123	0.194772	0.342122	0.126524	0.136624	0.370219	0.243034	0.0706133	0.0198952	0.167636	0.168911	0.994333	0.0910667	0.131315	0.129444	0.101712	0.358246	0.442265	
3.565	0.0844711	0.128746	0.158829	0.140597	0.158046	0.351809	0.17621	0.212728	0.160742	0.145049	0.156432	0.173703	0.20896	0.162846	0.344523	0.327163	0.325171	0.211137	0.227565	0.276116	0.107184	0	0.0117147	0.145151	0.203149	0.163898	0.171602	0.146129	0.161707	0.171068	0.018486	0.25257	0.202944	0.272902	0.0431821	0.146292	0.157946	0.0489309	0.195833	0.323393	0.137305	0.121209	0.213231	0.192481	0.226368	0.379144	0.159886	0.241828	0.183765	0.136771	0.152776	0.166788	0.138823	0.268892	0.462629	0.427108	0.4365	0.295623	0.373202	0.386245	0.18809	0	0.0217461	0.193902	0.341306	0.126571	0.13671	0.37016	0.24121	0.0705173	0.0198354	0.168034	0.169214	1.00535	0.0903884	0.131067	0.129511	0.102065	0.361077	0.443124	
3.57	0.0852433	0.129762	0.157201	0.138769	0.15702	0.352299	0.176417	0.21263	0.161214	0.145506	0.156337	0.17356	0.209154	0.163077	0.340227	0.323199	0.320575	0.210193	0.224924	0.271272	0.106985	0	0.0115941	0.144531	0.205991	0.163734	0.171472	0.141751	0.163548	0.173715	0.018598	0.251513	0.200413	0.271665	0.0439424	0.146903	0.15781	0.0489508	0.195905	0.323525	0.135112	0.118716	0.213366	0.193159	0.226538	0.372188	0.161053	0.241198	0.183031	0.136341	0.152791	0.166866	0.13889	0.268927	0.467456	0.431316	0.440551	0.298957	0.379412	0.386506	0.188186	0	0.0221296	0.192903	0.340236	0.126651	0.136853	0.37012	0.239451	0.0704508	0.0197768	0.168375	0.169457	1.01674	0.0897193	0.130612	0.129625	0.102522	0.363614	0.444351	
3.575	0.0859949	0.130579	0.155656	0.137064	0.15601	0.352789	0.176111	0.212368	0.161641	0.14592	0.156254	0.173435	0.209346	0.163296	0.336199	0.319514	0.316353	0.209419	0.222523	0.266798	0.106855	0	0.0114855	0.143785	0.208894	0.163589	0.171357	0.137744	0.165425	0.176647	0.0186985	0.247094	0.197889	0.270581	0.0447399	0.147457	0.157691	0.0490095	0.19612	0.323917	0.132881	0.116385	0.213374	0.19371	0.226683	0.36543	0.162152	0.240471	0.182005	0.135763	0.152829	0.166988	0.139035	0.268962	0.472499	0.435685	0.444612	0.30237	0.385986	0.386744	0.188282	0	0.0223468	0.191798	0.338736	0.126766	0.137056	0.370116	0.237745	0.070411	0.0197194	0.168665	0.169644	1.57068	0.0891385	0.129948	0.12979	0.103084	0.366021	0.445942	
3.58	0.0867249	0.131258	0.154215	0.135499	0.155045	0.35328	0.173329	0.211926	0.162024	0.146292	0.156183	0.173327	0.209534	0.163162	0.332454	0.316118	0.312522	0.20879	0.220356	0.2627	0.10678	0	0.0113869	0.14293	0.211818	0.163463	0.171257	0.134182	0.167313	0.179809	0.0187849	0.24072	0.195397	0.269637	0.0455644	0.147954	0.157588	0.0491059	0.196476	0.324561	0.130589	0.114232	0.213357	0.194148	0.226813	0.358893	0.163185	0.239658	0.180697	0.13505	0.152894	0.167158	0.139268	0.268998	0.477791	0.440246	0.448715	0.305852	0.392952	0.387007	0.188379	0	0.022431	0.190609	0.33673	0.12692	0.137324	0.370144	0.236377	0.0703946	0.0196632	0.168909	0.169785	1.5708	0.0886904	0.129109	0.130012	0.103749	0.367984	0.44788	
3.585	0.0874345	0.131837	0.152893	0.134084	0.154146	0.353773	0.168894	0.211278	0.162364	0.146622	0.156121	0.173233	0.209721	0.161991	0.329003	0.313013	0.309089	0.208277	0.218415	0.258974	0.106741	0	0.0112964	0.141982	0.214717	0.163353	0.17117	0.131099	0.169191	0.183124	0.0188551	0.234323	0.192953	0.268817	0.046404	0.148396	0.157499	0.0492382	0.196963	0.325443	0.128238	0.112011	0.21338	0.194528	0.226935	0.352596	0.164157	0.238774	0.179132	0.13422	0.15299	0.16738	0.139599	0.269033	0.483371	0.445027	0.452888	0.309393	0.400344	0.38729	0.188475	0	0.022451	0.189361	0.334226	0.127114	0.13766	0.370194	0.235403	0.0703982	0.0196138	0.169112	0.169888	1.5708	0.0883758	0.128131	0.130298	0.104511	0.369089	0.450143	
3.59	0.0881267	0.132339	0.151703	0.132823	0.153335	0.354266	0.164388	0.210395	0.162664	0.146912	0.156069	0.173152	0.209906	0.159799	0.325844	0.310199	0.306053	0.20785	0.21668	0.255608	0.106718	0	0.0112125	0.140957	0.217549	0.163258	0.171094	0.128442	0.171039	0.18654	0.0189074	0.22855	0.190557	0.268111	0.0472315	0.148786	0.157422	0.0494039	0.197572	0.326547	0.125951	0.109753	0.213506	0.195047	0.227052	0.346552	0.165071	0.237839	0.177344	0.133297	0.153121	0.167658	0.140044	0.269068	0.489276	0.450058	0.457158	0.312991	0.408134	0.387579	0.188571	0	0.022635	0.18808	0.331303	0.127353	0.138067	0.370249	0.233451	0.0704183	0.0196153	0.169282	0.169961	1.5708	0.0881214	0.127032	0.130655	0.105361	0.372721	0.452686	
3.595	0.0888064	0.132778	0.150652	0.131718	0.152628	0.35476	0.160416	0.209247	0.162926	0.147166	0.156024	0.173083	0.210089	0.157033	0.322971	0.307668	0.303404	0.207474	0.215129	0.25258	0.106692	0	0.0111334	0.13987	0.220279	0.163176	0.17103	0.126122	0.172834	0.190025	0.0189405	0.223242	0.188208	0.267506	0.0479693	0.149126	0.157357	0.0496009	0.198295	0.327857	0.123781	0.107592	0.213612	0.195562	0.227166	0.340768	0.165934	0.236871	0.175375	0.132308	0.153291	0.167997	0.140619	0.269103	0.49554	0.455367	0.461546	0.316645	0.416496	0.389005	0.188668	0	0.0229032	0.186793	0.32809	0.127639	0.138549	0.370296	0.23143	0.0704519	0.0196111	0.169426	0.170013	1.5708	0.087899	0.125812	0.131089	0.106285	0.375836	0.455471	
3.6	0.0894795	0.133166	0.149744	0.130765	0.152036	0.355255	0.156873	0.207809	0.163154	0.147387	0.155986	0.173024	0.210273	0.154046	0.320372	0.30541	0.301124	0.207101	0.213738	0.249864	0.106643	0	0.0110577	0.13873	0.222872	0.163106	0.170974	0.124056	0.174554	0.193537	0.0189536	0.218184	0.185902	0.266991	0.0485674	0.149422	0.157301	0.049828	0.199127	0.329364	0.121723	0.105579	0.213658	0.1959	0.227279	0.335245	0.166753	0.235887	0.173261	0.131278	0.153508	0.168401	0.141344	0.269138	0.502197	0.460979	0.466067	0.320357	0.425459	0.392429	0.188764	0	0.0231763	0.185507	0.324544	0.127972	0.139107	0.370328	0.229789	0.0704959	0.0195754	0.169553	0.170051	1.5708	0.0879909	0.124454	0.131608	0.107277	0.380584	0.458481	
3.605	0.0901525	0.133511	0.148976	0.129958	0.151565	0.355752	0.153568	0.206064	0.163349	0.147576	0.155953	0.172974	0.210457	0.150969	0.318031	0.303409	0.299192	0.206704	0.212481	0.247433	0.106556	0	0.0109838	0.137547	0.225294	0.163047	0.170927	0.122224	0.176178	0.196909	0.018947	0.213311	0.183635	0.266554	0.0490347	0.149676	0.157254	0.0500857	0.20007	0.331071	0.119772	0.103704	0.213674	0.196068	0.227392	0.329982	0.167533	0.234902	0.171038	0.130232	0.153776	0.168873	0.142238	0.269173	0.509276	0.466915	0.470728	0.324137	0.43503	0.39697	0.188861	0	0.0234579	0.184205	0.320846	0.128342	0.139744	0.370341	0.228321	0.0705478	0.019523	0.169668	0.170082	1.5708	0.0885414	0.12291	0.132217	0.108333	0.386403	0.461699	
3.61	0.090832	0.133821	0.148344	0.129289	0.151219	0.356249	0.15043	0.204013	0.163517	0.147739	0.155926	0.172932	0.21029	0.147815	0.315928	0.301649	0.297581	0.206263	0.211335	0.245256	0.106416	0	0.0109101	0.136329	0.22752	0.162997	0.170887	0.120651	0.177693	0.199773	0.0189215	0.208623	0.181403	0.266185	0.0494049	0.149894	0.157214	0.0503768	0.201134	0.332992	0.117918	0.101949	0.213671	0.19622	0.227503	0.324971	0.168282	0.233929	0.168749	0.129174	0.154103	0.16942	0.143321	0.269208	0.516804	0.473192	0.475531	0.327999	0.445268	0.401768	0.188958	0	0.0237426	0.182876	0.317051	0.128742	0.140461	0.370338	0.226873	0.0706054	0.0194711	0.169779	0.17011	1.5708	0.0895245	0.121044	0.132924	0.109456	0.391922	0.465107	
3.615	0.0915236	0.134101	0.147839	0.128745	0.150993	0.356747	0.147451	0.201675	0.163661	0.147879	0.155903	0.172896	0.208119	0.144587	0.314041	0.300107	0.296261	0.205764	0.210257	0.243303	0.106216	0	0.0108368	0.135082	0.229539	0.162954	0.170853	0.119322	0.179092	0.202034	0.0188785	0.204101	0.179198	0.265871	0.0497083	0.150082	0.15718	0.0507061	0.202338	0.335159	0.116152	0.100299	0.213641	0.196487	0.227615	0.320202	0.169003	0.232978	0.166449	0.128098	0.154495	0.170047	0.144609	0.269243	0.524805	0.479822	0.480467	0.331965	0.456264	0.406175	0.189055	0	0.0240211	0.181527	0.313198	0.12917	0.141257	0.370346	0.225443	0.0706672	0.0194244	0.169889	0.170138	1.5708	0.0908091	0.119019	0.133732	0.110646	0.396456	0.468677	
3.62	0.0922319	0.134356	0.147448	0.128312	0.150881	0.357246	0.144622	0.199086	0.163786	0.148	0.155884	0.172866	0.204081	0.141323	0.312346	0.29876	0.295197	0.205199	0.209226	0.241544	0.105952	0	0.0107652	0.133814	0.231347	0.162917	0.170824	0.118195	0.180374	0.2038	0.0188204	0.199724	0.177016	0.265603	0.0499648	0.150245	0.157151	0.0510779	0.203699	0.337599	0.114465	0.0987337	0.213581	0.19687	0.227727	0.315661	0.169701	0.232054	0.164186	0.126989	0.15496	0.170766	0.146107	0.269278	0.533302	0.486815	0.485521	0.336065	0.468117	0.408899	0.189151	0	0.0241983	0.180171	0.309272	0.129622	0.142131	0.370386	0.224047	0.0707323	0.0193814	0.170002	0.170166	1.5708	0.0922299	0.117012	0.134644	0.111898	0.398731	0.472378	
3.625	0.0929599	0.13459	0.147156	0.127975	0.150871	0.357746	0.141926	0.1963	0.163896	0.148106	0.155867	0.172839	0.199346	0.138083	0.310814	0.297583	0.294354	0.204566	0.208231	0.239942	0.105627	0	0.0106949	0.132533	0.232958	0.162885	0.170799	0.117227	0.181547	0.205219	0.0187497	0.195515	0.174854	0.26537	0.0501862	0.150387	0.157126	0.0514912	0.205214	0.340306	0.112855	0.0972388	0.213483	0.197297	0.227838	0.31133	0.170379	0.231161	0.161993	0.125828	0.155508	0.171592	0.147814	0.269313	0.542302	0.494177	0.490669	0.340334	0.480924	0.410214	0.189248	0	0.0242706	0.178816	0.305199	0.130098	0.14308	0.370456	0.222686	0.0708003	0.0193407	0.170119	0.170193	1.5708	0.0936542	0.115055	0.135662	0.113197	0.400314	0.476182	
3.63	0.0937089	0.134805	0.146948	0.127716	0.150947	0.358247	0.139346	0.193381	0.163994	0.148202	0.155851	0.172815	0.1947	0.134922	0.309419	0.296547	0.293691	0.203873	0.207264	0.238445	0.105249	0	0.0106257	0.131249	0.234394	0.162857	0.170776	0.116384	0.182623	0.206403	0.0186696	0.191522	0.172707	0.265162	0.0503797	0.150516	0.157103	0.0519423	0.206867	0.343246	0.111318	0.0958387	0.213343	0.19771	0.22795	0.307201	0.171036	0.230302	0.159889	0.124574	0.156149	0.172545	0.149702	0.269368	0.551804	0.501907	0.495879	0.344814	0.494793	0.413366	0.189345	0	0.0244527	0.177468	0.300925	0.130595	0.144101	0.370547	0.221353	0.0708717	0.0193024	0.17024	0.170219	1.5708	0.0950058	0.11316	0.136785	0.114514	0.401104	0.480069	
3.635	0.0944789	0.135005	0.146803	0.127517	0.15109	0.358749	0.136881	0.190396	0.164086	0.148292	0.155837	0.172792	0.190323	0.131879	0.308128	0.295622	0.293167	0.203128	0.206317	0.237025	0.104831	0	0.0105574	0.129971	0.235691	0.16283	0.170755	0.115638	0.183623	0.207417	0.0185834	0.187763	0.170574	0.264968	0.0505507	0.150637	0.157082	0.0524497	0.208671	0.346522	0.109847	0.0945554	0.213153	0.198068	0.228062	0.303261	0.171672	0.229475	0.157884	0.123134	0.156892	0.173646	0.151734	0.269436	0.561804	0.509995	0.50111	0.349554	0.509837	0.418254	0.189442	0	0.0247388	0.176127	0.296469	0.131109	0.145189	0.370645	0.220049	0.070947	0.0192668	0.170362	0.17024	1.5708	0.0962574	0.111345	0.138011	0.115801	0.401368	0.484027	
3.64	0.0952682	0.13519	0.1467	0.127359	0.151278	0.359252	0.134544	0.187427	0.164177	0.14838	0.155823	0.172771	0.186162	0.129007	0.306912	0.294775	0.292739	0.202349	0.205383	0.23566	0.104388	0	0.0104904	0.128707	0.236893	0.162805	0.170734	0.11496	0.18457	0.2083	0.0184945	0.184213	0.168477	0.26478	0.0507032	0.150756	0.157062	0.0530308	0.210733	0.350282	0.108437	0.0933894	0.212905	0.198439	0.228173	0.299487	0.172285	0.228676	0.155977	0.121434	0.15775	0.17492	0.153941	0.269504	0.572298	0.51843	0.506313	0.354611	0.526181	0.423802	0.189539	0	0.0250616	0.174792	0.293341	0.131639	0.146337	0.370739	0.218771	0.0710279	0.019234	0.170481	0.170252	1.5708	0.0974117	0.109628	0.139336	0.116972	0.40144	0.488055	
3.645	0.0960737	0.135364	0.146617	0.127224	0.151485	0.359756	0.132347	0.184584	0.16427	0.148471	0.155809	0.172748	0.182186	0.126375	0.305736	0.293971	0.29236	0.201554	0.204457	0.234323	0.103942	0	0.010425	0.127467	0.238053	0.162778	0.170712	0.11432	0.185496	0.209078	0.0184063	0.180817	0.166449	0.264587	0.0508403	0.150878	0.157041	0.0536906	0.213116	0.354581	0.107081	0.092332	0.212593	0.198821	0.228285	0.295854	0.172867	0.227903	0.154168	0.119738	0.158731	0.176393	0.156291	0.269564	0.58328	0.527199	0.51143	0.360048	0.543961	0.428767	0.189637	0	0.0253136	0.173459	0.29037	0.132181	0.147537	0.37082	0.217521	0.0711162	0.0192041	0.17059	0.170251	1.5708	0.0984873	0.108016	0.140752	0.117995	0.401487	0.492164	
