CEINMS output
datacolumns 7
datarows 92
endheader
time	addbrev_r	addlong_r	addmagDist_r	addmagIsch_r	addmagMid_r	addmagProx_r	bflh_r	bfsh_r	edl_r	ehl_r	fdl_r	fhl_r	gaslat_r	gasmed_r	glmax1_r	glmax2_r	glmax3_r	glmed1_r	glmed2_r	glmed3_r	glmin1_r	glmin2_r	glmin3_r	grac_r	iliacus_r	perbrev_r	perlong_r	piri_r	psoas_r	recfem_r	sart_r	semimem_r	semiten_r	soleus_r	tfl_r	tibant_r	tibpost_r	vasint_r	vaslat_r	vasmed_r	addbrev_l	addlong_l	addmagDist_l	addmagIsch_l	addmagMid_l	addmagProx_l	bflh_l	bfsh_l	edl_l	ehl_l	fdl_l	fhl_l	gaslat_l	gasmed_l	glmax1_l	glmax2_l	glmax3_l	glmed1_l	glmed2_l	glmed3_l	glmin1_l	glmin2_l	glmin3_l	grac_l	iliacus_l	perbrev_l	perlong_l	piri_l	psoas_l	recfem_l	sart_l	semimem_l	semiten_l	soleus_l	tfl_l	tibant_l	tibpost_l	vasint_l	vaslat_l	vasmed_l	
3.19	75792.6	19.7296	9.50713	100	10	800	
3.195	94573.6	17.8138	9.15053	100	10	800	
3.2	72186.8	7.4991	4.4439	100	10	800	
3.205	75671.5	11.4523	2.53651	100	10	800	
3.21	83487.6	11.5946	3.25475	100	10	800	
3.215	78281.8	11.6631	3.36606	100	10	800	
3.22	69786.9	11.1317	2.95986	100	10	800	
3.225	65171.9	10.9043	3.1732	100	10	800	
3.23	66258.8	11.01	3.34368	100	10	800	
3.235	71959.4	12.2354	3.50497	100	10	800	
3.24	78950.2	12.7408	4.62885	100	10	800	
3.245	81823.5	12.1906	4.64201	100	10	800	
3.25	78682.4	13.2112	4.58324	100	10	800	
3.255	71441.2	12.9301	4.61588	100	10	800	
3.26	62226.4	13.0973	4.77363	100	10	800	
3.265	52140.7	13.2498	4.85175	100	10	800	
3.27	43029.9	13.3237	4.84285	100	10	800	
3.275	37202.1	12.0269	3.90121	100	10	800	
3.28	33515.6	11.7293	3.736	100	10	800	
3.285	33125	10.8866	4.16609	100	10	800	
3.29	35867.2	12.8624	6.69367	100	10	800	
3.295	42602.4	12.2657	6.2439	100	10	800	
3.3	54270.3	12.2117	5.98652	100	10	800	
3.305	67879	10.4528	4.82942	100	10	800	
3.31	66334.6	10.0091	4.51524	100	10	800	
3.315	53822.1	10.0073	4.57663	100	10	800	
3.32	40801.2	9.86582	4.59191	100	10	800	
3.325	31169.8	10.6922	4.60165	100	10	800	
3.33	23956	7.92109	2.324	100	10	800	
3.335	19049.9	6.90787	1.74843	100	10	800	
3.34	15623.9	7.46933	2.00227	100	10	800	
3.345	13123.1	7.39055	1.87498	100	10	800	
3.35	11650.5	8.49896	2.20955	100	10	800	
3.355	11783.2	8.12894	2.16086	100	10	800	
3.36	14225.2	7.98908	2.14358	100	10	800	
3.365	19507.9	8.09445	2.14528	100	10	800	
3.37	27675.9	7.35235	2.18391	100	10	800	
3.375	37529	7.21885	2.27436	100	10	800	
3.38	48451.8	6.73837	2.3515	100	10	800	
3.385	61871.2	8.16799	2.45975	100	10	800	
3.39	76171.6	6.18204	2.60651	100	10	800	
3.395	83439.8	6.88095	2.74446	100	10	800	
3.4	85392.5	8.78155	3.70963	100	10	800	
3.405	75717.9	6.85804	3.79804	100	10	800	
3.41	60924	7.11952	4.20127	100	10	800	
3.415	48684.1	7.3994	4.72729	100	10	800	
3.42	39808.4	10.0731	6.71137	100	10	800	
3.425	32318.7	9.24564	7.02587	100	10	800	
3.43	26910.5	9.53399	7.31032	100	10	800	
3.435	22740.9	9.58484	7.27926	100	10	800	
3.44	19216.7	10.4582	7.07675	100	10	800	
3.445	15526.1	10.9225	6.79242	100	10	800	
3.45	11772.2	13.0739	6.53167	100	10	800	
3.455	9010.65	13.3869	5.254	100	10	800	
3.46	7797.18	11.9624	3.65023	100	10	800	
3.465	6796.18	12.859	3.60057	100	10	800	
3.47	5407.65	12.7323	3.59949	100	10	800	
3.475	3821.82	12.3965	3.75042	100	10	800	
3.48	344.68	12.8241	2.53563	100	10	800	
3.485	103.41	9.11603	2.45005	100	10	800	
3.49	0.608377	8.5463	0.271692	100	10	800	
3.495	0.481557	8.36315	0.312631	100	10	800	
3.5	67.239	12.8742	2.04592	100	10	800	
3.505	438.48	15.92	2.90762	100	10	800	
3.51	1556.95	16.8887	3.57518	100	10	800	
3.515	3902.24	16.3722	3.87064	100	10	800	
3.52	6776.72	17.1788	4.67318	100	10	800	
3.525	8894.22	17.1058	4.66761	100	10	800	
3.53	9494.61	17.7799	4.55786	100	10	800	
3.535	9127.15	17.768	4.57426	100	10	800	
3.54	9687.34	16.4957	3.25339	100	10	800	
3.545	11471.6	12.9428	1.17	100	10	800	
3.55	13373.8	11.5542	1.05514	100	10	800	
3.555	15289	12.0669	1.45108	100	10	800	
3.56	16999.7	11.2128	0.994283	100	10	800	
3.565	18244.4	10.612	0.860895	100	10	800	
3.57	18774.9	9.49795	0.840369	100	10	800	
3.575	18527.2	9.32858	0.791458	100	10	800	
3.58	17796.4	9.22091	0.792244	100	10	800	
3.585	16927.4	9.71038	0.801582	100	10	800	
3.59	16083	10.5717	0.923125	100	10	800	
3.595	15444.1	10.5751	0.897827	100	10	800	
3.6	15335.1	10.7771	1.06561	100	10	800	
3.605	15904.9	11.2181	2.06212	100	10	800	
3.61	16440.3	11.8835	3.17462	100	10	800	
3.615	18781.4	11.8126	3.58811	100	10	800	
3.62	24428.7	11.2986	3.45685	100	10	800	
3.625	33582.7	10.8266	3.4368	100	10	800	
3.63	46088.8	10.3089	3.37965	100	10	800	
3.635	61883.3	9.714	3.34986	100	10	800	
3.64	75944.6	9.44673	3.23079	100	10	800	
3.645	97192.2	8.72666	3.29539	100	10	800	
