CEINMS output
datacolumns 7
datarows 92
endheader
time	addbrev_r	addlong_r	addmagDist_r	addmagIsch_r	addmagMid_r	addmagProx_r	bflh_r	bfsh_r	edl_r	ehl_r	fdl_r	fhl_r	gaslat_r	gasmed_r	glmax1_r	glmax2_r	glmax3_r	glmed1_r	glmed2_r	glmed3_r	glmin1_r	glmin2_r	glmin3_r	grac_r	iliacus_r	perbrev_r	perlong_r	piri_r	psoas_r	recfem_r	sart_r	semimem_r	semiten_r	soleus_r	tfl_r	tibant_r	tibpost_r	vasint_r	vaslat_r	vasmed_r	addbrev_l	addlong_l	addmagDist_l	addmagIsch_l	addmagMid_l	addmagProx_l	bflh_l	bfsh_l	edl_l	ehl_l	fdl_l	fhl_l	gaslat_l	gasmed_l	glmax1_l	glmax2_l	glmax3_l	glmed1_l	glmed2_l	glmed3_l	glmin1_l	glmin2_l	glmin3_l	grac_l	iliacus_l	perbrev_l	perlong_l	piri_l	psoas_l	recfem_l	sart_l	semimem_l	semiten_l	soleus_l	tfl_l	tibant_l	tibpost_l	vasint_l	vaslat_l	vasmed_l	
3.19	78241.6	8.97127	1.68647	1	1	2000	
3.195	99422.3	5.27953	0.26621	1	1	2000	
3.2	89592.7	3.24387	0.0481807	1	1	2000	
3.205	79325.5	2.92612	0.0285304	1	1	2000	
3.21	75088	2.54954	0.0186001	1	1	2000	
3.215	71877.6	2.35562	0.00909016	1	1	2000	
3.22	67431.7	2.29505	0.00196068	1	1	2000	
3.225	62690	3.36669	0.000852212	1	1	2000	
3.23	61197	3.35569	0.00123259	1	1	2000	
3.235	63688.4	3.83764	0.00358258	1	1	2000	
3.24	67916.4	2.69155	0.010378	1	1	2000	
3.245	68390.6	2.86796	0.0190712	1	1	2000	
3.25	63838.6	3.21585	0.0333332	1	1	2000	
3.255	57258	3.04703	0.0721124	1	1	2000	
3.26	51107.9	3.08972	0.136317	1	1	2000	
3.265	45784.9	3.02252	0.218144	1	1	2000	
3.27	41725.8	3.21162	0.354153	1	1	2000	
3.275	38367.9	3.38042	0.523311	1	1	2000	
3.28	34142.7	3.51677	0.669939	1	1	2000	
3.285	30499.7	3.56947	0.840025	1	1	2000	
3.29	22375.4	3.74016	0.872954	1	1	2000	
3.295	14635.4	3.62233	0.819465	1	1	2000	
3.3	10353.2	3.43037	0.702277	1	1	2000	
3.305	8948.3	3.07183	0.61088	1	1	2000	
3.31	8664.26	3.05727	0.661202	1	1	2000	
3.315	8465.39	2.95011	0.62537	1	1	2000	
3.32	8068.81	2.65291	0.524123	1	1	2000	
3.325	7599.85	2.50988	0.431903	1	1	2000	
3.33	7096.95	1.54806	0.34392	1	1	2000	
3.335	6589.14	1.23042	0.259338	1	1	2000	
3.34	6129.11	1.14858	0.193873	1	1	2000	
3.345	5928.58	1.08173	0.121624	1	1	2000	
3.35	5902.01	1.08626	0.0878698	1	1	2000	
3.355	6176.11	1.11986	0.0741913	1	1	2000	
3.36	7274.51	1.19667	0.0875049	1	1	2000	
3.365	9988.34	1.32384	0.135008	1	1	2000	
3.37	14245.4	1.47264	0.198287	1	1	2000	
3.375	20422.3	1.65149	0.284543	1	1	2000	
3.38	28549.2	1.87349	0.40497	1	1	2000	
3.385	39314	2.1574	0.572077	1	1	2000	
3.39	51401	2.37566	0.668651	1	1	2000	
3.395	58520.4	2.58723	0.685477	1	1	2000	
3.4	62917.5	3.13943	0.705471	1	1	2000	
3.405	59629.5	3.62628	0.728709	1	1	2000	
3.41	51284.4	3.81541	0.763705	1	1	2000	
3.415	44027.7	4.05249	0.727641	1	1	2000	
3.42	39448.5	4.34625	0.715467	1	1	2000	
3.425	36490.8	4.80698	0.714123	1	1	2000	
3.43	35366.9	5.0844	0.715338	1	1	2000	
3.435	34889.7	5.62859	0.714733	1	1	2000	
3.44	34193.9	5.91132	0.707504	1	1	2000	
3.445	32331.8	6.26079	0.649718	1	1	2000	
3.45	29311	6.3574	0.50279	1	1	2000	
3.455	26041.6	6.39235	0.369475	1	1	2000	
3.46	22567	6.58944	0.255579	1	1	2000	
3.465	19456.2	6.39917	0.167229	1	1	2000	
3.47	16561.6	7.99268	0.105647	1	1	2000	
3.475	13842.5	7.88539	0.0764383	1	1	2000	
3.48	5958.95	9.10479	0.0412752	1	1	2000	
3.485	4588.92	7.26568	0.0300114	1	1	2000	
3.49	3633.61	7.84985	0.0440668	1	1	2000	
3.495	3087.84	7.95553	0.0698142	1	1	2000	
3.5	3338.74	8.77396	0.0692524	1	1	2000	
3.505	5076.79	9.04218	0.11648	1	1	2000	
3.51	9057.87	9.16466	0.258956	1	1	2000	
3.515	15068.9	9.43825	0.129561	1	1	2000	
3.52	21048.9	9.22201	0.439223	1	1	2000	
3.525	25197	10.0189	0.086024	1	1	2000	
3.53	25806.7	9.55009	0.541852	1	1	2000	
3.535	24428.3	9.93059	0.104983	1	1	2000	
3.54	22037	9.47977	0.645716	1	1	2000	
3.545	18957	8.90573	0.139065	1	1	2000	
3.55	16011.1	8.04072	0.547032	1	1	2000	
3.555	14709	7.13958	0.0851979	1	1	2000	
3.56	14123.8	6.73759	0.423739	1	1	2000	
3.565	14458.3	6.77844	0.0559991	1	1	2000	
3.57	14888.8	6.52673	0.114614	1	1	2000	
3.575	14574	6.09762	0.234319	1	1	2000	
3.58	14443	6.1893	0.0416015	1	1	2000	
3.585	14303.9	6.32631	0.128034	1	1	2000	
3.59	14358.1	6.50309	0.0747787	1	1	2000	
3.595	15158.9	6.02327	0.0308819	1	1	2000	
3.6	16917.2	5.75149	0.0232886	1	1	2000	
3.605	19546.3	5.36154	0.017557	1	1	2000	
3.61	22247.8	5.02519	0.0147491	1	1	2000	
3.615	27107.5	4.61262	0.0140669	1	1	2000	
3.62	36142.8	4.27513	0.0142033	1	1	2000	
3.625	47718.5	3.96212	0.0149244	1	1	2000	
3.63	62879.1	3.58115	0.0161516	1	1	2000	
3.635	81541.8	3.29886	0.00508708	1	1	2000	
3.64	97854.8	3.58363	0.00331264	1	1	2000	
3.645	121747	2.48945	0.00456357	1	1	2000	
