CEINMS output
datacolumns 7
datarows 708
endheader
time	addbrev_r	addlong_r	addmagDist_r	addmagIsch_r	addmagMid_r	addmagProx_r	bflh_r	bfsh_r	edl_r	ehl_r	fdl_r	fhl_r	gaslat_r	gasmed_r	glmax1_r	glmax2_r	glmax3_r	glmed1_r	glmed2_r	glmed3_r	glmin1_r	glmin2_r	glmin3_r	grac_r	iliacus_r	perbrev_r	perlong_r	piri_r	psoas_r	recfem_r	sart_r	semimem_r	semiten_r	soleus_r	tfl_r	tibant_r	tibpost_r	vasint_r	vaslat_r	vasmed_r	addbrev_l	addlong_l	addmagDist_l	addmagIsch_l	addmagMid_l	addmagProx_l	bflh_l	bfsh_l	edl_l	ehl_l	fdl_l	fhl_l	gaslat_l	gasmed_l	glmax1_l	glmax2_l	glmax3_l	glmed1_l	glmed2_l	glmed3_l	glmin1_l	glmin2_l	glmin3_l	grac_l	iliacus_l	perbrev_l	perlong_l	piri_l	psoas_l	recfem_l	sart_l	semimem_l	semiten_l	soleus_l	tfl_l	tibant_l	tibpost_l	vasint_l	vaslat_l	vasmed_l	
0.015	954.87	12.5105	8.12853	10	1	1	
0.015	939.973	6.69286	5.65972	10	1	1	
0.015	929.512	13.5275	10.5335	10	1	1	
0.015	907.631	8.11412	6.55818	10	1	1	
0.02	881.019	8.53665	6.40476	10	1	1	
0.025	863.332	8.90472	5.79014	10	1	1	
0.03	849.004	6.29181	5.13324	10	1	1	
0.035	836.387	6.28001	5.04504	10	1	1	
0.04	824.958	6.67205	5.28277	10	1	1	
0.045	814.78	6.5699	5.33161	10	1	1	
0.05	807.05	6.58859	5.33244	10	1	1	
0.055	800.138	6.63367	5.36906	10	1	1	
0.06	792.344	6.66893	5.40227	10	1	1	
0.065	779.345	7.18669	5.93062	10	1	1	
0.07	766.162	5.63979	4.38705	10	1	1	
0.075	759.902	4.33178	3.0558	10	1	1	
0.08	756.34	4.3568	3.05598	10	1	1	
0.085	753.931	4.86838	3.57397	10	1	1	
0.09	751.981	4.67186	3.37255	10	1	1	
0.095	750.202	4.43936	3.12836	10	1	1	
0.1	748.356	4.62091	3.31016	10	1	1	
0.105	745.94	4.60505	3.29364	10	1	1	
0.11	743.045	4.59783	3.28669	10	1	1	
0.115	739.644	4.59222	3.27943	10	1	1	
0.12	736.07	4.5987	3.288	10	1	1	
0.125	732.467	4.60347	3.29211	10	1	1	
0.13	728.552	4.5956	3.29028	10	1	1	
0.135	724.71	4.6001	3.28804	10	1	1	
0.14	721.285	4.59625	3.28202	10	1	1	
0.145	718.08	4.54642	3.2296	10	1	1	
0.15	714.814	4.52279	3.21866	10	1	1	
0.155	711.268	4.49269	3.18285	10	1	1	
0.16	707.936	4.48333	3.1876	10	1	1	
0.165	704.934	4.4699	3.16836	10	1	1	
0.17	702.522	4.46021	3.1667	10	1	1	
0.175	700.768	4.47131	3.17593	10	1	1	
0.18	699.654	4.44078	3.14629	10	1	1	
0.185	699.118	4.45939	3.16662	10	1	1	
0.19	698.819	4.45508	3.16136	10	1	1	
0.195	698.49	4.45126	3.15743	10	1	1	
0.2	698.257	4.46641	3.16515	10	1	1	
0.205	698.17	4.4527	3.15116	10	1	1	
0.21	698.45	4.4758	3.1609	10	1	1	
0.215	699.134	4.46832	3.15049	10	1	1	
0.22	700.542	4.453	3.12458	10	1	1	
0.225	702.577	4.45388	3.13762	10	1	1	
0.23	704.991	4.45981	3.1347	10	1	1	
0.235	707.679	4.4409	3.1275	10	1	1	
0.24	710.266	4.45292	3.1336	10	1	1	
0.245	712.514	4.44324	3.14302	10	1	1	
0.25	714.32	4.44275	3.1448	10	1	1	
0.255	715.626	4.46795	3.16499	10	1	1	
0.26	716.287	4.46327	3.1735	10	1	1	
0.265	716.104	4.46968	3.17546	10	1	1	
0.27	714.897	4.48921	3.19928	10	1	1	
0.275	712.929	4.4948	3.19864	10	1	1	
0.28	710.76	4.50535	3.20057	10	1	1	
0.285	708.679	4.5148	3.20746	10	1	1	
0.29	706.401	4.5267	3.2135	10	1	1	
0.295	703.595	4.50746	3.19245	10	1	1	
0.3	700.243	4.49593	3.18673	10	1	1	
0.305	695.458	4.52056	3.1931	10	1	1	
0.31	690.996	4.46493	3.17433	10	1	1	
0.315	686.28	4.52581	3.19212	10	1	1	
0.32	681.877	4.49319	3.18363	10	1	1	
0.325	678.387	4.52386	3.2087	10	1	1	
0.33	675.542	4.54497	3.2261	10	1	1	
0.335	673.274	4.5598	3.2237	10	1	1	
0.34	671.601	4.57558	3.23588	10	1	1	
0.345	670.028	4.59235	3.23898	10	1	1	
0.35	667.714	4.61145	3.25034	10	1	1	
0.355	664.247	4.6112	3.24019	10	1	1	
0.36	659.745	4.63906	3.26967	10	1	1	
0.365	654.612	4.64867	3.26696	10	1	1	
0.37	649.213	4.64533	3.26261	10	1	1	
0.375	643.955	4.66456	3.27616	10	1	1	
0.38	639.36	4.69562	3.30064	10	1	1	
0.385	635.726	4.69868	3.28769	10	1	1	
0.39	633.325	4.72647	3.32108	10	1	1	
0.395	630.36	4.72169	3.29442	10	1	1	
0.4	626.851	4.72975	3.32163	10	1	1	
0.405	622.529	4.72256	3.30367	10	1	1	
0.41	617.635	4.73329	3.31654	10	1	1	
0.415	612.715	4.71974	3.30635	10	1	1	
0.42	608.031	4.7036	3.29703	10	1	1	
0.425	603.859	4.71794	3.30122	10	1	1	
0.43	600.904	4.71546	3.31206	10	1	1	
0.435	598.44	4.71051	3.28894	10	1	1	
0.44	596.617	4.71272	3.30934	10	1	1	
0.445	595.301	4.71867	3.30074	10	1	1	
0.45	594.218	4.70179	3.28722	10	1	1	
0.455	593.816	4.70775	3.29573	10	1	1	
0.46	593.829	4.65937	3.24888	10	1	1	
0.465	594.143	4.67142	3.25798	10	1	1	
0.47	594.724	4.66526	3.24977	10	1	1	
0.475	595.782	4.66482	3.23581	10	1	1	
0.48	597.619	4.67026	3.23219	10	1	1	
0.485	599.918	4.67388	3.22268	10	1	1	
0.49	602.188	4.66656	3.22565	10	1	1	
0.495	603.909	4.65973	3.20241	10	1	1	
0.5	604.838	4.64972	3.1977	10	1	1	
0.505	605.188	4.6459	3.18564	10	1	1	
0.51	605.545	4.65908	3.19606	10	1	1	
0.515	606.235	4.69062	3.18128	10	1	1	
0.52	607.287	4.64883	3.18482	10	1	1	
0.525	608.224	4.67878	3.17593	10	1	1	
0.53	609.039	4.63561	3.18553	10	1	1	
0.535	609.791	4.67534	3.18017	10	1	1	
0.54	610.956	4.63846	3.1878	10	1	1	
0.545	612.257	4.65053	3.16582	10	1	1	
0.55	613.407	4.60649	3.16645	10	1	1	
0.555	614.61	4.62057	3.16121	10	1	1	
0.56	616.286	4.58363	3.14464	10	1	1	
0.565	618.49	4.56703	3.13327	10	1	1	
0.57	621.252	4.54546	3.12139	10	1	1	
0.575	624.379	4.51397	3.11968	10	1	1	
0.58	628.261	4.51198	3.11848	10	1	1	
0.585	633.048	4.49032	3.10171	10	1	1	
0.59	638.777	4.47563	3.09794	10	1	1	
0.595	644.73	4.44366	3.07997	10	1	1	
0.6	650.748	4.39923	3.08192	10	1	1	
0.605	656.929	4.37103	3.06221	10	1	1	
0.61	663.438	4.25794	3.05328	10	1	1	
0.615	670.507	4.25317	3.0537	10	1	1	
0.62	678.113	4.25847	3.0563	10	1	1	
0.625	686.184	4.25359	3.05753	10	1	1	
0.63	694.368	4.25244	3.05805	10	1	1	
0.635	702.368	4.2683	3.07341	10	1	1	
0.64	710.008	4.28215	3.07861	10	1	1	
0.645	716.89	4.36966	3.08508	10	1	1	
0.65	722.832	4.35682	3.08432	10	1	1	
0.655	728.087	4.36913	3.10202	10	1	1	
0.66	732.932	4.35433	3.09321	10	1	1	
0.665	737.504	4.35551	3.11151	10	1	1	
0.67	742.037	4.34145	3.10512	10	1	1	
0.675	746.792	4.37093	3.13518	10	1	1	
0.68	751.732	4.36199	3.12674	10	1	1	
0.685	756.385	4.39428	3.15308	10	1	1	
0.69	760.419	4.44192	3.15769	10	1	1	
0.695	763.652	4.4381	3.17131	10	1	1	
0.7	765.743	4.43749	3.18654	10	1	1	
0.705	766.31	4.43461	3.20146	10	1	1	
0.71	765.251	4.42581	3.20162	10	1	1	
0.715	761.921	4.39086	3.1884	10	1	1	
0.72	755.721	4.1807	2.99213	10	1	1	
0.725	746.578	4.24658	3.07169	10	1	1	
0.73	734.857	4.21772	3.06149	10	1	1	
0.735	721.466	4.18941	3.0444	10	1	1	
0.74	707.313	4.19467	3.06387	10	1	1	
0.745	692.766	4.16941	3.05062	10	1	1	
0.75	678.462	4.1864	3.07623	10	1	1	
0.755	665.401	4.17429	3.07056	10	1	1	
0.76	654.566	4.17664	3.07601	10	1	1	
0.765	646.822	4.18963	3.09504	10	1	1	
0.77	642.778	4.17907	3.08905	10	1	1	
0.775	642.177	4.18674	3.10691	10	1	1	
0.78	641.988	4.1965	3.12347	10	1	1	
0.785	641.794	4.18681	3.12513	10	1	1	
0.79	642.337	4.17377	3.12017	10	1	1	
0.795	643.85	4.16186	3.11561	10	1	1	
0.8	645.419	4.17066	3.12924	10	1	1	
0.805	646.453	4.14952	3.10989	10	1	1	
0.81	645.02	5.12777	4.08168	10	1	1	
0.815	641.27	4.25593	3.21545	10	1	1	
0.82	636.744	4.11881	3.08429	10	1	1	
0.825	630.028	3.98612	2.94886	10	1	1	
0.83	622.063	4.29372	3.24225	10	1	1	
0.835	614.093	4.19312	3.13255	10	1	1	
0.84	610.407	4.1283	3.04534	10	1	1	
0.845	610.847	4.17714	3.08869	10	1	1	
0.85	611.266	4.36999	3.27364	10	1	1	
0.855	614.287	4.41645	3.31949	10	1	1	
0.86	623.046	4.49471	3.39245	10	1	1	
0.865	637.684	4.81967	3.69856	10	1	1	
0.87	654.559	5.92955	4.76734	10	1	1	
0.875	667.144	5.91486	4.70894	10	1	1	
0.88	678.577	7.14328	5.80663	10	1	1	
0.885	689.592	6.09441	4.93872	10	1	1	
0.89	704.803	7.21616	5.14749	10	1	1	
0.895	711.29	8.05227	5.70716	10	1	1	
0.9	731.224	7.32905	5.33287	10	1	1	
0.905	755.65	8.00359	5.69708	10	1	1	
0.91	789.735	7.92122	5.85698	10	1	1	
0.915	836.091	8.15061	5.98562	10	1	1	
0.92	895.661	8.18366	6.03889	10	1	1	
0.925	965.693	8.39131	6.18296	10	1	1	
0.93	1040.78	8.48047	6.27148	10	1	1	
0.935	1117.71	8.58339	6.32278	10	1	1	
0.94	1196.08	8.62918	6.35041	10	1	1	
0.945	1274.39	8.86799	6.56179	10	1	1	
0.95	1352.96	8.85645	6.55402	10	1	1	
0.955	1431.75	9.48348	7.12682	10	1	1	
0.96	1512.93	9.32005	6.95878	10	1	1	
0.965	1597.41	9.46995	7.15477	10	1	1	
0.97	1686.3	9.85143	7.46501	10	1	1	
0.975	1785.14	9.95092	7.60171	10	1	1	
0.98	1891.4	10.1995	7.82455	10	1	1	
0.985	1988.41	10.3504	7.96485	10	1	1	
0.99	2086.74	10.524	8.11141	10	1	1	
0.995	2190.04	10.5143	8.08951	10	1	1	
1	2298.13	10.6378	8.17848	10	1	1	
1.005	2410.08	10.4493	8.00452	10	1	1	
1.01	2525.88	10.4162	7.93222	10	1	1	
1.015	2645.22	10.4228	7.89597	10	1	1	
1.02	2766.64	10.4096	7.86794	10	1	1	
1.025	2889.86	10.6297	8.05301	10	1	1	
1.03	3012.38	10.6487	8.04054	10	1	1	
1.035	3131.76	10.1862	7.53223	10	1	1	
1.04	3243.48	11.0542	8.4745	10	1	1	
1.045	3346.4	11.0541	8.43156	10	1	1	
1.05	3416.02	10.0918	7.92034	10	1	1	
1.055	3384.44	10.6438	7.81065	10	1	1	
1.06	3249.42	10.4076	7.73028	10	1	1	
1.065	3122.14	8.609	6.51053	10	1	1	
1.07	3036.35	8.12696	5.94909	10	1	1	
1.075	3000.66	9.94427	7.53314	10	1	1	
1.08	3005.85	9.98006	7.49324	10	1	1	
1.085	3034.38	9.99856	6.69804	10	1	1	
1.09	3075.96	10.1658	6.16269	10	1	1	
1.095	3120.83	10.4212	6.42471	10	1	1	
1.1	3178.39	10.5148	6.52203	10	1	1	
1.105	3106.41	11.1121	6.12211	10	1	1	
1.11	2832.6	10.4992	5.50518	10	1	1	
1.115	2554.58	10.8271	5.90248	10	1	1	
1.12	2309.73	10.6307	6.14464	10	1	1	
1.125	2147.44	10.0313	5.845	10	1	1	
1.13	2008.2	9.71696	6.01593	10	1	1	
1.135	1778.15	10.6358	5.86846	10	1	1	
1.14	1343.15	10.608	5.82979	10	1	1	
1.145	1012.54	10.0453	5.76495	10	1	1	
1.15	804.893	9.77733	5.68636	10	1	1	
1.155	724.7	9.97593	5.71514	10	1	1	
1.16	709.876	8.94562	6.59257	10	1	1	
1.165	705.199	10.7041	6.62558	10	1	1	
1.17	708.709	9.91651	6.57766	10	1	1	
1.175	721.538	10.0345	6.54781	10	1	1	
1.18	741.635	9.6962	6.51296	10	1	1	
1.185	767.035	10.0893	6.57373	10	1	1	
1.19	794.806	9.73048	6.53673	10	1	1	
1.195	823.316	9.89958	6.55201	10	1	1	
1.2	852.288	9.80487	6.65597	10	1	1	
1.205	880.139	9.89882	6.64641	10	1	1	
1.21	908.264	9.83872	6.73885	10	1	1	
1.215	937.947	9.97692	6.79859	10	1	1	
1.22	971.638	9.92965	6.82488	10	1	1	
1.225	1006.24	9.8475	6.66828	10	1	1	
1.23	1042.03	9.88184	6.76573	10	1	1	
1.235	1079.58	9.92103	6.77025	10	1	1	
1.24	1115.36	9.77688	6.66457	10	1	1	
1.245	1148.33	9.71224	6.58669	10	1	1	
1.25	1179.2	9.67597	6.58592	10	1	1	
1.255	1205.16	9.96811	6.84113	10	1	1	
1.26	1234.84	9.90216	6.73792	10	1	1	
1.265	1260.79	9.81597	6.53205	10	1	1	
1.27	1286.51	9.88326	6.59112	10	1	1	
1.275	1319.07	9.58922	6.2393	10	1	1	
1.28	1354.26	9.37977	6.08404	10	1	1	
1.285	1387.24	9.93228	6.55312	10	1	1	
1.29	1417.36	9.87873	6.42852	10	1	1	
1.295	1445.96	9.64855	6.1926	10	1	1	
1.3	1486.71	8.98346	5.73654	10	1	1	
1.305	1517.65	9.23569	5.75545	10	1	1	
1.31	1537.75	9.32088	5.81825	10	1	1	
1.315	1559.42	9.28202	5.65693	10	1	1	
1.32	1585.96	8.92455	5.30795	10	1	1	
1.325	1616.37	8.87775	5.19773	10	1	1	
1.33	1648.13	8.93619	5.1489	10	1	1	
1.335	1673.94	9.31504	5.33946	10	1	1	
1.34	1720.8	9.04822	5.06541	10	1	1	
1.345	1628.6	9.41083	4.9488	10	1	1	
1.35	1775.29	8.39812	4.8911	10	1	1	
1.355	1798.12	10.1285	5.03028	10	1	1	
1.36	1830.36	8.61795	4.96919	10	1	1	
1.365	1867.01	9.59569	4.96479	10	1	1	
1.37	1906.42	8.79172	5.03418	10	1	1	
1.375	1950.67	9.60583	5.0479	10	1	1	
1.38	2011.56	8.98481	5.20158	10	1	1	
1.385	2056.84	9.2891	4.78764	10	1	1	
1.39	2089.83	8.86561	4.98622	10	1	1	
1.395	2121.01	9.39928	5.05499	10	1	1	
1.4	2149.95	8.84148	4.97144	10	1	1	
1.405	2177.81	9.17083	4.96436	10	1	1	
1.41	2200.13	8.85866	4.97031	10	1	1	
1.415	2211.67	9.08863	4.98598	10	1	1	
1.42	2225.51	8.92618	5.10735	10	1	1	
1.425	2252.26	8.78543	4.95922	10	1	1	
1.43	2277.41	8.41565	4.79748	10	1	1	
1.435	2296.71	8.73741	4.88582	10	1	1	
1.44	2332.4	8.76395	5.06256	10	1	1	
1.445	2360.74	8.72633	4.87061	10	1	1	
1.45	2390.64	8.56819	4.84229	10	1	1	
1.455	2422.42	8.85988	5.03452	10	1	1	
1.46	2453.99	8.62468	4.8882	10	1	1	
1.465	2491.93	8.78848	4.98919	10	1	1	
1.47	2520.44	8.66842	4.9423	10	1	1	
1.475	2546.22	8.79411	5.03196	10	1	1	
1.48	2564.84	8.74024	5.02685	10	1	1	
1.485	2585.35	8.84937	5.10663	10	1	1	
1.49	2610.32	8.84596	5.13981	10	1	1	
1.495	2638.52	8.8695	5.15366	10	1	1	
1.5	2679.65	8.87429	5.19847	10	1	1	
1.505	2716.92	8.80834	5.1343	10	1	1	
1.51	2746.41	8.78418	5.14242	10	1	1	
1.515	2778.22	8.83088	5.16425	10	1	1	
1.52	2811.05	8.80869	5.15657	10	1	1	
1.525	2843.56	8.79594	5.12067	10	1	1	
1.53	2879.33	8.72742	5.06697	10	1	1	
1.535	2916.49	8.95506	5.23419	10	1	1	
1.54	2965.96	8.7411	5.08252	10	1	1	
1.545	3001.57	8.68899	4.9947	10	1	1	
1.55	3034.22	8.59903	4.9568	10	1	1	
1.555	3066.9	8.6418	4.98693	10	1	1	
1.56	3097.73	8.81227	5.19777	10	1	1	
1.565	3138.07	8.84165	5.2184	10	1	1	
1.57	3170.15	8.79762	5.21318	10	1	1	
1.575	3179.82	8.79431	5.18167	10	1	1	
1.58	3193.29	8.67038	5.30547	10	1	1	
1.585	3210.17	8.01181	4.96666	10	1	1	
1.59	3237.8	8.32008	5.08265	10	1	1	
1.595	3268.83	8.33308	5.16439	10	1	1	
1.6	3315.35	8.18467	5.0489	10	1	1	
1.605	3357.06	8.06345	5.03386	10	1	1	
1.61	3373.9	7.84126	4.85933	10	1	1	
1.615	3392.86	7.90967	4.96943	10	1	1	
1.62	3412.12	7.96013	4.98608	10	1	1	
1.625	3434.89	7.84721	4.89311	10	1	1	
1.63	3460.73	7.87293	4.90692	10	1	1	
1.635	3479.2	7.82979	4.87084	10	1	1	
1.64	3518.69	7.93214	4.92805	10	1	1	
1.645	3543.8	7.96372	4.97979	10	1	1	
1.65	3539.27	7.83913	4.99783	10	1	1	
1.655	3536.53	7.54171	4.85944	10	1	1	
1.66	3542.46	7.54456	4.80603	10	1	1	
1.665	3553.01	7.45892	4.77507	10	1	1	
1.67	3561.96	7.46859	4.79867	10	1	1	
1.675	3573.04	7.37627	4.79199	10	1	1	
1.68	3591.89	7.23286	4.63364	10	1	1	
1.685	3614.11	7.23254	4.75639	10	1	1	
1.69	3616.06	7.38968	4.8075	10	1	1	
1.695	3617.13	7.31085	4.80404	10	1	1	
1.7	3623.92	7.42012	4.86176	10	1	1	
1.705	3629.5	7.38207	4.89892	10	1	1	
1.71	3637.64	7.62479	5.04093	10	1	1	
1.715	3632.63	7.55271	5.03163	10	1	1	
1.72	3638.53	7.64442	5.03196	10	1	1	
1.725	3626.66	7.7169	5.20466	10	1	1	
1.73	3602.08	7.62357	5.08936	10	1	1	
1.735	3596.76	7.87252	5.27068	10	1	1	
1.74	3583.59	7.81365	5.2892	10	1	1	
1.745	3571.16	7.85223	5.32569	10	1	1	
1.75	3570.38	7.75291	5.30181	10	1	1	
1.755	3580.75	7.77509	5.42449	10	1	1	
1.76	3595.85	7.72674	5.35421	10	1	1	
1.765	3597.69	7.71131	5.45561	10	1	1	
1.77	3600.67	7.66179	5.385	10	1	1	
1.775	3620.23	7.5748	5.36472	10	1	1	
1.78	3657.3	7.62944	5.36349	10	1	1	
1.785	3715.9	7.61873	5.38377	10	1	1	
1.79	3786.83	7.56877	5.45656	10	1	1	
1.795	3794.81	7.47976	5.15033	10	1	1	
1.8	3770.58	7.58555	5.44064	10	1	1	
1.805	3751.03	7.5734	5.29842	10	1	1	
1.81	3752.76	7.40203	5.27379	10	1	1	
1.815	3768.45	7.53974	5.29361	10	1	1	
1.82	3794.35	7.43008	5.30077	10	1	1	
1.825	3863.19	7.64433	5.32323	10	1	1	
1.83	3933.77	7.31943	5.24252	10	1	1	
1.835	3990.14	7.62441	5.31266	10	1	1	
1.84	4027.05	7.42231	5.25139	10	1	1	
1.845	4072.05	7.45474	5.19566	10	1	1	
1.85	4138.3	7.31736	5.24624	10	1	1	
1.855	4213.22	7.40272	5.19328	10	1	1	
1.86	4324.84	7.43142	5.24543	10	1	1	
1.865	4442.59	7.23983	5.15107	10	1	1	
1.87	4514.01	7.2373	5.15566	10	1	1	
1.875	4588.84	7.71964	5.55616	10	1	1	
1.88	4674.41	7.0912	5.02241	10	1	1	
1.885	4746.16	7.76322	5.22934	10	1	1	
1.89	4831.52	7.11972	5.16889	10	1	1	
1.895	5010.04	7.47955	5.11299	10	1	1	
1.9	5104.64	7.04281	5.14147	10	1	1	
1.905	5200.84	7.58809	5.22989	10	1	1	
1.91	5362.77	6.96655	5.16856	10	1	1	
1.915	5453.99	8.06884	5.11004	10	1	1	
1.92	5497.25	7.2716	5.15089	10	1	1	
1.925	5600.58	7.22155	5.14259	10	1	1	
1.93	5662.83	7.08643	5.13118	10	1	1	
1.935	5755.88	7.68814	5.11106	10	1	1	
1.94	5840.92	7.05844	5.11971	10	1	1	
1.945	5906.46	7.58764	5.16502	10	1	1	
1.95	5979.52	7.06852	5.09729	10	1	1	
1.955	6053.39	7.43542	5.10289	10	1	1	
1.96	6104.01	7.11436	5.11209	10	1	1	
1.965	6212.5	7.6452	5.11496	10	1	1	
1.97	6244.59	6.69767	4.83946	10	1	1	
1.975	6256.36	7.20729	4.83603	10	1	1	
1.98	6284.6	6.90547	4.92019	10	1	1	
1.985	6369.28	7.39947	4.94365	10	1	1	
1.99	6488.5	6.68039	4.76735	10	1	1	
1.995	6541.76	7.37978	4.74783	10	1	1	
2	6605.21	7.01216	4.96012	10	1	1	
2.005	6765.55	7.33629	4.67444	10	1	1	
2.01	6849.1	7.06103	5.11637	10	1	1	
2.015	6908.54	7.73816	5.09939	10	1	1	
2.02	6951.89	7.05387	5.05497	10	1	1	
2.025	7028.88	7.26193	4.93805	10	1	1	
2.03	7108.55	6.85322	4.90934	10	1	1	
2.035	7141.45	7.56025	4.92845	10	1	1	
2.04	7231.5	6.93094	5.0673	10	1	1	
2.045	7258.53	7.60596	4.74159	10	1	1	
2.05	7214.91	6.68465	4.92597	10	1	1	
2.055	7185.96	7.33223	4.90899	10	1	1	
2.06	7187.15	6.66793	4.82131	10	1	1	
2.065	7210.94	7.10829	4.76431	10	1	1	
2.07	7224.6	6.46938	4.60247	10	1	1	
2.075	7239.74	6.93562	4.65688	10	1	1	
2.08	7299.55	6.55089	4.74412	10	1	1	
2.085	7258.85	6.60949	4.27193	10	1	1	
2.09	7193.17	6.42446	4.54335	10	1	1	
2.095	7143.79	6.2864	4.23586	10	1	1	
2.1	7091.02	6.40311	4.52787	10	1	1	
2.105	7045.77	6.33069	4.46448	10	1	1	
2.11	7011.72	6.45077	3.88733	10	1	1	
2.115	6999.37	6.31042	4.51865	10	1	1	
2.12	6953.64	6.64207	4.50414	10	1	1	
2.125	6942.96	6.32852	4.52373	10	1	1	
2.13	6960.83	6.64165	4.43377	10	1	1	
2.135	6915.64	6.25272	4.4058	10	1	1	
2.14	6793.51	5.82892	3.89968	10	1	1	
2.145	6710.42	5.6588	4.05084	10	1	1	
2.15	6663.16	5.00933	3.36741	10	1	1	
2.155	6621.47	5.62708	3.97744	10	1	1	
2.16	6609.62	6.15205	4.23684	10	1	1	
2.165	6594.06	5.84854	4.02905	10	1	1	
2.17	6569.44	5.77002	3.95724	10	1	1	
2.175	6573.58	5.2514	3.46616	10	1	1	
2.18	6581.39	5.37643	3.80005	10	1	1	
2.185	6601.93	5.53274	3.72943	10	1	1	
2.19	6631.84	5.76432	3.98142	10	1	1	
2.195	6697.24	5.70562	3.76658	10	1	1	
2.2	6736.35	5.25505	3.66313	10	1	1	
2.205	6767.76	4.99664	3.30371	10	1	1	
2.21	6809.03	5.0254	3.44719	10	1	1	
2.215	6850.56	5.23452	3.51203	10	1	1	
2.22	6883.59	5.09671	3.46929	10	1	1	
2.225	6935.88	5.06409	3.37455	10	1	1	
2.23	7036.4	5.07691	3.44176	10	1	1	
2.235	7121.01	5.03786	3.37863	10	1	1	
2.24	7216.34	5.05656	3.38026	10	1	1	
2.245	7277.62	5.12858	3.295	10	1	1	
2.25	7318.42	4.75978	3.23106	10	1	1	
2.255	7362.84	5.09829	3.29083	10	1	1	
2.26	7415.78	5.04588	3.29784	10	1	1	
2.265	7520.51	5.01063	3.29121	10	1	1	
2.27	7600.63	4.6891	3.19307	10	1	1	
2.275	7679.59	5.26621	3.24604	10	1	1	
2.28	7739.69	4.60196	3.12768	10	1	1	
2.285	7795.78	4.98451	3.22886	10	1	1	
2.29	7821.54	4.72741	3.13858	10	1	1	
2.295	7847.1	4.89283	3.15353	10	1	1	
2.3	7902.09	4.87298	3.15709	10	1	1	
2.305	7954.21	4.6829	3.20521	10	1	1	
2.31	8000.6	4.94707	3.08301	10	1	1	
2.315	8074.17	4.81096	3.25124	10	1	1	
2.32	8141.15	4.91462	3.17444	10	1	1	
2.325	8183.33	4.65442	3.03873	10	1	1	
2.33	8217.81	4.7423	3.06442	10	1	1	
2.335	8229.85	4.86193	3.16831	10	1	1	
2.34	8222.82	4.83778	3.11111	10	1	1	
2.345	8218.35	4.68212	3.05861	10	1	1	
2.35	8208.58	4.77442	3.1037	10	1	1	
2.355	8200.11	4.79043	3.12804	10	1	1	
2.36	8189.76	4.7887	3.11752	10	1	1	
2.365	8178.43	4.80967	3.1457	10	1	1	
2.37	8167.93	4.72252	3.07654	10	1	1	
2.375	8145.33	4.71041	3.06906	10	1	1	
2.38	8114.93	4.81847	3.12166	10	1	1	
2.385	8082.76	4.77416	3.09139	10	1	1	
2.39	8047.32	4.69102	3.02368	10	1	1	
2.395	8009.38	4.70585	3.05242	10	1	1	
2.4	7971.97	4.78045	3.08151	10	1	1	
2.405	7935.22	4.74327	3.08536	10	1	1	
2.41	7897.47	4.71293	3.04324	10	1	1	
2.415	7859.01	4.69011	3.05028	10	1	1	
2.42	7819.32	4.7102	3.05158	10	1	1	
2.425	7776.94	4.69421	3.04888	10	1	1	
2.43	7727.97	4.71367	3.04424	10	1	1	
2.435	7678.94	4.6177	3.01994	10	1	1	
2.44	7624.12	4.66624	3.01685	10	1	1	
2.445	7570.96	4.64515	3.04028	10	1	1	
2.45	7519.95	4.73285	3.04625	10	1	1	
2.455	7474.56	4.61535	3.00736	10	1	1	
2.46	7436.06	4.6363	3.00368	10	1	1	
2.465	7401.33	4.63856	3.01833	10	1	1	
2.47	7369.57	4.73465	3.0411	10	1	1	
2.475	7340.9	4.6356	3.00506	10	1	1	
2.48	7316.11	4.67187	3.00538	10	1	1	
2.485	7293.62	4.65777	3.01515	10	1	1	
2.49	7273.73	4.78931	3.05163	10	1	1	
2.495	7259.76	4.68744	3.01421	10	1	1	
2.5	7256.34	4.73262	3.0233	10	1	1	
2.505	7267.03	4.79235	3.05473	10	1	1	
2.51	7291.02	4.8651	3.06606	10	1	1	
2.515	7323.68	4.8825	3.07441	10	1	1	
2.52	7358.75	5.0498	3.12226	10	1	1	
2.525	7395.05	4.95849	3.07769	10	1	1	
2.53	7433.11	4.98516	3.07278	10	1	1	
2.535	7470.83	5.15623	3.16267	10	1	1	
2.54	7512.25	5.19697	3.14979	10	1	1	
2.545	7557.15	5.24174	3.17307	10	1	1	
2.55	7608.87	5.27293	3.17214	10	1	1	
2.555	7669.54	5.45205	3.19593	10	1	1	
2.56	7742.06	5.68438	3.2826	10	1	1	
2.565	7828.22	5.81661	3.31678	10	1	1	
2.57	7920.39	6.27249	3.4749	10	1	1	
2.575	8013.14	6.3556	3.48176	10	1	1	
2.58	8099.47	6.48609	3.46101	10	1	1	
2.585	8166.53	6.61689	3.56701	10	1	1	
2.59	8221.7	6.95511	3.64986	10	1	1	
2.595	8260.65	7.14796	3.76208	10	1	1	
2.6	8281.33	7.4688	3.87397	10	1	1	
2.605	8284.53	7.6453	4.02083	10	1	1	
2.61	8273.01	7.82593	4.1114	10	1	1	
2.615	8250.34	8.23	4.47286	10	1	1	
2.62	8217.53	8.40379	4.55115	10	1	1	
2.625	8174.04	8.85198	4.9285	10	1	1	
2.63	8115.41	8.94508	4.98245	10	1	1	
2.635	8039.48	8.9797	5.00552	10	1	1	
2.64	7942.03	9.30542	5.20925	10	1	1	
2.645	7823.17	9.27882	5.23581	10	1	1	
2.65	7685.02	9.40537	5.26119	10	1	1	
2.655	7524.55	9.44695	5.30308	10	1	1	
2.66	7343.93	9.57242	5.31686	10	1	1	
2.665	7148.26	9.58007	5.36427	10	1	1	
2.67	6941.49	9.55862	5.3396	10	1	1	
2.675	6729.97	9.56503	5.37257	10	1	1	
2.68	6518.99	9.74026	5.35386	10	1	1	
2.685	6310.23	9.61938	5.33374	10	1	1	
2.69	6104.51	9.64128	5.3302	10	1	1	
2.695	5901.09	9.70906	5.38177	10	1	1	
2.7	5696.89	9.67765	5.37016	10	1	1	
2.705	5489.2	9.61148	5.35633	10	1	1	
2.71	5279.54	9.75825	5.39169	10	1	1	
2.715	5071.03	9.69656	5.38936	10	1	1	
2.72	4865.16	9.74257	5.38479	10	1	1	
2.725	4665.56	9.72	5.41211	10	1	1	
2.73	4474.08	9.796	5.41608	10	1	1	
2.735	4292.83	9.76472	5.43301	10	1	1	
2.74	4123.76	9.70441	5.41427	10	1	1	
2.745	3967.61	9.73156	5.4431	10	1	1	
2.75	3834.03	10.2034	6.05184	10	1	1	
2.755	3707.85	10.3181	5.92135	10	1	1	
2.76	3592.55	9.32024	5.21407	10	1	1	
2.765	3482.72	9.79035	5.58627	10	1	1	
2.77	3380.47	10.0645	5.9036	10	1	1	
2.775	3286.09	9.78971	5.62039	10	1	1	
2.78	3212.33	9.71735	5.56344	10	1	1	
2.785	3138.85	11.0843	5.83285	10	1	1	
2.79	3076.34	9.72571	5.67268	10	1	1	
2.795	3019.57	10.2219	5.62846	10	1	1	
2.8	2972.51	9.99091	5.60499	10	1	1	
2.805	2938.45	10.5071	5.67638	10	1	1	
2.81	2926.17	10.1049	5.66119	10	1	1	
2.815	2906.78	10.365	5.63133	10	1	1	
2.82	2888.66	10.2761	5.68805	10	1	1	
2.825	2875.09	10.4843	5.73962	10	1	1	
2.83	2864.92	10.4816	5.78442	10	1	1	
2.835	2858.03	10.6189	5.82211	10	1	1	
2.84	2857.1	10.6196	5.82247	10	1	1	
2.845	2859.68	10.8081	5.95663	10	1	1	
2.85	2871.05	10.7803	5.85468	10	1	1	
2.855	2892.7	10.9582	5.97218	10	1	1	
2.86	2911.61	11.0949	6.08239	10	1	1	
2.865	2928.39	11.208	6.0414	10	1	1	
2.87	2946.7	11.3263	6.11212	10	1	1	
2.875	2968.24	11.4415	6.16135	10	1	1	
2.88	2990.92	11.5722	6.28225	10	1	1	
2.885	3014.35	11.5746	6.29182	10	1	1	
2.89	3036.79	11.6797	6.38003	10	1	1	
2.895	3056	11.6847	6.38547	10	1	1	
2.9	3071.68	11.8152	6.50778	10	1	1	
2.905	3084.78	11.7782	6.46946	10	1	1	
2.91	3091.48	11.989	6.67569	10	1	1	
2.915	3098.75	11.7559	6.43518	10	1	1	
2.92	3094.87	11.7932	6.46593	10	1	1	
2.925	3078.8	11.7736	6.4372	10	1	1	
2.93	3048.95	11.8402	6.49237	10	1	1	
2.935	3008.97	11.7783	6.43069	10	1	1	
2.94	2965.44	11.7742	6.41829	10	1	1	
2.945	2915.61	11.8022	6.43503	10	1	1	
2.95	2852.3	11.8379	6.50258	10	1	1	
2.955	2778.81	11.7694	6.56623	10	1	1	
2.96	2682.04	12.0694	6.68374	10	1	1	
2.965	2574.72	11.6311	6.59264	10	1	1	
2.97	2463.4	11.5472	6.5476	10	1	1	
2.975	2347.6	11.6544	6.46253	10	1	1	
2.98	2228.59	11.406	6.31418	10	1	1	
2.985	2076.42	11.2503	6.19282	10	1	1	
2.99	1924.73	10.4779	6.08618	10	1	1	
2.995	1777.43	11.1342	5.97039	10	1	1	
3	1635.26	10.6308	5.86852	10	1	1	
3.005	1500.29	10.812	5.84302	10	1	1	
3.01	1374.19	10.4683	5.77336	10	1	1	
3.015	1257.72	10.7195	5.69658	10	1	1	
3.02	1151.94	10.6487	5.73879	10	1	1	
3.025	1056.6	10.7351	5.7592	10	1	1	
3.03	971.073	9.3928	5.54343	10	1	1	
3.035	895.339	9.71094	5.37935	10	1	1	
3.04	830.182	9.32215	5.29556	10	1	1	
3.045	773.558	9.5509	5.3506	10	1	1	
3.05	727.227	9.14394	5.12143	10	1	1	
3.055	687.179	9.29126	5.17341	10	1	1	
3.06	651.905	9.33951	5.35308	10	1	1	
3.065	621.409	10.5855	6.53246	10	1	1	
3.07	594.154	10.2096	6.24446	10	1	1	
3.075	569.809	10.2866	6.29395	10	1	1	
3.08	551.569	10.7223	6.51011	10	1	1	
3.085	531.417	9.88218	5.79663	10	1	1	
3.09	510.517	9.62135	5.64626	10	1	1	
3.095	492.585	9.95545	5.85919	10	1	1	
3.1	478.91	10.0529	5.78943	10	1	1	
3.105	471.526	10.0209	5.57249	10	1	1	
3.11	467.124	9.56596	5.39424	10	1	1	
3.115	466.445	9.42326	5.32131	10	1	1	
3.12	469.298	8.50979	4.29592	10	1	1	
3.125	475.036	8.72877	4.22282	10	1	1	
3.13	483.06	8.76071	4.17217	10	1	1	
3.135	492.176	8.4614	4.09441	10	1	1	
3.14	501.326	8.39345	4.08446	10	1	1	
3.145	510.667	8.629	4.04641	10	1	1	
3.15	521.447	9.40042	4.05034	10	1	1	
3.155	532.491	9.63358	3.98724	10	1	1	
3.16	558.123	9.16846	3.96467	10	1	1	
3.165	577.572	10.1663	3.95033	10	1	1	
3.17	586.919	10.2749	3.93543	10	1	1	
3.175	595.949	10.4024	3.94757	10	1	1	
3.18	611.823	10.4744	3.97665	10	1	1	
3.185	633.475	10.8736	3.9765	10	1	1	
3.19	652.928	11.1781	4.00621	10	1	1	
3.195	659.03	11.7344	4.06227	10	1	1	
3.2	653.841	12.0466	4.11392	10	1	1	
3.205	650.088	10.4174	4.18556	10	1	1	
3.21	662.66	10.347	4.21891	10	1	1	
3.215	659.941	11.2173	4.23045	10	1	1	
3.22	643.191	11.4406	4.45444	10	1	1	
3.225	624.347	11.4149	4.49315	10	1	1	
3.23	612.642	10.4941	4.3716	10	1	1	
3.235	609.565	11.1261	4.6156	10	1	1	
3.24	604.729	9.84211	4.57679	10	1	1	
3.245	602.515	9.2239	4.26672	10	1	1	
3.25	607.9	9.01328	4.31826	10	1	1	
3.255	603.819	9.58596	4.66518	10	1	1	
3.26	584.27	9.52829	4.51117	10	1	1	
3.265	564.31	9.36149	4.45858	10	1	1	
3.27	544.711	9.77614	4.62849	10	1	1	
3.275	529.293	10.1033	4.84837	10	1	1	
3.28	521.776	10.2865	4.97884	10	1	1	
3.285	520.153	10.0954	5.20858	10	1	1	
3.29	522.431	10.5186	5.27075	10	1	1	
3.295	529.549	10.3776	5.42319	10	1	1	
3.3	544.873	10.5836	5.54961	10	1	1	
3.305	549.829	9.73086	5.37006	10	1	1	
3.31	555.877	10.1807	5.26627	10	1	1	
3.315	559.421	10.1551	5.38958	10	1	1	
3.32	564.925	10.352	5.48801	10	1	1	
3.325	566.925	10.3099	5.40567	10	1	1	
3.33	568.526	10.3679	5.34538	10	1	1	
3.335	573.874	10.395	5.34923	10	1	1	
3.34	582.594	10.4518	5.31592	10	1	1	
3.345	594.215	10.4438	5.33603	10	1	1	
3.35	608.762	10.4149	5.34704	10	1	1	
3.355	625.232	10.425	5.35297	10	1	1	
3.36	643.864	10.4655	5.39372	10	1	1	
3.365	668.156	10.5609	5.47853	10	1	1	
3.37	692.906	10.5734	5.49048	10	1	1	
3.375	713.976	10.236	5.34207	10	1	1	
3.38	733.485	10.3812	5.4026	10	1	1	
3.385	753.473	10.4535	5.46213	10	1	1	
3.39	772.355	10.48	5.51954	10	1	1	
3.395	786.386	10.5335	5.54273	10	1	1	
3.4	791.886	10.6251	5.59513	10	1	1	
3.405	788.613	10.6895	5.63855	10	1	1	
3.41	778.457	10.773	5.72185	10	1	1	
3.415	762.477	10.8754	5.81896	10	1	1	
3.42	740.516	10.8397	5.77558	10	1	1	
3.425	714.163	10.617	5.76265	10	1	1	
3.43	685.077	10.1413	5.70096	10	1	1	
3.435	656.582	9.78539	5.65165	10	1	1	
3.44	631.41	9.44042	5.51503	10	1	1	
3.445	610.257	9.24568	5.45662	10	1	1	
3.45	590.271	8.88895	5.19797	10	1	1	
3.455	571.408	8.8304	5.20044	10	1	1	
3.46	554.509	8.61432	5.09668	10	1	1	
3.465	540.355	8.24579	5.01818	10	1	1	
3.47	528.608	7.57614	5.00172	10	1	1	
3.475	519.084	7.37152	5.09156	10	1	1	
3.48	510.608	7.29309	4.96425	10	1	1	
3.485	504.45	7.51395	4.99386	10	1	1	
3.49	501.944	7.68607	5.05796	10	1	1	
3.495	503.038	7.70672	5.04354	10	1	1	
3.5	507.253	7.71609	4.98766	10	1	1	
3.505	513.322	7.91145	5.05483	10	1	1	
3.51	519.945	8.04832	5.11143	10	1	1	
3.515	525.519	8.1603	5.13345	10	1	1	
3.52	528.923	8.24212	5.15183	10	1	1	
3.525	530.033	8.33603	5.2281	10	1	1	
3.53	529.215	8.39863	5.30863	10	1	1	
3.535	526.622	8.32565	5.38403	10	1	1	
