CEINMS output
datacolumns 81
datarows 92
endheader
time	addbrev_r	addlong_r	addmagDist_r	addmagIsch_r	addmagMid_r	addmagProx_r	bflh_r	bfsh_r	edl_r	ehl_r	fdl_r	fhl_r	gaslat_r	gasmed_r	glmax1_r	glmax2_r	glmax3_r	glmed1_r	glmed2_r	glmed3_r	glmin1_r	glmin2_r	glmin3_r	grac_r	iliacus_r	perbrev_r	perlong_r	piri_r	psoas_r	recfem_r	sart_r	semimem_r	semiten_r	soleus_r	tfl_r	tibant_r	tibpost_r	vasint_r	vaslat_r	vasmed_r	addbrev_l	addlong_l	addmagDist_l	addmagIsch_l	addmagMid_l	addmagProx_l	bflh_l	bfsh_l	edl_l	ehl_l	fdl_l	fhl_l	gaslat_l	gasmed_l	glmax1_l	glmax2_l	glmax3_l	glmed1_l	glmed2_l	glmed3_l	glmin1_l	glmin2_l	glmin3_l	grac_l	iliacus_l	perbrev_l	perlong_l	piri_l	psoas_l	recfem_l	sart_l	semimem_l	semiten_l	soleus_l	tfl_l	tibant_l	tibpost_l	vasint_l	vaslat_l	vasmed_l	
3.19	219.248	-0.0587971	1485.25	1506.97	2038.05	-0.231105	5181.2	4318.54	450.978	214.749	733.085	2276.15	812.743	5447.55	851.41	2540.73	2643.83	24701.6	15909.3	3373.3	3099.84	3272.9	3700.79	283.607	275.667	239.241	2048.98	2781.43	287.279	-0.329326	371.981	14274.7	3830.82	20586.5	0.155198	702.359	2981.44	479.579	1590.47	825.458	33.7779	2331.38	-0.0290484	-0.0654925	-0.0487711	24.1408	100.643	112.975	782.062	1387.33	485.127	2010.11	1471.52	-0.801009	-0.262033	-0.27868	-0.136876	-0.117199	-0.240935	-0.303901	-0.0834871	-0.0746932	-0.141365	0.28053	-0.0135103	2200.56	5414.91	-0.269439	-0.024245	10689.9	218.688	6386.82	939.086	-2.39846	-0.105723	5962.24	8396.1	-0.0979465	-1.41443	-0.177386	
3.195	208.079	-0.0591708	1379.76	1410.91	1857.96	-0.231167	5087.52	4640.25	460.537	219.82	730.517	2262.15	847.827	5676.19	803.809	2432.82	2476.03	24702.7	15779.1	3200.98	3100.06	3273.06	3700.84	283.379	303.935	237.909	2038.67	2628.24	311.325	-0.32804	399.565	14349.9	3834.94	20045.3	1.20697	724.085	2965.83	446.267	1493.99	772.199	30.8191	2274.6	-0.0314333	-0.0679263	-0.0514425	18.2325	78.6323	101.177	785.508	1387.34	485.529	1987.52	1375.43	-0.801129	-0.262804	-0.280934	-0.138309	-0.111305	-0.240171	-0.303892	-0.0810546	-0.0706903	-0.141369	0.0257692	-0.011344	2187.24	5414.89	-0.269478	-0.0235544	10690.2	216.076	5751.31	866.138	-2.39895	-0.105738	5962.27	8395.99	-0.0979734	-1.36569	-0.145474	
3.2	197.791	-0.059599	1276.92	1310.89	1689.64	-0.232279	4970.2	4990.72	471.289	225.418	727.524	2246.92	893.536	5959.14	753.754	2322.68	2313.28	24703.7	15607.4	3024.24	3100.27	3273.2	3700.87	283.071	334.669	236.356	2026.95	2456.69	338.373	-0.326917	429.661	14414.7	3834.24	19459.8	4.34925	748.146	2948.4	407.554	1380.55	710.25	26.614	2212.68	-0.0347112	-0.0716072	-0.0550569	12.6381	39.8697	81.1626	789.09	1387.35	485.042	1900.66	1218.71	-0.805261	-0.266975	-0.288718	-0.148152	-0.104942	-0.233907	-0.299486	-0.0785891	-0.0675686	-0.141372	-0.00264255	-0.00860896	2180.82	5414.88	-0.269568	-0.0227023	10690.4	212.968	5053.4	789.007	-2.40163	-0.105776	5962.31	8396.12	-0.0983848	-1.3003	-0.103834	
3.205	188.666	-0.0600518	1180.96	1214.76	1535.75	-0.233866	4835.85	5360.34	482.126	231.007	724.67	2232.58	946.757	6270.42	702.331	2212.68	2158.74	24704.6	15383.1	2847	3100.46	3273.33	3700.89	282.63	367.478	234.855	2015.99	2279.86	367.203	-0.32453	462.34	14442.1	3825.14	18907.5	10.6315	772.286	2931.77	367.775	1262.82	646.556	21.8083	2112.39	-0.0374917	-0.0749835	-0.0582414	8.70864	11.2304	63.284	758.863	1387.34	484.055	1814.48	1076.78	-0.811186	-0.270373	-0.295411	-0.156841	-0.0960079	-0.226865	-0.296871	-0.0764159	-0.0663488	-0.141376	-0.00624509	-0.0110623	2177.63	5414.87	-0.26968	-0.0313569	10690.7	209.332	4424.84	719.76	-2.40456	-0.105822	5962.34	8396.17	-0.0989708	-1.22608	-0.0570415	
3.21	180.716	-0.0605101	1092.5	1124.93	1396.4	-0.235559	4685.77	5741.73	491.779	235.972	722.214	2220.23	1003.21	6589.02	649.697	2102.87	2012.33	24705.2	15095.1	2671.51	3100.63	3273.43	3700.88	281.853	402.498	233.563	2006.67	2105.25	397.251	-0.32003	497.73	14409.7	3804.42	18438	19.805	793.893	2917.39	330.024	1149.91	585.91	17.3275	2005.27	-0.0391638	-0.0771341	-0.0605065	5.79985	0.305062	49.5853	722.466	1387.35	483.443	1752.38	966.535	-0.816856	-0.271758	-0.299038	-0.162317	-0.0859254	-0.223099	-0.296116	-0.0741945	-0.0648727	-0.14138	-0.00910056	-0.0162649	2175.05	5414.86	-0.269797	-0.0421176	10690.9	205.14	3875.68	656.652	-2.40669	-0.105872	5962.35	8396.15	-0.0995967	-1.15033	-0.0093675	
3.215	173.975	-0.0609671	1011.07	1041.02	1271.42	-0.237232	4518.17	6127.69	499.541	239.961	720.235	2210.38	1061.16	6912.91	595.981	1992.92	1873.58	24705.7	14734.4	2500.32	3100.77	3273.51	3700.85	280.609	440.188	232.53	1999.25	1936.38	428.568	-0.313194	535.93	14305.1	3769.88	18069.8	30.7168	811.395	2905.87	295.273	1044.81	529.798	13.5518	1911.46	-0.0399475	-0.0777856	-0.0621565	3.39013	-0.0167811	38.2975	695.327	1387.36	483.575	1711.62	877.67	-0.821299	-0.271849	-0.300512	-0.165963	-0.0764799	-0.220641	-0.296161	-0.0718292	-0.0622451	-0.141534	-0.0115213	-0.0212946	2173.08	5414.86	-0.2702	-0.0502037	10691	200.367	3388.05	597.331	-2.40795	-0.10592	5962.35	8396.12	-0.100332	-1.07545	5.99189	
3.22	168.512	-0.0614224	936.221	962.508	1160.53	-0.238872	4332.49	6510.21	504.996	242.755	718.826	2203.53	1121.29	7248.05	541.504	1882.62	1742.01	24706	14295.2	2336.07	3100.87	3273.55	3700.78	278.831	480.955	231.796	1994.05	1776.24	461.357	-0.30397	576.952	14120.3	3720.15	17814.7	42.4362	823.687	2897.78	263.742	948.408	478.625	10.3849	1828.94	-0.0403761	-0.0770493	-0.063715	1.50592	-0.0385984	28.0405	677.763	1387.35	483.728	1684.5	799.939	-0.830484	-0.271443	-0.300986	-0.16905	-0.0666005	-0.217823	-0.295699	-0.0693595	-0.0593171	-0.141776	-0.0138882	-0.0251205	2172.25	5414.87	-0.27302	-0.0551536	10691.1	194.99	2951.63	541.878	-2.4086	-0.105968	5962.33	8396.12	-0.102673	-1.00137	32.0282	
3.225	164.395	-0.0618766	867.472	888.998	1063.06	-0.240496	4130.38	6881.28	507.77	244.152	718.098	2200.19	1184.93	7599.68	486.721	1771.94	1617.07	24705.9	13776.5	2180.86	3100.93	3273.56	3700.69	276.497	525.111	231.409	1991.45	1627.43	495.954	-0.292224	620.72	13851.9	3654.84	17686.1	54.5538	829.764	2893.71	235.593	861.431	432.73	7.64594	1747.88	-0.040897	-0.0753943	-0.0655414	0.335567	-0.0593623	18.635	665.692	1387.34	483.444	1666	728.981	-0.847088	-0.270766	-0.300871	-0.171904	-0.0575858	-0.214568	-0.294688	-0.0668109	-0.0556898	-0.141972	-0.016374	-0.0278271	2172.09	5414.88	-0.277489	-0.0581501	10691.2	189.002	2558	490.828	-2.40887	-0.106016	5962.29	8396.13	-0.1068	-0.928208	74.7774	
3.23	161.69	-0.0623303	804.352	820.074	977.788	-0.242113	3915.13	7233.82	507.545	243.989	718.139	2200.74	1253.23	7972.19	432.209	1661.43	1498.08	24705.7	13182.8	2036.36	3100.96	3273.54	3700.57	273.634	572.862	231.412	1991.74	1492.2	532.703	-0.277784	667.076	13501.2	3574.55	17696.4	66.855	828.851	2894.12	210.862	784.22	392.218	5.23961	1661.3	-0.0416271	-0.0736699	-0.0676853	0.000183506	-0.0794007	10.5397	655.769	1387.33	483.141	1654.06	663.722	-0.869223	-0.26969	-0.300049	-0.174346	-0.0486408	-0.210979	-0.293358	-0.0641886	-0.051615	-0.142099	-0.0189978	-0.0298187	2173.12	5414.91	-0.282257	-0.0603067	10691.3	182.415	2207.41	444.396	-2.40893	-0.106063	5962.23	8396.14	-0.112155	-0.856162	130.601	
3.235	160.466	-0.0627838	746.425	755.439	903.468	-0.243728	3691.33	7561.91	504.132	242.171	718.996	2205.41	1327.25	8370.46	378.637	1551.76	1384.28	24705.1	12524.8	1903.7	3100.94	3273.48	3700.42	270.317	624.292	231.832	1995.1	1371.6	571.943	-0.260565	715.797	13075.1	3480.84	17855.1	79.1023	820.553	2899.3	189.389	716.504	356.863	3.16549	1566.72	-0.0424576	-0.0723954	-0.0700097	-0.00415102	-0.0986823	4.35414	646.177	1387.31	483.408	1648.32	603.827	-0.891519	-0.268056	-0.298274	-0.176129	-0.0391382	-0.206959	-0.291654	-0.0614901	-0.0471666	-0.145374	-0.0217323	-0.0314703	2176.53	5414.95	-0.289892	-0.0622662	10691.3	175.264	1898.76	402.656	-2.40885	-0.106121	5962.14	8396.16	-0.118161	-0.784919	197.285	
3.24	160.792	-0.0632371	693.262	694.853	838.943	-0.24534	3464.02	7860.03	497.491	238.681	720.682	2214.28	1408.09	8799.98	326.749	1443.67	1274.88	24704.3	11818.6	1782.62	3100.88	3273.38	3700.24	266.66	679.341	232.678	2001.6	1264.95	613.996	-0.240618	766.225	12584	3376.04	18169.9	91.0434	804.904	2909.34	170.921	657.693	326.289	1.49623	1464.11	-0.043237	-0.0715649	-0.0723579	-0.00872364	-0.11707	0.698504	636.053	1387.29	484.328	1649.03	548.774	-0.910308	-0.265772	-0.295358	-0.177077	-0.0289697	-0.202388	-0.289417	-0.0587097	-0.0432359	-0.148325	-0.0245554	-0.0330637	2183.32	5415.01	-0.299635	-0.064344	10691.3	167.613	1630.39	365.66	-2.40868	-0.107536	5962.02	8396.19	-0.126036	-0.713809	273.821	
3.245	162.745	-0.062979	644.437	638.019	783.203	-0.24695	3237.87	8124.62	487.733	233.582	723.169	2227.27	1496.97	9265.85	277.34	1337.94	1169.4	24703.2	11085.1	1670.78	3100.78	3273.25	3700.04	262.813	737.653	233.946	2011.2	1171.71	659.16	-0.218122	816.892	12040.5	3262.99	18646	102.461	782.37	2924.13	155.18	607.078	300.075	0.371239	1353.97	-0.0438628	-0.070856	-0.074374	-0.0135363	-0.134419	-0.00233662	624.939	1387.25	486.052	1656.53	497.82	-0.930538	-0.262783	-0.291175	-0.177054	-0.018098	-0.197177	-0.286518	-0.0556452	-0.0395722	-0.149695	-0.0274539	-0.0348198	2194.03	5415.07	-0.309146	-0.0667173	10691.3	159.542	1401.95	333.338	-2.40847	-0.109892	5961.87	8396.24	-0.137065	-0.642993	358.791	
3.25	166.406	-0.0609259	599.546	584.544	735.389	-0.248557	3016.57	8355.74	475.119	227.018	726.392	2244.15	1595.24	9772.12	231.178	1235.31	1068.4	24701.9	10348.9	1567.62	3100.64	3273.08	3699.81	258.944	798.681	235.616	2023.77	1091.1	707.676	-0.19336	866.483	11459.4	3144.84	19285.8	113.186	753.853	2943.35	141.863	563.854	277.767	0.000157534	1236.72	-0.0442721	-0.069963	-0.0758661	-0.018637	-0.15058	-0.0109305	612.535	1387.22	488.669	1671.02	450.163	-0.95137	-0.259033	-0.285614	-0.175938	-0.00648636	-0.191245	-0.282836	-0.0523216	-0.0357787	-0.150015	-0.030413	-0.0369325	2207.79	5415.15	-0.31689	-0.0695228	10691.2	151.151	1212.53	305.397	-2.40822	-0.112449	5961.7	8396.32	-0.151276	-0.573783	449.314	
3.255	171.865	-0.0575544	558.231	533.991	694.798	-0.25016	2802.68	8555.6	460.051	219.206	730.25	2264.48	1704.21	10322.4	188.931	1136.47	972.607	24700.3	9626.29	1472.57	3100.45	3272.88	3699.56	255.239	861.839	237.652	2039.04	1022.2	759.706	-0.166711	913.975	10856.2	3024.73	20086.7	123.082	720.6	2966.49	130.644	527.115	258.866	-0.00451843	1113.29	-0.0444181	-0.0687223	-0.0768711	-0.0240528	-0.165396	-0.0197434	598.637	1387.17	492.277	1692.69	405.317	-0.969795	-0.254466	-0.278588	-0.173607	0.253031	-0.18451	-0.278238	-0.0489426	-0.0317574	-0.149964	-0.0334099	-0.0395849	2223.65	5415.24	-0.322543	-0.0728853	10691.2	142.54	1057.93	281.496	-2.40795	-0.114799	5961.5	8396.43	-0.168007	-0.507945	541.557	
3.26	179.223	-0.0534704	520.228	486.166	660.891	-0.251761	2598.29	8728.38	443.051	210.427	734.608	2287.68	1824.9	10916.6	151.235	1042.02	882.655	24698.4	8925.83	1384.76	3100.22	3272.65	3699.28	251.886	926.54	239.999	2056.63	963.9	815.316	-0.138634	958.597	10246.4	2905.68	21039.2	132.074	684.069	2992.87	121.177	495.853	242.825	-0.0099005	986.848	-0.0442542	-0.0670516	-0.0775261	-0.0297942	-0.178743	-0.0286884	583.143	1385.55	496.962	1721.67	363.439	-0.984134	-0.249046	-0.270062	-0.169902	3.96385	-0.176903	-0.272592	-0.0455688	-0.0274978	-0.150935	-0.0364147	-0.0429446	2241.1	5415.34	-0.326407	-0.0769189	10691.2	133.805	932.892	261.295	-2.40767	-0.11684	5961.28	8396.59	-0.186476	-0.4467	632.402	
3.265	188.588	-0.0487651	485.53	441.328	633.282	-0.253358	2405.56	8879.17	424.742	201.009	739.309	2313.03	1957.78	11551.4	120.702	952.384	799.061	24696.4	8255.02	1303.12	3099.96	3272.39	3698.98	249.071	992.219	242.593	2076.06	914.768	874.478	-0.109661	999.817	9645.01	2790.28	22125.9	140.126	645.769	3021.63	113.106	468.994	229.072	-0.0157625	860.443	-0.0437282	-0.0648827	-0.0797408	-0.0358587	-0.190555	-0.037677	566.047	1377.91	502.792	1758.13	324.718	-0.995624	-0.242754	-0.260042	-0.164662	12.3318	-0.168371	-0.265776	-0.0422069	-0.0229993	-0.151284	-0.0393927	-0.0471617	2259.82	5415.44	-0.32892	-0.0817158	10691.1	125.04	832.563	244.481	-2.40738	-0.118589	5961.03	8396.78	-0.204716	-0.390638	719.689	
3.27	200.123	-0.0433338	454.251	399.716	611.716	-0.254952	2226.31	9013.81	405.804	191.312	744.18	2339.71	2102.44	12221.8	97.2405	867.857	722.186	24693.8	7619.01	1226.38	3099.66	3272.09	3698.66	246.977	1058.37	245.354	2096.78	873.066	937.084	-0.0803795	1037.29	9065.91	2680.67	23322.1	147.174	607.099	3051.83	106.078	445.426	217.023	-0.022102	736.66	-0.042787	-0.0621498	-0.0834095	-0.0422309	-0.200782	-0.0465832	547.442	1364.65	509.812	1802.12	289.273	-1.00884	-0.235588	-0.248562	-0.157833	25.5067	-0.158885	-0.25768	-0.0388621	-0.0182755	-0.145554	-0.0423071	-0.0524091	2279.5	5415.56	-0.33122	-0.0873467	10691.1	116.333	752.638	230.791	-2.40709	-0.120104	5960.75	8397	-0.214734	-0.339991	801.858	
3.275	214.085	-0.0371228	426.445	361.498	596.042	-0.256543	2061.63	9138.62	386.922	181.692	749.046	2366.93	2257.56	12920.9	79.2895	788.539	652.215	24221.3	7020.42	1153.18	3099.32	3271.76	3698.33	245.772	1124.58	248.195	2118.12	836.853	1002.85	-0.051413	1070.86	8521.42	2578.5	24595.5	153.147	569.272	3082.44	99.7462	424.033	206.099	-0.0289067	618.895	-0.0413821	-0.0588005	-0.0883605	-0.0488789	-0.209355	-0.0552177	527.508	1346.35	518.047	1853.52	257.155	-1.0248	-0.227564	-0.235671	-0.149483	43.4111	-0.148444	-0.248215	-0.0355418	-0.013357	-0.13597	-0.0451206	-0.0589074	2299.78	5415.68	-0.333414	-0.0938825	10691.1	107.754	689.45	220.026	-2.4068	-0.121451	5960.46	8397.25	-0.215605	-0.29445	878.254	
3.28	230.885	-0.030122	402.109	326.77	586.179	-0.25813	1911.91	9259.81	368.751	172.483	753.737	2393.78	2420.77	13638.7	65.2779	714.349	589.152	22966.7	6459.62	1082.23	3098.95	3271.41	3697.97	245.618	1190.54	251.024	2139.42	804.071	1071.41	-0.0233946	1100.48	8021.65	2485.19	25905	157.982	533.332	3112.43	93.7849	403.731	195.741	-0.0361515	511.639	-0.0394708	-0.054798	-0.0921593	-0.0557528	-0.216218	-0.0634094	506.504	1323.61	527.496	1911.75	228.349	-1.0423	-0.218719	-0.221446	-0.139697	65.6964	-0.137083	-0.237327	-0.0322698	-0.00829077	-0.125494	-0.0477968	-0.0668921	2320.3	5415.8	-0.335236	-0.101404	10691.1	99.3556	640.339	212.082	-2.40652	-0.122698	5960.15	8397.5	-0.20885	-0.252348	951.709	
3.285	251.093	-0.0223191	381.197	295.55	582.083	-0.259714	1777.09	9383.32	351.854	163.962	758.102	2419.34	2588.69	14362.3	54.0836	645.049	532.827	21088.6	5934.84	1012.43	3098.54	3271.03	3664.54	246.666	1256.06	253.746	2159.96	772.633	1142.4	-0.00134305	1126.21	7574.19	2402.15	27202.3	161.628	500.201	3140.8	87.896	383.501	185.428	-0.0437937	417.783	-0.0370177	-0.0501194	-0.094003	-0.0627867	-0.221355	-0.0710382	512.91	1297.09	538.13	1975.76	202.779	-1.05812	-0.209111	-0.205986	-0.128553	91.7239	-0.124874	-0.225	-0.029089	-0.00314099	-0.114729	-0.0503022	-0.0765138	2340.68	5415.93	-0.336542	-0.109995	10691.1	91.1642	603.742	207.004	-2.40624	-0.123912	5959.83	8397.76	-0.196537	-0.212604	1024.13	
3.29	275.461	-0.0136965	363.618	267.786	583.726	-0.261295	1657.19	9514.74	336.683	156.349	762.012	2442.73	2757.45	15076.8	44.9788	580.267	482.908	18779.9	5442.4	942.693	3098.11	3270.62	3515.2	249.054	1321.08	256.268	2179.03	740.557	1215.54	2.48396	1148.18	7183.94	2330.38	28434.6	164.057	470.648	3166.65	81.8236	362.428	174.698	-0.0517739	336.387	-0.033996	-0.0447559	-0.094205	-0.0699022	-0.224713	-0.0780211	534.592	1267.53	549.884	2044.21	180.318	-1.07026	-0.198819	-0.189414	-0.116119	120.598	-0.111932	-0.211265	-0.0260574	0.079057	-0.103385	-0.0526059	-0.0878106	2360.57	5416.06	-0.339139	-0.119721	10691.1	83.1773	578.985	204.928	-2.40597	-0.125164	5959.49	8398.02	-0.184728	-0.237706	1070.39	
3.295	304.983	-0.0042414	349.247	243.356	591.08	-0.262872	1552.76	9658.78	323.599	149.811	765.361	2463.19	2922.84	15765.7	37.482	519.54	438.931	16275.2	4976.51	871.964	3097.65	3270.19	3274.2	252.915	1385.68	258.503	2195.95	706.137	1290.62	9.02514	1166.56	6853.24	2270.57	29547.5	165.265	445.286	3189.17	75.3699	339.756	163.178	-0.0600179	263.574	-0.030391	-0.0387157	-0.0933762	-0.0770088	-0.226062	-0.0843058	526.138	1235.61	562.66	2115.49	160.798	-1.08139	-0.187945	-0.171879	-0.102484	151.28	-0.0984149	-0.196209	-0.0232421	1.5332	-0.09145	-0.0546673	-0.100652	2379.69	5416.19	-0.342526	-0.130601	10691.2	75.3627	566.366	206.103	-2.4057	-0.126524	5959.15	8398.27	-0.176156	-0.288303	1092.29	
3.3	340.911	0.361052	337.929	222.083	604.174	-0.264446	1463.91	9819.05	312.889	144.484	768.072	2480.06	3080.39	16411.7	31.2531	462.389	400.329	13862.3	4528.18	799.376	3097.17	3269.73	2966.73	258.366	1450.23	260.37	2210.08	668.112	1367.52	17.4169	1181.51	6582.32	2223.02	30488.5	165.276	424.623	3207.66	68.4117	314.929	150.604	-0.0684368	195.406	-0.0262028	-0.0320264	-0.091928	-0.0840055	-0.225012	-0.0898841	500.359	1202.04	576.325	2187.97	144.03	-1.09351	-0.17661	-0.153558	-0.0877723	182.556	-0.0845171	-0.179975	-0.0207154	4.54355	-0.0791714	-0.0564525	-0.114804	2397.79	5416.31	-0.345661	-0.14263	10691.2	67.6682	568.246	210.946	-2.40543	-0.128067	5958.8	8398.52	-0.170551	-0.332111	1102.55	
3.305	384.757	3.87178	329.481	203.745	623.016	-0.266017	1390.32	9997.96	304.802	140.484	770.085	2492.73	3225.51	16997.5	26.0393	408.301	366.462	11774.1	4092.67	724.339	3096.66	3269.25	2618.24	265.512	1515.44	261.797	2220.81	625.891	1446.17	25.8058	1193.2	6369.63	2187.74	31208.9	164.144	409.125	3221.53	60.9209	287.66	136.853	-0.0769282	133.536	-0.021449	-0.024737	-0.0900689	-0.0907848	-0.220789	-0.0947798	475.703	1167.47	590.731	2260.14	129.82	-1.1052	-0.164954	-0.134657	-0.0721471	213.093	-0.0704676	-0.162758	-0.01855	8.67525	-0.066816	-0.0579411	-0.130044	2414.68	5416.44	-0.350106	-0.155806	10691.2	60.1268	591.81	220.157	-2.40516	-0.129861	5958.46	8398.76	-0.16688	-0.361859	1108.83	
3.31	438.206	11.4174	323.697	188.087	647.509	-0.267584	1331.3	10196.4	299.568	137.919	771.352	2500.66	3353.58	17504.8	21.6474	356.73	336.654	10024.8	3672.5	646.639	3096.14	3268.75	2258.72	274.441	1582.05	262.721	2227.64	579.611	1526.6	32.86	1201.78	6212.29	2164.42	31665.7	161.948	399.257	3230.27	52.9938	257.977	121.97	-0.0853782	80.5427	-0.0161668	-0.0169182	-0.0877891	-0.0972401	-0.209484	-0.0990205	452.912	1128.75	605.836	2330.82	117.996	-1.11475	-0.15313	-0.115409	-0.0558071	241.526	-0.0565185	-0.144807	-0.0168136	13.4355	-0.0546254	-0.059123	-0.146195	2430.22	5416.56	-0.356684	-0.170107	10691.3	52.8393	668.361	234.428	-2.4049	-0.132008	5958.11	8398.98	-0.16429	-0.359044	1113.94	
3.315	502.591	23.2639	320.351	174.833	677.753	-0.269148	1285.83	10413.5	297.424	136.905	771.826	2503.34	3459.94	17916.1	17.9285	307.419	310.225	8578.34	3271.35	566.51	3047.7	3268.22	1925.42	285.211	1650.96	263.084	2230.08	529.864	1608.87	37.7474	1207.35	6106.43	2152.46	31822.7	158.79	395.513	3233.41	44.9299	226.301	106.207	-0.0936662	38.7886	-0.0104136	-0.00866205	-0.0850497	-0.103276	-0.18998	-0.102637	411.533	1087.88	701.334	2399.12	108.449	-1.12147	-0.141063	-0.0960042	-0.038971	266.573	-0.0429328	-0.12641	-0.015564	18.3187	-0.0428462	-0.0599904	-0.16319	2444.39	5416.67	-0.363688	-0.185454	10691.3	45.9065	798.747	253.702	-2.40468	-0.134656	5957.76	8399.2	-0.162008	-0.322983	1120.59	
3.32	578.921	39.5523	319.194	163.694	713.752	-0.270708	1252.66	10646.6	298.633	137.571	771.451	2500.34	3540.06	18215	14.7663	260.309	286.504	7376.68	2893.56	484.686	2772.36	3253.74	1635.56	297.846	1723	262.836	2227.74	477.218	1693.06	40.0726	1210.02	6047.51	2151	31651.8	154.794	398.419	3230.5	37.6579	193.509	90.093	-0.101672	11.1099	-0.00426685	-7.9984e-05	-0.0818518	-0.108815	-0.165328	-0.105666	371.626	1050.51	844.68	2464.47	101.085	-1.12566	-0.12876	-0.0765338	-0.0218665	287.132	-0.02997	-0.107879	-0.0153668	22.8529	-0.031731	-0.0605258	-0.180973	2457.28	5416.78	-0.369384	-0.20169	10691.3	39.4219	974.892	277.651	-2.40453	-0.13801	5957.43	8399.4	-0.159832	-0.285177	1128.51	
3.325	667.988	60.2707	319.957	154.377	755.545	-0.272265	1230.24	10891.1	303.509	140.073	770.151	2491.23	3589.57	18384.6	12.0702	215.554	264.86	6344.6	2543.81	402.412	2368.22	3030.37	1389.16	312.326	1798.99	261.933	2220.29	422.338	1779.27	39.8345	1210.28	6030.23	2158.9	31133.4	150.101	408.541	3221.06	31.6421	161.297	74.9132	-0.109283	0.0959446	0.0442149	1.47448	-0.0782119	-0.113799	-0.13817	-0.108152	341.158	1017.09	917.155	2526.63	95.818	-1.12807	-0.116391	-0.057196	-0.0047292	302.363	-0.0178715	-0.0895411	-0.0155363	26.6408	-0.0215163	-0.0606979	-0.199398	2468.98	5416.88	-0.373189	-0.218597	10691.2	33.4666	1199.39	306.476	-2.40444	-0.142273	5957.11	8399.59	-0.15792	-0.259556	1135.85	
3.33	770.307	85.244	322.35	146.592	803.163	-0.273818	1216.79	11141	312.441	144.611	767.829	2475.63	3604.51	18409.8	9.76815	174.877	244.715	5433.66	2226.78	321.456	1939.96	2637.72	1181.9	328.578	1879.76	260.338	2207.47	366.404	1867.54	37.3791	1210.31	6048.47	2174.73	30258.6	144.864	426.516	3204.57	26.8088	133.48	62.2672	-0.116402	-0.0204738	1.52458	6.36688	-0.0741707	-0.11781	-0.109532	-0.110129	318.241	986.002	925.433	2585.47	92.6033	-1.1318	-0.104136	-0.0382128	1.79816	311.757	-0.00684552	-0.0717127	-0.0159631	29.3899	-0.0124032	-0.0604677	-0.218219	2479.53	5416.97	-0.375375	-0.23594	10691.2	28.1042	1483.51	340.647	-2.40437	-0.146401	5956.81	8399.77	-0.156517	-0.252717	1140.64	
3.335	886.144	114.2	326.062	140.053	856.576	-0.266795	1210.28	11388.8	325.912	151.439	764.364	2453.16	3581.52	18277.9	7.80311	141.36	225.567	4639.33	1945.28	246.384	1574.38	2185.45	1005.04	346.498	1966.16	258.017	2189.11	310.318	1957.85	33.3302	1210.34	6095.05	2196.79	29031	139.242	453.138	3180.51	22.903	111.183	52.2481	-0.122955	-0.0438875	5.0229	14.1542	-0.0697991	-0.120679	-0.079761	-0.111613	299.702	956.533	928.206	2640.93	91.4679	-1.13636	-0.0921609	-0.0197831	10.9453	315.265	0.0673889	-0.0546851	-0.0168194	28.5191	-0.00454253	-0.0598066	-0.237143	2488.88	5417.06	-0.376493	-0.253483	10691.1	23.3756	1834.39	380.61	-2.40428	-0.149453	5956.52	8399.94	-0.155799	-0.261076	1141.6	
3.34	1018.99	146.816	330.762	134.483	915.597	-0.250633	1208.54	11626.8	344.494	160.865	759.614	2423.49	3518.31	17979.6	6.12933	115.116	207.007	3958.87	1697.36	187.333	1294.32	1771.02	848.169	365.908	2058.96	254.949	2165.13	253.912	2050.43	28.5014	1210.37	6161.93	2223.15	27469.7	133.4	489.486	3148.35	19.6924	93.6125	44.308	-0.128531	-0.0658455	10.3201	24.1899	-0.0651931	-0.122529	-0.0492254	-0.112591	283.657	928.881	937.477	2692.92	92.5415	-1.14032	-0.0806178	-0.00209204	26.2513	313.74	1.98885	-0.0387137	-0.0181762	27.2336	0.0593967	-0.0587063	-0.255864	2496.99	5417.14	-0.377688	-0.270981	10690.9	19.2978	2247.21	426.601	-2.40445	-0.151558	5956.25	8400.09	-0.155933	-0.279337	1137.57	
3.345	1176.25	182.63	336.106	129.617	979.833	-0.234455	1209.21	11846.8	368.811	173.239	753.431	2386.33	3413.87	17511.2	4.71008	94.6628	188.718	3387.41	1479.41	144.865	1082.01	1446.55	709.796	386.53	2158.87	251.123	2135.58	198.279	2145.61	23.8406	1210.39	6239.85	2251.63	25612.2	127.497	537.208	3107.62	17.0117	79.5827	37.8907	-0.133122	-0.0858144	17.0851	35.7862	-0.0604639	-0.123626	-0.018305	-0.113039	269.317	903.405	946.365	2741.46	96.0898	-1.14411	-0.0696365	1.6704	45.9109	307.766	5.49756	-0.0239982	-0.019991	26.1454	1.33194	-0.0572071	-0.274086	2503.86	5417.21	-0.379517	-0.288191	10690.7	15.8656	2713.1	478.483	-2.40554	-0.153414	5948.45	8400.23	-0.157032	-0.300315	1127.85	
3.35	1363.87	221.01	341.734	125.206	1048.57	-0.218948	1209.85	12041.8	399.473	188.915	745.679	2341.71	3268.97	16757.9	3.51587	78.4418	170.495	2917.37	1287.1	114.661	918.604	1199.44	590.646	408.106	2266.51	246.548	2100.62	145.807	2243.49	19.8716	1210.42	6318.69	2279.89	23515.6	121.692	598.716	3058.01	14.7479	68.1496	32.6011	-0.136979	-0.102606	24.9104	48.2558	-0.0557319	-0.124226	1.30755	-0.112932	256.386	880.266	952.828	2786.67	102.582	-1.14739	-0.059326	8.14879	68.2058	297.955	9.60131	-0.0106818	-0.0221832	24.7691	3.25119	-0.0554056	-0.29152	2509.54	5417.27	-0.381579	-0.304873	10690.5	13.0536	3224.26	535.987	-2.40969	-0.155166	5913.43	8400.35	-0.159134	-0.320357	1112.23	
3.355	1585.15	261.193	347.288	121.02	1120.74	-0.204	1207.99	12206.5	436.911	208.165	736.248	2289.75	3086.51	15767.3	2.52305	65.3142	152.234	2533.67	1115.08	92.4882	786.871	1010.11	491.146	430.368	2382.35	241.25	2060.6	103.331	2343.97	16.5986	1210.44	6387.73	2305.47	21253.2	116.139	676.98	2999.43	12.8205	58.6761	28.1791	-0.140318	-0.115726	33.3549	60.9649	-0.0511177	-0.124519	18.1947	-0.112225	244.712	859.477	958.203	2828.64	112.886	-1.14976	-0.0497732	18.2111	91.6062	284.335	13.7578	-0.000850335	-0.0246589	22.7181	2.07608	-0.0533944	-0.307908	2514.11	5417.33	-0.383348	-0.320797	10690.3	10.8159	3794.2	598.812	-2.41742	-0.156634	5863.22	8400.46	-0.162232	-0.338928	1090.86	
3.36	1840.06	302.54	352.41	116.85	1194.89	-0.189814	1201.21	12337.8	481.269	231.104	725.081	2230.7	2871.78	14653.7	1.71279	54.5242	133.935	2219.2	957.686	75.5593	677.473	859.248	410.578	452.915	2506.72	235.281	2016	73.8638	2447.08	13.877	1210.46	6435.95	2325.9	18924.7	111.005	774.968	2932.13	11.1686	50.7338	24.4462	-0.143239	-0.125579	41.9829	73.3843	-0.0467365	-0.124609	51.4495	-0.110845	234.168	841.019	963.103	2867.42	128.847	-1.15122	-0.0410462	30.6004	114.884	269.983	17.5766	1.78039	-0.027313	20.0498	0.466801	-0.0512233	-0.323044	2517.71	5417.38	-0.384635	-0.335764	10690	9.09646	4438.3	666.677	-2.42762	-0.157711	5806.91	8400.55	-0.166298	-0.356718	1064.09	
3.365	2115.19	345.482	356.756	112.515	1269.18	-0.176544	1187.21	12435.6	532.393	257.694	712.191	2165.33	2632.66	13471.8	1.07034	45.5605	115.697	1959.74	812.964	62.2471	587.712	733.839	345.746	475.215	2639.75	228.717	1967.51	54.6901	2552.56	11.5784	1210.48	6452.73	2338.76	16621.1	106.456	894.848	2856.69	9.744	44.0171	21.2711	-0.145771	-0.13308	50.3931	85.0757	-0.0426923	-0.124559	97.3257	-0.108655	224.639	824.859	967.396	2903.05	155.449	-1.15411	-0.0331916	44.2226	137.143	254.185	20.8028	6.17782	-0.0300368	17.0688	0.118593	-0.04892	-0.336778	2520.48	5417.43	-0.385465	-0.349616	10689.7	7.84136	5153.87	739.337	-2.43768	-0.158386	5749.88	8400.64	-0.171307	-0.374517	1032.28	
3.37	2380.06	390.533	360.008	107.863	1341.35	-0.164309	1163.91	12502.7	589.824	287.732	697.675	2094.61	2379.69	12255.5	0.584406	38.0552	97.7247	1743.47	682.181	51.5806	515.253	630.554	293.233	496.611	2781.41	221.659	1915.93	42.0198	2659.89	9.61686	1210.5	6428.39	2341.84	14365.1	102.649	1036.66	2774.14	8.50878	38.295	18.5519	-0.147944	-0.139042	58.2417	95.6867	-0.0390746	-0.124431	152.687	-0.105436	216.024	810.939	970.993	2935.52	197.131	-1.15782	-0.0262304	58.1663	157.723	237.992	23.3456	11.9781	-0.0326209	14.087	0.00130257	-0.0465121	-0.349004	2522.56	5417.46	-0.385945	-0.362246	10689.5	6.99941	5932.42	816.589	-2.44532	-0.158737	5695.76	8400.71	-0.177245	-0.392899	995.755	
3.375	2611.27	437.735	361.88	102.778	1409.06	-0.153216	1129.54	12544.1	652.844	320.888	681.718	2019.8	2125.55	11043	0.246759	31.7308	80.8793	1561.16	566.243	42.9239	457.832	547.004	250.007	516.345	2931.51	214.233	1862.21	33.1691	2768.41	7.93515	1210.52	6354.89	2333.22	12202.9	99.7314	1198.99	2685.95	7.43236	33.3872	16.2086	-0.149795	-0.143983	65.2553	104.952	-0.0359561	-0.1243	215.304	-0.100998	208.242	799.182	973.946	2964.87	251.228	-1.16101	-0.0201646	71.6888	176.147	222.5	25.2353	18.2642	-0.0350066	11.333	-0.00125453	-0.044031	-0.359649	2524.1	5417.5	-0.386194	-0.373593	10689.2	7.07187	6762.62	899.28	-2.45208	-0.158883	5647.13	8400.77	-0.184119	-0.41226	954.703	
3.38	2794.63	486.607	362.133	97.1855	1470.05	-0.143347	1082.73	12566.5	720.585	356.764	664.609	1942.38	1881.1	9878	0.0519197	26.3728	66.5564	1406.26	465.509	35.8245	413.293	480.749	213.478	533.608	3088.85	206.583	1807.4	26.6419	2877.35	6.49111	1210.54	6226.42	2311.39	10198.5	97.8409	1379.47	2594.03	6.49016	29.152	14.1776	-0.151524	-0.148179	71.2244	112.691	-0.0333916	-0.124244	283.337	-0.095482	201.228	789.499	976.308	2991.13	314.014	-1.16309	-0.0149835	84.1983	192.09	208.437	26.574	24.4012	-0.0371964	8.95057	-0.00350885	-0.0415083	-0.368702	2525.2	5417.52	-0.386306	-0.38362	10688.9	8.50173	7610.52	989.53	-2.46005	-0.158926	5605.64	8400.81	-0.191959	-0.432916	909.178	
3.385	2924.34	536.183	360.585	91.0523	1522.26	-0.134765	1022.59	12576.5	792.091	394.859	646.72	1864.06	1650.13	8787.96	-0.00443068	21.8139	54.9806	1275.87	379.791	29.9475	379.657	429.351	182.197	547.6	3250.65	198.862	1752.59	21.6507	2985.82	5.25132	1210.55	6040.04	2275.18	8437.81	97.1087	1575.36	2500.51	5.66224	25.4767	12.4081	-0.153082	-0.151736	76.0003	118.792	-0.0314183	-0.124326	354.97	-0.0891391	194.931	781.805	978.112	3014.34	384.011	-1.16449	-0.0106702	95.2308	205.373	196.36	27.4988	25.4463	-0.0391275	7.06655	-0.00563991	-0.038975	-0.37619	2525.98	5417.54	-0.386344	-0.392292	10688.6	10.3628	8442.15	1088.94	-2.46977	-0.158929	5572.26	8400.85	-0.200807	-0.455161	859.129	
3.39	3001.8	585.168	357.118	84.3928	1563.96	-0.12751	948.827	12578.8	866.164	434.681	628.489	1786.55	1433.63	7778.61	0.00109091	17.9227	45.6938	1168.98	308.396	25.0412	355.123	390.448	155.957	557.597	3414.02	191.223	1698.94	17.7498	3092.89	4.20018	1210.57	5796.26	2223.83	6972.17	97.6588	1783.24	2407.58	4.93231	22.2714	10.8594	-0.154337	-0.154573	79.4898	123.206	-0.0300561	-0.124565	428.638	-0.0820838	189.305	776.011	979.384	3034.55	461.005	-1.16555	-0.00720516	104.426	215.953	186.679	28.1544	21.8304	-0.0407182	6.5241	-0.00754248	-0.0364619	-0.382145	2526.49	5417.55	-0.386341	-0.399574	10688.3	12.0449	9227.72	1198.36	-2.47939	-0.158917	5547.47	8400.88	-0.21069	-0.479257	804.504	
3.395	3034.13	632.075	351.685	77.2707	1593.88	-0.121598	861.834	12574.6	941.749	475.682	610.377	1711.55	1233.13	6856.59	-0.0034108	14.5952	38.1472	1084.44	250.264	20.9153	338.284	361.786	134.528	563.012	3576.17	183.815	1647.51	14.6541	3197.55	4.62257	1210.58	5499.45	2157.18	5760.82	99.6064	2001.66	2317.17	4.28697	19.4637	9.49847	-0.155255	-0.156613	81.6489	125.931	-0.0293079	-0.124816	505.353	-0.0743837	184.312	772.021	980.16	3051.86	545.345	-1.16638	-0.00457118	111.522	223.793	179.657	28.6716	18.3662	-0.0419105	6.24326	-0.00750525	-0.0339996	-0.386599	2526.82	5417.56	-0.386317	-0.405454	10688	13.7777	9926.76	1317.65	-2.48674	-0.158901	5531.35	8400.89	-0.2216	-0.505403	745.427	
3.4	3036.84	675.351	344.316	69.796	1611.25	-0.117029	762.834	12560.1	1017.14	516.924	592.834	1640.59	1048.05	6026.92	-0.00804197	11.7489	31.9173	1021.08	204.123	17.4245	328.156	341.595	117.567	563.448	3734.45	176.772	1599.25	12.1648	3298.78	8.90987	1210.59	5157.17	2075.64	4757.89	103.053	2227.6	2230.98	3.71511	16.9948	8.29835	-0.157328	-0.160867	82.4757	127	-0.0291482	-0.125022	586.63	-0.066145	181.223	770.669	951.177	3065.21	639.861	-1.16697	-0.00296434	116.36	228.834	175.431	29.1531	16.7535	-0.0426767	5.7984	-0.00231213	-0.0316185	-0.389594	2526.68	5417.57	-0.386281	-0.409951	10687.7	15.8302	10470.4	1445.62	-2.49105	-0.158883	5524.23	8400.89	-0.233512	-0.533721	682.592	
3.405	3036.96	713.686	335.115	62.1188	1615.83	-0.113779	654.02	12525.4	1090.36	557.326	576.259	1574.98	875.151	5296.68	-0.0126692	9.31737	26.7121	977.723	168.514	14.4568	324.104	328.6	104.668	558.728	3886.44	170.214	1554.9	10.1388	3395.53	21.467	1210.59	4778.35	1980.25	3922.85	108.079	2455.03	2150.64	3.20748	14.8167	7.23686	-0.159156	-0.166394	82.0032	126.476	-0.0293025	-0.126307	672.013	-0.0575151	197.105	775.785	910.343	3072.66	747.089	-1.16737	-0.00237956	118.518	231.029	174.036	26.9479	16.5681	-0.0430049	5.63341	0.926103	-0.0293479	-0.391164	2525.92	5417.57	-0.38624	-0.408118	10687.5	18.2789	10680.4	1579.97	-2.49286	-0.158864	5529.48	8400.87	-0.246477	-0.564479	616.361	
3.41	3037.05	746.064	324.259	54.4202	1607.95	-0.111808	538.8	12455.3	1159.49	595.704	560.987	1515.77	715.206	4670.48	-0.0172921	7.2475	22.3276	953.342	141.937	11.9246	325.769	321.923	95.403	548.916	4029.88	164.24	1515.03	8.47167	3486.76	47.8371	1210.6	4370.51	1872.56	3213.4	114.732	2676.14	2077.5	2.75635	12.8898	6.29565	-0.160414	-0.170945	80.2939	124.44	-0.0295449	-0.128316	759.261	-0.0487157	216.254	777.729	877.854	3075.03	868.041	-1.16944	-0.00267152	117.984	230.369	175.423	27.9527	16.9857	-0.0428877	5.88199	3.30297	-0.0272144	-0.389983	2524.98	5417.56	-0.386194	-0.397874	10687.2	21.1412	10682	1717.34	-2.49319	-0.158844	5536.25	8400.84	-0.260583	-0.598161	546.877	
3.415	3037.11	771.779	311.99	46.9015	1588.43	-0.11106	423.299	12330	1222.64	630.886	547.305	1463.74	569.997	4146.81	-0.0219105	5.49636	18.6131	947.043	122.993	9.75889	333.02	320.981	89.3681	534.314	4162.87	158.932	1480.05	7.08662	3571.41	92.3318	1210.6	3940.37	1754.49	2618.42	123.007	2882.56	2012.62	2.35519	11.1812	5.45943	-0.161531	-0.173699	77.435	120.99	-0.0306575	-0.130387	845.085	-0.0400107	229.448	781.022	857.713	3074.24	1001.98	-1.17479	-0.00371213	115.049	226.901	179.473	26.8778	17.3932	-0.0423399	6.53736	4.36501	-0.025241	-0.38663	2524.15	5417.55	-0.386147	-0.390646	10686.9	24.4179	10683.5	1852.09	-2.49291	-0.158823	5561.7	8400.81	-0.275906	-0.635295	474.738	
3.42	3037.14	790.431	298.6	39.7762	1558.53	-0.111461	323.322	12127.4	1278.1	661.854	535.443	1419.46	440.892	3714.47	-0.0265245	4.02944	15.4521	958.093	110.475	7.90486	345.922	325.419	86.2075	515.436	4283.72	154.356	1450.24	5.92654	3648.35	157.532	1210.59	3496.66	1628.51	2135.14	132.882	3066.75	1956.86	1.99851	9.66354	4.71541	-0.162655	-0.175093	70.7946	111.043	-0.0343987	-0.132258	926.411	-0.031571	232.413	788.82	851.899	3072.1	1146.24	-1.18096	-0.00542559	110.037	220.701	185.996	23.6246	17.4658	-0.0413922	7.61857	5.05368	-0.0234463	-0.382491	2523.47	5417.54	-0.386098	-0.386778	10686.7	28.0947	10684.8	1976.89	-2.49249	-0.158801	5597.84	8400.79	-0.292444	-0.676216	401.389	
3.425	3037.15	801.892	284.423	33.2855	1519.84	-0.1129	247.909	11825.4	1324.55	687.816	525.568	1383.27	330.059	3337.44	-0.0311341	2.81909	12.7532	985.896	103.41	6.3186	364.716	335.062	85.624	492.963	4391.3	150.558	1425.81	4.94828	3716.58	244.919	1210.59	3047.47	1497.62	1755.39	144.367	3222.61	1910.8	1.68165	19.3939	8.03212	-0.163711	-0.175842	62.7723	98.0554	-0.0385082	-0.133862	1000.38	-0.023499	232.918	813.56	845.748	3068.05	1296.33	-1.18559	-0.00776725	103.236	211.934	194.735	19.6275	17.0711	-0.0400866	9.15255	6.29156	-0.0218477	-0.377666	2522.63	5417.53	-0.386049	-0.382564	10686.5	32.1458	10685.9	2086.47	-2.49209	-0.15878	5628.01	8400.77	-0.310046	-0.720896	328.966	
3.43	3037.13	806.284	269.813	27.836	1474.13	-0.114728	194.043	11405.2	1361.07	708.239	517.783	1355.27	243.547	2963.87	-0.0357394	1.84342	10.4434	1029.96	101.079	4.96484	389.794	349.885	87.3746	467.672	4484.72	147.571	1406.83	4.11874	3775.05	355.207	1210.57	2594.29	1365.24	1469.19	157.486	3345.79	1874.77	4.74753	54.8595	23.4751	-0.164538	-0.176312	55.1904	85.4373	-0.0425636	-0.13622	1064.51	-0.0158803	234.33	824.883	838.201	3061.72	1448.25	-1.18818	-0.0107044	94.9269	200.868	205.358	16.8953	16.1674	-0.0384746	11.1521	8.069	-0.0204655	-0.371806	2521.62	5417.52	-0.386	-0.376822	10686.3	36.5381	10686.8	2177.52	-2.49173	-0.158758	5652.59	8400.75	-0.328366	-0.768847	259.953	
3.435	3037.09	803.926	255.128	23.4377	1423.3	-0.116602	155.197	10854.3	1387.13	722.786	512.141	1335.37	182.302	2607.52	-0.0403403	1.08542	8.46489	1089.84	103.015	3.81513	421.672	369.999	91.2655	440.352	4563.68	145.41	1393.27	3.41225	3822.67	488.649	1210.56	2137.2	1235.08	1266.05	172.283	3433.87	1848.88	17.0249	122.718	56.0453	-0.1651	-0.17651	48.2901	74.2711	-0.0467077	-0.138859	1116.72	-0.00879231	237.234	827.826	835.575	3054.43	1599.25	-1.18931	-0.0142087	85.4023	187.778	217.46	14.9495	14.7533	-0.0366152	13.6045	10.1356	-0.0193175	-0.364832	2520.74	5417.51	-0.38595	-0.369908	10686.1	41.232	10687.5	2248.29	-2.49138	-0.158737	5671.16	8400.73	-0.346907	-0.819059	196.812	
3.44	3037.04	795.292	240.719	19.8958	1369.23	-0.118433	126.136	10169.8	1402.58	731.365	508.645	1323.4	140.386	2285.27	-0.0449368	0.532336	6.77113	1165.1	108.981	2.84654	460.833	395.627	97.1406	411.623	4628.22	144.072	1385.04	2.80864	3858.47	643.946	1210.54	1687.44	1110.68	1136.24	188.816	3485.69	1833.02	41.4101	219.12	104.105	-0.165829	-0.176287	41.7402	64.3144	-0.0509862	-0.141082	1155.39	-0.00228809	239.492	826.683	839.047	3047.82	1747.58	-1.18975	-0.0182542	74.9789	172.913	230.568	13.8362	12.8592	-0.0345726	16.4629	12.3458	-0.0184097	-0.356834	2520.14	5417.5	-0.385901	-0.362071	10686	46.1838	10688.1	2298.23	-2.49105	-0.158715	5682.37	8400.72	-0.365124	-0.870115	141.667	
3.445	3036.96	780.961	226.912	17.0026	1313.65	-0.120231	103.612	9362.81	1407.59	734.08	507.252	1319.04	111.086	1994.96	-0.0495291	0.175197	5.32475	1255.31	118.932	2.04064	507.619	427.09	104.876	381.907	4678.8	143.537	1381.95	2.29197	3881.49	817.146	1210.51	1261.09	994.025	1072.12	207.075	3501.58	1826.94	75.9783	341.905	166.191	-0.166674	-0.175468	35.3144	55.1002	-0.0553436	-0.14295	1179.13	0.211479	240.198	824.21	845.407	3043.01	1891.98	-1.19002	-0.0228134	63.9985	156.557	244.155	13.0793	10.5616	-0.0324143	19.6424	14.5984	-0.0177374	-0.347915	2519.83	5417.49	-0.385851	-0.35337	10686	51.3467	10688.4	2327.47	-2.4907	-0.158694	5686.43	8400.71	-0.382556	-0.920516	95.8914	
3.45	3036.87	761.57	214.003	14.6014	1258.14	-0.122016	85.726	8462.44	1402.62	731.189	507.879	1321.96	89.702	1727.62	-0.0541171	0.00853023	4.09563	1359.96	132.984	1.38272	562.24	464.744	114.375	351.499	4716.04	143.771	1383.78	1.84951	3890.85	1002.52	1210.48	904.811	885.762	1069.09	226.881	3483.06	1830.21	119.422	489.857	241.873	-0.166974	-0.173886	29.0055	46.345	-0.0597412	-0.145707	1186.75	1.70734	238.759	816.542	855.606	3040.82	2031.73	-1.1903	-0.0278537	52.8238	139.096	257.657	12.0212	8.00363	-0.0302087	23.0229	16.7359	-0.0172911	-0.338181	2519.82	5417.49	-0.385802	-0.343897	10686	56.6721	10688.6	2336.51	-2.49036	-0.158689	5682.62	8400.72	-0.39891	-0.96906	59.8513	
3.455	3036.81	737.782	202.251	12.5838	1204.04	-0.123797	71.2973	7521.91	1388.36	723.076	510.41	1331.75	73.4729	1479.98	-0.0587009	0.000376103	3.05945	1478.55	151.394	0.861253	624.774	508.832	125.572	320.881	4740.57	144.731	1390.25	1.47107	3885.73	1202.22	1210.44	651.117	786.202	1125.42	247.834	3432.56	1842.29	171.478	659.889	329.913	-0.166781	-0.171404	22.9342	37.9693	-0.0641742	-0.148778	1177.58	4.18823	234.67	803.32	879.712	3042.23	2166.64	-1.19055	-0.0333369	41.8319	120.985	270.5	10.6693	5.38696	-0.0280228	26.4581	18.559	-0.0170589	-0.327748	2520.23	5417.5	-0.385752	-0.333782	10686	62.1106	10688.5	2325.89	-2.49002	-0.158701	5670.64	8400.74	-0.414055	-1.01497	33.1587	
3.46	3027.24	710.257	191.878	10.8733	1152.41	-0.125578	59.5226	6617.17	1365.66	710.221	514.698	1347.95	60.8177	1250.71	-0.0632804	-0.00133017	2.19665	1610.89	174.548	0.467389	695.183	559.55	138.436	290.681	4752.8	146.361	1401.03	1.14844	3865.46	1424.71	1210.4	483.518	695.24	1241.44	269.351	3353.38	1862.54	231.732	849.603	429.283	-0.166258	-0.167933	17.2642	30.0236	-0.0686373	-0.151522	1151.74	7.22852	230.893	804.991	902.063	3048.16	2297.79	-1.1907	-0.0392187	31.405	102.687	282.126	9.23177	2.96974	-0.0259205	29.7861	19.8776	-0.0171201	-0.316743	2521.11	5417.51	-0.385702	-0.323156	10686.1	67.6136	10688.3	2296.24	-2.48968	-0.158714	5632.37	8400.77	-0.42796	-1.05782	15.0104	
3.465	2997.68	679.629	183.076	9.41266	1104.05	-0.127358	49.818	5788.83	1335.56	693.213	520.576	1370.06	50.769	1039.43	-0.0678557	-0.00776847	1.4916	1758.47	202.967	0.194691	773.37	617.102	152.983	261.506	4752.59	148.599	1415.76	0.874977	3829.5	1675.74	1210.35	372.056	612.031	1418.41	290.705	3249.44	1890.23	299.736	1058.08	539.757	-0.1654	-0.163425	12.1649	22.6293	-0.0731036	-0.153495	1109.76	10.4962	223.301	796.292	943.173	3059.21	2425.46	-1.19074	-0.0454498	21.9202	84.6543	292.022	7.78474	1.07231	-0.0239601	32.8436	20.5409	-0.0174813	-0.305296	2522.42	5417.53	-0.385653	-0.312137	10686.3	73.1339	10687.8	2248.42	-2.48934	-0.158719	5581.83	8400.82	-0.440536	-1.07233	4.43935	
3.47	2946.07	646.509	176.012	8.15775	1059.46	-0.129137	41.7475	5050.68	1299.16	672.709	527.858	1397.52	42.6783	846.569	-0.0724268	-0.0142019	0.932038	1924.04	237.315	0.0388901	859.216	681.742	169.274	233.925	4739.01	151.377	1434.05	0.645355	3777.47	1952.03	1210.3	294.067	535.245	1657.63	311.121	3124.99	1924.57	373.95	1280.6	659.006	-0.164167	-0.15786	7.79813	15.9533	-0.077529	-0.154553	1052.7	13.7467	213.621	780.152	975.161	3075.7	2551.57	-1.19071	-0.0519759	13.7441	67.3265	299.741	6.30787	0.067923	-0.0221932	35.4784	20.4488	-0.0180742	-0.293534	2524.04	5417.56	-0.385603	-0.300841	10686.5	78.6401	10687.3	2183.62	-2.489	-0.158718	5525.26	8400.88	-0.451719	-1.06705	0.225203	
3.475	2871.43	611.491	170.839	7.07355	1019	-0.130913	34.982	4406.05	1257.67	649.385	536.346	1429.74	36.0842	673.119	-0.0769937	-0.0206296	0.508545	2111.3	278.411	-0.00385242	953.331	753.825	187.426	208.428	4710.12	154.621	1455.5	0.455283	3709.27	2238.3	1209.15	236.516	464.556	1959.87	329.874	2984.58	1964.69	451.244	1507.39	781.885	-0.162547	-0.151235	4.30708	10.1907	-0.0818628	-0.154948	983.125	16.8093	203.908	763.14	985.902	3097.73	2678.68	-1.19067	-0.0587385	7.21853	51.1597	304.925	4.78904	-0.00329084	-0.0206633	37.5599	19.5627	-0.0188205	-0.281582	2525.8	5417.61	-0.385554	-0.289377	10686.7	84.1407	10686.5	2103.6	-2.48865	-0.158715	5454.23	8400.97	-0.461472	-1.05773	-0.00980121	
3.48	2773.71	575.158	167.707	6.13213	982.893	-0.132688	29.2717	3847.1	1212.29	623.939	545.836	1466.03	30.6493	521.426	-0.0815564	-0.0270512	0.214248	2325.03	327.225	0.000994682	1058.7	833.856	207.605	185.403	4662.93	158.257	1479.69	0.301355	3625.12	2513.17	1198.26	192.454	400.878	2324.89	346.304	2833.02	2009.71	528.198	1728.16	902.92	-0.160538	-0.143563	1.95537	5.92118	-0.0857308	-0.154392	905.468	19.5735	194.854	746.299	989.655	3125.24	2808.86	-1.19062	-0.0656764	2.64726	36.6036	307.31	3.27651	-0.0102013	-0.0194054	38.9866	13.2635	-0.0196232	-0.269559	2527.44	5417.66	-0.385504	-0.277845	10687	87.3967	10685.7	2010.89	-2.48831	-0.158711	5359.87	8401.07	-0.469786	-1.08184	-0.0275335	
3.485	2653.73	538.078	166.779	5.59674	951.281	-0.134461	24.4246	3355.52	1164.22	597.061	556.118	1505.71	26.1242	396.36	-0.086115	-0.0334668	0.0445679	2570.98	384.911	-0.0028272	1178.66	922.493	230.024	165.097	4593.53	162.212	1506.15	0.180913	3525.45	2760.49	1175.57	157.956	344.922	2750.7	359.833	2674.94	2058.71	602.401	1936.17	1018.49	-0.158144	-0.134865	0.511781	2.80031	-0.0894209	-0.152768	824.958	21.9628	186.33	728.021	995.129	3158.03	2940.37	-1.19055	-0.0727278	0.286084	24.0684	306.74	1.87956	-0.017434	-0.0184448	39.6904	7.83979	-0.0204583	-0.257574	2528.67	5417.72	-0.385455	-0.266337	10687.3	91.6093	10684.7	1908.77	-2.48797	-0.158703	5238.87	8401.17	-0.476605	-1.0878	-0.0428083	
3.49	2513.16	500.707	168.237	6.66609	924.273	-0.136232	20.292	2915.14	1114.59	569.411	566.984	1548.06	22.3226	303.252	-0.0906694	-0.0398764	-0.00427066	2855.71	452.798	-0.00677775	1316.33	1021.64	255.142	147.461	4497.34	166.413	1534.46	0.0919489	3411.16	2969.66	1141.27	130.529	297.119	3232.46	369.975	2514.67	2110.79	672.277	2127.44	1126.41	-0.15537	-0.125178	0.00302753	0.896273	-0.0927467	-0.150479	746.091	23.9408	193.866	715.818	1002.16	3195.58	3074.72	-1.19045	-0.0798317	-0.00368348	13.9065	303.159	0.753658	-0.0249337	-0.0177979	39.6389	3.91769	-0.0212939	-0.245726	2529.15	5417.79	-0.385406	-0.254931	10687.6	97.6585	10683.7	1801.23	-2.48763	-0.158691	5091.3	8401.27	-0.481934	-1.07602	-0.0556661	
3.495	2354.72	463.378	172.299	9.62952	901.978	-0.138001	16.7568	2532.76	1064.42	541.587	578.231	1592.38	19.1035	237.033	-0.0952196	-0.04628	0.00118412	3186.34	532.312	-0.010725	1474.34	1135.73	283.888	132.234	4369.77	170.792	1564.19	0.0330324	3283.51	3133.4	1096.12	108.441	257.622	3762.02	376.343	2356.06	2165.07	737.048	2302.7	1226.01	-0.15223	-0.114544	-0.00260032	0.0552572	-0.0955297	-0.147983	671.649	25.508	212.201	706.838	1006.13	3237.1	3214.56	-1.19034	-0.0869302	-0.0145578	6.39917	296.613	0.0901603	-0.0326324	-0.0174717	37.8282	1.44058	-0.0220961	-0.2341	2529.14	5417.87	-0.385356	-0.243697	10687.8	104.653	10682.5	1692.77	-2.48729	-0.158676	4918.44	8401.39	-0.48582	-1.07017	-0.0662214	
3.5	2182.31	426.297	179.224	14.4955	884.531	-0.139768	13.7265	2208.76	1014.6	514.107	589.672	1637.99	16.3591	189.516	-0.0997658	-0.0526777	-0.00285511	3569.74	624.885	-0.0146687	1654.76	1269.94	317.525	119.136	4206.84	175.28	1594.9	0.00326268	3144.12	3246.68	1041.41	90.4406	226.342	4332.79	378.649	2202.27	2220.69	797.887	2471.58	1320.62	-0.148735	-0.103011	-0.00678401	-0.00283888	-0.0982333	-0.1453	602.998	26.6955	228.46	686.408	972.599	3275.76	3358.14	-1.1902	-0.0939696	-0.0253463	1.73434	287.236	-0.00131061	-0.0404504	-0.0174616	34.5762	0.205647	-0.0228488	-0.222767	2529.15	5417.95	-0.385307	-0.232691	10688.1	111.05	10681.3	1587.82	-2.48695	-0.158658	4731.27	8401.52	-0.488335	-1.06994	-0.0746062	
3.505	2001.54	389.62	189.316	21.6282	872.119	-0.141533	11.1272	1939.88	965.879	487.394	601.132	1684.21	14.0052	154.224	-0.104308	-0.0590695	-0.00710416	4009.78	731.827	-0.0186087	1858.8	1429.72	357.687	107.914	4006.08	179.818	1626.18	-0.000302991	2994.99	3308.93	978.909	75.6125	203.019	4951.72	376.711	2055.59	2276.84	857.422	2638.76	1414.01	-0.144902	-0.0906272	-0.0114041	-0.00878291	-0.100666	-0.142323	540.494	27.5543	227.134	658.43	933.391	3307.53	3503.18	-1.19006	-0.100902	-0.0359912	0.00940154	273.321	-0.00627868	-0.0483108	-0.0176655	31.5226	-0.000974196	-0.0235349	-0.211785	2529.17	5418.04	-0.385257	-0.221959	10688.4	116.829	10678.9	1488.98	-2.48662	-0.157639	4536.74	8401.64	-0.489584	-1.07051	-0.0809353	
3.51	1820.08	353.528	202.924	31.8211	864.987	-0.143296	8.89942	1721.31	918.888	461.766	612.447	1730.41	11.976	127.084	-0.108846	-0.0654555	-0.0113497	4508.26	854.149	-0.022545	2081.7	1620.45	406.362	98.3275	3767.52	184.347	1657.61	-3.25694e-05	2838.4	3326.2	910.802	63.2819	187.326	5627.62	370.459	1917.53	2332.75	916.115	2802.4	1506.16	-0.140745	-0.0774392	-0.0160196	-0.0150486	-0.103283	-0.139001	483.794	28.1446	215.198	629.748	906.643	3333.16	3648.61	-1.18991	-0.107688	-0.0464479	-0.00748191	254.406	-0.0116574	-0.0561503	-0.0179258	28.8686	-0.00517373	-0.0241361	-0.201193	2529.19	5418.13	-0.385208	-0.211532	10688.7	122.334	10459	1397.71	-2.48632	-0.154832	4328.97	8401.77	-0.489676	-1.062	-0.0852786	
3.515	1647.36	318.131	220.433	45.9915	863.449	-0.145057	6.99538	1546.96	874.155	437.471	623.472	1776	10.2191	105.678	-0.113379	-0.0718356	0.957499	5065.14	992.395	-0.0264777	2308.52	1846.92	465.832	90.1693	3494.85	188.815	1688.81	-0.00103128	2676.79	3300.71	839.691	52.9458	178.972	6367.82	359.943	1789.06	2387.75	972.997	2959.44	1595.34	-0.13628	-0.0634904	-0.020286	-0.021169	-0.105976	-0.135315	432.155	28.529	202.55	602.051	892.923	3354.99	3794.03	-1.18975	-0.114296	-0.0566819	-0.0167596	234.287	-0.0174184	-0.0639228	-0.0181571	26.1122	-0.00959107	-0.0246705	-0.191018	2529.21	5418.22	-0.385159	-0.201432	10688.9	127.704	10068.4	1314.88	-2.48604	-0.1509	4109.88	8401.89	-0.488712	-1.04886	-0.0876413	
3.52	1487.91	283.344	242.244	64.9975	867.891	-0.146816	5.37635	1409.52	831.994	414.695	634.082	1820.46	8.69264	88.5033	-0.117909	-0.0407756	13.9114	5678	1146.87	-0.0304067	2524.64	2110.83	538.49	83.2821	3196.58	193.178	1719.42	-0.00202927	2512.59	3232.48	768.536	44.2231	177.777	7174.58	345.336	1670.36	2441.29	1027.44	3108.69	1680.69	-0.131522	-0.0488184	-0.0241204	-0.0269181	-0.107938	-0.131253	384.685	28.7745	191.566	575.801	887.588	3374.77	3938.3	-1.18959	-0.120702	-0.0666687	-0.025661	215.37	-0.0235155	-0.0716001	-0.0183452	22.9766	-0.0142928	-0.0251216	-0.181272	2529.24	5418.31	-0.38511	-0.191672	10689.1	132.988	9637.16	1240.81	-2.48582	-0.146813	3891.58	8402	-0.486844	-1.04024	-0.0880442	
3.525	1342.69	248.858	268.747	89.618	878.763	-0.148573	4.01103	1301.85	792.478	393.516	644.177	1863.34	7.36264	74.5458	-0.122435	0.82842	43.7437	6341.72	1321.71	-0.0343322	2717.22	2395.31	625.941	77.5682	2887.69	197.393	1749.13	-0.0030264	2348	3123.82	700.634	36.8217	183.701	8040.67	326.971	1560.69	2492.84	1079.53	3250.69	1762.43	-0.126485	-0.033455	-0.027571	-0.0322504	-0.108788	-0.126816	340.678	28.9526	181.543	551.702	886.712	3393.39	4079.7	-1.18944	-0.126898	-0.0763953	-0.0341626	196.853	-0.029897	-0.0791705	-0.0185045	19.5315	-0.0193045	-0.0254533	-0.171952	2529.26	5418.39	-0.38506	-0.182252	10689.3	138.212	9190.23	1175.44	-2.48565	-0.14308	3685.94	8402.1	-0.484309	-1.03724	-0.0865962	
3.53	1212.08	214.719	300.283	120.516	896.647	-0.150328	2.87423	1218.11	755.619	373.896	653.68	1904.29	6.20161	63.0765	-0.126956	19.2602	92.8501	7048.22	1524.37	0.000251612	2875.75	2674.33	729.07	72.9984	2587.52	201.429	1777.68	-0.00402261	2184.83	2979.08	638.732	30.5145	196.842	8949.78	305.367	1459.7	2541.98	1129.22	3385.57	1840.56	-0.121181	-0.0174254	-0.0306934	-0.0371936	-0.108716	-0.122015	300.23	29.1369	172.219	530.412	888.09	3411.04	4215.68	-1.18928	-0.132881	-0.0858616	-0.0422551	177.581	-0.0365159	-0.0866375	-0.0186506	15.9672	-0.0246249	-0.0256343	-0.163046	2529.28	5418.47	-0.385011	-0.173165	10689.5	143.394	8745.52	1118.38	-2.48551	-0.139786	3502.22	8402.2	-0.48143	-1.04968	-0.0835728	
3.535	1095.71	181.467	337.094	158.143	921.899	-0.152081	1.94581	1153.62	721.472	355.786	662.538	1943.01	5.18701	53.5568	-0.131474	61.6652	162.781	7795.93	1762.89	11.8814	2992.89	2922.47	848.276	69.553	2305.52	205.258	1804.86	-0.0050477	2024.09	2803.26	583.201	25.123	217.387	9878.81	281.269	1367.33	2588.36	1176.04	3512.27	1914.34	-0.115624	-0.000749157	-0.0335174	-0.0417889	-0.10817	-0.116867	263.487	29.4042	163.963	512.439	890.633	3427.53	4343.52	-1.18912	-0.138661	-0.0950804	-0.0499403	157.446	-0.043336	-0.0940186	-0.0187922	12.4525	-0.0302352	-0.0256465	-0.154527	2529.3	5418.54	-0.384962	-0.164397	10689.6	148.555	8322.15	1069.09	-2.48536	-0.138314	3347.33	8402.29	-0.478708	-1.07028	-0.0797203	
3.54	992.482	149.69	379.272	202.683	955.204	-0.153832	1.20992	1104.72	690.031	339.175	670.72	1979.28	4.30031	45.583	-0.135335	128.351	253.542	8590.57	2044.67	53.561	3065.39	3116.33	983.481	67.202	2046.87	208.859	1830.48	0.367879	1864.24	2601.88	533.861	20.5059	245.534	10807.1	255.679	1283.43	2631.73	1219.13	3628.68	1982.38	-0.109825	3.57143	-0.0356767	-0.0460707	-0.10746	-0.111395	230.436	29.8302	157.188	498.203	893.728	3442.38	4460.08	-1.18896	-0.144254	-0.104077	-0.0572232	136.989	-0.0503317	-0.101343	-0.0189327	9.12824	-0.0361098	-0.0254826	-0.148986	2529.32	5418.59	-0.384913	-0.155927	10689.8	153.714	7931.69	1026.93	-2.4853	-0.138466	3225.56	8402.36	-0.476635	-1.091	-0.0760955	
3.545	900.633	120	426.7	254.099	997.112	-0.155581	0.65446	1068.5	661.269	324.028	678.215	2012.97	3.5262	38.8502	-0.0895633	217.987	363.952	9427.72	2375.2	124.336	3094.73	3235.92	1134.53	65.9092	1814.25	212.217	1854.43	13.5512	1704.94	2381.51	490.392	16.5503	281.413	11717.8	229.736	1207.76	2671.91	1257.34	3731.83	2042.81	-0.103797	15.8243	-0.0369532	-0.0500654	-0.106621	-0.105627	200.985	30.4852	152.161	488.081	896.918	3454.93	4562.12	-1.1888	-0.149707	-0.112863	-0.0641221	116.764	-0.0574863	-0.105569	-0.0190731	6.13096	-0.0422226	-0.0251417	-0.148334	2529.33	5418.63	-0.384864	-0.147732	10689.9	158.894	7578.87	991.231	-2.48546	-0.139407	3139.87	8402.41	-0.47549	-1.11	-0.0735677	
3.55	817.897	93.018	479.011	312.04	1048.03	-0.157328	0.270573	1042.71	635.131	310.303	685.025	2044	2.85201	33.1252	-0.0386676	327.962	491.745	10291.8	2754.68	223.126	3096.01	3267.89	1306.44	65.6352	1607.3	215.324	1876.64	53.9744	1548.37	2150.2	452.372	13.1659	325.012	12597.2	204.192	1140.03	2708.83	1289.25	3817.99	2093.34	-0.0975517	35.8944	-0.0379689	-0.0537948	-0.105607	-0.0995929	174.938	31.4328	149.082	482.428	899.814	3464.34	4646.08	-1.18864	-0.155095	-0.121488	-0.0706712	97.1865	-0.0647896	-0.108573	-0.0192134	3.59637	-0.0485514	-0.0246264	-0.148342	2529.34	5418.65	-0.384815	-0.139783	10690	164.116	7265.37	961.319	-2.48605	-0.140505	3092.95	8402.44	-0.475431	-1.12792	-0.0727548	
3.555	742.524	69.639	535.563	375.771	1108.15	-0.159073	0.0524144	1025.65	611.536	297.944	691.167	2072.35	2.2672	28.2277	0.0325411	454.852	634.145	11158.7	3177.03	346.389	3096.15	3268.16	1504.94	66.3382	1421.37	218.176	1897.07	116.596	1397.09	1917.98	419.315	10.2796	376.112	13434.5	179.309	1079.83	2742.48	1313.41	3883.28	2131.62	-0.092407	62.9499	-0.038931	-0.0572782	-0.104392	-0.0933242	152.028	32.7272	148.157	481.614	902.087	3469.63	4708.46	-1.18848	-0.160457	-0.130007	-0.0769112	78.6107	-0.0722359	-0.110153	-0.0193536	1.65299	-0.0550789	-0.0239432	-0.147651	2529.34	5418.66	-0.384765	-0.132053	10690	169.399	6991.44	936.576	-2.48703	-0.141476	3087.62	8402.45	-0.476482	-1.14465	-0.0739102	
3.56	674.38	51.9766	595.596	444.164	1177.42	-0.160815	-0.00573624	1016.19	590.376	286.887	696.667	2098.05	1.76305	24.0165	8.43567	595.346	787.796	12000.2	3633.83	489.525	3096.25	3268.4	1732.09	67.9762	1250.51	220.772	1915.7	193.331	1253.59	1694.56	390.712	7.83266	434.271	14222.1	155.359	1026.68	2772.91	1328.5	3924.19	2155.54	-0.0869769	96.325	-0.0395994	-0.0605336	-0.102973	-0.0868539	131.957	34.4116	149.597	486.052	903.462	3469.52	4745.87	-1.18832	-0.165813	-0.13848	-0.0828872	61.3898	-0.0798229	-0.110836	-0.0194937	0.418429	-0.0617904	-0.0231017	-0.146193	2529.34	5418.65	-0.384716	-0.124515	10690.1	174.755	6755.8	916.414	-2.48826	-0.142248	3127.39	8402.44	-0.478594	-1.16014	-0.0770474	
3.565	613.366	39.6731	659.04	515.747	1255.28	-0.162556	0.00156273	1013.67	571.527	277.06	701.559	2121.18	1.33234	20.38	30.6506	746.245	948.769	12789.1	4115.3	647.997	3096.33	3268.62	1986.16	70.5052	1093.27	223.118	1932.57	280.965	1120.23	1483.42	366.094	5.77747	498.814	14954.8	132.63	980.068	2800.21	1333.59	3938.21	2163.61	-0.0806522	127.734	-0.0398217	-0.0635786	-0.101351	-0.0802173	114.423	36.517	153.613	496.232	903.71	3462.58	4755.04	-1.18816	-0.171193	-0.146962	-0.0886471	45.8553	-0.0875499	-0.1112	-0.0196337	-0.000330299	-0.0686718	-0.0221145	-0.144041	2529.33	5418.61	-0.384667	-0.117141	10690.1	180.194	6556.29	900.278	-2.48963	-0.142838	3216.92	8402.4	-0.481689	-1.17427	-0.0820812	
3.57	559.157	31.1729	725.978	588.915	1340.45	-0.164294	-0.00398633	1018.02	554.847	268.382	705.88	2141.83	0.969125	17.229	64.7556	904.009	1112.91	13503.9	4611.44	817.01	3096.39	3268.81	2262.54	73.8815	951.435	225.221	1947.72	378.923	998.949	1284.34	345.068	13.2449	568.92	15629.4	111.033	939.452	2824.53	1328.26	3924.21	2155.19	-0.0734025	154.894	-0.0397954	-0.0664296	-0.0995373	-0.0734492	99.1336	39.0589	160.405	512.751	902.623	3447.01	4732.81	-1.188	-0.17663	-0.15551	-0.0942397	32.2849	-0.0954167	-0.111531	-0.0197736	-0.00305668	-0.0757101	-0.020996	-0.14114	2529.31	5418.56	-0.384618	-0.109908	10690.1	185.717	6389.79	887.632	-2.4909	-0.143273	3361.95	8402.32	-0.485669	-1.18681	-0.0888654	
3.575	511.24	25.0923	796.146	663.239	1430.91	-0.16603	0.000752595	1029.7	540.186	260.768	709.673	2160.13	0.668549	14.4917	108.519	1065.04	1276.11	14132.4	5113.66	991.726	3096.43	3268.98	2546.67	78.0612	826.284	227.093	1961.22	496.052	891.127	1098.42	327.342	78.1464	644.156	16244.4	90.5737	904.268	2846.03	1312.68	3882.59	2130.51	-0.0657133	197.866	-0.0397902	-0.0691026	-0.0975461	-0.0665842	85.8374	42.037	170.161	536.339	899.999	3421.06	4676.18	-1.18784	-0.182159	-0.164175	-0.0997131	20.9002	-0.103422	-0.111895	-0.0199134	-0.00661473	-0.0805801	-0.0197627	-0.137386	2529.29	5418.48	-0.384569	-0.107763	10690.2	191.319	6252.5	877.97	-2.82318	-0.143585	3569.61	8402.22	-0.490397	-1.1975	-0.0971583	
3.58	468.977	20.5498	868.821	738.816	1524.01	-0.167765	13.2903	1049.8	527.383	254.131	712.98	2176.23	0.426723	16.1401	159.584	1225.94	1435.26	14673.1	5623.77	1167.64	3096.45	3269.13	2817.56	83.0015	718.411	228.745	1973.16	639.734	797.182	925.883	312.797	269.855	725.855	16799.7	71.7143	873.968	2864.9	1287.57	3815.3	2090.76	-0.0582324	258.234	-0.0399095	-0.0716123	-0.0953947	-0.0596563	74.304	45.4344	183.034	567.872	895.627	3383.46	4582.75	-1.18768	-0.187809	-0.173003	-0.105112	11.871	-0.111566	-0.112284	-0.0206839	-0.0102039	-0.0832024	-0.0184318	-0.132721	2529.26	5418.38	-0.38452	-0.107703	10690.2	196.988	6140.31	870.792	-3.03951	-0.143802	3845.57	8402.08	-0.495754	-1.20583	-0.106729	
3.585	431.691	17.0414	942.768	815.132	1616.67	-0.169496	96.9106	1080.05	516.275	248.382	715.845	2190.29	0.240607	34.3584	215.628	1383.61	1590.23	15132.9	6144.67	1341.85	3096.46	3269.26	3062.17	88.6757	627.631	230.193	1983.63	808.909	716.035	764.216	301.433	581.955	816.056	17296.1	54.8666	848.022	2881.36	1254.13	3725.48	2037.83	-0.0506976	326.538	-0.0401113	-0.0739725	-0.093101	-0.0526981	64.3133	49.2175	199.222	608.337	889.286	3333.52	4450.9	-1.18752	-0.1936	-0.182036	-0.110477	5.32208	-0.119847	-0.112683	-0.0224953	-0.0138202	-0.0852004	-0.0170206	-0.127203	2529.22	5418.25	-0.384471	-0.104897	10690.2	199.945	6048.94	865.607	-3.11113	-0.143956	4188.74	8401.9	-0.50164	-1.21077	-0.117323	
3.59	398.702	14.2718	1016.31	891.08	1705.5	-0.171226	263.048	1122.9	506.698	243.433	718.312	2202.48	0.107927	87.136	274.517	1535.39	1740.42	15527.8	6675.41	1516.14	3096.47	3269.38	3273.08	95.1063	552.631	231.453	1992.75	996.024	646.14	614.712	293.234	967.894	917.176	17735.9	40.5345	825.921	2895.6	1213.8	3616.9	1974	-0.0429589	401.821	-0.0403277	-0.0757442	-0.0906824	-0.04574	55.6285	53.3247	219.079	658.751	880.755	3270.71	4280.12	-1.18737	-0.199555	-0.19131	-0.115842	1.34241	-0.128265	-0.113302	-0.0247542	-0.0174641	-0.0907323	-0.0156748	-0.121003	2529.18	5418.09	-0.384422	-0.0976123	10690.2	200.042	5973.99	861.911	-3.11601	-0.143145	4590.12	8401.67	-0.507958	-1.23444	-0.128756	
3.595	369.354	12.0518	1087.48	965.065	1787.19	-0.172954	478.745	1181.67	498.491	239.197	720.424	2212.98	0.0271177	189.069	334.402	1679.11	1884.14	15883.7	7213.24	1692.19	3096.47	3269.49	3446.07	102.355	490.92	232.541	2000.63	1195.9	586.037	479.772	288.164	1411.65	1031.9	18122.2	29.6118	807.186	2907.85	1168	3493.28	1901.59	-0.0351908	488.459	-0.0405198	-0.0764623	-0.0881545	-0.0388094	48.0249	57.6832	243.155	720.03	869.823	3194.79	4071.03	-1.18721	-0.205699	-0.200854	-0.121229	-0.000990927	-0.136822	-0.114065	-0.0268956	-0.0211402	-0.0991253	-0.0144616	-0.114337	2529.13	5417.9	-0.384374	-0.0871555	10690.1	201.759	5911.18	859.251	-3.10621	-0.14208	5029.13	8401.4	-0.514646	-1.25494	-0.140931	
3.6	342.976	10.2496	1154.28	1035.25	1858.68	-0.174679	726.252	1260.75	491.494	235.59	722.223	2221.98	-0.0028574	344.097	393.773	1813.19	2019.1	16242.5	7755.41	1870.23	3096.49	3269.61	3577.83	110.519	440.12	233.476	2007.4	1406.75	534.347	361.386	286.167	1916.83	1163.04	18458.9	22.0248	791.367	2918.33	1117.88	3357.56	1822.43	-0.0274929	590.465	-0.0406713	-0.0758394	-0.0855305	-0.0319302	41.3111	62.2227	272.316	792.861	856.283	3105.39	3826.6	-1.18705	-0.212076	-0.210678	-0.126656	-0.00840155	-0.145522	-0.114714	-0.0289276	-0.0248574	-0.107035	-0.01335	-0.107387	2526.99	5417.69	-0.384325	-0.0729994	10690.1	206.277	5856.64	857.247	-3.09932	-0.141493	5467.36	8401.07	-0.521673	-1.28238	-0.153787	
3.605	318.974	8.76954	1214.88	1099.88	1917.53	-0.176402	1005.25	1365.84	485.553	232.53	723.749	2229.65	0.0003811	553.153	451.493	1936.57	2142.92	16630.9	8300.31	2049.61	3096.51	3269.72	3664.13	119.737	398.193	234.274	2013.19	1627.46	489.762	263.961	287.166	2481.36	1313.57	18750.4	16.8872	778.048	2927.25	1064.22	3211.63	1737.79	-0.0198854	709.604	-0.0407749	-0.074076	-0.0828205	-0.0251217	35.3345	66.8793	307.717	877.213	839.961	3002.21	3552.8	-1.18689	-0.218699	-0.220811	-0.132126	-0.018246	-0.154369	-0.115207	-0.0312061	-0.0286281	-0.111741	-0.0122873	-0.100261	2517.55	5417.45	-0.384276	-0.0619445	10690.1	212.067	5807.13	855.589	-3.09669	-0.141505	5830.9	8400.69	-0.529017	-1.30103	-0.167243	
3.61	296.869	7.54077	1267.83	1157.51	1962.1	-0.178123	1314.45	1504.24	480.516	229.939	725.041	2236.18	-0.00327653	819.606	506.809	2049.05	2253.59	17067.9	8848.52	2229.25	3096.55	3269.85	3697.8	130.185	363.411	234.954	2018.13	1857.88	451.1	193.356	291.064	3100.07	1485.83	19001.6	13.3096	766.837	2934.83	1007.39	3056.26	1648.3	-0.0123661	845.258	-0.0408242	-0.0719225	-0.0800316	-0.0183984	29.9785	71.5959	350.515	970.449	820.741	2885.11	3258.55	-1.18673	-0.225541	-0.231254	-0.137635	-0.028029	-0.163365	-0.115616	-0.0334006	-0.0324678	-0.114747	-0.0111662	-0.0918802	2499.54	5417.18	-0.384227	-0.0543294	10690.1	217.807	5760.08	854.044	-3.09604	-0.14192	5956.38	8400.25	-0.536637	-1.31797	-0.181185	
3.615	276.293	6.51065	1312.21	1207.24	1991.66	-0.179841	1648.72	1684.98	476.236	227.738	726.139	2241.75	3.56442	1148.35	559.28	2151.13	2349.81	17567.9	9413.15	2408.09	3096.61	3269.98	3698.08	142.07	334.353	235.535	2022.35	2094.27	417.35	145.489	297.734	3805.52	1681.64	19218.1	10.6999	757.369	2941.29	947.391	2891.17	1553.97	-0.00492911	997.166	-0.0408117	-0.0702874	-0.0771672	-0.0117689	25.1579	76.322	401.566	1068.61	798.563	2754.48	2954.94	-1.18657	-0.232568	-0.241971	-0.143167	-0.0377983	-0.172515	-0.116002	-0.0351796	-0.0363944	-0.117533	-0.00993496	-0.0824547	2472.19	5416.88	-0.384178	-0.0476621	10690.1	223.183	5713.64	852.508	-3.09583	-0.142523	5957.37	8399.75	-0.544446	-1.32751	-0.195478	
3.62	256.966	5.63953	1347.82	1248.74	2006.51	-0.181557	2004.36	1917.84	472.571	225.853	727.079	2246.54	29.5386	1540.42	608.744	2243.49	2431.2	18138	10002.2	2585.33	3096.69	3270.12	3698.33	155.609	309.873	236.034	2025.98	2333.48	387.697	112.907	307.003	4661.6	1902.99	19405.9	8.71925	749.299	2946.83	884.46	2716.71	1455.13	0.0566457	1166.18	-0.0407277	-0.0695647	-0.0742273	-0.00523623	20.8146	81.0162	461.04	1167.08	773.432	2611.61	2653.58	-1.18641	-0.239749	-0.252915	-0.1487	-0.0476118	-0.181818	-0.116388	-0.0366764	-0.0404275	-0.120458	-0.0086046	-0.0733029	2435.01	5416.55	-0.38413	-0.0409408	10690	228.316	5666.69	850.966	-3.09551	-0.143187	5958.37	8399.19	-0.552299	-1.33123	-0.209993	
3.625	238.677	4.89719	1375.07	1282.32	2007.86	-0.183271	2394.73	2211.14	469.379	224.212	727.896	2250.73	92.9506	1989.95	655.309	2327.02	2498.35	18776.9	10617.9	2761.44	3096.78	3270.27	3698.57	171.016	289.04	236.469	2029.15	2573.27	361.59	89.7572	318.641	5726.77	2152.03	19571.1	7.17554	742.298	2951.67	819.608	2535.52	1353.38	1.78536	1353.82	-0.0405607	-0.0696455	-0.0712086	0.00293578	16.9134	85.6472	528.422	1259.94	745.48	2458.75	2363.33	-1.18625	-0.247054	-0.264038	-0.154203	-0.0575351	-0.191272	-0.116777	-0.0386902	-0.0445872	-0.123189	-0.00720306	-0.0639531	2387.92	5416.19	-0.384081	-0.034233	10690	233.28	5618.74	849.439	-3.09508	-0.143859	5959.36	8398.56	-0.559994	-1.33224	-0.224625	
3.63	221.258	4.26023	1394.99	1308.83	1997.75	-0.184983	2844.39	2571.28	466.524	222.743	728.627	2254.49	190.653	2494.84	699.322	2402.94	2552.81	19473.8	11254.6	2939.45	3096.89	3270.43	3698.8	188.486	271.115	236.859	2032.01	2812.16	338.472	72.522	332.345	7038.98	2431.29	19720.5	5.95087	736.051	2956.01	753.833	2351.19	1250.67	5.72606	1565.35	-0.0402987	-0.0701633	-0.0681047	1.08699	13.4365	90.1959	603.02	1338.41	714.679	2297.53	2088.42	-1.1861	-0.254455	-0.275294	-0.159639	-0.0676399	-0.20087	-0.117169	-0.0411651	-0.0488928	-0.125344	-0.0057476	-0.0539991	2331.23	5415.82	-0.384032	-0.0276262	10690	238.043	5569.9	847.995	-3.09459	-0.144531	5960.33	8397.88	-0.567148	-1.33258	-0.239291	
3.635	204.565	3.71038	1409.06	1329.62	1978.9	-0.186692	3374.85	3001.99	463.871	221.377	729.306	2258.01	315.223	3090.1	741.357	2472.81	2596.97	20209	11904.7	3120.76	3097.01	3270.6	3699.04	208.102	255.451	237.222	2034.67	3049.83	317.724	59.2488	347.739	8600.27	2743.45	19860.7	4.96589	730.256	2960.05	684.749	2162.77	1143.91	11.6356	1806.35	-0.0399294	-0.0708021	-0.0649062	3.96005	10.3788	94.6553	684.13	1385.06	681.223	2129.5	1828.73	-1.18594	-0.261921	-0.286636	-0.164968	-0.0780024	-0.210598	-0.117561	-0.0437242	-0.0533617	-0.126459	-0.00424414	-0.0433102	2265.65	5415.42	-0.383983	-0.0210896	10689.9	242.55	5521.17	846.756	-3.09409	-0.14521	5961.28	8397.14	-0.573471	-1.33298	-0.253943	
3.64	188.466	3.23316	1419.13	1346.38	1954.45	-0.188398	4000.66	3500.59	461.286	220.044	729.967	2261.46	463.175	3813.28	782.19	2538.63	2633.86	20955.1	12560.7	3307.22	3097.14	3270.77	3699.27	229.845	241.372	237.575	2037.28	3285.12	298.693	48.8038	364.445	10411.5	3096.15	19998.5	4.16406	724.617	2964	610.336	1959.76	1028.82	19.2987	2079.23	-0.0394401	-0.0714156	-0.0616019	8.4354	7.75294	99.0303	771.244	1387.31	645.405	1956.96	1582.26	-1.18578	-0.269421	-0.298016	-0.170142	-0.0887001	-0.220436	-0.117953	-0.0459816	-0.0580079	-0.126811	-0.00269369	-0.0354486	2192.19	5415	-0.383935	-0.0145973	10689.9	246.776	5474.19	845.938	-3.09361	-0.145911	5962.19	8396.35	-0.579132	-1.33354	-0.268565	
3.645	172.843	2.81699	1427.29	1361.03	1927.8	-0.190103	4725.6	4061.01	458.64	218.679	730.643	2265.01	632.371	4677.2	822.768	2602.76	2666.97	21679.7	13215	3501.67	3097.27	3270.94	3699.5	253.641	228.183	237.937	2039.97	3518.08	280.71	40.4595	382.023	12497.4	3502.37	20141.1	3.50406	718.852	2968.06	531.294	1738.5	905.304	28.5238	2383.83	-0.0388174	-0.0719606	-0.0581789	14.3676	5.56882	103.336	863.857	1387.5	607.517	1782.73	1356.65	-1.18562	-0.276927	-0.309389	-0.175115	-0.0998094	-0.23036	-0.118343	-0.0477845	-0.0628421	-0.128359	-0.00109532	-0.0283377	2112.13	5414.56	-0.383886	-0.00814849	10689.9	250.71	5430.91	845.792	-3.09314	-0.146654	5963.06	8395.63	-0.584431	-1.33417	-0.283188	
