CEINMS output
datacolumns 81
datarows 92
endheader
time	addbrev_r	addlong_r	addmagDist_r	addmagIsch_r	addmagMid_r	addmagProx_r	bflh_r	bfsh_r	edl_r	ehl_r	fdl_r	fhl_r	gaslat_r	gasmed_r	glmax1_r	glmax2_r	glmax3_r	glmed1_r	glmed2_r	glmed3_r	glmin1_r	glmin2_r	glmin3_r	grac_r	iliacus_r	perbrev_r	perlong_r	piri_r	psoas_r	recfem_r	sart_r	semimem_r	semiten_r	soleus_r	tfl_r	tibant_r	tibpost_r	vasint_r	vaslat_r	vasmed_r	addbrev_l	addlong_l	addmagDist_l	addmagIsch_l	addmagMid_l	addmagProx_l	bflh_l	bfsh_l	edl_l	ehl_l	fdl_l	fhl_l	gaslat_l	gasmed_l	glmax1_l	glmax2_l	glmax3_l	glmed1_l	glmed2_l	glmed3_l	glmin1_l	glmin2_l	glmin3_l	grac_l	iliacus_l	perbrev_l	perlong_l	piri_l	psoas_l	recfem_l	sart_l	semimem_l	semiten_l	soleus_l	tfl_l	tibant_l	tibpost_l	vasint_l	vaslat_l	vasmed_l	
3.19	0	0	0	0	0	0	0	0	0	0	0	0	0	0	0	0	0	0	0	0	0	0	0	0	0	0	0	0	0	0	0	0	0	0	0	0	0	0	0	0	0	0	0	0	0	0	0	0	0	0	0	0	0	0	0	0	0	0	0	0	0	0	0	0	0	0	0	0	0	0	0	0	0	0	0	0	0	0	0	0	
3.195	-20.1649	-2.29146	-86.793	-77.697	-113.589	-0.394517	-70.7189	125.399	7.9507	4.19296	-0.998369	-3.31478	73.4629	180.038	-109.893	-179.854	-182.819	177.528	-31.6901	-134.261	40.6852	29.8862	8.32337	-0.147088	55.6232	-1.87057	-3.70725	-34.0861	52.5772	8.03655	12.3725	34.115	1.34305	-235.641	22.5406	23.6816	-6.11898	-73.9053	-206.87	-115.438	-11.3411	-13.3603	-11.7074	-9.87014	-16.165	-16.9259	-74.291	-26.6523	1.82614	1.2446	0.902101	-2.28741	-67.9714	-0.803391	-2.08289	-7.08631	-0.724592	38.4002	5.29104	-0.035603	16.0352	25.9262	-0.0234941	-8.07885	12.9927	-1.11348	-2.57427	-0.263962	4.15006	342.27	-1.93744	-133.632	-33.243	-3.62612	-0.106039	6.42471	-13.8757	-0.164347	329.607	195.202	
3.2	-18.6422	-2.79352	-93.0941	-90.7636	-115.23	-10.2995	-99.9735	123.022	9.16426	4.68936	-1.25499	-3.79822	104.466	230.957	-122.422	-195.321	-194.509	161.706	-44.5413	-150.071	39.1123	27.3403	5.00298	-0.225227	59.5548	-2.35754	-4.50624	-44.8886	59.8428	6.50084	12.3159	26.8314	-1.01379	-277.882	37.0263	26.1763	-7.26615	-95.8224	-270.891	-149.288	-12.8376	-15.9171	-18.7356	-18.9582	-21.0571	-19.9223	-118.148	-37.3147	1.92584	1.27438	2.65175	-15.4651	-112.987	-2.43939	-13.3602	-37.8342	-40.6989	51.7096	11.185	-0.0391756	16.28	17.2331	-0.0267726	-28.6568	18.0855	-4.62056	-7.88964	-0.771158	5.60388	332.869	-2.4988	-188.141	-38.6841	-25.7392	-0.321967	6.84884	-30.8547	-3.6912	494.808	282.281	
3.205	-16.2799	-2.79236	-91.2105	-89.1436	-112.639	-10.2854	-112.129	114.127	8.27887	4.21495	-1.02402	-3.19151	111.817	223.499	-127.194	-198.211	-195.73	129.693	-56.0461	-157.306	34.1258	22.4753	0.574086	-0.340887	58.6799	-1.97574	-3.62213	-48.7824	59.5226	21.8357	12.0071	-0.196437	-4.72534	-242.579	42.1273	23.3398	-6.14273	-94.297	-267.558	-146.334	-13.0389	-16.979	-11.176	-11.5674	-15.3218	-18.8164	-104.36	-32.345	1.25137	0.819013	4.14637	-3.60241	-86.7817	-2.43467	0.520888	-6.31474	-40.3648	39.5299	24.3245	-0.0391076	18.3239	22.524	-0.026734	-16.0225	16.8688	0.734202	-2.00288	-0.769687	4.59539	326.953	-2.95349	-175.125	-34.4659	-20.6575	-0.321344	4.07066	-15.7978	-3.69	505.398	287.819	
3.21	-14.3947	-2.79117	-92.0376	-90.6898	-111.321	-10.2703	-129.298	106.667	6.67858	3.39823	-0.863171	-2.68247	110.942	213.648	-134.752	-205.155	-200.39	98.448	-68.0095	-165.594	29.2185	17.6343	-3.74631	-0.659578	58.5336	-1.63679	-3.03659	-53.0371	60.3341	36.3318	11.7461	-31.2037	-9.0712	-200.885	40.1148	18.8246	-5.14985	-90.3989	-257.809	-140.485	-13.9667	-19.2417	-7.19999	-5.11924	-14.0582	-19.0445	-95.0548	-34.0527	0.455647	0.293488	2.41367	0.427213	-82.4314	-2.42973	-1.13113	-5.08949	-39.9727	45.9281	51.9743	-0.0390395	16.3175	16.7942	-0.0266951	-13.3441	14.3001	0.455541	-0.259704	-0.768007	2.85812	319.665	-3.4434	-190.141	-36.25	-15.4238	-0.320691	1.53144	-7.32454	-3.68873	488.972	278.916	
3.215	-12.1146	-2.78954	-92.2494	-92.8947	-108.91	-10.2462	-150.169	98.158	5.04034	2.56014	-0.681455	-2.06823	112.03	213.025	-141.985	-211.098	-203.906	61.352	-80.166	-171.936	23.1438	11.8833	-8.52205	-0.988933	58.3957	-1.2797	-2.36814	-57.2706	61.7448	50.2807	11.4434	-65.6072	-14.0332	-154.753	36.7295	14.1781	-4.00221	-86.9768	-249.12	-135.324	-15.0028	-22.1567	-5.73003	0.0532167	-14.5914	-16.877	-89.3714	-36.9756	-0.456031	-0.316291	1.34274	0.925969	-84.7982	-2.42336	-0.628588	-6.33414	-21.6421	49.6817	52.0698	-0.26697	16.6926	18.4122	-0.0913418	-13.696	11.8018	0.0112229	0.47686	-0.84509	0.909051	309.791	-3.98359	-205.778	-36.8816	-10.7895	-0.319852	-1.65966	-2.12934	-3.69498	483.605	274.493	
3.22	-9.61114	-2.78837	-91.9871	-94.6066	-105.803	-10.2315	-172.215	88.9977	3.15836	1.589	-0.434785	-1.27093	115.463	215.459	-148.952	-216.411	-206.769	20.1872	-92.2165	-176.175	16.2198	5.51905	-13.5614	-1.35349	57.8694	-0.826099	-1.47664	-60.5283	62.7551	64.9658	11.1016	-104.548	-19.5762	-97.5213	34.0061	8.72087	-2.5104	-82.297	-236.555	-127.98	-16.6488	-25.9534	-5.71489	3.45479	-15.1759	-13.155	-86.6399	-39.1668	-1.54106	-1.04354	-0.256892	1.22514	-86.9295	-2.4186	2.25706	-2.48269	-16.8049	57.2124	22.0977	-0.724424	16.7585	18.722	-0.13513	-14.9081	-13.258	0.282621	1.8266	-1.87093	-1.33024	296.73	-4.57676	-211.12	-36.8223	-7.08322	-0.319222	-5.48314	2.20499	-3.75865	479.916	264.957	
3.225	-6.90683	-2.78745	-91.4736	-96.3463	-101.989	-10.2218	-194.494	79.6512	0.990393	0.473041	-0.139409	-0.348774	119.788	218.762	-155.518	-221.125	-209.004	-23.5829	-103.443	-177.942	8.69144	-1.24983	-18.6586	-1.72691	57.1218	-0.283827	-0.43578	-62.3924	63.5663	81.1271	10.7348	-146.486	-25.4421	-30.5429	31.8436	2.46637	-0.754421	-76.1368	-219.547	-118.29	-18.3076	-30.4067	-5.84262	4.61125	-15.44	-10.004	-85.949	-40.8903	-2.76681	-1.86256	-0.992714	2.29468	-86.9594	-2.41471	5.47419	3.60862	-15.7312	59.573	18.4858	-2.28963	16.5109	19.0989	-0.0579779	-15.8748	-39.3559	0.706661	3.75126	-2.58444	-3.58143	280.325	-5.21786	-208.273	-36.6685	-4.30028	-0.31871	-9.58876	6.53991	-3.89872	469.745	253.109	
3.23	-4.00965	-2.78639	-90.5295	-98.1149	-97.4642	-10.2091	-216.479	70.4523	-1.37116	-0.737497	0.180822	0.645455	124.431	223.936	-161.344	-225.045	-210.415	-68.8552	-113.747	-176.961	0.742781	-8.24832	-23.682	-2.07433	56.1519	0.30711	0.682656	-61.8477	64.251	98.2716	10.3458	-189.15	-31.3781	42.5819	29.6973	-4.29128	1.14467	-69.3803	-200.654	-107.747	-16.5703	-35.2585	-5.96756	3.75032	-15.6848	-7.56153	-85.4168	-40.6982	-4.08781	-2.74509	-0.84548	3.75047	-85.8382	-2.41037	8.86423	9.78787	-11.2213	61.7048	27.4088	-2.11452	17.676	19.7821	-0.0312905	-16.5079	-36.0287	1.08975	5.8288	-2.30418	-3.26003	265.792	-5.8991	-206.995	-36.3423	-2.28433	-0.318137	-14.0578	10.651	-4.12588	458.611	243.543	
3.235	-0.934525	-2.78523	-89.0018	-99.3721	-92.2013	-10.1945	-236.996	61.58	-3.8333	-1.99898	0.510284	1.67255	129.486	231.574	-166.102	-227.947	-210.821	-114.611	-122.768	-173.129	-7.43798	-15.3153	-28.5178	-2.36551	54.9388	0.919921	1.83845	-58.9108	64.7498	115.29	9.94062	-230.406	-37.1381	118.809	27.429	-11.3146	3.10524	-62.6322	-181.607	-97.2634	-13.5067	-40.8927	-6.50972	0.241788	-16.0413	-5.81228	-84.8666	-36.0418	-5.47053	-3.67015	-0.885191	5.15877	-84.4015	-2.40573	12.7672	16.3209	-5.07514	64.9652	30.4948	-0.796044	17.6563	20.6665	-0.250234	-17.0446	-29.2962	1.46335	7.90114	-1.84247	-3.26962	252.948	-6.61246	-206.641	-35.6784	-0.870284	-0.457753	-18.7585	14.2592	-4.41274	452.742	238.686	
3.24	2.29666	-2.78401	-86.8723	-99.9095	-86.1583	-10.1788	-255.009	53.3799	-6.33163	-3.27906	0.834795	2.68763	134.912	241.37	-169.515	-229.641	-210.039	-159.923	-130.667	-168.823	-15.6763	-22.3089	-33.0844	-2.57521	53.5002	1.53179	2.99369	-54.9533	65.0492	131.343	9.52809	-268.407	-42.4777	195.38	25.109	-18.4226	5.04312	-55.9453	-162.562	-86.8681	-10.7217	-47.5047	-6.68135	-2.31238	-16.4531	-4.61502	-84.2918	-33.159	-6.88765	-4.61734	-0.362618	6.35631	-82.83	-2.40097	17.1677	23.6538	1.21011	70.836	32.8859	2.45529	18.1503	21.7024	-0.431798	-17.5937	-13.8168	1.84043	9.95796	-2.97733	-7.02486	240.209	-7.34898	-204.039	-34.6209	0.096367	7.82121	-23.5742	17.3702	-4.7518	451.828	237.338	
3.245	5.66233	5.35013	-84.1075	-99.6554	-79.2972	-10.1629	-270.271	45.8384	-8.79865	-4.54239	1.13712	3.64485	140.589	252.287	-171.316	-230.033	-207.938	-204.056	-137.417	-167.917	-23.8186	-29.1077	-37.3273	-2.68084	51.8622	2.11739	4.09657	-50.8135	65.1285	145.793	9.12535	-301.501	-47.1589	268.905	22.8078	-25.4007	6.86448	-49.4264	-143.851	-76.7147	-8.4936	-54.8854	-5.86905	-2.13356	-16.5124	-3.81564	-83.7005	-31.3634	-8.31072	-5.56658	-0.205945	7.49084	-80.9925	-2.3962	21.9681	31.7142	7.81787	76.1685	37.1794	30.0911	18.6481	22.888	-0.266105	-18.1021	0.655451	2.29466	12.0038	-3.73177	-5.72726	219.222	-8.10263	-197.813	-33.1188	0.73999	15.6059	-28.4091	20.6885	-5.14539	444.644	232.462	
3.25	9.14347	20.3668	-80.7104	-98.6065	-71.6548	-10.1469	-283.196	39.2418	-11.1543	-5.74803	1.4015	4.49826	146.324	262.566	-171.296	-229.044	-204.455	-246.386	-143.47	-162.892	-31.7232	-35.6213	-41.2355	-2.66489	50.0538	2.65155	5.0992	-46.2869	64.9512	158.074	8.72281	-329.367	-50.9585	335.122	20.529	-31.9946	8.47792	-43.2825	-126.135	-67.1568	-6.83575	-62.162	-4.75835	-0.680032	-16.3418	-3.28107	-83.0852	-30.4384	-9.7124	-6.49766	0.107732	8.55726	-78.6857	-2.39145	27.1071	40.2865	15.0914	76.6411	42.3302	28.3429	19.1576	24.1878	-0.107113	-18.4826	8.80127	2.74581	13.9808	-3.68539	-3.91915	191.252	-8.8697	-187.769	-31.1284	1.15497	16.1696	-33.1622	24.4249	-5.60514	425.326	221.195	
3.255	12.7166	23.4444	-76.6863	-96.7038	-63.2849	-10.1308	-293.974	33.5215	-13.317	-6.85334	1.61408	5.20327	151.67	269.232	-169.346	-226.682	-199.488	-286.49	-152.828	-157.728	-39.2863	-41.7851	-44.8215	-2.51483	48.1011	3.10896	5.95814	-41.4443	64.4801	167.673	8.32499	-351.705	-53.6415	389.157	18.2524	-37.9378	9.80525	-37.7447	-110.112	-58.5548	-5.64723	-69.2747	-4.01926	0.513686	-16.3629	-2.9154	-82.437	-30.1607	-11.0689	-7.39044	0.526838	9.47837	-75.6966	-2.38671	32.5035	49.1618	23.0254	73.396	47.7586	33.9267	19.647	25.5573	-0.556166	-18.6797	5.02539	3.16692	15.8218	-3.02961	-7.5575	157.748	-9.64432	-173.946	-28.6228	1.40635	13.5284	-37.7422	28.4476	-6.1392	395.585	205.131	
3.26	16.3663	25.9691	-72.0631	-94.016	-54.239	-10.1145	-301.03	28.9409	-15.1997	-7.8147	1.76472	5.72558	155.939	270.669	-164.443	-223.084	-193.032	-324.056	-162.502	-152.477	-46.4117	-47.5604	-48.1304	-2.22389	46.0512	3.47043	6.63503	-36.6553	63.7065	174.133	7.93325	-367.431	-55.0402	426.916	15.9636	-42.9997	10.7852	-33.0144	-96.4072	-51.2228	-4.80578	-76.9909	-2.85841	1.60842	-15.9404	-2.65535	-81.7473	-30.028	-12.3564	-7.93064	1.02929	10.2389	-71.9186	-2.38199	38.0486	58.159	31.4583	80.227	53.4753	42.874	20.0717	26.9337	-0.568298	-18.6668	-11.28	3.56687	17.4812	-2.28514	-4.46626	123.026	-10.4181	-156.787	-25.5997	1.53852	10.335	-42.0517	32.4307	-6.73413	362.578	188.466	
3.265	20.0706	30.4989	-66.9544	-90.7094	-44.6076	-10.0981	-302.313	25.4012	-16.7045	-8.58127	1.84748	6.04381	158.407	267.21	-135.918	-218.413	-185.15	-358.881	-170.66	-147.566	-53.0364	-52.932	-51.2293	-1.78979	43.9459	3.71947	7.1005	-32.3255	62.6465	177.106	7.55376	-375.817	-55.0763	446.833	13.6673	-47.0043	11.3803	-29.2575	-85.5283	-45.42	-4.20412	-85.6405	-1.45406	3.04062	-15.0572	-2.46145	-81.0085	-29.8962	-13.5515	-7.61183	1.71723	10.8386	-67.3714	-2.37729	43.6249	67.1063	40.131	83.0681	59.4038	51.4774	20.3786	28.2407	-0.550043	-18.4242	-32.049	3.94122	18.9366	-2.74755	-3.55041	85.288	-11.1817	-136.798	-22.0679	1.58006	7.23411	-46.005	35.9455	-7.38623	328.372	171.51	
3.27	23.8144	35.4969	-61.3191	-86.7778	-34.4797	-10.0815	-297.225	23.0355	-17.7506	-9.11161	1.86151	6.16842	158.462	260.195	-114.585	-212.991	-175.971	-390.812	-179.352	-143.629	-59.1162	-57.9065	-54.1945	-1.21638	41.8412	3.84581	7.33744	-28.822	61.3584	176.372	7.18531	-376.104	-53.7668	450.136	11.3976	-49.844	11.5755	-26.6112	-77.8784	-41.3584	-3.76257	-94.7371	0.634137	4.40099	-13.7695	-2.30976	-80.2138	-29.7634	-14.6376	-7.59504	2.23529	11.2309	-62.1444	-2.37259	49.0999	75.8081	48.9048	85.1977	65.3397	60.1659	20.5065	29.3934	-0.101632	-17.9342	-27.5545	4.2622	20.1477	-3.79049	-6.19133	46.1643	-11.9253	-115.181	-18.0507	1.55152	4.11308	-49.5749	38.8737	-8.10346	293.748	154.312	
3.275	27.576	40.1619	-55.3219	-82.2485	-23.9673	-10.0647	-286.032	21.865	-18.2705	-9.3713	1.80942	6.10386	155.886	249.741	-98.1978	-207.141	-165.709	-401.719	-188.248	-141.218	-64.624	-62.5023	-57.1168	-0.511726	39.7868	3.84481	7.33599	-26.4706	59.9168	171.852	6.83666	-367.97	-51.1864	437.833	9.18038	-51.383	11.3741	-25.1616	-73.7493	-39.1772	-3.42688	-103.642	3.17265	6.89494	-12.155	-2.18597	-79.3566	-29.6299	-15.595	-7.60197	2.78767	11.5252	-56.3064	-2.36789	54.3503	84.0974	57.6302	86.7799	71.0538	69.3612	20.3951	30.2936	74.6514	-17.1867	-19.2246	4.53411	21.1039	-5.11383	-16.8903	6.40914	-12.6388	-92.6962	-13.5933	1.46647	1.0955	-52.7055	40.965	-8.92886	263.511	138.049	
3.28	31.449	44.7601	-49.0115	-77.1937	-13.1933	-10.0478	-269.552	21.7789	-18.1955	-9.32396	1.69852	5.83595	150.918	235.95	-85.6958	-201.305	-154.634	-411.729	-197.533	-140.846	-69.544	-66.7419	-60.0665	0.311535	37.8378	3.71902	7.0976	-25.5501	58.3703	163.616	6.50877	-351.389	-47.4461	411.581	7.02468	-51.3599	10.8062	-24.9519	-73.2702	-38.9431	-3.16185	-110.888	6.0895	10.1454	-10.002	-2.08151	-78.431	-29.494	-16.4018	-7.51008	3.4042	11.6302	-49.9232	-2.36321	59.2287	91.7771	66.1046	87.2516	76.3054	78.6837	19.9819	30.8443	78.2403	-16.1843	-12.6615	4.75829	21.7943	-5.65901	-7.58983	-33.9731	-13.3096	-69.4696	-8.7072	1.3361	-0.691569	-55.2285	42.2207	-9.91971	249.624	130.726	
3.285	35.3056	49.4821	-42.4885	-71.7008	-2.29304	-10.0307	-248.544	22.7626	-17.4908	-8.95515	1.53827	5.37087	143.692	219.347	-75.7353	-195.874	-143.078	-427.785	-207.335	-142.894	-73.8708	-70.6548	-61.1695	1.23627	36.0392	3.47369	6.63121	-26.2735	56.7954	151.876	6.20578	-326.718	-42.7167	373.697	4.93252	-49.4785	9.91143	-25.9724	-76.4544	-40.6553	-2.94524	-119.588	10.2965	14.3197	-7.34848	-1.99119	-39.3527	-29.3532	-17.0485	-7.40128	3.94432	11.6462	-43.0689	-2.35854	63.618	98.7143	74.1265	86.3501	80.8409	87.7387	19.2113	30.9511	72.1349	-14.9425	-8.25924	4.92329	22.213	-5.28825	-4.30672	-71.5221	-13.9235	-45.1593	-3.31684	1.17175	-0.466435	-57.1451	42.7416	-11.1534	236.203	122.915	
3.29	39.0907	54.2746	-35.8643	-65.8815	8.58897	-10.0134	-223.96	24.7469	-16.1538	-8.26387	1.33902	4.74862	134.459	200.507	-67.6522	-191.296	-131.403	-442.611	-217.465	-147.592	-77.5988	-74.2527	-58.6695	2.24163	34.4333	3.11799	5.95365	-28.7472	55.2374	135.362	5.9297	-294.8	-37.1317	326.603	2.90872	-45.6641	8.73852	-28.1515	-83.1454	-44.2189	-2.76304	-129.515	15.4357	20.7	-4.04	-1.91179	-4.30327	-29.2048	-17.5196	-7.23898	4.45408	11.5265	-35.8284	-2.35388	67.3812	104.746	81.5394	83.9338	84.4052	96.1875	18.0393	30.5275	74.7876	-13.4845	-5.56613	5.01546	22.363	-4.73587	-3.35834	-101.399	-14.464	-18.4366	2.55804	0.985588	-0.466558	-58.434	42.6219	-12.7285	218.061	111.697	
3.295	42.792	59.0467	-29.2425	-59.8528	19.2972	-9.99601	-197.111	27.5431	-14.1951	-7.25346	1.11037	4.0047	123.307	179.687	-60.9972	-187.895	-119.984	-459.949	-227.544	-154.975	-80.7269	-77.5463	-60.2778	3.30332	33.0416	2.6645	5.08232	-32.9584	53.7599	114.375	5.68243	-256.909	-30.8754	271.895	0.958718	-39.9644	7.33583	-31.3602	-93.065	-49.4542	-2.60639	-135.11	21.9835	30.1639	-0.0600952	-1.84121	30.5196	-29.0461	-17.8074	-7.0791	4.90436	11.2509	-28.2336	-2.34922	70.3851	109.69	88.1317	79.8772	86.7684	103.673	16.438	29.4375	79.2328	-11.8378	-5.96285	5.04946	22.2571	-4.30707	-3.25252	-138.132	-14.913	13.5278	8.80414	0.790985	-0.453162	-59.0817	41.9433	-3.36286	197.116	99.5197	
3.3	46.3223	63.64	-22.7515	-53.7497	29.8693	-9.97841	-168.958	30.98	-11.6297	-5.92901	0.861329	3.14749	110.396	157.33	-55.4716	-185.968	-109.201	-481.091	-238.04	-164.968	-83.2505	-80.5245	-62.0005	4.39387	31.8741	2.12444	4.03691	-38.8244	52.3897	91.9305	5.46467	-214.424	-24.1726	211.374	-0.910499	-32.4762	5.7447	-35.4027	-105.772	-56.1159	-2.46953	-138.047	28.486	46.7598	4.07081	-1.77807	79.4681	-28.8748	-17.9112	-6.88395	5.31356	10.9252	-20.246	-2.34458	72.4922	113.341	93.6801	74.1254	87.7388	109.845	14.4004	27.7546	80.2112	-10.0377	-6.86173	5.03555	21.9111	-4.001	-3.23974	-171.155	-15.2508	56.7871	15.2051	0.599823	-0.457002	-59.1019	40.7853	54.5463	176.145	87.9836	
3.305	49.6051	67.3176	-16.5002	-47.7102	39.9111	-9.96064	-140.322	34.9316	-8.48417	-4.30367	0.59693	2.18467	95.8498	133.627	-50.8493	-186.058	-99.3811	-502.552	-249.31	-177.276	-85.155	-83.1646	-64.4637	5.48346	30.9318	1.50916	2.83662	-46.0811	51.1646	69.5173	5.27297	-169.193	-17.2648	145.6	-2.69084	-23.3529	3.99564	-39.9695	-120.611	-63.8479	-2.34861	-138.557	31.522	51.6202	7.81359	-1.72137	115.284	-28.6886	-17.8254	-6.6438	5.59623	10.5364	-11.8935	-2.33994	73.5913	115.519	98.0047	66.7175	87.1837	114.391	11.9448	25.46	78.5918	-8.13132	-5.91119	4.96784	21.3579	-3.77557	-3.24043	-201.464	-15.4614	139.474	21.3307	0.420404	-0.457657	-58.5125	39.2318	61.6924	156.586	77.4725	
3.31	52.5734	70.7264	-10.6103	-41.8637	48.9293	-9.94272	-112.069	39.1507	-4.80437	-2.40069	0.318019	1.12748	79.682	108.196	-46.9574	-188.705	-90.8316	-517.43	-261.011	-191.481	-86.4374	-85.4348	-68.0996	6.54142	30.2446	0.826798	1.49759	-54.3596	50.0877	47.6839	5.10884	-123.019	-10.4041	75.0323	-4.37097	-12.765	2.10398	-44.522	-136.74	-72.1623	-2.24092	-109.18	33.238	47.4473	11.8509	-1.67034	129.168	-28.4855	-17.5645	-6.4079	5.77788	10.0284	-3.25015	-2.33531	73.6768	116.132	100.966	57.7746	85.0472	117.077	9.11788	22.5774	75.6074	-6.17493	-4.73937	4.84285	20.6097	-3.55103	-3.23628	-229.457	-15.5288	208.13	26.4724	0.257549	-0.457777	-57.3372	37.3602	49.255	137.408	66.9974	
3.315	55.1719	73.9367	-5.18707	-36.3444	57.5962	-9.92463	-85.17	43.3757	-0.653711	-0.256043	0.0223076	-0.0188952	61.8528	81.3062	-43.6621	-192.378	-83.7658	-528.385	-272.543	-207.05	-85.4516	-87.283	-72.9938	7.53292	29.8896	0.0821233	0.0332712	-63.6528	49.1651	26.7557	4.96305	-77.9319	-3.87649	-0.59854	-5.93291	-0.902798	0.0685766	-47.6299	-152.818	-80.2441	-2.1445	-77.5436	36.4958	51.0424	16.0021	-1.62442	142.395	-28.2635	-17.1329	-6.11426	5.85522	9.48536	5.61389	-2.3307	75.4923	115.9	102.467	47.5257	81.3509	89.7373	5.99433	19.1763	71.3739	-4.10597	-6.9289	4.67345	19.7003	-3.17271	-3.23317	-254.536	-15.4302	223.433	30.6886	0.113816	-0.456988	-55.5844	35.2474	38.6334	117.373	55.9666	
3.32	57.3355	76.7635	-0.330923	-31.2711	64.8233	-9.90637	-60.4782	47.494	3.88593	2.08476	-0.295949	-1.25571	42.3405	52.909	-40.8596	-197.405	-78.3478	-532.439	-283.491	-223.316	-78.7687	-88.2319	-77.6779	8.43224	29.6826	-0.722156	-1.54869	-74.7048	48.3743	7.15579	4.83598	-35.6107	2.12032	-82.106	-7.35525	11.995	-2.12932	-42.5801	-166.765	-86.5543	-2.05787	-56.5955	39.9363	56.6454	19.9618	-1.58313	155.91	-28.0209	-16.5407	-5.8208	5.83942	8.94955	14.587	-2.32609	76.2846	115.573	102.47	36.2892	76.2093	103.478	2.67602	15.3652	65.7812	-1.79389	-6.21854	4.47121	18.6627	-2.44221	-3.23119	-276.074	-15.1543	237.928	34.1485	-0.00829462	-0.456078	-53.2428	32.9658	30.7036	96.05	44.3371	
3.325	59.0186	79.1216	3.86172	-26.7477	70.9665	-9.88797	-38.9164	51.134	8.72217	4.57083	-0.64776	-2.58898	20.9953	21.9946	-38.4692	-203.096	-74.638	-529.464	-293.283	-239.544	-78.2321	-82.9206	-81.7467	9.20634	29.6717	-1.58412	-3.23893	-87.1707	47.6898	-10.4409	4.70955	1.95278	7.3118	-170.644	-8.60819	25.6291	-4.52022	-36.9209	-172.281	-83.8915	-1.97982	-42.981	41.8819	58.6237	23.5089	-1.54608	166.667	-27.7566	-15.8167	-5.51377	5.73242	8.36445	23.5442	-2.32149	75.3778	113.29	100.955	24.4513	69.8105	103.557	-0.671928	11.2741	58.9824	0.685023	-5.06113	4.23839	17.5238	-1.80052	-5.75495	-293.775	-14.6684	252.996	36.8308	-0.105309	-0.455164	-50.2418	30.5721	21.8092	73.4043	31.7924	
3.33	60.1989	80.9861	7.32575	-22.8605	75.7724	-9.86937	-21.2743	54.261	13.7462	7.14597	-1.04334	-4.02696	-2.23534	-11.2118	-36.4269	-195.813	-72.6358	-525.466	-301.292	-254.715	-77.4629	-81.9121	-85.1927	9.83244	29.8063	-2.50595	-5.03181	-98.8301	47.0637	-25.2119	4.55017	33.0626	11.5078	-268.039	-9.65698	39.6237	-7.13705	-32.3125	-147.226	-69.931	-1.90942	-33.702	42.8737	58.6785	26.5672	-1.51295	173.375	-27.4698	-14.9786	-5.15999	5.5411	7.79008	32.3407	-2.3169	73.6521	109.871	97.4979	12.4537	62.4159	98.6924	-1.23286	7.06026	51.2905	3.19046	-7.75005	3.98234	16.3094	-1.3375	-16.1897	-307.133	-13.5653	261.247	38.7443	-0.17271	-0.454294	-46.3317	28.1217	11.2866	49.7664	16.8623	
3.335	60.8254	82.3235	10.0035	-19.6789	79.1705	91.6013	-8.2501	56.4693	18.8272	9.74181	-1.49406	-5.58104	-27.4023	-47.3572	-34.6822	-165.154	-72.2764	-518.054	-307.735	-252.79	-77.3441	-81.8208	-86.9331	10.3251	30.0458	-3.48585	-6.92187	-108.437	46.4323	-36.1389	4.41339	56.2132	14.529	-376.191	-10.4622	53.5282	-10.0195	-28.633	-126.177	-60.4384	-1.84587	-26.9986	43.3138	59.0442	29.2083	-1.48343	176.538	-27.1602	-14.044	-4.82188	5.29147	7.21951	40.8504	-2.31232	71.0318	105.444	93.0106	1.15417	54.3453	96.4464	-1.13274	2.89454	43.0588	5.60115	-6.95574	3.71041	15.0476	-1.0383	-7.32248	-316.009	-11.0691	261.561	39.9972	-0.205759	-0.453445	-42.4927	25.6608	0.32317	25.8511	1.19139	
3.34	60.5614	82.9981	11.8478	-17.233	81.0399	130.55	-0.18222	57.8587	23.7649	12.2574	-2.00917	-7.2722	-54.3868	-86.6906	-33.1946	-141.393	-73.3721	-505.632	-313.044	-195.654	-76.1251	-82.0884	-87.9802	10.6327	30.326	-4.52069	-8.89295	-116.18	45.6682	-41.8276	4.26691	70.6879	16.3114	-497.421	-10.9867	66.8805	-13.1926	-25.6185	-109.362	-52.8508	-1.78848	-22.0356	42.7692	59.2393	31.1162	-1.45731	173.456	-26.8283	-13.0285	-4.45732	4.98269	6.62602	48.9205	-2.30775	67.5125	99.9944	87.5378	-7.27994	45.5692	92.9249	-1.27031	-1.05842	34.6028	7.81929	-5.60477	3.42406	13.7573	-1.08391	-4.22786	-319.833	-8.63588	256.794	40.6729	-0.204227	-0.452603	-39.792	23.2227	-10.0978	3.34828	-14.0686	
3.345	59.5546	82.9454	12.8541	-15.5575	81.4253	81.3555	2.42231	58.0151	28.3217	14.5724	-2.59552	-9.1021	-83.2022	-129.322	-31.9317	-122.834	-75.8087	-489.05	-315.705	-155.438	-73.7568	-82.0275	-88.9991	10.7269	30.6313	-5.60228	-10.9305	-123.065	44.7507	-39.5904	4.10942	75.3396	16.6757	-633.781	-11.1986	79.5777	-16.6674	-23.1001	-96.1665	-46.8304	-1.73669	-18.3201	41.3106	57.3761	31.7903	-1.43438	167.647	-26.4754	-11.9642	-4.08874	4.63405	6.02304	56.4714	-2.30318	63.3279	93.5764	81.2344	-15.7914	36.9889	86.525	-1.11305	-4.63169	25.9071	9.69878	-5.82741	3.12905	12.4614	-1.09058	-3.33239	-319.077	-8.4974	249.6	40.9201	-0.173566	-0.451762	-36.3859	20.8397	-19.6785	-302.364	-28.4044	
3.35	57.8484	82.0084	13.0093	-14.6328	80.2344	95.617	-0.429472	57.0248	32.2622	16.5666	-3.25151	-10.9908	-113.484	-229.766	-30.8673	-108.373	-79.3007	-468.359	-314.6	-126.832	-70.4067	-80.3035	-88.8432	10.5924	30.8888	-6.71649	-13.0038	-127.14	43.6142	-35.0487	3.94162	70.273	15.693	-786.644	-11.0727	91.3554	-20.4278	-20.9703	-85.4152	-41.85	-1.69001	-15.5079	39.0533	52.8273	31.3718	-1.41446	162.023	-26.1038	-10.862	-3.69902	4.26728	5.43063	63.7109	-2.29863	58.5767	86.4317	74.2482	-22.957	30.5496	79.8878	-2.16471	-7.68491	17.9384	11.1499	-6.04694	2.83117	11.1724	-0.96983	-5.08935	-313.523	-8.41645	240.171	40.8076	-0.122947	-0.45092	-29.852	18.5296	-28.4763	-275.439	-41.7173	
3.355	55.487	80.1821	12.3462	-14.4423	77.5703	91.6138	-8.7766	54.6287	35.4456	18.1728	-3.97185	-13.0059	-144.826	-291.039	-29.9806	-96.6869	-83.6706	-445.922	-310.399	-106.565	-66.0278	-77.6764	-87.4451	10.2148	31.0853	-7.84205	-15.0779	-104.298	42.3146	-32.0903	3.75958	55.4004	13.3181	-954.154	-10.5887	101.317	-24.4277	-19.1555	-76.5043	-37.6838	-1.64802	-13.3458	36.2992	48.4161	30.5072	-1.3974	156.606	-25.7163	-9.73974	-3.32658	3.91603	4.86791	70.9687	-2.29409	53.4608	78.9947	66.8398	-28.4721	25.1852	73.1593	-1.75107	-10.107	11.1168	12.2755	-5.28219	2.53482	9.90411	-0.845564	-8.91597	-304.045	-6.74752	224.536	40.4727	-0.0626473	-0.450078	-25.5124	16.3078	-36.6444	-258.66	-54.115	
3.36	52.5348	77.48	10.8913	-14.9421	73.4817	85.6486	-22.4902	50.8944	37.8043	19.3622	-4.74198	-15.1168	-176.631	-337.451	-29.2549	-87.0908	-88.6604	-420.065	-302.949	-91.2339	-61.4219	-73.6376	-85.1177	9.6112	31.1889	-8.95328	-17.1009	-75.357	41.0423	-29.6483	3.56272	31.032	9.60885	-1107.52	-9.74027	108.457	-28.5828	-17.5996	-69.0222	-34.1617	-1.61034	-11.6504	33.3495	45.0402	29.2806	-1.38307	150.963	-3.53704	-8.60896	-2.92714	3.55254	4.32874	78.4274	-2.28955	48.1109	71.2306	59.2072	-32.2758	19.5838	70.43	-1.34201	-11.8168	5.43656	13.1721	-4.3057	2.24011	8.66393	-0.751393	-8.40015	-291.228	-4.92135	204.79	40.0052	-0.00116773	-0.449237	-21.9681	14.1796	-44.3408	-251.509	-65.7322	
3.365	49.2966	73.8395	8.70839	-16.0737	68.1015	79.2775	-41.2851	45.6544	39.3084	20.1217	-5.53907	-17.1614	-207.871	-398.599	-28.6773	-79.1152	-94.0162	-389.799	-292.465	-79.2606	-56.2451	-69.0917	-82.4917	8.80573	31.1677	-10.0149	-19.0096	-56.486	39.5535	-27.6105	3.35147	-2.21577	4.66329	-1212.39	-8.52887	112.662	-32.7666	-16.2579	-62.6915	-31.1652	-1.57667	-10.2935	30.2705	41.3704	27.7618	-1.37141	145.096	25.502	-7.47781	-2.54817	3.24106	3.79897	86.0361	-2.28503	42.6565	63.2902	51.5523	-34.272	14.6555	62.7772	-2.06241	-12.7696	0.956566	13.8566	-4.1543	1.94885	7.45741	-0.689178	-7.93721	-276.029	-3.21723	185.864	39.4689	0.0555703	-0.448397	-18.4308	12.1502	-51.6644	-254.147	-76.7351	
3.37	46.0433	69.5602	5.86695	-17.7596	61.5548	72.3334	-64.8184	38.9432	39.9979	20.476	-6.33328	-19.1914	-236.822	-462.381	-28.2376	-72.4386	-99.3548	-356.543	-279.077	-69.6889	-50.4677	-63.92	-78.3706	7.82091	31.0309	-10.9815	-20.7344	-44.2723	37.9135	-25.8604	3.12453	-43.6568	-1.422	-1310.76	-6.95679	114.38	-36.805	-15.0944	-57.2979	-28.5991	-1.54671	-9.18667	27.4519	33.7306	24.6549	-1.36227	139.281	29.5947	-6.35509	-2.16044	2.91136	3.27881	93.4437	-2.28051	37.2077	55.3528	43.9836	-34.4448	10.6246	53.1676	-2.52306	-12.9648	-2.25836	14.3284	-4.38056	1.66182	6.29098	-0.650356	-7.82139	-259.48	-1.42939	169.275	38.8773	0.102518	-0.447558	-15.1605	10.2165	-58.6728	-257.17	-87.2754	
3.375	42.5056	64.7595	2.45404	-19.9166	54.0117	64.802	-92.6677	30.7895	39.9782	20.4891	-7.08661	-21.0749	-261.352	-520.875	-27.9287	-66.8139	-97.8597	-320.721	-262.762	-61.9406	-44.2155	-57.9239	-73.0125	6.67547	30.7642	-11.8028	-22.1965	-35.9923	36.1544	-24.3562	2.88166	-92.5597	-8.50362	-1420.79	-5.03402	113.877	-40.427	-14.0804	-52.6725	-26.3879	-1.52025	-8.26917	22.1171	25.6923	20.2339	-1.35564	133.59	30.4255	-5.2489	-1.77317	2.53429	2.77343	100.151	-2.276	31.8453	47.4364	36.5993	-32.8821	7.43435	36.9867	-2.72083	-12.4435	-4.239	14.6015	-6.16417	1.38109	5.1673	-0.62686	-7.77918	-242.609	0.374124	154.962	38.1358	0.133093	-0.44672	-12.2069	8.37886	-65.5115	-266.984	-97.6633	
3.38	38.7407	59.4006	-1.42604	-22.4384	45.6489	56.8878	-124.368	21.2317	39.4055	20.247	-7.74646	-22.7347	-282.104	-557.868	-27.7455	-62.0495	-84.9611	-282.661	-243.752	-55.6	-37.5564	-51.2772	-66.8097	5.39368	30.3766	-12.4335	-23.3093	-29.9664	34.2803	-23.062	2.62046	-148.12	-16.392	-1510.05	-2.77945	111.62	-43.3465	-13.1927	-48.6809	-24.4712	-1.49707	-7.49819	16.8888	19.4831	15.9023	-1.35147	127.597	36.8307	-4.16649	-1.3946	2.16284	2.29737	105.777	-2.2715	26.627	39.6216	29.4743	-29.7438	5.05861	21.3399	-2.17834	-11.2774	-5.12384	14.6852	-6.69337	1.11024	4.08751	-0.612758	-4.45031	-226.344	2.10469	148.054	37.2225	0.137325	-0.445883	-9.46032	6.63784	-72.3861	-277.01	-108.313	
3.385	34.7561	53.5638	-5.65528	-25.2155	36.6685	48.7152	-159.423	10.3976	38.3913	19.7313	-8.26212	-24.0507	-305.529	-566.501	-27.6845	-57.9951	-74.5751	-242.947	-222.39	-50.3598	-30.5791	-44.0907	-59.8921	3.9976	29.9413	-12.8302	-23.9668	-25.4015	32.3126	-21.9501	2.33749	-209.552	-25.1416	-1541.72	-0.224472	108.251	-45.3146	-12.4124	-45.2166	-22.8011	-1.477	-6.84301	12.5481	14.1417	11.434	-1.34969	120.562	42.5907	-3.11751	-1.02817	1.88691	1.8439	109.945	-2.26701	21.587	31.965	22.7458	-25.2639	3.46059	8.19709	-1.74273	-9.63969	-5.16753	14.5812	-6.77328	0.84647	3.05913	-0.604239	-3.47643	-209.661	3.72543	147.615	36.1178	0.106356	-0.445047	-6.88064	4.99049	-79.2175	-263.454	-119.041	
3.39	30.5444	47.4281	-10.1062	-28.1142	27.2647	40.4115	-197.268	-1.55478	36.6556	18.6052	-8.58477	-24.9483	-328.503	-570.657	-27.678	-54.5335	-66.1873	-202.015	-199.112	-45.9895	-23.3777	-36.5032	-52.4406	2.50785	29.4132	-12.9617	-24.0857	-21.861	30.2661	-20.5332	2.02701	-275.817	-34.5692	-1542.68	2.58508	103.02	-46.1654	-11.7243	-42.1947	-21.3391	-1.4599	-6.28097	8.33994	9.25936	7.14248	-1.3496	112.603	46.4968	-2.11233	-0.677047	1.70805	1.41304	112.353	-2.26253	16.7154	24.477	16.4484	-19.7225	2.54523	-0.196222	-2.38742	-7.76308	-4.67638	14.2862	-6.61668	0.595212	2.08587	-0.598958	-3.23359	-191.761	5.21148	151.03	34.7767	0.0290029	-0.444212	-4.48147	3.44423	-85.5214	-255.071	-128.883	
3.395	26.1477	41.1698	-14.6385	-30.9821	17.6617	32.1005	-237.213	-14.4068	33.6596	16.8449	-8.68184	-25.3208	-341.805	-576.079	-27.663	-51.5716	-59.4719	-160.213	-174.324	-42.316	-16.0455	-28.6548	-44.5554	0.942737	28.7783	-12.8066	-23.6343	-19.0694	28.1473	34.1971	1.68219	-345.42	-44.5102	-1580.19	5.58483	93.6305	-45.8806	-11.1157	-39.5471	-20.054	-1.44563	-5.79496	4.36839	4.8729	3.06774	-1.34984	103.912	49.6353	-1.16464	-0.346049	1.32309	1.0092	112.86	-2.25806	11.9976	17.1443	10.1797	-13.4303	2.17252	-4.71139	-2.77322	-5.14069	-3.63233	13.7917	-6.36487	0.359865	1.17532	-0.595516	-3.2089	-185.162	6.54352	160.419	33.1389	-0.104727	-0.443378	-2.26784	2.00503	-90.7733	-251.984	-136.893	
3.4	21.4964	34.8915	-19.1112	-33.6677	8.05415	23.898	-278.471	-27.9358	29.9044	14.9467	-8.53807	-25.0963	-345.136	-573.46	-27.6479	-49.0361	-53.9276	-118.057	-148.663	-39.2082	-8.68946	-20.6834	-36.4212	-0.681562	28.0333	-12.3636	-22.6258	-16.8356	25.9767	117.122	1.2948	-417.362	-54.8355	-1559.83	8.69092	82.5623	-44.4864	-10.5762	-37.2184	-18.9205	-1.43411	-5.37185	0.722636	0.962247	-0.702124	-1.34966	94.5054	52.0064	-0.290745	-0.0420567	1.31256	0.639215	111.493	-2.2536	7.43478	9.99996	4.05791	-6.71537	2.1807	-9.31286	-2.85602	-2.39978	-1.60125	13.1017	-7.19532	0.144869	0.340907	-0.593114	-3.20432	-176.935	7.71026	181.386	31.2111	-0.30284	-0.442545	-0.257818	0.687712	-95.7221	-252.656	-143.415	
3.405	16.5236	28.6818	-23.3761	-36.0118	-1.33253	15.9074	-319.799	-41.8941	26.1032	13.0361	-8.16323	-24.2253	-342.061	-559.51	-27.6325	-46.8682	-49.2944	-76.0034	-122.643	-36.5656	-1.42678	-12.742	-28.2272	-2.35015	27.1604	-11.6435	-21.116	-15.0237	23.7482	184.983	0.856457	-492.884	-65.3896	-1467.83	11.8039	71.6606	-42.134	-10.0972	-35.1634	-17.9176	-1.42524	-5.00135	-2.67494	-2.6082	-3.58839	-1.34924	84.4403	53.3392	0.489978	0.226951	0.90698	0.308677	108.475	-2.24915	3.01872	3.06123	-1.84947	0.0978696	2.40047	-7.83504	-2.38163	0.328608	1.25776	12.221	-8.74073	-0.049097	-0.403468	-0.591318	-3.20246	-167.857	8.70791	236.641	28.9423	-0.575077	-0.441713	1.52017	-0.488956	-102.588	-258.769	-154.291	
3.41	11.925	22.6059	-27.2932	-37.8499	-10.3201	8.23036	-358.92	-56.0792	22.3348	11.1195	-7.57429	-22.7007	-336.934	-534.692	-27.6174	-45.0206	-45.3871	-34.5393	-96.6452	-34.3101	5.62138	-4.98003	-20.1556	-4.04893	26.1255	-10.6725	-19.1827	-13.5356	21.4756	231.451	0.359646	-576.762	-76.0979	-1333.99	14.8052	60.8502	-38.9001	-9.67129	-33.3448	-17.028	-1.41898	-4.67523	-9.23658	-9.94083	-2.42757	-1.3488	74.0503	52.9006	1.15494	0.452999	0.689257	0.0238716	104.258	-2.2447	-1.26207	-3.6672	-7.55227	6.70069	2.66547	-4.08663	-1.74316	3.02727	4.18429	11.1746	-13.544	-0.21235	-1.03929	-0.589694	-3.19999	-159.065	9.54029	273.492	26.3686	-0.928834	-0.440882	3.02006	-1.49873	-110.014	-270.607	-167.107	
3.415	7.43649	16.7265	-30.7295	-39.0002	-18.714	0.955293	-384.108	-70.3046	18.6243	9.25056	-6.80061	-20.5458	-330.479	-501.763	-27.6024	-43.4554	-42.0756	5.79455	-71.0339	-32.3801	12.3272	2.4476	-12.377	-5.76368	24.9309	-9.48558	-16.8996	-12.3008	19.1439	264.466	-0.201103	-668.717	-87.0148	-1183.48	17.5648	50.3586	-34.8327	-9.29239	-31.7317	-16.2375	-1.41528	-4.38692	-12.0798	-14.0883	-1.94007	-1.34836	63.4007	50.8582	1.68035	0.62684	0.620475	-0.205798	99.0264	-2.24027	-5.41623	-10.1877	-13.079	12.8183	2.82402	-2.65836	-4.49794	5.55445	6.74228	10.0037	-15.7111	-0.340141	-1.54447	-0.588395	-3.19828	-148.433	10.2136	232.592	23.6284	-1.37246	-0.440052	4.19182	-2.30983	-116.596	-286.446	-178.6	
3.42	3.17098	11.0934	-33.5715	-39.2123	-26.3653	-5.81807	-333.985	-84.448	15.0572	7.46698	-5.87976	-17.8082	-320.94	-466.407	-27.5877	-42.1418	-39.257	44.5127	-46.2318	-30.7267	18.5817	9.40153	-5.03307	-7.47858	23.5008	-8.12352	-14.3524	-11.2671	16.725	291.25	-0.828747	-758.372	-97.7861	-1023.04	19.943	40.4643	-30.0249	-8.95534	-30.2983	-15.5338	-1.41401	-4.13103	-13.9224	-16.0748	-1.62779	-1.34793	52.4696	48.4892	2.04005	0.740246	0.434269	-0.368822	93.1128	-2.23584	-9.44694	-16.4766	-18.3985	18.2052	-24.534	-3.30137	-3.44435	7.80435	8.85408	8.75086	-14.0219	-0.424427	-1.89647	-0.587127	-17.4737	-134.948	10.7373	201.421	20.7178	-1.90864	-0.439224	4.97585	-2.88711	-121.393	-304.134	-186.979	
3.425	-0.825842	5.73749	-35.7124	-37.8881	-33.1342	-11.7433	-261.778	-98.5467	11.675	5.78105	-4.84119	-14.6217	-302.118	-479.613	-27.573	-41.0554	-36.8499	81.1563	-22.6698	-29.311	24.2746	15.7707	1.7496	-9.17552	21.8828	-6.63212	-11.6279	-10.3956	14.2854	314.554	-1.5223	-837.666	-108.217	-851.036	21.819	31.1679	-24.6351	-8.65575	344.86	132.297	-1.41415	-3.90312	-15.8105	-17.7053	-1.47794	-1.34749	41.3468	45.5307	2.20945	0.784381	0.369724	-0.455462	86.866	-2.23142	-13.3542	-22.4992	-23.4609	22.6726	-21.6251	-5.25658	-2.31513	9.70131	10.4672	7.45492	-11.1392	-0.463273	-2.06951	-0.585913	-7.79128	-118.4	11.1246	177.331	17.5621	-2.5318	-0.438396	-4.76586	-3.1954	-124.146	-321.333	-192.053	
3.43	-4.52834	0.684073	-37.0843	-32.5297	-38.9229	-10.9751	-210.602	-112.451	8.48345	4.19932	-3.71788	-11.1425	-246.982	-578.756	-27.5584	-40.1767	-34.7891	115.352	-0.643438	-28.1016	29.3161	21.4691	7.87216	-10.834	19.955	-5.05834	-8.7948	-9.65652	11.7343	334.94	-2.27675	-904.791	-118.011	-669.394	23.1385	22.4884	-18.8356	131.579	520.07	277.857	-1.4143	-3.69951	-17.7836	-19.4384	-1.39323	-1.34706	30.1921	42.0226	2.16425	0.752301	0.196551	-0.462331	80.5663	-2.22702	-17.1342	-28.215	-28.2107	26.0715	-7.96915	-7.95808	-2.38573	11.1868	11.48	6.15061	-20.5359	-0.466872	-2.04179	-0.584744	-4.35426	-96.5668	11.3878	148.102	14.1908	-3.22476	-0.437569	-2.49658	-3.21285	-124.755	-334.733	-193.06	
3.435	-7.92156	-4.05928	-37.6317	-28.4172	-43.6597	-10.9938	-174.393	-126.395	5.48068	2.69651	-2.54484	-7.51503	-186.904	-579.432	-27.544	-39.4907	-33.0227	146.836	19.7137	-27.0732	33.6538	26.4447	13.3006	-12.4234	17.7884	-3.44742	-5.91975	-9.02696	9.08389	351.659	-3.08348	-964.424	-126.795	-482.148	23.9689	14.445	-12.8077	190.374	503.723	270.132	-1.41401	-3.51713	-19.699	-21.2519	-1.34722	-1.34662	19.0515	38.0636	1.88545	0.636531	0.206113	-0.375658	74.2978	-2.22262	-20.7783	-33.599	-32.82	28.3062	-8.45207	-11.1434	-1.76999	12.218	11.824	4.85432	-18.7404	-0.413148	-1.79045	-0.583586	-3.31848	-69.5451	11.5398	114.062	10.6515	-3.96189	-0.436743	0.536519	-2.88654	-123.159	-340.612	-189.192	
3.44	-11.0033	-8.4958	-37.3243	-25.0735	-47.3089	-10.9419	-147.901	-140.355	2.65137	1.29155	-1.36001	-3.86164	-146.046	-557.898	-27.5297	-38.986	-31.5092	175.452	38.3976	-26.2053	37.2612	30.6795	18.0324	-13.9834	15.2737	-1.84098	-3.07011	-8.48882	6.34479	361.973	-3.93083	-1020.61	-134.295	-292.537	24.3698	6.81691	-6.73196	178.633	504.969	266.006	-1.41355	-3.35337	-21.4989	-23.0819	-1.32112	-1.34619	7.79931	33.8224	1.35741	0.432962	0.243273	-0.177087	68.1676	-2.21823	-24.2737	-38.6282	-37.2415	29.3326	-8.02188	-14.7052	-1.31688	12.7756	11.4812	3.57799	-14.9458	-0.28473	-1.2986	-0.58239	-60.3278	-40.335	11.5934	79.2562	6.95881	-4.72309	-0.435918	3.2523	-2.17232	-118.961	-337.45	-181.256	
3.445	-13.7819	-12.6438	-36.1615	-22.3788	-49.8647	-10.9489	-127.53	-154.511	-0.0159418	-0.0298017	-0.198464	-0.291188	-117.928	-540.161	-27.5154	-38.6546	-30.2155	201.195	55.5467	-25.4817	40.1519	34.1991	22.1252	-15.45	12.4667	-0.277591	-0.306811	-8.02806	3.48326	362.881	-4.80421	-1058.1	-140.988	-102.998	24.2783	-0.323295	-0.786724	175.415	528.729	278.766	-1.41309	-3.20605	-23.1582	-24.8717	-1.30662	-1.34576	-3.44542	29.781	0.572327	0.138935	0.605974	0.146749	62.322	-2.21385	-27.5915	-43.2459	-41.3301	29.1513	-6.25132	-18.5198	-4.69083	12.8576	10.4767	2.34114	-23.9494	-0.0737906	-0.556673	-0.581234	-30.2216	-10.2474	11.5595	44.5443	3.22716	-5.50526	-0.435091	4.52645	-1.04781	-111.666	-326.359	-170.807	
3.45	-16.2777	-16.5301	-34.1559	-20.1388	-51.3546	-10.9455	-111.416	-169.155	-2.53385	-1.28063	0.907968	3.10323	-97.79	-527.658	-27.5013	-38.4917	-29.1147	224.196	71.4037	-24.8894	42.3693	37.0628	25.6622	-16.7075	9.29917	1.20937	2.31632	-7.63313	0.480975	354.336	-5.68842	-913.923	-147.128	84.5172	23.6057	-7.06089	4.86621	181.102	537.807	285.867	-1.41263	-3.07331	-24.6345	-26.5615	-1.29856	-1.34533	-14.5891	25.9	-0.468317	-0.245078	1.3116	0.605188	56.8702	-2.20947	-30.6753	-47.4276	-45.0807	27.8069	-4.31544	-22.3957	-3.63484	12.4812	8.86175	1.16392	-21.6725	0.224793	0.43557	-0.580143	-11.7341	17.8459	11.4469	9.97163	-0.469215	-6.3247	-0.434271	2.89441	0.502062	-102.398	-310.334	-159.801	
3.455	-18.5205	-20.1955	-31.3327	-18.256	-51.8252	-10.9416	-98.443	-184.578	-4.91319	-2.46275	1.93221	6.24295	-82.6153	-518.046	-27.4872	-38.469	-28.1853	244.722	86.2813	-24.4179	43.9813	39.3583	28.7597	-17.8631	5.79834	2.59133	4.75469	-7.29507	-2.67396	341.042	-6.57036	-664.671	-151.131	265.047	22.3481	-13.4707	10.0959	184.778	535.11	286.231	-1.41218	-2.95356	-25.8876	-28.1131	-1.29408	-1.3449	-25.6901	22.2146	-1.75657	-0.716508	2.25306	1.20212	52.0879	-2.20511	-33.485	-51.1648	-48.4828	25.3826	-4.17972	-26.3432	-2.44003	11.6797	6.71127	0.064722	-17.3137	0.620355	1.66743	-0.579005	-4.63765	45.4335	11.2655	-23.9516	-4.03726	-7.21395	-0.433449	-1.62927	2.47411	-92.7619	-272.942	-148.766	
3.46	-20.3436	-23.6846	-27.731	-16.6578	-51.3414	-10.935	-87.8797	-200.935	-7.16191	-3.58869	2.85279	9.05941	-70.8386	-509.908	-27.4733	-38.4523	-27.4098	263.03	100.571	-24.0596	45.0856	41.1947	31.5562	-18.873	1.97125	3.84515	6.97392	-7.00651	-5.99799	327.367	-7.43459	-500.468	-152.31	432.691	20.6326	-19.5415	14.7913	186.421	535.03	288.05	-1.41172	-2.84542	-26.8809	-29.4916	-1.29152	-1.34447	-36.8818	18.7668	-3.27212	-1.26874	4.36323	1.90944	48.1647	-2.20076	-35.9893	-54.4468	-51.4948	21.9975	-4.12457	-30.3192	-1.59763	10.496	4.11584	-0.940117	-24.4421	1.07375	3.11572	-0.577801	-3.35566	71.9653	11.024	-56.2043	-7.40598	-8.2209	-0.432629	-6.8311	4.81552	-83.4701	-225.365	-137.619	
3.465	-21.8998	-27.0558	-23.3859	-15.2928	-49.9646	-10.9279	-79.1894	-215.783	-9.2841	-4.64507	3.65485	11.4978	-61.5144	-502.298	-27.4594	-38.4319	-26.7743	279.478	114.683	-23.8087	45.7991	42.6866	34.1914	-19.6853	-2.16297	4.95385	8.94658	-6.76161	-9.51061	311.208	-8.26841	-392.805	-150.908	582.302	18.5942	-25.2962	18.8831	187.952	537.245	291.422	-1.41127	-2.74773	-27.5922	-30.6692	-1.28997	-1.34404	-47.991	15.5815	-4.98688	-1.89345	12.0174	2.72678	45.0825	-2.19641	-38.1596	-57.2824	-54.0748	17.7869	-3.03283	-34.1376	10.2488	8.9872	1.17729	-1.83761	-21.7799	1.64008	4.74548	-0.576647	-3.17822	96.9061	10.7294	-86.0445	-10.4869	-9.41041	-0.431809	-11.612	7.56517	-74.5307	-180.755	-126.349	
3.47	-23.3921	-30.3503	-18.3367	-14.1199	-47.7872	-10.9207	-71.9717	-228.578	-11.2818	-5.63664	4.32888	13.515	-54.0272	-493.723	-27.4456	-38.4108	-26.2678	294.454	129.023	-23.6613	46.2143	43.9525	36.7972	-20.2706	-6.57072	5.90512	10.6544	-6.55562	-13.2364	283.182	-9.0614	-319.946	-146.903	711.79	16.3367	-30.8106	22.3247	184.27	522.492	285.436	-1.41081	-2.65948	-28.0086	-31.6125	-1.28895	-1.34362	-58.3516	12.6675	-45.3205	-7.99093	25.6584	3.59404	42.769	-2.19207	-39.97	-59.614	-56.1917	12.9066	-4.85616	-37.5372	13.2877	7.21326	-1.99605	-2.61465	-17.2633	2.21639	6.50553	-0.575506	-3.17908	119.789	10.3882	-112.731	-13.2371	-10.8642	-0.430991	-16.1579	10.5378	-65.8917	-134.716	-115.08	
3.475	-24.7594	-33.6159	-12.62	-13.1065	-44.855	-10.9136	-65.9253	-238.999	-13.1419	-6.57084	4.87217	15.0846	-47.9376	-481.947	-27.4317	-38.39	-25.8822	308.457	143.941	-23.614	46.3014	45.1098	39.4948	-20.601	-11.209	6.69193	12.0914	-6.38471	-17.1794	243.872	-9.78232	-266.868	-140.524	821.739	13.9057	-36.0242	25.1024	173.79	486.725	267.973	-1.41036	-2.57979	-28.1301	-32.296	-1.28821	-1.34319	-67.5226	10.0137	-35.0844	-5.26712	2.07326	4.47042	41.1346	-2.18775	-41.4003	-61.4504	-57.8269	7.52184	-2.27288	-40.2817	6.21986	5.23885	-5.29154	-3.25857	-24.0534	2.77003	8.33397	-0.574343	-3.16745	140.227	10.0065	-136.098	-15.6293	-12.6774	-0.430173	-20.8631	13.5452	-57.6339	-84.4466	-103.948	
3.48	-26.096	-36.8981	-6.26201	-12.2264	-41.2473	-10.9064	-60.8232	-245.691	-14.859	-7.43302	5.28513	16.2037	-42.9258	-458.471	-27.418	-38.3695	-25.6111	321.918	159.724	-23.6089	46.0203	46.2609	42.3819	-20.6484	-16.0237	7.31388	13.2485	-6.24587	-21.3199	202.099	-10.282	-226.618	-131.9	913.353	11.3356	-40.8438	27.2218	159.814	441.08	245.179	-1.40991	-2.5079	-27.3657	-31.9161	-1.28763	-1.34276	-75.3428	7.60543	-24.073	-3.7157	-1.75487	5.32912	40.0494	-2.18343	-42.4385	-62.8036	-58.9684	1.78898	-47.7603	-42.3956	6.78279	3.12754	-8.55787	-3.75807	-21.3643	3.30372	10.1593	-0.573236	-3.15616	157.608	9.59415	-155.958	-17.6389	-14.9574	-0.429357	-25.2333	16.4376	-49.9164	-148.981	-93.1183	
3.485	-27.4417	-40.2004	0.713439	-3.62085	-36.9715	-10.8992	-56.4922	-247.625	-16.4191	-8.21922	5.57234	16.8924	-38.7565	-406.106	-27.4045	-38.3491	-25.4506	334.834	176.524	-23.5965	45.5782	47.4457	45.511	-20.4101	-20.9595	7.77045	14.1318	-6.13673	-25.7595	162.929	-10.7953	-195.321	-120.902	986.498	8.66364	-45.3241	28.7131	145.579	395.244	222.378	-1.40946	-2.44313	-26.9265	-31.8743	-1.28712	-1.34234	-81.7819	5.45663	-9.14782	-2.06979	2.2248	6.13935	39.3458	-2.17912	-43.0889	-63.6918	-59.6233	-4.13264	-31.0056	-44.3624	4.92826	0.941216	-11.5358	-4.10654	-16.8842	3.80815	11.903	-0.572103	-3.14918	171.522	9.15998	-172.088	-19.2813	-17.8176	-0.428541	-29.4993	19.0613	-42.8535	-101.94	-82.7357	
3.49	-28.8286	-43.5734	8.27919	32.3385	-32.0725	-10.8918	-52.7986	-245.417	-17.8005	-8.91729	5.73977	17.2029	-35.2551	-314.499	-27.3909	-38.329	-25.3973	346.963	194.38	-23.5838	45.0023	48.5627	48.8955	-19.9466	-26.002	8.07057	14.7415	-6.0555	-30.3835	125.458	-11.2439	-170.589	-107.574	1039.08	5.90417	-49.3427	29.6265	130.944	348.846	199.134	-1.40901	-2.38496	-26.5176	-32.0526	-1.28665	-1.34192	-86.7691	3.5822	28.1385	-1.71317	1.87327	6.85486	38.8405	-2.17482	-43.3635	-64.1314	-59.8105	-10.1001	-34.8974	-45.9886	2.95102	-1.26551	-13.4028	-4.30073	-17.8783	4.26076	13.4836	-0.570974	-4.6966	181.781	8.71339	-184.432	-20.5673	-21.3646	-0.427727	-33.4419	21.2677	-36.5026	-48.8641	-73.1744	
3.495	-30.2824	-47.1321	16.4127	45.6022	-26.5393	-10.8844	-49.6378	-233.129	-18.9813	-9.52067	5.79605	17.1826	-32.2907	-251	-27.3774	-38.309	-25.3921	357.946	213.18	-23.571	44.2814	49.5432	52.5024	-19.3027	-31.0633	8.22252	15.086	-6.00091	-35.2726	89.2704	-11.6439	-150.76	-92.0834	1070.2	3.06394	-52.8279	30.0171	116.455	309.234	176.049	-1.40856	-2.33286	-25.8232	-32.1054	-1.2862	-1.3415	-90.218	1.99273	21.3274	-6.01129	-5.65955	7.41563	38.3787	-2.17052	-43.2862	-64.0376	-59.5531	-15.9867	-31.8377	-47.1304	0.991715	-3.44281	-11.2279	-4.34113	-14.7856	4.45961	14.823	-0.569847	-30.4212	188.296	8.2649	-193.015	-21.5249	-25.6768	-0.426914	-36.6873	22.602	-30.8295	-23.7891	-64.8309	
3.5	-31.8282	-51.0058	25.0711	52.8108	-20.3719	-10.8769	-46.9271	-220.304	-19.9384	-10.015	5.74955	16.8807	-29.7633	-205.683	-27.3639	-38.2891	-25.3789	367.48	232.643	-23.5584	43.4121	50.4676	56.35	-18.3859	-36.1512	8.24124	15.1841	-5.97222	-40.3841	54.1802	-12.003	-134.652	-74.6696	1078.67	0.143111	-55.6989	29.9424	105.842	297.875	164.045	-1.40811	-2.28639	-24.9418	-31.993	-1.28577	-1.34107	-92.216	0.696214	-23.399	-7.57304	-6.30103	7.74369	37.7992	-2.16624	-42.8919	-63.535	-58.8862	-33.4438	-31.5698	-47.7724	-0.886734	-5.54972	-9.42498	-4.23179	-11.1404	4.22486	15.8448	-0.568723	-13.3469	191.109	7.82281	-197.911	-22.1494	-30.7773	-0.426101	-39.2024	22.5074	-25.8388	-39.4045	-57.6428	
3.505	-33.4504	-55.0732	34.2024	63.6231	-13.5583	-10.8693	-44.6001	-203.759	-20.6406	-10.3895	5.61323	16.3492	-27.5953	-172.797	-27.3505	-38.2694	-25.3654	375.142	252.313	-23.546	42.3649	51.224	60.3491	-17.171	-41.2556	8.14245	15.0565	-5.96664	-45.7046	22.8203	-12.3276	-121.409	-55.6354	1063.06	-2.86274	-57.8654	29.4585	101.342	280.755	157.014	-1.40766	-2.2452	-24.0345	-31.8506	-1.28534	-1.34065	-93.0692	-0.302482	-25.3586	-7.3144	-4.85065	7.82426	37.0091	-2.16196	-42.2271	-62.7409	-57.8306	-33.1571	-32.6464	-47.9894	-0.858037	-7.55588	-10.4021	-3.97972	-15.7496	3.82517	16.4916	-0.567603	-5.81185	190.38	7.3952	-199.016	-22.3719	-36.6045	-0.42529	-41.0058	21.8921	-21.6421	9.37443	-51.0096	
3.51	-35.1563	-59.0177	43.7163	76.2536	-6.11739	-10.8617	-42.6043	-184.471	-21.001	-10.6328	5.40309	15.6402	-25.7259	-147.661	-27.3371	-38.2498	-25.3517	380.337	271.529	-23.5336	41.2606	51.707	64.2532	-15.7107	-46.3712	7.94339	14.7259	-5.96453	-51.1965	-1.58181	-12.6243	-110.408	-35.3558	1033.44	-5.96209	-59.1722	28.6155	93.4298	255.902	144.321	-1.40722	-2.20896	-23.2708	-31.905	-1.28491	-1.34024	-92.9505	-1.00074	-19.2087	-7.76115	-3.36786	7.69857	35.8028	-2.1577	-41.3463	-61.716	-56.2983	-36.9466	-34.4577	-47.8813	-0.86538	-9.43715	-11.0636	-3.59367	-13.767	3.54076	16.7156	-0.566496	-3.48852	186.358	6.98981	-146.299	-22.1961	-43.0216	-0.42448	-42.1607	21.9025	-18.354	145.869	-44.7701	
3.515	-36.911	-62.6664	53.5008	88.1124	1.9385	-10.8539	-40.8965	-163.622	-20.9834	-10.7073	5.13293	14.8024	-24.107	-127.917	-27.3237	-38.2303	404.556	382.448	289.602	-23.5214	40.2427	51.8255	67.8112	-14.0417	-51.5351	7.66067	14.2289	-5.96139	-56.8219	-28.2522	-12.8893	-101.191	-14.2302	997.661	-9.16867	-59.2564	27.4611	84.1957	230.569	130.235	-1.40677	-2.17739	-22.4127	-32.0276	-1.28449	-1.33982	-91.8042	-1.39937	-18.5357	-8.07961	-2.151	7.3415	34.2549	-2.15344	-40.3098	-60.5177	-54.2465	-39.0645	-36.332	-47.5496	-0.976393	-11.1769	-6.38625	-3.08374	-10.6599	3.42244	16.4887	-0.56539	-3.1716	179.364	6.61262	-110.521	-21.663	-49.8296	-0.423671	-42.3895	22.1169	-16.0201	78.7158	-39.3453	
3.52	-38.5236	-65.9337	63.385	99.1177	10.5327	-10.8461	-39.4426	-142.187	-20.6418	-10.5909	4.82013	13.8757	-22.6998	-112.102	-27.3103	379.24	266.762	381.007	305.696	-23.5092	39.043	51.5429	70.8627	-12.1924	-56.8369	7.31116	13.5958	-5.95817	-62.507	-55.7901	-13.1288	-93.4142	7.24737	952.439	-12.4947	-58.2685	26.0496	76.186	208.905	118.252	-1.40633	-2.15026	-21.1764	-31.3797	-1.28406	-1.3394	-89.5094	-1.50527	-19.8071	-8.0024	-1.20949	6.75549	32.3257	-2.14919	-39.1792	-59.2182	-52.0455	-40.0876	-38.0616	-47.0933	-1.81603	-18.9031	-4.80529	-2.46017	-12.2463	3.36565	15.7968	-0.564287	-19.2343	169.784	6.26945	-101.555	-20.7973	-56.7941	-0.422864	-41.5876	21.5666	-14.5892	167.522	-35.0878	
3.525	-39.94	-68.6874	73.1768	109.597	19.5623	-10.8381	-38.2146	-120.893	-20.0639	-10.3172	4.47943	12.8951	-21.4733	-99.273	-27.297	518.765	302.906	375.63	318.97	-23.4971	37.6027	51.2627	73.3023	-10.1995	-62.3688	6.91173	12.8606	-5.95496	-68.1664	-82.0445	-13.3369	-86.8151	28.4775	893.916	-15.9286	-56.6414	24.4469	69.6409	190.917	108.477	-1.40589	-2.12737	-19.5322	-29.8537	-1.28363	-1.33898	-86.1723	-1.33172	-19.4356	-7.62654	-0.506092	6.02087	29.8551	-2.14495	-38.0137	-57.8961	-49.7568	-43.7419	-39.6027	-46.6086	-1.78785	-16.5413	-12.0081	-1.73317	-10.2339	3.25137	14.6476	-0.563185	-8.43157	158.03	5.9636	-93.648	-19.6448	-63.6757	-0.422057	-39.4106	19.9668	-13.9375	-130.641	-32.0822	
3.53	-41.0929	-70.9979	82.6312	119.384	29.0314	-10.8301	-37.1899	-100.348	-19.3276	-9.93666	4.12405	11.8942	-20.4021	-88.7477	-27.2837	388.367	341.477	365.803	329.116	405.148	35.8273	50.8318	75.01	-8.10782	-68.048	6.4768	12.0531	-5.95181	-73.5763	-107.554	-13.4849	-81.1903	48.8673	827.161	-19.4454	-54.7364	22.7172	63.2475	173.495	98.8522	-1.40544	-2.10858	-17.5837	-27.7852	-1.28321	-1.33857	-82.1734	-0.898946	-17.5548	-6.96357	0.0471069	5.16102	27.0591	-2.14072	-36.8703	-56.6198	-47.4205	-47.9706	-40.9851	-46.1858	-1.40641	-15.4851	-14.8895	-0.912923	-7.77863	3.00696	13.0554	-0.562085	-4.47143	144.548	5.69726	-83.7189	-18.2553	-70.186	-0.421251	-35.4816	17.5651	-13.9679	335.863	-30.3292	
3.535	-41.9032	-72.8575	91.4704	128.12	37.9192	-10.8219	-36.3507	-81.0814	-18.5039	-9.49049	3.76495	10.8949	-19.4655	-80.0213	-27.2704	451.808	357.69	349.967	335.569	432.181	33.6448	50.0906	75.9494	-5.95502	-73.3144	6.02013	11.2018	-6.28055	-78.6073	-133.177	-13.5275	-76.3801	67.8817	759.212	-22.9566	-52.5507	20.9197	56.4652	155.212	88.5667	-1.405	21.8636	-15.4809	-25.4875	-1.28278	-1.33815	-77.8184	-0.235953	-14.9867	-5.98956	0.524648	4.16392	23.8043	-2.1365	-35.7991	-55.4557	-45.1108	-51.5601	-42.247	-45.9064	-1.12337	-16.1473	-10.9078	-0.0108008	-22.8447	2.62399	11.0487	-0.560986	-3.27235	129.778	5.47064	-74.5604	-16.6834	-76.0557	-0.420447	-27.9469	14.6775	-14.5833	-265.037	-29.7374	
3.54	-42.3052	-74.0773	99.4029	135.528	47.2408	-10.8137	-35.6828	-63.484	-17.5864	-9.00985	3.41113	9.91105	-18.6464	-72.7168	-19.9256	467.167	368.624	328.055	337.379	358.533	30.985	49.0466	76.1805	-3.77937	-78.1134	5.55196	10.3271	133.931	-84.5009	-159.012	-13.4605	-72.2586	85.0644	693.012	-26.3121	-50.0274	19.106	49.1933	135.576	77.3834	-1.40456	111.028	-13.3409	-23.1166	-1.28235	-1.33774	-73.2961	0.624677	-11.9547	-4.70686	0.43126	3.07319	20.2119	-2.13229	-34.8435	-54.4663	-42.9089	-54.3285	-43.4216	-45.8369	-0.973168	-17.5588	-6.90548	0.958343	-21.4583	2.10585	8.6576	-0.559889	-46.8485	114.157	5.2821	-66.7982	-14.9892	-81.157	-0.419643	-18.046	11.4149	-15.73	219.612	-30.2339	
3.545	-42.2157	-74.4524	106.1	141.365	55.6723	-10.8053	-35.1754	-47.7297	-16.578	-8.48886	3.06893	8.95935	-17.9308	-66.5506	532.257	465.972	375.866	302.065	334.352	409.577	27.8466	47.6493	75.2651	-1.62233	-82.2976	5.0838	9.45346	204.517	-89.4779	-184.812	-13.2665	-68.7252	100.129	628.781	-29.3548	-47.2144	17.3181	41.1089	113.625	64.8034	-1.40412	110.907	-11.2246	-20.7427	-1.28192	-1.33733	-68.737	1.64743	-8.37063	-3.13713	0.460937	1.88932	16.2511	-2.12808	-34.394	-53.8244	-40.877	-56.5828	-44.5387	-46.0251	-1.03393	-17.5224	-6.7384	1.97207	-16.9933	1.46832	5.91662	-0.558648	-22.1851	98.1117	5.12875	-59.8574	-13.2285	-85.4681	-0.418835	-10.5578	7.81521	-17.3386	-271.074	-31.7115	
3.55	-41.6501	-73.6873	111.267	145.411	63.1663	-10.7969	-34.8207	-33.7413	-15.5059	-7.93277	2.74316	8.05251	-17.307	-61.3076	212.154	461.459	377.806	272.713	326.938	418.263	23.9416	45.8472	72.5423	0.475453	-85.6772	4.62188	8.59517	201.773	-94.025	-209.661	-12.9239	-65.6992	112.915	567.271	-32.4651	-44.1876	15.5857	32.0096	88.7443	50.5345	-1.40369	98.8168	-9.12741	-18.3787	-1.28149	-1.33691	-64.2456	2.79519	-4.20667	-1.31571	0.407777	0.614268	11.9114	-2.12389	-34.5634	-53.6038	-39.0655	-58.4132	-45.6245	-46.5037	-0.964732	-13.6397	-4.72817	3.00093	66.2029	0.726381	2.85363	-0.557556	-8.61518	82.0357	5.00599	-53.2332	-11.4502	-89.0035	-0.41804	-4.11345	3.88327	-19.3405	181.642	-34.0891	
3.555	-40.7249	-69.4986	114.664	147.378	69.2798	-10.7884	-34.6135	-21.2503	-14.3824	-7.35445	2.43716	7.19579	-16.7654	-56.822	276.73	452.143	374.52	241.142	315.614	415.392	19.3	41.7507	68.8948	2.47557	-89.1277	4.17321	7.7597	187.54	-97.8675	-231.622	-12.415	-63.1158	123.345	509.307	-36.1246	-40.989	13.9356	21.9558	61.0827	34.6963	-1.40325	98.4475	-6.82725	-15.835	-1.28106	-1.3365	-59.9041	4.02971	0.472247	0.711308	0.229034	-0.757278	7.16362	-2.1197	-34.8837	-53.6434	-37.5089	-59.7829	-46.699	-21.8451	-0.910735	-16.5568	-1.7235	4.0104	52.9178	-0.108189	-0.504227	-0.556463	-3.95393	66.2721	4.90781	-46.849	-9.69866	-91.7444	-0.41724	4.9588	-0.377166	-21.6525	-276.314	-37.2638	
3.56	-39.517	-52.7937	116.126	147.059	73.8919	-10.7797	-34.5483	-9.76419	-13.2313	-6.76242	2.15287	6.39582	-16.2979	-52.964	290.887	441.792	366.371	208.851	301.09	409.245	15.1586	37.6026	64.5586	4.35274	-91.1437	3.74377	6.96232	184.653	-100.743	-250.319	-11.7253	-60.9226	131.48	455.235	-39.3767	-37.7024	12.3816	11.1224	31.1531	17.5866	-1.40281	103.208	-4.33214	-13.0451	-1.28063	-1.33609	-55.7793	5.31038	5.57105	2.88544	-0.0336621	-2.22745	1.93137	-2.11552	-35.3185	-53.959	-36.2422	-60.7095	-44.7994	-18.8544	-0.878832	-8.06973	-1.11886	4.96624	40.8842	-1.02561	-4.13767	-0.555375	-3.19362	51.2597	4.82777	-40.8358	-8.02784	-93.5893	-0.416441	15.5983	-4.98986	-24.2095	125.956	-41.1483	
3.565	-38.0333	-40.7691	115.447	144.351	76.6035	-10.7709	-34.5414	1.28972	-12.0674	-6.16444	1.89086	5.64952	-15.8979	-49.6317	281.249	428.204	353.324	177.144	284.003	398.253	11.1271	33.7047	59.7054	6.07767	-92.2024	3.33538	6.20246	184.326	-102.391	-272.089	-10.8352	-59.0774	137.375	405.063	-41.3797	-34.3572	10.9328	-0.174439	-0.123529	-0.265336	-1.40238	97.4688	-2.56651	-10.8532	-1.28019	-1.33568	-51.9014	6.5989	10.9884	5.13736	-0.382088	-3.80085	-3.79825	-2.11135	-35.9147	-54.5634	-35.2665	-61.2248	-15.4465	-6.94247	-0.864081	-3.0972	-1.02095	5.84426	-25.0429	-2.02387	-8.02941	-0.554288	-3.09795	37.0909	-0.865194	-35.0952	-6.47246	-94.3435	-0.415643	26.4534	-9.99785	-26.977	-287.77	-45.6429	
3.57	-36.4128	-32.4267	112.739	139.369	77.3251	-10.7621	-34.5236	12.6512	-10.9114	-5.5722	1.65195	4.96219	-15.5599	-46.7431	270.513	409.371	336.106	147.445	265.512	382.908	7.55627	29.8252	54.7499	7.64526	-92.2449	2.95196	5.49119	181.907	-102.711	-297.301	-9.75088	400.852	141.402	358.648	-42.1938	-31.037	9.59371	-11.6193	-31.8185	-18.351	-1.40194	106.507	-1.93848	-9.91321	-1.27976	-1.33527	-48.2683	7.85099	16.6098	7.3889	-0.769386	-5.49373	-10.068	-2.10719	-36.6948	-55.4654	-34.5861	-61.4069	-14.5839	-2.89261	-0.857489	-7.51999	-1.02206	6.62182	-13.5024	-3.10423	-12.1662	-0.553204	28.9125	24.2047	8.01071	-29.8084	-5.07371	-93.7162	-0.414847	37.2399	-15.4766	-29.9257	71.8962	-50.6336	
3.575	-34.7681	-26.6129	108.179	132.133	75.9578	-10.7531	124.493	25.0355	-9.77943	-4.99267	1.43479	4.33228	-15.2795	-44.2326	259.19	387.809	315.202	121.002	245.919	364.088	4.63227	26.3352	50.3642	9.05177	-90.9645	2.59539	4.82737	174.06	-101.597	-314.919	-8.48208	1235.51	143.85	315.942	-42.2925	-27.7941	8.37065	-22.838	-62.8325	-36.0681	-1.40151	101.147	-2.72257	-10.4255	-1.27932	-1.33486	-44.8661	9.02132	22.296	9.55277	-1.22909	-7.29401	-16.9151	-2.10304	-37.6332	-56.6366	-34.1853	-61.3145	-3.18488	-2.40051	-0.854615	-4.91619	-1.01903	7.28091	11.7257	-4.27191	-16.534	-0.552121	54.2525	12.6794	1.88897	-25.0611	-3.85909	-1503.03	-0.414051	47.674	-21.5041	-32.9977	-248.27	-55.9707	
3.58	-33.2101	-22.297	101.939	123.018	72.5588	-10.744	798.734	39.124	-8.68996	-4.43473	1.23939	3.76022	-15.0531	89.9881	245.38	363.761	291.311	98.8076	225.218	342.722	2.50501	23.4248	46.9259	10.3047	-88.3813	2.26708	4.21763	159.339	-99.2153	-321.672	-7.0454	1329.09	145.019	276.751	-41.948	-24.6685	7.25999	-33.4961	-92.1931	-52.8589	-1.40108	105.208	-2.64038	-10.6959	-1.27889	-1.33445	-41.6989	10.0586	27.8787	11.54	-1.78225	-9.19795	-24.4603	-2.09889	-38.6969	-58.0355	-34.0342	-61.0112	-2.24023	-2.40869	-0.853265	-2.70161	-1.01633	7.81389	26.7641	-5.52702	-21.1126	-0.55104	41.4922	2.68347	2.93495	-20.894	-2.84658	20.8278	-0.413257	57.507	-28.1391	-36.0691	13.9676	-61.4432	
3.585	-31.795	-18.978	94.2226	112.736	67.265	-10.7348	888.778	55.4711	-7.65612	-3.90563	1.06473	3.24461	-14.8779	402.991	230.167	337.761	265.16	81.4917	204.865	319.7	1.27632	21.2262	43.9839	11.4152	-84.58	1.96679	3.65823	142.802	-96.0026	-320.558	-5.46701	1207.29	145.722	240.855	-40.8502	-21.703	6.25868	-43.3337	-119.194	-68.3211	-1.40064	113.966	-1.51532	-10.1245	-1.27845	-1.33405	-38.7949	10.9148	33.1311	13.2687	-2.38642	-11.2337	-32.8246	-2.09476	-39.8576	-59.6146	-34.0923	-60.5723	-15.5462	-2.41514	-0.852542	-1.31157	-1.01474	8.22678	25.7773	-6.86967	-25.8722	-0.549961	39.8166	-5.73855	1.59738	-17.3825	-2.04257	-34.3095	-0.412457	67.148	-35.4221	-38.9934	-172.96	-66.7771	
3.59	-30.6242	-16.3609	85.3174	101.587	60.3263	-10.7255	781.234	74.4402	-6.69	-3.41171	0.909899	2.78471	-14.7517	577.968	214.107	310.561	237.638	69.7082	186.06	295.809	0.991229	19.8275	41.698	12.3982	-79.8891	1.69601	3.15474	129.055	-91.9815	-316.447	-3.78062	1149.19	146.557	208.047	-37.9607	-18.9408	5.36482	-52.2793	-143.614	-82.2932	-1.40021	112.643	-1.12464	-9.00817	-1.27801	-1.33364	-36.1893	11.5611	37.8501	14.6703	-3.10905	-13.4141	-42.3355	-2.09063	-41.0881	-61.3211	-34.3099	-60.0738	-21.5424	-2.40769	-0.852079	-1.04701	-1.01442	8.53387	29.0345	-8.29492	-30.7761	-0.548884	42.0595	-12.6368	3.55246	-14.5864	-1.4426	31.9226	-0.411676	77.0738	-43.3772	-41.6532	-78.5223	-71.6745	
3.595	-29.7343	-14.2666	75.5789	89.8278	52.0516	-10.716	713.905	96.1162	-5.80037	-2.95769	0.773945	2.37684	-14.6732	651.976	197.696	282.825	209.581	64.2312	169.046	272.06	1.63411	19.25	40.1444	13.2735	-74.6063	1.45302	2.70331	118.486	-86.8549	-310.37	-2.03141	1166.48	147.513	178.367	-30.0957	-16.4061	4.57541	-60.4889	-165.963	-95.022	-1.39978	108.634	-1.02507	-8.19744	-1.27757	-1.33323	-33.9056	11.9935	41.9731	15.7066	-3.92535	-15.6958	-53.0935	-2.08651	-42.3578	-63.0974	-34.6305	-59.5971	-16.983	-2.39906	-0.851725	-0.993654	-1.01423	8.75079	33.1275	-9.79572	-35.7704	-0.547809	42.4891	-18.0794	4.54286	-12.5206	-1.0315	2.05078	-0.410879	87.9965	-51.9761	-44.0317	-302.757	-75.9951	
3.6	-29.1478	-12.5693	65.3753	77.8395	42.8222	-10.7065	708.331	120.253	-4.9971	-2.54725	0.655308	2.02053	-14.6413	697.66	181.375	255.216	181.729	68.8581	154.162	249.129	3.12031	19.457	39.3231	14.0603	-68.6383	1.23952	2.30512	110.458	-80.9039	-299.309	-0.270605	1188.91	148.513	152.072	-22.6719	-14.121	3.88484	-68.4205	-187.56	-107.205	-1.39935	105.536	-0.737447	-6.9456	-1.27713	-1.33283	-31.9405	12.2293	45.691	16.3775	-4.88287	-18.1156	-64.9978	-2.0824	-43.6344	-64.8837	-34.9947	-59.1818	-13.7452	-2.39364	-0.851414	-0.977585	-1.01397	8.89233	38.9257	-11.1611	-40.792	-0.546737	41.8038	-22.2183	4.45415	-11.1503	-0.785558	4.02274	-0.410091	101.579	-61.1141	-46.167	-112.698	-79.8145	
3.605	-28.8575	-11.1771	55.0934	66.0386	33.0459	-10.6969	711.165	146.179	-4.28439	-2.1837	0.553792	1.71246	-14.64	749.673	165.564	228.337	154.763	74.688	141.507	227.497	5.3214	20.3477	39.3123	14.7846	-62.1763	1.05304	1.95969	99.6253	-74.4935	-266.419	1.44661	1194.2	149.727	129.191	-17.682	-12.0997	3.29004	-76.5385	-209.75	-119.585	-1.39893	102.553	-0.384565	-4.70204	-1.27669	-1.33242	-30.2668	12.2961	48.9052	16.7279	-5.83714	-20.6517	-78.0309	-2.0783	-44.8843	-66.6222	-35.3424	-58.9062	-24.3358	-2.39025	-0.85112	-0.959168	-1.01367	8.97357	42.9831	-12.0155	-45.7624	-0.545666	41.3273	-25.2505	4.11431	-10.3941	-0.673511	2.91248	-0.409304	121.642	-70.6638	-48.0879	-229.338	-83.1933	
3.61	-28.8327	-10.0223	45.0948	54.7827	23.1534	-10.6871	702.641	172.803	-3.66856	-1.86983	0.468195	1.45306	37.3567	808.111	150.617	202.777	129.313	84.2068	131.339	207.531	8.04748	21.7778	40.1675	15.4588	-55.5983	0.89492	1.66539	85.3417	-67.9248	-197.927	3.06556	1197.07	151.354	109.679	-14.2839	-10.3544	2.78704	-85.4411	-234.22	-133.014	-1.3985	99.5647	-0.0331246	-3.33853	-1.27624	-1.33202	-28.844	12.2253	51.1344	17.2587	-6.80209	-23.3674	-91.9026	-2.07421	-46.0752	-68.2603	-35.6157	-58.8909	-35.8015	-2.38754	-0.850832	-0.941858	-1.01335	9.00897	45.7416	-12.7816	-50.6015	-0.544598	41.0199	-27.4306	3.90891	-10.1367	-0.656912	3.96943	-0.408515	158.939	-80.4512	-49.7816	-194.617	-85.9343	
3.615	-29.0121	-9.05458	35.7025	44.4056	13.5731	-10.6772	690.464	198.711	-3.15193	-1.60673	0.398053	1.23854	303.17	863.843	136.858	179.055	105.958	96.0557	127.715	189.535	11.077	23.5628	40.1203	16.0725	-49.1822	0.7638	1.423	73.6305	-61.467	-151.459	4.53421	1209.85	153.407	93.5322	-11.8526	-8.89658	2.37334	-95.6828	-262.699	-148.493	38.5306	97.0479	0.352046	-2.45288	-1.2758	-1.33162	-27.6234	12.0483	52.1417	17.9992	-7.93342	-26.2874	-106.06	-2.07013	-47.1779	-69.7507	-35.7608	-59.201	-10.3667	-2.38485	-0.850546	-0.926633	-1.01303	9.0149	51.7815	-13.4958	-55.2171	-0.543532	40.6779	-29.0363	3.76091	-10.2361	-0.647854	4.21097	-0.407728	167.595	-90.2775	-51.1876	-147.385	-87.7735	
3.62	-29.3217	-8.23636	27.2192	35.1724	4.72088	-10.6671	682.101	222.541	-2.7378	-1.39614	0.34224	1.06957	410.634	906.944	124.581	157.744	85.2119	108.836	123.756	173.713	14.162	25.49	39.1638	16.6051	-43.1963	0.658665	1.2294	64.456	-55.4102	-120.083	5.8057	1225.94	155.732	80.6915	-10.0244	-7.72871	2.04645	-106.204	-292.456	-164.467	53.4601	95.7181	0.803375	-1.92448	-1.27536	46.6999	-26.5487	11.798	52.2114	18.9797	-9.08574	-29.5691	-119.547	-2.06605	-48.1669	-71.0575	-35.7297	-59.8902	-2.97058	-2.38206	-0.85026	-0.913852	-1.0127	9.00795	53.9072	-14.1339	-59.523	-0.542468	40.2888	-30.3749	3.57983	-10.5351	-0.635126	4.28813	-0.406943	163.893	-99.9234	-52.2184	-97.6452	-88.5709	
3.625	-29.6924	-7.53911	19.9233	27.2952	-3.02599	-10.657	676.958	243.026	-2.42743	-1.23876	0.30088	0.943839	418.878	931.857	114.066	139.327	67.5269	121.443	120.566	161.749	17.0494	27.3451	39.3829	17.0337	-37.891	0.580623	1.08657	56.7944	-50.051	-98.5041	6.83933	1222.33	158.318	71.1507	-8.60879	-6.85836	1.80278	-114.835	-317.421	-177.462	37.5006	94.4024	1.33276	-1.61257	-1.27491	41.1528	-25.5572	11.5056	51.6855	20.4477	-10.4624	-33.449	-131.408	-2.06199	-49.0242	-72.1499	-35.4796	-61.0081	-33.7297	-2.37919	-0.849974	-0.90313	-1.01237	9.00255	56.1298	-14.6646	-63.4323	-0.541406	39.896	-31.7417	3.36096	-10.8724	-0.609762	4.21851	-0.406159	167.232	-109.144	-52.8106	-53.1702	-88.5369	
3.63	-30.0577	-6.9408	14.0397	20.9528	-9.32331	-10.6467	673.569	259.066	-2.22237	-1.13557	0.273531	0.862345	408.383	944.773	105.567	124.268	53.2834	132.76	118.859	155.996	19.4801	28.9156	39.365	17.3502	-33.5136	0.528264	0.991549	50.5524	-45.607	-82.629	7.60432	1197.4	161.298	64.84	-7.49081	-6.28911	1.64273	-122.067	-336.453	-187.171	40.4695	89.2686	1.94152	-1.43365	-1.27446	33.499	-24.5815	11.2016	50.6985	22.9244	-11.8292	-38.0998	-139.246	-2.05793	-49.734	-73.0069	-34.9732	-62.5953	-35.4205	-2.3763	-0.849687	-0.894206	-1.01205	9.01415	66.5777	-15.0975	-66.8628	-0.540346	39.5115	-33.2619	3.13066	-11.0811	-0.539942	4.13619	-0.405376	167.502	-117.703	-52.6739	-8.72446	-87.921	
3.635	-30.3601	-6.42423	9.76621	16.2897	-13.8798	-10.6363	665.572	270.154	-2.1244	-1.08667	0.259467	0.822621	409.545	946.942	99.3276	112.872	42.7952	141.732	117.937	149.92	21.2291	30.0058	39.2184	17.5481	-30.2587	0.501584	0.945709	45.7497	-42.2734	-70.5175	8.07566	1171.46	164.202	61.7144	-6.59497	-6.02179	1.56378	-138.554	-363.409	-209.989	41.7433	83.1382	2.6315	-1.33214	-1.27401	35.5673	-23.5505	10.9138	49.4657	27.977	-13.3337	-43.3154	-143.428	-2.05388	-50.2793	-73.6137	-34.1801	-64.6797	-14.1144	-2.37339	-0.849399	-0.886941	-1.01172	9.0574	70.0082	-15.4187	-69.741	-0.539289	39.1359	-35.2948	2.90281	-10.906	-0.391824	4.05393	-0.404595	163.401	-125.366	-51.5409	-3.63186	-87.0374	
3.64	-30.5466	-5.97582	7.23384	13.3945	-16.4711	-10.6258	648.731	273.164	-2.13342	-1.09307	0.258782	0.825364	415.053	922.204	95.5465	105.706	36.2715	147.585	117.648	147.058	22.0875	30.451	38.8983	17.6265	-28.2828	0.500093	0.94819	42.8497	-40.2132	-61.0418	8.23932	1155.44	164.138	61.7414	-5.86771	-6.05889	1.5636	-155.847	-421.877	-239.122	40.8786	77.4739	3.40274	-1.27528	-1.27356	36.4342	-22.3927	10.6658	48.2527	34.0613	-11.5957	-49.0925	-154.374	-2.04984	-50.6347	-73.958	-33.0737	-67.2698	-3.70369	-2.37047	-0.849111	-0.881279	-1.0114	9.14594	21.0706	-15.6422	-71.9937	-0.538233	38.7762	-38.1378	2.67775	-10.2505	-0.139281	3.97318	-0.403814	159.426	-131.808	-48.4826	-3.07815	-86.2332	
3.645	-30.5703	-5.5847	6.53931	12.3089	-16.9326	-10.6151	627.643	263.329	-2.24918	-1.15413	0.270808	0.869157	414.491	864.5	94.3675	102.794	33.8137	149.388	117.907	146.949	21.8891	30.1128	38.2918	17.5809	-27.6968	0.523983	0.998178	41.7592	-39.5499	-53.5083	8.09305	1159.13	160.938	64.84	-5.27019	-6.39919	1.64261	-170.676	-473.666	-263.716	40.1656	71.9866	4.25776	-1.24363	-1.27311	35.7833	-21.0387	10.4757	46.7516	30.3269	-15.0265	-55.5044	-155.665	-2.0458	-50.7485	-74.0357	-31.6328	-70.3603	-61.907	-2.36755	-0.848823	-0.87719	-1.01107	9.28385	71.4495	-15.7952	-73.5563	-0.53718	38.4342	-41.9582	2.45298	-9.06759	0.235442	3.88959	-0.403035	155.089	-136.998	-41.1827	-3.28418	-85.8513	
