CEINMS output
datacolumns 7
datarows 217
endheader
time	addbrev_r	addlong_r	addmagDist_r	addmagIsch_r	addmagMid_r	addmagProx_r	bflh_r	bfsh_r	edl_r	ehl_r	fdl_r	fhl_r	gaslat_r	gasmed_r	glmax1_r	glmax2_r	glmax3_r	glmed1_r	glmed2_r	glmed3_r	glmin1_r	glmin2_r	glmin3_r	grac_r	iliacus_r	perbrev_r	perlong_r	piri_r	psoas_r	recfem_r	sart_r	semimem_r	semiten_r	soleus_r	tfl_r	tibant_r	tibpost_r	vasint_r	vaslat_r	vasmed_r	addbrev_l	addlong_l	addmagDist_l	addmagIsch_l	addmagMid_l	addmagProx_l	bflh_l	bfsh_l	edl_l	ehl_l	fdl_l	fhl_l	gaslat_l	gasmed_l	glmax1_l	glmax2_l	glmax3_l	glmed1_l	glmed2_l	glmed3_l	glmin1_l	glmin2_l	glmin3_l	grac_l	iliacus_l	perbrev_l	perlong_l	piri_l	psoas_l	recfem_l	sart_l	semimem_l	semiten_l	soleus_l	tfl_l	tibant_l	tibpost_l	vasint_l	vaslat_l	vasmed_l	
0.175	451.38	3.28889	0.0692602	1	1	1000	
0.18	868.758	0.539755	0.0225581	1	1	1000	
0.185	2656.65	1.20691	0.0248252	1	1	1000	
0.19	4982.64	0.612491	0.0299351	1	1	1000	
0.195	6420.15	0.98225	0.0354858	1	1	1000	
0.2	6728.83	1.16878	0.0472106	1	1	1000	
0.205	6426.29	1.34617	0.0606891	1	1	1000	
0.21	6282.87	1.78454	0.0651125	1	1	1000	
0.215	5767.34	1.48103	0.0871825	1	1	1000	
0.22	5412.04	2.36274	0.095044	1	1	1000	
0.225	4900.01	2.16175	0.111031	1	1	1000	
0.23	4325.46	1.81201	0.135423	1	1	1000	
0.235	3842.92	2.63623	0.166455	1	1	1000	
0.24	3507.25	1.86141	0.203317	1	1	1000	
0.245	3301.72	1.74289	0.244487	1	1	1000	
0.25	3137.84	0.740042	0.277467	1	1	1000	
0.255	2941.78	0.695909	0.295796	1	1	1000	
0.26	2682.36	0.671056	0.302301	1	1	1000	
0.265	2379.49	0.519021	0.300958	1	1	1000	
0.27	2049.5	0.501862	0.290992	1	1	1000	
0.275	1757.11	0.387423	0.274758	1	1	1000	
0.28	1480.92	0.321363	0.253778	1	1	1000	
0.285	1274.67	0.262495	0.231827	1	1	1000	
0.29	1148.21	0.26397	0.213499	1	1	1000	
0.295	1084.2	0.34006	0.199447	1	1	1000	
0.3	1070.61	0.477089	0.189038	1	1	1000	
0.305	1100.1	0.619789	0.180788	1	1	1000	
0.31	1163.92	1.58567	0.173756	1	1	1000	
0.315	1227.21	0.714403	0.168622	1	1	1000	
0.32	1304.65	0.840624	0.164741	1	1	1000	
0.325	1385.19	0.834625	0.159423	1	1	1000	
0.33	1487.62	1.68218	0.150911	1	1	1000	
0.335	1552.43	0.724135	0.139223	1	1	1000	
0.34	1621.66	0.708678	0.125693	1	1	1000	
0.345	1704.01	0.464646	0.112197	1	1	1000	
0.35	1807.83	0.5427	0.100288	1	1	1000	
0.355	1929.62	0.511003	0.0908146	1	1	1000	
0.36	2061.59	0.624733	0.0833475	1	1	1000	
0.365	2194.96	0.833118	0.0767315	1	1	1000	
0.37	2321.67	0.74739	0.0704137	1	1	1000	
0.375	2435.32	0.718516	0.0641119	1	1	1000	
0.38	2533.64	0.656932	0.0578469	1	1	1000	
0.385	2615.76	0.670337	0.0517018	1	1	1000	
0.39	2684.32	0.631367	0.0459514	1	1	1000	
0.395	2740.45	0.582557	0.0406746	1	1	1000	
0.4	2787.49	0.496362	0.0362188	1	1	1000	
0.405	2829.33	0.477501	0.032691	1	1	1000	
0.41	2870.41	0.385088	0.0300923	1	1	1000	
0.415	2915.66	0.349398	0.0283907	1	1	1000	
0.42	2966.07	0.367008	0.0273838	1	1	1000	
0.425	3023.13	0.364818	0.0270238	1	1	1000	
0.43	3083.84	0.385482	0.0267421	1	1	1000	
0.435	3146.97	0.367735	0.0265388	1	1	1000	
0.44	3209.44	0.445499	0.0262995	1	1	1000	
0.445	3269.9	0.433961	0.0260051	1	1	1000	
0.45	3366.03	0.400169	0.0259235	1	1	1000	
0.455	3469.1	0.395266	0.0264468	1	1	1000	
0.46	3544.64	0.394287	0.0260783	1	1	1000	
0.465	3619.47	0.315623	0.0261211	1	1	1000	
0.47	3696.46	0.316506	0.025732	1	1	1000	
0.475	3753.05	0.328949	0.0328124	1	1	1000	
0.48	3707.27	0.336573	0.0390104	1	1	1000	
0.485	3605.97	0.337385	0.0402365	1	1	1000	
0.49	3505.25	0.363383	0.0406429	1	1	1000	
0.495	3426.88	0.403897	0.0411668	1	1	1000	
0.5	3373.39	0.420027	0.0421662	1	1	1000	
0.505	3342.77	0.468418	0.043463	1	1	1000	
0.51	3327.72	0.474262	0.0458191	1	1	1000	
0.515	3332.42	0.511543	0.0474148	1	1	1000	
0.52	3355.87	0.514004	0.0504442	1	1	1000	
0.525	3388.22	0.576015	0.0541034	1	1	1000	
0.53	3435.26	0.587398	0.05776	1	1	1000	
0.535	3495.72	0.656826	0.0615163	1	1	1000	
0.54	3574.12	0.676835	0.0658586	1	1	1000	
0.545	3667.68	0.68669	0.0704672	1	1	1000	
0.55	3776.01	0.723742	0.0748817	1	1	1000	
0.555	3906.65	0.742839	0.0797649	1	1	1000	
0.56	4063.05	0.826144	0.0847511	1	1	1000	
0.565	4250.9	0.865105	0.0900648	1	1	1000	
0.57	4474.65	0.892646	0.0956158	1	1	1000	
0.575	4737.05	0.911713	0.101328	1	1	1000	
0.58	5039.56	1.0029	0.107294	1	1	1000	
0.585	5380.4	2.04333	0.112907	1	1	1000	
0.59	5759.98	2.04819	0.118095	1	1	1000	
0.595	6186.86	2.06072	0.123674	1	1	1000	
0.6	6662.4	2.08463	0.129515	1	1	1000	
0.605	7188.5	2.14129	0.136136	1	1	1000	
0.61	7759.73	2.2227	0.142918	1	1	1000	
0.615	8370.47	2.29565	0.149769	1	1	1000	
0.62	9010.4	2.37984	0.156737	1	1	1000	
0.625	9668.68	2.49807	0.163008	1	1	1000	
0.63	10331.3	2.64978	0.168219	1	1	1000	
0.635	10985.2	2.71581	0.172002	1	1	1000	
0.64	11614	2.81386	0.17396	1	1	1000	
0.645	12201.8	2.85112	0.173841	1	1	1000	
0.65	12732.3	2.85582	0.171678	1	1	1000	
0.655	13196.8	2.8183	0.167828	1	1	1000	
0.66	13669.4	2.81178	0.165396	1	1	1000	
0.665	13953.4	2.68639	0.157986	1	1	1000	
0.67	14265.1	2.625	0.154995	1	1	1000	
0.675	14539.2	2.57207	0.151564	1	1	1000	
0.68	14796.8	2.47254	0.148612	1	1	1000	
0.685	15052.9	3.37765	0.147027	1	1	1000	
0.69	15284.8	2.28585	0.14553	1	1	1000	
0.695	15520	2.67111	0.144878	1	1	1000	
0.7	15726.3	2.2519	0.144554	1	1	1000	
0.705	15890.1	2.33934	0.142935	1	1	1000	
0.71	15949.5	2.06269	0.139468	1	1	1000	
0.715	15895.1	2.071	0.135108	1	1	1000	
0.72	15672.6	1.58028	0.125033	1	1	1000	
0.725	15187.9	1.13818	0.119779	1	1	1000	
0.73	14313.9	0.978261	0.115482	1	1	1000	
0.735	13218.2	0.787407	0.114264	1	1	1000	
0.74	11875.7	0.747735	0.113354	1	1	1000	
0.745	10380.5	1.87914	0.108786	1	1	1000	
0.75	8842.39	1.8559	0.113935	1	1	1000	
0.755	7369.85	1.56057	0.120707	1	1	1000	
0.76	6043.42	1.85492	0.127063	1	1	1000	
0.765	4932.37	1.57186	0.14386	1	1	1000	
0.77	4056.32	1.67411	0.1667	1	1	1000	
0.775	3402.77	1.79114	0.193958	1	1	1000	
0.78	2937.15	1.9164	0.222989	1	1	1000	
0.785	2612.65	2.13896	0.246937	1	1	1000	
0.79	2394.1	2.28355	0.253496	1	1	1000	
0.795	2195.21	1.29823	0.269403	1	1	1000	
0.8	2050.36	1.29462	0.269146	1	1	1000	
0.805	1949.44	1.72414	0.24785	1	1	1000	
0.81	1840.87	2.13972	0.156899	1	1	1000	
0.815	1796.15	2.09681	0.123487	1	1	1000	
0.82	1717.58	1.76049	0.0886728	1	1	1000	
0.825	1620.43	0.896456	0.0671278	1	1	1000	
0.83	1514.37	0.591031	0.0513241	1	1	1000	
0.835	1416.05	0.553826	0.0381037	1	1	1000	
0.84	1337.9	0.365412	0.0271437	1	1	1000	
0.845	1285.71	0.512914	0.0191477	1	1	1000	
0.85	1260.64	0.712933	0.0137851	1	1	1000	
0.855	1264.81	0.710722	0.0105616	1	1	1000	
0.86	1227.12	0.959502	0.030485	1	1	1000	
0.865	1139.72	0.944045	0.0328381	1	1	1000	
0.87	1097.71	0.678548	0.0380497	1	1	1000	
0.875	1080.88	0.573124	0.0426253	1	1	1000	
0.88	1098.12	0.572279	0.0449134	1	1	1000	
0.885	1124.89	0.355482	0.0474482	1	1	1000	
0.89	1162.1	0.304794	0.0505152	1	1	1000	
0.895	1193.89	0.3201	0.0526527	1	1	1000	
0.9	1226.41	0.717088	0.0529874	1	1	1000	
0.905	1243.54	0.508751	0.0524275	1	1	1000	
0.91	1244.95	0.462735	0.0515464	1	1	1000	
0.915	1230.28	0.511812	0.0495374	1	1	1000	
0.92	1203.6	0.542288	0.0482189	1	1	1000	
0.925	1163.52	0.448322	0.04666	1	1	1000	
0.93	1109.92	0.351681	0.0448285	1	1	1000	
0.935	1046.46	0.278702	0.0428421	1	1	1000	
0.94	978.013	0.202893	0.0406921	1	1	1000	
0.945	909.458	0.135482	0.0374701	1	1	1000	
0.95	842.884	0.066007	0.0360413	1	1	1000	
0.955	777.539	0.0527495	0.0341573	1	1	1000	
0.96	722.674	0.0651003	0.0326844	1	1	1000	
0.965	676.06	0.0674451	0.0310573	1	1	1000	
0.97	636.584	0.0400441	0.0292261	1	1	1000	
0.975	616.442	0.0361347	0.0274022	1	1	1000	
0.98	603.35	0.0514081	0.025526	1	1	1000	
0.985	592.591	0.0818905	0.0235278	1	1	1000	
0.99	582.719	0.0441728	0.0215567	1	1	1000	
0.995	574.316	0.0493204	0.0196471	1	1	1000	
1	567.794	0.188838	0.0179081	1	1	1000	
1.005	564.281	0.241365	0.0165013	1	1	1000	
1.01	560.311	0.214503	0.0152097	1	1	1000	
1.015	531.987	0.174598	0.0187571	1	1	1000	
1.02	513.555	0.305193	0.0142345	1	1	1000	
1.025	505.889	0.39418	0.014077	1	1	1000	
1.03	495.788	0.586768	0.0129451	1	1	1000	
1.035	490.331	0.568908	0.0113977	1	1	1000	
1.04	484.036	0.2984	0.0102396	1	1	1000	
1.045	479.731	0.341839	0.00920736	1	1	1000	
1.05	476.131	0.432005	0.00829404	1	1	1000	
1.055	473.588	0.385595	0.00735691	1	1	1000	
1.06	473.817	0.455695	0.00673821	1	1	1000	
1.065	471.057	0.408437	0.00590162	1	1	1000	
1.07	474.777	0.420747	0.00566487	1	1	1000	
1.075	476.272	0.345418	0.00530812	1	1	1000	
1.08	479.02	0.273736	0.00513487	1	1	1000	
1.085	494.579	0.227487	0.00525549	1	1	1000	
1.09	514.868	0.228127	0.0058441	1	1	1000	
1.095	534.145	0.205192	0.00693019	1	1	1000	
1.1	552.35	0.233577	0.00758526	1	1	1000	
1.105	569.707	0.272149	0.00826834	1	1	1000	
1.11	587.49	0.371933	0.00920948	1	1	1000	
1.115	605.385	0.424434	0.0102229	1	1	1000	
1.12	623.085	0.519444	0.0112677	1	1	1000	
1.125	643.318	0.601589	0.012348	1	1	1000	
1.13	661.448	1.48725	0.0131388	1	1	1000	
1.135	678.346	0.709973	0.0132302	1	1	1000	
1.14	700	0.626897	0.0135998	1	1	1000	
1.145	710.254	0.66583	0.0140765	1	1	1000	
1.15	713.065	0.737056	0.0142401	1	1	1000	
1.155	712.053	0.799579	0.0141589	1	1	1000	
1.16	708.195	1.0534	0.0139302	1	1	1000	
1.165	701.177	1.46223	0.0136797	1	1	1000	
1.17	688.849	1.09144	0.0135204	1	1	1000	
1.175	672.755	2.80389	0.013559	1	1	1000	
1.18	655.392	0.630086	0.0125369	1	1	1000	
1.185	645.222	1.97024	0.0123288	1	1	1000	
1.19	640.944	1.46218	0.0120412	1	1	1000	
1.195	641.38	1.53211	0.0114085	1	1	1000	
1.2	635.092	1.49818	0.0105258	1	1	1000	
1.205	614.831	1.74635	0.00933911	1	1	1000	
1.21	580.433	1.83522	0.00792404	1	1	1000	
1.215	540.125	1.7947	0.00637413	1	1	1000	
1.22	505.777	1.53964	0.00498739	1	1	1000	
1.225	486.087	1.37603	0.00452424	1	1	1000	
1.23	485.803	1.33229	0.00508301	1	1	1000	
1.235	518.134	1.28545	0.00491779	1	1	1000	
1.24	580.017	1.31904	0.00503904	1	1	1000	
1.245	666.61	1.72456	0.00505572	1	1	1000	
1.25	821.562	2.89182	0.00526658	1	1	1000	
1.255	1164.8	3.21676	0.00536208	1	1	1000	
