CEINMS output
datacolumns 11
datarows 217
endheader
time	hip_flexion_r	hip_adduction_r	hip_rotation_r	knee_angle_r	ankle_angle_r	hip_flexion_l	hip_adduction_l	hip_rotation_l	knee_angle_l	ankle_angle_l	
0.175	2.15523	-12.4959	-0.523542	-3.23381	-1.81252	-14.0355	-1.6954	-10.8575	5.42429	-9.36014	
0.18	0.394837	-16.4518	-1.49986	-1.78121	-0.421928	-10.5204	-1.94635	-8.50569	0.198737	-8.53294	
0.185	-0.550516	-22.784	-3.22866	-0.19037	0.931576	-5.91986	-3.26387	-6.93866	-2.47219	-8.09333	
0.19	-0.204812	-27.7076	-4.89057	0.897112	2.20518	-0.808771	-4.77921	-5.11994	-4.15084	-7.80297	
0.195	2.82328	-28.1605	-5.08101	-1.28719	3.39677	2.29979	-5.30577	-3.74742	-5.10954	-7.55981	
0.2	6.49054	-27.0892	-4.5251	-7.17667	4.53609	2.51876	-5.37527	-3.43378	-5.67461	-7.28508	
0.205	8.43022	-26.6438	-4.11833	-13.7603	5.6532	2.68821	-5.28492	-3.15941	-6.18457	-6.95376	
0.21	9.03718	-29.6261	-4.66424	-21.4622	6.73901	3.39427	-4.78123	-2.99528	-6.70382	-6.56301	
0.215	4.34731	-32.3467	-5.63623	-23.1315	7.73355	4.46494	-4.06379	-2.92923	-7.26304	-6.12271	
0.22	-0.022207	-36.4806	-7.18367	-26.6115	8.57949	6.12673	-2.56082	-2.85352	-7.86123	-5.64566	
0.225	-5.98629	-40.9	-9.27781	-29.1546	9.24486	7.38747	-1.35066	-2.79058	-8.46656	-5.14704	
0.23	-11.5429	-44.5417	-11.4144	-32.0495	9.72238	8.57119	0.00555839	-2.88068	-9.03708	-4.65228	
0.235	-16.0815	-47.32	-13.3783	-35.485	10.0265	10.1535	0.954833	-3.13255	-10.8315	-4.17706	
0.24	-17.2913	-49.727	-13.1117	-39.4867	10.1834	12.823	1.5675	-3.51185	-14.8975	-3.73387	
0.245	-14.5915	-52.0808	-10.2796	-43.4996	10.2208	15.2875	2.05954	-3.84756	-18.8416	-3.33092	
0.25	-10.797	-53.9305	-7.33612	-47.0385	10.1632	17.2761	2.77421	-4.07696	-21.9141	-2.96531	
0.255	-7.44186	-55.1061	-5.4045	-49.8531	10.031	17.0518	5.94958	-3.89262	-19.8066	-2.63413	
0.26	-5.07951	-56.1238	-4.53861	-51.9203	9.84031	16.2264	9.41055	-3.67985	-16.9636	-2.36568	
0.265	-3.63782	-57.2879	-4.46868	-53.3196	9.60189	15.2244	12.0275	-3.53518	-14.5665	-2.16218	
0.27	-2.76645	-58.4146	-4.9487	-54.1139	9.31853	14.0534	13.9601	-3.43427	-12.517	-2.01718	
0.275	-2.06296	-59.1961	-5.79096	-54.3396	8.98706	12.2955	14.9699	-3.54853	-10.9671	-1.9318	
0.28	-1.32287	-59.5082	-6.80334	-54.0364	8.60008	10.8478	15.238	-3.47569	-9.55497	-1.90574	
0.285	-1.20872	-59.8758	-8.2505	-53.2953	8.14939	9.23284	14.5891	-3.3423	-8.20031	-1.93761	
0.29	-1.54991	-60.4317	-9.96892	-52.2266	7.62937	7.18095	13.0265	-3.22097	-6.9606	-2.02518	
0.295	-1.9679	-61.1935	-11.6797	-50.94	7.03721	5.01919	11.0322	-3.0363	-5.89237	-2.16507	
0.3	-2.33107	-62.1361	-13.2888	-49.5151	6.36987	2.82335	8.74033	-2.78507	-5.0107	-2.35411	
0.305	-2.61481	-63.1909	-14.7885	-48.0084	5.61147	0.488	5.76493	-3.12214	-5.22278	-2.5906	
0.31	-2.82399	-64.2759	-16.1853	-46.4639	4.71611	-1.29001	2.68492	-3.75005	-6.33744	-2.87145	
0.315	-2.94272	-65.3069	-17.4899	-44.9207	3.58416	-1.29461	-1.90159	-4.21052	-8.75953	-3.18925	
0.32	-2.95657	-66.1266	-18.733	-43.395	2.67343	-0.528665	-5.03718	-4.25433	-9.95581	-3.53321	
0.325	-2.90007	-66.56	-19.9497	-41.8806	2.18613	1.29057	-8.13495	-4.10643	-11.4014	-3.89676	
0.33	-2.81869	-66.4725	-21.1582	-40.3314	1.96943	3.35856	-9.33342	-3.91378	-12.5042	-4.28083	
0.335	-2.72271	-65.8469	-22.3466	-38.6968	1.839	6.49582	-12.0588	-3.44172	-13.6685	-4.6794	
0.34	-2.63155	-64.7988	-23.4862	-36.929	1.7041	9.38208	-13.795	-2.92002	-14.0623	-5.08377	
0.345	-2.4922	-63.5071	-24.5423	-35.0047	1.55516	10.9758	-15.4595	-2.75953	-14.309	-5.48104	
0.35	-2.1618	-62.1165	-25.5132	-32.8734	1.40158	11.909	-16.7341	-2.71488	-14.2063	-5.86961	
0.355	-1.71381	-60.7171	-26.3786	-30.6569	1.24555	12.76	-17.324	-2.68065	-13.9491	-6.24894	
0.36	-1.24642	-59.3287	-27.1236	-28.4813	1.08394	13.324	-17.1323	-2.6808	-13.4389	-6.61586	
0.365	-0.790184	-57.9106	-27.7413	-26.4078	0.91425	13.3617	-16.1018	-2.86803	-13.077	-6.96902	
0.37	-0.308708	-56.4278	-28.2469	-24.4251	0.735827	13.0715	-14.7217	-3.11602	-12.6674	-7.30734	
0.375	0.226902	-54.8501	-28.6509	-22.5288	0.548599	12.605	-13.2504	-3.3333	-12.0807	-7.63004	
0.38	0.794535	-53.1653	-28.954	-20.7273	0.352496	11.9083	-11.7031	-3.48671	-11.2133	-7.93602	
0.385	1.38604	-51.39	-29.1495	-19.0328	0.14765	11.04	-10.1522	-3.5724	-10.0996	-8.22372	
0.39	1.94447	-49.5545	-29.2354	-17.4288	-0.0657055	10.069	-8.66735	-3.60132	-8.82232	-8.49253	
0.395	2.45535	-47.7028	-29.202	-15.9109	-0.286754	9.03907	-7.28705	-3.586	-7.43941	-8.74133	
0.4	2.89663	-45.8753	-29.0545	-14.4431	-0.514548	7.97534	-5.99264	-3.54232	-6.04571	-8.96881	
0.405	3.26937	-44.0984	-28.7949	-13.031	-0.747997	6.89095	-4.81734	-3.48977	-4.69385	-9.17407	
0.41	3.58092	-42.3879	-28.4332	-11.6963	-0.985575	5.77887	-3.8402	-3.4869	-3.40497	-9.35653	
0.415	3.84005	-40.7407	-27.9825	-10.4577	-1.2258	4.43834	-3.55286	-3.89068	-2.10166	-9.5161	
0.42	4.07709	-39.1481	-27.4582	-9.34428	-1.46721	3.41373	-2.65969	-3.73625	-1.08667	-9.65305	
0.425	4.3024	-37.5936	-26.8804	-8.36456	-1.70836	2.30153	-2.35305	-3.78792	-0.156281	-9.7684	
0.43	4.53158	-36.0844	-26.2688	-7.52063	-1.9473	0.866025	-2.52199	-3.88702	0.581116	-9.86298	
0.435	4.75363	-34.641	-25.6532	-6.77699	-2.18261	-0.401001	-2.7709	-3.85063	1.14333	-9.93856	
0.44	4.97146	-33.2168	-25.0187	-6.08615	-2.41235	-1.50396	-3.04117	-3.73157	1.68009	-9.99682	
0.445	5.17093	-31.8362	-24.3703	-5.40521	-2.6345	-2.39178	-3.40121	-3.57651	2.19791	-10.0396	
0.45	5.34576	-30.5241	-23.7167	-4.72103	-2.84747	-3.07956	-3.80984	-3.4032	2.72966	-11.6174	
0.455	5.54801	-29.2814	-23.0689	-4.03669	-3.0498	-3.51888	-4.46758	-2.94411	3.39716	-13.2495	
0.46	5.80183	-28.1184	-22.4305	-3.36806	-3.2403	-3.79937	-5.09036	-2.49556	3.98094	-13.6134	
0.465	6.3488	-26.2271	-21.8417	-2.7133	-3.41748	-4.01261	-5.36961	-2.41928	4.14861	-13.3563	
0.47	6.2258	-25.6749	-21.293	-2.1219	-3.57962	-4.11815	-5.58296	-2.23041	4.21974	-12.9887	
0.475	6.33587	-24.9271	-20.7962	-1.55525	-3.97638	-4.12192	-5.66801	-2.04422	4.23902	-12.6708	
0.48	6.48453	-24.1897	-20.3577	-0.918053	-5.35052	-4.01287	-5.70832	-1.87022	4.17613	-12.3904	
0.485	6.5898	-23.6089	-19.9821	-0.366552	-7.25964	-3.80668	-5.71178	-1.70084	4.05187	-12.1209	
0.49	6.66747	-23.1706	-19.6719	0.086051	-9.19067	-3.5248	-5.69012	-1.53915	3.88068	-11.8588	
0.495	6.72758	-22.8733	-19.432	0.473698	-10.9397	-3.1929	-5.65762	-1.39112	3.67163	-11.6118	
0.5	6.76999	-22.7279	-19.2639	0.810902	-12.4849	-2.8429	-5.63306	-1.26129	3.45335	-11.3871	
0.505	6.78767	-22.7318	-19.1686	1.11289	-13.8543	-2.5187	-5.62257	-1.15158	3.2288	-11.1889	
0.51	6.78526	-22.89	-19.1453	1.38188	-15.0758	-2.18197	-6.02171	-0.32834	3.42838	-11.0166	
0.515	6.76057	-23.1936	-19.1935	1.61639	-16.1706	-2.00159	-6.45528	0.431274	3.61037	-10.8697	
0.52	6.72118	-23.6321	-19.3101	1.80283	-17.1547	-1.97335	-6.46129	0.409464	3.45653	-10.7482	
0.525	6.93151	-23.8916	-19.4866	1.94681	-18.0421	-2.21767	-6.61738	0.432785	3.37198	-10.6523	
0.53	6.90346	-24.5654	-19.7354	2.07113	-18.8448	-2.72713	-6.90285	0.549193	3.40966	-10.5827	
0.535	6.75152	-25.4338	-20.0321	2.20169	-19.573	-3.53421	-7.32951	0.715772	3.58438	-10.54	
0.54	6.63058	-26.288	-20.368	2.3668	-20.2367	-4.70656	-7.75571	0.731753	3.73394	-10.7136	
0.545	6.50084	-27.192	-20.7358	2.58457	-20.8453	-6.21825	-8.3191	0.79675	4.01882	-10.9622	
0.55	6.32881	-28.167	-21.1253	2.86083	-21.4063	-8.02843	-8.99962	0.901003	4.46848	-11.1375	
0.555	6.11801	-29.1681	-21.523	3.19832	-21.9274	-10.2114	-9.63194	0.978705	4.85807	-11.27	
0.56	5.89036	-30.1531	-21.9148	3.58272	-22.4157	-12.694	-10.2738	1.05967	5.32133	-11.3744	
0.565	5.65233	-31.0877	-22.2933	3.99523	-22.8779	-15.4118	-10.8935	1.14856	5.88422	-11.4829	
0.57	5.41786	-31.9449	-22.6484	4.3982	-23.3204	-18.2949	-11.4316	1.23414	6.53175	-11.6044	
0.575	5.19543	-32.7031	-22.9743	4.75179	-23.7467	-21.2573	-11.8134	1.31644	7.31637	-11.7375	
0.58	4.9977	-33.3335	-23.2635	5.01701	-24.1596	-24.1755	-11.9662	1.39323	8.19764	-11.8729	
0.585	4.83799	-33.8123	-23.5072	5.1729	-24.5606	-26.917	-12.0048	1.40424	9.44422	-12.0224	
0.59	4.72312	-34.1272	-23.7	5.20747	-24.9491	-29.3813	-11.9462	1.35481	11.2345	-12.1769	
0.595	4.65822	-34.2713	-23.8378	5.10731	-25.3241	-31.6089	-11.4966	1.26402	13.1001	-12.3326	
0.6	4.64937	-34.2412	-23.9163	4.87196	-25.6822	-33.5715	-10.5963	1.16591	14.9737	-12.4928	
0.605	4.7	-34.0254	-23.9334	4.49707	-26.0206	-35.2629	-9.1988	1.08432	16.6899	-12.649	
0.61	4.81746	-33.6147	-23.8856	3.97858	-26.3349	-36.618	-7.42376	1.01084	18.4007	-12.7996	
0.615	4.9994	-33.0074	-23.7738	3.33223	-26.6185	-37.6315	-5.31426	0.945603	20.0404	-12.9474	
0.62	5.24738	-32.211	-23.5937	2.5877	-26.8644	-38.3547	-2.98988	0.888536	21.6325	-13.0864	
0.625	5.5489	-31.2325	-23.3507	1.77969	-27.0647	-38.8167	-0.579969	0.842416	23.0859	-13.2065	
0.63	5.90093	-30.077	-23.0411	0.942529	-27.2096	-39.0453	1.76665	0.810046	24.4345	-13.3116	
0.635	6.29044	-28.7575	-22.6687	0.103264	-27.2883	-39.0721	3.88252	0.783914	25.5673	-13.3947	
0.64	6.70874	-27.3002	-22.2378	-0.718329	-27.2887	-38.9436	5.6568	0.764899	26.4454	-13.4539	
0.645	7.14121	-25.7287	-21.7569	-1.50208	-27.1971	-38.6861	6.95655	0.753884	27.0347	-13.4844	
0.65	7.58264	-24.0725	-21.2329	-2.23473	-26.9991	-38.3194	7.69243	0.750815	27.3046	-13.4866	
0.655	8.03805	-22.3721	-20.6792	-2.93118	-26.6789	-37.835	7.76973	0.757604	27.2277	-13.4554	
0.66	8.13809	-20.4182	-20.1049	-3.22473	-26.2205	-37.2284	7.17519	0.777722	26.8473	-13.3933	
0.665	8.98223	-18.9719	-19.5462	-4.38558	-25.6084	-36.4855	5.9389	0.769615	26.1055	-13.3007	
0.67	9.47718	-17.314	-18.9978	-4.86721	-24.8288	-35.5701	4.10449	0.746989	25.0202	-13.195	
0.675	10.0255	-15.738	-18.4805	-5.6203	-23.8696	-34.4429	1.7528	0.717925	23.661	-13.0659	
0.68	10.589	-14.2205	-18.0035	-6.47524	-22.7227	-33.0689	-0.974444	0.672936	22.101	-12.901	
0.685	11.5966	-12.1084	-17.5883	-7.45114	-21.3834	-31.5606	-3.65158	0.739942	19.0955	-12.7	
0.69	12.0974	-10.9164	-17.1926	-8.51387	-19.8493	-29.4881	-6.97051	0.515403	18.8179	-12.4639	
0.695	12.732	-9.58025	-16.8284	-9.68107	-18.1231	-27.1928	-10.0058	0.350022	16.7319	-12.1935	
0.7	13.356	-8.32367	-16.491	-10.9202	-16.2149	-24.7619	-12.5318	0.237505	15.1113	-11.8916	
0.705	13.9464	-7.17328	-16.1959	-12.1928	-14.1454	-22.0815	-14.6304	0.188488	12.9617	-11.5626	
0.71	14.6086	-6.19172	-15.947	-13.578	-11.956	-19.3262	-16.0031	0.170831	12.2235	-11.2138	
0.715	15.0077	-5.69362	-15.6172	-14.8838	-9.72104	-16.221	-17.3086	0.042831	10.7484	-10.8529	
0.72	15.4549	-5.01439	-15.3007	-16.0755	-7.5566	-13.3815	-17.358	0.0520736	9.96566	-10.4884	
0.725	15.819	-4.46035	-14.9915	-17.1519	-5.73347	-10.5783	-16.8591	0.131618	9.06869	-10.1286	
0.73	16.1697	-3.83944	-14.6432	-18.0278	-4.79443	-7.81604	-16.0887	0.109894	7.69876	-9.78054	
0.735	16.5315	-3.13993	-14.2537	-18.7827	-3.85279	-5.25578	-14.9432	-0.0444357	6.31227	-9.45131	
0.74	16.9127	-2.35117	-13.8158	-19.3712	-3.20955	-2.9353	-13.6243	-0.385634	5.12065	-9.14675	
0.745	17.3349	-1.46484	-13.3065	-19.733	-2.70049	-1.19679	-12.7774	-0.54109	4.16918	-8.87193	
0.75	17.8907	-0.742316	-12.8875	-19.9019	-2.12191	-1.19154	-12.7346	-0.615809	3.54389	-8.63048	
0.755	18.6531	-0.00636786	-12.4547	-19.9249	-1.42625	-1.85351	-12.9477	-0.692565	3.3399	-8.42522	
0.76	19.6321	0.727995	-12.0197	-20.3282	-0.641923	-2.581	-13.2055	-0.782704	3.36488	-8.25803	
0.765	20.8479	1.55876	-11.6282	-23.302	0.207167	-3.32619	-13.5368	-0.884495	3.42597	-8.12975	
0.77	22.2773	2.53338	-11.2506	-24.769	1.1128	-4.10549	-13.9451	-0.998292	3.4866	-8.04054	
0.775	23.8322	3.55797	-10.8604	-25.3046	2.06796	-5.0375	-14.4484	-1.14038	3.54132	-7.98902	
0.78	25.4164	4.50383	-10.4511	-26.0165	3.05966	-5.93727	-14.9731	-1.29526	3.61094	-7.97243	
0.785	26.7833	5.54797	-10.0928	-26.9611	4.06932	-6.63764	-15.6302	-1.47087	3.37823	-7.98711	
0.79	27.3874	7.32009	-10.0062	-27.9784	5.07555	-7.45412	-16.3472	-1.67834	3.13256	-8.02837	
0.795	28.2245	6.77864	-9.33128	-28.6341	6.05655	-8.57378	-17.0768	-1.92269	3.16536	-8.09126	
0.8	28.1425	7.12988	-8.75895	-28.2845	6.99232	-9.84038	-17.8479	-2.19901	3.33957	-8.17093	
0.805	26.4728	9.21206	-8.59333	-26.884	7.86356	-11.1433	-18.6793	-2.50436	3.62284	-8.26329	
0.81	22.6572	10.783	-8.73884	-24.9947	8.68646	-12.4511	-19.5688	-2.83888	3.84974	-8.36423	
0.815	18.3595	12.2417	-9.04407	-22.9786	9.4369	-13.7603	-20.5039	-3.2035	4.07796	-8.47072	
0.82	14.3543	13.7124	-9.35204	-20.9194	10.0913	-15.056	-21.473	-3.5971	4.29594	-8.58045	
0.825	11.5593	13.0543	-9.06109	-18.899	10.6466	-16.3223	-22.4679	-4.01845	4.54757	-8.69156	
0.83	9.53695	11.4352	-8.46059	-16.9469	11.1003	-17.5157	-23.4773	-4.46193	4.7838	-8.8025	
0.835	7.85183	9.63115	-7.85058	-15.0993	11.453	-18.6019	-24.4884	-4.92255	4.98396	-8.91265	
0.84	6.37243	7.72751	-7.28038	-13.4054	11.702	-19.4916	-25.4949	-5.40126	5.14921	-9.02	
0.845	5.07257	5.84608	-6.74257	-11.853	11.8451	-20.074	-26.4937	-5.89957	5.31395	-9.12384	
0.85	3.9959	4.08222	-6.24837	-10.3728	11.8814	-20.2908	-27.4729	-6.41391	5.5411	-9.22473	
0.855	3.15392	2.49498	-5.80217	-8.99676	11.8133	-20.1524	-28.413	-6.93286	5.70014	-9.32304	
0.86	2.5693	0.767173	-5.6199	-8.33992	11.6465	-18.2115	-28.3868	-7.69477	5.79132	-9.41886	
0.865	2.92129	-1.02531	-5.41772	-8.43922	11.389	-14.7478	-27.4894	-8.64652	5.81276	-9.51273	
0.87	3.98678	-2.7321	-5.12967	-8.8504	11.051	-12.0274	-26.9675	-9.48746	5.78702	-9.6048	
0.875	5.28463	-4.40138	-4.94423	-9.50987	10.6443	-9.51256	-26.678	-10.0743	5.62351	-9.69557	
0.88	6.74075	-5.93079	-4.79103	-10.1757	10.1817	-7.81448	-26.7385	-10.5469	5.35114	-9.78554	
0.885	8.23351	-7.43788	-4.64839	-10.742	9.67568	-6.31155	-26.792	-10.9374	5.0342	-9.87562	
0.89	9.45253	-8.97324	-4.67884	-11.1533	9.1382	-4.95506	-26.7073	-11.2868	4.79575	-9.9665	
0.895	10.7597	-10.0629	-4.50371	-12.018	8.58021	-3.80327	-26.429	-11.6093	4.54627	-10.0585	
0.9	10.9805	-10.0764	-4.5901	-13.0507	8.0113	-2.92504	-25.9435	-11.9098	4.34676	-10.1516	
0.905	10.4925	-9.60341	-4.77697	-12.7363	7.43889	-2.32333	-25.2542	-12.1889	4.24332	-10.2464	
0.91	9.79294	-9.13428	-4.8887	-11.8288	6.85152	-1.9461	-24.379	-12.4408	4.29346	-10.3431	
0.915	8.95226	-8.64754	-4.9399	-10.8072	6.27656	-1.73349	-23.3476	-12.6603	4.35115	-10.4416	
0.92	8.02214	-8.08341	-4.98465	-9.86448	5.72957	-1.62117	-22.1915	-12.8395	4.5085	-10.7146	
0.925	7.02883	-7.51762	-5.03675	-9.03168	5.21559	-1.56968	-20.9442	-12.9751	4.70253	-11.0055	
0.93	6.01286	-6.99615	-5.08417	-8.28276	4.73394	-1.53119	-19.6317	-13.0605	4.92569	-11.2081	
0.935	4.97263	-6.53786	-5.11066	-7.56019	4.28273	-1.48958	-18.2848	-13.098	5.05897	-11.3405	
0.94	3.92572	-6.17734	-5.09749	-6.8039	3.86063	-1.40894	-16.9275	-13.0837	5.14185	-11.445	
0.945	2.91087	-5.95412	-5.03398	-5.99521	3.46503	-1.28567	-15.5903	-13.024	5.19187	-11.5445	
0.95	2.00267	-5.75379	-4.91114	-5.164	3.0952	-1.08042	-14.3005	-12.9151	5.26636	-11.6444	
0.955	1.21433	-5.72909	-4.73773	-4.38701	2.75532	-0.618282	-13.0431	-12.7421	5.24438	-11.7438	
0.96	0.59836	-5.78583	-4.54783	-3.74946	2.44461	-0.217961	-11.9403	-12.5411	5.13941	-11.8442	
0.965	0.0558593	-5.90998	-4.35297	-3.15621	2.16091	0.240153	-10.9711	-12.3076	4.97622	-11.9434	
0.97	-0.422212	-6.07371	-4.16752	-2.62577	1.90233	0.796824	-10.1352	-12.0429	4.79742	-12.0383	
0.975	-0.899263	-6.73188	-4.30391	-2.17376	1.66773	1.4045	-9.47864	-11.7677	4.51959	-12.4455	
0.98	-1.18859	-6.95224	-4.14013	-1.81447	1.45579	2.06183	-8.99463	-11.4813	4.1609	-13.0059	
0.985	-1.79495	-7.38224	-4.08027	-1.57583	1.26569	2.72599	-8.65845	-11.1869	3.77852	-13.4421	
0.99	-2.3492	-8.02768	-4.12882	-1.49269	1.09095	3.33268	-8.43747	-10.892	3.42269	-13.7159	
0.995	-2.70529	-8.66156	-4.17061	-1.48794	0.929052	3.8251	-8.31	-10.6137	3.04258	-13.8932	
1	-2.915	-9.25172	-4.20312	-1.40461	0.788877	4.08766	-8.18797	-10.3741	2.7348	-14.0293	
1.005	-2.93069	-9.90914	-4.26865	-1.20901	0.675555	4.03871	-8.07361	-10.1946	2.59137	-14.1485	
1.01	-2.74717	-10.538	-4.33482	-0.943351	0.586497	3.75219	-7.8735	-10.0782	2.60853	-14.2551	
1.015	-2.49848	-13.0718	-3.12677	-0.819841	0.517423	3.2955	-7.6023	-10.0174	2.69736	-14.3503	
1.02	-2.72547	-15.3733	-1.87577	-0.822111	0.464675	2.72814	-7.30008	-10.0029	2.83118	-14.4335	
1.025	-2.47422	-15.0897	-1.83785	-0.629369	0.425676	2.08896	-6.99762	-10.0269	3.01963	-14.5043	
1.03	-1.75443	-15.1105	-1.95657	-0.221191	0.398767	1.39626	-6.70741	-10.0869	1.23916	-14.5639	
1.035	-0.815656	-15.2756	-2.03844	0.232358	0.382085	0.6679	-6.42991	-10.179	0.442548	-14.6118	
1.04	0.0924193	-15.2104	-2.18656	0.632658	0.373467	-0.0766681	-6.17471	-10.3027	1.55705	-14.6545	
1.045	0.887956	-15.0162	-2.36817	0.992029	0.370642	-0.802042	-5.94863	-10.4513	1.70056	-14.7024	
1.05	1.3657	-14.6905	-2.54142	1.56708	0.371176	-1.47839	-5.71713	-10.6264	1.8111	-14.7636	
1.055	2.39322	-14.4782	-2.7779	1.75063	0.372547	-2.11737	-5.52274	-10.8195	1.89107	-14.842	
1.06	2.75571	-14.027	-2.96276	2.35128	0.372049	-2.75183	-5.40405	-11.0333	1.93926	-14.9386	
1.065	3.43638	-13.6922	-3.13898	2.64073	0.366884	-3.23179	-5.06648	-11.2936	1.95905	-15.0524	
1.07	3.62378	-13.2524	-3.23561	3.16488	0.35431	-3.88063	-5.16733	-11.5081	1.95556	-15.1822	
1.075	4.07369	-13.0309	-3.30564	3.3518	0.331576	-4.38796	-5.17253	-11.7488	1.93477	-15.3262	
1.08	4.36173	-12.8442	-3.30585	3.50104	0.295995	-4.83343	-5.19474	-11.9988	1.9038	-15.4927	
1.085	4.2502	-12.626	-3.1948	3.78393	0.245118	-5.22693	-5.27478	-12.243	1.871	-15.9849	
1.09	3.41236	-12.2506	-2.92903	4.4611	0.176703	-5.56584	-5.39768	-12.4852	1.84166	-16.5542	
1.095	2.19575	-11.8784	-2.53603	5.29937	0.088862	-5.83034	-5.54563	-12.7197	1.82383	-17.0281	
1.1	0.0771134	-12.13	-2.38689	6.12605	-0.0198237	-6.03079	-5.71621	-12.948	1.82189	-17.3729	
1.105	-2.64529	-12.6394	-2.39392	7.03159	-0.150016	-6.1595	-5.90195	-13.1622	1.83705	-17.6272	
1.11	-5.79986	-13.2229	-2.48029	8.03895	-0.302481	-6.22998	-6.0953	-13.3648	1.87254	-17.828	
1.115	-9.30721	-13.8252	-2.55387	9.20882	-0.476911	-6.23754	-6.28392	-13.5495	1.92194	-18.0006	
1.12	-13.095	-14.3997	-2.59541	10.5274	-0.671952	-6.19913	-6.45943	-13.7186	1.98247	-18.1496	
1.125	-17.0786	-14.8376	-2.59896	11.9908	-0.885909	-6.13284	-6.80465	-13.9001	2.03763	-18.2771	
1.13	-20.8271	-15.2531	-2.70428	14.2798	-1.19758	-6.03763	-7.20999	-14.0844	2.08424	-18.3812	
1.135	-24.2298	-15.5936	-2.88396	17.405	-2.44519	-5.85393	-7.23664	-14.2073	2.10835	-18.4578	
1.14	-27.7905	-15.057	-2.82916	19.8095	-3.56915	-5.69161	-7.34929	-14.3557	2.09961	-18.5072	
1.145	-31.3942	-13.4969	-2.53939	21.6206	-4.1993	-5.47925	-7.35813	-14.3942	2.04114	-18.524	
1.15	-34.6101	-11.2251	-2.11752	23.4618	-4.52093	-5.23148	-7.32675	-14.3882	1.95234	-18.5063	
1.155	-37.389	-8.2702	-1.64121	25.3475	-4.73664	-4.91278	-7.28844	-14.3482	1.8105	-18.4505	
1.16	-39.6716	-4.67594	-1.15213	27.1541	-4.92337	-4.48673	-7.26312	-14.2642	1.62961	-18.3544	
1.165	-41.4542	-0.539923	-0.702615	28.6013	-5.08406	-3.93279	-7.25615	-14.1284	1.42351	-18.2165	
1.17	-42.8964	4.09738	-0.208344	30.4422	-5.17905	-3.25739	-7.2641	-13.9396	1.21148	-18.0362	
1.175	-43.8153	8.81838	0.0861465	31.0205	-5.23001	-2.48332	-7.27661	-13.701	1.01761	-17.8122	
1.18	-45.208	11.97	-0.327082	32.8537	-5.2495	-1.64666	-7.29711	-13.4258	0.870399	-17.5478	
1.185	-45.9146	13.6895	-0.89902	32.9987	-5.23863	-0.779554	-7.31215	-13.1065	0.797226	-17.2482	
1.19	-46.5034	14.5294	-0.973963	33.5253	-5.19598	0.0867685	-7.32526	-12.739	0.824871	-16.922	
1.195	-46.4828	14.7493	-1.07279	33.3233	-5.12139	0.90949	-7.31514	-12.334	0.957052	-16.6261	
1.2	-45.7192	14.5093	-1.0902	32.92	-5.01592	1.50688	-7.31803	-11.9176	1.06699	-16.304	
1.205	-44.0332	13.7495	-1.09729	31.8479	-4.88229	1.79567	-7.17463	-11.4935	1.21501	-15.9485	
1.21	-41.4786	12.4982	-1.03795	30.2548	-4.7249	1.77459	-6.89027	-11.061	1.48019	-15.5683	
1.215	-38.1405	10.8109	-0.950804	28.1927	-4.55073	1.43145	-6.54568	-10.6107	1.87686	-15.192	
1.22	-34.152	8.73552	-1.00371	25.5805	-4.36967	0.713775	-6.27142	-10.1203	2.42307	-14.8123	
1.225	-28.8552	5.91431	-1.22245	22.3202	-4.19658	-0.330835	-6.09662	-9.59337	3.0346	-14.4165	
1.23	-22.6322	2.54359	-1.54451	18.61	-4.08026	-0.873859	-5.17105	-9.15947	3.66215	-14.0135	
1.235	-15.7842	-1.49672	-1.69219	14.453	-4.02473	-1.08935	-3.95547	-8.82868	4.29243	-13.6128	
1.24	-8.37318	-6.02177	-1.78577	9.89537	-3.9508	-1.35596	-2.92846	-8.55919	4.93994	-13.2246	
1.245	-1.31597	-10.1224	-2.06116	5.14533	-3.86365	-1.63658	-1.80278	-8.30966	5.61084	-12.8594	
1.25	2.49306	-12.4988	-2.25055	2.61786	-3.76817	-1.94292	-0.596211	-8.07933	6.2963	-12.5272	
1.255	4.4368	-13.7932	-2.45513	2.15667	-3.66943	-2.24724	0.659614	-7.86345	6.94513	-12.2378	
