CEINMS output
datacolumns 7
datarows 92
endheader
time	addbrev_r	addlong_r	addmagDist_r	addmagIsch_r	addmagMid_r	addmagProx_r	bflh_r	bfsh_r	edl_r	ehl_r	fdl_r	fhl_r	gaslat_r	gasmed_r	glmax1_r	glmax2_r	glmax3_r	glmed1_r	glmed2_r	glmed3_r	glmin1_r	glmin2_r	glmin3_r	grac_r	iliacus_r	perbrev_r	perlong_r	piri_r	psoas_r	recfem_r	sart_r	semimem_r	semiten_r	soleus_r	tfl_r	tibant_r	tibpost_r	vasint_r	vaslat_r	vasmed_r	addbrev_l	addlong_l	addmagDist_l	addmagIsch_l	addmagMid_l	addmagProx_l	bflh_l	bfsh_l	edl_l	ehl_l	fdl_l	fhl_l	gaslat_l	gasmed_l	glmax1_l	glmax2_l	glmax3_l	glmed1_l	glmed2_l	glmed3_l	glmin1_l	glmin2_l	glmin3_l	grac_l	iliacus_l	perbrev_l	perlong_l	piri_l	psoas_l	recfem_l	sart_l	semimem_l	semiten_l	soleus_l	tfl_l	tibant_l	tibpost_l	vasint_l	vaslat_l	vasmed_l	
3.19	75814.8	17.8128	8.67518	100	100	4500	
3.195	94663.9	12.8054	6.53605	100	100	4500	
3.2	73594.9	4.33277	2.23834	100	100	4500	
3.205	77481.6	8.01715	2.14877	100	100	4500	
3.21	85050.5	7.82754	2.19746	100	100	4500	
3.215	79876.7	7.27607	1.62794	100	100	4500	
3.22	71458.7	6.47606	1.47556	100	100	4500	
3.225	66576.6	6.28131	1.50063	100	100	4500	
3.23	67321.1	6.41621	1.63008	100	100	4500	
3.235	73136.6	7.61275	2.65518	100	100	4500	
3.24	80158.7	7.48336	2.99923	100	100	4500	
3.245	82413.1	7.42677	3.02048	100	100	4500	
3.25	78622.4	7.86383	3.09296	100	100	4500	
3.255	70827.9	8.09335	3.10719	100	100	4500	
3.26	61170.3	8.0063	3.07451	100	100	4500	
3.265	50753.7	7.92179	3.054	100	100	4500	
3.27	41560.9	7.93202	3.05073	100	100	4500	
3.275	34560.9	7.96073	3.07588	100	100	4500	
3.28	29301.9	7.95578	3.09491	100	100	4500	
3.285	27217.9	7.91485	3.11161	100	100	4500	
3.29	27957.8	7.85883	3.17089	100	100	4500	
3.295	31863.4	9.48893	4.82635	100	100	4500	
3.3	38478.5	9.57486	4.92854	100	100	4500	
3.305	44347.3	9.25263	4.72508	100	100	4500	
3.31	38482.7	7.99478	3.63718	100	100	4500	
3.315	27521	7.64052	3.38256	100	100	4500	
3.32	18082.3	7.30011	3.13236	100	100	4500	
3.325	11591.8	6.57688	2.49776	100	100	4500	
3.33	7628.47	5.6582	1.65463	100	100	4500	
3.335	5213.19	5.30092	1.11776	100	100	4500	
3.34	3774.95	5.2805	1.14482	100	100	4500	
3.345	2908.08	6.03823	1.58793	100	100	4500	
3.35	2543.86	6.16522	1.64323	100	100	4500	
3.355	3044.61	6.45885	1.74884	100	100	4500	
3.36	5006.95	6.73299	1.92631	100	100	4500	
3.365	8957.6	6.74566	2.10949	100	100	4500	
3.37	14668.5	6.83376	2.24618	100	100	4500	
3.375	22082.5	6.88245	2.40084	100	100	4500	
3.38	31027.7	6.20984	2.57659	100	100	4500	
3.385	42520.2	6.60578	2.71668	100	100	4500	
3.39	55118	6.74275	2.85546	100	100	4500	
3.395	62151	7.48987	2.81101	100	100	4500	
3.4	65124.3	5.7921	2.97585	100	100	4500	
3.405	57837.6	5.66999	3.07439	100	100	4500	
3.41	46578.4	6.24488	3.33983	100	100	4500	
3.415	37830	8.62004	5.47514	100	100	4500	
3.42	31381.2	9.79277	5.72147	100	100	4500	
3.425	26003.7	8.95054	5.50609	100	100	4500	
3.43	22456.2	9.2053	5.16522	100	100	4500	
3.435	20050.6	9.40405	4.4985	100	100	4500	
3.44	18074.2	10.1207	4.06404	100	100	4500	
3.445	15719.4	10.344	3.76525	100	100	4500	
3.45	13074.9	10.6723	3.48753	100	100	4500	
3.455	10751.1	10.6754	3.24236	100	100	4500	
3.46	9561.32	9.43048	2.59446	100	100	4500	
3.465	8328.16	9.84692	2.50681	100	100	4500	
3.47	6727.65	10.0679	2.3648	100	100	4500	
3.475	4940.38	10.0003	2.41053	100	100	4500	
3.48	773.324	10.5691	1.81274	100	100	4500	
3.485	295.116	7.89197	1.52562	100	100	4500	
3.49	103.149	8.33248	0.552407	100	100	4500	
3.495	83.5461	9.09348	0.557151	100	100	4500	
3.5	234.083	10.6232	0.809261	100	100	4500	
3.505	892.809	12.3525	1.79539	100	100	4500	
3.51	2739.78	13.397	2.5571	100	100	4500	
3.515	5833.92	14.3635	2.84083	100	100	4500	
3.52	9186.99	15.4355	3.10897	100	100	4500	
3.525	11480.7	15.4472	3.26427	100	100	4500	
3.53	12196.9	15.1742	3.27627	100	100	4500	
3.535	11818.4	14.6378	3.18513	100	100	4500	
3.54	11662.4	13.2089	2.26005	100	100	4500	
3.545	12511.3	11.5254	1.13203	100	100	4500	
3.55	14223.8	10.7778	1.08196	100	100	4500	
3.555	15944.7	10.0551	1.1017	100	100	4500	
3.56	17581.3	10.632	1.20329	100	100	4500	
3.565	18743.9	10.2701	1.10242	100	100	4500	
3.57	19197.7	9.19602	0.984956	100	100	4500	
3.575	18893.9	8.28627	0.946194	100	100	4500	
3.58	18138.5	8.80586	0.848117	100	100	4500	
3.585	17332.5	9.26389	0.809407	100	100	4500	
3.59	16772.9	9.7316	0.827104	100	100	4500	
3.595	16675	9.72908	0.81199	100	100	4500	
3.6	17194.2	8.86402	0.80775	100	100	4500	
3.605	18258.5	8.83149	0.827236	100	100	4500	
3.61	19276.1	8.28161	0.935875	100	100	4500	
3.615	22211.3	7.78279	0.918506	100	100	4500	
3.62	28634.5	7.40643	0.947363	100	100	4500	
3.625	38740.7	7.25094	1.17988	100	100	4500	
3.63	52259.9	7.16039	1.55497	100	100	4500	
3.635	69071	6.90378	1.6618	100	100	4500	
3.64	83880.1	7.05437	1.61446	100	100	4500	
3.645	106288	6.34653	1.93155	100	100	4500	
