CEINMS output
datacolumns 81
datarows 92
endheader
time	addbrev_r	addlong_r	addmagDist_r	addmagIsch_r	addmagMid_r	addmagProx_r	bflh_r	bfsh_r	edl_r	ehl_r	fdl_r	fhl_r	gaslat_r	gasmed_r	glmax1_r	glmax2_r	glmax3_r	glmed1_r	glmed2_r	glmed3_r	glmin1_r	glmin2_r	glmin3_r	grac_r	iliacus_r	perbrev_r	perlong_r	piri_r	psoas_r	recfem_r	sart_r	semimem_r	semiten_r	soleus_r	tfl_r	tibant_r	tibpost_r	vasint_r	vaslat_r	vasmed_r	addbrev_l	addlong_l	addmagDist_l	addmagIsch_l	addmagMid_l	addmagProx_l	bflh_l	bfsh_l	edl_l	ehl_l	fdl_l	fhl_l	gaslat_l	gasmed_l	glmax1_l	glmax2_l	glmax3_l	glmed1_l	glmed2_l	glmed3_l	glmin1_l	glmin2_l	glmin3_l	grac_l	iliacus_l	perbrev_l	perlong_l	piri_l	psoas_l	recfem_l	sart_l	semimem_l	semiten_l	soleus_l	tfl_l	tibant_l	tibpost_l	vasint_l	vaslat_l	vasmed_l	
3.19	5.25622e-05	0.000773534	0.00016652	8.78867e-05	4.43359e-05	5.80862e-05	0.000914131	0.000462873	0.000262921	0.000135634	0.000424936	0.000438306	0.000917762	0.00140491	0.00213725	0.00204146	0.00195583	0.00213877	0.00212431	0.00190726	0.000448302	0.00213027	0.00188348	0.000181635	0.000348778	0.00041468	0.000219886	0.00202193	0.000132482	0.000116513	6.46323e-05	0.00216718	0.0011681	0.000901844	5.62209e-05	8.96996e-05	0.000568391	0.000261346	0.000128386	0.000122691	0.000248659	0.000248659	0.247057	0.247057	0.13642	0.000248659	0.000854591	0.000215115	0.000968885	0.000739262	0.455172	0.000525549	0.00224561	0.000248659	0.00238017	0.00390417	0.00031078	0.872914	0.924278	0.00133329	0.445186	0.821272	0.000862863	0.0107017	0.000284681	0.00449774	0.000143832	0.000267727	0.000776532	0.25597	0.65495	0.00741254	0.000902935	0.0397472	0.000248659	0.071101	0.0239045	2.55801e-05	0.000998959	3.03582e-05	
3.195	0.000143169	0.00119938	0.0003875	0.000222473	0.000117934	0.000157914	0.00168795	0.00101731	0.000562033	0.000321892	0.000796865	0.000787985	0.0014989	0.00191979	0.0027885	0.00268745	0.00260659	0.00285819	0.00272277	0.00259835	0.000793858	0.00286018	0.00258216	0.000430155	0.000799858	0.00075472	0.000470716	0.0026465	0.000313226	0.000301267	0.000174491	0.00269349	0.00182472	0.0014769	0.000151563	0.000225198	0.000976726	0.000559261	0.000307226	0.000294488	0.000500749	0.000500749	0.494782	0.446326	0.290259	0.0200686	0.00191741	0.000575083	0.00106577	0.0009611	0.414711	0.00209493	0.00545459	0.000500749	0.00578134	0.0094046	0.00069717	0.688265	0.993503	0.00149903	0.312617	0.15406	0.0010073	0.0272352	0.00055606	0.0186666	0.000527544	0.000532862	0.000993041	0.33353	0.887549	0.0168307	0.00236601	0.0793123	0.000500749	0.138462	0.0730975	6.86385e-05	0.00109884	8.10598e-05	
3.2	0.00280274	0.00147286	0.00147114	0.00160169	0.00154203	0.00297016	0.00274905	0.00287831	0.00141435	0.00138138	0.00134373	0.00121313	0.00196544	0.00210627	0.00297486	0.0028816	0.0028146	0.00309139	0.00287842	0.00284492	0.0011869	0.00310268	0.00283922	0.00182083	0.00279444	0.00119134	0.00119131	0.00282847	0.00131167	0.00271723	0.0029309	0.00280785	0.00226037	0.00194393	0.00244934	0.00149871	0.00138435	0.00141335	0.00139406	0.00136473	0.00102267	0.00102267	0.850519	0.742888	0.504526	0.0453755	0.211638	0.101585	0.00107355	0.00102332	0.348308	0.0632876	0.284457	0.00102267	0.159823	0.336703	0.0898374	0.569009	0.999308	0.00151596	0.303626	0.0898526	0.0010277	0.649387	0.00103947	0.141926	0.0397267	0.00105049	0.0010485	0.376221	0.97323	0.533761	0.287287	0.210163	0.00102267	0.220291	0.496327	0.00103384	0.00110687	0.00113001	
3.205	0.00280274	0.00147286	0.00147114	0.00160169	0.00154203	0.00297016	0.00274905	0.00287831	0.00141435	0.00138138	0.00134373	0.00121313	0.00196544	0.00210627	0.00297486	0.0028816	0.0028146	0.00309139	0.00287842	0.00284492	0.0011869	0.00310268	0.00283922	0.00182083	0.00279444	0.00119134	0.00119131	0.00282847	0.00131167	0.00271723	0.0029309	0.00280785	0.00226037	0.00194393	0.00244934	0.00149871	0.00138435	0.00141335	0.00139406	0.00136473	0.00108535	0.00102267	0.637153	0.540911	0.379985	0.0403729	0.210905	0.101493	0.00107355	0.00102332	0.285857	0.0624412	0.282608	0.00102267	0.157914	0.332455	0.0896596	0.659139	0.572438	0.00151596	0.149312	0.0133088	0.0010277	0.647267	0.00103947	0.135896	0.0395423	0.00105049	0.0010485	0.396807	0.982354	0.527579	0.286809	0.193413	0.00102267	0.252987	0.463836	0.00103384	0.00110687	0.00113001	
3.21	0.00280274	0.00147286	0.00147114	0.00160169	0.00154203	0.00297016	0.00274905	0.00287831	0.00141435	0.00138138	0.00134373	0.00121313	0.00196544	0.00210627	0.00297486	0.0028816	0.0028146	0.00309139	0.00287842	0.00284492	0.0011869	0.00310268	0.00283922	0.00182083	0.00279444	0.00119134	0.00119131	0.00282847	0.00131167	0.00271723	0.0029309	0.00280785	0.00226037	0.00194393	0.00244934	0.00149871	0.00138435	0.00141335	0.00139406	0.00136473	0.00137736	0.00152616	0.428599	0.358329	0.256184	0.0295253	0.209849	0.101352	0.00107355	0.00102332	0.288107	0.0613571	0.279848	0.00102267	0.155126	0.326407	0.0894155	0.573602	0.0685973	0.00151596	0.209981	0.118293	0.0010277	0.644108	0.0898692	0.129325	0.0392822	0.00105049	0.279279	0.417305	0.990096	0.519023	0.286055	0.172069	0.00102267	0.290405	0.424501	0.00103384	0.00110687	0.00113001	
3.215	0.00280274	0.00147286	0.00147114	0.00160169	0.00154203	0.00297016	0.00274905	0.00287831	0.00141435	0.00138138	0.00134373	0.00121313	0.00196544	0.00210627	0.00297486	0.0028816	0.0028146	0.00309139	0.00287842	0.00284492	0.0011869	0.00310268	0.00283922	0.00182083	0.00279444	0.00119134	0.00119131	0.00282847	0.00131167	0.00271723	0.0029309	0.00280785	0.00226037	0.00194393	0.00244934	0.00149871	0.00138435	0.00141335	0.00139406	0.00136473	0.00672075	0.00615471	0.272237	0.224913	0.164729	0.020399	0.208498	0.10116	0.00107355	0.00102332	0.314251	0.0603497	0.276226	0.00102267	0.151697	0.318955	0.0891187	0.533836	0.00679586	0.00248988	0.129089	0.0227742	0.00125566	0.639929	0.247263	0.124852	0.0390223	0.00105049	0.603235	0.436107	0.995752	0.508537	0.28502	0.148592	0.00102267	0.329424	0.382874	0.00104418	0.00110687	0.00113001	
3.22	0.00280274	0.00147286	0.00147114	0.00160169	0.00154203	0.00297016	0.00274905	0.00287831	0.00141435	0.00138138	0.00134373	0.00121313	0.00196544	0.00210627	0.00297486	0.0028816	0.0028146	0.00309139	0.00287842	0.00284492	0.0011869	0.00310268	0.00283922	0.00182083	0.00279444	0.00119134	0.00119131	0.00282847	0.00131167	0.00271723	0.0029309	0.00280785	0.00226037	0.00194393	0.00244934	0.00149871	0.00138435	0.00141335	0.00139406	0.00136473	0.0200993	0.0158427	0.179714	0.149474	0.112892	0.0133432	0.206883	0.100919	0.00107355	0.00102332	0.343327	0.0596239	0.27181	0.00102267	0.147825	0.310444	0.0887832	0.451964	0.0017739	0.00516296	0.0649366	0.00405967	0.00133875	0.63476	0.332502	0.124009	0.0388152	0.00131269	0.459308	0.454302	0.998095	0.496531	0.283709	0.124972	0.00102267	0.367855	0.343567	0.00107457	0.00110687	0.00113001	
3.225	0.00280274	0.00147286	0.00147114	0.00160169	0.00154203	0.00297016	0.00274905	0.00287831	0.00141435	0.00138138	0.00134373	0.00121313	0.00196544	0.00210627	0.00297486	0.0028816	0.0028146	0.00309139	0.00287842	0.00284492	0.0011869	0.00310268	0.00283922	0.00182083	0.00279444	0.00119134	0.00119131	0.00282847	0.00131167	0.00271723	0.0029309	0.00280785	0.00226037	0.00194393	0.00244934	0.00149871	0.00138435	0.00141335	0.00139406	0.00136473	0.0379659	0.0284366	0.130937	0.111837	0.0890367	0.00853457	0.205032	0.100631	0.00107355	0.00102332	0.367524	0.0593906	0.266684	0.00102267	0.143654	0.301146	0.0884205	0.377974	0.00141428	0.00994234	0.0299954	0.00138508	0.00107817	0.628624	0.480416	0.127515	0.0387328	0.00154803	0.715106	0.471256	0.998929	0.483384	0.282135	0.102662	0.00102267	0.404998	0.311019	0.00113011	0.00110687	0.00113001	
3.23	0.00280274	0.00147286	0.00147114	0.00160169	0.00154203	0.00297016	0.00274905	0.00287831	0.00141435	0.00138138	0.00134373	0.00121313	0.00196544	0.00210627	0.00297486	0.0028816	0.0028146	0.00309139	0.00287842	0.00284492	0.0011869	0.00310268	0.00283922	0.00182083	0.00279444	0.00119134	0.00119131	0.00282847	0.00131167	0.00271723	0.0029309	0.00280785	0.00226037	0.00194393	0.00244934	0.00149871	0.00138435	0.00141335	0.00139406	0.00136473	0.0549686	0.0400295	0.109057	0.0942142	0.0817019	0.00547248	0.202973	0.100295	0.00107355	0.00102332	0.395374	0.0598212	0.260941	0.00102267	0.139313	0.291295	0.088041	0.315221	0.00139008	0.0142895	0.0134592	0.0010461	0.00103397	0.621551	0.619881	0.135302	0.0388247	0.00147894	0.878255	0.48398	0.999206	0.469452	0.280322	0.0826295	0.00102267	0.438879	0.288709	0.00121191	0.00110687	0.00113001	
3.235	0.00280274	0.00147286	0.00147114	0.00160169	0.00154203	0.00297016	0.00274905	0.00287831	0.00141435	0.00138138	0.00134373	0.00121313	0.00196544	0.00210627	0.00297486	0.0028816	0.0028146	0.00309139	0.00287842	0.00284492	0.0011869	0.00310268	0.00283922	0.00182083	0.00279444	0.00119134	0.00119131	0.00282847	0.00131167	0.00271723	0.0029309	0.00280785	0.00226037	0.00194393	0.00244934	0.00149871	0.00138435	0.00141335	0.00139406	0.00136473	0.0687957	0.0488941	0.105308	0.0894334	0.0841887	0.0036037	0.200731	0.0999106	0.00107355	0.00102332	0.420786	0.0609883	0.254687	0.00102267	0.134912	0.281099	0.0876548	0.25477	0.00138851	0.00405287	0.00619064	0.00100572	0.00493061	0.613589	0.692283	0.146621	0.0391086	0.00135281	0.823534	0.490762	0.999296	0.455075	0.278297	0.065428	0.00102267	0.467949	0.277904	0.00130594	0.00110687	0.00113001	
3.24	0.00280274	0.00147286	0.00147114	0.00160169	0.00154203	0.00297016	0.00274905	0.00287831	0.00141435	0.00138138	0.00134373	0.00121313	0.00196544	0.00210627	0.00297486	0.0028816	0.0028146	0.00309139	0.00287842	0.00284492	0.0011869	0.00310268	0.00283922	0.00182083	0.00279444	0.00119134	0.00119131	0.00282847	0.00131167	0.00271723	0.0029309	0.00280785	0.00226037	0.00194393	0.00244934	0.00149871	0.00138435	0.00141335	0.00139406	0.00136473	0.0800017	0.0556376	0.114428	0.0943012	0.0931598	0.00249594	0.198333	0.0994825	0.00107355	0.00102332	0.441998	0.0629393	0.248031	0.00102267	0.130535	0.270732	0.087271	0.185635	0.00138841	0.00178264	0.00313721	0.00100108	0.00245736	0.604806	0.711271	0.160696	0.0396096	0.00222832	0.638068	0.492603	0.999324	0.440561	0.276095	0.0512996	0.00102267	0.491033	0.277789	0.00141032	0.00110687	0.00113001	
3.245	0.00280274	0.00147286	0.00147114	0.00160169	0.00154203	0.00297016	0.00274905	0.00287831	0.00141435	0.00138138	0.00134373	0.00121313	0.00196544	0.00210627	0.00297486	0.0028816	0.0028146	0.00309139	0.00287842	0.00284492	0.0011869	0.00310268	0.00283922	0.00182083	0.00279444	0.00119134	0.00119131	0.00282847	0.00131167	0.00271723	0.0029309	0.00280785	0.00226037	0.00194393	0.00244934	0.00149871	0.00138435	0.00141335	0.00139406	0.00136473	0.090518	0.0620733	0.132943	0.106543	0.107317	0.00185308	0.195798	0.0990151	0.00107355	0.00102332	0.466799	0.0657356	0.241074	0.00102267	0.126226	0.260316	0.0868972	0.11072	0.0013884	0.00153942	0.00189303	0.00100056	0.00123971	0.595288	0.727336	0.176764	0.0403637	0.00359127	0.545276	0.492429	0.999333	0.426161	0.27375	0.0402504	0.00102267	0.507535	0.285432	0.00152765	0.00110687	0.00113001	
3.25	0.00280274	0.00147286	0.00147114	0.00160169	0.00154203	0.00297016	0.00274905	0.00287831	0.00141435	0.00138138	0.00134373	0.00121313	0.00196544	0.00210627	0.00297486	0.0028816	0.0028146	0.00309139	0.00287842	0.00284492	0.0011869	0.00310268	0.00283922	0.00182083	0.00279444	0.00119134	0.00119131	0.00282847	0.00131167	0.00271723	0.0029309	0.00280785	0.00226037	0.00194393	0.00244934	0.00149871	0.00138435	0.00141335	0.00139406	0.00136473	0.0997606	0.0679376	0.157887	0.124262	0.124374	0.00148599	0.193149	0.0985122	0.00107355	0.00102332	0.492688	0.0693338	0.233909	0.00102267	0.122024	0.249957	0.0865402	0.0365451	0.0013884	0.00151785	0.00139706	0.00100051	0.00465563	0.585131	0.724875	0.193781	0.0413872	0.003889	0.351534	0.492299	0.999335	0.412064	0.271293	0.0321243	0.00102267	0.517328	0.29721	0.0016634	0.00110687	0.00113001	
3.255	0.00280274	0.00147286	0.00147114	0.00160169	0.00154203	0.00297016	0.00274905	0.00287831	0.00141435	0.00138138	0.00134373	0.00121313	0.00196544	0.00210627	0.00297486	0.0028816	0.0028146	0.00309139	0.00287842	0.00284492	0.0011869	0.00310268	0.00283922	0.00182083	0.00279444	0.00119134	0.00119131	0.00282847	0.00131167	0.00271723	0.0029309	0.00280785	0.00226037	0.00194393	0.00244934	0.00149871	0.00138435	0.00141335	0.00139406	0.00136473	0.118961	0.080109	0.206206	0.156277	0.160186	0.00127901	0.190402	0.0979774	0.00107355	0.00102332	0.515166	0.0738557	0.22662	0.00102267	0.117943	0.239761	0.0862146	0.00612932	0.0013884	0.0015161	0.00120257	0.0010005	0.00271885	0.574455	0.550872	0.211573	0.0427167	0.00323868	0.54213	0.492378	0.999336	0.39841	0.268755	0.0266732	0.00102267	0.52073	0.309799	0.00182744	0.00110687	0.00113001	
3.26	0.00280274	0.00147286	0.00147114	0.00160169	0.00154203	0.00297016	0.00274905	0.00287831	0.00141435	0.00138138	0.00134373	0.00121313	0.00196544	0.00210627	0.00297486	0.0028816	0.0028146	0.00309139	0.00287842	0.00284492	0.0011869	0.00310268	0.00283922	0.00182083	0.00279444	0.00119134	0.00119131	0.00282847	0.00131167	0.00271723	0.0029309	0.00280785	0.00226037	0.00194393	0.00244934	0.00149871	0.00138435	0.00141335	0.00139406	0.00136473	0.149182	0.0980509	0.278705	0.199343	0.215293	0.0011635	0.187597	0.0974139	0.00107355	0.00102332	0.539485	0.0792843	0.219283	0.00102267	0.114011	0.22985	0.0859387	0.00177521	0.0013884	0.00151597	0.00112729	0.0010005	0.00128541	0.563394	0.362268	0.229573	0.0443782	0.0025216	0.666654	0.49297	0.999336	0.385307	0.266165	0.0235763	0.00102267	0.518194	0.320401	0.00201377	0.00110687	0.00113001	
3.265	0.00280274	0.00147286	0.00147114	0.00160169	0.00154203	0.00297016	0.00274905	0.00287831	0.00141435	0.00138138	0.00134373	0.00121313	0.00196544	0.00210627	0.00297486	0.0028816	0.0028146	0.00309139	0.00287842	0.00284492	0.0011869	0.00310268	0.00283922	0.00182083	0.00279444	0.00119134	0.00119131	0.00282847	0.00131167	0.00271723	0.0029309	0.00280785	0.00226037	0.00194393	0.00244934	0.00149871	0.00138435	0.00141335	0.00139406	0.00136473	0.181746	0.115716	0.367418	0.25111	0.277717	0.00109957	0.18475	0.0968244	0.00107355	0.00102332	0.561715	0.0855128	0.211963	0.00102267	0.110263	0.220329	0.0857265	0.00127626	0.0013884	0.00151596	0.00109845	0.0010005	0.00607511	0.552075	0.22077	0.24701	0.0463523	0.00635496	0.707198	0.494864	0.999337	0.372794	0.263543	0.0224669	0.00102267	0.51035	0.327067	0.00221505	0.00110687	0.00113001	
3.27	0.00280274	0.00147286	0.00147114	0.00160169	0.00154203	0.00297016	0.00274905	0.00287831	0.00141435	0.00138138	0.00134373	0.00121313	0.00196544	0.00210627	0.00297486	0.0028816	0.0028146	0.00309139	0.00287842	0.00284492	0.0011869	0.00310268	0.00283922	0.00182083	0.00279444	0.00119134	0.00119131	0.00282847	0.00131167	0.00271723	0.0029309	0.00280785	0.00226037	0.00194393	0.00244934	0.00149871	0.00138435	0.00141335	0.00139406	0.00136473	0.209107	0.128768	0.45641	0.308185	0.335656	0.00106445	0.18187	0.0962111	0.00107355	0.00102332	0.577827	0.0924339	0.204714	0.00102267	0.106744	0.211293	0.0855866	0.00122434	0.0013884	0.00151596	0.00108749	0.0010005	0.00187089	0.540603	0.128453	0.263266	0.0486277	0.00594319	0.676044	0.497995	0.999337	0.360852	0.260909	0.0229759	0.00102267	0.506456	0.329308	0.00243808	0.00110687	0.00113001	
3.275	0.00280274	0.00147286	0.00147114	0.00160169	0.00154203	0.00297016	0.00274905	0.00287831	0.00141435	0.00138138	0.00134373	0.00121313	0.00196544	0.00210627	0.00297486	0.0028816	0.0028146	0.00309139	0.00287842	0.00284492	0.0011869	0.00310268	0.00283922	0.00182083	0.00279444	0.00119134	0.00119131	0.00282847	0.00131167	0.00271723	0.0029309	0.00280785	0.00226037	0.00194393	0.00244934	0.00149871	0.00138435	0.00141335	0.00139406	0.00136473	0.230339	0.137049	0.54973	0.366761	0.386498	0.00104527	0.178965	0.0955751	0.00107355	0.00102332	0.593799	0.100133	0.197585	0.00102267	0.103468	0.202779	0.0855239	0.00121922	0.0013884	0.00151596	0.00108335	0.0010005	0.00113353	0.529046	0.0725644	0.277441	0.0512337	0.00459553	0.890647	0.501155	0.999337	0.349445	0.258272	0.024733	0.00102267	0.504809	0.328125	0.00270187	0.00110687	0.00113001	
3.28	0.00280274	0.00147286	0.00147114	0.00160169	0.00154203	0.00297016	0.00274905	0.00287831	0.00141435	0.00138138	0.00134373	0.00121313	0.00196544	0.00210627	0.00297486	0.0028816	0.0028146	0.00309139	0.00287842	0.00284492	0.0011869	0.00310268	0.00283922	0.00182083	0.00279444	0.00119134	0.00119131	0.00282847	0.00131167	0.00271723	0.0029309	0.00280785	0.00226037	0.00194393	0.00244934	0.00149871	0.00138435	0.00141335	0.00139406	0.00136473	0.236082	0.135571	0.626993	0.420575	0.424668	0.00103484	0.176042	0.0949166	0.00107355	0.00102332	0.602755	0.108149	0.19061	0.00102267	0.100494	0.194829	0.0855307	0.00121873	0.0013884	0.00151596	0.0010818	0.0010005	0.00103951	0.517408	0.0402675	0.290083	0.0540547	0.00574653	0.829261	0.502347	0.999337	0.338517	0.255634	0.0274007	0.00102267	0.503791	0.323518	0.00302641	0.00110687	0.00113001	
3.285	0.00280274	0.00147286	0.00147114	0.00160169	0.00154203	0.00297016	0.00274905	0.00287831	0.00141435	0.00138138	0.00134373	0.00121313	0.00196544	0.00210627	0.00297486	0.0028816	0.0028146	0.00309139	0.00287842	0.00284492	0.0011869	0.00310268	0.00283922	0.00182083	0.00279444	0.00119134	0.00119131	0.00282847	0.00131167	0.00271723	0.0029309	0.00280785	0.00226037	0.00194393	0.00244934	0.00149871	0.00138435	0.00141335	0.00139406	0.00136473	0.226528	0.127799	0.664194	0.463246	0.442329	0.0010292	0.173105	0.0942354	0.00107355	0.00102332	0.614948	0.116212	0.183825	0.00102267	0.0976953	0.187226	0.085582	0.00121868	0.0013884	0.00151596	0.00108122	0.0010005	0.00102894	0.505658	0.0221826	0.300572	0.0570178	0.00673073	0.954099	0.498945	0.999337	0.327997	0.252991	0.0306437	0.00102267	0.502722	0.316674	0.00344339	0.00110687	0.00113001	
3.29	0.00280274	0.00147286	0.00147114	0.00160169	0.00154203	0.00297016	0.00274905	0.00287831	0.00141435	0.00138138	0.00134373	0.00121313	0.00196544	0.00210627	0.00297486	0.0028816	0.0028146	0.00309139	0.00287842	0.00284492	0.0011869	0.00310268	0.00283922	0.00182083	0.00279444	0.00119134	0.00119131	0.00282847	0.00131167	0.00271723	0.0029309	0.00280785	0.00226037	0.00194393	0.00244934	0.00149871	0.00138435	0.00141335	0.00139406	0.00136473	0.205694	0.118004	0.6584	0.476125	0.439733	0.00102617	0.170159	0.0935303	0.00107355	0.00102332	0.622984	0.124196	0.177252	0.00102267	0.0947938	0.179602	0.0856466	0.00121868	0.0013884	0.00151596	0.00108101	0.0010005	0.00102782	0.493729	0.0123413	0.308769	0.0600577	0.00552476	0.989809	0.489874	0.999337	0.317794	0.250328	0.0341485	0.00102267	0.501233	0.30862	0.00399591	0.00110687	0.00113001	
3.295	0.00280274	0.00147286	0.00147114	0.00160169	0.00154203	0.00297016	0.00274905	0.00287831	0.00141435	0.00138138	0.00134373	0.00121313	0.00196544	0.00210627	0.00297486	0.0028816	0.0028146	0.00309139	0.00287842	0.00284492	0.0011869	0.00310268	0.00283922	0.00182083	0.00279444	0.00119134	0.00119131	0.00282847	0.00131167	0.00271723	0.0029309	0.00280785	0.00226037	0.00194393	0.00244934	0.00149871	0.00138435	0.00141335	0.00139406	0.00136473	0.150732	0.10946	0.632209	0.424306	0.435992	0.00102453	0.167206	0.0927999	0.00107355	0.00102332	0.627759	0.131918	0.170905	0.00102267	0.0916447	0.171792	0.0857103	0.00121868	0.0013884	0.00151596	0.00108093	0.0010005	0.00102771	0.481547	0.0102468	0.314792	0.0631092	0.00408892	0.997344	0.475432	0.999337	0.307821	0.247624	0.0376386	0.00102267	0.49858	0.300198	0.00431382	0.00110687	0.00113001	
3.3	0.00280274	0.00147286	0.00147114	0.00160169	0.00154203	0.00297016	0.00274905	0.00287831	0.00141435	0.00138138	0.00134373	0.00121313	0.00196544	0.00210627	0.00297486	0.0028816	0.0028146	0.00309139	0.00287842	0.00284492	0.0011869	0.00310268	0.00283922	0.00182083	0.00279444	0.00119134	0.00119131	0.00282847	0.00131167	0.00271723	0.0029309	0.00280785	0.00226037	0.00194393	0.00244934	0.00149871	0.00138435	0.00141335	0.00139406	0.00136473	0.100255	0.102463	0.604758	0.34351	0.4424	0.00102366	0.16425	0.0920425	0.00107355	0.00102332	0.630331	0.139241	0.164795	0.00102267	0.0882901	0.163862	0.0857727	0.00121868	0.0013884	0.00151596	0.0010809	0.0010005	0.0010277	0.469057	0.0106473	0.318844	0.0661092	0.00876786	0.998752	0.456256	0.999337	0.298023	0.244864	0.0409258	0.00102267	0.493253	0.291948	0.00445776	0.00110687	0.00113001	
3.305	0.00280274	0.00147286	0.00147114	0.00160169	0.00154203	0.00297016	0.00274905	0.00287831	0.00141435	0.00138138	0.00134373	0.00121313	0.00196544	0.00210627	0.00297486	0.0028816	0.0028146	0.00309139	0.00287842	0.00284492	0.0011869	0.00310268	0.00283922	0.00182083	0.00279444	0.00119134	0.00119131	0.00282847	0.00131167	0.00271723	0.0029309	0.00280785	0.00226037	0.00194393	0.00244934	0.00149871	0.00138435	0.00141335	0.00139406	0.00136473	0.0631652	0.0928723	0.579126	0.273688	0.451827	0.0010232	0.161275	0.0912564	0.00107355	0.00102332	0.630482	0.14603	0.158935	0.00102267	0.0849583	0.156062	0.0858412	0.00121868	0.0013884	0.00151596	0.00108089	0.0010005	0.0010277	0.456225	0.00810778	0.321167	0.0689941	0.00794877	0.998998	0.433361	0.999337	0.288476	0.242033	0.0438873	0.00102267	0.482687	0.28402	0.00447497	0.00110687	0.00113001	
3.31	0.00280274	0.00147286	0.00147114	0.00160169	0.00154203	0.00297016	0.00274905	0.00287831	0.00141435	0.00138138	0.00134373	0.00121313	0.00196544	0.00210627	0.00297486	0.0028816	0.0028146	0.00309139	0.00287842	0.00284492	0.0011869	0.00310268	0.00283922	0.00182083	0.00279444	0.00119134	0.00119131	0.00282847	0.00131167	0.00271723	0.0029309	0.00280785	0.00226037	0.00194393	0.00244934	0.00149871	0.00138435	0.00141335	0.00139406	0.00136473	0.0385248	0.0681065	0.563189	0.266617	0.444836	0.00102295	0.158294	0.09044	0.00107355	0.00102332	0.628819	0.15216	0.153349	0.00102267	0.0821917	0.148945	0.0859352	0.00121868	0.0013884	0.00151596	0.00108089	0.0010005	0.0010277	0.443056	0.00559539	0.321879	0.0717116	0.00599029	0.999039	0.407835	0.955452	0.279423	0.239138	0.0464914	0.00102267	0.462602	0.276373	0.00440202	0.00110687	0.00113001	
3.315	0.00280274	0.00147286	0.00147114	0.00160169	0.00154203	0.00297016	0.00274905	0.00287831	0.00141435	0.00138138	0.00134373	0.00121313	0.00196544	0.00210627	0.00297486	0.0028816	0.0028146	0.00309139	0.00287842	0.00284492	0.0011869	0.00310268	0.00283922	0.00182083	0.00279444	0.00119134	0.00119131	0.00282847	0.00131167	0.00271723	0.0029309	0.00280785	0.00226037	0.00194393	0.00244934	0.00149871	0.00138435	0.00141335	0.00139406	0.00136473	0.0230739	0.0454411	0.534902	0.276938	0.416473	0.00102282	0.155316	0.0895923	0.00107355	0.00102332	0.625604	0.157567	0.148071	0.00102267	0.0802158	0.142737	0.0860649	0.00121868	0.0013884	0.00151596	0.00108088	0.0010005	0.0010277	0.429592	0.00377702	0.32139	0.074212	0.00425129	0.351442	0.380878	0.935588	0.270944	0.236187	0.0487326	0.00102267	0.425166	0.269094	0.004505	0.00110687	0.00113001	
3.32	0.00280274	0.00147286	0.00147114	0.00160169	0.00154203	0.00297016	0.00274905	0.00287831	0.00141435	0.00138138	0.00134373	0.00121313	0.00196544	0.00210627	0.00297486	0.0028816	0.0028146	0.00309139	0.00287842	0.00284492	0.0011869	0.00310268	0.00283922	0.00182083	0.00279444	0.00119134	0.00119131	0.00282847	0.00131167	0.00271723	0.0029309	0.00280785	0.00226037	0.00194393	0.00244934	0.00149871	0.00138435	0.00141335	0.00139406	0.00136473	0.0137415	0.0288188	0.49466	0.278103	0.381984	0.00102275	0.152342	0.0887131	0.00107355	0.00102332	0.620947	0.162233	0.14313	0.00102267	0.0790003	0.13742	0.0862367	0.00121868	0.0013884	0.0165709	0.00108088	0.0010005	0.0010277	0.415899	0.00346728	0.320078	0.0764656	0.00300919	0.0797264	0.353276	0.94614	0.262959	0.233188	0.0506076	0.00102267	0.353691	0.26217	0.00513633	0.00110687	0.00113001	
3.325	0.00280274	0.00147286	0.00147114	0.00160169	0.00154203	0.00297016	0.00274905	0.00287831	0.00141435	0.00138138	0.00134373	0.00121313	0.00196544	0.00210627	0.00297486	0.0028816	0.0028146	0.00309139	0.00287842	0.00284492	0.0011869	0.00310268	0.00283922	0.00182083	0.00279444	0.00119134	0.00119131	0.00282847	0.00131167	0.00271723	0.0029309	0.00280785	0.00226037	0.00194393	0.00244934	0.00149871	0.00138435	0.00141335	0.00139406	0.00136473	0.00825069	0.0177891	0.459897	0.281017	0.354755	0.00102271	0.149373	0.0878037	0.00107355	0.00102332	0.614944	0.166136	0.138552	0.00102267	0.0784816	0.132943	0.0864591	0.00121868	0.0013884	0.0938408	0.00108088	0.0010005	0.0010277	0.402062	0.00289205	0.318091	0.0784476	0.00220546	0.0161349	0.325353	0.868885	0.25537	0.230149	0.0520874	0.00102267	0.202428	0.255538	0.00674024	0.00110687	0.00126643	
3.33	0.00280274	0.00147286	0.00147114	0.00160169	0.00154203	0.00297016	0.00274905	0.00287831	0.00141435	0.00138138	0.00134373	0.00121313	0.00196544	0.00210627	0.00297486	0.0028816	0.0028146	0.00309139	0.00287842	0.00284492	0.0011869	0.00310268	0.00283922	0.00182083	0.00279444	0.00119134	0.00119131	0.00282847	0.00131167	0.00271723	0.0029309	0.00280785	0.00226037	0.00194393	0.00244934	0.00149871	0.00138435	0.00141335	0.00139406	0.00136473	0.00508227	0.0108781	0.417675	0.270353	0.326541	0.00102269	0.146409	0.0868676	0.00107355	0.00102332	0.607599	0.169251	0.134357	0.00102267	0.0785868	0.129236	0.0867396	0.00121868	0.0013884	0.142873	0.00168943	0.0010005	0.0010277	0.388171	0.00225405	0.315408	0.0801354	0.00171405	0.00372322	0.297051	0.677386	0.248029	0.227085	0.0531159	0.00102267	0.101209	0.249155	0.00974925	0.00110687	0.00273776	
3.335	0.00280274	0.00147286	0.00147114	0.00160169	0.00154203	0.00297016	0.00274905	0.00287831	0.00141435	0.00138138	0.00134373	0.00121313	0.00196544	0.00210627	0.00297486	0.0028816	0.0028146	0.00309139	0.00287842	0.00284492	0.0011869	0.00310268	0.00283922	0.00182083	0.00279444	0.00119134	0.00119131	0.00282847	0.00131167	0.00271723	0.0029309	0.00280785	0.00226037	0.00194393	0.00244934	0.00149871	0.00138435	0.00141335	0.00139406	0.00136473	0.00328104	0.0067059	0.367603	0.244188	0.295146	0.00102268	0.143449	0.0859107	0.00107355	0.00102332	0.599461	0.171628	0.130559	0.00102267	0.0792585	0.126244	0.0870875	0.00121868	0.0013884	0.18447	0.0015467	0.0010005	0.0010277	0.374327	0.0017765	0.312685	0.0815311	0.00142445	0.00150101	0.268378	0.318975	0.240827	0.224012	0.0536355	0.00102267	0.0473706	0.243362	0.0144616	0.00110687	0.006463	
3.34	0.00280274	0.00147286	0.00147114	0.00160169	0.00154203	0.00297016	0.00274905	0.00287831	0.00141435	0.00138138	0.00134373	0.00121313	0.00196544	0.00210627	0.00297486	0.0028816	0.0028146	0.00309139	0.00287842	0.00284492	0.0011869	0.00310268	0.00283922	0.00182083	0.00279444	0.00119134	0.00119131	0.00282847	0.00131167	0.00271723	0.0029309	0.00280785	0.00226037	0.00194393	0.00244934	0.00149871	0.00138435	0.00141335	0.00139406	0.00136473	0.00226908	0.00425194	0.316813	0.209181	0.263275	0.00102267	0.140504	0.0849417	0.00107355	0.00102332	0.591814	0.173313	0.127172	0.00102267	0.08046	0.123938	0.0875139	0.00121868	0.0013884	0.206818	0.00163138	0.0010005	0.0010277	0.360669	0.0027898	0.309632	0.0826445	0.00125814	0.00112269	0.239423	0.121279	0.233784	0.220959	0.053646	0.00102267	0.0215207	0.237915	0.0208839	0.193827	0.0126094	
3.345	0.00280274	0.00147286	0.00147114	0.00160169	0.00154203	0.00297016	0.00274905	0.00287831	0.00141435	0.00138138	0.00134373	0.00121313	0.00196544	0.00210627	0.00297486	0.0028816	0.0028146	0.00309139	0.00287842	0.00284492	0.0011869	0.00310268	0.00283922	0.00182083	0.00279444	0.00119134	0.00119131	0.00282847	0.00131167	0.00271723	0.0029309	0.00280785	0.00226037	0.00194393	0.00244934	0.00149871	0.00138435	0.00141335	0.00139406	0.00136473	0.001706	0.0028362	0.270189	0.171134	0.23275	0.00102267	0.137588	0.0839723	0.00107355	0.00102332	0.583991	0.174357	0.124201	0.00102267	0.0821736	0.122303	0.0880319	0.00121868	0.0013884	0.214099	0.00140693	0.0010005	0.0010277	0.347351	0.00254065	0.306698	0.0834613	0.00116444	0.00106039	0.210574	0.0422255	0.226973	0.21796	0.0532232	0.00102267	0.00981098	0.232956	0.0289143	0.307942	0.0210865	
3.35	0.00280274	0.00147286	0.00147114	0.00160169	0.00154203	0.00297016	0.00274905	0.00287831	0.00141435	0.00138138	0.00134373	0.00121313	0.00196544	0.00210627	0.00297486	0.0028816	0.0028146	0.00309139	0.00287842	0.00284492	0.0011869	0.00310268	0.00283922	0.00182083	0.00279444	0.00119134	0.00119131	0.00282847	0.00131167	0.00271723	0.0029309	0.00280785	0.00226037	0.00194393	0.00244934	0.00149871	0.00138435	0.00141335	0.00139406	0.00136473	0.00139516	0.00203146	0.227748	0.131444	0.202645	0.00102267	0.134714	0.0830173	0.00107355	0.00102332	0.575544	0.174802	0.121613	0.00102267	0.0844004	0.121341	0.0886562	0.00121868	0.0013884	0.20372	0.00294768	0.0010005	0.0010277	0.334509	0.00207295	0.303791	0.0839873	0.00111243	0.00105037	0.182577	0.0146632	0.220427	0.21505	0.052493	0.00102267	0.00470228	0.228407	0.0384528	0.46443	0.0318798	
3.355	0.00280274	0.00147286	0.00147114	0.00160169	0.00154203	0.00297016	0.00274905	0.00287831	0.00141435	0.00138138	0.00134373	0.00121313	0.00196544	0.00210627	0.00297486	0.0028816	0.0028146	0.00309139	0.00287842	0.00284492	0.0011869	0.00310268	0.00283922	0.00182083	0.00279444	0.00119134	0.00119131	0.00282847	0.00131167	0.00271723	0.0029309	0.00280785	0.00226037	0.00194393	0.00244934	0.00149871	0.00138435	0.00141335	0.00139406	0.00136473	0.00122472	0.0015794	0.187764	0.0901389	0.171073	0.00102267	0.131897	0.0820934	0.00107355	0.00102332	0.565856	0.174693	0.119333	0.00102267	0.08716	0.121067	0.0894038	0.00121868	0.0013884	0.178465	0.00233749	0.0010005	0.0010277	0.322239	0.00233072	0.300696	0.0842424	0.00108389	0.00104879	0.1561	0.00562454	0.214156	0.212266	0.0516006	0.00102267	0.00253126	0.224196	0.0493632	0.63201	0.0449298	
3.36	0.00280274	0.00147286	0.00147114	0.00160169	0.00154203	0.00297016	0.00274905	0.00287831	0.00141435	0.00138138	0.00134373	0.00121313	0.00196544	0.00210627	0.00297486	0.0028816	0.0028146	0.00309139	0.00287842	0.00284492	0.0011869	0.00310268	0.00283922	0.00182083	0.00279444	0.00119134	0.00119131	0.00282847	0.00131167	0.00271723	0.0029309	0.00280785	0.00226037	0.00194393	0.00244934	0.00149871	0.00138435	0.00141335	0.00139406	0.00136473	0.0011318	0.00132788	0.144977	0.0578674	0.133222	0.00102267	0.129144	0.0812153	0.00107355	0.00102332	0.556017	0.174075	0.117227	0.00102267	0.0904837	0.1215	0.0902927	0.00121868	0.0013884	0.131703	0.00172841	0.0010005	0.0010277	0.310566	0.00250885	0.29719	0.0842503	0.00106838	0.00104854	0.131854	0.00274549	0.20813	0.209644	0.050668	0.00102267	0.00162639	0.220141	0.0614968	0.830383	0.0601624	
3.365	0.00280274	0.00147286	0.00147114	0.00160169	0.00154203	0.00297016	0.00274905	0.00287831	0.00141435	0.00138138	0.00134373	0.00121313	0.00196544	0.00210627	0.00297486	0.0028816	0.0028146	0.00309139	0.00287842	0.00284492	0.0011869	0.00310268	0.00283922	0.00182083	0.00279444	0.00119134	0.00119131	0.00282847	0.00131167	0.00271723	0.0029309	0.00280785	0.00226037	0.00194393	0.00244934	0.00149871	0.00138435	0.00141335	0.00139406	0.00136473	0.00108139	0.00118904	0.0990351	0.0357544	0.0913992	0.00102267	0.126468	0.0804012	0.00107355	0.00102332	0.545022	0.173026	0.115135	0.00102267	0.0944008	0.12265	0.0913403	0.00121868	0.0013884	0.0839144	0.010298	0.0010005	0.0010277	0.299504	0.00258048	0.293327	0.0840415	0.00106002	0.00104851	0.110174	0.00184198	0.202372	0.207221	0.0497889	0.00102267	0.00125484	0.216559	0.0746101	0.9834	0.0772457	
3.37	0.00280274	0.00147286	0.00147114	0.00160169	0.00154203	0.00297016	0.00274905	0.00287831	0.00141435	0.00138138	0.00134373	0.00121313	0.00196544	0.00210627	0.00297486	0.0028816	0.0028146	0.00309139	0.00287842	0.00284492	0.0011869	0.00310268	0.00283922	0.00182083	0.00279444	0.00119134	0.00119131	0.00282847	0.00131167	0.00271723	0.0029309	0.00280785	0.00226037	0.00194393	0.00244934	0.00149871	0.00138435	0.00141335	0.00139406	0.00136473	0.00105416	0.00111291	0.0634107	0.0216269	0.0586886	0.00102267	0.123875	0.0796732	0.00107355	0.00102332	0.536081	0.171575	0.112866	0.00102267	0.0988986	0.124471	0.0925581	0.00121868	0.0013884	0.0509144	0.0074022	0.0010005	0.0010277	0.288989	0.00223727	0.289291	0.0836279	0.00105554	0.0014246	0.0913591	0.00156072	0.196896	0.205033	0.0490457	0.00102267	0.00110406	0.213193	0.0884441	0.997946	0.095775	
3.375	0.00280274	0.00147286	0.00147114	0.00160169	0.00154203	0.00297016	0.00274905	0.00287831	0.00141435	0.00138138	0.00134373	0.00121313	0.00196544	0.00210627	0.00297486	0.0028816	0.0028146	0.00309139	0.00287842	0.00284492	0.0011869	0.00310268	0.00283922	0.00182083	0.00279444	0.00119134	0.00119131	0.00282847	0.00131167	0.00271723	0.0029309	0.00280785	0.00226037	0.00194393	0.00244934	0.00149871	0.00138435	0.00141335	0.00139406	0.00136473	0.0010395	0.00107141	0.0390883	0.0129865	0.0362631	0.00102267	0.121368	0.0790531	0.00107355	0.00102332	0.529028	0.169805	0.110244	0.00102267	0.103927	0.126878	0.0939511	0.00121868	0.0013884	0.0430525	0.00435957	0.0010005	0.0010277	0.278885	0.0018774	0.285208	0.0830381	0.00105315	0.00133885	0.0755959	0.00147357	0.191703	0.203111	0.0485511	0.00102267	0.00104346	0.210015	0.102749	0.999024	0.115346	
3.38	0.00280274	0.00147286	0.00147114	0.00160169	0.00154203	0.00297016	0.00274905	0.00287831	0.00141435	0.00138138	0.00134373	0.00121313	0.00196544	0.00210627	0.00297486	0.0028816	0.0028146	0.00309139	0.00287842	0.00284492	0.0011869	0.00310268	0.00283922	0.00182083	0.00279444	0.00119134	0.00119131	0.00282847	0.00131167	0.00271723	0.0029309	0.00280785	0.00226037	0.00194393	0.00244934	0.00149871	0.00138435	0.00141335	0.00139406	0.00136473	0.00103164	0.00104889	0.0235823	0.00785721	0.0219317	0.00102267	0.118953	0.0785641	0.00107355	0.00102332	0.522208	0.167783	0.107338	0.00102267	0.10943	0.129788	0.0955213	0.00121868	0.0013884	0.0722213	0.00259575	0.0010005	0.0010277	0.269056	0.00157242	0.281154	0.0822966	0.00105189	0.00126104	0.0629109	0.00144663	0.186794	0.201487	0.0484522	0.00102267	0.0010193	0.20714	0.117284	0.999095	0.135554	
3.385	0.00280274	0.00147286	0.00147114	0.00160169	0.00154203	0.00297016	0.00274905	0.00287831	0.00141435	0.00138138	0.00134373	0.00121313	0.00196544	0.00210627	0.00297486	0.0028816	0.0028146	0.00309139	0.00287842	0.00284492	0.0011869	0.00310268	0.00283922	0.00182083	0.00279444	0.00119134	0.00119131	0.00282847	0.00131167	0.00271723	0.0029309	0.00280785	0.00226037	0.00194393	0.00244934	0.00149871	0.00138435	0.00141335	0.00139406	0.00136473	0.00102744	0.00103673	0.0141122	0.00487735	0.0131648	0.00102267	0.116642	0.0782314	0.00107355	0.00102332	0.513095	0.165552	0.104209	0.00102267	0.115354	0.133148	0.0972688	0.00121868	0.0013884	0.152644	0.00173768	0.0010005	0.0010277	0.259376	0.00135719	0.277089	0.0814239	0.00105122	0.00110212	0.0532281	0.00143832	0.18213	0.200187	0.0489183	0.00102267	0.00100973	0.204433	0.131839	0.999099	0.156062	
3.39	0.00280274	0.00147286	0.00147114	0.00160169	0.00154203	0.00297016	0.00274905	0.00287831	0.00141435	0.00138138	0.00134373	0.00121313	0.00196544	0.00210627	0.00297486	0.0028816	0.0028146	0.00309139	0.00287842	0.00284492	0.0011869	0.00310268	0.00283922	0.00182083	0.00279444	0.00119134	0.00119131	0.00282847	0.00131167	0.00271723	0.0029309	0.00280785	0.00226037	0.00194393	0.00244934	0.00149871	0.00138435	0.00141335	0.00139406	0.00136473	0.0010252	0.00103019	0.00849591	0.0031744	0.00795958	0.00102267	0.114462	0.0780817	0.00107355	0.00102332	0.50234	0.163141	0.100911	0.00102447	0.121647	0.136928	0.0991908	0.00121868	0.0013884	0.303758	0.00327676	0.0010005	0.0010277	0.249842	0.00122129	0.272937	0.0804372	0.00105087	0.00105932	0.0462816	0.00143576	0.177687	0.199245	0.0501013	0.00102267	0.00100596	0.202892	0.146195	0.9991	0.176502	
3.395	0.00280274	0.00147286	0.00147114	0.00160169	0.00154203	0.00297016	0.00274905	0.00287831	0.00141435	0.00138138	0.00134373	0.00121313	0.00196544	0.00210627	0.00297486	0.0028816	0.0028146	0.00309139	0.00287842	0.00284492	0.0011869	0.00310268	0.00283922	0.00182083	0.00279444	0.00119134	0.00119131	0.00282847	0.00131167	0.00271723	0.0029309	0.00280785	0.00226037	0.00194393	0.00244934	0.00149871	0.00138435	0.00141335	0.00139406	0.00136473	0.00102401	0.00102668	0.00523562	0.00221363	0.00493534	0.00102267	0.112468	0.0781498	0.00107355	0.00102332	0.490071	0.160568	0.0974903	0.00102449	0.128241	0.141091	0.10128	0.00121868	0.0013884	0.511818	0.00418043	0.0010005	0.0010277	0.240791	0.00114062	0.268875	0.0793511	0.00105069	0.00105047	0.0416867	0.00143497	0.173557	0.198704	0.0521514	0.00102267	0.00100448	0.201786	0.160031	0.9991	0.196254	
3.4	0.00280274	0.00147286	0.00147114	0.00160169	0.00154203	0.00297016	0.00274905	0.00287831	0.00141435	0.00138138	0.00134373	0.00121313	0.00196544	0.00210627	0.00297486	0.0028816	0.0028146	0.00309139	0.00287842	0.00284492	0.0011869	0.00310268	0.00283922	0.00182083	0.00279444	0.00119134	0.00119131	0.00282847	0.00131167	0.00271723	0.0029309	0.00280785	0.00226037	0.00194393	0.00244934	0.00149871	0.00138435	0.00141335	0.00139406	0.00136473	0.00102338	0.0010248	0.00337348	0.00167718	0.00320688	0.00102267	0.110741	0.0784745	0.00107355	0.00102332	0.481745	0.157827	0.0939864	0.00102406	0.13508	0.145628	0.103526	0.00121868	0.0013884	0.803483	0.00439866	0.0010005	0.0010277	0.232785	0.0010946	0.264531	0.0781762	0.00105059	0.00104884	0.0390851	0.00143473	0.169844	0.198617	0.0551203	0.00102267	0.00100391	0.200519	0.173161	0.9991	0.214914	
3.405	0.00280274	0.00147286	0.00147114	0.00160169	0.00154203	0.00297016	0.00274905	0.00287831	0.00141435	0.00138138	0.00134373	0.00121313	0.00196544	0.00210627	0.00297486	0.0028816	0.0028146	0.00309139	0.00287842	0.00284492	0.0011869	0.00310268	0.00283922	0.00182083	0.00279444	0.00119134	0.00119131	0.00282847	0.00131167	0.00271723	0.0029309	0.00280785	0.00226037	0.00194393	0.00244934	0.00149871	0.00138435	0.00141335	0.00139406	0.00136473	0.00102304	0.0010238	0.00232341	0.0013802	0.00223166	0.00102267	0.109407	0.0791038	0.00107355	0.00102332	0.46923	0.154936	0.090434	0.00103194	0.14219	0.150605	0.105919	0.00121868	0.0013884	0.979066	0.00427309	0.0010005	0.0010277	0.226774	0.00106905	0.261149	0.0769243	0.00105054	0.00104856	0.0380079	0.00143465	0.166636	0.19905	0.0590025	0.00102267	0.00100368	0.198873	0.185316	0.9991	0.232118	
3.41	0.00280274	0.00147286	0.00147114	0.00160169	0.00154203	0.00297016	0.00274905	0.00287831	0.00141435	0.00138138	0.00134373	0.00121313	0.00196544	0.00210627	0.00297486	0.0028816	0.0028146	0.00309139	0.00287842	0.00284492	0.0011869	0.00310268	0.00283922	0.00182083	0.00279444	0.00119134	0.00119131	0.00282847	0.00131167	0.00271723	0.0029309	0.00280785	0.00226037	0.00194393	0.00244934	0.00149871	0.00138435	0.00141335	0.00139406	0.00136473	0.00102286	0.00102327	0.0606739	0.0348827	0.00168711	0.00102267	0.108628	0.0800952	0.00107355	0.00102332	0.467764	0.151848	0.0868627	0.00109601	0.149674	0.156125	0.108446	0.00121868	0.0013884	0.99755	0.00337868	0.0010005	0.0010277	0.223742	0.00105515	0.257464	0.0755953	0.00105052	0.00104851	0.0379092	0.00143463	0.16518	0.20007	0.063881	0.00102267	0.0010036	0.19662	0.196176	0.9991	0.247413	
3.415	0.00280274	0.00147286	0.00147114	0.00160169	0.00154203	0.00297016	0.00274905	0.00287831	0.00141435	0.00138138	0.00134373	0.00121313	0.00196544	0.00210627	0.00297486	0.0028816	0.0028146	0.00309139	0.00287842	0.00284492	0.0011869	0.00310268	0.00283922	0.00182083	0.00279444	0.00119134	0.00119131	0.00282847	0.00131167	0.00271723	0.0029309	0.00280785	0.00226037	0.00194393	0.00244934	0.00149871	0.00138435	0.00141335	0.00139406	0.00136473	0.00102277	0.00102298	0.160892	0.0985078	0.00138563	0.00102267	0.108553	0.0815071	0.00107355	0.00102332	0.459265	0.148554	0.0832976	0.00134288	0.157586	0.162216	0.111091	0.00121868	0.0013884	0.999232	0.00229162	0.0010005	0.0010277	0.224288	0.0010477	0.253139	0.074192	0.00105051	0.0010485	0.0386557	0.00143462	0.166298	0.201728	0.0697541	0.00102267	0.00100356	0.194251	0.205496	0.9991	0.260505	
3.42	0.00280274	0.00147286	0.00147114	0.00160169	0.00154203	0.00297016	0.00274905	0.00287831	0.00141435	0.00138138	0.00134373	0.00121313	0.00196544	0.00210627	0.00297486	0.0028816	0.0028146	0.00309139	0.00287842	0.00284492	0.0011869	0.00310268	0.00283922	0.00182083	0.00279444	0.00119134	0.00119131	0.00282847	0.00131167	0.00271723	0.0029309	0.00280785	0.00226037	0.00194393	0.00244934	0.00149871	0.00138435	0.00141335	0.00139406	0.00136473	0.00102272	0.00102283	0.264618	0.166806	0.00121991	0.00102267	0.109301	0.083395	0.00107355	0.00102332	0.447263	0.145074	0.07976	0.00148798	0.165848	0.168814	0.113835	0.00121868	0.287543	0.999371	0.00680094	0.0010005	0.0010277	0.228629	0.00104375	0.248153	0.0727261	0.0010505	0.0010485	0.0397583	0.00143462	0.170323	0.204061	0.0765209	0.00102267	0.00100355	0.191836	0.213196	0.9991	0.271331	
3.425	0.00280274	0.00147286	0.00147114	0.00160169	0.00154203	0.00297016	0.00274905	0.00287831	0.00141435	0.00138138	0.00134373	0.00121313	0.00196544	0.00210627	0.00297486	0.0028816	0.0028146	0.00309139	0.00287842	0.00284492	0.0011869	0.00310268	0.00283922	0.00182083	0.00279444	0.00119134	0.00119131	0.00282847	0.00131167	0.00271723	0.0029309	0.00280785	0.00226037	0.00194393	0.00244934	0.00149871	0.00138435	0.00141335	0.00139406	0.00136473	0.0010227	0.00102276	0.359021	0.227891	0.00112937	0.00102267	0.110968	0.0858119	0.00107355	0.00102332	0.4359	0.141426	0.0762679	0.00141212	0.174319	0.175813	0.116664	0.00121868	0.40726	0.999382	0.00490616	0.0010005	0.0010277	0.236705	0.00104168	0.242537	0.0712085	0.00105049	0.00128642	0.0410038	0.00143462	0.177286	0.207093	0.0839943	0.00102267	0.00100354	0.189418	0.219361	0.9991	0.280031	
3.43	0.00280274	0.00147286	0.00147114	0.00160169	0.00154203	0.00297016	0.00274905	0.00287831	0.00141435	0.00138138	0.00134373	0.00121313	0.00196544	0.00210627	0.00297486	0.0028816	0.0028146	0.00309139	0.00287842	0.00284492	0.0011869	0.00310268	0.00283922	0.00182083	0.00279444	0.00119134	0.00119131	0.00282847	0.00131167	0.00271723	0.0029309	0.00280785	0.00226037	0.00194393	0.00244934	0.00149871	0.00138435	0.00141335	0.00139406	0.00136473	0.00102268	0.00102271	0.441296	0.27916	0.00108016	0.00102267	0.113621	0.0888052	0.00107355	0.00102332	0.422506	0.137658	0.0728361	0.00129794	0.182869	0.183103	0.119567	0.00121868	0.446128	0.999383	0.00304768	0.0010005	0.0010277	0.248207	0.00104061	0.236486	0.0696508	0.00105049	0.0259908	0.0422545	0.00143462	0.187029	0.210841	0.0918866	0.00102267	0.00100354	0.186854	0.22426	0.9991	0.286955	
3.435	0.00280274	0.00147286	0.00147114	0.00160169	0.00154203	0.00297016	0.00274905	0.00287831	0.00141435	0.00138138	0.00134373	0.00121313	0.00196544	0.00210627	0.00297486	0.0028816	0.0028146	0.00309139	0.00287842	0.00284492	0.0011869	0.00310268	0.00283922	0.00182083	0.00279444	0.00119134	0.00119131	0.00282847	0.00131167	0.00271723	0.0029309	0.00280785	0.00226037	0.00194393	0.00244934	0.00149871	0.00138435	0.00141335	0.00139406	0.00136473	0.00102268	0.00102269	0.510271	0.321771	0.00105354	0.00102267	0.117302	0.0924156	0.00107355	0.00102332	0.404323	0.133734	0.0695491	0.00124176	0.191396	0.19059	0.12254	0.00121868	0.561448	0.999383	0.00856882	0.0010005	0.0010277	0.26268	0.00104005	0.22961	0.0680573	0.00105049	0.00800419	0.0436315	0.00143462	0.1993	0.215313	0.099939	0.00102267	0.00100354	0.183984	0.228308	0.9991	0.292566	
3.44	0.00280274	0.00147286	0.00147114	0.00160169	0.00154203	0.00297016	0.00274905	0.00287831	0.00141435	0.00138138	0.00134373	0.00121313	0.00196544	0.00210627	0.00297486	0.0028816	0.0028146	0.00309139	0.00287842	0.00284492	0.0011869	0.00310268	0.00283922	0.00182083	0.00279444	0.00119134	0.00119131	0.00282847	0.00131167	0.00271723	0.0029309	0.00280785	0.00226037	0.00194393	0.00244934	0.00149871	0.00138435	0.00141335	0.00139406	0.00136473	0.00102267	0.00102268	0.56572	0.357357	0.00103919	0.00102267	0.122035	0.0966772	0.00107355	0.00102332	0.382474	0.129651	0.066503	0.00117671	0.199824	0.198191	0.12558	0.00121868	0.646597	0.999383	0.00604271	0.0010005	0.0010277	0.279623	0.00103977	0.221837	0.0664331	0.00105049	0.00250323	0.0449167	0.00143462	0.213812	0.220514	0.107976	0.00102267	0.00100354	0.180636	0.231976	0.9991	0.297334	
3.445	0.00280274	0.00147286	0.00147114	0.00160169	0.00154203	0.00297016	0.00274905	0.00287831	0.00141435	0.00138138	0.00134373	0.00121313	0.00196544	0.00210627	0.00297486	0.0028816	0.0028146	0.00309139	0.00287842	0.00284492	0.0011869	0.00310268	0.00283922	0.00182083	0.00279444	0.00119134	0.00119131	0.00282847	0.00131167	0.00271723	0.0029309	0.00280785	0.00226037	0.00194393	0.00244934	0.00149871	0.00138435	0.00141335	0.00139406	0.00136473	0.00102267	0.00102267	0.60855	0.387191	0.00103149	0.00102267	0.127824	0.101617	0.00107355	0.00102332	0.380521	0.125454	0.0638215	0.00112254	0.208094	0.205834	0.128687	0.00121868	0.633858	0.999383	0.00362387	0.0010005	0.0010277	0.298551	0.00103962	0.213692	0.0647876	0.00105049	0.00131894	0.0460658	0.00143462	0.230273	0.226441	0.116012	0.00102267	0.191921	0.177137	0.235681	0.9991	0.301641	
3.45	0.00280274	0.00147286	0.00147114	0.00160169	0.00154203	0.00297016	0.00274905	0.00287831	0.00141435	0.00138138	0.00134373	0.00121313	0.00196544	0.00210627	0.00297486	0.0028816	0.0028146	0.00309139	0.00287842	0.00284492	0.0011869	0.00310268	0.00283922	0.00182083	0.00279444	0.00119134	0.00119131	0.00282847	0.00131167	0.00271723	0.0029309	0.00280785	0.00226037	0.00194393	0.00244934	0.00149871	0.00138435	0.00141335	0.00139406	0.00136473	0.00102267	0.00102267	0.639586	0.411847	0.00102736	0.00102267	0.134662	0.107258	0.00107355	0.00102332	0.380761	0.121298	0.0616253	0.00108433	0.216157	0.213449	0.131861	0.00121868	0.608754	0.999383	0.00450563	0.0010005	0.0010277	0.319011	0.00103955	0.206871	0.0631446	0.00105049	0.00109564	0.0470683	0.00143462	0.248412	0.233088	0.124224	0.00102267	0.437865	0.174889	0.239739	0.9991	0.305747	
3.455	0.00280274	0.00147286	0.00147114	0.00160169	0.00154203	0.00297016	0.00274905	0.00287831	0.00141435	0.00138138	0.00134373	0.00121313	0.00196544	0.00210627	0.00297486	0.0028816	0.0028146	0.00309139	0.00287842	0.00284492	0.0011869	0.00310268	0.00283922	0.00182083	0.00279444	0.00119134	0.00119131	0.00282847	0.00131167	0.00271723	0.0029309	0.00280785	0.00226037	0.00194393	0.00244934	0.00149871	0.00138435	0.00141335	0.00139406	0.00136473	0.00102267	0.00102267	0.659451	0.430914	0.00102516	0.00102267	0.142532	0.113611	0.00107355	0.00102332	0.347285	0.117116	0.0599946	0.00105952	0.223978	0.220982	0.135101	0.00121868	0.567544	0.999383	0.00315219	0.0010005	0.0010277	0.340567	0.00352978	0.200001	0.0614983	0.00105049	0.0193243	0.0480675	0.00143462	0.268008	0.240447	0.132891	0.00102267	0.67975	0.172464	0.244423	0.9991	0.309885	
3.46	0.00280274	0.00147286	0.00147114	0.00160169	0.00154203	0.00297016	0.00274905	0.00287831	0.00141435	0.00138138	0.00134373	0.00121313	0.00196544	0.00210627	0.00297486	0.0028816	0.0028146	0.00309139	0.00287842	0.00284492	0.0011869	0.00310268	0.00283922	0.00182083	0.00279444	0.00119134	0.00119131	0.00282847	0.00131167	0.00271723	0.0029309	0.00280785	0.00226037	0.00194393	0.00244934	0.00149871	0.00138435	0.00141335	0.00139406	0.00136473	0.00102267	0.00102267	0.668887	0.443707	0.00102399	0.00102267	0.151407	0.120683	0.00107355	0.00102332	0.288048	0.112652	0.058979	0.00104419	0.231541	0.228392	0.138409	0.00121868	0.492457	0.999383	0.00210638	0.0010005	0.0010277	0.362786	0.00341346	0.189732	0.0598215	0.00105049	0.00614644	0.049296	0.00143462	0.288867	0.248505	0.142373	0.00102267	0.833231	0.166855	0.249993	0.9991	0.314295	
3.465	0.00280274	0.00147286	0.00147114	0.00160169	0.00154203	0.00297016	0.00274905	0.00287831	0.00141435	0.00138138	0.00134373	0.00121313	0.00196544	0.00210627	0.00297486	0.0028816	0.0028146	0.00309139	0.00287842	0.00284492	0.0011869	0.00310268	0.00283922	0.00182083	0.00279444	0.00119134	0.00119131	0.00282847	0.00131167	0.00271723	0.0029309	0.00280785	0.00226037	0.00194393	0.00244934	0.00149871	0.00138435	0.00141335	0.00139406	0.00136473	0.00102267	0.00102267	0.668431	0.449184	0.00102337	0.00102267	0.161251	0.128468	0.00107355	0.00102332	0.153172	0.107749	0.0586036	0.00103501	0.238848	0.235651	0.141789	0.00121868	0.391844	0.999383	0.00154336	0.0010005	0.0010277	0.385203	0.00273693	0.174403	0.0580998	0.00105049	0.0021148	0.0512099	0.00143462	0.310793	0.257239	0.153084	0.00102267	0.891245	0.156352	0.256752	0.679162	0.319357	
3.47	0.00280274	0.00147286	0.00147114	0.00160169	0.00154203	0.00297016	0.00274905	0.00287831	0.00141435	0.00138138	0.00134373	0.00121313	0.00196544	0.00210627	0.00297486	0.0028816	0.0028146	0.00309139	0.00287842	0.00284492	0.0011869	0.00310268	0.00283922	0.00182083	0.00279444	0.00119134	0.00119131	0.00282847	0.00131167	0.00271723	0.0029309	0.00280785	0.00226037	0.00194393	0.00244934	0.00149871	0.00138435	0.00141335	0.00139406	0.00136473	0.00102267	0.00102267	0.657944	0.44621	0.00102304	0.00102267	0.17202	0.136949	0.517651	0.252603	0.0361546	0.102537	0.0588759	0.00102966	0.245908	0.242741	0.145244	0.00121868	0.337192	0.999383	0.00127844	0.0010005	0.0010277	0.407306	0.00630719	0.156279	0.0563481	0.00105049	0.00124674	0.0543665	0.00143462	0.333567	0.266606	0.165488	0.00102267	0.910372	0.142771	0.265085	0.360178	0.325684	
3.475	0.00280274	0.00147286	0.00147114	0.00160169	0.00154203	0.00297016	0.00274905	0.00287831	0.00141435	0.00138138	0.00134373	0.00121313	0.00196544	0.00210627	0.00297486	0.0028816	0.0028146	0.00309139	0.00287842	0.00284492	0.0011869	0.00310268	0.00283922	0.00182083	0.00279444	0.00119134	0.00119131	0.00282847	0.00131167	0.00271723	0.0029309	0.00280785	0.00226037	0.00194393	0.00244934	0.00149871	0.00138435	0.00141335	0.00139406	0.00136473	0.00102267	0.00102267	0.638124	0.434481	0.00102286	0.00102267	0.183659	0.146102	0.753391	0.404	0.00779747	0.097148	0.0597935	0.00102658	0.252738	0.24965	0.148779	0.00121868	0.165978	0.999383	0.00116234	0.0010005	0.0010277	0.42858	0.00567572	0.137392	0.054579	0.00105049	0.00108305	0.058704	0.00143462	0.356936	0.276551	0.180043	0.00102267	0.913911	0.127879	0.275331	0.280238	0.333874	
3.48	0.00280274	0.00147286	0.00147114	0.00160169	0.00154203	0.00297016	0.00274905	0.00287831	0.00141435	0.00138138	0.00134373	0.00121313	0.00196544	0.00210627	0.00297486	0.0028816	0.0028146	0.00309139	0.00287842	0.00284492	0.0011869	0.00310268	0.00283922	0.00182083	0.00279444	0.00119134	0.00119131	0.00282847	0.00131167	0.00271723	0.0029309	0.00280785	0.00226037	0.00194393	0.00244934	0.00149871	0.00138435	0.00141335	0.00139406	0.00136473	0.00102267	0.00102267	0.56948	0.386562	0.00102277	0.00102267	0.196101	0.155895	0.618971	0.372378	0.00234353	0.0916884	0.0613642	0.00102484	0.259262	0.256259	0.152392	0.00121868	0.902712	0.999383	0.00111364	0.0010005	0.0010277	0.448448	0.00426273	0.11901	0.0528036	0.00105049	0.01284	0.0660008	0.00143462	0.380641	0.287	0.197174	0.00102267	0.92266	0.112838	0.287776	0.717869	0.344503	
3.485	0.00280274	0.00147286	0.00147114	0.00160169	0.00154203	0.00297016	0.00274905	0.00287831	0.00141435	0.00138138	0.00134373	0.00121313	0.00196544	0.00210627	0.00297486	0.0028816	0.0028146	0.00309139	0.00287842	0.00284492	0.0011869	0.00310268	0.00283922	0.00182083	0.00279444	0.00119134	0.00119131	0.00282847	0.00131167	0.00271723	0.0029309	0.00280785	0.00226037	0.00194393	0.00244934	0.00149871	0.00138435	0.00141335	0.00139406	0.00136473	0.00102267	0.00102267	0.499492	0.336091	0.00102272	0.00102267	0.209288	0.166297	0.293983	0.202294	0.00138198	0.0862428	0.0636769	0.00102386	0.26556	0.262624	0.15609	0.00121868	0.722181	0.999383	0.00109381	0.0010005	0.0010277	0.466541	0.0105825	0.101873	0.0510315	0.00105049	0.00433689	0.0719745	0.00143462	0.404378	0.297874	0.217255	0.00102267	0.931524	0.0983812	0.30225	0.41677	0.357288	
3.49	0.00280274	0.00147286	0.00147114	0.00160169	0.00154203	0.00297016	0.00274905	0.00287831	0.00141435	0.00138138	0.00134373	0.00121313	0.00196544	0.00210627	0.00297486	0.0028816	0.0028146	0.00309139	0.00287842	0.00284492	0.0011869	0.00310268	0.00283922	0.00182083	0.00279444	0.00119134	0.00119131	0.00282847	0.00131167	0.00271723	0.0029309	0.00280785	0.00226037	0.00194393	0.00244934	0.00149871	0.00138435	0.00141335	0.00139406	0.00136473	0.00102267	0.00102267	0.437508	0.292434	0.0010227	0.00102267	0.22316	0.177272	0.0695441	0.0561646	0.00121916	0.0808775	0.0667824	0.00102332	0.271745	0.268825	0.159884	0.00121868	0.972956	0.999383	0.00108592	0.0010005	0.0010277	0.482516	0.00940515	0.0863695	0.0492706	0.00105049	0.00173626	0.0783888	0.00143462	0.427831	0.309081	0.240552	0.00102267	0.926603	0.0849462	0.318603	0.298636	0.372095	
3.495	0.00280274	0.00147286	0.00147114	0.00160169	0.00154203	0.00297016	0.00274905	0.00287831	0.00141435	0.00138138	0.00134373	0.00121313	0.00196544	0.00210627	0.00297486	0.0028816	0.0028146	0.00309139	0.00287842	0.00284492	0.0011869	0.00310268	0.00283922	0.00182083	0.00279444	0.00119134	0.00119131	0.00282847	0.00131167	0.00271723	0.0029309	0.00280785	0.00226037	0.00194393	0.00244934	0.00149871	0.00138435	0.00141335	0.00139406	0.00136473	0.00102267	0.00102267	0.382835	0.256977	0.00102268	0.00102267	0.23765	0.188781	0.00720266	0.0130398	0.0797706	0.0757413	0.0707484	0.00102302	0.277954	0.274967	0.163789	0.00121868	0.997213	0.999383	0.00108282	0.0010005	0.0010277	0.496084	0.00684712	0.0749727	0.0475298	0.00105049	0.00117636	0.0856176	0.00143462	0.450669	0.320515	0.267194	0.00102267	0.911626	0.0757466	0.33658	0.341509	0.388649	
3.5	0.00280274	0.00147286	0.00147114	0.00160169	0.00154203	0.00297016	0.00274905	0.00287831	0.00141435	0.00138138	0.00134373	0.00121313	0.00196544	0.00210627	0.00297486	0.0028816	0.0028146	0.00309139	0.00287842	0.00284492	0.0011869	0.00310268	0.00283922	0.00182083	0.00279444	0.00119134	0.00119131	0.00282847	0.00131167	0.00271723	0.0029309	0.00280785	0.00226037	0.00194393	0.00244934	0.00149871	0.00138435	0.00141335	0.00139406	0.00136473	0.00102267	0.00102267	0.347356	0.235393	0.00102268	0.00102267	0.252686	0.200775	0.00151473	0.00338825	0.191986	0.0711826	0.0756664	0.00102286	0.284342	0.281185	0.167822	0.230635	0.999158	0.999383	0.00108162	0.0010005	0.0010277	0.507032	0.0128194	0.0737267	0.0458386	0.00105049	0.00107079	0.0935099	0.00143462	0.472551	0.332062	0.297122	0.00102267	0.898644	0.078055	0.355859	0.345761	0.406566	
3.505	0.00280274	0.00147286	0.00147114	0.00160169	0.00154203	0.00297016	0.00274905	0.00287831	0.00141435	0.00138138	0.00134373	0.00121313	0.00196544	0.00210627	0.00297486	0.0028816	0.0028146	0.00309139	0.00287842	0.00284492	0.0011869	0.00310268	0.00283922	0.00182083	0.00279444	0.00119134	0.00119131	0.00282847	0.00131167	0.00271723	0.0029309	0.00280785	0.00226037	0.00194393	0.00244934	0.00149871	0.00138435	0.00141335	0.00139406	0.00136473	0.00102267	0.00102267	0.334917	0.22911	0.00102267	0.00102267	0.268182	0.213199	0.00110234	0.00146267	0.281856	0.0676291	0.081631	0.00102277	0.29107	0.287629	0.172004	0.419676	0.999298	0.999383	0.00115119	0.0010005	0.00454271	0.515216	0.0109509	0.0863218	0.0442497	0.00105049	0.00105223	0.102461	0.00143462	0.493144	0.343603	0.330107	0.00102267	0.890161	0.0938455	0.376081	0.288075	0.425406	
3.51	0.00280274	0.00147286	0.00147114	0.00160169	0.00154203	0.00297016	0.00274905	0.00287831	0.00141435	0.00138138	0.00134373	0.00121313	0.00196544	0.00210627	0.00297486	0.0028816	0.0028146	0.00309139	0.00287842	0.00284492	0.0011869	0.00310268	0.00283922	0.00182083	0.00279444	0.00119134	0.00119131	0.00282847	0.00131167	0.00271723	0.0029309	0.00280785	0.00226037	0.00194393	0.00244934	0.00149871	0.00138435	0.00141335	0.00139406	0.00136473	0.00102267	0.00102267	0.354511	0.243479	0.00102267	0.00102267	0.284044	0.225986	0.00107533	0.00110197	0.355895	0.0654238	0.0887248	0.00102272	0.298323	0.294475	0.17636	0.779322	0.999308	0.999383	0.0011296	0.0010005	0.00928855	0.520586	0.00781273	0.111048	0.0427942	0.00105049	0.00104911	0.112266	0.00143462	0.512148	0.355019	0.365793	0.00102267	0.881065	0.11766	0.396871	0.188762	0.444701	
3.515	0.00280274	0.00147286	0.00147114	0.00160169	0.00154203	0.00297016	0.00274905	0.00287831	0.00141435	0.00138138	0.00134373	0.00121313	0.00196544	0.00210627	0.00297486	0.0028816	0.0028146	0.00309139	0.00287842	0.00284492	0.0011869	0.00310268	0.00283922	0.00182083	0.00279444	0.00119134	0.00119131	0.00282847	0.00131167	0.00271723	0.0029309	0.00280785	0.00226037	0.00194393	0.00244934	0.00149871	0.00138435	0.00141335	0.00139406	0.00136473	0.00102267	0.00102267	0.406359	0.278997	0.00102267	0.00102267	0.300166	0.23906	0.00107365	0.00103704	0.399849	0.0648714	0.0970208	0.0010227	0.306288	0.301911	0.180915	0.969241	0.999308	0.999383	0.00192738	0.0812893	0.00553031	0.52319	0.0133626	0.143698	0.0414568	0.00105049	0.0010486	0.122887	0.00143462	0.529314	0.366201	0.403805	0.00102267	0.865018	0.142435	0.417809	0.154027	0.463892	
3.52	0.00280274	0.00147286	0.00147114	0.00160169	0.00154203	0.00297016	0.00274905	0.00287831	0.00141435	0.00138138	0.00134373	0.00121313	0.00196544	0.00210627	0.00297486	0.0028816	0.0028146	0.00309139	0.00287842	0.00284492	0.0011869	0.00310268	0.00283922	0.00182083	0.00279444	0.00119134	0.00119131	0.00282847	0.00131167	0.00271723	0.0029309	0.00280785	0.00226037	0.00194393	0.00244934	0.00149871	0.00138435	0.00141335	0.00139406	0.00136473	0.00102267	0.00102267	0.472805	0.324399	0.00102267	0.00102267	0.316428	0.252338	0.00107356	0.00102567	0.433792	0.0658411	0.10658	0.00102268	0.315064	0.310049	0.18569	0.995782	0.999308	0.999383	0.00166261	0.754609	0.00172368	0.523164	0.0112495	0.178614	0.0402512	0.00105049	0.00104851	0.135039	0.00143462	0.544453	0.377049	0.443756	0.00102267	0.833576	0.160658	0.438474	0.122975	0.482422	
3.525	0.00280274	0.00147286	0.00147114	0.00160169	0.00154203	0.00297016	0.00274905	0.00287831	0.00141435	0.00138138	0.00134373	0.00121313	0.00196544	0.00210627	0.00297486	0.0028816	0.0028146	0.00309139	0.00287842	0.00284492	0.0011869	0.00310268	0.00283922	0.00182083	0.00279444	0.00119134	0.00119131	0.00282847	0.00131167	0.00271723	0.0029309	0.00280785	0.00226037	0.00194393	0.00244934	0.00149871	0.00138435	0.00141335	0.00139406	0.00136473	0.00102267	0.00102267	0.530572	0.363579	0.00102267	0.00102267	0.332698	0.265723	0.00107355	0.00102372	0.457798	0.0683075	0.117447	0.00102268	0.324626	0.318893	0.190697	0.998836	0.999308	0.999383	0.00138277	0.961258	0.0011127	0.520709	0.00797403	0.211052	0.0391684	0.00105049	0.0010485	0.149581	0.00143462	0.557441	0.387471	0.485215	0.00102267	0.770395	0.170655	0.458467	0.114326	0.499773	
3.53	0.00280274	0.00147286	0.00147114	0.00160169	0.00154203	0.00297016	0.00274905	0.00287831	0.00141435	0.00138138	0.00134373	0.00121313	0.00196544	0.00210627	0.00297486	0.0028816	0.0028146	0.00309139	0.00287842	0.00284492	0.0011869	0.00310268	0.00283922	0.00182083	0.00279444	0.00119134	0.00119131	0.00282847	0.00131167	0.00271723	0.0029309	0.00280785	0.00226037	0.00194393	0.00244934	0.00149871	0.00138435	0.00141335	0.00139406	0.00136473	0.00102267	0.00105073	0.5691	0.384727	0.00102267	0.00102267	0.348833	0.279119	0.00107355	0.00102339	0.473282	0.0721922	0.129653	0.00102267	0.334836	0.328334	0.195935	0.999156	0.999308	0.999383	0.0025163	0.994048	0.0100383	0.516072	0.0139189	0.23854	0.0382042	0.00105049	0.0010485	0.166707	0.00143462	0.568215	0.397392	0.527625	0.00102267	0.616033	0.17391	0.477434	0.101733	0.515508	
3.535	0.00280274	0.00147286	0.00147114	0.00160169	0.00154203	0.00297016	0.00274905	0.00287831	0.00141435	0.00138138	0.00134373	0.00121313	0.00196544	0.00210627	0.00297486	0.0028816	0.0028146	0.00309139	0.00287842	0.00284492	0.0011869	0.00310268	0.00283922	0.00182083	0.00279444	0.00119134	0.00119131	0.00282847	0.00131167	0.00271723	0.0029309	0.00280785	0.00226037	0.00194393	0.00244934	0.00149871	0.00138435	0.00141335	0.00139406	0.00136473	0.00102267	0.00105111	0.57928	0.38485	0.00102267	0.00102267	0.364694	0.292424	0.00107355	0.00102334	0.486401	0.077195	0.143206	0.00102267	0.345474	0.338191	0.201389	0.999187	0.999308	0.999383	0.00223577	0.998399	0.0187541	0.509541	0.0117434	0.259387	0.0373406	0.00105049	0.0010485	0.185707	0.00143462	0.576784	0.40675	0.570416	0.00102267	0.348385	0.172273	0.495037	0.110283	0.529224	
3.54	0.00280274	0.00147286	0.00147114	0.00160169	0.00154203	0.00297016	0.00274905	0.00287831	0.00141435	0.00138138	0.00134373	0.00121313	0.00196544	0.00210627	0.00297486	0.0028816	0.0028146	0.00309139	0.00287842	0.00284492	0.0011869	0.00310268	0.00283922	0.00182083	0.00279444	0.00119134	0.00119131	0.00282847	0.00131167	0.00271723	0.0029309	0.00280785	0.00226037	0.00194393	0.00244934	0.00149871	0.00138435	0.00141335	0.00139406	0.00136473	0.00102267	0.0010443	0.558537	0.366333	0.00102267	0.00102267	0.380144	0.305543	0.00107355	0.00102333	0.492103	0.0829378	0.158103	0.00102267	0.356269	0.348236	0.207032	0.999191	0.999308	0.999383	0.00170974	0.998931	0.00515494	0.501429	0.00831848	0.273429	0.0365621	0.00105049	0.0010485	0.205427	0.00143462	0.583222	0.415505	0.613246	0.00102267	0.172923	0.168184	0.510972	0.0944359	0.540606	
3.545	0.00280274	0.00147286	0.00147114	0.00160169	0.00154203	0.00297016	0.00274905	0.00287831	0.00141435	0.00138138	0.00134373	0.00121313	0.00196544	0.00210627	0.00297486	0.0028816	0.0028146	0.00309139	0.00287842	0.00284492	0.0011869	0.00310268	0.00283922	0.00182083	0.00279444	0.00119134	0.00119131	0.00282847	0.00131167	0.00271723	0.0029309	0.00280785	0.00226037	0.00194393	0.00244934	0.00149871	0.00138435	0.00141335	0.00139406	0.00136473	0.00102267	0.00103729	0.514915	0.332862	0.00102267	0.00102267	0.395057	0.318382	0.00107355	0.00102333	0.494938	0.0891019	0.174343	0.00102267	0.366842	0.358147	0.212816	0.999191	0.999308	0.999383	0.00137836	0.998993	0.00159456	0.492103	0.012663	0.281536	0.035854	0.00105049	0.0010485	0.22461	0.00143462	0.58767	0.423636	0.655999	0.00102267	0.0803111	0.163799	0.524899	0.139272	0.549303	
3.55	0.00280274	0.00147286	0.00147114	0.00160169	0.00154203	0.00297016	0.00274905	0.00287831	0.00141435	0.00138138	0.00134373	0.00121313	0.00196544	0.00210627	0.00297486	0.0028816	0.0028146	0.00309139	0.00287842	0.00284492	0.0011869	0.00310268	0.00283922	0.00182083	0.00279444	0.00119134	0.00119131	0.00282847	0.00131167	0.00271723	0.0029309	0.00280785	0.00226037	0.00194393	0.00244934	0.00149871	0.00138435	0.00141335	0.00139406	0.00136473	0.00102267	0.00103193	0.454913	0.287648	0.00102267	0.00102267	0.409314	0.330853	0.00107355	0.00102332	0.497405	0.0954361	0.191924	0.00102267	0.376768	0.367568	0.218679	0.999191	0.999308	0.999383	0.00121167	0.973231	0.00547452	0.481918	0.0104676	0.285173	0.0352052	0.00105049	0.0010485	0.242415	0.00143462	0.590325	0.431141	0.69862	0.00102267	0.0360255	0.160178	0.536523	0.0742254	0.555127	
3.555	0.00280274	0.00147286	0.00147114	0.00160169	0.00154203	0.00297016	0.00274905	0.00287831	0.00141435	0.00138138	0.00134373	0.00121313	0.00196544	0.00210627	0.00297486	0.0028816	0.0028146	0.00309139	0.00287842	0.00284492	0.0011869	0.00310268	0.00283922	0.00182083	0.00279444	0.00119134	0.00119131	0.00282847	0.00131167	0.00271723	0.0029309	0.00280785	0.00226037	0.00194393	0.00244934	0.00149871	0.00138435	0.00141335	0.00139406	0.00136473	0.00102267	0.0010283	0.377281	0.234128	0.00102267	0.00102267	0.422807	0.342874	0.00107355	0.00102332	0.500206	0.101717	0.210841	0.00102267	0.385704	0.376204	0.224543	0.999191	0.999308	0.174281	0.00113585	0.881984	0.00176817	0.4712	0.00738746	0.285795	0.0346067	0.00105049	0.0010485	0.256539	0.00143462	0.591435	0.438044	0.740904	0.00102267	0.0160157	0.157886	0.545429	0.226879	0.557752	
3.56	0.00280274	0.00147286	0.00147114	0.00160169	0.00154203	0.00297016	0.00274905	0.00287831	0.00141435	0.00138138	0.00134373	0.00121313	0.00196544	0.00210627	0.00297486	0.0028816	0.0028146	0.00309139	0.00287842	0.00284492	0.0011869	0.00310268	0.00283922	0.00182083	0.00279444	0.00119134	0.00119131	0.00282847	0.00131167	0.00271723	0.0029309	0.00280785	0.00226037	0.00194393	0.00244934	0.00149871	0.00138435	0.00141335	0.00139406	0.00136473	0.00132699	0.001026	0.275018	0.171227	0.00102267	0.00102267	0.435445	0.354371	0.00107355	0.00102332	0.502886	0.107809	0.231068	0.00102267	0.393312	0.383764	0.230321	0.999191	0.851618	0.0183187	0.00110329	0.977395	0.00112054	0.460203	0.024251	0.284984	0.0340573	0.00105049	0.0010485	0.266744	0.00143462	0.591288	0.444385	0.782354	0.00102267	0.00730113	0.156943	0.551316	0.0452388	0.55717	
3.565	0.00280274	0.00147286	0.00147114	0.00160169	0.00154203	0.00297016	0.00274905	0.00287831	0.00141435	0.00138138	0.00134373	0.00121313	0.00196544	0.00210627	0.00297486	0.0028816	0.0028146	0.00309139	0.00287842	0.00284492	0.0011869	0.00310268	0.00283922	0.00182083	0.00279444	0.00119134	0.00119131	0.00282847	0.00131167	0.00271723	0.0029309	0.00280785	0.00226037	0.00194393	0.00244934	0.00149871	0.00138435	0.00141335	0.00139406	0.00136473	0.0192412	0.0197628	0.185557	0.118618	0.00102267	0.00102267	0.447162	0.365287	0.00107355	0.00102332	0.506705	0.113574	0.252549	0.00102267	0.399312	0.390019	0.235919	0.999191	0.155002	0.00291847	0.00108982	0.99597	0.00103806	0.449233	0.293614	0.28358	0.0335529	0.00105049	0.0010485	0.270344	0.199853	0.590194	0.45022	0.822196	0.00102267	0.00360249	0.157201	0.553802	0.320569	0.553218	
3.57	0.00280274	0.00147286	0.00147114	0.00160169	0.00154203	0.00297016	0.00274905	0.00287831	0.00141435	0.00138138	0.00134373	0.00121313	0.00196544	0.00210627	0.00297486	0.0028816	0.0028146	0.00309139	0.00287842	0.00284492	0.0011869	0.00310268	0.00283922	0.00182083	0.00279444	0.00119134	0.00119131	0.00282847	0.00131167	0.00271723	0.0029309	0.00280785	0.00226037	0.00194393	0.00244934	0.00149871	0.00138435	0.00141335	0.00139406	0.00136473	0.0229763	0.0200206	0.121202	0.0821962	0.00102267	0.00102267	0.457914	0.375577	0.00107355	0.00102332	0.510746	0.118938	0.275183	0.00102267	0.403473	0.394778	0.241248	0.999191	0.0167969	0.00162587	0.00108439	0.99862	0.00102878	0.43853	0.455111	0.282025	0.0330941	0.00105049	0.0010485	0.267655	0.102293	0.588463	0.455618	0.859303	0.00102267	0.00206242	0.158283	0.552635	0.0338352	0.545942	
3.575	0.00280274	0.00147286	0.00147114	0.00160169	0.00154203	0.00297016	0.00274905	0.00287831	0.00141435	0.00138138	0.00134373	0.00121313	0.00196544	0.00210627	0.00297486	0.0028816	0.0028146	0.00309139	0.00287842	0.00284492	0.0011869	0.00310268	0.00283922	0.00182083	0.00279444	0.00119134	0.00119131	0.00282847	0.00131167	0.00271723	0.0029309	0.00280785	0.00226037	0.00194393	0.00244934	0.00149871	0.00138435	0.00141335	0.00139406	0.00136473	0.0316301	0.0253662	0.0824294	0.059712	0.00102267	0.00102267	0.467675	0.385212	0.00107355	0.00102332	0.514299	0.123834	0.298798	0.00102267	0.405602	0.397872	0.246221	0.999191	0.00259129	0.00152426	0.00108224	0.918482	0.00102781	0.428325	0.527647	0.280739	0.0326818	0.00105049	0.0010485	0.258477	0.0739633	0.586366	0.460642	0.892148	0.00102267	0.00143052	0.160175	0.547622	0.110002	0.535365	
3.58	0.00280274	0.00147286	0.00147114	0.00160169	0.00154203	0.00297016	0.00274905	0.00287831	0.00141435	0.00138138	0.00134373	0.00121313	0.00196544	0.00210627	0.00297486	0.0028816	0.0028146	0.00309139	0.00287842	0.00284492	0.0011869	0.00310268	0.00283922	0.00182083	0.00279444	0.00119134	0.00119131	0.00282847	0.00131167	0.00271723	0.0029309	0.00280785	0.00226037	0.00194393	0.00244934	0.00149871	0.00138435	0.00141335	0.00139406	0.00136473	0.0318794	0.0209406	0.0596357	0.0462206	0.00102267	0.00102267	0.476435	0.394172	0.00107355	0.00102332	0.51939	0.128215	0.323143	0.00102267	0.405573	0.399182	0.25076	0.999191	0.00147328	0.00151657	0.0010814	0.844516	0.00102771	0.418762	0.547259	0.279983	0.0323235	0.00105049	0.0010485	0.243852	0.184497	0.584103	0.465346	0.919066	0.00102267	0.00117426	0.162807	0.538722	0.0120155	0.521637	
3.585	0.00280274	0.00147286	0.00147114	0.00160169	0.00154203	0.00297016	0.00274905	0.00287831	0.00141435	0.00138138	0.00134373	0.00121313	0.00196544	0.00210627	0.00297486	0.0028816	0.0028146	0.00309139	0.00287842	0.00284492	0.0011869	0.00310268	0.00283922	0.00182083	0.00279444	0.00119134	0.00119131	0.00282847	0.00131167	0.00271723	0.0029309	0.00280785	0.00226037	0.00194393	0.00244934	0.00149871	0.00138435	0.00141335	0.00139406	0.00136473	0.0281165	0.0149618	0.0467951	0.0386907	0.00102267	0.00102267	0.484191	0.402442	0.00107355	0.00102332	0.520707	0.13205	0.3479	0.00102267	0.403334	0.398641	0.254801	0.999191	0.00139407	0.001516	0.00108108	0.862061	0.0010277	0.409942	0.596529	0.28003	0.0320274	0.00105049	0.0010485	0.225255	0.638604	0.581773	0.469763	0.93862	0.00102267	0.00107131	0.167146	0.525985	0.0845918	0.504891	
3.59	0.00280274	0.00147286	0.00147114	0.00160169	0.00154203	0.00297016	0.00274905	0.00287831	0.00141435	0.00138138	0.00134373	0.00121313	0.00196544	0.00210627	0.00297486	0.0028816	0.0028146	0.00309139	0.00287842	0.00284492	0.0011869	0.00310268	0.00283922	0.00182083	0.00279444	0.00119134	0.00119131	0.00282847	0.00131167	0.00271723	0.0029309	0.00280785	0.00226037	0.00194393	0.00244934	0.00149871	0.00138435	0.00141335	0.00139406	0.00136473	0.0205646	0.0100366	0.0323721	0.0305875	0.00102267	0.00102267	0.490938	0.410008	0.00107355	0.00102332	0.531542	0.135333	0.372696	0.00102267	0.398922	0.396247	0.258294	0.999191	0.00138877	0.00151596	0.00108096	0.974779	0.0010277	0.401895	0.649078	0.280028	0.0317879	0.00105049	0.0010485	0.204819	0.875171	0.579378	0.473899	0.949775	0.00102267	0.00103028	0.171728	0.509563	0.0549011	0.485238	
3.595	0.00280274	0.00147286	0.00147114	0.00160169	0.00154203	0.00297016	0.00274905	0.00287831	0.00141435	0.00138138	0.00134373	0.00121313	0.00196544	0.00210627	0.00297486	0.0028816	0.0028146	0.00309139	0.00287842	0.00284492	0.0011869	0.00310268	0.00283922	0.00182083	0.00279444	0.00119134	0.00119131	0.00282847	0.00131167	0.00271723	0.0029309	0.00280785	0.00226037	0.00194393	0.00244934	0.00149871	0.00138435	0.00141335	0.00139406	0.00136473	0.0138733	0.00657943	0.021045	0.0213193	0.00102267	0.00102267	0.496663	0.416851	0.00107355	0.00102332	0.529265	0.138218	0.39713	0.00102267	0.392463	0.392064	0.261204	0.999191	0.00138843	0.00151596	0.00108091	0.995653	0.0010277	0.394548	0.693457	0.281184	0.0316546	0.00105049	0.0010485	0.184717	0.958355	0.576838	0.477742	0.951964	0.00102267	0.00101404	0.177294	0.489741	0.120637	0.4628	
3.6	0.00280274	0.00147286	0.00147114	0.00160169	0.00154203	0.00297016	0.00274905	0.00287831	0.00141435	0.00138138	0.00134373	0.00121313	0.00196544	0.00210627	0.00297486	0.0028816	0.0028146	0.00309139	0.00287842	0.00284492	0.0011869	0.00310268	0.00283922	0.00182083	0.00279444	0.00119134	0.00119131	0.00282847	0.00131167	0.00271723	0.0029309	0.00280785	0.00226037	0.00194393	0.00244934	0.00149871	0.00138435	0.00141335	0.00139406	0.00136473	0.00902956	0.00434	0.0132662	0.0140033	0.00102267	0.00102267	0.501348	0.422948	0.00107355	0.00102332	0.544579	0.140638	0.420792	0.00102267	0.384157	0.386219	0.263511	0.999191	0.00138841	0.00151596	0.00108089	0.998583	0.0010277	0.387744	0.709179	0.282124	0.0315977	0.00105049	0.0010485	0.166805	0.973939	0.574031	0.481265	0.945034	0.00102267	0.00100764	0.182671	0.46685	0.0526075	0.437698	
3.605	0.00280274	0.00147286	0.00147114	0.00160169	0.00154203	0.00297016	0.00274905	0.00287831	0.00141435	0.00138138	0.00134373	0.00121313	0.00196544	0.00210627	0.00297486	0.0028816	0.0028146	0.00309139	0.00287842	0.00284492	0.0011869	0.00310268	0.00283922	0.00182083	0.00279444	0.00119134	0.00119131	0.00282847	0.00131167	0.00271723	0.0029309	0.00280785	0.00226037	0.00194393	0.00244934	0.00149871	0.00138435	0.00141335	0.00139406	0.00136473	0.00583811	0.00295798	0.00829045	0.00896737	0.00102267	0.00102267	0.504982	0.428282	0.00107355	0.00102332	0.541737	0.142582	0.443282	0.00102267	0.374257	0.37888	0.265207	0.999191	0.0013884	0.00151596	0.00108089	0.998951	0.0010277	0.381284	0.715858	0.282793	0.0316055	0.00105049	0.0010485	0.152578	0.972296	0.570825	0.484432	0.929154	0.00102267	0.00100514	0.188835	0.441343	0.117582	0.410068	
3.61	0.00280274	0.00147286	0.00147114	0.00160169	0.00154203	0.00297016	0.00274905	0.00287831	0.00141435	0.00138138	0.00134373	0.00121313	0.00196544	0.00210627	0.00297486	0.0028816	0.0028146	0.00309139	0.00287842	0.00284492	0.0011869	0.00310268	0.00283922	0.00182083	0.00279444	0.00119134	0.00119131	0.00282847	0.00131167	0.00271723	0.0029309	0.00280785	0.00226037	0.00194393	0.00244934	0.00149871	0.00138435	0.00141335	0.00139406	0.00136473	0.0038472	0.0021323	0.00524474	0.00574164	0.00102267	0.00102267	0.507558	0.432838	0.00107355	0.00102332	0.533909	0.143978	0.464233	0.00102267	0.363043	0.370247	0.266298	0.999191	0.0013884	0.00151596	0.00108088	0.998995	0.0010277	0.374964	0.717664	0.282316	0.0316607	0.00105049	0.0010485	0.143116	0.968368	0.567097	0.487208	0.904741	0.00102267	0.00100416	0.195241	0.413755	0.012741	0.380164	
3.615	0.00280274	0.00147286	0.00147114	0.00160169	0.00154203	0.00297016	0.00274905	0.00287831	0.00141435	0.00138138	0.00134373	0.00121313	0.00196544	0.00210627	0.00297486	0.0028816	0.0028146	0.00309139	0.00287842	0.00284492	0.0011869	0.00310268	0.00283922	0.00182083	0.00279444	0.00119134	0.00119131	0.00282847	0.00131167	0.00271723	0.0029309	0.00280785	0.00226037	0.00194393	0.00244934	0.00149871	0.00138435	0.00141335	0.00139406	0.00136473	0.00264885	0.00165034	0.00343554	0.00376537	0.00102665	0.00102267	0.509081	0.436611	0.00107355	0.00102332	0.513606	0.144572	0.483316	0.00102267	0.35081	0.360542	0.266799	0.999191	0.0013884	0.00151596	0.00108088	0.999	0.0010277	0.36858	0.710432	0.278994	0.031739	0.00105049	0.0010485	0.13916	0.963401	0.562738	0.489558	0.872376	0.00102267	0.00100378	0.200792	0.384672	0.0524723	0.34939	
3.62	0.00280274	0.00147286	0.00147114	0.00160169	0.00154203	0.00297016	0.00274905	0.00287831	0.00141435	0.00138138	0.00134373	0.00121313	0.00196544	0.00210627	0.00297486	0.0028816	0.0028146	0.00309139	0.00287842	0.00284492	0.0011869	0.00310268	0.00283922	0.00182083	0.00279444	0.00119134	0.00119131	0.00282847	0.00131167	0.00271723	0.0029309	0.00280785	0.00226037	0.00194393	0.00244934	0.00149871	0.00138435	0.00141335	0.00139406	0.00136473	0.00194554	0.00137388	0.00238398	0.00259068	0.00105557	0.00102267	0.509565	0.439601	0.00107355	0.00102332	0.488741	0.144254	0.500253	0.00102267	0.337863	0.350004	0.266731	0.999191	0.0013884	0.00151596	0.00108088	0.999	0.0010277	0.361906	0.682131	0.272486	0.0318144	0.00105049	0.0010485	0.140784	0.957806	0.557656	0.491448	0.832698	0.00102267	0.00100363	0.205012	0.354692	0.00623665	0.318765	
3.625	0.00280274	0.00147286	0.00147114	0.00160169	0.00154203	0.00297016	0.00274905	0.00287831	0.00141435	0.00138138	0.00134373	0.00121313	0.00196544	0.00210627	0.00297486	0.0028816	0.0028146	0.00309139	0.00287842	0.00284492	0.0011869	0.00310268	0.00283922	0.00182083	0.00279444	0.00119134	0.00119131	0.00282847	0.00131167	0.00271723	0.0029309	0.00280785	0.00226037	0.00194393	0.00244934	0.00149871	0.00138435	0.00141335	0.00139406	0.00136473	0.00154043	0.00121745	0.00178278	0.00190759	0.0012261	0.00102267	0.509036	0.441817	0.00107355	0.00102332	0.461987	0.142992	0.514817	0.00102267	0.324476	0.338864	0.266127	0.999191	0.0013884	0.00151596	0.00108088	0.999	0.0010277	0.354786	0.647501	0.26291	0.0318645	0.00105049	0.0010485	0.148729	0.952106	0.551778	0.492848	0.78644	0.00102267	0.00100358	0.207717	0.324765	0.0133683	0.28901	
3.63	0.00280274	0.00147286	0.00147114	0.00160169	0.00154203	0.00297016	0.00274905	0.00287831	0.00141435	0.00138138	0.00134373	0.00121313	0.00196544	0.00210627	0.00297486	0.0028816	0.0028146	0.00309139	0.00287842	0.00284492	0.0011869	0.00310268	0.00283922	0.00182083	0.00279444	0.00119134	0.00119131	0.00282847	0.00131167	0.00271723	0.0029309	0.00280785	0.00226037	0.00194393	0.00244934	0.00149871	0.00138435	0.00141335	0.00139406	0.00136473	0.00131044	0.0011299	0.00144348	0.00152282	0.00147077	0.00102267	0.507529	0.443275	0.00107355	0.00102332	0.427853	0.140877	0.526842	0.00102267	0.310901	0.327345	0.265018	0.999191	0.0013884	0.00151596	0.00108088	0.999	0.0010277	0.347051	0.588158	0.251055	0.0318774	0.00105049	0.0010485	0.162235	0.946402	0.545036	0.493726	0.734496	0.00102267	0.00100356	0.208821	0.295603	0.00232145	0.260623	
3.635	0.00280274	0.00147286	0.00147114	0.00160169	0.00154203	0.00297016	0.00274905	0.00287831	0.00141435	0.00138138	0.00134373	0.00121313	0.00196544	0.00210627	0.00297486	0.0028816	0.0028146	0.00309139	0.00287842	0.00284492	0.0011869	0.00310268	0.00283922	0.00182083	0.00279444	0.00119134	0.00119131	0.00282847	0.00131167	0.00271723	0.0029309	0.00280785	0.00226037	0.00194393	0.00244934	0.00149871	0.00138435	0.00141335	0.00139406	0.00136473	0.00118138	0.00108133	0.00125398	0.00130234	0.0015155	0.00102267	0.505088	0.443997	0.00107355	0.00102332	0.387268	0.137952	0.536222	0.00102267	0.297354	0.31566	0.263441	0.999191	0.0013884	0.00151596	0.00108088	0.999	0.0010277	0.338519	0.511443	0.237109	0.0318363	0.00105049	0.0010485	0.180624	0.940966	0.537371	0.494054	0.67792	0.00102267	0.00100355	0.208	0.267691	0.00119765	0.233921	
3.64	0.00280274	0.00147286	0.00147114	0.00160169	0.00154203	0.00297016	0.00274905	0.00287831	0.00141435	0.00138138	0.00134373	0.00121313	0.00196544	0.00210627	0.00297486	0.0028816	0.0028146	0.00309139	0.00287842	0.00284492	0.0011869	0.00310268	0.00283922	0.00182083	0.00279444	0.00119134	0.00119131	0.00282847	0.00131167	0.00271723	0.0029309	0.00280785	0.00226037	0.00194393	0.00244934	0.00149871	0.00138435	0.00141335	0.00139406	0.00136473	0.00110962	0.00105458	0.00114905	0.00117769	0.00140717	0.00102267	0.501759	0.444008	0.00107355	0.00102332	0.229138	0.134006	0.542907	0.00102267	0.28396	0.303919	0.261428	0.999191	0.0013884	0.00151596	0.00108088	0.999	0.0010277	0.328899	0.629558	0.218055	0.0316676	0.00105049	0.0010485	0.204292	0.935978	0.528701	0.493795	0.61794	0.00102267	0.050813	0.200281	0.241402	0.00111291	0.20909	
3.645	0.00280274	0.00147286	0.00147114	0.00160169	0.00154203	0.00297016	0.00274905	0.00287831	0.00141435	0.00138138	0.00134373	0.00121313	0.00196544	0.00210627	0.00297486	0.0028816	0.0028146	0.00309139	0.00287842	0.00284492	0.0011869	0.00310268	0.00283922	0.00182083	0.00279444	0.00119134	0.00119131	0.00282847	0.00131167	0.00271723	0.0029309	0.00280785	0.00226037	0.00194393	0.00244934	0.00149871	0.00138435	0.00141335	0.00139406	0.00136473	0.00107004	0.00103995	0.00109135	0.00110797	0.00128584	0.00102267	0.497599	0.443343	0.00107355	0.00102332	0.193452	0.129302	0.546909	0.00102267	0.270894	0.292369	0.259021	0.999191	0.0013884	0.00151596	0.00108088	0.999	0.0010277	0.318087	0.498144	0.196913	0.0313913	0.00105049	0.0010485	0.22962	0.931036	0.519005	0.492927	0.555835	0.00102267	0.103608	0.188936	0.216853	0.00110725	0.186218	
