CEINMS output
datacolumns 81
datarows 92
endheader
time	addbrev_r	addlong_r	addmagDist_r	addmagIsch_r	addmagMid_r	addmagProx_r	bflh_r	bfsh_r	edl_r	ehl_r	fdl_r	fhl_r	gaslat_r	gasmed_r	glmax1_r	glmax2_r	glmax3_r	glmed1_r	glmed2_r	glmed3_r	glmin1_r	glmin2_r	glmin3_r	grac_r	iliacus_r	perbrev_r	perlong_r	piri_r	psoas_r	recfem_r	sart_r	semimem_r	semiten_r	soleus_r	tfl_r	tibant_r	tibpost_r	vasint_r	vaslat_r	vasmed_r	addbrev_l	addlong_l	addmagDist_l	addmagIsch_l	addmagMid_l	addmagProx_l	bflh_l	bfsh_l	edl_l	ehl_l	fdl_l	fhl_l	gaslat_l	gasmed_l	glmax1_l	glmax2_l	glmax3_l	glmed1_l	glmed2_l	glmed3_l	glmin1_l	glmin2_l	glmin3_l	grac_l	iliacus_l	perbrev_l	perlong_l	piri_l	psoas_l	recfem_l	sart_l	semimem_l	semiten_l	soleus_l	tfl_l	tibant_l	tibpost_l	vasint_l	vaslat_l	vasmed_l	
3.175	0.001	0.001	0.001	0.001	0.001	0.001	0.001	0.001	0.001	0.001	0.001	0.001	0.001	0.001	0.001	0.001	0.001	0.001	0.001	0.001	0.001	0.001	0.001	0.001	0.001	0.001	0.001	0.001	0.001	0.001	0.001	0.001	0.001	0.001	0.001	0.001	0.001	0.001	0.001	0.000997281	0.001	0.001	0.999	0.999	0.0757171	0.001	0.114804	0.0163311	0.001	0.001	0.0130739	0.001	0.0942006	0.001	0.001	0.001	0.001	0.999	0.999	0.001	0.240324	0.947236	0.001	0.0728621	0.001	0.00103431	0.001	0.001	0.001	0.001	0.241452	0.250843	0.0503859	0.0018498	0.001	0.001	0.0057287	0.001	0.001	0.001	
3.18	0.001	0.001	0.001	0.001	0.001	0.001	0.001	0.001	0.001	0.001	0.001	0.001	0.001	0.001	0.001	0.001	0.001	0.001	0.001	0.001	0.001	0.001	0.001	0.001	0.001	0.001	0.001	0.001	0.001	0.001	0.001	0.001	0.001	0.001	0.001	0.001	0.001	0.001	0.001	0.000997281	0.001	0.001	0.582486	0.460603	0.309506	0.00906626	0.0164166	0.00585666	0.001	0.001	0.0197516	0.001	0.0350398	0.001	0.001	0.001	0.001	0.651149	0.750236	0.001	0.001	0.001	0.001	0.00578696	0.001	0.0022208	0.001	0.001	0.001	0.001	0.307417	0.069692	0.0163507	0.00148348	0.001	0.001	0.0100526	0.001	0.001	0.001	
3.185	0.001	0.001	0.001	0.001	0.001	0.001	0.001	0.001	0.001	0.001	0.001	0.001	0.001	0.001	0.001	0.001	0.001	0.001	0.001	0.001	0.001	0.001	0.001	0.001	0.001	0.001	0.001	0.001	0.001	0.001	0.001	0.001	0.001	0.001	0.001	0.001	0.001	0.001	0.001	0.000997281	0.001	0.001	0.26404	0.171308	0.172428	0.00616555	0.001	0.00466873	0.001	0.001	0.0209296	0.00101144	0.0218991	0.001	0.001	0.001	0.001	0.570109	0.646017	0.001	0.001	0.001	0.001	0.00563257	0.001	0.002596	0.001	0.001	0.001	0.001	0.395283	0.0400815	0.0139352	0.00117313	0.001	0.001	0.00967229	0.001	0.001	0.001	
3.19	0.001	0.001	0.001	0.001	0.001	0.001	0.001	0.001	0.001	0.001	0.001	0.001	0.001	0.001	0.001	0.001	0.001	0.001	0.001	0.001	0.001	0.001	0.001	0.001	0.001	0.001	0.001	0.001	0.001	0.001	0.001	0.001	0.001	0.001	0.001	0.001	0.001	0.001	0.001	0.000997281	0.001	0.001	0.211457	0.134999	0.124039	0.001	0.001	0.00456311	0.001	0.001	0.0221216	0.00114411	0.0232092	0.001	0.001	0.001	0.001	0.591205	0.555738	0.001	0.001	0.001	0.001	0.00546116	0.001	0.00297575	0.001	0.001	0.001	0.001	0.440574	0.0410954	0.013282	0.001	0.001	0.001	0.0112182	0.001	0.001	0.001	
3.195	0.001	0.001	0.001	0.001	0.001	0.001	0.001	0.001	0.001	0.001	0.001	0.001	0.001	0.001	0.001	0.001	0.001	0.001	0.001	0.001	0.001	0.001	0.001	0.001	0.001	0.001	0.001	0.001	0.001	0.001	0.001	0.001	0.001	0.001	0.001	0.001	0.001	0.001	0.001	0.000997281	0.001	0.001	0.18177	0.129664	0.0923468	0.001	0.001	0.00438421	0.001	0.001	0.0253664	0.0013	0.0235248	0.001	0.001	0.001	0.001	0.506459	0.411619	0.001	0.001	0.001	0.001	0.00528359	0.001	0.00336104	0.001	0.001	0.001	0.001	0.465476	0.0399899	0.0125339	0.001	0.001	0.001	0.0132345	0.001	0.001	0.001	
3.2	0.001	0.001	0.001	0.001	0.001	0.001	0.001	0.001	0.001	0.001	0.001	0.001	0.001	0.001	0.001	0.001	0.001	0.001	0.001	0.001	0.001	0.001	0.001	0.001	0.001	0.001	0.001	0.001	0.001	0.001	0.001	0.001	0.001	0.001	0.001	0.001	0.001	0.001	0.001	0.000997281	0.001	0.001	0.132225	0.112949	0.0649122	0.001	0.001	0.00409936	0.001	0.001	0.0284412	0.00156097	0.0234527	0.001	0.001	0.001	0.001	0.440098	0.24801	0.001	0.001	0.001	0.001	0.00509594	0.001	0.00400867	0.001	0.001	0.001	0.001	0.476823	0.0390744	0.0120754	0.001	0.001	0.001	0.015573	0.001	0.001	0.001	
3.205	0.001	0.001	0.001	0.001	0.001	0.001	0.001	0.001	0.001	0.001	0.001	0.001	0.001	0.001	0.001	0.001	0.001	0.001	0.001	0.001	0.001	0.001	0.001	0.001	0.001	0.001	0.001	0.001	0.001	0.001	0.001	0.001	0.001	0.001	0.001	0.001	0.001	0.001	0.001	0.000997281	0.001	0.001	0.0855459	0.0839011	0.0413795	0.001	0.001	0.00333117	0.001	0.001	0.0315855	0.00176346	0.0230576	0.001	0.001	0.001	0.001	0.37621	0.0885043	0.001	0.001	0.001	0.001	0.00490712	0.001	0.00449663	0.001	0.001	0.001	0.001	0.479938	0.0380177	0.0116545	0.001	0.001	0.001	0.0177696	0.001	0.001	0.001	
3.21	0.001	0.001	0.001	0.001	0.001	0.001	0.001	0.001	0.001	0.001	0.001	0.001	0.001	0.001	0.001	0.001	0.001	0.001	0.001	0.001	0.001	0.001	0.001	0.001	0.001	0.001	0.001	0.001	0.001	0.001	0.001	0.001	0.001	0.001	0.001	0.001	0.001	0.001	0.001	0.000997281	0.001	0.001	0.051117	0.0535645	0.0276106	0.001	0.001	0.001	0.001	0.001	0.034514	0.00206803	0.0227463	0.001	0.001	0.001	0.001	0.303223	0.001	0.001	0.001	0.001	0.001	0.00470556	0.001	0.00517183	0.001	0.001	0.001	0.001	0.477085	0.0379876	0.0113128	0.001	0.001	0.001	0.0202057	0.001	0.001	0.001	
3.215	0.001	0.001	0.001	0.001	0.001	0.001	0.001	0.001	0.001	0.001	0.001	0.001	0.001	0.001	0.001	0.001	0.001	0.001	0.001	0.001	0.001	0.001	0.001	0.001	0.001	0.001	0.001	0.001	0.001	0.001	0.001	0.001	0.001	0.001	0.001	0.001	0.001	0.001	0.001	0.000997281	0.001	0.0167459	0.0386166	0.0387204	0.028889	0.001	0.001	0.001	0.001	0.001	0.03757	0.00234381	0.0232178	0.001	0.001	0.001	0.001	0.225619	0.001	0.001	0.001	0.001	0.001	0.00450777	0.00452953	0.00580693	0.001	0.001	0.001	0.001	0.47633	0.039358	0.011445	0.001	0.001	0.001	0.0226256	0.001	0.001	0.001	
3.22	0.001	0.001	0.001	0.001	0.001	0.001	0.001	0.001	0.001	0.001	0.001	0.001	0.001	0.001	0.001	0.001	0.001	0.001	0.001	0.001	0.001	0.001	0.001	0.001	0.001	0.001	0.001	0.001	0.001	0.001	0.001	0.001	0.001	0.001	0.001	0.001	0.001	0.001	0.001	0.000997281	0.001	0.0250313	0.057689	0.0541544	0.0427749	0.001	0.001	0.001	0.001	0.001	0.0408736	0.0025947	0.0246232	0.001	0.001	0.001	0.001	0.159092	0.001	0.001	0.001	0.001	0.001	0.00432383	0.0110497	0.00642036	0.00102643	0.001	0.001	0.001	0.478648	0.0425983	0.0121374	0.001	0.001	0.001	0.0251237	0.001	0.001	0.001	
3.225	0.001	0.001	0.001	0.001	0.001	0.001	0.001	0.001	0.001	0.001	0.001	0.001	0.001	0.001	0.001	0.001	0.001	0.001	0.001	0.001	0.001	0.001	0.001	0.001	0.001	0.001	0.001	0.001	0.001	0.001	0.001	0.001	0.001	0.001	0.001	0.001	0.001	0.001	0.001	0.000997281	0.001	0.0247096	0.108613	0.0971944	0.0691109	0.001	0.001	0.001	0.001	0.001	0.0443368	0.00289252	0.0265708	0.001	0.001	0.001	0.001	0.101959	0.001	0.001	0.001	0.001	0.001	0.00414233	0.001	0.00714749	0.00114971	0.001	0.001	0.001	0.47856	0.0475021	0.0133155	0.001	0.001	0.001	0.0277302	0.001	0.001	0.001	
3.23	0.001	0.001	0.001	0.001	0.001	0.001	0.001	0.001	0.001	0.001	0.001	0.001	0.001	0.001	0.001	0.001	0.001	0.001	0.001	0.001	0.001	0.001	0.001	0.001	0.001	0.001	0.001	0.001	0.001	0.001	0.001	0.001	0.001	0.001	0.001	0.001	0.001	0.001	0.001	0.000997281	0.001	0.0210693	0.178357	0.149348	0.106476	0.001	0.001	0.001	0.001	0.001	0.0478759	0.00318605	0.0280333	0.001	0.001	0.001	0.001	0.0561756	0.001	0.001	0.001	0.001	0.001	0.00397926	0.001	0.00791388	0.00127115	0.001	0.001	0.001	0.467167	0.0521669	0.014527	0.001	0.001	0.001	0.0304095	0.001	0.001	0.001	
3.235	0.001	0.001	0.001	0.001	0.001	0.001	0.001	0.001	0.001	0.001	0.001	0.001	0.001	0.001	0.001	0.001	0.001	0.001	0.001	0.001	0.001	0.001	0.001	0.001	0.001	0.001	0.001	0.001	0.001	0.001	0.001	0.001	0.001	0.001	0.001	0.001	0.001	0.001	0.001	0.000997281	0.001	0.0129061	0.262337	0.208875	0.148318	0.001	0.001	0.001	0.001	0.001	0.0515362	0.00348478	0.0286874	0.001	0.001	0.001	0.001	0.0259467	0.001	0.001	0.001	0.001	0.001	0.00382246	0.001	0.00874045	0.00139516	0.001	0.001	0.001	0.442783	0.0558018	0.0157249	0.001	0.001	0.001	0.0330369	0.001	0.001	0.001	
3.24	0.001	0.001	0.001	0.001	0.001	0.001	0.001	0.001	0.001	0.001	0.001	0.001	0.001	0.001	0.001	0.001	0.001	0.001	0.001	0.001	0.001	0.001	0.001	0.001	0.001	0.001	0.001	0.001	0.001	0.001	0.001	0.001	0.001	0.001	0.001	0.001	0.001	0.001	0.001	0.000997281	0.001	0.00187516	0.353484	0.276155	0.194596	0.001	0.001	0.001	0.001	0.001	0.0552308	0.00378676	0.0288752	0.001	0.001	0.001	0.001	0.00431255	0.001	0.001	0.001	0.001	0.001	0.00370417	0.001	0.00965796	0.0015206	0.001	0.001	0.001	0.407063	0.0602223	0.0172846	0.001	0.001	0.001	0.0356532	0.001	0.001	0.001	
3.245	0.001	0.001	0.001	0.001	0.001	0.001	0.001	0.001	0.001	0.001	0.001	0.001	0.001	0.001	0.001	0.001	0.001	0.001	0.001	0.001	0.001	0.001	0.001	0.001	0.001	0.001	0.001	0.001	0.001	0.001	0.001	0.001	0.001	0.001	0.001	0.001	0.001	0.001	0.001	0.000997281	0.001	0.001	0.471814	0.341916	0.255267	0.001	0.001	0.001	0.001	0.001	0.0588667	0.00410578	0.0289684	0.001	0.001	0.001	0.001	0.001	0.001	0.001	0.001	0.001	0.001	0.00361161	0.001	0.0106317	0.00164982	0.001	0.001	0.001	0.360078	0.0666689	0.0195508	0.001	0.001	0.001	0.0379637	0.001	0.001	0.001	
3.25	0.001	0.001	0.001	0.001	0.001	0.001	0.001	0.001	0.001	0.001	0.001	0.001	0.001	0.001	0.001	0.001	0.001	0.001	0.001	0.001	0.001	0.001	0.001	0.001	0.001	0.001	0.001	0.001	0.001	0.001	0.001	0.001	0.001	0.001	0.001	0.001	0.001	0.001	0.001	0.000997281	0.001	0.001	0.613291	0.448517	0.321067	0.001	0.001	0.001	0.001	0.001	0.0622086	0.00435908	0.0290273	0.001	0.001	0.001	0.001	0.001	0.00810817	0.0585832	0.001	0.001	0.001	0.00353785	0.001	0.0115294	0.00174971	0.001	0.001	0.001	0.301506	0.0730972	0.0226165	0.001	0.001	0.001	0.0398578	0.001	0.001	0.001	
3.255	0.001	0.001	0.001	0.001	0.001	0.001	0.001	0.001	0.001	0.001	0.001	0.001	0.001	0.001	0.001	0.001	0.001	0.001	0.001	0.001	0.001	0.001	0.001	0.001	0.001	0.001	0.001	0.001	0.001	0.001	0.001	0.001	0.001	0.001	0.001	0.001	0.001	0.001	0.001	0.000997281	0.001	0.00454435	0.729262	0.534761	0.389975	0.001	0.001	0.001	0.001	0.001	0.0652396	0.00456313	0.0291893	0.001	0.001	0.001	0.001	0.001	0.001	0.18293	0.001	0.001	0.001	0.00347019	0.001	0.0124054	0.00183633	0.001	0.001	0.001	0.232234	0.0791773	0.0266521	0.001	0.001	0.001	0.0412341	0.001	0.001	0.001	
3.26	0.001	0.001	0.001	0.001	0.001	0.001	0.001	0.001	0.001	0.001	0.001	0.001	0.001	0.001	0.001	0.001	0.001	0.001	0.001	0.001	0.001	0.001	0.001	0.001	0.001	0.001	0.001	0.001	0.001	0.001	0.001	0.001	0.001	0.001	0.001	0.001	0.001	0.001	0.001	0.000997281	0.001	0.0146148	0.88752	0.614118	0.446859	0.001	0.001	0.001	0.001	0.001	0.0677353	0.0047187	0.0295107	0.001	0.001	0.001	0.001	0.001	0.001	0.238818	0.001	0.001	0.001	0.00339302	0.001	0.013159	0.00188445	0.001	0.001	0.001	0.154933	0.0861013	0.0317811	0.001	0.001	0.001	0.0420572	0.001	0.001	0.001	
3.265	0.001	0.001	0.001	0.001	0.001	0.001	0.001	0.001	0.001	0.001	0.001	0.001	0.001	0.001	0.001	0.001	0.001	0.001	0.001	0.001	0.001	0.001	0.001	0.001	0.001	0.001	0.001	0.001	0.001	0.001	0.001	0.001	0.001	0.001	0.001	0.001	0.001	0.001	0.001	0.000997281	0.001	0.0187426	0.962105	0.722593	0.484532	0.001	0.001	0.001	0.001	0.001	0.069785	0.00484678	0.0300818	0.001	0.001	0.001	0.001	0.001	0.001	0.321297	0.001	0.001	0.001	0.00329734	0.001	0.0139451	0.00192791	0.001	0.00102136	0.001	0.0846229	0.0930402	0.0374	0.001	0.001	0.001	0.0422984	0.001	0.001	0.001	
3.27	0.001	0.001	0.001	0.001	0.001	0.001	0.001	0.001	0.001	0.001	0.001	0.001	0.001	0.001	0.001	0.001	0.001	0.001	0.001	0.001	0.001	0.001	0.001	0.001	0.001	0.001	0.001	0.001	0.001	0.001	0.001	0.001	0.001	0.001	0.001	0.001	0.001	0.001	0.001	0.000997281	0.001	0.0209907	0.999	0.782098	0.541732	0.001	0.001	0.001	0.001	0.001	0.071455	0.00495283	0.0320083	0.001	0.001	0.001	0.001	0.001	0.001	0.370858	0.001	0.001	0.001	0.00317207	0.001	0.0147379	0.0019426	0.001	0.00114007	0.00109229	0.0622076	0.110521	0.04383	0.001	0.001	0.001	0.0420308	0.001	0.001	0.001	
3.275	0.001	0.001	0.001	0.001	0.001	0.001	0.001	0.001	0.001	0.001	0.001	0.001	0.001	0.001	0.001	0.001	0.001	0.001	0.001	0.001	0.001	0.001	0.001	0.001	0.001	0.001	0.001	0.001	0.001	0.001	0.001	0.001	0.001	0.001	0.001	0.001	0.001	0.001	0.001	0.000997281	0.001	0.020387	0.999	0.850174	0.564339	0.001	0.001	0.001	0.001	0.001	0.0723174	0.00496354	0.0344271	0.001	0.001	0.001	0.001	0.001	0.001	0.402618	0.001	0.001	0.001	0.00301472	0.001	0.0151635	0.00192571	0.001	0.00113394	0.00228118	0.0705396	0.150946	0.0489365	0.001	0.001	0.001	0.0412673	0.001	0.001	0.001	
3.28	0.001	0.001	0.001	0.001	0.001	0.001	0.001	0.001	0.001	0.001	0.001	0.001	0.001	0.001	0.001	0.001	0.001	0.001	0.001	0.001	0.001	0.001	0.001	0.001	0.001	0.001	0.001	0.001	0.001	0.001	0.001	0.001	0.001	0.001	0.001	0.001	0.001	0.001	0.001	0.000997281	0.001	0.0185713	0.999	0.917016	0.557898	0.001	0.001	0.001	0.001	0.001	0.0726287	0.00492229	0.0370684	0.001	0.001	0.001	0.001	0.001	0.001	0.414986	0.001	0.001	0.001	0.0028409	0.001	0.0154913	0.00189101	0.001	0.001	0.0029177	0.0932863	0.218245	0.0501569	0.001	0.001	0.001	0.0401115	0.001	0.001	0.001	
3.285	0.001	0.001	0.001	0.001	0.001	0.001	0.001	0.001	0.001	0.001	0.001	0.001	0.001	0.001	0.001	0.001	0.001	0.001	0.001	0.001	0.001	0.001	0.001	0.001	0.001	0.001	0.001	0.001	0.001	0.001	0.001	0.001	0.001	0.001	0.001	0.001	0.001	0.001	0.001	0.000997281	0.001	0.0158577	0.999	0.977075	0.543617	0.001	0.00671238	0.001	0.001	0.001	0.0726986	0.00487437	0.0406925	0.001	0.001	0.001	0.001	0.001	0.001	0.421309	0.001	0.001	0.001	0.00266437	0.001	0.0157782	0.00183766	0.001	0.001	0.0032014	0.132759	0.333724	0.0483055	0.001	0.001	0.001	0.0386505	0.001	0.001	0.001	
3.29	0.001	0.001	0.001	0.001	0.001	0.001	0.001	0.001	0.001	0.001	0.001	0.001	0.001	0.001	0.001	0.001	0.001	0.001	0.001	0.001	0.001	0.001	0.001	0.001	0.001	0.001	0.001	0.001	0.001	0.001	0.001	0.001	0.001	0.001	0.001	0.001	0.001	0.001	0.001	0.000997281	0.001	0.00895691	0.999	0.972929	0.447047	0.001	0.0341083	0.001	0.001	0.001	0.0721962	0.00482233	0.0443214	0.001	0.001	0.001	0.001	0.001	0.001	0.386991	0.001	0.001	0.001	0.00248434	0.001	0.0159753	0.00177008	0.001	0.001	0.00336819	0.198547	0.324873	0.0397317	0.001	0.001	0.001	0.0369936	0.001	0.001	0.001	
3.295	0.001	0.001	0.001	0.001	0.001	0.001	0.001	0.001	0.001	0.001	0.001	0.001	0.001	0.001	0.001	0.001	0.001	0.001	0.001	0.001	0.001	0.001	0.001	0.001	0.001	0.001	0.001	0.001	0.001	0.001	0.001	0.001	0.001	0.001	0.001	0.001	0.001	0.001	0.001	0.000997281	0.001	0.001	0.922198	0.799673	0.424555	0.001	0.0397867	0.001	0.001	0.001	0.0713651	0.00474073	0.049264	0.001	0.001	0.001	0.001	0.001	0.001	0.418121	0.001	0.001	0.001	0.00231648	0.001	0.016085	0.00169235	0.001	0.001	0.00329814	0.216332	0.264851	0.0350412	0.001	0.001	0.001	0.035235	0.001	0.001	0.001	
3.3	0.001	0.001	0.001	0.001	0.001	0.001	0.001	0.001	0.001	0.001	0.001	0.001	0.001	0.001	0.001	0.001	0.001	0.001	0.001	0.001	0.001	0.001	0.001	0.001	0.001	0.001	0.001	0.001	0.001	0.001	0.001	0.001	0.001	0.001	0.001	0.001	0.001	0.001	0.001	0.000997281	0.001	0.001	0.910328	0.72861	0.46629	0.001	0.0378733	0.001	0.001	0.001	0.0702205	0.00461216	0.0548874	0.001	0.001	0.001	0.001	0.001	0.001	0.458341	0.001	0.001	0.001	0.00217158	0.001	0.0160912	0.001609	0.001	0.001	0.00311533	0.208783	0.236529	0.0332112	0.001	0.001	0.001	0.033462	0.001	0.001	0.001	
3.305	0.001	0.001	0.001	0.001	0.001	0.001	0.001	0.001	0.001	0.001	0.001	0.001	0.001	0.001	0.001	0.001	0.001	0.001	0.001	0.001	0.001	0.001	0.001	0.001	0.001	0.001	0.001	0.001	0.001	0.001	0.001	0.001	0.001	0.001	0.001	0.001	0.001	0.001	0.001	0.000997281	0.001	0.001	0.809816	0.626712	0.452901	0.001	0.0345401	0.001	0.001	0.001	0.0688019	0.00452643	0.0605332	0.001	0.00105193	0.00104476	0.0148238	0.001	0.001	0.486491	0.001	0.001	0.001	0.00203078	0.001	0.0160267	0.00152324	0.001	0.001	0.00292032	0.210388	0.205536	0.0301803	0.001	0.001	0.001	0.0317294	0.001	0.001	0.001	
3.31	0.001	0.001	0.001	0.001	0.001	0.001	0.001	0.001	0.001	0.001	0.001	0.001	0.001	0.001	0.001	0.001	0.001	0.001	0.001	0.001	0.001	0.001	0.001	0.001	0.001	0.001	0.001	0.001	0.001	0.001	0.001	0.001	0.001	0.001	0.001	0.001	0.001	0.001	0.001	0.000997281	0.001	0.001	0.720785	0.570905	0.447894	0.001	0.0320174	0.001	0.001	0.001	0.0673679	0.00440248	0.0652956	0.001	0.00109623	0.00109476	0.0142013	0.001	0.004344	0.520322	0.001	0.001	0.001	0.0018985	0.001	0.0159145	0.00143636	0.001	0.001	0.00270063	0.203049	0.179185	0.0272583	0.001	0.001	0.001	0.0300568	0.001	0.001	0.001	
3.315	0.001	0.001	0.001	0.001	0.001	0.001	0.001	0.001	0.001	0.001	0.001	0.001	0.001	0.001	0.001	0.001	0.001	0.001	0.001	0.001	0.001	0.001	0.001	0.001	0.001	0.001	0.001	0.001	0.001	0.001	0.001	0.001	0.001	0.001	0.001	0.001	0.001	0.001	0.001	0.000997281	0.001	0.001	0.658668	0.526738	0.44584	0.001	0.0294371	0.001	0.001	0.001	0.0658392	0.00428257	0.0690803	0.001	0.00117203	0.037328	0.0124534	0.001	0.001	0.513695	0.001	0.001	0.001	0.00180334	0.001	0.015764	0.00135204	0.001	0.001	0.00247017	0.188984	0.15461	0.0241501	0.001	0.001	0.001	0.0284976	0.001	0.001	0.001	
3.32	0.001	0.001	0.001	0.001	0.001	0.001	0.001	0.001	0.001	0.001	0.001	0.001	0.001	0.001	0.001	0.001	0.001	0.001	0.001	0.001	0.001	0.001	0.001	0.001	0.001	0.001	0.001	0.001	0.001	0.001	0.001	0.001	0.001	0.001	0.001	0.001	0.001	0.001	0.001	0.000997281	0.001	0.001	0.610988	0.491843	0.427719	0.001	0.0261855	0.001	0.001	0.001	0.0642329	0.00417757	0.071534	0.001	0.00124372	0.0359939	0.0118807	0.001	0.001	0.573755	0.001	0.001	0.001	0.00174884	0.001	0.0155842	0.00127174	0.001	0.001	0.00223117	0.16354	0.130159	0.0209414	0.001	0.001	0.001	0.0270619	0.001	0.001	0.001	
3.325	0.001	0.001	0.001	0.001	0.001	0.001	0.001	0.001	0.001	0.001	0.001	0.001	0.001	0.001	0.001	0.001	0.001	0.001	0.001	0.001	0.001	0.001	0.001	0.001	0.001	0.001	0.001	0.001	0.001	0.001	0.001	0.001	0.001	0.001	0.001	0.001	0.001	0.001	0.001	0.000997281	0.001	0.001	0.532666	0.420084	0.387608	0.001	0.0216332	0.001	0.001	0.001	0.0626689	0.00407747	0.0721394	0.001	0.00133541	0.0333511	0.0108111	0.001	0.001	0.5662	0.001	0.001	0.001	0.00171846	0.001	0.0153764	0.00119531	0.001	0.001	0.00199017	0.133217	0.0990534	0.0169544	0.001	0.001	0.001	0.0257352	0.001	0.001	0.001	
3.33	0.001	0.001	0.001	0.001	0.001	0.001	0.001	0.001	0.001	0.001	0.001	0.001	0.001	0.001	0.001	0.001	0.001	0.001	0.001	0.001	0.001	0.001	0.001	0.001	0.001	0.001	0.001	0.001	0.001	0.001	0.001	0.001	0.001	0.001	0.001	0.001	0.001	0.001	0.001	0.000997281	0.001	0.001	0.474651	0.363214	0.348827	0.001	0.0170891	0.001	0.001	0.001	0.0612091	0.00396439	0.0705138	0.001	0.00133021	0.0322921	0.0100852	0.001	0.001	0.556928	0.001	0.001	0.001	0.00171651	0.001	0.0151457	0.00112556	0.001	0.001	0.00175918	0.0821506	0.0697236	0.0129745	0.001	0.001	0.001	0.0245541	0.001	0.00152729	0.001	
3.335	0.001	0.001	0.001	0.001	0.001	0.001	0.001	0.001	0.001	0.001	0.001	0.001	0.001	0.001	0.001	0.001	0.001	0.001	0.001	0.001	0.001	0.001	0.001	0.001	0.001	0.001	0.001	0.001	0.001	0.001	0.001	0.001	0.001	0.001	0.001	0.001	0.001	0.001	0.001	0.000997281	0.001	0.001	0.420686	0.311221	0.310648	0.001	0.0118971	0.001	0.001	0.001	0.0591944	0.00379541	0.066276	0.001	0.00153616	0.0318793	0.00958872	0.001	0.001	0.529216	0.001	0.001	0.001	0.00181087	0.001	0.0147124	0.0010444	0.001	0.001	0.00151878	0.001	0.0402965	0.00859579	0.001	0.001	0.001	0.023132	0.00170256	0.00282365	0.001	
3.34	0.001	0.001	0.001	0.001	0.001	0.001	0.001	0.001	0.001	0.001	0.001	0.001	0.001	0.001	0.001	0.001	0.001	0.001	0.001	0.001	0.001	0.001	0.001	0.001	0.001	0.001	0.001	0.001	0.001	0.001	0.001	0.001	0.001	0.001	0.001	0.001	0.001	0.001	0.001	0.000997281	0.001	0.001	0.369039	0.2649	0.272678	0.001	0.0060944	0.001	0.001	0.001	0.0569976	0.00360849	0.0589303	0.001	0.00165838	0.0320673	0.00927906	0.001	0.001	0.491478	0.001	0.001	0.001	0.0019282	0.001	0.0141579	0.001	0.001	0.001	0.00130962	0.001	0.0133273	0.00397783	0.001	0.001	0.001	0.0217045	0.00185231	0.00197607	0.0102931	
3.345	0.001	0.001	0.001	0.001	0.001	0.001	0.001	0.001	0.001	0.001	0.001	0.001	0.001	0.001	0.001	0.001	0.001	0.001	0.001	0.001	0.001	0.001	0.001	0.001	0.001	0.001	0.001	0.001	0.001	0.001	0.001	0.001	0.001	0.001	0.001	0.001	0.001	0.001	0.001	0.000997281	0.001	0.001	0.317725	0.215288	0.236496	0.001	0.001	0.001	0.001	0.001	0.0546965	0.00342449	0.0475186	0.001	0.013834	0.0322459	0.0090419	0.001	0.001	0.415437	0.001	0.001	0.001	0.002091	0.001	0.0135522	0.001	0.001	0.001	0.00112871	0.001	0.001	0.001	0.001	0.001	0.001	0.0203362	0.00197164	0.00207796	0.0412183	
3.35	0.001	0.001	0.001	0.001	0.001	0.001	0.001	0.001	0.001	0.001	0.001	0.001	0.001	0.001	0.001	0.001	0.001	0.001	0.001	0.001	0.001	0.001	0.001	0.001	0.001	0.001	0.001	0.001	0.001	0.001	0.001	0.001	0.001	0.001	0.001	0.001	0.001	0.001	0.001	0.000997281	0.001	0.001	0.268546	0.166428	0.198907	0.001	0.001	0.001	0.001	0.001	0.0524137	0.00325103	0.0312282	0.001	0.0165473	0.0328337	0.00884836	0.001	0.001	0.348054	0.001	0.001	0.001	0.00230667	0.001	0.0129465	0.001	0.001	0.001	0.001	0.001	0.001	0.001	0.001	0.001	0.001	0.0190865	0.00204766	0.00299518	0.0666011	
3.355	0.001	0.001	0.001	0.001	0.001	0.001	0.001	0.001	0.001	0.001	0.001	0.001	0.001	0.001	0.001	0.001	0.001	0.001	0.001	0.001	0.001	0.001	0.001	0.001	0.001	0.001	0.001	0.001	0.001	0.001	0.001	0.001	0.001	0.001	0.001	0.001	0.001	0.001	0.001	0.000997281	0.001	0.001	0.239449	0.139966	0.172713	0.001	0.001	0.00103963	0.001	0.001	0.0502503	0.00308699	0.0101644	0.001	0.0173281	0.0358614	0.00908199	0.001	0.001	0.320181	0.001	0.001	0.001	0.00255162	0.001	0.0123656	0.001	0.001	0.001	0.001	0.001	0.001	0.001	0.001	0.001	0.001	0.0179729	0.00209334	0.001	0.0872698	
3.36	0.001	0.001	0.001	0.001	0.001	0.001	0.001	0.001	0.001	0.001	0.001	0.001	0.001	0.001	0.001	0.001	0.001	0.001	0.001	0.001	0.001	0.001	0.001	0.001	0.001	0.001	0.001	0.001	0.001	0.001	0.001	0.001	0.001	0.001	0.001	0.001	0.001	0.001	0.001	0.000997281	0.001	0.001	0.203941	0.104981	0.14227	0.001	0.001	0.00125965	0.001	0.001	0.0482262	0.00293251	0.001	0.001	0.0187762	0.0375395	0.00902795	0.001	0.001	0.290624	0.001	0.001	0.001	0.00283928	0.001	0.0118201	0.001	0.001	0.001	0.001	0.001	0.001	0.001	0.001	0.001	0.001	0.016993	0.00218541	0.0022435	0.104229	
3.365	0.001	0.001	0.001	0.001	0.001	0.001	0.001	0.001	0.001	0.001	0.001	0.001	0.001	0.001	0.001	0.001	0.001	0.001	0.001	0.001	0.001	0.001	0.001	0.001	0.001	0.001	0.001	0.001	0.001	0.001	0.001	0.001	0.001	0.001	0.001	0.001	0.001	0.001	0.001	0.000997281	0.001	0.001	0.184323	0.0885419	0.119241	0.001	0.001	0.00151477	0.001	0.001	0.0463558	0.0027885	0.001	0.001	0.0222515	0.0407517	0.00918777	0.001	0.001	0.292382	0.001	0.001	0.001	0.00315344	0.001	0.011307	0.001	0.001	0.001	0.001	0.001	0.001	0.001	0.001	0.001	0.001	0.016127	0.00220405	0.0113058	0.118349	
3.37	0.001	0.001	0.001	0.001	0.001	0.001	0.001	0.001	0.001	0.001	0.001	0.001	0.001	0.001	0.001	0.001	0.001	0.001	0.001	0.001	0.001	0.001	0.001	0.001	0.001	0.001	0.001	0.001	0.001	0.001	0.001	0.001	0.001	0.001	0.001	0.001	0.001	0.001	0.001	0.000997281	0.001	0.001	0.176619	0.0853897	0.103673	0.001	0.001	0.0018091	0.001	0.001	0.0446015	0.00265216	0.001	0.001	0.0267895	0.0451323	0.0095836	0.001	0.001	0.322595	0.001	0.001	0.001	0.00349035	0.001	0.0108121	0.001	0.001	0.001	0.001	0.001	0.001	0.001	0.001	0.001	0.001	0.015342	0.00219785	0.0142706	0.13135	
3.375	0.001	0.001	0.001	0.001	0.001	0.001	0.001	0.001	0.001	0.001	0.001	0.001	0.001	0.001	0.001	0.001	0.001	0.001	0.001	0.001	0.001	0.001	0.001	0.001	0.001	0.001	0.001	0.001	0.001	0.001	0.001	0.001	0.001	0.001	0.001	0.001	0.001	0.001	0.001	0.000997281	0.001	0.001	0.171274	0.083421	0.0882184	0.001	0.001	0.00210673	0.001	0.001	0.0429331	0.00252047	0.001	0.001	0.0328857	0.05039	0.00991742	0.001	0.001	0.382479	0.001	0.001	0.001	0.001	0.001	0.0103235	0.001	0.001	0.001	0.001	0.001	0.001	0.001	0.001	0.001	0.001	0.014611	0.00216957	0.00229266	0.141981	
3.38	0.001	0.001	0.001	0.001	0.001	0.001	0.001	0.001	0.001	0.001	0.001	0.001	0.001	0.001	0.001	0.001	0.001	0.001	0.001	0.001	0.001	0.001	0.001	0.001	0.001	0.001	0.001	0.001	0.001	0.001	0.001	0.001	0.001	0.001	0.001	0.001	0.001	0.001	0.001	0.000997281	0.001	0.001	0.171176	0.0873986	0.0745982	0.001	0.001	0.00244541	0.001	0.001	0.0412722	0.00239222	0.001	0.001	0.0403322	0.0559959	0.0101718	0.001	0.001	0.458847	0.001	0.001	0.001	0.001	0.001	0.00983469	0.001	0.001	0.001	0.001	0.001	0.001	0.001	0.001	0.001	0.001	0.0139173	0.00212413	0.00228693	0.143361	
3.385	0.001	0.001	0.001	0.001	0.001	0.001	0.001	0.001	0.001	0.001	0.001	0.001	0.001	0.001	0.001	0.001	0.001	0.001	0.001	0.001	0.001	0.001	0.001	0.001	0.001	0.001	0.001	0.001	0.001	0.001	0.001	0.001	0.001	0.001	0.001	0.001	0.001	0.001	0.001	0.000997281	0.001	0.001	0.206523	0.119002	0.097327	0.001	0.001	0.00300135	0.001	0.001	0.0395989	0.00226804	0.001	0.001	0.0503258	0.0647343	0.01153	0.001	0.001	0.540585	0.001	0.001	0.001	0.001	0.001	0.00934891	0.001	0.001	0.00104569	0.001	0.001	0.001	0.001	0.001	0.001	0.001	0.0132558	0.00207024	0.0264641	0.146064	
3.39	0.001	0.001	0.001	0.001	0.001	0.001	0.001	0.001	0.001	0.001	0.001	0.001	0.001	0.001	0.001	0.001	0.001	0.001	0.001	0.001	0.001	0.001	0.001	0.001	0.001	0.001	0.001	0.001	0.001	0.001	0.001	0.001	0.001	0.001	0.001	0.001	0.001	0.001	0.001	0.000997281	0.001	0.001	0.283046	0.173523	0.163552	0.001	0.001	0.00319302	0.001	0.001	0.0378535	0.00213257	0.001	0.001	0.0640375	0.0785278	0.0137367	0.001	0.001	0.626353	0.001	0.001	0.001	0.001	0.001	0.0088106	0.001	0.001	0.00171638	0.001	0.001	0.001	0.001	0.001	0.001	0.001	0.0125473	0.00200959	0.0297552	0.143102	
3.395	0.001	0.001	0.001	0.001	0.001	0.001	0.001	0.001	0.001	0.001	0.001	0.001	0.001	0.001	0.001	0.001	0.001	0.001	0.001	0.001	0.001	0.001	0.001	0.001	0.001	0.001	0.001	0.001	0.001	0.001	0.001	0.001	0.001	0.001	0.001	0.001	0.001	0.001	0.001	0.000997281	0.001	0.001	0.370261	0.226349	0.244829	0.001	0.001	0.00358953	0.001	0.001	0.0360373	0.00199876	0.001	0.001	0.0762057	0.0926558	0.0167384	0.001	0.0643958	0.68929	0.001	0.001	0.001	0.001	0.001	0.00827011	0.001	0.001	0.00165774	0.001	0.001	0.001	0.001	0.001	0.001	0.001	0.0118515	0.00195264	0.00228002	0.133596	
3.4	0.001	0.001	0.001	0.001	0.001	0.001	0.001	0.001	0.001	0.001	0.001	0.001	0.001	0.001	0.001	0.001	0.001	0.001	0.001	0.001	0.001	0.001	0.001	0.001	0.001	0.001	0.001	0.001	0.001	0.001	0.001	0.001	0.001	0.001	0.001	0.001	0.001	0.001	0.001	0.000997281	0.001	0.001	0.42619	0.25785	0.298646	0.001	0.001	0.001	0.001	0.001	0.0341325	0.00186204	0.001	0.001	0.0832521	0.101232	0.0185574	0.001	0.138425	0.731666	0.001	0.001	0.001	0.001	0.001	0.00771219	0.001	0.001	0.001	0.001	0.001	0.001	0.001	0.001	0.001	0.001	0.011143	0.00190541	0.00215453	0.125015	
3.405	0.001	0.001	0.001	0.001	0.001	0.001	0.001	0.001	0.001	0.001	0.001	0.001	0.001	0.001	0.001	0.001	0.001	0.001	0.001	0.001	0.001	0.001	0.001	0.001	0.001	0.001	0.001	0.001	0.001	0.001	0.001	0.001	0.001	0.001	0.001	0.001	0.001	0.001	0.001	0.000997281	0.001	0.001	0.457245	0.277865	0.330232	0.001	0.001	0.001	0.001	0.001	0.0321177	0.00172312	0.001	0.001	0.0857842	0.104302	0.0191107	0.001	0.20127	0.760531	0.001	0.001	0.001	0.001	0.00100621	0.00714304	0.001	0.001	0.001	0.001	0.001	0.001	0.001	0.001	0.001	0.001	0.0104223	0.00187941	0.034184	0.116693	
3.41	0.001	0.001	0.001	0.001	0.001	0.001	0.001	0.001	0.001	0.001	0.001	0.001	0.001	0.001	0.001	0.001	0.001	0.001	0.001	0.001	0.001	0.001	0.001	0.001	0.001	0.001	0.001	0.001	0.001	0.001	0.001	0.001	0.001	0.001	0.001	0.001	0.001	0.001	0.001	0.000997281	0.001	0.001	0.479781	0.295977	0.353121	0.001	0.00140344	0.001	0.001	0.001	0.0299777	0.00158014	0.001	0.001	0.0848779	0.103778	0.0191248	0.001	0.266981	0.775433	0.001	0.001	0.001	0.001	0.00108641	0.00655568	0.001	0.001	0.00216374	0.001	0.001	0.001	0.001	0.001	0.001	0.001	0.00967571	0.00171387	0.0328164	0.108549	
3.415	0.001	0.001	0.001	0.001	0.001	0.001	0.001	0.001	0.001	0.001	0.001	0.001	0.001	0.001	0.001	0.001	0.001	0.001	0.001	0.001	0.001	0.001	0.001	0.001	0.001	0.001	0.001	0.001	0.001	0.001	0.001	0.001	0.001	0.001	0.001	0.001	0.001	0.001	0.001	0.000997281	0.001	0.001	0.497156	0.312632	0.372117	0.001	0.00927318	0.001	0.001	0.001	0.0276925	0.00143111	0.001	0.001	0.0814717	0.101008	0.0189133	0.001	0.314104	0.779493	0.001	0.001	0.001	0.001	0.00147187	0.00594379	0.001	0.001	0.00174881	0.001	0.001	0.001	0.00178846	0.001	0.001	0.001	0.00888677	0.0018928	0.00222788	0.102659	
3.42	0.001	0.001	0.001	0.001	0.001	0.001	0.001	0.001	0.001	0.001	0.001	0.001	0.001	0.001	0.001	0.001	0.001	0.001	0.001	0.001	0.001	0.001	0.001	0.001	0.001	0.001	0.001	0.001	0.001	0.001	0.001	0.001	0.001	0.001	0.001	0.001	0.001	0.001	0.001	0.000997281	0.001	0.001	0.506037	0.327453	0.386697	0.001	0.014426	0.001	0.001	0.001	0.0252551	0.00127719	0.001	0.001	0.0765124	0.0969601	0.0185367	0.001	0.3495	0.768751	0.001	0.001	0.001	0.001	0.00142509	0.00531207	0.001	0.001	0.001	0.001	0.001	0.00157221	0.00518342	0.001	0.001	0.001	0.00805352	0.00185163	0.00213473	0.0991641	
3.425	0.001	0.001	0.001	0.001	0.001	0.001	0.001	0.001	0.001	0.001	0.001	0.001	0.001	0.001	0.001	0.001	0.001	0.001	0.001	0.001	0.001	0.001	0.001	0.001	0.001	0.001	0.001	0.001	0.001	0.001	0.001	0.001	0.001	0.001	0.001	0.001	0.001	0.001	0.001	0.000997281	0.001	0.001	0.508797	0.33981	0.397809	0.001	0.0171385	0.001	0.001	0.001	0.0225714	0.00111741	0.001	0.001	0.0705024	0.0920505	0.0180187	0.001	0.373095	0.739369	0.001	0.001	0.001	0.001	0.001	0.00465638	0.001	0.001	0.001	0.001	0.001	0.00717	0.00759159	0.001	0.001	0.001	0.00716197	0.00200792	0.0334724	0.0969746	
3.43	0.001	0.001	0.001	0.001	0.001	0.001	0.001	0.001	0.001	0.001	0.001	0.001	0.001	0.001	0.001	0.001	0.001	0.001	0.001	0.001	0.001	0.001	0.001	0.001	0.001	0.001	0.001	0.001	0.001	0.001	0.001	0.001	0.001	0.001	0.001	0.001	0.001	0.001	0.001	0.000997281	0.001	0.001	0.508637	0.34895	0.406023	0.001	0.018285	0.001	0.001	0.001	0.01962	0.001	0.001	0.001	0.0634276	0.0864398	0.017444	0.001	0.383005	0.707576	0.001	0.001	0.001	0.00758956	0.001	0.00395935	0.001	0.001	0.00235455	0.001	0.001	0.0106996	0.00938185	0.001	0.001	0.001	0.00617925	0.00221195	0.0316424	0.0945744	
3.435	0.001	0.001	0.001	0.001	0.001	0.001	0.001	0.001	0.001	0.001	0.001	0.001	0.001	0.001	0.001	0.001	0.001	0.001	0.001	0.001	0.001	0.001	0.001	0.001	0.001	0.001	0.001	0.001	0.001	0.001	0.001	0.001	0.001	0.001	0.001	0.001	0.001	0.001	0.001	0.000997281	0.001	0.001	0.50835	0.353156	0.410358	0.001	0.0185216	0.001	0.001	0.001	0.0163019	0.001	0.001	0.001	0.0553005	0.080448	0.016805	0.001	0.381169	0.681606	0.001	0.001	0.001	0.0126452	0.00152434	0.00321215	0.001	0.001	0.001	0.001	0.001	0.0127544	0.0107816	0.00111085	0.001	0.001	0.00508346	0.00242249	0.00260031	0.0909758	
3.44	0.001	0.001	0.001	0.001	0.001	0.001	0.001	0.001	0.001	0.001	0.001	0.001	0.001	0.001	0.001	0.001	0.001	0.001	0.001	0.001	0.001	0.001	0.001	0.001	0.001	0.001	0.001	0.001	0.001	0.001	0.001	0.001	0.001	0.001	0.001	0.001	0.001	0.001	0.001	0.000997281	0.001	0.001	0.508446	0.35176	0.411039	0.001	0.018151	0.001	0.001	0.001	0.0124719	0.001	0.001	0.001	0.0450045	0.0742882	0.0161226	0.001	0.367725	0.654155	0.001	0.001	0.001	0.0156218	0.00131051	0.00239454	0.001	0.001	0.001	0.001	0.001	0.0134206	0.0117329	0.00107972	0.001	0.001	0.00383633	0.0027227	0.0028784	0.0869098	
3.445	0.001	0.001	0.001	0.001	0.001	0.001	0.001	0.001	0.001	0.001	0.001	0.001	0.001	0.001	0.001	0.001	0.001	0.001	0.001	0.001	0.001	0.001	0.001	0.001	0.001	0.001	0.001	0.001	0.001	0.001	0.001	0.001	0.001	0.001	0.001	0.001	0.001	0.001	0.001	0.000997281	0.001	0.001	0.503787	0.345389	0.407954	0.001	0.0175431	0.001	0.001	0.001	0.00794759	0.001	0.001	0.001	0.0028747	0.0678069	0.0153914	0.001	0.343595	0.617365	0.001	0.001	0.001	0.0162441	0.001	0.00148298	0.001	0.001	0.0013868	0.001	0.001	0.0132463	0.0122266	0.0012852	0.001	0.001	0.00239923	0.00305166	0.0310322	0.0831744	
3.45	0.001	0.001	0.001	0.001	0.001	0.001	0.001	0.001	0.001	0.001	0.001	0.001	0.001	0.001	0.001	0.001	0.001	0.001	0.001	0.001	0.001	0.001	0.001	0.001	0.001	0.001	0.001	0.001	0.001	0.001	0.001	0.001	0.001	0.001	0.001	0.001	0.001	0.001	0.001	0.000997281	0.001	0.001	0.492583	0.333996	0.401032	0.001	0.0168493	0.001	0.001	0.001	0.00256915	0.001	0.001	0.001	0.00294338	0.060904	0.014606	0.001	0.309306	0.566954	0.001	0.001	0.001	0.0139927	0.001	0.001	0.001	0.001	0.00260198	0.001	0.001	0.0129901	0.0123905	0.0013854	0.001	0.001	0.001	0.0034185	0.0264445	0.0803547	
3.455	0.001	0.001	0.001	0.001	0.001	0.001	0.001	0.001	0.001	0.001	0.001	0.001	0.001	0.001	0.001	0.001	0.001	0.001	0.001	0.001	0.001	0.001	0.001	0.001	0.001	0.001	0.001	0.001	0.001	0.001	0.001	0.001	0.001	0.001	0.001	0.001	0.001	0.001	0.001	0.000997281	0.001	0.001	0.474915	0.318784	0.390542	0.001	0.0161444	0.001	0.0339731	0.0151214	0.001	0.001	0.001	0.001	0.0030532	0.0533909	0.0135595	0.001	0.264261	0.512933	0.001	0.001	0.001	0.00697698	0.00121469	0.001	0.001	0.001	0.00267211	0.001	0.001	0.0128649	0.0123097	0.00158314	0.001	0.0421496	0.001	0.00391027	0.00398787	0.0786436	
3.46	0.001	0.001	0.001	0.001	0.001	0.001	0.001	0.001	0.001	0.001	0.001	0.001	0.001	0.001	0.001	0.001	0.001	0.001	0.001	0.001	0.001	0.001	0.001	0.001	0.001	0.001	0.001	0.001	0.001	0.001	0.001	0.001	0.001	0.001	0.001	0.001	0.001	0.001	0.001	0.000997281	0.001	0.001	0.451437	0.301005	0.376861	0.001	0.0154503	0.00190771	0.0712893	0.0372	0.001	0.001	0.001	0.001	0.00313034	0.0452035	0.0111934	0.001	0.213285	0.47215	0.001	0.001	0.001	0.0068173	0.00107672	0.001	0.001	0.001	0.001	0.001	0.001	0.0128137	0.0120078	0.00180673	0.001	0.0850798	0.001	0.00428502	0.00434436	0.0785241	
3.465	0.001	0.001	0.001	0.001	0.001	0.001	0.001	0.001	0.001	0.001	0.001	0.001	0.001	0.001	0.001	0.001	0.001	0.001	0.001	0.001	0.001	0.001	0.001	0.001	0.001	0.001	0.001	0.001	0.001	0.001	0.001	0.001	0.001	0.001	0.001	0.001	0.001	0.001	0.001	0.000997281	0.001	0.001	0.321815	0.216784	0.252961	0.001	0.0119022	0.00128978	0.0724097	0.0354888	0.001	0.001	0.001	0.001	0.00324474	0.0299944	0.00325696	0.001	0.261235	0.451812	0.001	0.001	0.001	0.00660434	0.001	0.001	0.001	0.001	0.001	0.001	0.001	0.00926455	0.00918947	0.00202958	0.001	0.0751875	0.001	0.00469361	0.0286773	0.0997752	
3.47	0.001	0.001	0.001	0.001	0.001	0.001	0.001	0.001	0.001	0.001	0.001	0.001	0.001	0.001	0.001	0.001	0.001	0.001	0.001	0.001	0.001	0.001	0.001	0.001	0.001	0.001	0.001	0.001	0.001	0.001	0.001	0.001	0.001	0.001	0.001	0.001	0.001	0.001	0.001	0.000997281	0.001	0.001	0.300061	0.205529	0.229059	0.001	0.0114785	0.00187956	0.0604225	0.0256808	0.001	0.001	0.001	0.001	0.00335441	0.00336519	0.00336643	0.001	0.284788	0.459781	0.001	0.001	0.0208072	0.00633528	0.001	0.001	0.001	0.001	0.001	0.001	0.001	0.00872942	0.00876519	0.00219889	0.001	0.0544561	0.001	0.00512839	0.0260837	0.109067	
3.475	0.001	0.001	0.001	0.001	0.001	0.001	0.001	0.001	0.001	0.001	0.001	0.001	0.001	0.001	0.001	0.001	0.001	0.001	0.001	0.001	0.001	0.001	0.001	0.001	0.001	0.001	0.001	0.001	0.001	0.001	0.001	0.001	0.001	0.001	0.001	0.001	0.001	0.001	0.001	0.000997281	0.001	0.001	0.275991	0.194616	0.197136	0.001	0.0110715	0.00220491	0.0309933	0.00952477	0.001	0.001	0.001	0.001	0.00349094	0.00350393	0.00350962	0.001	0.329657	0.483949	0.001	0.001	0.0595387	0.00602486	0.001	0.001	0.001	0.001	0.00167539	0.00123306	0.001	0.00792238	0.00823564	0.0024975	0.001	0.0254823	0.001	0.00548262	0.00551316	0.122745	
3.48	0.001	0.001	0.001	0.001	0.001	0.001	0.001	0.001	0.001	0.001	0.001	0.001	0.001	0.001	0.001	0.001	0.001	0.001	0.001	0.001	0.001	0.001	0.001	0.001	0.001	0.001	0.001	0.001	0.001	0.001	0.001	0.001	0.001	0.001	0.001	0.001	0.001	0.001	0.001	0.000997281	0.001	0.001	0.267923	0.190707	0.182538	0.001	0.0108752	0.00226277	0.001	0.001	0.00320091	0.001	0.001	0.001	0.00362677	0.00364023	0.00364318	0.112825	0.348069	0.508837	0.001	0.001	0.0745296	0.00567605	0.001	0.001	0.001	0.001	0.00152903	0.00165061	0.001	0.00705311	0.00773587	0.00276707	0.001	0.001	0.00104247	0.00574746	0.00572006	0.140221	
3.485	0.001	0.001	0.001	0.001	0.001	0.001	0.001	0.001	0.001	0.001	0.001	0.001	0.001	0.001	0.001	0.001	0.001	0.001	0.001	0.001	0.001	0.001	0.001	0.001	0.001	0.001	0.001	0.001	0.001	0.001	0.001	0.001	0.001	0.001	0.001	0.001	0.001	0.001	0.001	0.000997281	0.001	0.001	0.272833	0.194753	0.175711	0.001	0.0108997	0.00220062	0.001	0.001	0.00956257	0.001	0.001	0.001	0.00378937	0.00378975	0.00380056	0.222236	0.380395	0.546989	0.001	0.0263414	0.0862589	0.00528833	0.001	0.00225066	0.001	0.001	0.001	0.00197309	0.001	0.00633489	0.00732293	0.00314908	0.001	0.001	0.00332776	0.00599827	0.0293418	0.158551	
3.49	0.001	0.001	0.001	0.001	0.001	0.001	0.001	0.001	0.001	0.001	0.001	0.001	0.001	0.001	0.001	0.001	0.001	0.001	0.001	0.001	0.001	0.001	0.001	0.001	0.001	0.001	0.001	0.001	0.001	0.001	0.001	0.001	0.001	0.001	0.001	0.001	0.001	0.001	0.001	0.000997281	0.001	0.001	0.292814	0.20916	0.176445	0.001	0.0112333	0.00209146	0.001	0.001	0.0161593	0.001	0.001	0.001	0.00395417	0.00397058	0.0039709	0.352039	0.429833	0.599177	0.001	0.100432	0.093628	0.00488956	0.001	0.00406366	0.001	0.001	0.001	0.00202329	0.001	0.00623255	0.00713667	0.00334317	0.001	0.001	0.00584228	0.00619497	0.0272684	0.17404	
3.495	0.001	0.001	0.001	0.001	0.001	0.001	0.001	0.001	0.001	0.001	0.001	0.001	0.001	0.001	0.001	0.001	0.001	0.001	0.001	0.001	0.001	0.001	0.001	0.001	0.001	0.001	0.001	0.001	0.001	0.001	0.001	0.001	0.001	0.001	0.001	0.001	0.001	0.001	0.001	0.000997281	0.001	0.001	0.345864	0.246246	0.2035	0.001	0.0124797	0.0023091	0.001	0.001	0.0220895	0.00134579	0.001	0.001	0.0041365	0.00415709	0.00415709	0.473695	0.497497	0.666241	0.001	0.16606	0.001	0.00449694	0.001	0.00589609	0.001	0.001	0.00194562	0.00126447	0.001	0.0085806	0.007795	0.00390616	0.001	0.001	0.00818228	0.00635479	0.00638872	0.176801	
3.5	0.001	0.001	0.001	0.001	0.001	0.001	0.001	0.001	0.001	0.001	0.001	0.001	0.001	0.001	0.001	0.001	0.001	0.001	0.001	0.001	0.001	0.001	0.001	0.001	0.001	0.001	0.001	0.001	0.001	0.001	0.001	0.001	0.001	0.001	0.001	0.001	0.001	0.001	0.001	0.000997281	0.001	0.001	0.418097	0.293661	0.249436	0.001	0.0144675	0.00285064	0.001	0.001	0.0269207	0.00175518	0.001	0.001	0.00432686	0.00435748	0.00435748	0.576782	0.568688	0.731003	0.001	0.21612	0.001	0.00413806	0.001	0.00755029	0.001	0.001	0.00151892	0.001	0.001	0.0147391	0.00931309	0.00400616	0.001	0.001	0.0100651	0.00646804	0.00658557	0.166318	
3.505	0.001	0.001	0.001	0.001	0.001	0.001	0.001	0.001	0.001	0.001	0.001	0.001	0.001	0.001	0.001	0.001	0.001	0.001	0.001	0.001	0.001	0.001	0.001	0.001	0.001	0.001	0.001	0.001	0.001	0.001	0.001	0.001	0.001	0.001	0.001	0.001	0.001	0.001	0.001	0.000997281	0.001	0.001	0.470533	0.325324	0.284716	0.001	0.016203	0.00328555	0.001	0.001	0.0306221	0.00209291	0.001	0.001	0.00451983	0.00452189	0.00455124	0.659189	0.623592	0.773629	0.001	0.256277	0.00437106	0.00381095	0.001	0.00891987	0.001	0.001	0.001	0.001	0.001	0.0202032	0.0108418	0.00478858	0.001	0.001	0.0113998	0.00652963	0.0276324	0.15223	
3.51	0.001	0.001	0.001	0.001	0.001	0.001	0.001	0.001	0.001	0.001	0.001	0.001	0.001	0.001	0.001	0.001	0.001	0.001	0.001	0.001	0.001	0.001	0.001	0.001	0.001	0.001	0.001	0.001	0.001	0.001	0.001	0.001	0.001	0.001	0.001	0.001	0.001	0.001	0.001	0.000997281	0.001	0.001	0.484771	0.334437	0.294887	0.001	0.0171508	0.0034192	0.001	0.001	0.0333841	0.002384	0.00521081	0.001	0.00469874	0.00469717	0.00472905	0.714844	0.653351	0.788344	0.001	0.283108	0.00287142	0.00353274	0.001	0.0100136	0.001	0.001	0.001	0.001	0.001	0.0247087	0.0118641	0.00476853	0.001	0.001	0.0122533	0.00654953	0.0237451	0.14019	
3.515	0.001	0.001	0.001	0.001	0.001	0.001	0.001	0.001	0.001	0.001	0.001	0.001	0.001	0.001	0.001	0.001	0.001	0.001	0.001	0.001	0.001	0.001	0.001	0.001	0.001	0.001	0.001	0.001	0.001	0.001	0.001	0.001	0.001	0.001	0.001	0.001	0.001	0.001	0.001	0.000997281	0.001	0.001	0.473523	0.327551	0.287992	0.001	0.0173448	0.0033063	0.001	0.001	0.035448	0.00263175	0.00957868	0.001	0.00484596	0.00484552	0.00487801	0.74764	0.657774	0.77663	0.001	0.290173	0.001	0.00330583	0.001	0.0108691	0.001	0.001	0.00267041	0.001	0.001	0.0279193	0.0123057	0.00571462	0.001	0.001	0.0127384	0.00652963	0.00690686	0.129881	
3.52	0.001	0.001	0.001	0.001	0.001	0.001	0.001	0.001	0.001	0.001	0.001	0.001	0.001	0.001	0.001	0.001	0.001	0.001	0.001	0.001	0.001	0.001	0.001	0.001	0.001	0.001	0.001	0.001	0.001	0.001	0.001	0.001	0.001	0.001	0.001	0.001	0.001	0.001	0.001	0.000997281	0.001	0.001	0.462575	0.312631	0.271529	0.001	0.0170137	0.00306335	0.001	0.001	0.0370396	0.00283442	0.0131768	0.001	0.00495577	0.00495492	0.00498669	0.76349	0.647953	0.750754	0.001	0.286479	0.001	0.001	0.001	0.0115288	0.001	0.001	0.001	0.001	0.001	0.0293149	0.0123123	0.00567361	0.001	0.001	0.0129643	0.00646726	0.00695343	0.120006	
3.525	0.001	0.001	0.001	0.001	0.001	0.001	0.001	0.001	0.001	0.001	0.001	0.001	0.001	0.001	0.001	0.001	0.001	0.001	0.001	0.001	0.001	0.001	0.001	0.001	0.001	0.001	0.001	0.001	0.001	0.001	0.001	0.001	0.001	0.001	0.001	0.001	0.001	0.001	0.001	0.000997281	0.001	0.001	0.445766	0.294357	0.233695	0.001	0.0164095	0.00277968	0.001	0.001	0.0383092	0.00298937	0.0162434	0.001	0.00500332	0.00495317	0.00503271	0.783895	0.638704	0.727352	0.001	0.29128	0.001	0.001	0.001	0.0120161	0.001	0.001	0.001	0.001	0.001	0.0295987	0.0120704	0.00667198	0.001	0.001	0.0130091	0.00635703	0.0232169	0.109448	
3.53	0.001	0.001	0.001	0.001	0.001	0.001	0.001	0.001	0.001	0.001	0.001	0.001	0.001	0.001	0.001	0.001	0.001	0.001	0.001	0.001	0.001	0.001	0.001	0.001	0.001	0.001	0.001	0.001	0.001	0.001	0.001	0.001	0.001	0.001	0.001	0.001	0.001	0.001	0.001	0.000997281	0.001	0.001	0.425727	0.273095	0.225133	0.001	0.0154187	0.00255028	0.001	0.001	0.0393728	0.00310468	0.0190419	0.001	0.00497081	0.00495864	0.0049974	0.744927	0.586226	0.667522	0.001	0.250294	0.001	0.001	0.001	0.0123579	0.001	0.001	0.001	0.001	0.001	0.0283961	0.0115172	0.00675898	0.001	0.001	0.0129458	0.0061906	0.0195277	0.0973543	
3.535	0.001	0.001	0.001	0.001	0.001	0.001	0.001	0.001	0.001	0.001	0.001	0.001	0.001	0.001	0.001	0.001	0.001	0.001	0.001	0.001	0.001	0.001	0.001	0.001	0.001	0.001	0.001	0.001	0.001	0.001	0.001	0.001	0.001	0.001	0.001	0.001	0.001	0.001	0.001	0.000997281	0.001	0.001	0.396695	0.249292	0.212119	0.001	0.0142143	0.00241482	0.001	0.001	0.0403334	0.00318185	0.0215782	0.001	0.00485006	0.00484873	0.00487323	0.691268	0.521629	0.598401	0.001	0.20312	0.001	0.001	0.001	0.0125714	0.001	0.001	0.00216259	0.001	0.001	0.0263697	0.0107989	0.00769207	0.001	0.001	0.0128223	0.00595737	0.00678878	0.0840529	
3.54	0.001	0.001	0.001	0.001	0.001	0.001	0.001	0.001	0.001	0.001	0.001	0.001	0.001	0.001	0.001	0.001	0.001	0.001	0.001	0.001	0.001	0.001	0.001	0.001	0.001	0.001	0.001	0.001	0.001	0.001	0.001	0.001	0.001	0.001	0.001	0.001	0.001	0.001	0.001	0.000997281	0.001	0.001	0.361278	0.223767	0.191435	0.001	0.0129178	0.00241501	0.001	0.001	0.0412387	0.00322673	0.0237908	0.001	0.0046376	0.00463638	0.0046572	0.635881	0.453869	0.522917	0.001	0.161745	0.001	0.001	0.001	0.012681	0.001	0.001	0.001	0.001	0.001	0.0240358	0.0100647	0.00757179	0.001	0.001	0.0126695	0.0056482	0.00647944	0.0699942	
3.545	0.001	0.001	0.001	0.001	0.001	0.001	0.001	0.001	0.001	0.001	0.001	0.001	0.001	0.001	0.001	0.001	0.001	0.001	0.001	0.001	0.001	0.001	0.001	0.001	0.001	0.001	0.001	0.001	0.001	0.001	0.001	0.001	0.001	0.001	0.001	0.001	0.001	0.001	0.001	0.000997281	0.001	0.001	0.321895	0.197205	0.168344	0.001	0.0116499	0.00261311	0.001	0.001	0.0421965	0.00323526	0.0256544	0.001	0.00435518	0.00433802	0.00435524	0.580473	0.384964	0.436563	0.001	0.125257	0.001	0.001	0.001	0.012686	0.001	0.001	0.001	0.0011476	0.001	0.0220592	0.0094584	0.00871959	0.001	0.001	0.0125031	0.00526523	0.0173736	0.0553587	
3.55	0.001	0.001	0.001	0.001	0.001	0.001	0.001	0.001	0.001	0.001	0.001	0.001	0.001	0.001	0.001	0.001	0.001	0.001	0.001	0.001	0.001	0.001	0.001	0.001	0.001	0.001	0.001	0.001	0.001	0.001	0.001	0.001	0.001	0.001	0.001	0.001	0.001	0.001	0.001	0.000997281	0.001	0.001	0.2799	0.171186	0.143515	0.001	0.010544	0.00303429	0.001	0.001	0.0431956	0.00321596	0.0271555	0.001	0.00397025	0.00396928	0.00398302	0.523484	0.318793	0.343448	0.001	0.0923379	0.001	0.001	0.001	0.0126115	0.001	0.001	0.001	0.00140335	0.001	0.0207909	0.00913705	0.00851558	0.001	0.001	0.0123271	0.00481587	0.0129378	0.0402168	
3.555	0.001	0.001	0.001	0.001	0.001	0.001	0.001	0.001	0.001	0.001	0.001	0.001	0.001	0.001	0.001	0.001	0.001	0.001	0.001	0.001	0.001	0.001	0.001	0.001	0.001	0.001	0.001	0.001	0.001	0.001	0.001	0.001	0.001	0.001	0.001	0.001	0.001	0.001	0.001	0.000997281	0.001	0.001	0.23576	0.146321	0.114971	0.001	0.00973371	0.00371402	0.001	0.001	0.0442814	0.00316905	0.0282318	0.001	0.0035663	0.00355559	0.0035663	0.470623	0.258264	0.253691	0.001	0.001	0.001	0.001	0.001	0.0124631	0.001	0.001	0.001	0.00142114	0.001	0.0210241	0.00922412	0.00954893	0.001	0.001	0.0121436	0.0043225	0.00505506	0.0244889	
3.56	0.001	0.001	0.001	0.001	0.001	0.001	0.001	0.001	0.001	0.001	0.001	0.001	0.001	0.001	0.001	0.001	0.001	0.001	0.001	0.001	0.001	0.001	0.001	0.001	0.001	0.001	0.001	0.001	0.001	0.001	0.001	0.001	0.001	0.001	0.001	0.001	0.001	0.001	0.001	0.000997281	0.001	0.001	0.189779	0.122844	0.0809006	0.001	0.00930785	0.00463956	0.001	0.001	0.0454615	0.00309953	0.0287563	0.001	0.00312966	0.00312096	0.00312966	0.430182	0.205555	0.169758	0.001	0.001	0.001	0.001	0.001	0.0122698	0.001	0.001	0.001	0.00121678	0.001	0.0230081	0.00978459	0.00980786	0.001	0.001	0.0119578	0.00380487	0.0044469	0.00774667	
3.565	0.001	0.001	0.001	0.001	0.001	0.001	0.001	0.001	0.001	0.001	0.001	0.001	0.001	0.001	0.001	0.001	0.001	0.001	0.001	0.001	0.001	0.001	0.001	0.001	0.001	0.001	0.001	0.001	0.001	0.001	0.001	0.001	0.001	0.001	0.001	0.001	0.001	0.001	0.001	0.000997281	0.001	0.001	0.144267	0.101054	0.0372691	0.001	0.00932037	0.00576782	0.001	0.001	0.0467659	0.00302437	0.0288437	0.001	0.00269045	0.0026849	0.00269045	0.409053	0.16353	0.0848615	0.001	0.001	0.001	0.00634723	0.001	0.012052	0.001	0.001	0.001	0.001	0.001	0.027019	0.01083	0.00990073	0.001	0.001	0.0117761	0.00327681	0.001	0.001	
3.57	0.001	0.001	0.001	0.001	0.001	0.001	0.001	0.001	0.001	0.001	0.001	0.001	0.001	0.001	0.001	0.001	0.001	0.001	0.001	0.001	0.001	0.001	0.001	0.001	0.001	0.001	0.001	0.001	0.001	0.001	0.001	0.001	0.001	0.001	0.001	0.001	0.001	0.001	0.001	0.000997281	0.001	0.001	0.106137	0.0819773	0.001	0.001	0.00974064	0.00705431	0.001	0.001	0.0468078	0.00284193	0.0278097	0.001	0.00227397	0.00226975	0.00227397	0.403543	0.107632	0.001	0.001	0.001	0.001	0.0136385	0.001	0.0113632	0.001	0.001	0.001	0.001	0.001	0.0329164	0.0123036	0.00962431	0.001	0.001	0.011154	0.00276569	0.00318072	0.001	
3.575	0.001	0.001	0.001	0.001	0.001	0.001	0.001	0.001	0.001	0.001	0.001	0.001	0.001	0.001	0.001	0.001	0.001	0.001	0.001	0.001	0.001	0.001	0.001	0.001	0.001	0.001	0.001	0.001	0.001	0.001	0.001	0.001	0.001	0.001	0.001	0.001	0.001	0.001	0.001	0.000997281	0.001	0.001	0.0886785	0.0758491	0.001	0.001	0.0107994	0.00829634	0.001	0.001	0.0490778	0.00285279	0.0275406	0.001	0.00189121	0.00188752	0.00189006	0.430244	0.001	0.001	0.001	0.001	0.001	0.0204108	0.001	0.0115159	0.001	0.001	0.001	0.001	0.183129	0.0413208	0.0143296	0.050813	0.001	0.001	0.0113929	0.00234192	0.001	0.001	
3.58	0.001	0.001	0.001	0.001	0.001	0.001	0.001	0.001	0.001	0.001	0.001	0.001	0.001	0.001	0.001	0.001	0.001	0.001	0.001	0.001	0.001	0.001	0.001	0.001	0.001	0.001	0.001	0.001	0.001	0.001	0.001	0.001	0.001	0.001	0.001	0.001	0.001	0.001	0.001	0.000997281	0.001	0.001	0.0610478	0.0707769	0.001	0.001	0.0120918	0.00947744	0.001	0.001	0.0489484	0.00267429	0.0259234	0.001	0.00155006	0.00154595	0.00154905	0.50983	0.001	0.001	0.001	0.001	0.001	0.025605	0.001	0.010815	0.001	0.001	0.001	0.001	0.298176	0.0508897	0.0164968	0.493587	0.001	0.001	0.0108419	0.00194142	0.0020453	0.001	
3.585	0.001	0.001	0.001	0.001	0.001	0.001	0.001	0.001	0.001	0.001	0.001	0.001	0.001	0.001	0.001	0.001	0.001	0.001	0.001	0.001	0.001	0.001	0.001	0.001	0.001	0.001	0.001	0.001	0.001	0.001	0.001	0.001	0.001	0.001	0.001	0.001	0.001	0.001	0.001	0.000997281	0.001	0.001	0.0013319	0.0580923	0.001	0.001	0.0133941	0.0106864	0.001	0.001	0.0515479	0.00271259	0.025332	0.001	0.00125507	0.00124991	0.00125423	0.63541	0.00659638	0.001	0.001	0.001	0.001	0.0289749	0.001	0.0109088	0.001	0.001	0.001	0.001	0.368368	0.0605619	0.0185871	0.00869267	0.001	0.001	0.0113156	0.00156008	0.001	0.001	
3.59	0.001	0.001	0.001	0.001	0.001	0.001	0.001	0.001	0.001	0.001	0.001	0.001	0.001	0.001	0.001	0.001	0.001	0.001	0.001	0.001	0.001	0.001	0.001	0.001	0.001	0.001	0.001	0.001	0.001	0.001	0.001	0.001	0.001	0.001	0.001	0.001	0.001	0.001	0.001	0.000997281	0.001	0.001	0.001	0.0334409	0.001	0.001	0.0145003	0.0118417	0.001	0.001	0.0513383	0.00255219	0.02392	0.001	0.00100749	0.00100164	0.00100748	0.792584	0.00421115	0.001	0.001	0.001	0.001	0.0297414	0.001	0.0102795	0.001	0.001	0.001	0.001	0.414493	0.0693063	0.020359	0.0116553	0.001	0.001	0.0110175	0.00124219	0.0011502	0.001	
3.595	0.001	0.001	0.001	0.001	0.001	0.001	0.001	0.001	0.001	0.001	0.001	0.001	0.001	0.001	0.001	0.001	0.001	0.001	0.001	0.001	0.001	0.001	0.001	0.001	0.001	0.001	0.001	0.001	0.001	0.001	0.001	0.001	0.001	0.001	0.001	0.001	0.001	0.001	0.001	0.000997281	0.001	0.001	0.001	0.001	0.001	0.001	0.015114	0.0128864	0.001	0.001	0.0479476	0.00222596	0.0221061	0.001	0.001	0.001	0.001	0.970869	0.001	0.001	0.001	0.001	0.001	0.0277176	0.001	0.00896087	0.001	0.001	0.001	0.001	0.451928	0.0754531	0.0215078	0.00753492	0.001	0.001	0.00999982	0.001	0.00296095	0.001	
3.6	0.001	0.001	0.001	0.001	0.001	0.001	0.001	0.001	0.001	0.001	0.001	0.001	0.001	0.001	0.001	0.001	0.001	0.001	0.001	0.001	0.001	0.001	0.001	0.001	0.001	0.001	0.001	0.001	0.001	0.001	0.001	0.001	0.001	0.001	0.001	0.001	0.001	0.001	0.001	0.000997281	0.001	0.001	0.001	0.001	0.001	0.001	0.0152961	0.0137211	0.001	0.001	0.0419364	0.00177976	0.0201234	0.001	0.001	0.001	0.001	0.999	0.001	0.001	0.001	0.001	0.001	0.0194239	0.001	0.00717921	0.001	0.001	0.001	0.001	0.484624	0.0799279	0.022171	0.0158224	0.001	0.001	0.00846806	0.001	0.0044587	0.001	
3.605	0.001	0.001	0.001	0.001	0.001	0.001	0.001	0.001	0.001	0.001	0.001	0.001	0.001	0.001	0.001	0.001	0.001	0.001	0.001	0.001	0.001	0.001	0.001	0.001	0.001	0.001	0.001	0.001	0.001	0.001	0.001	0.001	0.001	0.001	0.001	0.001	0.001	0.001	0.001	0.000997281	0.001	0.001	0.001	0.001	0.001	0.001	0.0154135	0.0144367	0.001	0.001	0.0356131	0.00140334	0.0185326	0.001	0.001	0.001	0.001	0.999	0.00231487	0.001	0.001	0.001	0.001	0.00454338	0.001	0.00570516	0.001	0.001	0.001	0.001	0.509623	0.0837455	0.0225759	0.00823324	0.001	0.001	0.00716726	0.001	0.001	0.001	
3.61	0.001	0.001	0.001	0.001	0.001	0.001	0.001	0.001	0.001	0.001	0.001	0.001	0.001	0.001	0.001	0.001	0.001	0.001	0.001	0.001	0.001	0.001	0.001	0.001	0.001	0.001	0.001	0.001	0.001	0.001	0.001	0.001	0.001	0.001	0.001	0.001	0.001	0.001	0.001	0.000997281	0.001	0.001	0.001	0.001	0.001	0.001	0.0152232	0.0150525	0.001	0.001	0.0296914	0.00110069	0.0171409	0.001	0.001	0.001	0.001	0.999	0.001	0.001	0.001	0.001	0.001	0.001	0.001	0.00454685	0.001	0.001	0.001	0.001	0.530475	0.0858077	0.0225691	0.00571394	0.001	0.001	0.00610923	0.001	0.001	0.001	
3.615	0.001	0.001	0.001	0.001	0.001	0.001	0.001	0.001	0.001	0.001	0.001	0.001	0.001	0.001	0.001	0.001	0.001	0.001	0.001	0.001	0.001	0.001	0.001	0.001	0.001	0.001	0.001	0.001	0.001	0.001	0.001	0.001	0.001	0.001	0.001	0.001	0.001	0.001	0.001	0.000997281	0.001	0.001	0.001	0.001	0.001	0.001	0.0150736	0.0155391	0.001	0.001	0.0241966	0.001	0.0160023	0.001	0.001	0.001	0.001	0.999	0.001	0.001	0.001	0.001	0.001	0.001	0.001	0.00358631	0.001	0.001	0.001	0.001	0.544614	0.0877107	0.0224437	0.00461582	0.001	0.001	0.00519195	0.001	0.001	0.001	
3.62	0.001	0.001	0.001	0.001	0.001	0.001	0.001	0.001	0.001	0.001	0.001	0.001	0.001	0.001	0.001	0.001	0.001	0.001	0.001	0.001	0.001	0.001	0.001	0.001	0.001	0.001	0.001	0.001	0.001	0.001	0.001	0.001	0.001	0.001	0.001	0.001	0.001	0.001	0.001	0.000997281	0.001	0.001	0.001	0.001	0.001	0.001	0.0150084	0.0157974	0.001	0.001	0.0191742	0.001	0.0151012	0.001	0.001	0.001	0.001	0.999	0.001	0.001	0.001	0.001	0.001	0.001	0.001	0.00279891	0.001	0.001	0.001	0.001	0.554753	0.0899504	0.0222203	0.00392923	0.001	0.001	0.00436216	0.001	0.00166624	0.001	
3.625	0.001	0.001	0.001	0.001	0.001	0.001	0.001	0.001	0.001	0.001	0.001	0.001	0.001	0.001	0.001	0.001	0.001	0.001	0.001	0.001	0.001	0.001	0.001	0.001	0.001	0.001	0.001	0.001	0.001	0.001	0.001	0.001	0.001	0.001	0.001	0.001	0.001	0.001	0.001	0.000997281	0.001	0.001	0.001	0.001	0.001	0.001	0.0104121	0.0150604	0.001	0.001	0.00814695	0.001	0.0123175	0.001	0.001	0.001	0.001	0.999	0.001	0.001	0.001	0.001	0.001	0.001	0.001	0.00115396	0.001	0.001	0.001	0.001	0.577149	0.0730534	0.0168042	0.00331161	0.001	0.001	0.00191658	0.001	0.010805	0.001	
3.63	0.001	0.001	0.001	0.001	0.001	0.001	0.001	0.001	0.001	0.001	0.001	0.001	0.001	0.001	0.001	0.001	0.001	0.001	0.001	0.001	0.001	0.001	0.001	0.001	0.001	0.001	0.001	0.001	0.001	0.001	0.001	0.001	0.001	0.001	0.001	0.001	0.001	0.001	0.001	0.000997281	0.001	0.001	0.001	0.001	0.001	0.001	0.0116106	0.0156117	0.001	0.001	0.00796162	0.001	0.0128895	0.001	0.001	0.001	0.001	0.999	0.001	0.001	0.001	0.001	0.001	0.001	0.001	0.00115285	0.001	0.001	0.001	0.001	0.575152	0.0802341	0.0177361	0.00274382	0.001	0.001	0.00205531	0.001	0.001	0.001	
