CEINMS output
datacolumns 6
datarows 92
endheader
time	hip_flexion_l	hip_adduction_l	hip_rotation_l	knee_angle_l	ankle_angle_l	
3.19	49.9688	-113.986	30.6585	-190.845	4.89465	
3.195	81.6531	-165.061	38.3277	-257.354	11.5728	
3.2	56.3618	-144.101	14.8952	-272.103	8.69274	
3.205	40.8131	-123.089	-2.14364	-277.888	6.5637	
3.21	74.6398	-124.814	-13.6503	-287.044	7.78758	
3.215	131.112	-132.128	-7.7617	-295.717	10.6661	
3.22	186.426	-142.159	-8.1411	-299.334	13.9666	
3.225	224.348	-144.985	-13.1801	-298.695	17.0607	
3.23	246.934	-143.901	-18.1968	-301.756	19.9679	
3.235	257.089	-138.952	-21.3967	-310.384	22.8505	
3.24	262.08	-128.676	-25.1593	-319.121	25.7599	
3.245	261.94	-116.988	-30.4573	-317.665	28.698	
3.25	256.973	-108.522	-32.7735	-303.703	31.6801	
3.255	248.444	-101.477	-33.6931	-281.851	34.7311	
3.26	237.757	-93.4812	-33.7183	-256.234	37.8255	
3.265	223.191	-80.8671	-33.1201	-227.409	40.8166	
3.27	203.174	-63.1947	-32.2526	-196.472	43.6337	
3.275	175.027	-45.0917	-31.691	-163.998	46.2203	
3.28	143.487	-24.2202	-30.0955	-129.909	48.5128	
3.285	110.044	-7.11326	-28.1896	-102.286	50.4278	
3.29	76.6733	2.02893	-25.8911	-73.6551	51.8993	
3.295	40.6009	10.5383	-23.1951	-40.778	52.8688	
3.3	0.881733	20.5134	-20.0379	-23.9805	53.3028	
3.305	-29.6725	21.6647	-16.0326	-24.6053	53.2424	
3.31	-31.638	14.7638	-12.323	-31.9755	52.8011	
3.315	-19.0626	12.3816	-9.57368	-32.4557	52.1386	
3.32	-5.6798	12.212	-7.56727	-33.0334	51.4416	
3.325	3.9539	9.36202	-5.64787	-33.7446	50.8805	
3.33	3.39643	2.7664	-1.80219	-34.0086	50.592	
3.335	1.24339	-4.9301	-0.328298	-33.4596	50.6641	
3.34	-0.473353	-11.2468	0.627195	-28.9839	51.1578	
3.345	-3.18813	-15.3475	1.19253	-21.6652	51.9199	
3.35	-7.85097	-16.4543	1.10251	-12.0821	52.0612	
3.355	-15.7069	-14.8163	0.518007	2.65177	51.4379	
3.36	-27.6149	-10.092	-0.144355	26.1774	50.3298	
3.365	-45.2291	-2.07009	-0.860969	57.9024	49.0052	
3.37	-68.9514	8.44896	-1.64277	95.9854	47.6591	
3.375	-97.5231	19.8356	-1.98692	138.206	46.349	
3.38	-128.795	30.5011	-1.12432	182.789	45.0383	
3.385	-160.75	39.3391	1.52962	231.8	43.6678	
3.39	-192.031	45.5935	5.95154	280.539	42.1753	
3.395	-227.258	50.3039	9.51815	314.943	40.4942	
3.4	-266.414	53.6155	10.809	340.888	38.5493	
3.405	-297.045	51.568	11.731	347.157	36.276	
3.41	-311.666	52.564	11.9724	340.756	33.644	
3.415	-322.931	59.6753	11.0964	331.333	30.679	
3.42	-336.29	64.355	16.5656	321.988	27.4339	
3.425	-348.679	67.2553	23.7075	311.77	23.9736	
3.43	-356.719	69.3028	28.5375	303.78	20.3606	
3.435	-360.214	70.2003	31.3866	296.15	16.6483	
3.44	-359.624	70.5649	32.2103	286.879	12.8647	
3.445	-355.632	70.5534	31.4473	271.926	9.01219	
3.45	-348.822	70.616	29.0646	248.999	5.0567	
3.455	-339.605	70.7923	25.5602	220.447	0.90039	
3.46	-328.549	71.2595	21.2705	188.008	-3.22111	
3.465	-316.019	72.1484	16.884	167.338	-5.67527	
3.47	-303.282	73.1554	11.8081	159.076	-6.90647	
3.475	-290.182	74.0976	6.72992	149.811	-8.88376	
3.48	-275.213	66.5596	8.04087	121.179	-13.5842	
3.485	-266.639	55.3533	8.73292	101.847	-22.25	
3.49	-256.961	44.7746	8.41226	84.9571	-36.3235	
3.495	-247.425	33.6042	9.54809	67.8144	-52.0585	
3.5	-240.158	18.695	16.4789	51.5088	-65.6872	
3.505	-236.006	5.26544	24.26	39.0352	-78.1675	
3.51	-228.138	-8.24356	30.6794	29.5969	-90.5341	
3.515	-214.811	-22.3285	32.5548	21.2164	-102.806	
3.52	-199.029	-31.4953	29.5282	10.9261	-114.518	
3.525	-183.561	-33.5166	22.3192	-1.59498	-125.104	
3.53	-167.815	-28.8585	13.4301	-15.4808	-134.209	
3.535	-151.953	-23.0509	5.60484	-28.7195	-141.481	
3.54	-139.742	-22.667	-1.70302	-40.2046	-146.745	
3.545	-127.631	-24.1799	-8.24113	-49.0138	-149.823	
3.55	-113.749	-26.6726	-13.9655	-55.0933	-150.671	
3.555	-90.9414	-21.5103	-13.4973	-58.2271	-149.342	
3.56	-60.2589	-17.1042	-10.7735	-58.6439	-146.034	
3.565	-28.3978	-10.7904	-10.5032	-56.3719	-141.098	
3.57	-1.57971	-4.75517	-9.55519	-51.8095	-134.929	
3.575	21.0599	-1.27121	-8.04543	-45.5878	-127.416	
3.58	41.6385	-1.64171	-7.68143	-42.0762	-117.383	
3.585	57.5318	-5.13593	-8.17268	-38.8782	-103.741	
3.59	69.298	-8.0599	-7.95572	-40.4472	-86.3678	
3.595	78.5242	-9.19583	-7.15328	-46.6641	-66.0397	
3.6	85.7122	-8.10007	-6.40699	-55.5949	-44.4759	
3.605	92.045	-5.09902	-5.88022	-66.4415	-24.9699	
3.61	98.4642	-0.530129	-5.4524	-78.6088	-14.4737	
3.615	105.098	5.4229	-5.11247	-91.9923	-8.9051	
3.62	111.418	12.8296	-4.99297	-106.564	-3.2446	
3.625	116.627	21.7268	-5.3798	-121.558	2.19809	
3.63	120.357	32.4212	-6.45211	-135.352	6.26789	
3.635	122.924	45.6193	-8.22212	-147.068	8.50847	
3.64	137.03	58.3312	-7.13369	-158.433	9.87266	
3.645	147.27	74.1125	-7.40043	-167.906	9.28528	
