CEINMS output
datacolumns 11
datarows 217
endheader
time	hip_flexion_r	hip_adduction_r	hip_rotation_r	knee_angle_r	ankle_angle_r	hip_flexion_l	hip_adduction_l	hip_rotation_l	knee_angle_l	ankle_angle_l	
0.175	8.48229	-15.5052	2.20929	1.32328	-7.00714	-5.34866	0.654209	-3.70201	5.1336	1.29334	
0.18	4.34666	-18.808	1.39889	1.6484	-6.00019	-4.80688	3.24373	-4.29251	5.02763	1.48897	
0.185	-1.25504	-22.8464	0.192663	2.86807	-5.49944	-6.49312	2.64377	-6.26241	5.62057	1.69183	
0.19	-7.31411	-25.6656	-0.464173	3.77572	-5.40434	-6.53792	1.73595	-7.20074	5.83963	1.81868	
0.195	-10.154	-25.1043	0.155649	4.27548	-5.33948	-2.77486	2.00882	-5.58663	5.17312	1.90219	
0.2	-9.42519	-21.0798	1.66285	5.09068	-5.27238	1.86142	2.82686	-3.11329	4.1981	1.9812	
0.205	-8.06189	-17.0833	3.02087	5.95543	-5.20784	4.78425	3.40905	-1.522	3.51082	2.06715	
0.21	-7.40482	-14.7621	3.95515	6.60541	-5.1485	6.06461	3.67034	-0.893248	3.13944	2.15839	
0.215	-10.0612	-15.9861	3.92077	7.03997	-5.0967	6.62047	3.84853	-0.688298	2.95274	2.25136	
0.22	-15.2472	-19.7959	3.28914	7.32663	-5.05363	7.00449	4.0561	-0.587485	2.83793	2.34507	
0.225	-21.1565	-24.9684	2.51171	7.29528	-5.02038	7.61041	4.71572	-0.544776	2.75106	2.43941	
0.23	-25.8434	-30.3909	1.95797	6.72605	-4.99812	8.72595	6.25373	-0.515138	2.68841	2.53402	
0.235	-28.036	-36.0482	1.85482	5.41538	-4.9875	10.255	8.54617	-0.490566	2.64804	2.6281	
0.24	-28.0005	-42.0332	2.38901	3.52732	-4.98857	11.9333	11.2167	-0.47588	2.61441	2.72058	
0.245	-24.6995	-46.3288	3.85886	1.53934	-5.00093	13.4965	13.8188	-0.471557	2.57956	2.81057	
0.25	-19.63	-49.3275	5.68188	-0.374769	-5.02397	14.7722	16.0301	-0.47411	2.54237	2.90395	
0.255	-15.3857	-51.5726	7.22807	-1.81309	-5.05682	15.6677	17.6649	-0.480353	-1.52743	3.01249	
0.26	-12.5422	-53.4656	8.40068	-2.76896	-5.0985	16.1333	18.6148	-0.487603	-10.3523	3.14012	
0.265	-11.0646	-55.2153	9.28188	-3.32038	-5.14796	16.1437	18.826	-0.494206	-15.3505	3.28271	
0.27	-10.4184	-56.7864	9.97085	-3.62082	-5.20415	15.5393	18.4323	-0.532403	-13.8713	3.43375	
0.275	-10.0552	-58.0012	10.5164	-3.73975	-5.26581	13.8773	17.8898	-0.709319	-10.2596	3.5874	
0.28	-9.5142	-58.8903	11.0586	-3.84657	-5.33085	12.7811	15.6869	-0.756664	-7.8943	3.7391	
0.285	-8.70274	-59.4912	11.6523	-3.93871	-5.39711	10.9805	13.2934	-0.878246	-6.68965	3.88497	
0.29	-7.75418	-59.8721	12.2591	-3.9956	-5.46544	8.75797	10.6883	-1.09528	-5.95483	4.02158	
0.295	-6.76384	-60.0851	12.8315	-4.02495	-5.53443	7.02802	8.0069	-1.19418	-5.3669	4.146	
0.3	-5.73965	-60.1787	13.3099	-4.0381	-5.60225	4.08521	5.11832	-2.46635	-4.87897	4.25589	
0.305	-4.68323	-60.1651	13.6712	-4.03997	-5.66721	1.59939	2.91107	-3.67329	-4.49208	4.34946	
0.31	-3.60969	-60.0633	13.9233	-4.03324	-5.72734	0.138434	1.49779	-4.31696	-4.17001	4.42539	
0.315	-2.50762	-59.9041	14.0947	-4.02494	-5.78199	-0.562119	0.612009	-4.52588	-3.86729	4.4827	
0.32	-1.35784	-59.6731	14.2195	-4.01513	-5.83134	-0.55901	0.221399	-4.33391	-3.85551	4.52083	
0.325	-0.134751	-59.3266	14.3321	-4.00656	-5.87515	0.0179224	0.103415	-3.75947	-5.76905	4.53931	
0.33	1.0945	-58.8191	14.3797	-3.99834	-5.91325	0.886436	0.0972334	-2.97629	-7.60731	4.53798	
0.335	2.20763	-58.1697	14.2917	-3.99393	-5.9511	1.57737	0.00146667	-2.35277	-9.26382	4.51697	
0.34	3.08379	-57.4528	14.0385	-3.9925	-5.99634	1.95807	-0.221467	-1.98868	-10.6564	4.47663	
0.345	3.66869	-56.7404	13.6294	-3.99219	-6.04951	2.12587	-0.525959	-1.80423	-11.7195	4.41765	
0.35	3.99	-56.0694	13.0955	-3.99287	-6.10562	2.18395	-0.869407	-1.71907	-12.4154	4.34112	
0.355	4.11008	-55.4465	12.4675	-3.96069	-6.24277	2.18862	-1.22714	-1.69038	-12.7356	4.24852	
0.36	4.13312	-54.8179	11.777	-3.81035	-6.64613	2.1737	-1.57794	-1.69358	-12.7038	4.14179	
0.365	4.19529	-54.0963	11.0502	-3.56797	-7.25769	2.20046	-1.85093	-1.71076	-12.3149	4.02333	
0.37	4.41006	-53.1916	10.3134	-3.17682	-8.20765	2.27498	-2.04352	-1.73275	-11.6515	3.89647	
0.375	4.85381	-52.0438	9.58873	-2.68035	-9.40222	2.34535	-2.23481	-1.75724	-10.7518	3.76597	
0.38	5.54293	-50.6401	8.89363	-2.14169	-10.6899	2.41303	-2.42522	-1.78113	-9.6768	3.63703	
0.385	6.52708	-49.1401	8.17988	-1.5224	-11.9486	2.47713	-2.61505	-1.80258	-8.48281	3.51705	
0.39	7.54365	-47.5678	7.46583	-0.933958	-14.6638	2.53679	-2.80364	-1.82066	-7.22273	3.43002	
0.395	8.46752	-45.9585	6.74512	-0.415525	-19.8995	2.59222	-2.99079	-1.83405	-5.94335	3.37231	
0.4	9.2131	-44.4262	6.00362	0.0772274	-25.5491	2.64234	-3.17598	-1.84196	-4.68369	3.31224	
0.405	9.84784	-42.9337	5.17866	0.457145	-30.1277	2.67709	-3.34907	-1.8406	-3.47378	3.25117	
0.41	10.4371	-41.4048	4.14697	0.695552	-32.9265	2.61753	-3.32541	-1.85852	-2.33553	3.18959	
0.415	10.8471	-40.4672	2.96959	0.898972	-34.5865	2.41176	-2.98062	-1.91426	-1.28354	3.1287	
0.42	11.4994	-39.5196	2.07554	1.11985	-35.9114	2.0571	-2.89296	-2.06485	-0.325916	3.06918	
0.425	12.2132	-38.3633	1.40497	1.36964	-37.3001	1.39513	-3.12384	-2.44372	0.533907	3.01163	
0.43	12.8931	-36.9582	0.789788	1.67252	-38.7758	0.710958	-3.29753	-2.70982	1.29626	2.95656	
0.435	13.472	-35.031	0.134624	1.99933	-40.2259	-0.0674182	-3.29219	-2.83473	1.94431	2.90438	
0.44	14.0467	-34.0179	-0.212751	2.28233	-41.5832	-0.986892	-3.21051	-2.84258	2.36954	2.85535	
0.445	14.7467	-32.4816	-0.4178	2.50199	-42.8656	-1.72717	-3.41795	-2.82445	2.51461	2.80964	
0.45	15.0814	-31.039	-0.689105	2.74515	-44.1156	-2.16786	-4.68754	-2.74857	2.44034	2.76731	
0.455	15.3443	-29.8561	-0.910188	2.93473	-45.3675	-2.63181	-4.55844	-2.77989	2.42467	2.72832	
0.46	15.5819	-28.7002	-1.0688	3.1667	-46.6257	-2.8915	-4.62522	-2.94806	2.83376	2.69257	
0.465	15.7807	-27.6208	-1.20331	3.40944	-47.8826	-3.2193	-4.09855	-2.88502	3.75366	2.65986	
0.47	15.9725	-26.6655	-1.31937	3.62925	-49.1221	-3.23555	-4.47545	-2.8667	3.86164	2.62996	
0.475	16.178	-25.8031	-1.40052	3.84116	-50.3242	-3.1321	-4.98851	-2.72469	3.51636	2.60258	
0.48	16.4029	-25.0156	-1.43552	4.05072	-51.4702	-3.00469	-5.16522	-2.55639	3.4778	2.56288	
0.485	16.6311	-24.3227	-1.43855	4.25537	-52.5462	-2.78557	-5.29179	-2.40465	3.57236	2.55399	
0.49	16.8595	-23.7316	-1.41392	4.44829	-53.5392	-2.52428	-5.31429	-2.24164	3.55044	2.38911	
0.495	17.0971	-23.2506	-1.36423	4.62663	-54.4456	-2.20922	-5.41616	-2.05712	3.50174	2.51102	
0.5	17.3454	-22.8756	-1.28809	4.78633	-55.272	-1.87491	-5.50418	-1.89192	3.49588	2.48722	
0.505	17.59	-22.6223	-1.19489	4.93004	-56.0271	-1.58127	-5.54284	-1.77286	3.53899	2.47018	
0.51	17.8335	-22.4926	-1.08963	5.06121	-56.7272	-1.30994	-5.63247	-1.75578	3.59457	2.44781	
0.515	18.0536	-22.3629	-0.997103	5.18118	-57.3791	-1.17413	-5.61548	-1.74434	3.66398	2.42745	
0.52	18.3077	-22.3445	-0.876483	5.28982	-57.9818	-1.1922	-5.68309	-1.78255	3.7673	2.40481	
0.525	18.6648	-22.6343	-0.6674	5.38414	-58.5324	-1.38137	-5.87089	-1.8955	3.89393	2.38065	
0.53	19.0018	-22.9406	-0.474159	5.46666	-59.0373	-1.80134	-6.15285	-2.09197	4.02455	2.35426	
0.535	19.1328	-23.4501	-0.410634	5.54133	-59.5128	-2.50813	-6.50378	-2.36422	4.43507	2.32563	
0.54	19.0747	-24.1633	-0.476603	5.61584	-59.9877	-3.54505	-6.90752	-2.69646	5.15012	2.29454	
0.545	18.9063	-24.994	-0.622215	5.69586	-60.4973	-4.89683	-7.4053	-3.08861	5.70321	2.26088	
0.55	18.6812	-25.887	-0.813071	5.78973	-61.0749	-6.51956	-8.03631	-3.54541	6.19098	2.2246	
0.555	18.4205	-26.8164	-1.0396	5.90204	-61.749	-8.41097	-8.81195	-4.07267	6.71373	2.18577	
0.56	18.132	-27.7436	-1.29396	6.03687	-62.5444	-10.6994	-9.4195	-4.58984	7.55073	2.14453	
0.565	17.8383	-28.6283	-1.56332	6.20485	-63.4722	-13.4064	-9.66036	-5.01327	8.83157	2.10115	
0.57	17.5486	-29.4921	-1.84562	6.39367	-64.5294	-15.93	-10.5234	-5.53498	9.50631	2.05594	
0.575	17.2803	-30.3135	-2.13886	6.58551	-65.7055	-18.739	-11.0069	-5.96284	10.5445	2.00933	
0.58	17.0124	-31.0944	-2.4405	6.78662	-66.979	-21.5593	-11.1668	-6.25593	11.8012	1.96178	
0.585	16.6712	-31.9527	-2.93222	7.00446	-68.3247	-24.3238	-11.1144	-6.43672	13.1084	1.91381	
0.59	16.1967	-32.9868	-3.79143	7.22602	-69.7188	-26.964	-10.7479	-6.473	14.4869	1.86593	
0.595	15.8512	-33.6822	-4.34446	7.44651	-71.1376	-29.4072	-10.0619	-6.36683	15.934	1.81871	
0.6	15.5875	-34.1695	-4.7144	7.6618	-72.556	-31.5873	-9.02556	-6.1127	17.4249	1.77266	
0.605	15.3539	-34.5259	-5.00383	7.86821	-73.95	-33.4719	-7.65519	-5.72314	18.9234	1.72828	
0.61	15.1395	-34.7694	-5.24577	8.06451	-75.292	-35.0237	-5.96715	-5.21126	20.4451	1.68602	
0.615	14.9096	-34.8845	-5.44841	8.28442	-76.5522	-36.2469	-3.97793	-4.58747	21.9404	1.64628	
0.62	14.7182	-34.9139	-5.62409	8.45372	-77.7017	-37.1636	-1.81826	-3.90118	23.3543	1.60838	
0.625	14.4437	-36.0948	-5.6748	8.56816	-78.7101	-37.7945	0.382249	-3.20149	24.6648	1.54843	
0.63	14.1453	-37.5239	-5.6581	8.66041	-79.546	-38.1701	2.51847	-2.52583	25.8781	1.50813	
0.635	13.9397	-37.9853	-5.67536	8.74078	-80.1771	-38.3289	4.44995	-1.90912	26.8948	1.4837	
0.64	13.7809	-37.8507	-5.73133	8.7968	-80.5679	-38.309	6.07008	-1.38445	27.7111	1.46491	
0.645	13.6534	-37.3494	-5.81426	8.82493	-80.6785	-38.1374	7.26308	-0.985254	28.2922	1.4487	
0.65	13.9699	-36.0158	-5.90288	8.81471	-80.4606	-37.8146	7.89696	-0.742437	28.6186	1.43591	
0.655	14.6269	-34.06	-6.02961	8.75584	-79.8663	-37.3423	7.87976	-0.689695	28.6912	1.42733	
0.66	15.7397	-31.3165	-6.2596	8.64062	-78.8423	-36.7222	7.23067	-0.809468	28.4746	1.42299	
0.665	16.3642	-29.3397	-6.42988	8.46174	-77.3294	-35.9564	5.98814	-1.06784	27.9249	1.42264	
0.67	16.9614	-27.328	-6.57579	8.21084	-75.2766	-35.0177	4.18172	-1.45787	27.0257	1.42607	
0.675	17.4088	-25.617	-6.67184	7.88453	-72.6367	-33.8855	1.94444	-1.91009	25.8107	1.43313	
0.68	17.866	-23.8307	-6.71712	7.47501	-69.3776	-32.5195	-0.652746	-2.40073	24.3114	1.44359	
0.685	18.3129	-22.0829	-6.72103	6.9783	-65.4899	-30.8984	-3.48626	-2.91543	22.5963	1.45624	
0.69	18.7496	-20.4003	-6.70234	6.39483	-60.9809	-29.0169	-6.32717	-3.3795	20.6829	1.47113	
0.695	19.1631	-18.7973	-6.68531	5.72955	-55.8996	-26.8712	-9.04485	-3.7639	18.6438	1.4899	
0.7	19.5456	-17.2868	-6.67432	4.98188	-50.3305	-24.4684	-11.5084	-4.04976	16.567	1.51251	
0.705	19.8688	-15.919	-6.6661	4.15466	-44.3937	-21.8345	-13.596	-4.22446	14.5317	1.53888	
0.71	20.1012	-14.7142	-6.65593	3.27938	-38.2276	-19.0613	-15.2192	-4.28015	12.5955	1.56885	
0.715	20.2513	-13.6627	-6.63454	2.3692	-31.9885	-16.2343	-16.3675	-4.23678	10.7817	1.60216	
0.72	20.3319	-12.7139	-6.59975	1.45092	-25.874	-13.257	-16.6737	-3.99589	9.21665	1.63848	
0.725	20.3709	-11.7987	-6.54701	0.561236	-20.1365	-10.4601	-16.3143	-3.63048	7.94093	1.67737	
0.73	20.3943	-10.8651	-6.46962	-0.189562	-15.1943	-7.93307	-15.2998	-3.16116	6.94791	1.71826	
0.735	20.4055	-9.87446	-6.36553	-0.854018	-10.9817	-5.71872	-13.651	-2.60584	6.18388	1.76048	
0.74	20.4397	-8.70876	-6.23124	-1.40983	-7.57758	-3.69909	-11.7409	-2.05953	5.39241	1.80325	
0.745	20.4897	-7.3702	-6.06233	-1.69511	-5.71335	-1.93054	-9.71434	-1.55074	4.44971	1.84573	
0.75	20.419	-6.33307	-5.85531	-1.72315	-5.51702	-0.547804	-7.54464	-1.06407	3.46379	1.88699	
0.755	20.4056	-5.08063	-5.62949	-1.75738	-5.32138	0.532472	-5.46644	-0.660772	2.60315	1.92612	
0.76	20.4331	-3.71049	-5.39661	-1.79783	-5.09791	1.15396	-3.94709	-0.389658	2.02247	1.96221	
0.765	20.4653	-2.49102	-5.20534	-1.84686	-4.82864	1.43095	-3.03523	-0.217026	1.68447	1.99442	
0.77	20.5439	-1.25292	-5.02751	-3.9369	-4.60231	1.49133	-2.58641	-0.105577	1.49534	2.02203	
0.775	20.6764	-0.00525538	-4.8569	-15.8723	-4.40517	1.45288	-2.40644	-0.0216905	1.38219	2.04448	
0.78	20.7749	1.19043	-4.74117	-26.93	-4.22518	1.38715	-2.37219	0.0527475	1.32627	2.06141	
0.785	20.5301	2.76549	-4.68731	-28.4019	-4.06217	1.30271	-2.46815	0.109907	1.31973	2.07266	
0.79	20.2457	3.99184	-4.60023	-26.9579	-3.90555	1.24909	-3.03744	0.0491639	1.18399	2.07833	
0.795	20.2055	4.34756	-4.37861	-22.4419	-3.29737	0.928946	-3.37119	0.0459731	1.51627	2.07873	
0.8	19.7824	4.66708	-4.20861	-18.2815	-2.68252	1.4936	-4.6108	0.0991465	-0.0449311	2.07441	
0.805	19.1313	4.78771	-4.04182	-15.5958	-2.50245	-0.499805	-4.7443	0.141542	2.02627	2.06608	
0.81	16.503	6.31731	-4.40142	-14.0735	-2.49135	-1.18172	-5.43053	0.216883	2.10717	2.0546	
0.815	13.627	7.7273	-4.95521	-14.2922	-2.50221	-2.17354	-6.29083	0.285705	2.17629	2.04094	
0.82	10.9436	8.39607	-5.42992	-14.4577	-2.51582	-3.05588	-7.11685	0.363688	2.16112	2.02609	
0.825	8.58472	8.34696	-5.81072	-14.2091	-2.55587	-3.82149	-7.81177	0.447851	2.21028	2.01102	
0.83	6.69736	7.66083	-6.06033	-13.7715	-2.6355	-4.40284	-8.36418	0.533248	2.24278	1.99665	
0.835	5.30743	6.40216	-6.19513	-13.3001	-2.75355	-4.78558	-8.74937	0.614727	2.21945	1.98376	
0.84	4.41889	4.68569	-6.20756	-12.8321	-2.90459	-4.93639	-8.94318	0.689448	2.10318	1.97302	
0.845	3.91954	2.6495	-6.12577	-12.3615	-3.08387	-4.81552	-8.91081	0.756659	1.92337	1.96491	
0.85	3.76422	0.387329	-5.96167	-11.8724	-3.28855	-4.53967	-8.74227	0.811381	1.67659	1.95974	
0.855	3.63619	-2.05253	-5.85253	-11.3625	-3.51437	-4.03358	-8.37992	0.857006	1.41133	1.95762	
0.86	3.31185	-4.5978	-5.89158	-11.0327	-3.75313	-3.34469	-7.86069	0.89362	1.19706	1.95851	
0.865	3.81206	-6.41931	-5.58438	-11.7745	-3.99311	-2.53199	-7.23043	0.921256	1.04851	1.9622	
0.87	4.13354	-7.99657	-5.4078	-11.1187	-4.22017	-1.63155	-6.51677	0.941169	0.956953	1.96832	
0.875	4.32768	-9.18775	-5.33736	-10.17	-4.41828	-0.702777	-5.76422	0.953106	0.905196	1.97644	
0.88	4.83852	-9.80298	-5.51598	-10.8328	-4.55436	0.065477	-5.11183	0.946669	0.878757	1.98601	
0.885	5.49847	-9.92587	-5.89603	-12.4115	-4.69393	0.570806	-4.63087	0.912945	0.869342	1.99646	
0.89	5.86144	-9.73713	-6.30526	-13.2547	-4.83584	0.886085	-4.2632	0.854401	0.871798	2.00721	
0.895	6.0135	-9.26894	-6.74487	-13.5632	-4.97979	1.11108	-3.93427	0.778107	0.882792	2.01769	
0.9	5.97281	-8.57665	-7.13807	-13.1176	-5.12467	1.27846	-3.66733	0.690428	0.891954	2.02737	
0.905	6.25877	-7.70488	-7.88004	-14.4378	-5.26984	1.44222	-3.37896	0.594122	0.905942	2.0358	
0.91	6.02627	-6.88668	-8.57584	-14.0762	-5.41468	1.59763	-3.05595	0.488528	0.927655	2.04258	
0.915	5.57389	-6.07223	-8.90032	-12.7665	-5.5586	1.73794	-2.72641	0.370398	0.963089	2.04738	
0.92	5.00607	-5.36554	-9.21288	-11.1255	-5.7009	1.86778	-2.39729	0.25239	1.06316	2.04997	
0.925	4.60514	-4.83255	-9.80703	-9.92742	-5.84082	1.97848	-2.09853	0.13209	1.20224	2.05019	
0.93	4.18888	-4.45495	-10.2625	-8.7386	-5.97755	2.18532	-1.77974	0.0238011	1.30817	2.04794	
0.935	3.65624	-4.28195	-10.5295	-7.45875	-6.11011	2.38622	-1.46705	-0.0758795	1.35552	2.04317	
0.94	3.08187	-4.2502	-10.4176	-6.75648	-6.23742	2.47075	-1.20875	-0.163359	1.34563	2.03592	
0.945	2.05963	-4.52096	-10.1123	-5.86025	-6.3584	2.55617	-1.01743	-0.201947	1.30945	2.02621	
0.95	0.621829	-5.24058	-10.1998	-5.08876	-8.6045	2.65493	-0.828273	-0.234996	1.27661	2.01415	
0.955	-0.253025	-5.86775	-9.89623	-4.5308	-12.4892	2.82416	-0.670411	-0.275747	1.28884	1.99984	
0.96	-0.56898	-6.50526	-9.54542	-4.18899	-13.7852	3.3665	-0.637403	-0.364102	1.47099	1.98342	
0.965	-0.678175	-7.26086	-9.476	-4.16875	-13.6626	3.96907	-0.629824	-0.4601	1.6971	1.96503	
0.97	-0.640674	-8.06005	-9.45306	-4.27408	-13.2067	4.46897	-0.604391	-0.540093	1.89694	1.94485	
0.975	-0.53861	-8.87857	-9.40243	-4.32205	-12.8099	4.86694	-0.56458	-0.604534	2.06701	1.92303	
0.98	-0.412436	-9.71329	-9.39691	-4.33517	-12.4498	5.20892	-0.461841	-0.663251	2.18763	1.89977	
0.985	-0.283458	-10.5873	-9.59873	-4.32509	-12.0608	5.44219	-0.308875	-0.708475	2.24309	1.87525	
0.99	-0.123988	-11.3202	-9.42269	-4.29953	-11.6303	5.45502	-0.223914	-0.717686	2.26513	1.84966	
0.995	0.0308093	-12.0201	-9.26179	-4.26361	-11.1768	5.37552	-0.124338	-0.712388	2.24733	1.8232	
1	0.174263	-12.6761	-9.11831	-4.2076	-10.7181	5.16688	-0.00539748	-0.687449	2.17182	1.79607	
1.005	0.311092	-13.2757	-8.94258	-4.1463	-10.2625	4.81855	0.117751	-0.641191	2.03894	1.76848	
1.01	0.44233	-13.8183	-8.72453	-4.07364	-9.81284	4.36526	0.236187	-0.578516	1.86192	1.74061	
1.015	0.602383	-14.306	-8.51114	-3.86411	-9.37134	3.93208	0.325583	-0.518583	1.69586	1.71268	
1.02	0.828049	-14.7345	-8.35887	-3.3388	-8.94067	3.59107	0.386507	-0.47383	1.57378	1.68485	
1.025	1.06265	-15.1171	-8.19235	-2.69336	-8.52373	3.33105	0.421498	-0.442609	1.49278	1.65732	
1.03	0.992636	-14.8645	-7.6635	-0.943834	-8.1241	3.13069	0.437638	-0.420215	1.44043	1.63024	
1.035	0.694733	-14.341	-6.81556	1.65628	-7.74475	2.9816	0.444133	-0.403682	1.40695	1.60377	
1.04	0.866761	-14.5132	-5.99285	3.19885	-7.38859	2.87425	0.447022	-0.391434	1.43854	1.57803	
1.045	1.60523	-15.6244	-5.29772	3.07534	-7.05827	2.7967	0.447901	-0.382148	1.53909	1.55312	
1.05	1.83607	-15.905	-4.77595	3.12638	-6.75578	2.73835	0.446438	-0.374731	1.64169	1.52913	
1.055	1.93648	-15.9858	-4.327	3.17905	-6.64581	2.68618	0.416437	-0.367082	1.71948	1.50613	
1.06	2.17149	-16.2361	-3.90926	3.46253	-7.62417	2.63843	0.372469	-0.360174	1.77078	1.48415	
1.065	2.32502	-16.3208	-3.51539	3.66563	-8.36986	2.60075	0.355442	-0.355348	1.8035	1.46321	
1.07	2.49305	-16.2836	-3.17266	3.94806	-8.654	2.57725	0.354087	-0.349992	1.81511	1.4433	
1.075	2.68177	-16.1479	-2.87611	4.40453	-8.63947	2.66071	0.525686	-0.337957	1.80843	1.42438	
1.08	2.75934	-15.8162	-2.61113	4.87487	-8.12752	2.60775	0.46504	-0.335614	1.78705	1.40641	
1.085	2.74463	-15.2083	-2.35604	5.36126	-7.6399	2.49634	0.245907	-0.368649	1.75865	1.38932	
1.09	2.52632	-14.4242	-2.09917	5.90498	-7.35885	2.40691	0.0724903	-0.396684	1.73107	1.37304	
1.095	1.96078	-13.5531	-1.83549	6.51906	-7.17453	2.34406	-0.0238707	-0.405619	1.70808	1.35747	
1.1	0.83246	-12.7802	-1.66806	7.21399	-7.01706	2.21136	-0.267316	-0.551195	1.69525	1.34253	
1.105	-1.65148	-13.1868	-2.02891	8.28911	-6.87586	2.09458	-0.477679	-0.67266	1.69504	1.3281	
1.11	-4.62513	-13.7822	-2.40823	9.49758	-6.75414	2.04096	-0.555054	-0.693679	1.70973	1.31411	
1.115	-7.93656	-14.2807	-2.73874	10.7738	-6.68366	1.98851	-0.627401	-0.725118	1.73699	1.30044	
1.12	-11.5799	-14.7259	-3.08347	12.1791	-7.12343	1.94274	-0.680192	-0.746585	1.77308	1.28701	
1.125	-15.4574	-14.9098	-3.46075	13.8348	-7.53407	1.88919	-0.759391	-0.802526	1.81425	1.27374	
1.13	-19.3321	-15.1713	-3.65716	15.6024	-7.72308	1.84836	-0.803807	-0.835331	1.85465	1.26056	
1.135	-23.3094	-14.8869	-3.60273	17.5873	-7.81819	1.81059	-0.912137	-0.806714	1.88656	1.24741	
1.14	-27.1829	-14.0216	-3.34302	19.5326	-8.05417	1.80379	-0.847133	-0.758924	1.90205	1.23425	
1.145	-30.7699	-12.6044	-2.95078	21.4347	-8.68305	1.79845	-0.779392	-0.701295	1.8901	1.22103	
1.15	-34.0228	-10.5496	-2.38423	23.4177	-9.41751	1.78758	-0.740386	-0.645987	1.84214	1.20775	
1.155	-36.9227	-7.77943	-1.58723	25.4118	-10.0807	1.77579	-0.697863	-0.597876	1.75294	1.19439	
1.16	-39.3712	-4.40688	-0.655165	27.3728	-10.6257	1.76436	-0.650491	-0.554633	1.61976	1.18096	
1.165	-41.3583	-0.437757	0.290483	29.1678	-11.0665	1.76487	-0.599786	-0.515121	1.47599	1.16747	
1.17	-43.0526	3.82802	1.06658	30.5469	-11.4238	2.11681	-0.623331	-0.528712	1.57329	1.15341	
1.175	-44.5686	7.55585	1.33352	31.6891	-11.7005	2.63886	-0.729876	-0.569489	1.78175	1.13615	
1.18	-45.7598	10.6649	0.950473	32.5725	-11.8865	3.13914	-0.914744	-0.623657	1.95044	1.12001	
1.185	-46.5382	13.1366	0.231064	33.1163	-11.9704	3.53107	-1.11295	-0.671611	2.03749	1.10591	
1.19	-46.9594	14.7217	-0.321523	33.8084	-11.9426	3.78444	-1.26452	-0.698652	2.04744	1.09307	
1.195	-46.528	15.9074	-0.838511	32.9996	-11.7942	4.04992	-1.0871	-0.692144	1.99803	1.08082	
1.2	-46.509	15.9587	-0.841354	34.9417	-11.5247	4.17696	-0.666874	-0.645744	1.87441	1.06899	
1.205	-44.1701	14.9498	-0.803791	32.7032	-11.1331	3.90609	-0.371237	-0.571061	1.68932	1.05769	
1.21	-41.6003	13.739	-0.723936	30.2395	-10.6323	3.51258	-0.0552855	-0.481868	1.67744	1.04704	
1.215	-38.036	11.9271	-0.523167	28.0927	-10.0388	3.18171	0.269171	-0.403083	1.91145	1.03715	
1.22	-33.6216	9.47015	-0.162655	25.7347	-9.3862	2.96034	0.540877	-0.348755	2.27068	1.02811	
1.225	-28.3698	6.36084	0.333359	22.5851	-8.73672	2.83551	0.74971	-0.311244	2.66477	1.01994	
1.23	-22.3424	2.69821	0.862239	18.7942	-8.34083	2.7756	0.880762	-0.295488	3.09335	1.01216	
1.235	-15.5711	-1.4156	1.32733	14.6411	-7.96871	2.76084	0.98764	-0.287248	3.53255	1.00544	
1.24	-8.31757	-5.80838	1.70609	10.5419	-7.55146	2.77243	1.08002	-0.283665	3.94535	1.00036	
1.245	-1.35656	-10.0345	1.95409	7.37403	-7.10568	2.79815	1.1619	-0.282868	4.33392	0.997167	
1.25	4.6053	-13.8408	2.06143	5.43456	-6.64557	2.83769	1.23869	-0.284276	4.68826	0.99615	
1.255	9.05742	-16.7926	2.13675	4.25767	-6.19985	2.89	1.32817	-0.285621	5.0107	0.997594	
