CEINMS output
datacolumns 81
datarows 92
endheader
time	addbrev_r	addlong_r	addmagDist_r	addmagIsch_r	addmagMid_r	addmagProx_r	bflh_r	bfsh_r	edl_r	ehl_r	fdl_r	fhl_r	gaslat_r	gasmed_r	glmax1_r	glmax2_r	glmax3_r	glmed1_r	glmed2_r	glmed3_r	glmin1_r	glmin2_r	glmin3_r	grac_r	iliacus_r	perbrev_r	perlong_r	piri_r	psoas_r	recfem_r	sart_r	semimem_r	semiten_r	soleus_r	tfl_r	tibant_r	tibpost_r	vasint_r	vaslat_r	vasmed_r	addbrev_l	addlong_l	addmagDist_l	addmagIsch_l	addmagMid_l	addmagProx_l	bflh_l	bfsh_l	edl_l	ehl_l	fdl_l	fhl_l	gaslat_l	gasmed_l	glmax1_l	glmax2_l	glmax3_l	glmed1_l	glmed2_l	glmed3_l	glmin1_l	glmin2_l	glmin3_l	grac_l	iliacus_l	perbrev_l	perlong_l	piri_l	psoas_l	recfem_l	sart_l	semimem_l	semiten_l	soleus_l	tfl_l	tibant_l	tibpost_l	vasint_l	vaslat_l	vasmed_l	
3.19	0	0	0	0	0	0	0	0	0	0	0	0	0	0	0	0	0	0	0	0	0	0	0	0	0	0	0	0	0	0	0	0	0	0	0	0	0	0	0	0	0	0	0	0	0	0	0	0	0	0	0	0	0	0	0	0	0	0	0	0	0	0	0	0	0	0	0	0	0	0	0	0	0	0	0	0	0	0	0	0	
3.195	-20.1649	-2.29146	-86.793	-77.697	-113.589	-0.394517	-70.7189	125.399	7.9507	4.19296	-0.998369	-3.31478	73.4629	180.038	-109.893	-179.854	-182.819	177.528	-31.6901	-134.261	40.6852	29.8862	8.32337	-0.147088	55.6232	-1.87057	-3.70725	-34.0861	52.5772	8.03655	12.3725	34.115	1.34305	-235.641	22.5406	23.6816	-6.11898	-73.9053	-206.87	-115.438	-11.3411	-13.3603	-12.4261	-9.97477	-9.63967	-16.2043	-74.2694	-26.6532	1.82614	1.2446	-1.68491	-1.9349	-68.0091	-0.803391	-1.14624	-3.25426	-0.422441	36.8293	14.2003	-0.035603	16.0278	23.8658	-0.0234941	-7.15049	12.9927	-0.67843	-2.5337	-0.263962	4.15006	342.27	-3.50764	-133.83	-33.2447	-3.31866	-0.106039	6.35681	-5.04637	-0.164347	329.607	195.202	
3.2	-18.6422	-2.79352	-93.0941	-90.7636	-115.23	-10.2995	-99.9735	123.022	9.16426	4.68936	-1.25499	-3.79822	104.466	230.957	-122.422	-195.321	-194.509	161.706	-44.5413	-150.071	39.1123	27.3403	5.00298	-0.225227	59.5548	-2.35754	-4.50624	-44.8886	59.8428	6.50084	12.3159	26.8314	-1.01379	-277.882	37.0263	26.1763	-7.26615	-95.8224	-270.891	-149.288	-12.8376	-15.9171	-16.942	-17.8495	-12.9269	-18.4739	-102.678	-36.426	1.92584	1.27438	-1.02578	-2.45861	-106.503	-2.43939	-13.368	-38.6627	-33.378	50.2845	22.51	-0.0391756	16.2776	17.3312	-0.0267726	-28.5861	18.0855	-0.722133	-3.18864	-0.771158	5.60388	332.869	-3.82087	-182.895	-38.164	-21.8655	-0.321967	6.64687	-9.29761	-3.6912	494.808	282.281	
3.205	-16.2799	-2.79236	-91.2105	-89.1436	-112.639	-10.2854	-112.129	114.127	8.27887	4.21495	-1.02402	-3.19151	111.817	223.499	-127.194	-198.211	-195.73	129.693	-56.0461	-157.306	34.1258	22.4753	0.574086	-0.340887	58.6799	-1.97574	-3.62213	-48.7824	59.5226	21.8357	12.0071	-0.196437	-4.72534	-242.579	42.1273	23.3398	-6.14273	-94.297	-267.558	-146.334	-13.02	-16.979	-11.232	-11.343	-10.1531	-15.5893	-88.9981	-32.4015	1.25137	0.819013	-0.65418	-1.31162	-84.779	-2.43467	0.737532	-3.02682	-33.1532	42.8463	28.0472	-0.0391076	16.6108	21.2171	-0.026734	-15.5546	16.8688	-0.336846	-2.0492	-0.769687	4.59539	326.953	-3.64436	-175.106	-34.6024	-17.8078	-0.321344	4.11528	-3.36474	-3.69	505.398	287.819	
3.21	-14.3947	-2.79117	-92.0376	-90.6898	-111.321	-10.2703	-129.298	106.667	6.67858	3.39823	-0.863171	-2.68247	110.942	213.648	-134.752	-205.155	-200.39	98.448	-68.0095	-165.594	29.2185	17.6343	-3.74631	-0.659578	58.5336	-1.63679	-3.03659	-53.0371	60.3341	36.3318	11.7461	-31.2037	-9.0712	-200.885	40.1148	18.8246	-5.14985	-90.3989	-257.809	-140.485	-13.9099	-19.2417	-9.70056	-6.92037	-7.54246	-12.8886	-79.701	-34.2157	0.455647	0.293488	-0.710847	-0.501505	-82.0354	-2.42973	-1.2452	-5.69293	-32.8973	48.928	30.5542	-0.0390395	16.2292	17.1253	-0.0266951	-13.0303	14.3001	-0.14561	-0.8304	-0.768007	2.85812	319.665	-3.74359	-190.656	-36.2732	-13.5538	-0.320691	1.54746	-1.19054	-3.68873	488.972	278.916	
3.215	-12.1146	-2.78954	-92.2494	-92.8947	-108.91	-10.2462	-150.169	98.158	5.04034	2.56014	-0.681455	-2.06823	112.03	213.025	-141.985	-211.098	-203.906	61.352	-80.166	-171.936	23.1438	11.8833	-8.52205	-0.988933	58.3957	-1.2797	-2.36814	-57.2706	61.7448	50.2807	11.4434	-65.6072	-14.0332	-154.753	36.7295	14.1781	-4.00221	-86.9768	-249.12	-135.324	-14.9746	-22.1567	-9.79417	-4.87797	-5.40463	-10.7796	-73.7679	-36.986	-0.456031	-0.316291	-0.619542	0.433573	-84.7448	-2.42336	-0.61388	-6.93329	-32.6007	51.2791	33.5153	-0.0389683	16.4526	18.3532	-0.0266533	-13.6524	11.8018	0.168126	0.519574	-0.765991	0.909051	309.791	-4.15872	-205.397	-36.8121	-9.70648	-0.319852	-1.57847	0.617681	-3.68431	483.605	274.493	
3.22	-9.61114	-2.78837	-91.9871	-94.6066	-105.803	-10.2315	-172.215	88.9977	3.15836	1.589	-0.434785	-1.27093	115.463	215.459	-148.952	-216.411	-206.769	20.1872	-92.2165	-176.175	16.2198	5.51905	-13.5614	-1.35349	57.8694	-0.826099	-1.47664	-60.5283	62.7551	64.9658	11.1016	-104.548	-19.5762	-97.5213	34.0061	8.72087	-2.5104	-82.297	-236.555	-127.98	-15.9441	-25.6854	-9.44265	-4.12673	-3.84674	-9.16455	-70.212	-39.0764	-1.54106	-1.04354	-0.212669	1.61741	-86.4843	-2.4186	2.32248	-2.02587	-31.8895	53.8053	35.8214	-0.0389008	16.6341	18.6727	-0.0266148	-15.0354	8.79652	0.543544	2.1318	-0.764449	-1.33024	296.73	-4.69751	-209.758	-36.7759	-6.55185	-0.319222	-5.3616	3.3646	-3.70798	479.916	264.957	
3.225	-6.90683	-2.78745	-91.4736	-96.3463	-101.989	-10.2218	-194.494	79.6512	0.990393	0.473041	-0.139409	-0.348774	119.788	218.762	-155.518	-221.125	-209.004	-23.5829	-103.443	-177.942	8.69144	-1.24983	-18.6586	-1.72691	57.1218	-0.283827	-0.43578	-62.3924	63.5663	81.1271	10.7348	-146.486	-25.4421	-30.5429	31.8436	2.46637	-0.754421	-76.1368	-219.547	-118.29	-13.7638	-30.0003	-8.30723	-3.10652	-2.80742	-7.92086	-68.3603	-40.5325	-2.76681	-1.86256	0.255726	2.95027	-86.1169	-2.41471	5.49865	4.04487	-12.0747	58.9694	17.9132	-0.0388353	16.8989	19.0954	-0.0265781	-16.001	5.125	0.952839	3.97959	-0.763182	-3.58143	280.325	-5.29156	-206.83	-36.6404	-4.11355	-0.31871	-9.58206	6.73847	-3.78508	469.745	253.109	
3.23	-4.00965	-2.78639	-90.5295	-98.1149	-97.4642	-10.2091	-216.479	70.4523	-1.37116	-0.737497	0.180822	0.645455	124.431	223.936	-161.344	-225.045	-210.415	-68.8552	-113.747	-176.961	0.742781	-8.24832	-23.682	-2.07433	56.1519	0.30711	0.682656	-61.8477	64.251	98.2716	10.3458	-189.15	-31.3781	42.5819	29.6973	-4.29128	1.14467	-69.3803	-200.654	-107.747	-11.7153	-35.1107	-7.14083	-1.54196	-2.15363	-6.94059	-67.8197	-37.5922	-4.08781	-2.74509	0.742241	4.34468	-84.8972	-2.41037	8.8907	9.93179	-8.96526	62.7029	25.2175	-0.0387689	17.0738	19.7842	-0.0265405	-16.5847	-13.2957	1.38913	5.97257	-0.761772	-3.26003	265.792	-5.92583	-206.027	-36.3053	-2.29111	-0.318137	-14.0787	10.3024	-3.92533	458.611	243.543	
3.235	-0.934525	-2.78523	-89.0018	-99.3721	-92.2013	-10.1945	-236.996	61.58	-3.8333	-1.99898	0.510284	1.67255	129.486	231.574	-166.102	-227.947	-210.821	-114.611	-122.768	-173.129	-7.43798	-15.3153	-28.5178	-2.36551	54.9388	0.919921	1.83845	-58.9108	64.7498	115.29	9.94062	-230.406	-37.1381	118.809	27.429	-11.3146	3.10524	-62.6322	-181.607	-97.2634	-10.0774	-40.9414	-6.19592	-0.0851089	-1.75993	-6.15373	-67.5033	-33.2449	-5.47053	-3.67015	1.22506	5.75118	-83.5824	-2.40573	12.8177	16.4607	-5.6546	65.5994	30.3658	-0.038702	17.6476	20.6658	-0.0265023	-17.0995	-14.198	1.8425	8.04067	-0.760271	-3.26962	252.948	-6.62106	-205.805	-35.6278	-0.970256	-0.457753	-18.7506	13.9264	-4.12323	452.742	238.686	
3.24	2.29666	-2.78401	-86.8723	-99.9095	-86.1583	-10.1788	-255.009	53.3799	-6.33163	-3.27906	0.834795	2.68763	134.912	241.37	-169.515	-229.641	-210.039	-159.923	-130.667	-168.823	-15.6763	-22.3089	-33.0844	-2.57521	53.5002	1.53179	2.99369	-54.9533	65.0492	131.343	9.52809	-268.407	-42.4777	195.38	25.109	-18.4226	5.04312	-55.9453	-162.562	-86.8681	-8.79871	-47.5924	-5.39028	0.814404	-1.52977	-5.51134	-67.1823	-30.384	-6.88765	-4.61734	1.69152	7.12384	-82.2352	-2.40097	17.2317	23.8407	0.781275	71.6151	33.2285	-0.0386349	18.2632	21.7022	-0.0264639	-17.6502	-13.0557	2.29764	10.128	-0.75873	-3.25017	240.209	-7.3488	-202.883	-34.5558	-0.0373268	7.82121	-23.5693	17.5752	-4.36915	451.828	237.338	
3.245	5.66233	5.35013	-84.1075	-99.6554	-79.2972	-10.1629	-270.271	45.8384	-8.79865	-4.54239	1.13712	3.64485	140.589	252.287	-171.316	-230.033	-207.938	-204.056	-137.417	-167.917	-23.8186	-29.1077	-37.3273	-2.68084	51.8622	2.11739	4.09657	-50.8135	65.1285	145.793	9.12535	-301.501	-47.1589	268.905	22.8078	-25.4007	6.86448	-49.4264	-143.851	-76.7147	-7.76499	-54.8809	-4.71981	0.966972	-1.39801	-4.97902	-66.8519	-28.5577	-8.31072	-5.56658	2.1568	8.41116	-80.6049	-2.3962	22.0392	31.8491	8.11234	76.1131	37.1919	24.11	18.6323	22.8881	-0.0264256	-18.1612	-12.0133	2.74533	12.1821	-0.757188	-3.25421	219.222	-8.07197	-196.086	-33.0373	0.603919	15.6059	-28.4095	21.1634	-4.66579	444.644	232.462	
3.25	9.14347	20.3668	-80.7104	-98.6065	-71.6548	-10.1469	-283.196	39.2418	-11.1543	-5.74803	1.4015	4.49826	146.324	262.566	-171.296	-229.044	-204.455	-246.386	-143.47	-162.892	-31.7232	-35.6213	-41.2355	-2.66489	50.0538	2.65155	5.0992	-46.2869	64.9512	158.074	8.72281	-329.367	-50.9585	335.122	20.529	-31.9946	8.47792	-43.2825	-126.135	-67.1568	-6.9124	-62.0179	-3.95938	1.23662	-1.32366	-4.53182	-66.5156	-27.4724	-9.7124	-6.49766	2.56523	9.57098	-78.3523	-2.39145	27.1808	40.326	15.4488	72.9182	42.2813	31.2551	19.161	24.1879	-0.0263873	-18.5352	-15.1956	3.17382	14.1498	-0.755652	-3.25431	191.252	-8.78754	-185.353	-31.0252	1.02847	16.1696	-33.1625	24.5914	-5.0235	425.326	221.195	
3.255	12.7166	23.4444	-76.6863	-96.7038	-63.2849	-10.1308	-293.974	33.5215	-13.317	-6.85334	1.61408	5.20327	151.67	269.232	-169.346	-226.682	-199.488	-286.49	-152.828	-157.728	-39.2863	-41.7851	-44.8215	-2.51483	48.1011	3.10896	5.95814	-41.4443	64.4801	167.673	8.32499	-351.705	-53.6415	389.157	18.2524	-37.9378	9.80525	-37.7447	-110.112	-58.5548	-6.19892	-68.8937	-2.81587	2.23947	-1.28209	-4.15154	-66.1709	-26.959	-11.0689	-7.39044	2.96916	10.5626	-75.2909	-2.38671	32.5732	49.1221	23.2276	74.7917	47.7561	33.948	19.6518	25.5573	-0.0263491	-18.7208	-23.0913	3.57725	15.9801	-0.754123	-3.25441	157.748	-9.50296	-170.993	-28.4948	1.29152	13.5284	-37.7459	27.7674	-5.44188	395.585	205.131	
3.26	16.3663	25.9691	-72.0631	-94.016	-54.239	-10.1145	-301.03	28.9409	-15.1997	-7.8147	1.76472	5.72558	155.939	270.669	-164.443	-223.084	-193.032	-324.056	-162.502	-152.477	-46.4117	-47.5604	-48.1304	-2.22389	46.0512	3.47043	6.63503	-36.6553	63.7065	174.133	7.93325	-367.431	-55.0402	426.916	15.9636	-42.9997	10.7852	-33.0144	-96.4072	-51.2228	-5.59669	-76.619	-1.33557	3.78252	-1.25894	-3.82479	-65.8145	-26.8336	-12.3564	-7.93064	3.34586	11.3712	-71.3735	-2.38199	38.1147	58.0738	31.5777	80.1595	53.4825	42.4091	20.0743	26.9337	-0.026311	-18.6962	-21.5596	3.94745	17.628	-0.752598	-3.25351	123.026	-10.2051	-153.628	-25.4453	1.43214	10.335	-42.1062	30.6152	-5.91349	362.578	188.466	
3.265	20.0706	30.4989	-66.9544	-90.7094	-44.6076	-10.0981	-302.313	25.4012	-16.7045	-8.58127	1.84748	6.04381	158.407	267.21	-135.918	-218.413	-185.15	-358.881	-170.66	-147.566	-53.0364	-52.932	-51.2293	-1.78979	43.9459	3.71947	7.1005	-32.3255	62.6465	177.106	7.55376	-375.817	-55.0763	446.833	13.6673	-47.0043	11.3803	-29.2575	-85.5283	-45.42	-5.08458	-85.4435	0.490657	5.70042	-1.24603	-3.5416	-65.4426	-26.7261	-13.5515	-7.61183	3.69126	12.0001	-66.644	-2.37729	43.6946	67.0114	40.2212	82.9016	59.4041	51.4324	20.3798	28.2407	-0.026273	-18.4424	-15.2859	4.26658	19.0617	-0.751076	-3.25248	85.288	-10.8549	-133.491	-21.8812	1.47791	7.23411	-46.1229	33.0764	-6.43678	328.372	171.51	
3.27	23.8144	35.4969	-61.3191	-86.7778	-34.4797	-10.0815	-297.225	23.0355	-17.7506	-9.11161	1.86151	6.16842	158.462	260.195	-114.585	-212.991	-175.971	-390.812	-179.352	-143.629	-59.1162	-57.9065	-54.1945	-1.21638	41.8412	3.84581	7.33744	-28.822	61.3584	176.372	7.18531	-376.104	-53.7668	450.136	11.3976	-49.844	11.5755	-26.6112	-77.8784	-41.3584	-4.64604	-94.7017	2.79539	8.1363	-1.23875	-3.29437	-65.0518	-26.6205	-14.6376	-7.59504	3.98905	12.3597	-61.2177	-2.37259	49.1841	75.7471	48.969	85.1867	65.3387	60.226	20.5071	29.3934	-0.0262231	-17.9405	-10.3747	4.53005	20.2475	-0.749557	-3.25143	46.1643	-11.3979	-111.268	-17.8253	1.44876	4.11308	-49.7046	35.104	-7.02471	293.748	154.312	
3.275	27.576	40.1619	-55.3219	-82.2485	-23.9673	-10.0647	-286.032	21.865	-18.2705	-9.3713	1.80942	6.10386	155.886	249.741	-98.1978	-207.141	-165.709	-401.719	-188.248	-141.218	-64.624	-62.5023	-57.1168	-0.511726	39.7868	3.84481	7.33599	-26.4706	59.9168	171.852	6.83666	-367.97	-51.1864	437.833	9.18038	-51.383	11.3741	-25.1616	-73.7493	-39.1772	-4.26798	-103.561	5.11998	10.8292	-1.23453	-3.07727	-64.6388	-26.5133	-15.595	-7.60197	4.24183	12.5727	-55.1767	-2.36789	54.4509	84.0874	57.6761	86.7899	71.0538	69.3618	20.3953	30.2936	71.1204	-17.1795	-7.00598	4.74986	21.1688	-0.748042	-3.25042	6.40914	-11.6516	-87.7778	-13.3164	1.3599	1.0955	-52.7808	36.6585	-7.71072	263.511	138.049	
3.28	31.449	44.7601	-49.0115	-77.1937	-13.1933	-10.0478	-269.552	21.7789	-18.1955	-9.32396	1.69852	5.83595	150.918	235.95	-85.6958	-201.305	-154.634	-411.729	-197.533	-140.846	-69.544	-66.7419	-60.0665	0.311535	37.8378	3.71902	7.0976	-25.5501	58.3703	163.616	6.50877	-351.389	-47.4461	411.581	7.02468	-51.3599	10.8062	-24.9519	-73.2702	-38.9431	-3.93997	-110.77	8.07066	13.5008	-1.232	-2.88563	-64.1999	-26.4055	-16.4018	-7.51008	4.41614	12.6104	-48.585	-2.36321	59.3494	91.8321	66.1479	87.2495	76.3056	78.6761	19.982	30.8443	78.6513	-16.1618	-4.93514	4.91908	21.8156	-0.74653	-3.26813	-33.9731	-12.4341	-63.5674	-8.35262	1.22412	-0.691569	-55.286	37.7273	-8.54795	249.624	130.726	
3.285	35.3056	49.4821	-42.4885	-71.7008	-2.29304	-10.0307	-248.544	22.7626	-17.4908	-8.95515	1.53827	5.37087	143.692	219.347	-75.7353	-195.874	-143.078	-427.785	-207.335	-142.894	-73.8708	-70.6548	-61.1695	1.23627	36.0392	3.47369	6.63121	-26.2735	56.7954	151.876	6.20578	-326.718	-42.7167	373.697	4.93252	-49.4785	9.91143	-25.9724	-76.4544	-40.6553	-3.65379	-119.912	11.4594	17.0245	-1.23037	-2.71574	-63.7311	-26.2952	-17.0485	-7.40128	4.51216	12.4155	-41.5137	-2.35854	63.7373	98.7904	74.1776	86.3495	80.8409	87.7387	19.2113	30.9511	72.5988	-14.9032	-3.73244	5.02317	22.1854	-0.745021	-3.53327	-71.5221	-13.8221	-38.3285	-2.87658	1.05436	-0.466435	-57.175	38.3003	-9.60682	236.203	122.915	
3.29	39.0907	54.2746	-35.8643	-65.8815	8.58897	-10.0134	-223.96	24.7469	-16.1538	-8.26387	1.33902	4.74862	134.459	200.507	-67.6522	-191.296	-131.403	-442.611	-217.465	-147.592	-77.5988	-74.2527	-58.6695	2.24163	34.4333	3.11799	5.95365	-28.7472	55.2374	135.362	5.9297	-294.8	-37.1317	326.603	2.90872	-45.6641	8.73852	-28.1515	-83.1454	-44.2189	-3.40283	-129.743	14.9233	20.8153	-1.22922	-2.56456	-63.2287	-26.1804	-17.5196	-7.23898	4.56472	12.1776	-34.0425	-2.35388	67.4669	104.776	81.5921	83.934	84.4052	96.1885	18.0394	30.5275	74.7509	-13.4278	-3.06327	5.07078	22.2846	-0.743515	-4.12347	-101.399	-14.3164	-9.29565	3.04342	0.864421	-0.466558	-58.4267	38.3836	-10.9751	218.061	111.697	
3.295	42.792	59.0467	-29.2425	-59.8528	19.2972	-9.99601	-197.111	27.5431	-14.1951	-7.25346	1.11037	4.0047	123.307	179.687	-60.9972	-187.895	-119.984	-459.949	-227.544	-154.975	-80.7269	-77.5463	-60.2778	3.30332	33.0416	2.6645	5.08232	-32.9584	53.7599	114.375	5.68243	-256.909	-30.8754	271.895	0.958718	-39.9644	7.33583	-31.3602	-93.065	-49.4542	-3.18172	-135.131	18.8902	25.0991	-1.22833	-2.42959	-43.6759	-26.0592	-17.8074	-7.0791	4.56031	11.7305	-26.1765	-2.34922	70.416	109.623	88.1796	79.8773	86.7684	103.673	16.438	29.4375	79.0935	-11.763	-2.69993	5.06215	22.1291	-0.742012	-4.23414	-138.132	-14.7058	27.1122	9.23995	0.668351	-0.453162	-59.0329	38.0044	-8.86603	197.116	99.5197	
3.3	46.3223	63.64	-22.7515	-53.7497	29.8693	-9.97841	-168.958	30.98	-11.6297	-5.92901	0.861329	3.14749	110.396	157.33	-55.4716	-185.968	-109.201	-481.091	-238.04	-164.968	-83.2505	-80.5245	-62.0005	4.39387	31.8741	2.12444	4.03691	-38.8244	52.3897	91.9305	5.46467	-214.424	-24.1726	211.374	-0.910499	-32.4762	5.7447	-35.4027	-105.772	-56.1159	-2.98612	-138.068	23.9993	31.3237	-1.22758	-2.30874	21.1151	-25.9299	-17.9112	-6.88395	4.47026	11.1881	-17.8968	-2.34458	72.4809	113.193	93.7241	74.1254	87.7388	109.844	14.4004	27.7546	80.1886	-9.93521	-2.50623	5.00642	21.7369	-0.740512	-3.50912	-171.155	-15.052	79.1026	15.4749	0.477971	-0.457002	-59.0072	37.2012	49.2836	176.145	87.9836	
3.305	49.6051	67.3176	-16.5002	-47.7102	39.9111	-9.96064	-140.322	34.9316	-8.48417	-4.30367	0.59693	2.18467	95.8498	133.627	-50.8493	-186.058	-99.3811	-502.552	-249.31	-177.276	-85.155	-83.1646	-64.4637	5.48346	30.9318	1.50916	2.83662	-46.0811	51.1646	69.5173	5.27297	-169.193	-17.2648	145.6	-2.69084	-23.3529	3.99564	-39.9695	-120.611	-63.8479	-2.81244	-138.285	28.4522	37.8087	-1.22691	-2.20028	103.516	-25.7908	-17.8254	-6.6438	4.33226	10.6973	-9.2701	-2.33994	73.5599	115.328	98.0455	66.7175	87.1837	114.391	11.9448	25.46	78.613	-7.97784	-2.40426	4.9085	21.1365	-0.739016	-3.30046	-201.464	-15.2406	158.53	21.3611	0.300918	-0.457657	-58.3677	36.0239	61.2509	156.586	77.4725	
3.31	52.5734	70.7264	-10.6103	-41.8637	48.9293	-9.94272	-112.069	39.1507	-4.80437	-2.40069	0.318019	1.12748	79.682	108.196	-46.9574	-188.705	-90.8316	-517.43	-261.011	-191.481	-86.4374	-85.4348	-68.0996	6.54142	30.2446	0.826798	1.49759	-54.3596	50.0877	47.6839	5.10884	-123.019	-10.4041	75.0323	-4.37097	-12.765	2.10398	-44.522	-136.74	-72.1623	-2.6577	-106.32	31.7923	44.2647	-1.22627	-2.10275	136.243	-25.6403	-17.5645	-6.4079	4.14753	10.1016	-0.428013	-2.33531	73.6569	115.948	101.005	57.7746	85.0472	99.1032	9.11788	22.5774	75.6156	-5.94542	-2.35104	4.76862	20.3534	-0.737522	-3.24825	-229.457	-15.2739	195.024	26.375	0.141306	-0.457777	-57.1469	34.5274	48.7896	137.408	66.9974	
3.315	55.1719	73.9367	-5.18707	-36.3444	57.5962	-9.92463	-85.17	43.3757	-0.653711	-0.256043	0.0223076	-0.0188952	61.8528	81.3062	-43.6621	-192.378	-83.7658	-528.385	-272.543	-207.05	-85.4516	-87.283	-72.9938	7.53292	29.8896	0.0821233	0.0332712	-63.6528	49.1651	26.7557	4.96305	-77.9319	-3.87649	-0.59854	-5.93291	-0.902798	0.0685766	-47.6299	-152.818	-80.2441	-2.51943	-75.2214	34.7753	50.2287	-1.22565	-2.01489	142.792	-25.477	-17.1329	-6.11426	3.91892	9.42293	8.48121	-2.3307	75.4705	115.715	102.507	47.5257	81.3509	100.093	5.99433	19.1763	71.371	-3.85176	-2.32338	4.58727	19.421	-0.736032	-3.36485	-254.536	-15.1349	212.1	30.5643	0.0014375	-0.456988	-55.3774	32.7682	36.9293	117.373	55.9666	
3.32	57.3355	76.7635	-0.330923	-31.2711	64.8233	-9.90637	-60.4782	47.494	3.88593	2.08476	-0.295949	-1.25571	42.3405	52.909	-40.8596	-197.405	-78.3478	-532.439	-283.491	-223.316	-78.7687	-88.2319	-77.6779	8.43224	29.6826	-0.722156	-1.54869	-74.7048	48.3743	7.15579	4.83598	-35.6107	2.12032	-82.106	-7.35525	11.995	-2.12932	-42.5801	-166.765	-86.5543	-2.39554	-55.1632	37.6439	54.0427	-1.22504	-1.93563	152.845	-25.2997	-16.5407	-5.8208	3.66047	8.80997	17.2292	-2.32609	76.2695	115.388	102.512	36.2892	76.2093	108.46	2.67602	15.3652	65.7789	-1.61681	-2.30893	4.37419	18.3647	-0.734545	-3.30043	-276.074	-14.815	229.72	33.9889	-0.116551	-0.456078	-53.1071	30.8072	28.7025	96.05	43.491	
3.325	59.0186	79.1216	3.86172	-26.7477	70.9665	-9.88797	-38.9164	51.134	8.72217	4.57083	-0.64776	-2.58898	20.9953	21.9946	-38.4692	-203.096	-74.638	-529.464	-293.283	-239.544	-78.2321	-82.9206	-81.7467	9.20634	29.6717	-1.58412	-3.23893	-87.1707	47.6898	-10.4409	4.70955	1.95278	7.3118	-170.644	-8.60819	25.6291	-4.52022	-36.9209	-172.281	-83.8915	-2.2843	-42.3305	39.9582	56.1935	-1.22443	-1.86408	164.745	-25.1075	-15.8167	-5.51377	3.38374	8.16577	25.6514	-2.32149	75.3685	113.108	100.983	24.4513	69.8105	104.114	-0.671928	11.2741	58.9825	0.84126	-2.30125	4.13571	17.2178	-0.733062	-3.25564	-293.775	-14.2887	243.912	36.6358	-0.20988	-0.455164	-50.3912	28.7114	20.5208	73.4043	29.9139	
3.33	60.1989	80.9861	7.32575	-22.8605	75.7724	-9.86937	-21.2743	54.261	13.7462	7.14597	-1.04334	-4.02696	-2.23534	-11.2118	-36.4269	-195.813	-72.6358	-525.466	-301.292	-254.715	-77.4629	-81.9121	-85.1927	9.83244	29.8063	-2.50595	-5.03181	-98.8301	47.0637	-25.2119	4.55017	33.0626	11.5078	-268.039	-9.65698	39.6237	-7.13705	-32.3125	-147.226	-69.931	-2.18422	-33.613	41.3952	57.0338	-1.22382	-1.79944	172.88	-24.8999	-14.9786	-5.15999	3.09738	7.46594	33.6564	-2.3169	73.6484	109.704	97.479	12.4537	62.4159	100.786	-0.863077	7.06026	51.2909	3.37892	-2.29702	3.87829	16.0048	-0.731581	-3.24152	-307.133	-13.5488	251.363	38.5282	-0.274128	-0.454294	-47.2972	26.5257	11.112	49.7664	15.7043	
3.335	60.8254	82.3235	10.0035	-19.6789	79.1705	91.6013	-8.2501	56.4693	18.8272	9.74181	-1.49406	-5.58104	-27.4023	-47.3572	-34.6822	-165.154	-72.2764	-518.054	-307.735	-252.79	-77.3441	-81.8208	-86.9331	10.3251	30.0458	-3.48585	-6.92187	-108.437	46.4323	-36.1389	4.41339	56.2132	14.529	-376.191	-10.4622	53.5282	-10.0195	-28.633	-126.177	-60.4384	-2.09403	-27.3068	41.874	56.7448	-1.22322	-1.74105	175.643	-24.6769	-14.044	-4.82188	2.81404	6.84043	41.274	-2.31232	71.0352	105.293	92.9952	1.15417	54.3453	97.094	-0.876354	2.89454	43.0588	5.78384	-2.29455	3.60591	14.7515	-0.730103	-3.23818	-316.009	-12.5959	253.517	39.7718	-0.305076	-0.453445	-43.9066	24.2964	1.12975	25.8511	1.22993	
3.34	60.5614	82.9981	11.8478	-17.233	81.0399	130.55	-0.18222	57.8587	23.7649	12.2574	-2.00917	-7.2722	-54.3868	-86.6906	-33.1946	-141.393	-73.3721	-505.632	-313.044	-195.654	-76.1251	-82.0884	-87.9802	10.6327	30.326	-4.52069	-8.89295	-116.18	45.6682	-41.8276	4.26691	70.6879	16.3114	-497.421	-10.9867	66.8805	-13.1926	-25.6185	-109.362	-52.8508	-2.01265	-22.5868	41.3984	55.1567	-1.22261	-1.68831	171.015	-24.4391	-13.0285	-4.45732	2.53685	6.21367	48.5419	-2.30775	67.5236	99.8575	87.5285	-7.27994	45.5692	92.2477	-0.856162	-1.05842	34.6027	7.9258	-2.29296	3.32135	13.4754	-0.728629	-3.23693	-319.833	-11.4286	250.433	40.4543	-0.30265	-0.452603	-40.2666	22.0617	-8.65378	3.34828	-13.092	
3.345	59.5546	82.9454	12.8541	-15.5575	81.4253	81.3555	2.42231	58.0151	28.3217	14.5724	-2.59552	-9.1021	-83.2022	-129.322	-31.9317	-122.834	-75.8087	-489.05	-315.705	-155.438	-73.7568	-82.0275	-88.9991	10.7269	30.6313	-5.60228	-10.9305	-123.065	44.7507	-39.5904	4.10942	75.3396	16.6757	-633.781	-11.1986	79.5777	-16.6674	-23.1001	-96.1665	-46.8304	-1.93918	-18.9881	40.37	53.5807	-4.68735	-1.64073	164.944	-24.1876	-11.9642	-4.08874	2.28219	5.57541	55.5638	-2.30318	63.3486	93.4265	81.2315	-15.7914	36.9889	84.6858	-0.858313	-4.63169	25.907	9.70377	-2.29182	3.02975	12.198	-0.727158	-3.23594	-319.077	-10.0733	243.432	40.7269	-0.272145	-0.451762	-35.9315	19.8542	-17.9288	-203.26	-26.8981	
3.35	57.8484	82.0084	13.0093	-14.6328	80.2344	95.617	-0.429472	57.0248	32.2622	16.5666	-3.25151	-10.9908	-113.484	-229.766	-30.8673	-108.373	-79.3007	-468.359	-314.6	-126.832	-70.4067	-80.3035	-88.8432	10.5924	30.8888	-6.71649	-13.0038	-127.14	43.6142	-35.0487	3.94162	70.273	15.693	-786.644	-11.0727	91.3554	-20.4278	-20.9703	-85.4152	-41.85	-1.8728	-16.203	39.6274	53.8844	38.9246	-1.59786	159.185	-23.9242	-10.862	-3.69902	2.07413	4.95038	62.5519	-2.29863	58.6101	86.3171	74.2461	-22.957	30.5496	71.3786	-0.860053	-7.68491	17.9385	11.1037	-2.29091	2.73538	10.9293	-0.725689	-3.23497	-313.523	-8.54302	234.006	40.6522	-0.222472	-0.45092	-29.064	17.7013	-26.645	-220.212	-39.9595	
3.355	55.487	80.1821	12.3462	-14.4423	77.5703	91.6138	-8.7766	54.6287	35.4456	18.1728	-3.97185	-13.0059	-144.826	-291.039	-29.9806	-96.6869	-83.6706	-445.922	-310.399	-106.565	-66.0278	-77.6764	-87.4451	10.2148	31.0853	-7.84205	-15.0779	-104.298	42.3146	-32.0903	3.75958	55.4004	13.3181	-954.154	-10.5887	101.317	-24.4277	-19.1555	-76.5043	-37.6838	-1.81283	-14.0126	36.8878	49.7993	24.5592	-1.55932	153.527	-23.6512	-9.73974	-3.32658	1.88935	4.35118	69.7087	-2.29409	53.5039	78.888	66.8286	-28.4721	25.1852	75.1539	-0.861442	-10.107	11.1168	12.2216	-2.29012	2.44032	9.68219	-0.724224	-3.23398	-304.045	-6.87714	218.349	40.3438	-0.163378	-0.450078	-24.7699	15.6178	-34.845	-211.882	-52.2227	
3.36	52.5348	77.48	10.8913	-14.9421	73.4817	85.6486	-22.4902	50.8944	37.8043	19.3622	-4.74198	-15.1168	-176.631	-337.451	-29.2549	-87.0908	-88.6604	-420.065	-302.949	-91.2339	-61.4219	-73.6376	-85.1177	9.6112	31.1889	-8.95328	-17.1009	-75.357	41.0423	-29.6483	3.56272	31.032	9.60885	-1107.52	-9.74027	108.457	-28.5828	-17.5996	-69.0222	-34.1617	-1.75868	-12.261	33.7446	44.3956	23.9187	-1.52478	147.846	-23.3719	-8.60896	-2.92714	1.68142	3.78625	77.1009	-2.28955	48.1623	71.1258	59.1684	-32.2758	19.5838	66.8607	-0.861566	-11.8168	5.43656	13.1111	-2.28938	2.14573	8.46339	-0.722761	-3.23301	-291.228	-5.11024	199.553	39.8777	-0.103009	-0.449237	-21.6695	13.6096	-42.6159	-206.568	-63.7484	
3.365	49.2966	73.8395	8.70839	-16.0737	68.1015	79.2775	-41.2851	45.6544	39.3084	20.1217	-5.53907	-17.1614	-207.871	-398.599	-28.6773	-79.1152	-94.0162	-389.799	-292.465	-79.2606	-56.2451	-69.0917	-82.4917	8.80573	31.1677	-10.0149	-19.0096	-56.486	39.5535	-27.6105	3.35147	-2.21577	4.66329	-1212.39	-8.52887	112.662	-32.7666	-16.2579	-62.6915	-31.1652	-1.70984	-10.8376	30.1574	39.5804	24.6026	-1.49397	142.302	-23.0903	-7.47781	-2.54817	1.46752	3.24724	84.5825	-2.28503	42.7133	63.1845	51.4777	-34.272	14.6555	59.112	-0.861304	-12.7696	0.956565	13.78	-2.28866	1.85537	7.27809	-0.721304	-3.23203	-276.029	-3.28202	181.703	39.3416	-0.0470841	-0.448397	-18.2835	11.6837	-50.0446	-209.535	-74.6873	
3.37	46.0433	69.5602	5.86695	-17.7596	61.5548	72.3334	-64.8184	38.9432	39.9979	20.476	-6.33328	-19.1914	-236.822	-462.381	-28.2376	-72.4386	-99.3548	-356.543	-279.077	-69.6889	-50.4677	-63.92	-78.3706	7.82091	31.0309	-10.9815	-20.7344	-44.2723	37.9135	-25.8604	3.12453	-43.6568	-1.422	-1310.76	-6.95679	114.38	-36.805	-15.0944	-57.2979	-28.5991	-1.66584	-9.66429	26.4031	35.1695	22.8467	-1.46663	136.912	19.2228	-6.35509	-2.16044	1.25129	2.72715	91.7557	-2.28051	37.2648	55.2435	43.8824	-34.4448	10.6246	50.4662	-0.860954	-12.9648	-2.25836	14.2368	-2.28797	1.56863	6.1322	-0.719848	-3.23106	-259.48	-1.44038	166.053	38.755	-0.000548387	-0.447558	-15.0498	9.83882	-57.1812	-218.579	-85.2401	
3.375	42.5056	64.7595	2.45404	-19.9166	54.0117	64.802	-92.6677	30.7895	39.9782	20.4891	-7.08661	-21.0749	-261.352	-520.875	-27.9287	-66.8139	-97.8597	-320.721	-262.762	-61.9406	-44.2155	-57.9239	-73.0125	6.67547	30.7642	-11.8028	-22.1965	-35.9923	36.1544	-24.3562	2.88166	-92.5597	-8.50362	-1420.79	-5.03402	113.877	-40.427	-14.0804	-52.6725	-26.3879	-1.62632	-8.68525	22.822	31.0123	19.7652	-1.44254	131.513	41.8506	-5.2489	-1.77317	1.0205	2.22329	98.1909	-2.276	31.8952	47.3168	36.4818	-32.8821	7.43435	39.1918	-0.860642	-12.4435	-4.239	14.4944	-2.28728	1.28834	5.02781	-0.718395	-3.2301	-242.609	0.367463	152.432	38.0125	0.0300762	-0.44672	-12.4733	8.07498	-64.1545	-226.939	-95.7203	
3.38	38.7407	59.4006	-1.42604	-22.4384	45.6489	56.8878	-124.368	21.2317	39.4055	20.247	-7.74646	-22.7347	-282.104	-557.868	-27.7455	-62.0495	-84.9611	-282.661	-243.752	-55.6	-37.5564	-51.2772	-66.8097	5.39368	30.3766	-12.4335	-23.3093	-29.9664	34.2803	-23.062	2.62046	-148.12	-16.392	-1510.05	-2.77945	111.62	-43.3465	-13.1927	-48.6809	-24.4712	-1.59093	-7.85965	18.6748	24.785	16.2984	-1.42152	125.524	35.2503	-4.16649	-1.3946	0.849164	1.74138	103.562	-2.2715	26.6623	39.4882	29.341	-29.7438	5.05861	25.4362	-0.86036	-11.2774	-5.12384	14.56	-2.28659	1.01658	3.9652	-0.716946	-3.22913	-226.344	2.10069	146.564	37.1016	0.0357876	-0.445883	-10.7274	6.3996	-71.1543	-236.346	-106.568	
3.385	34.7561	53.5638	-5.65528	-25.2155	36.6685	48.7152	-159.423	10.3976	38.3913	19.7313	-8.26212	-24.0507	-305.529	-566.501	-27.6845	-57.9951	-74.5751	-242.947	-222.39	-50.3598	-30.5791	-44.0907	-59.8921	3.9976	29.9413	-12.8302	-23.9668	-25.4015	32.3126	-21.9501	2.33749	-209.552	-25.1416	-1541.72	-0.224472	108.251	-45.3146	-12.4124	-45.2166	-22.8011	-1.55938	-7.15707	13.5072	17.3202	11.8135	-1.40341	118.463	39.9288	-3.11751	-1.02817	0.653344	1.28462	107.561	-2.26701	21.6018	31.815	22.5962	-25.2639	3.46059	14.3697	-0.860092	-9.63969	-5.16753	14.4354	-2.28591	0.752991	2.95312	-0.715498	-3.22816	-209.661	3.72435	146.46	36.0018	0.00666827	-0.445047	-8.68412	4.80839	-78.0714	-248.204	-117.536	
3.39	30.5444	47.4281	-10.1062	-28.1142	27.2647	40.4115	-197.268	-1.55478	36.6556	18.6052	-8.58477	-24.9483	-328.503	-570.657	-27.678	-54.5335	-66.1873	-202.015	-199.112	-45.9895	-23.3777	-36.5032	-52.4406	2.50785	29.4132	-12.9617	-24.0857	-21.861	30.2661	-20.5332	2.02701	-275.817	-34.5692	-1542.68	2.58508	103.02	-46.1654	-11.7243	-42.1947	-21.3391	-1.53142	-6.55437	9.01042	11.2128	7.37608	-1.38808	110.565	46.4059	-2.11233	-0.677047	0.485904	0.853909	109.866	-2.26253	16.7078	24.3059	16.2819	-19.7225	2.54523	7.30666	-0.859826	-7.76308	-4.67638	14.1209	-2.28523	0.502543	1.99492	-0.714056	-3.22719	-191.761	5.21123	150.163	34.6637	-0.0674604	-0.444212	-6.61002	3.31196	-84.4053	-259.498	-127.494	
3.395	26.1477	41.1698	-14.6385	-30.9821	17.6617	32.1005	-237.213	-14.4068	33.6596	16.8449	-8.68184	-25.3208	-341.805	-576.079	-27.663	-51.5716	-59.4719	-160.213	-174.324	-42.316	-16.0455	-28.6548	-44.5554	0.942737	28.7783	-12.8066	-23.6343	-19.0694	28.1473	34.1971	1.68219	-345.42	-44.5102	-1580.19	5.58483	93.6305	-45.8806	-11.1157	-39.5471	-20.054	-1.50683	-6.03369	4.87503	6.16956	3.22503	-1.37542	102.018	50.0125	-1.16464	-0.346049	0.332396	0.452998	110.344	-2.25806	11.9687	16.9475	9.98666	-13.4303	2.17252	3.02049	-0.859558	-5.14069	-3.63233	13.6164	-2.28455	0.267268	1.09817	-0.712617	-3.22623	-185.162	6.54339	159.901	33.0397	-0.195802	-0.443378	-4.58858	1.91712	-89.6718	-264.449	-135.465	
3.4	21.4964	34.8915	-19.1112	-33.6677	8.05415	23.898	-278.471	-27.9358	29.9044	14.9467	-8.53807	-25.0963	-345.136	-573.46	-27.6479	-49.0361	-53.9276	-118.057	-148.663	-39.2082	-8.68946	-20.6834	-36.4212	-0.681562	28.0333	-12.3636	-22.6258	-16.8356	25.9767	117.122	1.2948	-417.362	-54.8355	-1559.83	8.69092	82.5623	-44.4864	-10.5762	-37.2184	-18.9205	-1.48542	-5.58104	1.02395	1.75364	-0.639035	-1.36537	92.7708	52.0508	-0.290745	-0.0420567	0.203144	0.0865565	108.971	-2.2536	7.38802	9.77263	3.83687	-6.71537	2.1807	0.0517431	-0.859289	-2.39978	-1.60125	12.9285	-2.28386	0.052569	0.27652	-0.711179	-3.22526	-176.935	7.71021	181.519	31.1084	-0.385833	-0.442545	-2.66579	0.640789	-94.6072	-269.293	-141.902	
3.405	16.5236	28.6818	-23.3761	-36.0118	-1.33253	15.9074	-319.799	-41.8941	26.1032	13.0361	-8.16323	-24.2253	-342.061	-559.51	-27.6325	-46.8682	-49.2944	-76.0034	-122.643	-36.5656	-1.42678	-12.742	-28.2272	-2.35015	27.1604	-11.6435	-21.116	-15.0237	23.7482	184.983	0.856457	-492.884	-65.3896	-1467.83	11.8039	71.6606	-42.134	-10.0972	-35.1634	-17.9176	-1.46703	-5.18535	-2.92879	-2.37814	-3.98381	-1.35782	82.9199	53.3217	0.489978	0.226951	0.0909432	-0.237713	106.021	-2.24915	2.96161	2.80456	-2.10272	0.0978696	2.34204	-2.16317	-0.859019	0.328608	1.25776	12.0687	-2.28318	-0.138933	-0.456255	-0.709745	-3.29345	-167.857	8.70789	238.384	28.8517	-0.644332	-0.441713	-0.881437	-0.495951	-101.168	-281.22	-153.146	
3.41	11.925	22.6059	-27.2932	-37.8499	-10.3201	8.23036	-358.92	-56.0792	22.3348	11.1195	-7.57429	-22.7007	-336.934	-534.692	-27.6174	-45.0206	-45.3871	-34.5393	-96.6452	-34.3101	5.62138	-4.98003	-20.1556	-4.04893	26.1255	-10.6725	-19.1827	-13.5356	21.4756	231.451	0.359646	-576.762	-76.0979	-1333.99	14.8052	60.8502	-38.9001	-9.67129	-33.3448	-17.028	-1.45154	-4.83768	-7.27026	-8.09511	-3.21426	-1.35273	72.7289	52.9398	1.15494	0.452999	0.0100046	-0.513673	101.857	-2.2447	-1.31879	-3.93815	-7.83259	6.70069	-15.4358	-3.09173	-0.858748	3.02727	4.18429	11.059	-2.2825	-0.299588	-1.08138	-0.708314	-4.1948	-159.065	9.54029	269.779	26.2802	-0.97772	-0.440882	0.717595	-1.46677	-107.766	-293.871	-166.184	
3.415	7.43649	16.7265	-30.7295	-39.0002	-18.714	0.955293	-384.108	-70.3046	18.6243	9.25056	-6.80061	-20.5458	-330.479	-501.763	-27.6024	-43.4554	-42.0756	5.79455	-71.0339	-32.3801	12.3272	2.4476	-12.377	-5.76368	24.9309	-9.48558	-16.8996	-12.3008	19.1439	264.466	-0.201103	-668.717	-87.0148	-1183.48	17.5648	50.3586	-34.8327	-9.29239	-31.7317	-16.2375	-1.43882	-4.53086	-10.1418	-11.3772	-2.41073	-1.35009	62.2121	50.9193	1.68035	0.62684	-0.0487214	-0.729073	96.7493	-2.24027	-5.4662	-10.4471	-13.3547	12.8183	-9.15734	-4.04924	-0.858478	5.55445	6.74228	9.93067	-2.28182	-0.424872	-1.57662	-0.706886	-5.43822	-148.433	10.2136	229.898	23.5609	-1.39126	-0.440052	2.07601	-2.23862	-112.652	-308.166	-177.507	
3.42	3.17098	11.0934	-33.5715	-39.2123	-26.3653	-5.81807	-333.985	-84.448	15.0572	7.46698	-5.87976	-17.8082	-320.94	-466.407	-27.5877	-42.1418	-39.257	44.5127	-46.2318	-30.7267	18.5817	9.40153	-5.03307	-7.47858	23.5008	-8.12352	-14.3524	-11.2671	16.725	291.25	-0.828747	-758.372	-97.7861	-1023.04	19.943	40.4643	-30.0249	-8.95534	-30.2983	-15.5338	-1.4288	-4.25899	-12.52	-13.6454	-1.90196	-1.34953	51.3759	48.5607	2.04005	0.740246	-0.0889055	-0.875019	91.0247	-2.23584	-9.49099	-16.7019	-18.6388	18.2052	-6.91263	-5.64391	-0.858207	7.80435	8.85408	8.71859	-2.28113	-0.506225	-1.9196	-0.705461	-4.65005	-134.948	10.7373	200.233	20.6541	-1.88639	-0.439224	3.1245	-2.77677	-113.674	-323.138	-185.681	
3.425	-0.825842	5.73749	-35.7124	-37.8881	-33.1342	-11.7433	-261.778	-98.5467	11.675	5.78105	-4.84119	-14.6217	-302.118	-479.613	-27.573	-41.0554	-36.8499	81.1563	-22.6698	-29.311	24.2746	15.7707	1.7496	-9.17552	21.8828	-6.63212	-11.6279	-10.3956	14.2854	314.554	-1.5223	-837.666	-108.217	-851.036	21.819	31.1679	-24.6351	-8.65575	344.86	132.297	-1.42141	-4.01722	-14.8265	-15.7969	-1.6287	-1.3498	40.3243	45.6217	2.20945	0.784381	-0.0886526	-0.939207	84.9991	-2.23142	-13.3944	-22.6747	-23.6469	22.6726	-6.42781	-7.6807	-0.857935	9.70131	10.4672	7.45749	-2.29526	-0.540272	-2.08444	-0.704039	-3.58976	-118.4	11.1246	176.418	17.5024	-2.45579	-0.438396	3.82029	-3.04262	-113.413	-335.644	-190.687	
3.43	-4.52834	0.684073	-37.0843	-32.5297	-38.9229	-10.9751	-210.602	-112.451	8.48345	4.19932	-3.71788	-11.1425	-246.982	-578.756	-27.5584	-40.1767	-34.7891	115.352	-0.643438	-28.1016	29.3161	21.4691	7.87216	-10.834	19.955	-5.05834	-8.7948	-9.65652	11.7343	334.94	-2.27675	-904.791	-118.011	-669.394	23.1385	22.4884	-18.8356	131.579	520.07	277.857	-1.41659	-3.80155	-17.0808	-18.0086	-1.47708	-1.34977	29.2012	42.1403	2.16425	0.752301	-0.0531257	-0.910006	78.9719	-2.22702	-17.1743	-28.3446	-28.3401	26.0715	-5.32129	-9.99949	-0.857664	11.1868	11.48	6.17901	-2.32294	-0.518169	-2.04952	-0.70262	-8.05666	-96.5668	11.3878	147.179	14.131	-3.08185	-0.437569	4.14863	-2.99709	-112.806	-343.328	-191.599	
3.435	-7.92156	-4.05928	-37.6317	-28.4172	-43.6597	-10.9938	-174.393	-126.395	5.48068	2.69651	-2.54484	-7.51503	-186.904	-579.432	-27.544	-39.4907	-33.0227	146.836	19.7137	-27.0732	33.6538	26.4447	13.3006	-12.4234	17.7884	-3.44742	-5.91975	-9.02696	9.08389	351.659	-3.08348	-964.424	-126.795	-482.148	23.9689	14.445	-12.8077	190.374	503.723	270.132	-1.41431	-3.6086	-19.2033	-20.2041	-1.39324	-1.34941	18.0432	38.1771	1.88545	0.636531	0.0148742	-0.779136	73.0115	-2.22262	-20.8246	-33.6904	-32.9199	28.3062	-4.42696	-12.5138	-0.857395	12.218	11.824	4.89982	-2.40631	-0.436201	-1.79218	-0.701205	-4.60206	-69.5451	11.5398	113.34	10.5889	-3.74136	-0.436743	4.0541	-2.60603	-111.863	-343.626	-187.466	
3.44	-11.0033	-8.4958	-37.3243	-25.0735	-47.3089	-10.9419	-147.901	-140.355	2.65137	1.29155	-1.36001	-3.86164	-146.046	-557.898	-27.5297	-38.986	-31.5092	175.452	38.3976	-26.2053	37.2612	30.6795	18.0324	-13.9834	15.2737	-1.84098	-3.07011	-8.48882	6.34479	361.973	-3.93083	-1020.61	-134.295	-292.537	24.3698	6.81691	-6.73196	178.633	504.969	266.006	-1.41401	-3.43555	-21.1591	-22.3231	-1.34615	-1.34896	6.76393	33.959	1.35741	0.432962	0.137722	-0.537995	67.1642	-2.21823	-24.328	-38.6868	-37.3126	29.3326	-3.99157	-15.2857	-0.857118	12.7756	11.4812	3.63298	-2.69633	-0.290879	-1.29621	-0.699792	-3.55932	-40.335	11.5934	78.7818	6.89732	-4.41681	-0.435918	3.42976	-1.84271	-110.671	-335.61	-179.209	
3.445	-13.7819	-12.6438	-36.1615	-22.3788	-49.8647	-10.9489	-127.53	-154.511	-0.0159418	-0.0298017	-0.198464	-0.291188	-117.928	-540.161	-27.5154	-38.6546	-30.2155	201.195	55.5467	-25.4817	40.1519	34.1991	22.1252	-15.45	12.4667	-0.277591	-0.306811	-8.02806	3.48326	362.881	-4.80421	-1058.1	-140.988	-102.998	24.2783	-0.323295	-0.786724	175.415	528.729	278.766	-1.4143	-3.28002	-22.9324	-24.3402	-1.31992	-1.34852	-4.50253	29.9286	0.572327	0.138935	0.310346	-0.18356	61.5301	-2.21385	-27.6484	-43.2874	-41.3796	29.1513	-3.96516	-18.5142	-0.856846	12.8576	10.4767	2.39942	-2.86127	-0.0793315	-0.552754	-0.69844	-3.24721	-10.2474	11.5595	44.3165	3.16216	-5.10581	-0.435091	2.15187	-0.694435	-109.319	-318.443	-168.502	
3.45	-16.2777	-16.5301	-34.1559	-20.1388	-51.3546	-10.9455	-111.416	-169.155	-2.53385	-1.28063	0.907968	3.10323	-97.79	-527.658	-27.5013	-38.4917	-29.1147	224.196	71.4037	-24.8894	42.3693	37.0628	25.6622	-16.7075	9.29917	1.20937	2.31632	-7.63313	0.480975	354.336	-5.68842	-913.923	-147.128	84.5172	23.6057	-7.06089	4.86621	181.102	537.807	285.867	-1.41417	-3.13998	-24.4935	-26.2284	-1.30539	-1.34809	-15.6697	26.0354	-0.468317	-0.245078	0.561876	0.283771	56.2316	-2.20947	-30.7291	-47.4591	-45.1169	27.8069	-4.41411	-22.2439	-0.856572	12.4812	8.86175	1.22099	-2.74128	0.196987	0.437628	-0.697017	-8.28871	17.8459	11.4469	9.99175	-0.529844	-5.82276	-0.434271	0.109901	0.845667	-107.892	-294.622	-157.392	
3.455	-18.5205	-20.1955	-31.3327	-18.256	-51.8252	-10.9416	-98.443	-184.578	-4.91319	-2.46275	1.93221	6.24295	-82.6153	-518.046	-27.4872	-38.469	-28.1853	244.722	86.2813	-24.4179	43.9813	39.3583	28.7597	-17.8631	5.79834	2.59133	4.75469	-7.29507	-2.67396	341.042	-6.57036	-664.671	-151.131	265.047	22.3481	-13.4707	10.0959	184.778	535.11	286.231	-1.41376	-3.01372	-25.812	-27.9495	-1.29736	-1.34765	-26.774	22.3206	-1.75657	-0.716508	0.839499	0.856119	51.5828	-2.20511	-33.5321	-51.1858	-48.5075	25.3826	-5.22327	-26.1789	-0.856305	11.6797	6.71127	0.117792	-2.58683	0.536698	1.66341	-0.695572	-4.6804	45.4335	11.2655	-23.7583	-4.09457	-6.59669	-0.433449	-2.76894	2.75099	-106.456	-268.912	-146.325	
3.46	-20.3436	-23.6846	-27.731	-16.6578	-51.3414	-10.935	-87.8797	-200.935	-7.16191	-3.58869	2.85279	9.05941	-70.8386	-509.908	-27.4733	-38.4523	-27.4098	263.03	100.571	-24.0596	45.0856	41.1947	31.5562	-18.873	1.97125	3.84515	6.97392	-7.00651	-5.99799	327.367	-7.43459	-500.468	-152.31	432.691	20.6326	-19.5415	14.7913	186.421	535.03	288.05	-1.41329	-2.89978	-26.8629	-29.4597	-1.29288	-1.34722	-37.909	18.8409	-3.27212	-1.26874	1.17396	1.52255	47.7872	-2.20076	-36.0277	-54.4562	-51.5071	21.9975	-6.42581	-29.8503	-0.856024	10.496	4.11584	-0.892017	-2.64718	0.933104	3.10146	-0.694171	-3.57642	71.9653	11.024	-55.9846	-7.45645	-7.46813	-0.432629	-6.47617	4.98378	-102.832	-243.204	-135.134	
3.465	-21.8998	-27.0558	-23.3859	-15.2928	-49.9646	-10.9279	-79.1894	-215.783	-9.2841	-4.64507	3.65485	11.4978	-61.5144	-502.298	-27.4594	-38.4319	-26.7743	279.478	114.683	-23.8087	45.7991	42.6866	34.1914	-19.6853	-2.16297	4.95385	8.94658	-6.76161	-9.51061	311.208	-8.26841	-392.805	-150.908	582.302	18.5942	-25.2962	18.8831	187.952	537.245	291.422	-1.41283	-2.79682	-27.6278	-30.7182	-1.2903	-1.34678	-48.7983	15.6296	-4.98688	-1.89345	1.57961	2.2618	44.8185	-2.19641	-38.1879	-57.2811	-54.0735	17.7869	-7.83838	-32.7875	-0.855749	8.9872	1.17729	-1.79384	-2.6425	1.37861	4.7162	-0.692774	-3.2433	96.9061	10.7294	-85.9339	-10.5229	-8.49105	-0.431809	-10.8364	7.47869	-85.2264	-216.608	-123.79	
3.47	-23.3921	-30.3503	-18.3367	-14.1199	-47.7872	-10.9207	-71.9717	-228.578	-11.2818	-5.63664	4.32888	13.515	-54.0272	-493.723	-27.4456	-38.4108	-26.2678	294.454	129.023	-23.6613	46.2143	43.9525	36.7972	-20.2706	-6.57072	5.90512	10.6544	-6.55562	-13.2364	283.182	-9.0614	-319.946	-146.903	711.79	16.3367	-30.8106	22.3247	184.27	522.492	285.436	-1.41238	-2.70383	-28.0991	-31.6882	-1.28873	-1.34635	-58.8442	12.6986	-10.9935	-2.70837	1.68152	3.04846	42.6033	-2.19207	-39.9874	-59.6002	-56.1748	12.9066	-8.97355	-35.3807	-0.855474	7.21326	-1.99605	-2.57358	-2.54225	1.85628	6.45779	-0.691379	-7.49343	119.789	10.3882	-112.707	-13.267	-9.73313	-0.430991	-15.5451	10.1258	-69.2569	-189.677	-112.455	
3.475	-24.7594	-33.6159	-12.62	-13.1065	-44.855	-10.9136	-65.9253	-238.999	-13.1419	-6.57084	4.87217	15.0846	-47.9376	-481.947	-27.4317	-38.39	-25.8822	308.457	143.941	-23.614	46.3014	45.1098	39.4948	-20.601	-11.209	6.69193	12.0914	-6.38471	-17.1794	243.872	-9.78232	-266.868	-140.524	821.739	13.9057	-36.0242	25.1024	173.79	486.725	267.973	-1.41192	-2.61983	-28.2778	-32.3397	-1.2877	-1.34592	-67.7226	10.0357	-18.2893	-4.10343	1.10925	3.85007	41.0523	-2.18775	-41.4067	-61.4262	-57.7883	7.52184	-10.816	-38.1175	-0.855198	5.23885	-5.29154	-3.21796	-2.44507	2.35536	8.26529	-0.690002	-4.43491	140.227	10.0065	-136.108	-15.6502	-11.2717	-0.430173	-20.3738	12.8101	-57.9675	-162.844	-101.317	
3.48	-26.096	-36.8981	-6.26201	-12.2264	-41.2473	-10.9064	-60.8232	-245.691	-14.859	-7.43302	5.28513	16.2037	-42.9258	-458.471	-27.418	-38.3695	-25.6111	321.918	159.724	-23.6089	46.0203	46.2609	42.3819	-20.6484	-16.0237	7.31388	13.2485	-6.24587	-21.3199	202.099	-10.282	-226.618	-131.9	913.353	11.3356	-40.8438	27.2218	159.814	441.08	245.179	-1.41147	-2.544	-27.8658	-32.1132	-1.28696	-1.34549	-75.3214	7.62396	-14.7556	-4.05174	1.34389	4.64239	40.0344	-2.18343	-42.4358	-62.7747	-58.9078	1.78898	-21.6813	-41.0014	-0.854922	3.12754	-8.55787	-3.71583	-2.37475	2.86149	10.0686	-0.688599	-3.51082	157.608	9.59415	-155.98	-17.6478	-13.1939	-0.429357	-24.9477	15.4281	-49.2653	-160.448	-90.5668	
3.485	-27.4417	-40.2004	0.713439	-3.62085	-36.9715	-10.8992	-56.4922	-247.625	-16.4191	-8.21922	5.57234	16.8924	-38.7565	-406.106	-27.4045	-38.3491	-25.4506	334.834	176.524	-23.5965	45.5782	47.4457	45.511	-20.4101	-20.9595	7.77045	14.1318	-6.13673	-25.7595	162.929	-10.7953	-195.321	-120.902	986.498	8.66364	-45.3241	28.7131	145.579	395.244	222.378	-1.41101	-2.47565	-27.4554	-30.7701	-1.28636	-1.34506	-81.5809	5.47596	-11.8239	-4.55233	1.64267	5.40001	39.3936	-2.17912	-43.077	-63.6589	-59.539	-4.13264	-26.2136	-44.6466	7.85265	0.941216	-12.5286	-4.06025	-2.33015	3.35572	11.7907	-0.687214	-3.23155	171.522	9.15998	-172.108	-19.2849	-15.5916	-0.428541	-29.2204	17.8494	-41.8164	-136.266	-80.2985	
3.49	-28.8286	-43.5734	8.27919	32.3385	-32.0725	-10.8918	-52.7986	-245.417	-17.8005	-8.91729	5.73977	17.2029	-35.2551	-314.499	-27.3909	-38.329	-25.3973	346.963	194.38	-23.5838	45.0023	48.5627	48.8955	-19.9466	-26.002	8.07057	14.7415	-6.0555	-30.3835	125.458	-11.2439	-170.589	-107.574	1039.08	5.90417	-49.3427	29.6265	130.944	348.846	199.134	-1.41056	-2.41417	-26.8063	-24.9069	-1.28585	-1.34463	-86.3945	3.60571	-7.97811	-5.25823	1.79282	6.08084	38.9432	-2.17482	-43.3415	-64.0961	-59.6797	-10.4793	-29.6742	-47.4714	2.3169	-1.26551	-19.8007	-4.24812	-2.30342	3.76838	13.3523	-0.685831	-4.4023	181.781	8.71339	-184.443	-20.5628	-18.5534	-0.427727	-33.0403	19.9546	-35.2129	-112.903	-70.6078	
3.495	-30.2824	-47.1321	16.4127	45.6022	-26.5393	-10.8844	-49.6378	-233.129	-18.9813	-9.52067	5.79605	17.1826	-32.2907	-251	-27.3774	-38.309	-25.3921	357.946	213.18	-23.571	44.2814	49.5432	52.5024	-19.3027	-31.0633	8.22252	15.086	-6.00091	-35.2726	89.2704	-11.6439	-150.76	-92.0834	1070.2	3.06394	-52.8279	30.0171	116.455	309.234	176.049	-1.41011	-2.35897	-25.9146	-19.2184	-1.28538	-1.3442	-89.653	2.02305	-6.15164	-6.24097	1.51111	6.63294	38.522	-2.17052	-43.2535	-63.9941	-59.4041	-25.8766	-30.3017	-48.6034	0.393316	-3.44281	-20.5355	-4.2801	-2.28786	4.06581	14.677	-0.684452	-4.12408	188.296	8.2649	-193.01	-21.5168	-22.1487	-0.426914	-36.2952	21.6251	-29.3624	-90.0948	-61.8204	
3.5	-31.8282	-51.0058	25.0711	52.8108	-20.3719	-10.8769	-46.9271	-220.304	-19.9384	-10.015	5.74955	16.8807	-29.7633	-205.683	-27.3639	-38.2891	-25.3789	367.48	232.643	-23.5584	43.4121	50.4676	56.35	-18.3859	-36.1512	8.24124	15.1841	-5.97222	-40.3841	54.1802	-12.003	-134.652	-74.6696	1078.67	0.143111	-55.6989	29.9424	105.842	297.875	164.045	-1.40965	-2.30965	-24.4607	-14.3451	-1.28493	-1.34377	-91.5159	0.735241	-19.0923	-7.08164	1.01004	7.02338	37.9796	-2.16624	-42.8482	-63.4767	-58.7939	-25.0011	-32.2578	-49.5125	-0.900199	-6.80231	-21.726	-4.16026	-2.27888	4.28971	15.6899	-0.683075	-3.44666	191.109	7.82281	-197.879	-22.1353	-26.4062	-0.426101	-38.8693	22.7351	-24.2827	-66.174	-54.2424	
3.505	-33.4504	-55.0732	34.2024	63.6231	-13.5583	-10.8693	-44.6001	-203.759	-20.6406	-10.3895	5.61323	16.3492	-27.5953	-172.797	-27.3505	-38.2694	-25.3654	375.142	252.313	-23.546	42.3649	51.224	60.3491	-17.171	-41.2556	8.14245	15.0565	-5.96664	-45.7046	22.8203	-12.3276	-121.409	-55.6354	1063.06	-2.86274	-57.8654	29.4585	101.342	280.755	157.014	-1.4092	-2.26579	-20.458	-10.3845	-1.28449	-1.34335	-92.3388	-0.253556	-21.1952	-7.53565	1.05123	7.23505	37.2183	-2.16196	-42.1722	-62.6714	-57.8468	-29.4975	-35.4608	-50.1697	-0.864134	-8.76758	-10.4497	-3.89586	-2.27365	4.39921	16.3344	-0.681702	-3.24593	190.38	7.3952	-198.916	-22.3506	-31.2965	-0.42529	-40.6496	23.232	-20.0206	-37.5837	-47.9044	
3.51	-35.1563	-59.0177	43.7163	76.2536	-6.11739	-10.8617	-42.6043	-184.471	-21.001	-10.6328	5.40309	15.6402	-25.7259	-147.661	-27.3371	-38.2498	-25.3517	380.337	271.529	-23.5336	41.2606	51.707	64.2532	-15.7107	-46.3712	7.94339	14.7259	-5.96453	-51.1965	-1.58181	-12.6243	-110.408	-35.3558	1033.44	-5.96209	-59.1722	28.6155	93.4298	255.902	144.321	-1.40876	-2.22703	-16.2039	-7.31142	-1.28406	-1.34292	-92.2595	-0.940969	-20.2886	-7.89589	1.17471	7.29942	36.0258	-2.1577	-41.2798	-61.6346	-56.3682	-33.743	-38.5446	-50.4872	-0.863781	-9.89464	-4.59638	-3.49624	-2.27051	4.38731	16.5618	-0.680331	-5.30551	186.358	6.98981	-146.224	-22.1688	-36.7247	-0.42448	-41.654	23.1014	-16.6459	89.7118	-42.3835	
3.515	-36.911	-62.6664	53.5008	88.1124	1.9385	-10.8539	-40.8965	-163.622	-20.9834	-10.7073	5.13293	14.8024	-24.107	-127.917	-27.3237	-38.2303	404.556	382.448	289.602	-23.5214	40.2427	51.8255	67.8112	-14.0417	-51.5351	7.66067	14.2289	-5.96139	-56.8219	-28.2522	-12.8893	-101.191	-14.2302	997.661	-9.16867	-59.2564	27.4611	84.1957	230.569	130.235	-1.40831	-2.19308	-12.2575	-5.10771	-1.28363	-1.3425	-91.1056	-1.32709	-20.1084	-8.07433	1.24316	7.17892	34.5072	-2.15344	-40.2321	-60.4225	-54.2544	-37.794	-40.5289	-49.9681	-0.852716	-11.3124	-4.46803	-2.97194	-2.26852	4.25774	16.3429	-0.678964	-4.63955	179.364	6.61262	-110.563	-21.6282	-42.5538	-0.423671	-41.6823	22.3476	-14.2212	201.114	-37.4247	
3.52	-38.5236	-65.9337	63.385	99.1177	10.5327	-10.8461	-39.4426	-142.187	-20.6418	-10.5909	4.82013	13.8757	-22.6998	-112.102	-27.3103	379.24	266.762	381.007	305.696	-23.5092	39.043	51.5429	70.8627	-12.1924	-56.8369	7.31116	13.5958	-5.95817	-62.507	-55.7901	-13.1288	-93.4142	7.24737	952.439	-12.4947	-58.2685	26.0496	76.186	208.905	118.252	-1.40786	-2.16369	-8.89395	-3.64456	-1.2832	-1.34207	-88.7255	-1.41543	-20.0742	-7.99206	1.2438	6.80151	32.5589	-2.14919	-39.092	-59.1099	-52.0027	-41.4629	-41.2894	-48.6988	-0.854716	-12.8083	-3.41811	-2.33475	-2.26715	4.01168	15.6623	-0.677599	-3.57964	169.784	6.26945	-101.49	-20.7558	-48.6152	-0.422864	-40.7136	20.9979	-12.7346	-102.846	-33.2765	
3.525	-39.94	-68.6874	73.1768	109.597	19.5623	-10.8381	-38.2146	-120.893	-20.0639	-10.3172	4.47943	12.8951	-21.4733	-99.273	-27.297	518.765	302.906	375.63	318.97	-23.4971	37.6027	51.2627	73.3023	-10.1995	-62.3688	6.91173	12.8606	-5.95496	-68.1664	-82.0445	-13.3369	-86.8151	28.4775	893.916	-15.9286	-56.6414	24.4469	69.6409	190.917	108.477	-1.40741	-2.13864	-6.25211	-2.7295	-1.28277	-1.34165	-85.2665	-1.2143	-19.2061	-7.62931	1.1716	6.25169	30.101	-2.14495	-37.9204	-57.7794	-49.6982	-44.8433	-41.4579	-47.1857	-0.855696	-14.1371	-2.67861	-1.59648	-2.26611	3.65482	14.5269	-0.676237	-8.59701	158.03	5.9636	-93.5792	-19.5955	-54.7102	-0.422057	-38.552	19.1002	-12.1343	339.418	-30.2942	
3.53	-41.0929	-70.9979	82.6312	119.384	29.0314	-10.8301	-37.1899	-100.348	-19.3276	-9.93666	4.12405	11.8942	-20.4021	-88.7477	-27.2837	388.367	341.477	365.803	329.116	405.148	35.8273	50.8318	75.01	-8.10782	-68.048	6.4768	12.0531	-5.95181	-73.5763	-107.554	-13.4849	-81.1903	48.8673	827.161	-19.4454	-54.7364	22.7172	63.2475	173.495	98.8522	-1.40697	-2.11775	-4.36383	-2.17824	-1.28234	-1.34123	-81.1429	-0.742959	-17.4502	-6.96518	1.07893	5.55186	27.2674	-2.14072	-36.7759	-56.5008	-47.3535	-48.2015	-41.527	-45.7729	-0.856309	-15.2607	-2.4005	-0.769435	-2.26523	3.19671	12.9496	-0.674878	-4.74877	144.548	5.69726	-83.6575	-18.1966	-60.6035	-0.421251	-35.1268	16.7085	-12.3184	-189.48	-28.6006	
3.535	-41.9032	-72.8575	91.4704	128.12	37.9192	-10.8219	-36.3507	-81.0814	-18.5039	-9.49049	3.76495	10.8949	-19.4655	-80.0213	-27.2704	451.808	357.69	349.967	335.569	432.181	33.6448	50.0906	75.9494	-5.95502	-73.3144	6.02013	11.2018	-6.28055	-78.6073	-133.177	-13.5275	-76.3801	67.8817	759.212	-22.9566	-52.5507	20.9197	56.4652	155.212	88.5667	-1.40652	20.8028	-3.12151	-1.85202	-1.28191	-1.34081	-76.6773	-0.0327426	-15.0125	-5.98926	0.911067	4.65871	24.0098	-2.1365	-35.7086	-55.3412	-45.0295	-51.4086	-41.8882	-44.7757	-0.856199	-16.3949	-2.23446	0.132437	-2.26445	2.64486	10.958	-0.673523	-3.57583	129.778	5.47064	-74.4704	-16.6162	-66.0626	-0.420447	-30.1098	13.8921	-13.1735	-132.713	-28.1689	
3.54	-42.3052	-74.0773	99.4029	135.528	47.2408	-10.8137	-35.6828	-63.484	-17.5864	-9.00985	3.41113	9.91105	-18.6464	-72.7168	-19.9256	467.167	368.624	328.055	337.379	358.533	30.985	49.0466	76.1805	-3.77937	-78.1134	5.55196	10.3271	133.931	-84.5009	-159.012	-13.4605	-72.2586	85.0644	693.012	-26.3121	-50.0274	19.106	49.1933	135.576	77.3834	-1.40608	110.885	-2.35437	-1.65927	-1.28148	-1.34039	-72.0546	0.87894	-11.9852	-4.70668	0.775503	3.59103	20.3663	-2.13229	-34.7608	-54.3625	-42.8146	-54.3714	-42.8258	-44.4861	-0.855902	-17.6222	-2.09886	1.09251	-2.2637	2.00907	8.58173	-0.67217	-3.22509	114.157	5.2821	-66.6648	-14.9134	-70.9515	-0.419643	-23.177	10.6975	-14.605	-86.4525	-28.9165	
3.545	-42.2157	-74.4524	106.1	141.365	55.6723	-10.8053	-35.1754	-47.7297	-16.578	-8.48886	3.06893	8.95935	-17.9308	-66.5506	532.257	465.972	375.866	302.065	334.352	409.577	27.8466	47.6493	75.2651	-1.62233	-82.2976	5.0838	9.45346	204.517	-89.4779	-184.812	-13.2665	-68.7252	100.129	628.781	-29.3548	-47.2144	17.3181	41.1089	113.625	64.8034	-1.40564	111.046	-1.90083	-1.54401	-1.28105	-1.33997	-67.3986	1.94927	-8.37345	-3.13718	0.426116	2.37768	16.3952	-2.12808	-34.3395	-53.7432	-40.7755	-55.6933	-42.4636	-43.3422	-0.855576	-18.0574	-1.97841	2.08847	-2.26299	1.30168	5.85465	-0.67082	-4.91718	98.1117	5.12875	-59.6805	-13.1446	-75.2223	-0.418835	-13.015	7.17691	-16.5406	540.084	-30.7628	
3.55	-41.6501	-73.6873	111.267	145.411	63.1663	-10.7969	-34.8207	-33.7413	-15.5059	-7.93277	2.74316	8.05251	-17.307	-61.3076	212.154	461.459	377.806	272.713	326.938	418.263	23.9416	45.8472	72.5423	0.475453	-85.6772	4.62188	8.59517	201.773	-94.025	-209.661	-12.9239	-65.6992	112.915	567.271	-32.4651	-44.1876	15.5857	32.0096	88.7443	50.5345	-1.4052	98.8503	-1.64025	-1.47346	-1.28062	-1.33955	-62.8106	3.13439	-4.20079	-1.31573	0.213111	1.03255	11.9915	-2.12389	-34.5449	-53.5514	-38.9637	-57.1286	-42.3871	-42.2698	-0.855277	-18.8781	-1.87103	3.09408	-2.26229	0.522879	2.80435	-0.669473	-3.679	82.0357	5.00599	-53.0112	-11.3599	-78.874	-0.41804	-0.694643	3.34125	-18.9064	-286.406	-33.589	
3.555	-40.7249	-69.4986	114.664	147.378	69.2798	-10.7884	-34.6135	-21.2503	-14.3824	-7.35445	2.43716	7.19579	-16.7654	-56.822	276.73	452.143	374.52	241.142	315.614	415.392	19.3	41.7507	68.8948	2.47557	-89.1277	4.17321	7.7597	187.54	-97.8675	-231.622	-12.415	-63.1158	123.345	509.307	-36.1246	-40.989	13.9356	21.9558	61.0827	34.6963	-1.40476	98.4084	-1.49329	-1.42888	-1.28019	-1.33914	-58.3714	4.39205	0.474435	0.711315	-0.0537869	-0.440676	7.18815	-2.1197	-34.8796	-53.6132	-37.4125	-58.6519	-42.8853	-41.1506	-0.854996	-19.7162	-1.77518	4.07927	-2.26159	-0.326371	-0.542176	-0.668129	-3.30813	66.2721	4.90781	-46.5792	-9.60494	-81.8772	-0.41724	8.04924	-0.819465	-21.6312	-225.57	-37.2635	
3.56	-39.517	-52.7937	116.126	147.059	73.8919	-10.7797	-34.5483	-9.76419	-13.2313	-6.76242	2.15287	6.39582	-16.2979	-52.964	290.887	441.792	366.371	208.851	301.09	409.245	15.1586	37.6026	64.5586	4.35274	-91.1437	3.74377	6.96232	184.653	-100.743	-250.319	-11.7253	-60.9226	131.48	455.235	-39.3767	-37.7024	12.3816	11.1224	31.1531	17.5866	-1.40432	103.187	-1.41143	-1.39973	-1.27975	-1.33872	-54.1541	5.67685	5.5703	2.88545	-0.406125	-2.03491	1.89446	-2.11552	-35.3266	-53.9524	-36.1559	-59.7591	-43.7664	-39.6395	-0.85472	-20.3525	-1.68937	5.01268	-2.26089	-1.24681	-4.16576	-0.666788	-3.19465	51.2597	4.82777	-40.5167	-7.93473	-84.1247	-0.416441	16.3622	-5.34214	-24.6468	-158.376	-41.6538	
3.565	-38.0333	-40.7691	115.447	144.351	76.6035	-10.7709	-34.5414	1.28972	-12.0674	-6.16444	1.89086	5.64952	-15.8979	-49.6317	281.249	428.204	353.324	177.144	284.003	398.253	11.1271	33.7047	59.7054	6.07767	-92.2024	3.33538	6.20246	184.326	-102.391	-272.089	-10.8352	-59.0774	137.375	405.063	-41.3797	-34.3572	10.9328	-0.174439	-0.123529	-0.265336	-1.40388	105.742	-1.36621	-1.38012	-1.27932	-1.33831	-50.2028	6.94663	10.9877	5.13736	-0.811851	-3.74903	-3.90452	-2.11135	-35.9409	-54.5814	-35.1933	-60.4605	-44.8844	-26.9235	-0.854445	-20.9252	-1.61234	5.87257	-2.2602	-2.24166	-8.04913	-0.66545	-3.18307	37.0909	4.7578	-34.7296	-6.38335	-85.4255	-0.415643	26.9093	-10.2824	-27.8887	351.146	-46.6331	
3.57	-36.4128	-32.4267	112.739	139.369	77.3251	-10.7621	-34.5236	12.6512	-10.9114	-5.5722	1.65195	4.96219	-15.5599	-46.7431	270.513	409.371	336.106	147.445	265.512	382.908	7.55627	29.8252	54.7499	7.64526	-92.2449	2.95196	5.49119	181.907	-102.711	-297.301	-9.75088	400.852	141.402	358.648	-42.1938	-31.037	9.59371	-11.6193	-31.8185	-18.351	-1.40344	106.155	-1.34134	-1.3668	-1.27888	-1.33789	-46.5518	8.15663	16.6098	7.3889	-1.25179	-5.57607	-10.2445	-2.10719	-36.7414	-55.5076	-34.5286	-60.143	-20.8656	-6.5451	-0.854168	-21.0247	-1.543	6.63603	-2.2595	-3.31874	-12.1789	-0.664114	-3.18036	24.2047	1.62443	-29.4104	-4.9922	-85.4992	-0.414847	37.6793	-15.7095	-31.2576	-276.348	-52.0289	
3.575	-34.7681	-26.6129	108.179	132.133	75.9578	-10.7531	124.493	25.0355	-9.77943	-4.99267	1.43479	4.33228	-15.2795	-44.2326	259.19	387.809	315.202	121.002	245.919	364.088	4.63227	26.3352	50.3642	9.05177	-90.9645	2.59539	4.82737	174.06	-101.597	-314.919	-8.48208	1235.51	143.85	315.942	-42.2925	-27.7941	8.37065	-22.838	-62.8325	-36.0681	-1.403	91.0782	-1.32767	-1.35799	-1.27844	-1.33748	-43.2112	9.26411	22.2961	9.55277	-1.75094	-7.5019	-17.1553	-2.10304	-37.6993	-56.7011	-34.1446	-60.6829	-4.76119	-2.73754	-0.85389	-21.4138	-1.48051	7.28499	-2.2588	-4.48039	-16.5408	-0.662782	-3.17965	12.6794	1.72325	-24.6417	-3.78792	-1503.03	-0.414051	47.8749	-21.6975	-34.6452	-217.331	-57.6041	
3.58	-33.2101	-22.297	101.939	123.018	72.5588	-10.744	798.734	39.124	-8.68996	-4.43473	1.23939	3.76022	-15.0531	89.9881	245.38	363.761	291.311	98.8076	225.218	342.722	2.50501	23.4248	46.9259	10.3047	-88.3813	2.26708	4.21763	159.339	-99.2153	-321.672	-7.0454	1329.09	145.019	276.751	-41.948	-24.6685	7.25999	-33.4961	-92.1931	-52.8589	-1.40257	89.6008	-1.32011	-1.35271	-1.278	-1.33707	-40.1634	10.231	27.8788	11.54	-2.32672	-9.51067	-24.7777	-2.09889	-38.7817	-58.1207	-34.01	-61.9236	-2.17253	-2.27875	-0.853611	-22.3552	-1.42412	7.81105	-2.25811	-5.73183	-21.1144	-0.661453	-3.1783	2.68347	3.36697	-20.4664	-2.78745	22.7012	-0.413257	57.5831	-28.3052	-37.9359	-140.532	-63.1077	
3.585	-31.795	-18.978	94.2226	112.736	67.265	-10.7348	888.778	55.4711	-7.65612	-3.90563	1.06473	3.24461	-14.8779	402.991	230.167	337.761	265.16	81.4917	204.865	319.7	1.27632	21.2262	43.9839	11.4152	-84.58	1.96679	3.65823	142.802	-96.0026	-320.558	-5.46701	1207.29	145.722	240.855	-40.8502	-21.703	6.25868	-43.3337	-119.194	-68.3211	-1.40213	101.09	-1.31587	-1.35039	-1.27756	-1.33665	-37.3961	11.026	33.1311	13.2687	-2.98531	-11.6875	-33.1815	-2.09476	-39.9614	-59.7193	-34.0832	-62.2619	-2.00643	-2.3578	-0.853332	-22.5295	-1.37319	8.21996	-2.25741	-7.06949	-25.8691	-0.660126	-3.17708	-5.73855	4.21852	-16.9646	-1.9961	-38.7444	-0.412457	67.1846	-35.5645	-41.0606	119.254	-68.4117	
3.59	-30.6242	-16.3609	85.3174	101.587	60.3263	-10.7255	781.234	74.4402	-6.69	-3.41171	0.909899	2.78471	-14.7517	577.968	214.107	310.561	237.638	69.7082	186.06	295.809	0.991229	19.8275	41.698	12.3982	-79.8891	1.69601	3.15474	129.055	-91.9815	-316.447	-3.78062	1149.19	146.557	208.047	-37.9607	-18.9408	5.36482	-52.2793	-143.614	-82.2932	-1.4017	109.811	-1.31341	-1.35001	-1.27712	-1.33624	-34.9108	11.6304	37.8501	14.6703	-3.73024	-13.8959	-42.711	-2.09063	-41.2105	-61.4438	-34.314	-61.8094	-2.07744	-2.36385	-0.853051	-22.6756	-1.32719	8.52489	-2.25671	-8.48909	-30.7672	-0.658802	-3.17597	-12.6368	4.15533	-14.191	-1.40842	34.9207	-0.411676	77.0912	-43.4879	-44.0024	-186.027	-73.5749	
3.595	-29.7343	-14.2666	75.5789	89.8278	52.0516	-10.716	713.905	96.1162	-5.80037	-2.95769	0.773945	2.37684	-14.6732	651.976	197.696	282.825	209.581	64.2312	169.046	272.06	1.63411	19.25	40.1444	13.2735	-74.6063	1.45302	2.70331	118.486	-86.8549	-310.37	-2.03141	1166.48	147.513	178.367	-30.0957	-16.4061	4.57541	-60.4889	-165.963	-95.022	-1.40127	114.573	-1.31192	-1.35005	-1.27668	-1.33583	-32.717	12.0393	41.9731	15.7066	-4.57159	-16.2503	-53.4659	-2.08651	-42.4966	-63.2359	-34.6452	-61.3513	-2.08002	-2.35397	-0.85277	-23.0297	-1.28567	8.73982	-2.25601	-9.97924	-35.7553	-0.657482	-3.17498	-18.0794	3.96297	-12.1536	-1.00839	1.75483	-0.410879	88.0032	-52.0282	-46.7352	-146.885	-78.6523	
3.6	-29.1478	-12.5693	65.3753	77.8395	42.8222	-10.7065	708.331	120.253	-4.9971	-2.54725	0.655308	2.02053	-14.6413	697.66	181.375	255.216	181.729	68.8581	154.162	249.129	3.12031	19.457	39.3231	14.0603	-68.6383	1.23952	2.30512	110.458	-80.9039	-299.309	-0.270605	1188.91	148.513	152.072	-22.6719	-14.121	3.88484	-68.4205	-187.56	-107.205	-1.40083	116.832	-1.31094	-1.34975	-1.27624	-1.33542	-30.8183	12.2605	45.691	16.3775	-5.50834	-18.6397	-65.3034	-2.0824	-43.7856	-65.0354	-35.0172	-61.7376	-2.06751	-2.34128	-0.852492	-23.5806	-1.24816	8.87819	-2.25531	-11.4608	-40.7703	-0.656164	-56.4398	-22.2183	3.96217	-10.8106	-0.771758	3.94599	-0.410091	101.581	-61.0976	-49.2055	-236.743	-83.4028	
3.605	-28.8575	-11.1771	55.0934	66.0386	33.0459	-10.6969	711.165	146.179	-4.28439	-2.1837	0.553792	1.71246	-14.64	749.673	165.564	228.337	154.763	74.688	141.507	227.497	5.3214	20.3477	39.3123	14.7846	-62.1763	1.05304	1.95969	99.6253	-74.4935	-266.419	1.44661	1194.2	149.727	129.191	-17.682	-12.0997	3.29004	-76.5385	-209.75	-119.585	-1.40039	109.407	-1.31024	-1.34928	-1.27579	-1.33501	-29.1997	12.3141	48.9052	16.7279	-6.49241	-21.177	-78.2486	-2.0783	-45.0429	-66.7841	-35.3699	-60.9739	-2.05695	-2.33449	-0.85221	-24.2916	-1.21436	8.95397	-27.9216	-12.2024	-45.7333	-0.654849	-8.36502	-25.2505	4.00541	-10.0755	-0.666879	2.70702	-0.409304	121.643	-70.5627	-51.3275	-153.565	-87.4241	
3.61	-28.8327	-10.0223	45.0948	54.7827	23.1534	-10.6871	702.641	172.803	-3.66856	-1.86983	0.468195	1.45306	37.3567	808.111	150.617	202.777	129.313	84.2068	131.339	207.531	8.04748	21.7778	40.1675	15.4588	-55.5983	0.89492	1.66539	85.3417	-67.9248	-197.927	3.06556	1197.07	151.354	109.679	-14.2839	-10.3544	2.78704	-85.4411	-234.22	-133.014	-1.39997	103.114	-1.30968	-1.34881	-1.27535	-1.33461	-27.8308	12.2285	51.1344	17.2587	-7.489	-23.8685	-91.9954	-2.07421	-46.2357	-68.4289	-35.6454	-58.8348	-2.05229	-2.33068	-0.851928	-24.7988	-1.18396	8.98132	5.80113	-12.9258	-50.5642	-0.653537	78.1479	-27.4306	3.87115	-9.83047	-0.655048	3.8783	-0.408515	158.939	-80.2494	-52.9913	-168.908	-90.3913	
3.615	-29.0121	-9.05458	35.7025	44.4056	13.5731	-10.6772	690.464	198.711	-3.15193	-1.60673	0.398053	1.23854	303.17	863.843	136.858	179.055	105.958	96.0557	127.715	189.535	11.077	23.5628	40.1203	16.0725	-49.1822	0.7638	1.423	73.6305	-61.467	-151.459	4.53421	1209.85	153.407	93.5322	-11.8526	-8.89658	2.37334	-95.6828	-262.699	-148.493	30.6508	99.5359	-1.3092	-1.34835	-1.2749	-1.3342	-26.6677	12.0356	52.1417	17.9992	-8.58759	-26.7203	-106.03	-2.07013	-47.3339	-69.9221	-35.7902	-58.9906	-2.05034	-2.32789	-0.851646	-25.4105	-1.15668	8.97553	16.7495	-13.67	-55.1708	-0.652227	141.181	-29.0363	3.5726	-9.93218	-0.646041	4.14605	-0.407728	167.595	-89.9594	-54.1252	-124.246	-92.1896	
3.62	-29.3217	-8.23636	27.2192	35.1724	4.72088	-10.6671	682.101	222.541	-2.7378	-1.39614	0.34224	1.06957	410.634	906.944	124.581	157.744	85.2119	108.836	123.756	173.713	14.162	25.49	39.1638	16.6051	-43.1963	0.658665	1.2294	64.456	-55.4102	-120.083	5.8057	1225.94	155.732	80.6915	-10.0244	-7.72871	2.04645	-106.204	-292.456	-164.467	57.2406	97.3983	-1.30876	-1.34791	-1.27445	33.4091	-25.6542	11.7696	52.2114	18.9797	-10.0053	-29.9713	-119.438	-2.06605	-48.3142	-71.2284	-35.7565	-59.9512	-2.04908	-2.32509	-0.851363	-26.4326	-1.1323	8.95296	25.7014	-14.2711	-59.4673	-0.650921	35.2441	-30.3749	3.39298	-10.2232	-0.632573	4.23294	-0.406943	163.894	-99.4803	-54.6668	-90.5016	-92.8822	
3.625	-29.6924	-7.53911	19.9233	27.2952	-3.02599	-10.657	676.958	243.026	-2.42743	-1.23876	0.30088	0.943839	418.878	931.857	114.066	139.327	67.5269	121.443	120.566	161.749	17.0494	27.3451	39.3829	17.0337	-37.891	0.580623	1.08657	56.7944	-50.051	-98.5041	6.83933	1222.33	158.318	71.1507	-8.60879	-6.85836	1.80278	-114.835	-317.421	-177.462	37.1776	95.1832	-1.30835	-1.34747	-1.27401	46.6161	-24.7249	11.4634	51.6855	20.4477	-11.6923	-33.7897	-131.235	-2.06199	-49.1603	-72.3174	-35.5017	-61.1142	-2.04772	-2.32212	-0.851079	-26.9637	-1.11061	8.93008	35.1097	-14.7839	-63.3664	-0.649617	29.3737	-31.7417	3.23447	-10.5426	-0.606477	4.1583	-0.406159	167.232	-108.579	-54.4134	-44.6197	-92.6863	
3.63	-30.0577	-6.9408	14.0397	20.9528	-9.32331	-10.6467	673.569	259.066	-2.22237	-1.13557	0.273531	0.862345	408.383	944.773	105.567	124.268	53.2834	132.76	118.859	155.996	19.4801	28.9156	39.365	17.3502	-33.5136	0.528264	0.991549	50.5524	-45.607	-82.629	7.60432	1197.4	161.298	64.84	-7.49081	-6.28911	1.64273	-122.067	-336.453	-187.171	40.0431	89.6752	-1.30794	-1.34704	-1.27356	33.6653	-23.8076	11.1482	50.6985	22.9244	-13.5061	-38.4881	-138.843	-2.05793	-49.8532	-73.1675	-34.9889	-62.6201	-2.04618	-2.31905	-0.850795	-27.5056	-1.09144	8.9223	47.5558	-15.2111	-66.7872	-0.648317	42.3632	-33.2619	3.03368	-10.7239	-0.53445	4.07138	-0.405376	165.565	-117.04	-53.1903	-7.87396	-91.8499	
3.635	-30.3601	-6.42423	9.76621	16.2897	-13.8798	-10.6363	665.572	270.154	-2.1244	-1.08667	0.259467	0.822621	409.545	946.942	99.3276	112.872	42.7952	141.732	117.937	149.92	21.2291	30.0058	39.2184	17.5481	-30.2587	0.501584	0.945709	45.7497	-42.2734	-70.5175	8.07566	1171.46	164.202	61.7144	-6.59497	-6.02179	1.56378	-138.554	-363.409	-209.989	41.7464	83.3843	-1.30754	-1.3466	-1.2731	34.7514	-22.8264	10.8524	49.4657	27.977	-15.3723	-43.661	-142.857	-2.05388	-50.3462	-73.7647	-34.1874	-64.6662	-2.04454	-2.31593	-0.85051	-28.8188	-1.07465	8.94365	61.4021	-15.5463	-69.6563	-0.647019	42.9637	-35.2948	2.80689	-10.5102	-0.382352	3.98674	-0.404595	164.45	-124.644	-50.3398	-3.6335	-90.7393	
3.64	-30.5466	-5.97582	7.23384	13.3945	-16.4711	-10.6258	648.731	273.164	-2.13342	-1.09307	0.258782	0.825364	415.053	922.204	95.5465	105.706	36.2715	147.585	117.648	147.058	22.0875	30.451	38.8983	17.6265	-28.2828	0.500093	0.94819	42.8497	-40.2132	-61.0418	8.23932	1155.44	164.138	61.7414	-5.86771	-6.05889	1.5636	-155.847	-421.877	-239.122	40.925	77.5947	-1.30715	-1.34617	-1.27265	36.3178	-21.7046	10.5991	48.2527	34.0613	-16.7824	-49.3596	-154.022	-2.04984	-50.5967	-74.0989	-33.0708	-67.2627	-2.04289	-2.31281	-0.850224	-30.209	-1.06011	9.00583	37.3695	-15.7987	-71.9014	-0.645724	39.1102	-38.1378	2.56163	-9.81159	-0.12479	3.9062	-0.403814	160.854	-131.181	-43.538	-3.25921	-89.7315	
3.645	-30.5703	-5.5847	6.53931	12.3089	-16.9326	-10.6151	627.643	263.329	-2.24918	-1.15413	0.270808	0.869157	414.491	864.5	94.3675	102.794	33.8137	149.388	117.907	146.949	21.8891	30.1128	38.2918	17.5809	-27.6968	0.523983	0.998178	41.7592	-39.5499	-53.5083	8.09305	1159.13	160.938	64.84	-5.27019	-6.39919	1.64261	-170.676	-473.666	-263.716	40.158	72.0417	-1.30675	-1.34574	-1.2722	35.8936	-20.3678	10.4064	46.7516	30.3269	-19.3055	-55.6708	-155.044	-2.0458	-50.4751	-74.1651	-31.6177	-70.3623	-2.04122	-2.30969	-0.849938	-31.5806	-1.0477	9.11524	55.2269	-15.9561	-73.4567	-0.644432	37.9982	-41.9582	2.38954	-8.58377	0.25528	3.82488	-0.403035	154.5	-136.489	-37.3559	-3.42463	-89.1763	
