Coordinates
version=1
nRows=99
nColumns=40
inDegrees=yes

Units are S.I. units (second, meters, Newtons, ...)
If the header above contains a line with 'inDegrees', this indicates whether rotational values are in degrees (yes) or radians (no).

endheader
time	pelvis_tilt	pelvis_list	pelvis_rotation	pelvis_tx	pelvis_ty	pelvis_tz	hip_flexion_r	hip_adduction_r	hip_rotation_r	knee_angle_r	knee_angle_r_beta	ankle_angle_r	subtalar_angle_r	mtp_angle_r	hip_flexion_l	hip_adduction_l	hip_rotation_l	knee_angle_l	knee_angle_l_beta	ankle_angle_l	subtalar_angle_l	mtp_angle_l	lumbar_extension	lumbar_bending	lumbar_rotation	arm_flex_r	arm_add_r	arm_rot_r	elbow_flex_r	pro_sup_r	wrist_flex_r	wrist_dev_r	arm_flex_l	arm_add_l	arm_rot_l	elbow_flex_l	pro_sup_l	wrist_flex_l	wrist_dev_l
      4.27000000	    -15.90232154	     13.20089858	     -4.82536807	     -4.20610645	      0.89769749	      0.29531561	    -16.96669237	    -11.71828364	     -7.36028766	     18.53315089	      0.32346450	    -17.76391674	      0.00000000	      0.00000000	     68.35782475	      5.01848050	     -6.95040281	     93.38141688	      1.62981318	     25.63569583	      0.00000000	      0.00000000	    -21.72770189	    -17.41167788	      4.89132776	     34.69748481	    -14.40291452	     32.98419206	    124.51991903	     85.67774495	      0.00000000	      0.00000000	    -59.88832859	    -31.96131347	    -19.80299479	    118.99367684	      3.02299370	      0.00000000	      0.00000000
      4.27500000	    -15.81389056	     13.36031268	     -4.15130383	     -4.17856220	      0.89942534	      0.29507802	    -18.08489753	    -11.51644545	     -6.40494505	     18.60083635	      0.32464584	    -20.23109520	      0.00000000	      0.00000000	     68.23119343	      5.51115684	     -7.35701744	     89.83930326	      1.56799164	     25.67366078	      0.00000000	      0.00000000	    -21.88316627	    -17.63952142	      4.49421900	     33.79974750	    -14.96740843	     33.11216397	    124.07496570	     87.95796590	      0.00000000	      0.00000000	    -60.18519770	    -32.04247371	    -20.09623522	    119.60848138	      1.32634657	      0.00000000	      0.00000000
      4.28000000	    -15.65905431	     13.35659191	     -3.47885330	     -4.15110254	      0.90137969	      0.29483573	    -19.01737770	    -11.09411850	     -5.22749563	     19.18007796	      0.33475551	    -22.01771391	      0.00000000	      0.00000000	     67.78106223	      5.95236702	     -7.64704932	     86.19982658	      1.50447079	     25.60738691	      0.00000000	      0.00000000	    -22.16682827	    -17.67314887	      4.09231776	     32.69243362	    -15.49646092	     33.21935849	    123.37790615	     87.94349097	      0.00000000	      0.00000000	    -60.07757413	    -32.06799290	    -20.16342298	    119.95974331	      1.33164750	      0.00000000	      0.00000000
      4.28500000	    -15.41476656	     13.19030325	     -2.80710096	     -4.12372410	      0.90353876	      0.29457789	    -19.77859111	    -10.45247232	     -3.91416222	     20.28030425	      0.35395808	    -23.18657307	      0.00000000	      0.00000000	     67.00147408	      6.34570122	     -7.81153793	     82.50659876	      1.44001180	     25.43541113	      0.00000000	      0.00000000	    -22.59281080	    -17.49500793	      3.75785988	     31.39773389	    -16.04406147	     33.09532548	    122.44954097	     88.04844243	      0.00000000	      0.00000000	    -59.46165747	    -32.16405293	    -19.89133057	    120.14978206	      1.32578423	      0.00000000	      0.00000000
      4.29000000	    -15.06596117	     12.88268510	     -2.14008415	     -4.09640497	      0.90586477	      0.29428963	    -20.37208144	     -9.62112945	     -2.58187058	     21.91285621	      0.38245149	    -23.82544728	      0.00000000	      0.00000000	     65.89665082	      6.69261134	     -7.86655562	     78.80287523	      1.37536963	     25.14052599	      0.00000000	      0.00000000	    -23.16883018	    -17.13508185	      3.49378293	     29.87680995	    -16.57372497	     32.64339882	    121.31516477	     88.10127999	      0.00000000	      0.00000000	    -58.40827682	    -32.33359224	    -19.30946936	    120.25369613	      1.34259990	      0.00000000	      0.00000000
      4.29500000	    -14.60576848	     12.46083412	     -1.48591728	     -4.06914621	      0.90829885	      0.29394717	    -20.78926108	     -8.64435911	     -1.34908191	     24.08917858	      0.42043548	    -24.03589646	      0.00000000	      0.00000000	     64.48592418	      6.99080505	     -7.83195684	     75.13701521	      1.31138831	     24.71936611	      0.00000000	      0.00000000	    -23.89046430	    -16.61440065	      3.28698268	     28.18778082	    -17.08132847	     31.93264392	    119.98728622	     88.11253393	      0.00000000	      0.00000000	    -56.92217461	    -32.53449935	    -18.42741194	    120.26091686	      1.33315899	      0.00000000	      0.00000000
      4.30000000	    -14.03933581	     11.96404302	     -0.84895375	     -4.04196012	      0.91076835	      0.29350715	    -21.01568037	     -7.58877213	     -0.34383938	     26.80391613	      0.46781659	    -23.94921173	      0.00000000	      0.00000000	     62.80191038	      7.24677962	     -7.73656618	     71.55374778	      1.24884849	     24.17141207	      0.00000000	      0.00000000	    -24.74042570	    -15.97030520	      3.13746865	     26.34696354	    -17.54903400	     30.92325072	    118.48306979	     88.14645364	      0.00000000	      0.00000000	    -55.04498281	    -32.76049787	    -17.25401668	    120.19188786	      1.34025920	      0.00000000	      0.00000000
      4.30500000	    -13.38475066	     11.43032125	     -0.23566150	     -4.01488829	      0.91318557	      0.29293022	    -21.02423311	     -6.52734504	      0.34169231	     30.04731420	      0.52442456	    -23.66798630	      0.00000000	      0.00000000	     60.89291851	      7.46415228	     -7.60766351	     68.09535372	      1.18848813	     23.49606337	      0.00000000	      0.00000000	    -25.69078639	    -15.24129836	      3.04152546	     24.38847829	    -17.97734623	     29.64829297	    116.83999722	     88.16369736	      0.00000000	      0.00000000	    -52.80435288	    -32.97968140	    -15.81180227	    120.05854525	      1.33765325	      0.00000000	      0.00000000
      4.31000000	    -12.66105979	     10.89292546	      0.35002734	     -3.98798321	      0.91545928	      0.29218260	    -20.79934114	     -5.53328827	      0.64841011	     33.78502854	      0.58965999	    -23.27768532	      0.00000000	      0.00000000	     58.80631733	      7.64894475	     -7.46646668	     64.80089157	      1.13098892	     22.70634897	      0.00000000	      0.00000000	    -26.71809607	    -14.46221529	      2.97139070	     22.36410913	    -18.35582070	     28.14476577	    115.08053546	     88.17841459	      0.00000000	      0.00000000	    -50.26683898	    -33.14718291	    -14.14676503	    119.88336203	      1.33143661	      0.00000000	      0.00000000
      4.31500000	    -11.90851724	     10.38390949	      0.90128055	     -3.96129574	      0.91749148	      0.29124890	    -20.31356538	     -4.68136231	      0.57011204	     37.96299138	      0.66257919	    -22.83174559	      0.00000000	      0.00000000	     56.60562789	      7.80506256	     -7.33877109	     61.69697658	      1.07681538	     21.81784017	      0.00000000	      0.00000000	    -27.76762935	    -13.66925403	      2.95747200	     20.26194785	    -18.68025533	     26.39005500	    113.23755572	     88.18961353	      0.00000000	      0.00000000	    -47.42469862	    -33.29052624	    -12.22997811	    119.65046150	      1.34404520	      0.00000000	      0.00000000
      4.32000000	    -11.15334949	      9.91059336	      1.41879825	     -3.93486988	      0.91919795	      0.29014192	    -19.57254549	     -4.00627408	      0.15265421	     42.49639605	      0.74170203	    -22.33804070	      0.00000000	      0.00000000	     54.33902304	      7.92769391	     -7.23093869	     58.81601264	      1.02653307	     20.85255105	      0.00000000	      0.00000000	    -28.81573660	    -12.87692081	      2.94257930	     18.15585035	    -18.95476100	     24.48826688	    111.34741958	     88.20014442	      0.00000000	      0.00000000	    -44.38001744	    -33.31658427	    -10.18079935	    119.39844931	      1.34294751	      0.00000000	      0.00000000
      4.32500000	    -10.42871355	      9.47135486	      1.90531497	     -3.90871715	      0.92050982	      0.28888726	    -18.58093412	     -3.52100696	     -0.52506154	     47.29213555	      0.82540348	    -21.75796443	      0.00000000	      0.00000000	     52.05651543	      8.00836243	     -7.14848452	     56.18478933	      0.98060956	     19.84934713	      0.00000000	      0.00000000	    -29.82044211	    -12.09275441	      2.92302009	     16.05091850	    -19.17192528	     22.45649411	    109.43655246	     88.21092415	      0.00000000	      0.00000000	    -41.18165357	    -33.21645594	     -8.02830853	    119.13547177	      1.33461445	      0.00000000	      0.00000000
      4.33000000	     -9.75616426	      9.05740258	      2.37210771	     -3.88283289	      0.92138575	      0.28751732	    -17.36095569	     -3.21164712	     -1.37606427	     52.25062755	      0.91194549	    -21.03789617	      0.00000000	      0.00000000	     49.79359708	      8.04090902	     -7.09058686	     53.83253128	      0.93955492	     18.86169444	      0.00000000	      0.00000000	    -30.75126339	    -11.31269757	      2.89723014	     13.96271281	    -19.34511462	     20.32476468	    107.53156199	     88.22336834	      0.00000000	      0.00000000	    -37.85253832	    -33.00707623	     -5.79382168	    118.84626450	      1.33706263	      0.00000000	      0.00000000
      4.33500000	     -9.14440986	      8.65206324	      2.83864699	     -3.85719621	      0.92182367	      0.28606386	    -15.94369427	     -3.04000058	     -2.32328431	     57.28317971	      0.99978009	    -20.10247073	      0.00000000	      0.00000000	     47.56852711	      8.02046360	     -7.04514206	     51.78251420	      0.90377537	     17.94789033	      0.00000000	      0.00000000	    -31.59898078	    -10.51709499	      2.82929509	     11.91017611	    -19.47645297	     18.16129458	    105.65484826	     88.23331577	      0.00000000	      0.00000000	    -34.45100079	    -32.65818132	     -3.53428412	    118.54062122	      1.35362922	      0.00000000	      0.00000000
      4.34000000	     -8.58663490	      8.25582836	      3.32700791	     -3.83178096	      0.92186118	      0.28454928	    -14.37077638	     -2.98006286	     -3.32079950	     62.31192684	      1.08754829	    -18.89225984	      0.00000000	      0.00000000	     45.38024114	      7.95920998	     -7.00972337	     50.05632732	      0.87364772	     17.18749300	      0.00000000	      0.00000000	    -32.37705258	     -9.70754759	      2.67979163	      9.90430552	    -19.57277953	     15.98782740	    103.85064342	     88.24846087	      0.00000000	      0.00000000	    -31.04521177	    -32.17350287	     -1.33277240	    118.25754403	      1.34903717	      0.00000000	      0.00000000
      4.34500000	     -8.07480823	      7.86629271	      3.86638610	     -3.80656407	      0.92154209	      0.28297561	    -12.67723484	     -3.00553246	     -4.35200704	     67.27472486	      1.17416545	    -17.38001668	      0.00000000	      0.00000000	     43.22736889	      7.87379394	     -6.96526753	     48.67736550	      0.84958030	     16.67261506	      0.00000000	      0.00000000	    -33.08454554	     -8.86736795	      2.41346321	      7.97360644	    -19.65513972	     13.87896679	    102.09989933	     88.24770191	      0.00000000	      0.00000000	    -27.64729151	    -31.57807202	      0.80047656	    117.97474059	      1.36005431	      0.00000000	      0.00000000
      4.35000000	     -7.60875026	      7.49126794	      4.46968570	     -3.78153314	      0.92090781	      0.28133879	    -10.87538138	     -3.11208277	     -5.40152539	     72.13376081	      1.25897163	    -15.56333093	      0.00000000	      0.00000000	     41.11541917	      7.78067617	     -6.90267008	     47.66104128	      0.83184210	     16.49291462	      0.00000000	      0.00000000	    -33.72663329	     -7.99984989	      1.99439270	      6.12257345	    -19.73586226	     11.86626171	    100.44634742	     88.26578065	      0.00000000	      0.00000000	    -24.30766849	    -30.87473277	      2.79469286	    117.72200042	      1.36162366	      0.00000000	      0.00000000
      4.35500000	     -7.18115430	      7.13628059	      5.14573976	     -3.75668254	      0.92000386	      0.27964044	     -8.97980230	     -3.29758137	     -6.45837180	     76.85934853	      1.34144869	    -13.46799727	      0.00000000	      0.00000000	     39.04307138	      7.69430969	     -6.80150689	     47.01498237	      0.82056624	     16.72236102	      0.00000000	      0.00000000	    -34.31129541	     -7.10645939	      1.40419907	      4.34242790	    -19.83328447	      9.96349979	     98.92150537	     88.25096571	      0.00000000	      0.00000000	    -21.05322320	    -30.08527668	      4.62170952	    117.52016916	      1.36827583	      0.00000000	      0.00000000
      4.36000000	     -6.79648781	      6.81308339	      5.89238338	     -3.73201131	      0.91886892	      0.27788977	     -6.98583369	     -3.57479781	     -7.50604766	     81.43436627	      1.42129782	    -11.14704285	      0.00000000	      0.00000000	     37.01797677	      7.63014860	     -6.64091160	     46.71919520	      0.81540378	     17.40397101	      0.00000000	      0.00000000	    -34.82853945	     -6.19742731	      0.63082333	      2.64148683	    -19.96430790	      8.21444489	     97.52704252	     88.27866702	      0.00000000	      0.00000000	    -17.87603892	    -29.24580824	      6.26886979	    117.35908086	      1.35961328	      0.00000000	      0.00000000
      4.36500000	     -6.45477327	      6.52186847	      6.69559723	     -3.70751598	      0.91755363	      0.27611097	     -4.88795102	     -3.94289054	     -8.51274852	     85.83886484	      1.49817082	     -8.66916189	      0.00000000	      0.00000000	     35.04565126	      7.58436507	     -6.40470742	     46.73495820	      0.81567890	     18.51151325	      0.00000000	      0.00000000	    -35.27238294	     -5.28197136	     -0.28607017	      0.97990088	    -20.15974998	      6.60644894	     96.30183180	     88.23631585	      0.00000000	      0.00000000	    -14.73584398	    -28.39709488	      7.78743436	    117.21670544	      1.38248562	      0.00000000	      0.00000000
      4.37000000	     -6.16848769	      6.25821783	      7.55111671	     -3.68320829	      0.91609167	      0.27432480	     -2.66498036	     -4.39681384	     -9.45421248	     90.05844105	      1.57181632	     -6.10273182	      0.00000000	      0.00000000	     33.14972140	      7.55215296	     -6.06482116	     47.00398970	      0.82037438	     19.93608081	      0.00000000	      0.00000000	    -35.63604484	     -4.35704926	     -1.39459010	     -0.60049534	    -20.44065810	      5.21319392	     95.24477330	     88.24677010	      0.00000000	      0.00000000	    -11.70107492	    -27.53980583	      9.08994791	    117.15865162	      1.35362588	      0.00000000	      0.00000000
      4.37500000	     -5.93372229	      6.01545115	      8.42293561	     -3.65902471	      0.91454798	      0.27258808	     -0.31647590	     -4.92303636	    -10.28391906	     94.06197720	      1.64169120	     -3.51058663	      0.00000000	      0.00000000	     31.33098969	      7.50397673	     -5.64106314	     47.46399614	      0.82840301	     21.58201310	      0.00000000	      0.00000000	    -35.91120144	     -3.44520408	     -2.52133763	     -2.27205693	    -20.76274099	      3.79353787	     94.44993813	     88.24963186	      0.00000000	      0.00000000	     -8.61993559	    -26.70980590	     10.32670611	    117.06414222	      1.35147079	      0.00000000	      0.00000000
      4.38000000	     -5.78298463	      5.77407237	      9.28920777	     -3.63497469	      0.91292283	      0.27092547	      2.21410302	     -5.49891331	    -10.96050383	     97.84042715	      1.70763760	     -0.95605917	      0.00000000	      0.00000000	     29.63998247	      7.41168465	     -5.13770541	     48.05898932	      0.83878760	     23.31406561	      0.00000000	      0.00000000	    -36.06324838	     -2.54526931	     -3.68168304	     -3.98738141	    -21.16464862	      2.44685715	     93.88744938	     88.23168495	      0.00000000	      0.00000000	     -5.52537141	    -25.91037096	     11.46545366	    116.96302828	      1.37976714	      0.00000000	      0.00000000
      4.38500000	     -5.72380793	      5.52209852	     10.12582893	     -3.61099678	      0.91123500	      0.26935435	      4.94075327	     -6.10520216	    -11.45544438	    101.36744289	      1.76919563	      1.52689569	      0.00000000	      0.00000000	     28.08236653	      7.25803240	     -4.57139122	     48.72824635	      0.85046834	     25.03624101	      0.00000000	      0.00000000	    -36.07769025	     -1.66217151	     -4.82687770	     -5.78550885	    -21.65530705	      1.14064487	     93.55855038	     88.22943629	      0.00000000	      0.00000000	     -2.40830676	    -25.16013065	     12.56367799	    116.83391800	      1.37570214	      0.00000000	      0.00000000
      4.39000000	     -5.76890862	      5.24589015	     10.90328170	     -3.58703338	      0.90950892	      0.26789836	      7.88903082	     -6.71801989	    -11.74086912	    104.61792716	      1.82592729	      3.89975661	      0.00000000	      0.00000000	     26.65409767	      7.02543018	     -3.97230600	     49.39413787	      0.86209034	     26.67633825	      0.00000000	      0.00000000	    -35.93605509	     -0.81776606	     -5.94343222	     -7.63295589	    -22.23954469	     -0.06970475	     93.40703752	     88.18832568	      0.00000000	      0.00000000	      0.68699463	    -24.49000639	     13.61794970	    116.73680650	      1.38685937	      0.00000000	      0.00000000
      4.39500000	     -5.92115394	      4.93699240	     11.59660416	     -3.56302602	      0.90775499	      0.26655271	     11.06838817	     -7.31594472	    -11.79864987	    107.56861091	      1.87742643	      6.14188781	      0.00000000	      0.00000000	     25.33462225	      6.71041952	     -3.36552370	     49.99185890	      0.87252254	     28.18913337	      0.00000000	      0.00000000	    -35.64430186	     -0.00329615	     -6.92697345	     -9.66511503	    -22.87862855	     -1.38402488	     93.52279555	     88.19854494	      0.00000000	      0.00000000	      3.79443001	    -23.82566971	     14.63175544	    116.59816985	      1.35946912	      0.00000000	      0.00000000
      4.40000000	     -6.18445518	      4.58404717	     12.19414940	     -3.53890982	      0.90597558	      0.26532303	     14.48276563	     -7.87022278	    -11.63360760	    110.19348085	      1.92323906	      8.22709471	      0.00000000	      0.00000000	     24.10017542	      6.30837330	     -2.77450590	     50.46036775	      0.88069956	     29.55370085	      0.00000000	      0.00000000	    -35.18266141	      0.77238924	     -7.78150450	    -11.83194531	    -23.58637364	     -2.71581349	     93.81749466	     88.16281829	      0.00000000	      0.00000000	      6.89967400	    -23.20550971	     15.65238800	    116.41197610	      1.36907674	      0.00000000	      0.00000000
      4.40500000	     -6.54621848	      4.17783995	     12.67904358	     -3.51463100	      0.90417638	      0.26420980	     18.11789932	     -8.35067903	    -11.25522899	    112.47246188	      1.96301478	     10.14275711	      0.00000000	      0.00000000	     22.91204795	      5.81345102	     -2.22408123	     50.75194980	      0.88578863	     30.75629204	      0.00000000	      0.00000000	    -34.57973399	      1.51947933	     -8.50011680	    -14.15103097	    -24.32488868	     -4.12270863	     94.32016637	     88.16573562	      0.00000000	      0.00000000	      9.91272502	    -22.63518510	     16.60844180	    116.28974872	      1.34333382	      0.00000000	      0.00000000
      4.41000000	     -6.97826718	      3.71633963	     13.03383504	     -3.49013204	      0.90237790	      0.26322671	     21.93288108	     -8.72317642	    -10.67896397	    114.38642384	      1.99641972	     11.88001309	      0.00000000	      0.00000000	     21.71591780	      5.21792204	     -1.74592432	     50.82975635	      0.88714661	     31.79057051	      0.00000000	      0.00000000	    -33.85187084	      2.23352557	     -9.00828739	    -16.65878857	    -25.10859061	     -5.61371198	     94.99220960	     88.13772007	      0.00000000	      0.00000000	     12.90399012	    -22.08191523	     17.59011014	    116.13427726	      1.38827380	      0.00000000	      0.00000000
      4.41500000	     -7.47012544	      3.19171465	     13.25770234	     -3.46537172	      0.90058187	      0.26237156	     25.90092203	     -8.95564236	     -9.94152333	    115.92204303	      2.02322133	     13.43168763	      0.00000000	      0.00000000	     20.48843869	      4.51755094	     -1.35516623	     50.67674740	      0.88447610	     32.64499792	      0.00000000	      0.00000000	    -33.01756432	      2.93290163	     -9.37642700	    -19.27758700	    -25.91049766	     -7.14230612	     95.77106504	     88.12835925	      0.00000000	      0.00000000	     15.73913203	    -21.57586567	     18.47775618	    116.07648940	      1.36832260	      0.00000000	      0.00000000
      4.42000000	     -7.99013847	      2.60067948	     13.34878693	     -3.44032179	      0.89881329	      0.26164455	     29.96155156	     -9.01874792	     -9.08931598	    117.06925543	      2.04324396	     14.80127294	      0.00000000	      0.00000000	     19.19140431	      3.70541963	     -1.06394948	     50.29200694	      0.87776111	     33.30351776	      0.00000000	      0.00000000	    -32.10788268	      3.63235155	     -9.54354630	    -22.05534324	    -26.72304190	     -8.74440258	     96.66622104	     88.10193559	      0.00000000	      0.00000000	     18.48661617	    -21.11065351	     19.35198806	    116.04503115	      1.39990325	      0.00000000	      0.00000000
      4.42500000	     -8.51844276	      1.95059577	     13.30915510	     -3.41494453	      0.89710867	      0.26102868	     34.05759694	     -8.90566654	     -8.16978451	    117.82115304	      2.05636705	     15.99086239	      0.00000000	      0.00000000	     17.79471072	      2.79178357	     -0.87814723	     49.66932862	      0.86689332	     33.74120669	      0.00000000	      0.00000000	    -31.15492757	      4.34108052	     -9.55136828	    -24.94962785	    -27.53196749	    -10.40021328	     97.64096916	     88.07368598	      0.00000000	      0.00000000	     21.07257075	    -20.67437713	     20.12848774	    116.10978973	      1.40265668	      0.00000000	      0.00000000
      4.43000000	     -9.02994741	      1.24241291	     13.14457741	     -3.38922108	      0.89551871	      0.26050880	     38.12151454	     -8.60759271	     -7.23649210	    118.17400660	      2.06252551	     17.01001268	      0.00000000	      0.00000000	     16.27359846	      1.77956201	     -0.79621125	     48.81754626	      0.85202691	     33.92383226	      0.00000000	      0.00000000	    -30.18913850	      5.07768989	     -9.40176158	    -27.94183419	    -28.32456084	    -12.10986023	     98.67266027	     88.04042526	      0.00000000	      0.00000000	     23.49204619	    -20.28231924	     20.81616746	    116.26765644	      1.41433214	      0.00000000	      0.00000000
      4.43500000	     -9.50111185	      0.48727351	     12.85695119	     -3.36312028	      0.89411609	      0.26006295	     42.08041340	     -8.13385850	     -6.33481125	    118.12525541	      2.06167464	     17.87028077	      0.00000000	      0.00000000	     14.59934920	      0.68366236	     -0.82036549	     47.73793993	      0.83318423	     33.81110283	      0.00000000	      0.00000000	    -29.24604289	      5.84615568	     -9.12205176	    -30.99094568	    -29.10764821	    -13.83471007	     99.72841108	     88.00762610	      0.00000000	      0.00000000	     25.71932680	    -19.93958681	     21.38126184	    116.52238335	      1.42960660	      0.00000000	      0.00000000
      4.44000000	     -9.91191763	     -0.30863467	     12.45748864	     -3.33662569	      0.89298494	      0.25966564	     45.86214678	     -7.50074774	     -5.51485751	    117.67360404	      2.05379183	     18.59093846	      0.00000000	      0.00000000	     12.75179397	     -0.47925952	     -0.93763322	     46.43186490	      0.81038892	     33.35195881	      0.00000000	      0.00000000	    -28.35852593	      6.65675613	     -8.71581079	    -34.07595402	    -29.86254986	    -15.57845283	    100.77147160	     87.96392216	      0.00000000	      0.00000000	     27.74747030	    -19.62312103	     21.82366607	    116.86167679	      1.42464310	      0.00000000	      0.00000000
      4.44500000	    -10.23993662	     -1.12733631	     11.95084537	     -3.30971564	      0.89221631	      0.25929719	     49.39127955	     -6.73621458	     -4.80677328	    116.82152289	      2.03892021	     19.19250650	      0.00000000	      0.00000000	     10.70314254	     -1.67865201	     -1.14280195	     44.89629874	      0.78358823	     32.49943126	      0.00000000	      0.00000000	    -27.56405827	      7.50053276	     -8.20039375	    -37.16513858	    -30.61242895	    -17.27488553	    101.79024365	     87.93571390	      0.00000000	      0.00000000	     29.59861119	    -19.38141384	     22.19786388	    117.27047548	      1.43436268	      0.00000000	      0.00000000
      4.45000000	    -10.49595167	     -1.95331266	     11.34345281	     -3.28237716	      0.89185233	      0.25894504	     52.63732477	     -5.87054609	     -4.22285755	    115.58218378	      2.01728966	     19.70006682	      0.00000000	      0.00000000	      8.46634170	     -2.87453576	     -1.42467384	     43.13367333	      0.75282462	     31.19332274	      0.00000000	      0.00000000	    -26.86774241	      8.37267895	     -7.61799257	    -40.17458788	    -31.31525381	    -18.96280302	    102.72257494	     87.89205076	      0.00000000	      0.00000000	     31.17728331	    -19.18505572	     22.38545353	    117.81477156	      1.43113206	      0.00000000	      0.00000000
      4.45500000	    -10.67241205	     -2.76822204	     10.65670712	     -3.25462604	      0.89194915	      0.25857897	     55.54805644	     -4.94924192	     -3.78005977	    113.96800508	      1.98911693	     20.14233444	      0.00000000	      0.00000000	      6.04273867	     -4.01951462	     -1.74398423	     41.15069978	      0.71821520	     29.38801522	      0.00000000	      0.00000000	    -26.28706731	      9.25787357	     -6.97774755	    -43.10486214	    -32.00305354	    -20.56599129	    103.58812198	     87.83849264	      0.00000000	      0.00000000	     32.53043046	    -19.05253336	     22.47541206	    118.42736934	      1.43699800	      0.00000000	      0.00000000
      4.46000000	    -10.78471403	     -3.55639609	      9.90725698	     -3.22646201	      0.89251637	      0.25818362	     58.10536422	     -4.01036175	     -3.47585809	    111.99861343	      1.95474456	     20.54704811	      0.00000000	      0.00000000	      3.46354188	     -5.06791823	     -2.06202533	     38.96462369	      0.68006098	     27.04647488	      0.00000000	      0.00000000	    -25.82112021	     10.14843644	     -6.35182012	    -45.86387618	    -32.69119330	    -22.04127910	    104.33768264	     87.72889229	      0.00000000	      0.00000000	     33.54976433	    -18.99833841	     22.35260599	    119.21001074	      1.44549099	      0.00000000	      0.00000000
      4.46500000	    -10.82365317	     -4.29239194	      9.11874831	     -3.19793893	      0.89355522	      0.25775422	     60.27656684	     -3.09690235	     -3.29844533	    109.70264829	      1.91467241	     20.94041187	      0.00000000	      0.00000000	      0.75030055	     -5.97258790	     -2.32974593	     36.61585315	      0.63906720	     24.16198716	      0.00000000	      0.00000000	    -25.46470975	     11.00211300	     -5.61662329	    -48.56418894	    -33.26862528	    -23.50326025	    105.00527585	     87.70524690	      0.00000000	      0.00000000	     34.49177221	    -18.99775650	     22.38093188	    119.87608187	      1.44687902	      0.00000000	      0.00000000
      4.47000000	    -10.82302895	     -4.97140337	      8.31659262	     -3.16907972	      0.89501122	      0.25728432	     62.08082434	     -2.24051290	     -3.23900161	    107.10326653	      1.86930464	     21.34127792	      0.00000000	      0.00000000	     -2.01616303	     -6.71256804	     -2.49478113	     34.16923500	      0.59636565	     20.75772863	      0.00000000	      0.00000000	    -25.20182030	     11.82662775	     -4.92224084	    -51.04198146	    -33.82312043	    -24.81118194	    105.54759066	     87.67394987	      0.00000000	      0.00000000	     35.13112282	    -19.08846611	     22.30670400	    120.68866081	      1.45179262	      0.00000000	      0.00000000
      4.47500000	    -10.78641199	     -5.58302307	      7.52109801	     -3.13993399	      0.89683920	      0.25678206	     63.51478738	     -1.46118286	     -3.28008939	    104.22768939	      1.81911635	     21.76323586	      0.00000000	      0.00000000	     -4.78123059	     -7.27769659	     -2.51896599	     31.70531453	      0.55336213	     16.90944396	      0.00000000	      0.00000000	    -25.01895615	     12.60306305	     -4.25378424	    -53.29870246	    -34.32281819	    -26.00463182	    105.97433499	     87.64948795	      0.00000000	      0.00000000	     35.52176828	    -19.24520479	     22.19402005	    121.54577947	      1.45150875	      0.00000000	      0.00000000
      4.48000000	    -10.69805422	     -6.12610632	      6.76392736	     -3.11055635	      0.89901869	      0.25625907	     64.55770203	     -0.77473439	     -3.41500158	    101.09839431	      1.76449985	     22.20280618	      0.00000000	      0.00000000	     -7.50521911	     -7.68183990	     -2.36007635	     29.31120612	      0.51157705	     12.74132564	      0.00000000	      0.00000000	    -24.92250726	     13.31612999	     -3.77179355	    -55.12193747	    -34.99001470	    -26.73479449	    106.20367681	     87.41247003	      0.00000000	      0.00000000	     35.62412567	    -19.60013158	     21.96963305	    122.51577839	      1.63373108	      0.00000000	      0.00000000
      4.48500000	    -10.63584916	     -6.59754993	      6.04468642	     -3.08100194	      0.90138435	      0.25574077	     65.30530063	     -0.17824992	     -3.60399085	     97.73997765	      1.70588442	     22.64362080	      0.00000000	      0.00000000	    -10.03803097	     -7.93096629	     -2.01017639	     27.12466707	      0.47341475	      8.44495008	      0.00000000	      0.00000000	    -24.84850682	     14.01516069	     -3.13938216	    -56.97504447	    -35.24586488	    -27.81088498	    106.53683964	     87.32958759	      0.00000000	      0.00000000	     35.50694499	    -19.91384772	     21.83998847	    123.44858024	      1.57460739	      0.00000000	      0.00000000
      4.49000000	    -10.53439364	     -7.00284792	      5.37293743	     -3.05132473	      0.90397389	      0.25527088	     65.69303132	      0.34659289	     -3.84265000	     94.16911462	      1.64356110	     23.06604154	      0.00000000	      0.00000000	    -12.40532206	     -8.06308481	     -1.49624908	     25.23807030	      0.44048742	      4.22546380	      0.00000000	      0.00000000	    -24.82303299	     14.61203462	     -2.36746317	    -58.58976812	    -35.28107745	    -28.78865584	    106.61898925	     87.54135959	      0.00000000	      0.00000000	     35.42600995	    -20.11212659	     22.00701972	    124.09084572	      1.45772843	      0.00000000	      0.00000000
      4.49500000	    -10.43288260	     -7.34047598	      4.75768453	     -3.02156882	      0.90670104	      0.25485402	     65.77675228	      0.79451757	     -4.11220593	     90.40632236	      1.57788799	     23.41387168	      0.00000000	      0.00000000	    -14.51340613	     -8.09191193	     -0.82915365	     23.76697036	      0.41481189	      0.29475914	      0.00000000	      0.00000000	    -24.83564421	     15.15584877	     -1.80445730	    -59.74632333	    -35.45003873	    -29.39367530	    106.63894130	     87.49305759	      0.00000000	      0.00000000	     34.96823126	    -20.50401837	     21.96902934	    124.86715369	      1.47775814	      0.00000000	      0.00000000
      4.50000000	    -10.32930478	     -7.61232022	      4.17840281	     -2.99176444	      0.90952034	      0.25452065	     65.56857378	      1.19726039	     -4.38582552	     86.46611586	      1.50911841	     23.64763604	      0.00000000	      0.00000000	    -16.33640579	     -8.02674947	     -0.04933916	     22.80468264	      0.39801680	     -3.10756355	      0.00000000	      0.00000000	    -24.86934546	     15.62383117	     -1.23048231	    -60.60736657	    -35.53719479	    -29.87220635	    106.56793990	     87.45169864	      0.00000000	      0.00000000	     34.32472551	    -20.91927870	     22.01250515	    125.54418447	      1.48129526	      0.00000000	      0.00000000
      4.50500000	    -10.22247389	     -7.81210684	      3.62023352	     -2.96195320	      0.91238425	      0.25428469	     65.08767768	      1.56867688	     -4.64102207	     82.37341063	      1.43768723	     23.71645552	      0.00000000	      0.00000000	    -17.85624331	     -7.86267217	      0.79649862	     22.41886520	      0.39128301	     -5.84768856	      0.00000000	      0.00000000	    -24.93504350	     16.00216845	     -0.64725523	    -61.13457099	    -35.55424035	    -30.18979678	    106.43252633	     87.34899498	      0.00000000	      0.00000000	     33.50470948	    -21.38000490	     22.11298122	    126.11746120	      1.54121903	      0.00000000	      0.00000000
      4.51000000	    -10.11833922	     -7.94982409	      3.06099978	     -2.93215547	      0.91524116	      0.25416634	     64.35836069	      1.93572298	     -4.87135042	     78.14834592	      1.36394594	     23.57286787	      0.00000000	      0.00000000	    -19.05778619	     -7.60797376	      1.64271489	     22.65580090	      0.39541832	     -7.84287089	      0.00000000	      0.00000000	    -25.01927744	     16.28628864	     -0.06533153	    -61.29936702	    -35.59884386	    -30.30814514	    106.16032386	     87.48837408	      0.00000000	      0.00000000	     32.47222495	    -21.81195311	     22.14085188	    126.55673776	      1.45151397	      0.00000000	      0.00000000
      4.51500000	    -10.00422577	     -8.02575309	      2.48219906	     -2.90241485	      0.91803976	      0.25418660	     63.39401468	      2.31972944	     -5.05911502	     73.82884249	      1.28855638	     23.19580506	      0.00000000	      0.00000000	    -19.95777062	     -7.25845006	      2.42399209	     23.52529620	      0.41059388	     -9.10608540	      0.00000000	      0.00000000	    -25.15550755	     16.48337211	      0.57768152	    -61.18829416	    -35.56345845	    -30.32993466	    105.89517701	     87.41869777	      0.00000000	      0.00000000	     31.26502525	    -22.27361894	     22.19428470	    126.87144673	      1.45587050	      0.00000000	      0.00000000
      4.52000000	     -9.87771306	     -8.04914120	      1.86459117	     -2.87275162	      0.92074192	      0.25438362	     62.21464743	      2.74400509	     -5.19724462	     69.44895120	      1.21211286	     22.58376990	      0.00000000	      0.00000000	    -20.57235268	     -6.82419201	      3.06235729	     25.00255660	      0.43637693	     -9.72785887	      0.00000000	      0.00000000	    -25.33223755	     16.57151042	      1.22560664	    -60.69664146	    -35.61139740	    -30.11153538	    105.52971213	     87.43902947	      0.00000000	      0.00000000	     29.86221039	    -22.73853769	     22.18417037	    127.04634341	      1.43798651	      0.00000000	      0.00000000
      4.52500000	     -9.73460388	     -8.03270181	      1.20066995	     -2.84320155	      0.92330972	      0.25478136	     60.84088671	      3.22356091	     -5.28172322	     65.05273391	      1.13538439	     21.74761373	      0.00000000	      0.00000000	    -20.91752950	     -6.32951194	      3.48382534	     27.05386352	      0.47217899	     -9.82962826	      0.00000000	      0.00000000	    -25.56522046	     16.56841174	      1.93469702	    -59.90218499	    -35.64930880	    -29.75939170	    105.13034729	     87.40649840	      0.00000000	      0.00000000	     28.31308361	    -23.20991108	     22.13786751	    127.05890115	      1.45175613	      0.00000000	      0.00000000
      4.53000000	     -9.56678266	     -7.98583277	      0.48877221	     -2.81378328	      0.92572289	      0.25541606	     59.28938578	      3.76544278	     -5.30784377	     60.69292243	      1.05929133	     20.71658280	      0.00000000	      0.00000000	    -21.01720218	     -5.80589358	      3.62186708	     29.62550438	      0.51706259	     -9.56550236	      0.00000000	      0.00000000	    -25.86837953	     16.47870285	      2.67632299	    -58.81036825	    -35.72322132	    -29.24388239	    104.72597952	     87.39868604	      0.00000000	      0.00000000	     26.58442659	    -23.69964385	     22.00938491	    126.95179589	      1.44796026	      0.00000000	      0.00000000
      4.53500000	     -9.37060275	     -7.91412058	     -0.26425270	     -2.78451360	      0.92797916	      0.25629993	     57.58109670	      4.36131121	     -5.27209031	     56.43049658	      0.98489796	     19.53350267	      0.00000000	      0.00000000	    -20.89170118	     -5.28698929	      3.44645354	     32.65180195	      0.56988145	     -9.07956450	      0.00000000	      0.00000000	    -26.23110326	     16.29769274	      3.45812089	    -57.41316282	    -35.82609255	    -28.54479788	    104.27379255	     87.37099148	      0.00000000	      0.00000000	     24.74852388	    -24.18672579	     21.84234406	    126.65899459	      1.43990552	      0.00000000	      0.00000000
      4.54000000	     -9.14791164	     -7.81604286	     -1.04260283	     -2.75539668	      0.93008848	      0.25743319	     55.73967137	      4.98635160	     -5.17678556	     52.32842105	      0.91330324	     18.24293528	      0.00000000	      0.00000000	    -20.55573865	     -4.80131004	      2.97829877	     36.06048125	      0.62937413	     -8.47965335	      0.00000000	      0.00000000	    -26.65826491	     16.03246286	      4.21076966	    -55.67973970	    -35.96595573	    -27.64639106	    103.79770075	     87.35379668	      0.00000000	      0.00000000	     22.72161289	    -24.68985253	     21.51282606	    126.27296146	      1.46195272	      0.00000000	      0.00000000
      4.54500000	     -8.89146009	     -7.69575452	     -1.82542315	     -2.72643115	      0.93204396	      0.25878482	     53.78766408	      5.60866949	     -5.03765051	     48.46833980	      0.84593211	     16.88407103	      0.00000000	      0.00000000	    -20.03517980	     -4.38321314	      2.24815199	     39.78823608	      0.69443572	     -7.83732183	      0.00000000	      0.00000000	    -27.14637697	     15.69180697	      4.91990379	    -53.63708867	    -36.13967200	    -26.55586905	    103.29175466	     87.36566518	      0.00000000	      0.00000000	     20.53510010	    -25.18709507	     21.03036938	    125.76732288	      1.44000606	      0.00000000	      0.00000000
      4.55000000	     -8.60622585	     -7.54798561	     -2.59537034	     -2.69761967	      0.93384220	      0.26032918	     51.75997927	      6.19235380	     -4.86888222	     44.92880187	      0.78415552	     15.49506629	      0.00000000	      0.00000000	    -19.34519501	     -4.04496644	      1.32785210	     43.76753758	      0.76388764	     -7.17364567	      0.00000000	      0.00000000	    -27.67282183	     15.27212060	      5.57030192	    -51.28707895	    -36.33651498	    -25.23326249	    102.73290809	     87.36275601	      0.00000000	      0.00000000	     18.24062678	    -25.67781572	     20.44975423	    125.11094817	      1.44278686	      0.00000000	      0.00000000
      4.55500000	     -8.29632612	     -7.37228625	     -3.33710283	     -2.66895724	      0.93547607	      0.26201466	     49.68858291	      6.70510483	     -4.69327462	     41.77985060	      0.72919595	     14.10386982	      0.00000000	      0.00000000	    -18.50198097	     -3.79354565	      0.29168601	     47.93735505	      0.83666468	     -6.48627185	      0.00000000	      0.00000000	    -28.22663988	     14.78449464	      6.13712645	    -48.64672198	    -36.53640873	    -23.70977568	    102.14604680	     87.37172934	      0.00000000	      0.00000000	     15.82170427	    -26.11816664	     19.71762757	    124.32614770	      1.43467075	      0.00000000	      0.00000000
      4.56000000	     -7.96002431	     -7.17372959	     -4.02959337	     -2.64044425	      0.93693343	      0.26379565	     47.60212791	      7.11878556	     -4.54357388	     39.09247856	      0.68229246	     12.77920316	      0.00000000	      0.00000000	    -17.52487426	     -3.63511751	     -0.78282174	     52.25115124	      0.91195463	     -5.72360054	      0.00000000	      0.00000000	    -28.80469867	     14.24798984	      6.61193491	    -45.73298947	    -36.70674246	    -21.97819890	    101.49240869	     87.40071403	      0.00000000	      0.00000000	     13.35070143	    -26.55511916	     18.89012139	    123.38357639	      1.42101642	      0.00000000	      0.00000000
      4.56500000	     -7.61605070	     -6.95611454	     -4.67586959	     -2.61207653	      0.93820131	      0.26562948	     45.53515832	      7.42719847	     -4.42984841	     36.88943833	      0.64384216	     11.52018100	      0.00000000	      0.00000000	    -16.41105331	     -3.55851026	     -1.83628669	     56.66065168	      0.98891493	     -4.86866416	      0.00000000	      0.00000000	    -29.38085969	     13.67330334	      6.99223685	    -42.59989597	    -36.84253885	    -20.06268457	    100.82838831	     87.39382676	      0.00000000	      0.00000000	     10.77991377	    -26.87850266	     17.86436593	    122.30202758	      1.42911736	      0.00000000	      0.00000000
      4.57000000	     -7.26306060	     -6.73301399	     -5.26660972	     -2.58385354	      0.93926708	      0.26748297	     43.50043334	      7.63105542	     -4.37143446	     35.19069390	      0.61419347	     10.40299699	      0.00000000	      0.00000000	    -15.17392821	     -3.56766287	     -2.82614861	     61.13268831	      1.06696669	     -3.88712691	      0.00000000	      0.00000000	    -29.94927238	     13.08202228	      7.32443461	    -39.29183252	    -36.88988682	    -18.02566734	    100.12897329	     87.39731949	      0.00000000	      0.00000000	      8.24823883	    -27.14562180	     16.82780336	    121.04270868	      1.42788295	      0.00000000	      0.00000000
      4.57500000	     -6.91153131	     -6.51353137	     -5.80260578	     -2.55577204	      0.94011506	      0.26933084	     41.51593559	      7.73996516	     -4.36784055	     33.99055059	      0.59324702	      9.48313557	      0.00000000	      0.00000000	    -13.81230661	     -3.65574338	     -3.71896250	     65.63601948	      1.14556465	     -2.76637702	      0.00000000	      0.00000000	    -30.50000856	     12.49194924	      7.62668888	    -35.87473721	    -36.83001833	    -15.93095370	     99.43004579	     87.44077557	      0.00000000	      0.00000000	      5.77895771	    -27.31801097	     15.74610006	    119.59399814	      1.41585922	      0.00000000	      0.00000000
      4.58000000	     -6.56883386	     -6.30759966	     -6.28886417	     -2.52782806	      0.94072336	      0.27116020	     39.59484808	      7.77334953	     -4.41011079	     33.27437830	      0.58074746	      8.83617959	      0.00000000	      0.00000000	    -12.32723289	     -3.81894396	     -4.49902789	     70.14341502	      1.22423354	     -1.50321782	      0.00000000	      0.00000000	    -31.02251862	     11.91885258	      7.94254829	    -32.42378848	    -36.65994710	    -13.82019316	     98.74191202	     87.45123077	      0.00000000	      0.00000000	      3.43654757	    -27.40313237	     14.69337076	    117.94668444	      1.41200905	      0.00000000	      0.00000000
      4.58500000	     -6.24012515	     -6.11413613	     -6.73009011	     -2.50002169	      0.94107872	      0.27295740	     37.75001710	      7.74168722	     -4.48348361	     33.02469471	      0.57638966	      8.53813925	      0.00000000	      0.00000000	    -10.71721096	     -4.03945122	     -5.15129210	     74.62782380	      1.30250124	     -0.12399237	      0.00000000	      0.00000000	    -31.51195633	     11.36387592	      8.30909656	    -29.01631524	    -36.34600252	    -11.78615807	     98.09815056	     87.46640642	      0.00000000	      0.00000000	      1.27652791	    -27.41770326	     13.72663248	    116.10141032	      1.40178850	      0.00000000	      0.00000000
      4.59000000	     -5.93339567	     -5.92739204	     -7.13854360	     -2.47236574	      0.94115326	      0.27472634	     36.00066312	      7.65969757	     -4.56039094	     33.22306769	      0.57985192	      8.67615595	      0.00000000	      0.00000000	     -8.97773949	     -4.29984870	     -5.67631338	     79.06643398	      1.37996960	      1.35718506	      0.00000000	      0.00000000	    -31.95352415	     10.82022298	      8.75590083	    -25.69072465	    -35.91405088	     -9.87102452	     97.51242864	     87.49064506	      0.00000000	      0.00000000	     -0.65065660	    -27.37192345	     12.88750131	    114.05762810	      1.40549875	      0.00000000	      0.00000000
      4.59500000	     -5.65763061	     -5.74029143	     -7.52167475	     -2.44486306	      0.94094014	      0.27646491	     34.36109847	      7.53536812	     -4.62363318	     33.83506444	      0.59053328	      9.30194916	      0.00000000	      0.00000000	     -7.09982091	     -4.58215934	     -6.07407652	     83.43570341	      1.45622774	      2.90842619	      0.00000000	      0.00000000	    -32.34089927	     10.28357744	      9.30268451	    -22.50469724	    -35.37158588	     -8.11949789	     97.01948110	     87.48917294	      0.00000000	      0.00000000	     -2.33521146	    -27.30150118	     12.20983042	    111.83708835	      1.39988188	      0.00000000	      0.00000000
      4.60000000	     -5.41911486	     -5.54498190	     -7.88861810	     -2.41753114	      0.94044467	      0.27817977	     32.83676997	      7.37550205	     -4.65519352	     34.80465878	      0.60745589	     10.42032572	      0.00000000	      0.00000000	     -5.07613401	     -4.86979442	     -6.34861003	     87.71387442	      1.53089591	      4.50201536	      0.00000000	      0.00000000	    -32.66727677	      9.74274291	      9.97051822	    -19.48705731	    -34.73682656	     -6.57362170	     96.63074950	     87.51975928	      0.00000000	      0.00000000	     -3.74796981	    -27.23166633	     11.71535333	    109.45470354	      1.39843174	      0.00000000	      0.00000000
      4.60500000	     -5.21813188	     -5.33465360	     -8.24968930	     -2.39038676	      0.93970135	      0.27987353	     31.41671366	      7.18334718	     -4.63781683	     36.04980530	      0.62918780	     11.96888965	      0.00000000	      0.00000000	     -2.90625030	     -5.14903970	     -6.50935000	     91.87437880	      1.60351041	      6.10269217	      0.00000000	      0.00000000	    -32.92490215	      9.19028727	     11.08224512	    -17.06661322	    -33.89806836	     -5.75893574	     96.50233609	     87.40639227	      0.00000000	      0.00000000	     -4.43605077	    -27.24980793	     11.97553995	    106.69287534	      1.40951829	      0.00000000	      0.00000000
      4.61000000	     -5.10523010	     -5.07337240	     -8.61050781	     -2.36341959	      0.93867039	      0.28153485	     30.15922460	      6.92445904	     -4.57074287	     37.51960017	      0.65484056	     13.84341360	      0.00000000	      0.00000000	     -0.52550521	     -5.37800142	     -6.55481189	     95.89701100	      1.67371858	      7.68179316	      0.00000000	      0.00000000	    -33.08024576	      8.58874964	     12.21390814	    -14.75185711	    -33.05120893	     -5.06945143	     96.55537113	     87.27933301	      0.00000000	      0.00000000	     -5.10015423	    -27.23137806	     12.12835040	    104.00172774	      1.44508293	      0.00000000	      0.00000000
      4.61500000	     -5.01029872	     -4.80316806	     -8.95799550	     -2.33663195	      0.93757144	      0.28315127	     28.91576676	      6.63360832	     -4.44172763	     39.01927692	      0.68101485	     15.86566634	      0.00000000	      0.00000000	      1.98294182	     -5.59419779	     -6.48966806	     99.74192719	      1.74082503	      9.22050201	      0.00000000	      0.00000000	    -33.19455954	      7.97743408	     12.60788130	    -11.28040635	    -32.56670801	     -3.02119675	     96.12362293	     87.65534103	      0.00000000	      0.00000000	     -6.57241215	    -27.19614423	     11.25284540	    101.72764721	      1.38594450	      0.00000000	      0.00000000
      4.62000000	     -4.99254139	     -4.49475199	     -9.30216192	     -2.30999977	      0.93635165	      0.28470524	     27.74651290	      6.28181524	     -4.25377854	     40.50374955	      0.70692379	     17.93789592	      0.00000000	      0.00000000	      4.69046332	     -5.76730424	     -6.32353458	    103.38801363	      1.80446125	     10.66530022	      0.00000000	      0.00000000	    -33.20833951	      7.33645461	     13.62992845	     -8.73906093	    -31.82431009	     -2.12441240	     96.16504757	     87.68575731	      0.00000000	      0.00000000	     -7.15430699	    -27.27117604	     11.34899779	     99.07082877	      1.38416625	      0.00000000	      0.00000000
      4.62500000	     -5.03799869	     -4.15812561	     -9.63202049	     -2.28347935	      0.93511106	      0.28618358	     26.58790628	      5.87476324	     -4.00500178	     41.85563530	      0.73051865	     19.94642320	      0.00000000	      0.00000000	      7.58032942	     -5.90570822	     -6.05883684	    106.80256169	      1.86405635	     11.99320394	      0.00000000	      0.00000000	    -33.13284254	      6.67727222	     14.80222786	     -6.42571701	    -31.05567023	     -1.54413437	     96.37929621	     87.54765968	      0.00000000	      0.00000000	     -7.45872010	    -27.39796362	     11.69419164	     96.33446144	      1.41017686	      0.00000000	      0.00000000
      4.63000000	     -5.15535552	     -3.78272885	     -9.93744787	     -2.25702035	      0.93387442	      0.28757342	     25.42354381	      5.40067235	     -3.69634627	     43.00983485	      0.75066323	     21.82307086	      0.00000000	      0.00000000	     10.66348267	     -5.99562240	     -5.69919627	    109.96038643	      1.91917079	     13.18779005	      0.00000000	      0.00000000	    -32.96236228	      5.99038693	     15.70032184	     -3.80005260	    -30.37017196	     -0.60776496	     96.53494491	     87.79216073	      0.00000000	      0.00000000	     -8.07565515	    -27.54594233	     11.63262265	     93.91153049	      1.38475745	      0.00000000	      0.00000000
      4.63500000	     -5.32474208	     -3.38052830	    -10.20728484	     -2.23054264	      0.93270603	      0.28887059	     24.20037394	      4.86759767	     -3.34959403	     43.90448668	      0.76627785	     23.50004437	      0.00000000	      0.00000000	     13.90666838	     -6.04407551	     -5.25346134	    112.82843405	      1.96922766	     14.22093202	      0.00000000	      0.00000000	    -32.70193656	      5.29770004	     16.68750362	     -1.38783841	    -29.64932217	      0.03509064	     96.87104500	     87.83189810	      0.00000000	      0.00000000	     -8.50335810	    -27.74649873	     11.74418809	     91.47572206	      1.38512626	      0.00000000	      0.00000000
      4.64000000	     -5.54412250	     -2.95765740	    -10.43310813	     -2.20396788	      0.93161089	      0.29007171	     22.89660529	      4.28472846	     -2.97681622	     44.50682400	      0.77679062	     24.99015582	      0.00000000	      0.00000000	     17.29500419	     -6.05374085	     -4.73408622	    115.38841705	      2.01390780	     15.08726036	      0.00000000	      0.00000000	    -32.34748345	      4.60567308	     17.59260842	      1.00210217	    -28.96354697	      0.69867356	     97.29366411	     87.85122551	      0.00000000	      0.00000000	     -9.01057480	    -28.01518533	     11.83591858	     89.25229010	      1.38429340	      0.00000000	      0.00000000
      4.64500000	     -5.81083325	     -2.51473990	    -10.61479275	     -2.17721963	      0.93058728	      0.29120226	     21.50332929	      3.65965053	     -2.59359135	     44.80760382	      0.78204022	     26.24196128	      0.00000000	      0.00000000	     20.80576228	     -6.02228433	     -4.16084960	    117.62166292	      2.05288529	     15.80209797	      0.00000000	      0.00000000	    -31.90539180	      3.91259944	     18.27650851	      3.47764392	    -28.27624980	      1.51178232	     97.77645812	     87.93248026	      0.00000000	      0.00000000	     -9.84476739	    -28.26126106	     11.46822959	     87.36684182	      1.38541309	      0.00000000	      0.00000000
      4.65000000	     -6.09952486	     -2.06130562	    -10.73272805	     -2.15021607	      0.92967760	      0.29224375	     19.98168796	      2.99419617	     -2.24026029	     44.79323005	      0.78178935	     27.23784391	      0.00000000	      0.00000000	     24.38994045	     -5.94332917	     -3.54238322	    119.50837755	      2.08581467	     16.36107275	      0.00000000	      0.00000000	    -31.39049221	      3.23388651	     18.85598046	      5.84793477	    -27.59260226	      2.30229972	     98.40552506	     87.94991509	      0.00000000	      0.00000000	    -10.82424637	    -28.55881410	     10.97334691	     85.77644637	      1.38230943	      0.00000000	      0.00000000
      4.65500000	     -6.39684358	     -1.60425910	    -10.78630393	     -2.12288808	      0.92888280	      0.29321303	     18.31904401	      2.29997595	     -1.93220385	     44.47560918	      0.77624582	     27.99035148	      0.00000000	      0.00000000	     28.00342743	     -5.81431041	     -2.90170438	    121.04023517	      2.11255063	     16.79129871	      0.00000000	      0.00000000	    -30.81040849	      2.57569436	     19.29041769	      8.12770067	    -26.94254926	      3.17085457	     99.16070480	     87.97821172	      0.00000000	      0.00000000	    -12.04140800	    -28.93919376	     10.30268391	     84.57303503	      1.37467172	      0.00000000	      0.00000000
      4.66000000	     -6.68944890	     -1.14101016	    -10.77106401	     -2.09517884	      0.92823593	      0.29409778	     16.50255125	      1.57451883	     -1.69009378	     43.85584624	      0.76542891	     28.45325040	      0.00000000	      0.00000000	     31.60223449	     -5.61812256	     -2.26964922	    122.20622801	      2.13290105	     17.12494430	      0.00000000	      0.00000000	    -30.17563407	      1.93630293	     19.58096718	     10.28310058	    -26.31636977	      4.07221177	    100.04958205	     87.98350289	      0.00000000	      0.00000000	    -13.51371169	    -29.35871908	      9.41318364	     83.75344811	      1.35561153	      0.00000000	      0.00000000
      4.66500000	     -6.94627708	     -0.67418652	    -10.66858950	     -2.06703512	      0.92778367	      0.29489449	     14.49299892	      0.81645453	     -1.54273399	     42.92776852	      0.74923090	     28.63366953	      0.00000000	      0.00000000	     35.12355827	     -5.33569137	     -1.65329574	    123.00372282	      2.14681996	     17.39059286	      0.00000000	      0.00000000	    -29.53803213	      1.30410606	     19.64493214	     12.35619275	    -25.69601107	      5.07185968	    101.06429049	     87.95897018	      0.00000000	      0.00000000	    -15.36377241	    -29.71903822	      8.06558257	     83.41387017	      1.34981038	      0.00000000	      0.00000000
      4.67000000	     -7.16055173	     -0.18215540	    -10.48918645	     -2.03843226	      0.92754493	      0.29559130	     12.30087752	      0.00796584	     -1.49211237	     41.71040459	      0.72798389	     28.47216426	      0.00000000	      0.00000000	     38.52723715	     -4.93655964	     -1.10149749	    123.42618014	      2.15419323	     17.61260768	      0.00000000	      0.00000000	    -28.88222799	      0.66368611	     19.57315374	     14.28792858	    -25.06947442	      6.08396494	    102.17305046	     87.87528929	      0.00000000	      0.00000000	    -17.44044938	    -30.11364771	      6.57006501	     83.45920113	      1.37184616	      0.00000000	      0.00000000
      4.67500000	     -7.32192734	      0.35461610	    -10.22779172	     -2.00935035	      0.92754797	      0.29619491	      9.92272150	     -0.86533384	     -1.55244872	     40.20753595	      0.70175389	     27.94095987	      0.00000000	      0.00000000	     41.77357429	     -4.39553744	     -0.64529335	    123.47385046	      2.15502523	     17.81436344	      0.00000000	      0.00000000	    -28.22531264	     -0.01309283	     19.39033898	     16.02577505	    -24.40113847	      6.98765627	    103.37258204	     87.83812657	      0.00000000	      0.00000000	    -19.69839282	    -30.52134626	      4.94836198	     83.87306387	      1.36605219	      0.00000000	      0.00000000
      4.68000000	     -7.42602538	      0.96028262	     -9.88986938	     -1.97979922	      0.92780521	      0.29671186	      7.37001283	     -1.81922226	     -1.72960979	     38.43370131	      0.67079463	     27.00298563	      0.00000000	      0.00000000	     44.83223554	     -3.69499886	     -0.32609633	    123.14807237	      2.14933933	     18.00082727	      0.00000000	      0.00000000	    -27.57615416	     -0.75676181	     19.08869504	     17.58956004	    -23.68541856	      7.80521970	    104.63263316	     87.78943177	      0.00000000	      0.00000000	    -22.12182142	    -30.93263873	      3.22176458	     84.62281810	      1.35989705	      0.00000000	      0.00000000
      4.68500000	     -7.47275855	      1.65271757	     -9.48073197	     -1.94980485	      0.92832127	      0.29716455	      4.65972684	     -2.85843879	     -2.03324877	     36.40651978	      0.63541364	     25.61466165	      0.00000000	      0.00000000	     47.68113664	     -2.83353493	     -0.17525320	    122.45580547	      2.13725699	     18.17315328	      0.00000000	      0.00000000	    -26.94032585	     -1.59086989	     18.71244310	     18.94570605	    -22.94390781	      8.50508380	    105.96054781	     87.74236873	      0.00000000	      0.00000000	    -24.61949492	    -31.34955742	      1.44841011	     85.63432948	      1.35665712	      0.00000000	      0.00000000
      4.69000000	     -7.48897490	      2.44308001	     -9.02954040	     -1.91942816	      0.92905660	      0.29760998	      1.85023100	     -3.96869436	     -2.43376482	     34.16544856	      0.59629957	     23.74506467	      0.00000000	      0.00000000	     50.33193373	     -1.84576054	     -0.22388086	    121.41260953	      2.11904979	     18.33266114	      0.00000000	      0.00000000	    -26.30533579	     -2.53496927	     18.26528453	     20.12660029	    -22.18194652	      9.11901445	    107.35043313	     87.68952622	      0.00000000	      0.00000000	    -27.20432763	    -31.75823306	     -0.35882789	     86.85987180	      1.35431550	      0.00000000	      0.00000000
      4.69500000	     -7.47728953	      3.33717735	     -8.54784179	     -1.88872624	      0.92999016	      0.29807102	     -1.02513190	     -5.14545858	     -2.93862114	     31.76302632	      0.55436939	     21.37486117	      0.00000000	      0.00000000	     52.77482610	     -0.75576559	     -0.48276067	    120.03139708	      2.09494308	     18.47348067	      0.00000000	      0.00000000	    -25.67696817	     -3.60310710	     17.79742813	     21.11270833	    -21.44023689	      9.65032331	    108.79567967	     87.64230136	      0.00000000	      0.00000000	    -29.78970492	    -32.18092011	     -2.14179697	     88.25100810	      1.34381568	      0.00000000	      0.00000000
      4.70000000	     -7.46797253	      4.32321782	     -8.06195223	     -1.85777118	      0.93107366	      0.29858201	     -3.89458178	     -6.35999080	     -3.52279656	     29.26837787	      0.51082956	     18.50104098	      0.00000000	      0.00000000	     55.03315575	      0.38304417	     -0.94562884	    118.33132785	      2.06527128	     18.58858604	      0.00000000	      0.00000000	    -25.04077812	     -4.78825476	     17.34178665	     21.90523968	    -20.73038772	     10.11431652	    110.31378488	     87.60651682	      0.00000000	      0.00000000	    -32.35206642	    -32.60507419	     -3.89904502	     89.73761884	      1.34146049	      0.00000000	      0.00000000
      4.70500000	     -7.48392443	      5.38149330	     -7.59307707	     -1.82663587	      0.93225459	      0.29915703	     -6.68483501	     -7.58667790	     -4.16325572	     26.77588496	      0.46732735	     15.15025003	      0.00000000	      0.00000000	     57.12463097	      1.51765454	     -1.58686733	    116.33596978	      2.03044571	     18.68967532	      0.00000000	      0.00000000	    -24.38926612	     -6.07650412	     16.95958620	     22.48623699	    -20.07813720	     10.45618716	    111.92620341	     87.59209879	      0.00000000	      0.00000000	    -34.82388915	    -33.01370585	     -5.60851362	     91.26282561	      1.33735866	      0.00000000	      0.00000000
      4.71000000	     -7.54017463	      6.47871628	     -7.15898700	     -1.79539151	      0.93349620	      0.29980080	     -9.33208891	     -8.79294467	     -4.83282256	     24.38035975	      0.42551755	     11.38725179	      0.00000000	      0.00000000	     59.05904760	      2.59385440	     -2.37151133	    114.06766926	      1.99085640	     18.77530335	      0.00000000	      0.00000000	    -23.70710649	     -7.42925703	     16.53719793	     23.05777055	    -19.49299251	     11.00689628	    113.45086467	     87.57225585	      0.00000000	      0.00000000	    -37.37932080	    -33.35476290	     -7.36379768	     92.87846635	      1.33545015	      0.00000000	      0.00000000
      4.71500000	     -7.65927009	      7.56720606	     -6.77203046	     -1.76408296	      0.93477854	      0.30051899	    -11.77111993	     -9.93198030	     -5.48590683	     22.16241213	      0.38680706	      7.30047835	      0.00000000	      0.00000000	     60.84759248	      3.55700913	     -3.24609954	    111.54742488	      1.94686984	     18.85972400	      0.00000000	      0.00000000	    -22.98754885	     -8.80186502	     16.24651368	     23.43706161	    -18.99303750	     11.48060851	    115.03842798	     87.56214660	      0.00000000	      0.00000000	    -39.80103812	    -33.65469658	     -9.03673480	     94.45827698	      1.32884972	      0.00000000	      0.00000000
      4.72000000	     -7.83831248	      8.60080395	     -6.43135145	     -1.73273348	      0.93610690	      0.30129667	    -13.97719799	    -10.96584119	     -6.08988922	     20.18247031	      0.35225056	      3.00965074	      0.00000000	      0.00000000	     62.47292088	      4.37810570	     -4.15462201	    108.79314728	      1.89879862	     18.95970423	      0.00000000	      0.00000000	    -22.23487498	    -10.14205118	     16.07150315	     23.67652787	    -18.60018285	     11.96730147	    116.62080976	     87.57244798	      0.00000000	      0.00000000	    -42.09677400	    -33.89013971	    -10.63018615	     95.97973446	      1.32830585	      0.00000000	      0.00000000
      4.72500000	     -8.07298172	      9.53253762	     -6.13025228	     -1.70136640	      0.93749416	      0.30211359	    -15.93745640	    -11.85217581	     -6.59924680	     18.48283599	      0.32258634	     -1.33189603	      0.00000000	      0.00000000	     63.91799303	      5.03969592	     -5.03997311	    105.82253418	      1.84695164	     19.07705945	      0.00000000	      0.00000000	    -21.45687619	    -11.39242331	     16.01048807	     23.79050724	    -18.31137490	     12.47664298	    118.17247777	     87.59951903	      0.00000000	      0.00000000	    -44.24727366	    -34.05134329	    -12.13478173	     97.41455411	      1.32753189	      0.00000000	      0.00000000
      4.73000000	     -8.34882300	     10.32302664	     -5.85813971	     -1.66999334	      0.93895455	      0.30295550	    -17.66078819	    -12.55627378	     -6.97546309	     17.08782686	      0.29823884	     -5.54207023	      0.00000000	      0.00000000	     65.15352973	      5.54145488	     -5.85449147	    102.65069635	      1.79159263	     19.23810225	      0.00000000	      0.00000000	    -20.66957736	    -12.50792489	     16.04239294	     23.79610625	    -18.13071381	     13.04091661	    119.65409398	     87.64009520	      0.00000000	      0.00000000	    -46.24637224	    -34.10276991	    -13.54082628	     98.76167010	      1.32591292	      0.00000000	      0.00000000
      4.73500000	     -8.64864986	     10.94178908	     -5.60490519	     -1.63862420	      0.94050197	      0.30379849	    -19.16439219	    -13.05164929	     -7.17840844	     16.01845476	      0.27957478	     -9.44143408	      0.00000000	      0.00000000	     66.15302289	      5.89538046	     -6.55807463	     99.28566180	      1.73286170	     19.42833626	      0.00000000	      0.00000000	    -19.89186433	    -13.44403327	     16.17750811	     23.66496227	    -18.04691548	     13.60434529	    121.04601929	     87.69173287	      0.00000000	      0.00000000	    -48.03363711	    -34.07624672	    -14.80609172	     99.98049595	      1.33016794	      0.00000000	      0.00000000
      4.74000000	     -8.95277905	     11.36844547	     -5.36321160	     -1.60727130	      0.94213968	      0.30461598	    -20.47031027	    -13.32307292	     -7.17608105	     15.29247615	      0.26690406	    -12.87010789	      0.00000000	      0.00000000	     66.89132449	      6.12025087	     -7.12455961	     95.73676541	      1.67092177	     19.65265904	      0.00000000	      0.00000000	    -19.14654016	    -14.17264777	     16.38860825	     23.41232926	    -18.05880485	     14.18653599	    122.31645039	     87.75231701	      0.00000000	      0.00000000	    -49.60587032	    -33.96078545	    -15.91462465	    101.07320504	      1.32813760	      0.00000000	      0.00000000
      4.74500000	     -9.24143032	     11.59692001	     -5.12469143	     -1.57594858	      0.94386074	      0.30537068	    -21.60038050	    -13.37065049	     -6.96079527	     14.93124129	      0.26059932	    -15.71569531	      0.00000000	      0.00000000	     67.35038376	      6.24491897	     -7.53850542	     92.00745399	      1.60583301	     19.89484363	      0.00000000	      0.00000000	    -18.45388821	    -14.67770499	     16.65198577	     23.03343799	    -18.16449943	     14.76495790	    123.41525070	     87.80905940	      0.00000000	      0.00000000	    -50.94198719	    -33.75099711	    -16.85951239	    102.03397390	      1.32025424	      0.00000000	      0.00000000
      4.75000000	     -9.50268389	     11.62759931	     -4.88642282	     -1.54466251	      0.94564954	      0.30603554	    -22.56831192	    -13.20003272	     -6.53275414	     14.94971807	      0.26092180	    -17.93085329	      0.00000000	      0.00000000	     67.52317399	      6.29139563	     -7.79563388	     88.10621221	      1.53774349	     20.14492650	      0.00000000	      0.00000000	    -17.82881124	    -14.95942015	     17.02174058	     22.44467494	    -18.36454888	     15.20201022	    124.39963806	     87.77896703	      0.00000000	      0.00000000	    -51.97568593	    -33.54025433	    -17.55957727	    102.87656619	      1.35242550	      0.00000000	      0.00000000
      4.75500000	     -9.69233691	     11.46973184	     -4.64895416	     -1.51344606	      0.94751756	      0.30658098	    -23.42072925	    -12.82734538	     -5.92037928	     15.35751191	      0.26803915	    -19.53866128	      0.00000000	      0.00000000	     67.37591929	      6.28648463	     -7.89754332	     84.04122780	      1.46679613	     20.38045850	      0.00000000	      0.00000000	    -17.32237967	    -15.00754362	     17.23901416	     21.91898326	    -18.58711026	     15.85318080	    125.03232651	     87.94065692	      0.00000000	      0.00000000	    -52.87921303	    -33.06287155	    -18.23361589	    103.59617389	      1.32150990	      0.00000000	      0.00000000
      4.76000000	     -9.80789630	     11.14396661	     -4.40833299	     -1.48230200	      0.94943771	      0.30697682	    -24.15591084	    -12.28068835	     -5.17659503	     16.16687033	      0.28216512	    -20.61827741	      0.00000000	      0.00000000	     66.91908619	      6.25240617	     -7.85508007	     79.82084456	      1.39313655	     20.56986714	      0.00000000	      0.00000000	    -16.93891739	    -14.85848245	     17.55148195	     21.13727454	    -18.91016286	     16.26829526	    125.54511476	     87.89473095	      0.00000000	      0.00000000	    -53.45323008	    -32.62911242	    -18.62597747	    104.22768869	      1.36380608	      0.00000000	      0.00000000
