Coordinates
version=1
nRows=98
nColumns=40
inDegrees=yes

Units are S.I. units (second, meters, Newtons, ...)
If the header above contains a line with 'inDegrees', this indicates whether rotational values are in degrees (yes) or radians (no).

endheader
time	pelvis_tilt	pelvis_list	pelvis_rotation	pelvis_tx	pelvis_ty	pelvis_tz	hip_flexion_r	hip_adduction_r	hip_rotation_r	knee_angle_r	knee_angle_r_beta	ankle_angle_r	subtalar_angle_r	mtp_angle_r	hip_flexion_l	hip_adduction_l	hip_rotation_l	knee_angle_l	knee_angle_l_beta	ankle_angle_l	subtalar_angle_l	mtp_angle_l	lumbar_extension	lumbar_bending	lumbar_rotation	arm_flex_r	arm_add_r	arm_rot_r	elbow_flex_r	pro_sup_r	wrist_flex_r	wrist_dev_r	arm_flex_l	arm_add_l	arm_rot_l	elbow_flex_l	pro_sup_l	wrist_flex_l	wrist_dev_l
      4.27500000	    -18.72509771	     14.43661280	     -3.11964174	     -4.17942029	      0.90499988	      0.29325327	    -15.38340785	    -12.34980445	     -5.25785048	     16.48430744	      0.28770544	    -29.91546058	      0.00000000	      0.00000000	     70.43478948	      6.70974730	     -7.20858737	     87.63135476	      1.52945567	     21.05877513	      0.00000000	      0.00000000	    -19.47322322	    -18.50295796	      5.54243870	     31.20771071	    -15.36823576	     31.49366071	    124.47848836	     87.95289479	      0.00000000	      0.00000000	    -56.63360496	    -33.82729630	    -17.48499327	    117.23741042	      1.40796557	      0.00000000	      0.00000000
      4.28000000	    -18.48723637	     14.14796756	     -2.52721977	     -4.15235413	      0.90676542	      0.29326736	    -16.37563675	    -11.65211587	     -3.73579995	     16.99302474	      0.29658423	    -31.59968297	      0.00000000	      0.00000000	     69.91718340	      6.91262917	     -7.29083220	     84.10955685	      1.46798870	     20.98903555	      0.00000000	      0.00000000	    -19.83541989	    -18.27425493	      5.23900638	     30.28267141	    -15.90818330	     31.64717410	    123.71273128	     88.09578157	      0.00000000	      0.00000000	    -56.54155586	    -33.82171653	    -17.54152986	    117.65289353	      1.36951337	      0.00000000	      0.00000000
      4.28500000	    -17.79318576	     14.02635876	     -1.88419373	     -4.12503014	      0.90933095	      0.29319884	    -17.62994173	    -11.07966125	     -2.61360630	     18.07051711	      0.31539002	    -32.47684819	      0.00000000	      0.00000000	     68.63970474	      7.40310843	     -7.51200428	     80.37673703	      1.40283870	     20.84175234	      0.00000000	      0.00000000	    -20.81319929	    -18.15406421	      4.69915061	     29.22919163	    -16.35725234	     31.47265561	    122.69776851	     88.08695424	      0.00000000	      0.00000000	    -56.01079756	    -33.93044608	    -17.38440259	    117.99147740	      1.41334945	      0.00000000	      0.00000000
      4.29000000	    -17.24958307	     13.58338046	     -1.28902116	     -4.09803358	      0.91161325	      0.29321774	    -18.26653952	    -10.12911913	     -1.19792110	     19.98803658	      0.34885705	    -32.64929893	      0.00000000	      0.00000000	     67.35208896	      7.63466480	     -7.48980297	     76.72488814	      1.33910192	     20.53439896	      0.00000000	      0.00000000	    -21.61425117	    -17.68369412	      4.39229158	     27.93365068	    -16.81622862	     31.03934237	    121.48279614	     88.11997636	      0.00000000	      0.00000000	    -55.04194806	    -34.01255135	    -16.89051570	    118.21473912	      1.38590610	      0.00000000	      0.00000000
      4.29500000	    -16.54075270	     13.05423530	     -0.76499759	     -4.07108985	      0.91411740	      0.29330570	    -18.74085382	     -9.06375221	      0.09526879	     22.49993314	      0.39269791	    -32.46110627	      0.00000000	      0.00000000	     65.70284184	      7.78108230	     -7.43911515	     73.11055696	      1.27601994	     20.09925232	      0.00000000	      0.00000000	    -22.60515588	    -17.09700639	      4.17636086	     26.50692850	    -17.26183264	     30.36892272	    120.07230913	     88.12488582	      0.00000000	      0.00000000	    -53.62634077	    -34.13095828	    -16.09354975	    118.32693912	      1.37819922	      0.00000000	      0.00000000
      4.30000000	    -15.71883098	     12.67740023	     -0.10471072	     -4.04400024	      0.91669278	      0.29292021	    -19.11030285	     -8.13870348	      0.69987416	     25.53321824	      0.44563873	    -31.96396967	      0.00000000	      0.00000000	     63.74633467	      8.21146932	     -7.40354873	     69.47665223	      1.21259633	     19.50710563	      0.00000000	      0.00000000	    -23.77828735	    -16.55253213	      3.78591698	     24.88761914	    -17.62718164	     29.38964318	    118.47610787	     88.12672677	      0.00000000	      0.00000000	    -51.86449556	    -34.28041137	    -15.04142702	    118.36767862	      1.41313356	      0.00000000	      0.00000000
      4.30500000	    -14.86758719	     12.10430342	      0.42918661	     -4.01717878	      0.91914487	      0.29266753	    -19.14128537	     -7.03849531	      1.29306605	     29.11814265	      0.50820746	    -31.23776234	      0.00000000	      0.00000000	     61.64877072	      8.36908136	     -7.26565647	     66.04107930	      1.15263428	     18.74716210	      0.00000000	      0.00000000	    -24.94791051	    -15.80420469	      3.63828145	     23.14721376	    -17.96871409	     28.14084730	    116.75774995	     88.12541194	      0.00000000	      0.00000000	    -49.68959495	    -34.40776543	    -13.66495734	    118.32528018	      1.41329475	      0.00000000	      0.00000000
      4.31000000	    -13.99482073	     11.51712229	      0.93137872	     -3.99046785	      0.92140785	      0.29216414	    -18.92428213	     -6.00315806	      1.50721506	     33.11442719	      0.57795578	    -30.51126978	      0.00000000	      0.00000000	     59.41941065	      8.48820949	     -7.09400110	     62.76653482	      1.09548269	     17.88858540	      0.00000000	      0.00000000	    -26.12904095	    -14.99088427	      3.52940700	     21.32681300	    -18.27324106	     26.68372914	    114.92507279	     88.13056051	      0.00000000	      0.00000000	    -47.23368935	    -34.44272487	    -12.03866876	    118.19978108	      1.40101122	      0.00000000	      0.00000000
      4.31500000	    -13.11551108	     10.85493637	      1.48364034	     -3.96398262	      0.92344331	      0.29143550	    -18.49867338	     -4.95272809	      1.37335022	     37.39335541	      0.65263717	    -29.72605960	      0.00000000	      0.00000000	     57.11777538	      8.56902292	     -6.79053727	     59.71823835	      1.04227988	     16.82975394	      0.00000000	      0.00000000	    -27.30143336	    -14.02642877	      3.37311008	     19.56123906	    -18.51972267	     25.20303141	    112.90798933	     88.09327597	      0.00000000	      0.00000000	    -44.54145077	    -34.32459913	    -10.34175091	    118.03087378	      1.39765121	      0.00000000	      0.00000000
      4.32000000	    -12.20426996	     10.45457327	      1.82898633	     -3.93745600	      0.92535038	      0.29071606	    -17.88191065	     -4.39704173	      0.91292658	     41.94221183	      0.73202969	    -28.99524266	      0.00000000	      0.00000000	     54.63012073	      8.62503855	     -6.80616369	     56.75291589	      0.99052524	     15.86865470	      0.00000000	      0.00000000	    -28.50381395	    -13.38325084	      3.56035930	     17.37575583	    -18.75198294	     23.03569848	    111.07877612	     88.15449315	      0.00000000	      0.00000000	    -41.34944396	    -34.42062000	     -8.11879749	    117.76132632	      1.41132151	      0.00000000	      0.00000000
      4.32500000	    -11.34688131	      9.89472537	      2.30439163	     -3.91126481	      0.92681051	      0.28959556	    -17.05980044	     -3.74899624	      0.23067924	     46.61324876	      0.81355467	    -28.17568553	      0.00000000	      0.00000000	     52.20097524	      8.63713514	     -6.56881912	     54.13430567	      0.94482187	     14.72887987	      0.00000000	      0.00000000	    -29.63447551	    -12.47199053	      3.51777975	     15.42028237	    -18.91087687	     21.05760097	    109.09207379	     88.13176103	      0.00000000	      0.00000000	    -38.19666897	    -34.16904098	     -5.99131959	    117.48179225	      1.42008705	      0.00000000	      0.00000000
      4.33000000	    -10.51539366	      9.32387392	      2.73703317	     -3.88535673	      0.92794608	      0.28838842	    -16.03024849	     -3.21453153	     -0.52147197	     51.41939845	      0.89743780	    -27.30782311	      0.00000000	      0.00000000	     49.75249652	      8.54998564	     -6.34136519	     51.76087414	      0.90339768	     13.71605004	      0.00000000	      0.00000000	    -30.71309658	    -11.53248424	      3.55837300	     13.45346128	    -19.07246604	     18.96015271	    107.13655215	     88.15547524	      0.00000000	      0.00000000	    -34.83920846	    -33.79640959	     -3.74404000	    117.16161218	      1.42100046	      0.00000000	      0.00000000
      4.33500000	     -9.76927061	      8.70324135	      3.33103829	     -3.85967129	      0.92853129	      0.28697724	    -14.83340023	     -2.69161583	     -1.47098286	     56.22035817	      0.98123036	    -26.11166156	      0.00000000	      0.00000000	     47.41386494	      8.45069220	     -5.99738833	     49.77938899	      0.86881424	     12.65861058	      0.00000000	      0.00000000	    -31.69629943	    -10.46778537	      3.27395895	     11.66840583	    -19.05188970	     16.99490662	    105.09334818	     88.16435000	      0.00000000	      0.00000000	    -31.71336548	    -33.19457112	     -1.71372455	    116.96377499	      1.39645455	      0.00000000	      0.00000000
      4.34000000	     -9.09695587	      8.08841928	      3.81652458	     -3.83424521	      0.92879086	      0.28555975	    -13.38854566	     -2.29773962	     -2.31106840	     61.09064079	      1.06623282	    -24.75857692	      0.00000000	      0.00000000	     45.07830389	      8.22254906	     -5.71435555	     47.98814361	      0.83755111	     12.02459324	      0.00000000	      0.00000000	    -32.56035176	     -9.43973816	      3.25758900	      9.72342254	    -19.23321482	     14.82244487	    103.28957018	     88.14710703	      0.00000000	      0.00000000	    -28.29311534	    -32.60701981	      0.47575050	    116.62426874	      1.41122210	      0.00000000	      0.00000000
      4.34500000	     -8.35109951	      7.21430603	      4.40831714	     -3.80921721	      0.92889390	      0.28399880	    -11.91389543	     -1.62206519	     -3.10638759	     65.78502573	      1.14816530	    -23.51232946	      0.00000000	      0.00000000	     42.70778101	      7.78608810	     -5.16018984	     46.60449380	      0.81340186	     11.87373808	      0.00000000	      0.00000000	    -33.48698042	     -8.06366574	      2.58739211	      8.60729548	    -19.39382098	     13.72752698	    101.13986883	     87.89145649	      0.00000000	      0.00000000	    -25.70413636	    -31.39164954	      1.66753764	    116.56558349	      1.50809570	      0.00000000	      0.00000000
      4.35000000	     -7.95960703	      6.76146394	      4.93972258	     -3.78415792	      0.92813758	      0.28245944	     -9.97716933	     -1.60898831	     -4.01843560	     70.65795818	      1.23321401	    -21.41010703	      0.00000000	      0.00000000	     40.71037866	      7.54221320	     -5.16765780	     45.61763990	      0.79617801	     11.82292568	      0.00000000	      0.00000000	    -34.00959196	     -7.18305944	      2.84359835	      6.15753975	    -19.45234030	     10.77414118	     99.82016097	     88.16451392	      0.00000000	      0.00000000	    -21.66095888	    -30.94451957	      4.51339370	    116.00605541	      1.43782526	      0.00000000	      0.00000000
      4.35500000	     -7.30980252	      6.11644867	      5.72296656	     -3.75932598	      0.92766972	      0.28057509	     -8.30465098	     -1.33934147	     -5.05866826	     75.17689811	      1.31208439	    -19.30056323	      0.00000000	      0.00000000	     38.38824251	      7.27558265	     -4.73862017	     44.85958931	      0.78294753	     12.59479672	      0.00000000	      0.00000000	    -34.80203855	     -5.91030893	      1.82789570	      5.05145819	    -19.64106455	      9.71475785	     97.92881230	     88.10467024	      0.00000000	      0.00000000	    -19.07640117	    -29.75194439	      5.55999423	    115.96677371	      1.44253844	      0.00000000	      0.00000000
      4.36000000	     -7.17349425	      5.56046281	      6.44340963	     -3.73494696	      0.92606283	      0.27873733	     -5.88060468	     -1.32498199	     -5.94398695	     79.85701779	      1.39376789	    -16.96197041	      0.00000000	      0.00000000	     36.77690897	      6.98099715	     -4.53006467	     44.73365524	      0.78074957	     13.60233070	      0.00000000	      0.00000000	    -35.01328733	     -4.83043526	      1.55324826	      2.98358958	    -19.76103217	      7.38241046	     96.74638362	     88.16708543	      0.00000000	      0.00000000	    -15.56828995	    -28.92817014	      7.69478031	    115.63813278	      1.44594885	      0.00000000	      0.00000000
      4.36500000	     -6.85686636	      5.05739633	      7.28008175	     -3.71057585	      0.92476087	      0.27679715	     -3.64301995	     -1.40191911	     -6.92554579	     84.23583432	      1.47019266	    -14.51879976	      0.00000000	      0.00000000	     34.90023480	      6.76065000	     -4.21077024	     44.76507549	      0.78129796	     15.22349033	      0.00000000	      0.00000000	    -35.40661316	     -3.69387943	      0.56106520	      1.53893530	    -20.00254831	      6.02216298	     95.42420023	     88.15755581	      0.00000000	      0.00000000	    -12.76426682	    -27.88258672	      8.86792137	    115.56589345	      1.45197425	      0.00000000	      0.00000000
      4.37000000	     -6.74458240	      4.57884567	      8.10991277	     -3.68645887	      0.92306802	      0.27485131	     -1.07265574	     -1.59740524	     -7.77649207	     88.48714777	      1.54439207	    -12.04638717	      0.00000000	      0.00000000	     33.31651181	      6.54170209	     -3.82290421	     45.14688665	      0.78796182	     17.10576099	      0.00000000	      0.00000000	    -35.53976191	     -2.59553420	     -0.37365175	     -0.03830668	    -20.29958983	      4.58590020	     94.32964759	     88.14737960	      0.00000000	      0.00000000	     -9.78556493	    -26.86965903	     10.12526298	    115.41969564	      1.45500916	      0.00000000	      0.00000000
      4.37500000	     -6.36887435	      4.27443943	      8.88060258	     -3.66209923	      0.92196990	      0.27297338	      1.21222403	     -2.00700145	     -8.52451327	     92.39243773	      1.61255224	     -9.65474806	      0.00000000	      0.00000000	     31.33503666	      6.38434908	     -3.49884665	     45.53032652	      0.79465411	     19.40308053	      0.00000000	      0.00000000	    -35.95100189	     -1.63399500	     -1.80679210	     -1.14435306	    -20.76559020	      3.92487989	     93.18756293	     88.05223329	      0.00000000	      0.00000000	     -7.29426947	    -25.82042816	     10.70850323	    115.48950665	      1.48990204	      0.00000000	      0.00000000
      4.38000000	     -6.75842930	      3.78077939	      9.75322215	     -3.63845174	      0.91946590	      0.27114909	      4.56367327	     -2.35965842	     -9.15467196	     96.34040913	      1.68145734	     -7.18881379	      0.00000000	      0.00000000	     30.46633793	      6.12182297	     -3.02515537	     46.40419163	      0.80990593	     21.15064766	      0.00000000	      0.00000000	    -35.48067982	     -0.58247093	     -2.68756402	     -3.08403071	    -21.11302117	      2.23256562	     92.68458353	     88.13189828	      0.00000000	      0.00000000	     -4.16554820	    -24.95297215	     12.04008287	    115.27412990	      1.46856404	      0.00000000	      0.00000000
      4.38500000	     -6.57890617	      3.55397331	     10.44088353	     -3.61410226	      0.91823948	      0.26951320	      7.21339448	     -2.95358341	     -9.57553042	     99.76535952	      1.74123400	     -4.82635148	      0.00000000	      0.00000000	     28.74369785	      5.91943450	     -2.67890843	     46.99352657	      0.82019177	     23.32738384	      0.00000000	      0.00000000	    -35.61454723	      0.24777110	     -4.15864459	     -4.34519203	    -21.71868181	      1.65521852	     92.02179477	     88.04770723	      0.00000000	      0.00000000	     -1.67939084	    -24.10506910	     12.47013513	    115.38483541	      1.47480098	      0.00000000	      0.00000000
      4.39000000	     -7.23462075	      3.05903598	     11.19054371	     -3.59061321	      0.91560855	      0.26801608	     11.07942922	     -3.39663337	     -9.82414022	    103.17578381	      1.80075714	     -2.65415710	      0.00000000	      0.00000000	     28.24152506	      5.57334092	     -2.14424143	     47.98763133	      0.83754217	     24.68122890	      0.00000000	      0.00000000	    -34.80306305	      1.16942891	     -5.04311948	     -6.38675429	    -22.22553670	      0.10802430	     91.91546202	     88.08035540	      0.00000000	      0.00000000	      1.38813233	    -23.32445785	     13.60602479	    115.17387150	      1.46711939	      0.00000000	      0.00000000
      4.39500000	     -7.63742921	      2.65563651	     11.78456596	     -3.56660710	      0.91363804	      0.26675282	     14.66471320	     -3.89610961	     -9.86180044	    106.12366451	      1.85220736	     -0.56255387	      0.00000000	      0.00000000	     27.32011665	      5.17865610	     -1.68774697	     48.74896095	      0.85082988	     26.15737211	      0.00000000	      0.00000000	    -34.22588681	      1.97561838	     -6.12720374	     -8.18012187	    -22.87891446	     -0.92604838	     91.83794347	     88.07234105	      0.00000000	      0.00000000	      4.12037028	    -22.63543387	     14.30999917	    115.13468841	      1.47667935	      0.00000000	      0.00000000
      4.40000000	     -7.79443522	      2.37687210	     12.25665195	     -3.54196923	      0.91233196	      0.26565075	     17.93102745	     -4.46014507	     -9.72817483	    108.61831951	      1.89574730	      1.61383723	      0.00000000	      0.00000000	     25.93611840	      4.78216954	     -1.30347677	     49.19513731	      0.85861712	     27.65804658	      0.00000000	      0.00000000	    -33.88277361	      2.65635596	     -7.36446300	     -9.81160215	    -23.65964325	     -1.59860647	     91.80571638	     87.99379014	      0.00000000	      0.00000000	      6.58215566	    -22.08091464	     14.65424154	    115.28704312	      1.48659538	      0.00000000	      0.00000000
      4.40500000	     -8.69471118	      1.77227933	     12.63301851	     -3.51801400	      0.90973556	      0.26481020	     22.35202870	     -4.74374254	     -9.34585726	    110.96211522	      1.93665426	      3.19822039	      0.00000000	      0.00000000	     25.60026411	      4.14362729	     -0.90670602	     49.87846886	      0.87054351	     28.41448566	      0.00000000	      0.00000000	    -32.67801219	      3.41922784	     -7.91690421	    -12.18918473	    -24.38879797	     -3.08371885	     92.28370529	     88.03149842	      0.00000000	      0.00000000	      9.47557993	    -21.50195432	     15.65278784	    115.14060245	      1.47701985	      0.00000000	      0.00000000
      4.41000000	     -9.33585443	      1.21684165	     12.87296565	     -3.49333064	      0.90775675	      0.26412928	     26.42628868	     -4.96710619	     -8.85722600	    112.80686149	      1.96885115	      4.89345107	      0.00000000	      0.00000000	     24.76105985	      3.43072669	     -0.60625566	     50.17985292	      0.87580365	     29.29867748	      0.00000000	      0.00000000	    -31.70521733	      4.13031051	     -8.56953373	    -14.40669173	    -25.21511870	     -4.24616956	     92.75015930	     88.01905501	      0.00000000	      0.00000000	     12.02323379	    -21.04480914	     16.28212305	    115.21949593	      1.48949843	      0.00000000	      0.00000000
      4.41500000	     -9.72850295	      0.71297012	     13.00658199	     -3.46796928	      0.90636682	      0.26350276	     30.13878663	     -5.13748310	     -8.30740198	    114.17869415	      1.99279415	      6.81339393	      0.00000000	      0.00000000	     23.42630256	      2.66266460	     -0.39178356	     50.09088428	      0.87425086	     30.21024350	      0.00000000	      0.00000000	    -30.96694936	      4.80708235	     -9.28454948	    -16.51563443	    -26.18006752	     -5.13513550	     93.26076750	     87.97708254	      0.00000000	      0.00000000	     14.26672338	    -20.68347748	     16.56712570	    115.50948296	      1.42270016	      0.00000000	      0.00000000
      4.42000000	    -10.71285264	     -0.03965476	     12.96018343	     -3.44298531	      0.90391092	      0.26327586	     34.75698210	     -5.01055964	     -7.56813499	    115.29861454	      2.01234045	      7.89146078	      0.00000000	      0.00000000	     22.83249208	      1.68582299	     -0.29991687	     50.03763627	      0.87332150	     30.53747446	      0.00000000	      0.00000000	    -29.52943665	      5.50639721	     -9.32472568	    -19.33206061	    -26.95821399	     -6.80096085	     94.13054885	     87.97661159	      0.00000000	      0.00000000	     16.84228413	    -20.30773729	     17.48849919	    115.55957208	      1.49469220	      0.00000000	      0.00000000
      4.42500000	    -11.33321775	     -0.73175398	     12.83028389	     -3.41716506	      0.90225786	      0.26295346	     38.78454579	     -4.82448108	     -6.88122974	    115.92029291	      2.02319078	      9.44779242	      0.00000000	      0.00000000	     21.56410422	      0.67159269	     -0.26765311	     49.51338041	      0.86417151	     30.98252126	      0.00000000	      0.00000000	    -28.45714938	      6.23340277	     -9.56083256	    -21.87562526	    -27.91870711	     -8.04283435	     94.93499921	     87.95474630	      0.00000000	      0.00000000	     18.93398377	    -20.04044458	     17.87108249	    115.93796477	      1.46467007	      0.00000000	      0.00000000
      4.43000000	    -12.15497813	     -1.49104895	     12.57654327	     -3.39130395	      0.90031924	      0.26279971	     43.07689532	     -4.49758789	     -6.13228550	    116.19614843	      2.02800537	     10.36047341	      0.00000000	      0.00000000	     20.45274679	     -0.40650882	     -0.32537141	     48.83186999	      0.85227691	     30.99764591	      0.00000000	      0.00000000	    -27.13968289	      6.94572435	     -9.45792637	    -24.77550958	    -28.76734180	     -9.62989503	     95.88961186	     87.93217057	      0.00000000	      0.00000000	     21.11055314	    -19.77181229	     18.51279616	    116.22377934	      1.49721989	      0.00000000	      0.00000000
      4.43500000	    -12.86218498	     -2.25505069	     12.23337621	     -3.36496334	      0.89874791	      0.26262704	     47.10006546	     -4.07081241	     -5.44207549	    116.04889864	      2.02543537	     11.42341646	      0.00000000	      0.00000000	     19.04908540	     -1.52305306	     -0.43532299	     47.83918970	      0.83495137	     30.82341073	      0.00000000	      0.00000000	    -25.93490725	      7.69725179	     -9.33932402	    -27.62979916	    -29.67157870	    -11.11361306	     96.84243278	     87.89970479	      0.00000000	      0.00000000	     23.01019883	    -19.57995250	     18.92178533	    116.69311573	      1.49406224	      0.00000000	      0.00000000
      4.44000000	    -13.55284225	     -3.00898851	     11.81033026	     -3.33835280	      0.89740880	      0.26243559	     50.99222825	     -3.59516894	     -4.80094876	    115.52341909	      2.01626403	     12.20652998	      0.00000000	      0.00000000	     17.49309840	     -2.61751645	     -0.55629652	     46.57308484	      0.81285367	     30.27515003	      0.00000000	      0.00000000	    -24.75267735	      8.45720705	     -9.10268141	    -30.57568560	    -30.51633039	    -12.69880517	     97.81452879	     87.86919533	      0.00000000	      0.00000000	     24.78028280	    -19.40640068	     19.28186013	    117.20995793	      1.50339550	      0.00000000	      0.00000000
      4.44500000	    -14.17618014	     -3.74208331	     11.30825855	     -3.31138689	      0.89641108	      0.26220413	     54.63677686	     -3.06299736	     -4.21832231	    114.61747522	      2.00045232	     12.91616928	      0.00000000	      0.00000000	     15.74376410	     -3.68673323	     -0.70185354	     45.07539845	      0.78671411	     29.31335757	      0.00000000	      0.00000000	    -23.65198739	      9.23043854	     -8.79986129	    -33.52709889	    -31.35249045	    -14.27257912	     98.77768997	     87.82378631	      0.00000000	      0.00000000	     26.35976925	    -19.28324058	     19.54167586	    117.80440287	      1.50922945	      0.00000000	      0.00000000
      4.45000000	    -14.61197926	     -4.42428412	     11.10281233	     -3.28418772	      0.89616691	      0.26142741	     57.78533533	     -2.86565220	     -3.95474429	    113.30717479	      1.97758327	     13.39815804	      0.00000000	      0.00000000	     13.71386520	     -4.56530114	     -0.34820347	     43.25824409	      0.75499879	     28.20126895	      0.00000000	      0.00000000	    -22.72133716	     10.11825403	     -9.22520257	    -35.79052713	    -32.65385799	    -14.90086586	     99.50485897	     87.54005261	      0.00000000	      0.00000000	     27.49088080	    -19.59512195	     19.42498037	    118.81200434	      1.74849512	      0.00000000	      0.00000000
      4.45500000	    -15.21018632	     -5.07700291	     10.12222005	     -3.25655779	      0.89569255	      0.26168191	     61.05744912	     -1.92505270	     -3.25586183	    111.70219593	      1.94957110	     13.99718046	      0.00000000	      0.00000000	     11.70584882	     -5.61184052	     -0.95101492	     41.39999132	      0.72256616	     25.92360484	      0.00000000	      0.00000000	    -21.77690228	     10.74916591	     -8.01884077	    -39.29759570	    -32.85917609	    -17.37158799	    100.53979823	     87.73301421	      0.00000000	      0.00000000	     29.02000783	    -19.17758618	     19.85574360	    119.18708558	      1.51747761	      0.00000000	      0.00000000
      4.46000000	    -15.67138429	     -5.68731689	      9.59910912	     -3.22873267	      0.89596875	      0.26119719	     63.80017571	     -1.49354660	     -2.97842047	    109.72570264	      1.91507479	     14.46675545	      0.00000000	      0.00000000	      9.59423665	     -6.40727604	     -0.82204777	     39.36139034	      0.68698586	     23.21132527	      0.00000000	      0.00000000	    -20.92580742	     11.54357651	     -7.82568731	    -41.90365499	    -33.65869092	    -18.61542838	    101.26530118	     87.62853974	      0.00000000	      0.00000000	     29.92339092	    -19.27460722	     19.75146853	    120.06305273	      1.52452154	      0.00000000	      0.00000000
      4.46500000	    -15.86768007	     -6.15177389	      8.82419513	     -3.20039771	      0.89696079	      0.26103413	     65.98599014	     -0.86012342	     -2.60387087	    107.43721116	      1.87513307	     14.85461381	      0.00000000	      0.00000000	      7.02997816	     -7.07921330	     -0.90752943	     37.04113074	      0.64648969	     20.06970135	      0.00000000	      0.00000000	    -20.46506567	     12.15721644	     -7.20941469	    -44.50788323	    -34.17740531	    -20.06156859	    101.91551560	     87.62694033	      0.00000000	      0.00000000	     30.87754902	    -19.39607980	     19.91375370	    120.84139977	      1.51990857	      0.00000000	      0.00000000
      4.47000000	    -16.26816870	     -6.61881004	      8.35389851	     -3.17200854	      0.89800781	      0.26026606	     68.06955819	     -0.61420440	     -2.47806255	    104.87047971	      1.83033516	     15.23111269	      0.00000000	      0.00000000	      4.84967413	     -7.55668813	     -0.37494929	     34.76830371	      0.60682138	     16.46054287	      0.00000000	      0.00000000	    -19.73196844	     12.90193347	     -7.07092071	    -46.83979148	    -34.80813498	    -21.20521170	    102.41966026	     87.49869817	      0.00000000	      0.00000000	     31.30748220	    -19.55185409	     19.68305349	    121.77762603	      1.53930939	      0.00000000	      0.00000000
      4.47500000	    -16.64787479	     -7.02545560	      7.87865220	     -3.14327740	      0.89926256	      0.25954562	     69.82830401	     -0.41206357	     -2.41119700	    102.05980081	      1.78127956	     15.58644124	      0.00000000	      0.00000000	      2.68005473	     -7.91838165	      0.35631381	     32.48141425	      0.56690762	     12.78336091	      0.00000000	      0.00000000	    -19.02135084	     13.58263531	     -6.92115448	    -48.96182754	    -35.33451746	    -22.21992632	    102.81556652	     87.36404619	      0.00000000	      0.00000000	     31.61447488	    -19.90039892	     19.67314154	    122.75648982	      1.60012180	      0.00000000	      0.00000000
      4.48000000	    -15.95379542	     -7.13116982	      6.81596254	     -3.11355419	      0.90254712	      0.25965583	     70.07101182	      0.43692849	     -2.05020844	     98.91048216	      1.72631358	     16.10883466	      0.00000000	      0.00000000	     -0.94526754	     -8.12268583	      0.10728849	     29.76431627	      0.51948532	      7.63113138	      0.00000000	      0.00000000	    -19.75336049	     13.85498957	     -5.89015487	    -50.90046391	    -35.66592206	    -23.32745919	    103.20435726	     87.54232252	      0.00000000	      0.00000000	     32.12147519	    -20.12951331	     19.77954858	    123.49216134	      1.52705934	      0.00000000	      0.00000000
      4.48500000	    -15.80142871	     -7.33808430	      6.18190808	     -3.08404661	      0.90511233	      0.25920431	     70.60462304	      0.77877168	     -2.01831858	     95.57872471	      1.66816344	     16.56396378	      0.00000000	      0.00000000	     -3.58658144	     -8.23419488	      0.72179959	     27.48845415	      0.47976403	      2.92159145	      0.00000000	      0.00000000	    -19.77106610	     14.32345472	     -5.40984879	    -52.57284564	    -35.98635694	    -24.18138672	    103.41349891	     87.51723310	      0.00000000	      0.00000000	     32.14051531	    -20.47743309	     19.77049765	    124.33944417	      1.53032552	      0.00000000	      0.00000000
      4.49000000	    -15.55805769	     -7.51507984	      5.54755567	     -3.05430839	      0.90793550	      0.25878719	     70.73457392	      1.11501505	     -2.06441593	     92.03167019	      1.60625566	     17.01314148	      0.00000000	      0.00000000	     -6.16256517	     -8.26945199	      1.40280105	     25.41950213	      0.44365401	     -1.71372435	      0.00000000	      0.00000000	    -19.91935028	     14.75818802	     -4.85680887	    -54.00022077	    -36.18955354	    -24.97157927	    103.55359474	     87.50051496	      0.00000000	      0.00000000	     31.96617175	    -20.85074815	     19.83178886	    125.15083487	      1.53315538	      0.00000000	      0.00000000
      4.49500000	    -15.71851540	     -7.65337804	      5.21021467	     -3.02477754	      0.91027655	      0.25793043	     71.01784360	      1.05530056	     -2.23940463	     88.31352085	      1.54136171	     17.33373515	      0.00000000	      0.00000000	     -7.90208624	     -8.19098358	      2.68327084	     23.91306490	      0.41736172	     -5.79462439	      0.00000000	      0.00000000	    -19.54377045	     15.22292182	     -4.66114100	    -55.13514974	    -36.33266444	    -25.55082790	    103.50716746	     87.39416909	      0.00000000	      0.00000000	     31.44985673	    -21.19142494	     19.84356920	    125.84919601	      1.55492713	      0.00000000	      0.00000000
      4.50000000	    -14.97201138	     -7.76246609	      4.49342554	     -2.99462851	      0.91403997	      0.25780663	     70.01689172	      1.56325814	     -2.36624214	     84.33164214	      1.47186482	     17.71641575	      0.00000000	      0.00000000	    -10.64531778	     -8.09695716	      3.28932658	     22.48341518	      0.39240962	     -9.71263283	      0.00000000	      0.00000000	    -20.35794049	     15.53027873	     -3.90767468	    -55.87903105	    -36.54946295	    -25.96204293	    103.51083750	     87.46160991	      0.00000000	      0.00000000	     30.99194392	    -21.65506063	     19.90614476	    126.50412180	      1.52965741	      0.00000000	      0.00000000
      4.50500000	    -14.95820968	     -7.76149920	      4.09043407	     -2.96492155	      0.91673378	      0.25718053	     69.57465197	      1.56170688	     -2.56258179	     80.25067427	      1.40063849	     17.76977411	      0.00000000	      0.00000000	    -12.06709618	     -7.81261287	      4.54107082	     21.93991664	      0.38292378	    -12.59356883	      0.00000000	      0.00000000	    -20.25624658	     15.79526769	     -3.53297260	    -56.38983405	    -36.54592239	    -26.28649117	    103.29372044	     87.37522523	      0.00000000	      0.00000000	     30.17275776	    -22.01582495	     20.00055985	    126.97697651	      1.53929506	      0.00000000	      0.00000000
      4.51000000	    -14.40907072	     -7.83089720	      3.55237816	     -2.93492273	      0.92023243	      0.25681030	     68.27858049	      1.84478693	     -2.84982953	     75.96766078	      1.32588581	     17.72649040	      0.00000000	      0.00000000	    -13.87158882	     -7.57853671	      5.40778733	     21.85231064	      0.38139477	    -14.89037631	      0.00000000	      0.00000000	    -20.85270804	     16.08818137	     -2.95123465	    -56.52585082	    -36.70998935	    -26.40809340	    103.15084936	     87.38268761	      0.00000000	      0.00000000	     29.19005788	    -22.46967697	     19.99224739	    127.42158168	      1.53169404	      0.00000000	      0.00000000
      4.51500000	    -14.10063052	     -7.74642853	      3.01010900	     -2.90513262	      0.92332759	      0.25650472	     67.03844027	      2.03412195	     -3.03620170	     71.59908821	      1.24963983	     17.36294162	      0.00000000	      0.00000000	    -15.04496875	     -7.11243694	      6.31701999	     22.52373535	      0.39311334	    -16.15649854	      0.00000000	      0.00000000	    -21.18556112	     16.16748128	     -2.34014200	    -56.33439158	    -36.70103808	    -26.38277345	    102.78202370	     87.34182699	      0.00000000	      0.00000000	     28.09318141	    -22.81422531	     20.08033834	    127.58064495	      1.51891351	      0.00000000	      0.00000000
      4.52000000	    -13.65718421	     -7.72893587	      2.42912755	     -2.87528724	      0.92649782	      0.25625004	     65.43272728	      2.33643836	     -3.32291593	     67.13179825	      1.17167091	     16.81196857	      0.00000000	      0.00000000	    -16.07448170	     -6.66935431	      6.97166771	     23.81750968	      0.41569396	    -16.72436640	      0.00000000	      0.00000000	    -21.72139325	     16.30559181	     -1.68442632	    -55.88061089	    -36.80294086	    -26.25016904	    102.49458176	     87.32710556	      0.00000000	      0.00000000	     26.74298523	    -23.20106205	     20.02487290	    127.70118214	      1.51990191	      0.00000000	      0.00000000
      4.52500000	    -13.24653390	     -7.71719835	      1.81873694	     -2.84544924	      0.92948355	      0.25606781	     63.67511437	      2.67442346	     -3.67026241	     62.64095328	      1.09329088	     16.08375871	      0.00000000	      0.00000000	    -16.77225961	     -6.18967123	      7.40609610	     25.72434490	      0.44897452	    -16.69764908	      0.00000000	      0.00000000	    -22.24169270	     16.42075330	     -0.98742985	    -55.13890570	    -36.90179932	    -26.00073233	    102.16039417	     87.31275881	      0.00000000	      0.00000000	     25.15266703	    -23.50397915	     19.84047192	    127.64787895	      1.51780305	      0.00000000	      0.00000000
      4.53000000	    -12.87391141	     -7.54673646	      1.20173639	     -2.81585096	      0.93224799	      0.25610813	     61.83649412	      2.98673895	     -3.82483682	     58.21662097	      1.01607172	     15.08963848	      0.00000000	      0.00000000	    -17.08913998	     -5.53696308	      7.60912496	     28.25212267	      0.49309256	    -16.31638660	      0.00000000	      0.00000000	    -22.73734677	     16.30596013	     -0.32704013	    -54.03183593	    -36.97552529	    -25.47413025	    101.71080967	     87.27521477	      0.00000000	      0.00000000	     23.47294197	    -23.85164256	     19.67685430	    127.40610901	      1.52141188	      0.00000000	      0.00000000
      4.53500000	    -12.49490570	     -7.41015627	      0.56597516	     -2.78627777	      0.93480919	      0.25635068	     59.86263509	      3.36143479	     -4.03301518	     53.90039653	      0.94073939	     13.92621404	      0.00000000	      0.00000000	    -17.15175755	     -4.94644696	      7.44800796	     31.25633233	      0.54552591	    -15.65931647	      0.00000000	      0.00000000	    -23.26145693	     16.18224113	      0.30977478	    -52.60483567	    -37.11076324	    -24.75346767	    101.22671974	     87.25243065	      0.00000000	      0.00000000	     21.57122310	    -24.17773211	     19.36269216	    127.04792746	      1.51723614	      0.00000000	      0.00000000
      4.54000000	    -12.09853158	     -7.22516013	     -0.09393815	     -2.75683751	      0.93715301	      0.25688339	     57.79783767	      3.75475937	     -4.19029020	     49.79798890	      0.86913887	     12.65683554	      0.00000000	      0.00000000	    -16.98738986	     -4.35828066	      6.97210502	     34.65489671	      0.60484205	    -14.88783802	      0.00000000	      0.00000000	    -23.82273606	     15.94173297	      0.93000128	    -50.85865905	    -37.24638661	    -23.81804045	    100.70078824	     87.22913016	      0.00000000	      0.00000000	     19.54535561	    -24.52575733	     18.95579413	    126.52788252	      1.51920332	      0.00000000	      0.00000000
      4.54500000	    -11.67913457	     -7.01577812	     -0.76442483	     -2.72752687	      0.93927709	      0.25768186	     55.66143788	      4.16201731	     -4.31048133	     45.98227075	      0.80254202	     11.31699469	      0.00000000	      0.00000000	    -16.62531560	     -3.82382921	      6.21718957	     38.37233286	      0.66972355	    -14.05659134	      0.00000000	      0.00000000	    -24.42400554	     15.61823078	      1.52027941	    -48.80952758	    -37.37920798	    -22.67883328	    100.13962762	     87.22315611	      0.00000000	      0.00000000	     17.38461523	    -24.85796172	     18.42994849	    125.87377026	      1.51283006	      0.00000000	      0.00000000
      4.55000000	    -11.10683065	     -6.35056979	     -1.48864025	     -2.69858864	      0.94111686	      0.25893820	     53.48351207	      4.33817977	     -3.89387371	     42.79576003	      0.74692692	     10.35447721	      0.00000000	      0.00000000	    -16.24102815	     -2.82229125	      5.55923004	     42.21439245	      0.73678014	    -13.46155009	      0.00000000	      0.00000000	    -25.15973292	     14.70669791	      2.24328312	    -46.74220677	    -37.04254698	    -21.72501223	     99.69280737	     87.13669132	      0.00000000	      0.00000000	     15.65702885	    -25.35220398	     18.32340533	    124.83353271	      1.54538700	      0.00000000	      0.00000000
      4.55500000	    -10.76328172	     -6.49717472	     -2.11143079	     -2.66933857	      0.94281616	      0.26005721	     51.29355678	      4.90830007	     -4.39666446	     39.54303912	      0.69015623	      8.61726917	      0.00000000	      0.00000000	    -15.42077360	     -2.94480863	      4.16665502	     46.46560994	      0.81097788	    -12.28196711	      0.00000000	      0.00000000	    -25.73578446	     14.69233348	      2.59389295	    -43.91594657	    -37.53998575	    -19.82018046	     98.93556287	     87.22728097	      0.00000000	      0.00000000	     12.81634551	    -25.49533079	     17.06517504	    124.14492232	      1.50604750	      0.00000000	      0.00000000
      4.56000000	    -10.26940565	     -6.16429267	     -2.74695899	     -2.64060891	      0.94425555	      0.26151196	     49.13117989	      5.15430947	     -4.40851662	     37.04632800	      0.64658040	      7.34204915	      0.00000000	      0.00000000	    -14.59252487	     -2.56917491	      3.09111185	     50.75262067	      0.88580033	    -11.29710776	      0.00000000	      0.00000000	    -26.43017197	     14.08541857	      3.02632833	    -41.09092777	    -37.54442685	    -18.10527620	     98.28680683	     87.21301061	      0.00000000	      0.00000000	     10.48423281	    -25.78593237	     16.23893334	    123.06603819	      1.50862985	      0.00000000	      0.00000000
      4.56500000	     -9.77650418	     -5.82297738	     -3.41869332	     -2.61214774	      0.94544114	      0.26313961	     47.01180833	      5.38169007	     -4.34199737	     35.02532225	      0.61130719	      6.10230851	      0.00000000	      0.00000000	    -13.61630937	     -2.26099306	      1.94471642	     55.14762257	      0.96250759	    -10.15850958	      0.00000000	      0.00000000	    -27.14770553	     13.41984796	      3.51676244	    -38.15003160	    -37.44859136	    -16.38195496	     97.70188887	     87.23107106	      0.00000000	      0.00000000	      8.21071958	    -26.05063099	     15.45643008	    121.83052026	      1.50542501	      0.00000000	      0.00000000
      4.57000000	     -9.22164374	     -5.46432538	     -4.06344252	     -2.58383262	      0.94636326	      0.26486784	     44.92055640	      5.51773027	     -4.25053774	     33.60887319	      0.58658550	      5.05115992	      0.00000000	      0.00000000	    -12.59052168	     -2.02013726	      0.82293121	     59.58910862	      1.04002614	     -8.88463076	      0.00000000	      0.00000000	    -27.87021868	     12.68845082	      4.07855828	    -35.20569759	    -37.22167289	    -14.68974474	     97.04257915	     87.25374310	      0.00000000	      0.00000000	      6.15250631	    -26.17834935	     14.69635010	    120.22877868	      1.48507674	      0.00000000	      0.00000000
      4.57500000	     -8.63193171	     -5.08212883	     -4.66149301	     -2.55590715	      0.94719745	      0.26668422	     42.82579426	      5.55903478	     -4.10406575	     32.61055280	      0.56916152	      4.37043148	      0.00000000	      0.00000000	    -11.43657427	     -1.81880405	     -0.19538878	     64.08302136	      1.11845972	     -7.53966648	      0.00000000	      0.00000000	    -28.67122087	     11.91730397	      4.69829541	    -32.27396194	    -36.80263161	    -13.06407841	     96.51221798	     87.25050904	      0.00000000	      0.00000000	      4.29367716	    -26.34941139	     14.10609249	    118.52197097	      1.49523271	      0.00000000	      0.00000000
      4.58000000	     -8.17654323	     -4.86573008	     -5.19344422	     -2.52810781	      0.94755899	      0.26844352	     40.89297364	      5.62056667	     -4.20948420	     32.02905905	      0.55901254	      3.86039517	      0.00000000	      0.00000000	    -10.02018198	     -1.88123037	     -1.11110288	     68.67158825	      1.19854532	     -5.97778811	      0.00000000	      0.00000000	    -29.33144013	     11.34120113	      5.12558438	    -29.05589352	    -36.53501476	    -11.13385569	     95.99017797	     87.29317169	      0.00000000	      0.00000000	      2.15275347	    -26.36916848	     13.06084599	    116.85895100	      1.48827473	      0.00000000	      0.00000000
      4.58500000	     -7.67430154	     -4.57353583	     -5.62073472	     -2.50069038	      0.94777193	      0.27012901	     38.98417500	      5.52081949	     -4.25033385	     31.88011507	      0.55641297	      3.88965103	      0.00000000	      0.00000000	     -8.49268645	     -1.91073993	     -1.83421698	     73.23423072	      1.27817845	     -4.52305337	      0.00000000	      0.00000000	    -30.01323811	     10.69345752	      5.54773224	    -25.86505281	    -36.10455141	     -9.31438104	     95.48306854	     87.30537719	      0.00000000	      0.00000000	      0.32012190	    -26.43881815	     12.26088343	    114.99275275	      1.48309040	      0.00000000	      0.00000000
      4.59000000	     -7.13965995	     -4.38156424	     -6.17445218	     -2.47338800	      0.94779076	      0.27203026	     37.05356188	      5.57008455	     -4.13976781	     32.07561181	      0.55982504	      4.35303520	      0.00000000	      0.00000000	     -6.97703336	     -2.05358972	     -2.59769280	     77.69232304	      1.35598684	     -2.77457014	      0.00000000	      0.00000000	    -30.74694581	     10.06656519	      6.46591534	    -23.11919912	    -35.47404829	     -8.03789443	     95.21144060	     87.30341068	      0.00000000	      0.00000000	     -0.99872286	    -26.45289717	     11.92175110	    112.76606197	      1.48305136	      0.00000000	      0.00000000
      4.59500000	     -6.63750195	     -4.23544665	     -6.66410282	     -2.44640287	      0.94764297	      0.27398735	     35.17270496	      5.61348380	     -4.06758951	     32.53519164	      0.56784622	      5.40186050	      0.00000000	      0.00000000	     -5.28122078	     -2.32204593	     -3.24519766	     82.13685433	      1.43355855	     -1.03705724	      0.00000000	      0.00000000	    -31.45185619	      9.48480659	      7.40459863	    -20.34667971	    -34.81164655	     -6.75501939	     94.94760377	     87.31322172	      0.00000000	      0.00000000	     -2.12477095	    -26.50559542	     11.70954082	    110.44452933	      1.47561459	      0.00000000	      0.00000000
      4.60000000	     -6.21678760	     -4.14302784	     -7.08764146	     -2.41955932	      0.94715227	      0.27580611	     33.41948741	      5.64950133	     -3.99042788	     33.31210149	      0.58140585	      6.86345599	      0.00000000	      0.00000000	     -3.39300989	     -2.66821612	     -3.69603265	     86.51220911	      1.50992289	      0.64937688	      0.00000000	      0.00000000	    -32.04800790	      8.98804797	      8.33636513	    -17.62141396	    -34.17600930	     -5.59035311	     94.80245668	     87.33281829	      0.00000000	      0.00000000	     -3.20735283	    -26.50017919	     11.43104586	    108.04226405	      1.47181925	      0.00000000	      0.00000000
      4.60500000	     -5.66080459	     -4.09308706	     -7.54107972	     -2.39290740	      0.94687449	      0.27778305	     31.52483486	      5.72922125	     -3.83203822	     34.26106589	      0.59796841	      8.66752439	      0.00000000	      0.00000000	     -1.57784780	     -3.06534326	     -4.07531300	     90.66892411	      1.58247126	      2.09310585	      0.00000000	      0.00000000	    -32.79153403	      8.45885248	      9.52660026	    -15.02009230	    -33.52706405	     -4.55179886	     94.72116484	     87.28130768	      0.00000000	      0.00000000	     -3.82016000	    -26.63330601	     11.62791803	    105.42045154	      1.48113234	      0.00000000	      0.00000000
      4.61000000	     -5.72226505	     -3.96064874	     -7.81014493	     -2.36662074	      0.94533106	      0.27933026	     30.43926431	      5.65811997	     -3.74729802	     35.57444831	      0.62089125	     10.78082775	      0.00000000	      0.00000000	      1.14096813	     -3.45737054	     -4.13660937	     94.96899826	      1.65752171	      3.89639793	      0.00000000	      0.00000000	    -32.83528058	      8.05721261	     10.32092269	    -12.29117401	    -32.85258958	     -3.39802268	     94.70258690	     87.43298745	      0.00000000	      0.00000000	     -4.85826679	    -26.53242289	     11.20076464	    103.00637467	      1.46576261	      0.00000000	      0.00000000
      4.61500000	     -5.19532608	     -3.95441582	     -8.23299909	     -2.34013935	      0.94500308	      0.28118518	     28.56111573	      5.73366284	     -3.45631012	     36.69975116	      0.64053149	     12.96118056	      0.00000000	      0.00000000	      3.15904452	     -3.91359436	     -4.28415832	     98.74761233	      1.72347096	      5.15632706	      0.00000000	      0.00000000	    -33.52911755	      7.56557869	     11.63842691	     -9.78946011	    -32.22126300	     -2.56124837	     94.78735751	     87.34826150	      0.00000000	      0.00000000	     -5.17803681	    -26.65649712	     11.58225895	    100.26077570	      1.47639125	      0.00000000	      0.00000000
      4.62000000	     -5.13411073	     -3.89007909	     -8.60131386	     -2.31388886	      0.94375757	      0.28299491	     27.23059229	      5.77641517	     -3.08601833	     37.92888309	      0.66198389	     15.46626570	      0.00000000	      0.00000000	      5.83268400	     -4.37612104	     -4.23596325	    102.50653768	      1.78907659	      6.79372030	      0.00000000	      0.00000000	    -33.68287104	      7.10153982	     12.87031458	     -7.34214424	    -31.54279043	     -1.81557113	     94.97587505	     87.42524457	      0.00000000	      0.00000000	     -5.65247275	    -26.74634575	     11.74509433	     97.68219684	      1.47277602	      0.00000000	      0.00000000
      4.62500000	     -5.74178378	     -3.52285293	     -8.84128731	     -2.28829086	      0.94140272	      0.28444206	     26.85485248	      5.49412990	     -2.68032278	     39.49180520	      0.68926203	     17.49240369	      0.00000000	      0.00000000	      9.58203158	     -4.54012720	     -3.86844952	    106.24188895	      1.85427077	      8.01528066	      0.00000000	      0.00000000	    -33.06470821	      6.53298621	     13.77329334	     -4.86312475	    -30.79857499	     -1.02768281	     95.17302813	     87.58563124	      0.00000000	      0.00000000	     -6.24297479	    -26.83470962	     11.67710461	     95.17194153	      1.45976440	      0.00000000	      0.00000000
      4.63000000	     -5.89413172	     -3.32105526	     -9.16768239	     -2.26208930	      0.94005444	      0.28602372	     25.70662071	      5.35579487	     -2.14596724	     40.61472869	      0.70886074	     19.52784102	      0.00000000	      0.00000000	     12.72679355	     -4.83981151	     -3.58977375	    109.46287658	      1.91048761	      9.12727295	      0.00000000	      0.00000000	    -32.92141724	      5.98534629	     14.94027455	     -2.48354277	    -30.13204974	     -0.38986191	     95.49118453	     87.65308441	      0.00000000	      0.00000000	     -6.62301691	    -26.98196242	     11.86288912	     92.64769796	      1.45505020	      0.00000000	      0.00000000
      4.63500000	     -6.21753343	     -3.01547809	     -9.45749219	     -2.23587496	      0.93856986	      0.28746426	     24.67869912	      5.09451800	     -1.55036115	     41.57877195	      0.72568647	     21.31575507	      0.00000000	      0.00000000	     16.18487663	     -5.01207905	     -3.20068980	    112.39414328	      1.96164786	     10.00930576	      0.00000000	      0.00000000	    -32.53414942	      5.38341471	     15.99700993	     -0.10989028	    -29.45838289	      0.25325089	     95.85761081	     87.71746022	      0.00000000	      0.00000000	     -7.04139550	    -27.18056353	     12.00793865	     90.23258470	      1.45866332	      0.00000000	      0.00000000
      4.64000000	     -6.59366517	     -2.65502293	     -9.70450027	     -2.20940182	      0.93715367	      0.28880501	     23.59159471	      4.72675400	     -0.97449827	     42.31352943	      0.73851041	     22.88325665	      0.00000000	      0.00000000	     19.76271355	     -5.10733973	     -2.75915702	    114.97498329	      2.00669202	     10.72848526	      0.00000000	      0.00000000	    -32.03430812	      4.75265057	     16.93950229	      2.23293560	    -28.77445078	      0.89341342	     96.30426849	     87.76323308	      0.00000000	      0.00000000	     -7.58987116	    -27.41210846	     12.00987174	     88.00668742	      1.45804116	      0.00000000	      0.00000000
      4.64500000	     -6.97089609	     -2.24932679	     -9.90854459	     -2.18250704	      0.93582194	      0.29003528	     22.36630920	      4.25471674	     -0.42640653	     42.79130543	      0.74684917	     24.22448427	      0.00000000	      0.00000000	     23.36856832	     -5.11918448	     -2.28912407	    117.19404048	      2.04542187	     11.32951197	      0.00000000	      0.00000000	    -31.45538410	      4.09606046	     17.76054410	      4.47760159	    -28.08294842	      1.52006931	     96.87105872	     87.83172647	      0.00000000	      0.00000000	     -8.33855296	    -27.67045579	     11.81560000	     86.05303942	      1.46331534	      0.00000000	      0.00000000
      4.65000000	     -7.36255072	     -1.78465433	    -10.05625425	     -2.15521369	      0.93467884	      0.29111338	     21.00837020	      3.64261637	     -0.00245097	     42.97127452	      0.74999022	     25.32080492	      0.00000000	      0.00000000	     27.00826650	     -5.01930512	     -1.81637744	    119.02391976	      2.07735929	     11.78162941	      0.00000000	      0.00000000	    -30.80129760	      3.41224932	     18.40822832	      6.67788636	    -27.39128844	      2.21197791	     97.54422130	     87.85257911	      0.00000000	      0.00000000	     -9.28658773	    -27.95856607	     11.43210320	     84.38947526	      1.45578508	      0.00000000	      0.00000000
      4.65500000	     -7.72840267	     -1.27502200	    -10.13261217	     -2.12747090	      0.93368505	      0.29212841	     19.47649633	      2.91193522	      0.28678118	     42.85623918	      0.74798248	     26.16737507	      0.00000000	      0.00000000	     30.61232468	     -4.82298448	     -1.34588978	    120.48061748	      2.10278346	     12.14092388	      0.00000000	      0.00000000	    -30.09643764	      2.69723755	     18.89740454	      8.72847684	    -26.73225430	      2.95283336	     98.36533263	     87.87686428	      0.00000000	      0.00000000	    -10.48574032	    -28.32919309	     10.80335573	     83.12784039	      1.45086646	      0.00000000	      0.00000000
      4.66000000	     -8.07761071	     -0.71922462	    -10.13042275	     -2.09919703	      0.93288682	      0.29300017	     17.77393572	      2.05390417	      0.40950049	     42.42940855	      0.74053288	     26.65299853	      0.00000000	      0.00000000	     34.16071403	     -4.52139941	     -0.93336577	    121.53401929	      2.12116879	     12.39100476	      0.00000000	      0.00000000	    -29.33665527	      1.97084268	     19.20421433	     10.64947291	    -26.09564594	      3.75082599	     99.33650940	     87.87722447	      0.00000000	      0.00000000	    -11.95394689	    -28.74059599	      9.94740797	     82.20405894	      1.43744992	      0.00000000	      0.00000000
      4.66500000	     -8.33299933	     -0.11324991	    -10.06335992	     -2.07057080	      0.93248180	      0.29371116	     15.83745157	      1.09003388	      0.45249783	     41.69455186	      0.72770721	     26.87470090	      0.00000000	      0.00000000	     37.55617207	     -4.06000738	     -0.56555349	    122.19277535	      2.13266625	     12.63054834	      0.00000000	      0.00000000	    -28.62316966	      1.19683915	     19.43157357	     12.39587790	    -25.45240991	      4.40839094	    100.42480694	     87.88903739	      0.00000000	      0.00000000	    -13.49594752	    -29.13415183	      8.99196963	     81.60235497	      1.40939765	      0.00000000	      0.00000000
      4.67000000	     -8.65624693	      0.52665119	     -9.87390004	     -2.04153783	      0.93197694	      0.29427450	     13.87171514	      0.04242149	      0.27113388	     40.74653924	      0.71116127	     26.57900097	      0.00000000	      0.00000000	     40.98840714	     -3.50286778	     -0.24475002	    122.52782373	      2.13851395	     12.77169859	      0.00000000	      0.00000000	    -27.78226637	      0.43152741	     19.35878531	     14.09227890	    -24.82939436	      5.29999913	    101.61343894	     87.83429218	      0.00000000	      0.00000000	    -15.55325155	    -29.58895851	      7.59401069	     81.63005415	      1.43040880	      0.00000000	      0.00000000
      4.67500000	     -8.81276521	      1.20258161	     -9.93030669	     -2.01210923	      0.93209931	      0.29536655	     11.60457153	     -0.95408912	      0.44611190	     39.43594798	      0.68828714	     26.04952351	      0.00000000	      0.00000000	     44.02260802	     -3.08380271	     -0.26489139	    122.42169860	      2.13666172	     12.97822093	      0.00000000	      0.00000000	    -27.06008555	     -0.53381552	     19.98039585	     15.06946663	    -24.34472848	      5.44224343	    103.27755138	     87.81983033	      0.00000000	      0.00000000	    -16.97089604	    -30.40617239	      7.24610131	     81.64869020	      1.45256695	      0.00000000	      0.00000000
      4.68000000	     -9.10086500	      1.97066482	     -9.33777298	     -1.98228335	      0.93188010	      0.29536979	      9.37841880	     -2.24973749	     -0.33224686	     38.01764877	      0.66353314	     24.95067567	      0.00000000	      0.00000000	     47.27972625	     -2.06551471	      0.01220071	    122.06654598	      2.13046313	     13.09652499	      0.00000000	      0.00000000	    -26.16828431	     -1.31288732	     19.00555545	     16.94944277	    -23.42583904	      6.75100511	    104.24228462	     87.72229787	      0.00000000	      0.00000000	    -20.02668628	    -30.57973287	      4.56406439	     82.65742976	      1.43584319	      0.00000000	      0.00000000
      4.68500000	     -9.29589274	      2.83282180	     -8.96104115	     -1.95217937	      0.93212186	      0.29579100	      7.01116038	     -3.54468052	     -0.82751201	     36.36911910	      0.63476087	     23.34558975	      0.00000000	      0.00000000	     50.21192530	     -1.13415358	     -0.09292420	    121.28583549	      2.11683717	     13.24432029	      0.00000000	      0.00000000	    -25.33235791	     -2.33081780	     18.73270557	     18.08661675	    -22.71512952	      7.30252382	    105.68822481	     87.68193706	      0.00000000	      0.00000000	    -22.37083205	    -31.14210075	      3.01796420	     83.60013747	      1.42934028	      0.00000000	      0.00000000
      4.69000000	     -9.49184638	      3.72149487	     -8.58930542	     -1.92179579	      0.93254419	      0.29629115	      4.59057799	     -4.81468069	     -1.30965176	     34.53114892	      0.60268224	     21.23771376	      0.00000000	      0.00000000	     52.97868565	     -0.20775155	     -0.35332374	    120.20378814	      2.09795188	     13.38610153	      0.00000000	      0.00000000	    -24.48411499	     -3.40380972	     18.46911143	     19.03747731	    -21.99066291	      7.78468019	    107.24647785	     87.64723516	      0.00000000	      0.00000000	    -24.79758216	    -31.71476588	      1.45510649	     84.74854990	      1.42298009	      0.00000000	      0.00000000
      4.69500000	     -9.58990148	      4.65648997	     -8.10372539	     -1.89119988	      0.93332996	      0.29671018	      1.96873828	     -6.09707227	     -1.92308944	     32.44650119	      0.56629828	     18.65398431	      0.00000000	      0.00000000	     55.47253985	      0.84217148	     -0.71117828	    118.75224785	      2.07261772	     13.53196496	      0.00000000	      0.00000000	    -23.75243625	     -4.53569018	     18.01308562	     20.00626721	    -21.25577962	      8.33580534	    108.68631308	     87.59978561	      0.00000000	      0.00000000	    -27.39804839	    -32.18261793	     -0.39393515	     86.21261723	      1.41888135	      0.00000000	      0.00000000
      4.70000000	     -9.72063572	      5.61968688	     -7.65307372	     -1.86044100	      0.93425957	      0.29720594	     -0.60742662	     -7.33891635	     -2.51017190	     30.26119809	      0.52815754	     15.42101780	      0.00000000	      0.00000000	     57.81638447	      1.85005706	     -1.20752692	    117.01561964	      2.04230784	     13.65629693	      0.00000000	      0.00000000	    -22.99009744	     -5.72675609	     17.69222905	     20.73309444	    -20.60322038	      8.77447026	    110.27081474	     87.56844050	      0.00000000	      0.00000000	    -29.88040286	    -32.68271446	     -2.07142516	     87.71189228	      1.41758321	      0.00000000	      0.00000000
      4.70500000	    -10.33450679	      6.46731314	     -7.51846773	     -1.82986636	      0.93457607	      0.29839907	     -2.49537507	     -8.27698165	     -2.45701037	     28.18004037	      0.49183449	     12.03055004	      0.00000000	      0.00000000	     60.49920064	      2.29355061	     -1.83032873	    115.10490534	      2.00895958	     13.75957131	      0.00000000	      0.00000000	    -21.67271592	     -6.91323563	     18.14852084	     20.88081485	    -20.09404995	      8.70638418	    112.11876583	     87.54503821	      0.00000000	      0.00000000	    -31.99469965	    -33.41665621	     -3.18370307	     89.17053139	      1.43379864	      0.00000000	      0.00000000
      4.71000000	     -9.95379628	      7.50246920	     -6.76344304	     -1.79847610	      0.93675424	      0.29834376	     -5.77687251	     -9.57089311	     -3.67763792	     25.58386054	      0.44652260	      7.24749945	      0.00000000	      0.00000000	     61.85007397	      3.68982094	     -2.43955911	    112.69414703	      1.96688391	     13.87634900	      0.00000000	      0.00000000	    -21.58031084	     -8.13680440	     17.16407311	     21.81007474	    -19.51411752	      9.65686434	    113.52766938	     87.52512106	      0.00000000	      0.00000000	    -34.70573215	    -33.54572111	     -5.35329052	     90.86127885	      1.41059872	      0.00000000	      0.00000000
      4.71500000	    -10.08621207	      8.36364970	     -6.35027438	     -1.76734095	      0.93821081	      0.29904596	     -8.27460104	    -10.49103317	     -4.18752208	     23.19485750	      0.40482663	      2.38879308	      0.00000000	      0.00000000	     63.56114157	      4.46402056	     -3.08154814	    110.16567403	      1.92275373	     13.96057554	      0.00000000	      0.00000000	    -20.89702059	     -9.29066787	     17.00697166	     22.17476151	    -19.10960907	     10.13994099	    115.16655153	     87.52417508	      0.00000000	      0.00000000	    -36.98947223	    -33.92213517	     -6.88418011	     92.40763139	      1.41180804	      0.00000000	      0.00000000
      4.72000000	    -10.08900528	      9.17045966	     -5.91448257	     -1.73600300	      0.93995648	      0.29968551	    -10.90345577	    -11.28912042	     -4.74253378	     20.73094484	      0.36182324	     -2.68019742	      0.00000000	      0.00000000	     64.88846304	      5.20981628	     -3.73818402	    107.39574758	      1.87440940	     14.09659007	      0.00000000	      0.00000000	    -20.40083103	    -10.39559641	     16.77792710	     22.48407948	    -18.77954945	     10.68689407	    116.76176934	     87.52582297	      0.00000000	      0.00000000	    -39.26912037	    -34.14330310	     -8.49981355	     93.97627025	      1.40563771	      0.00000000	      0.00000000
      4.72500000	    -10.74387506	      9.76409924	     -5.83202214	     -1.70509462	      0.94075265	      0.30105556	    -12.39328524	    -11.79830830	     -4.42993257	     18.81213485	      0.32833369	     -7.49310578	      0.00000000	      0.00000000	     66.72380608	      5.26578524	     -4.37582840	    104.53326996	      1.82444974	     14.16410487	      0.00000000	      0.00000000	    -19.13317134	    -11.39470068	     17.31630691	     22.34662862	    -18.55653382	     10.96765763	    118.45578464	     87.54500947	      0.00000000	      0.00000000	    -41.23590800	    -34.46174809	     -9.78443075	     95.39655120	      1.39974187	      0.00000000	      0.00000000
      4.73000000	    -10.23829641	     10.35011474	     -5.20155177	     -1.67350498	      0.94346299	      0.30124917	    -15.51850969	    -12.24325117	     -5.29707026	     16.33608164	      0.28511841	    -13.05005157	      0.00000000	      0.00000000	     67.02020082	      6.18534317	     -4.81394586	    101.30867807	      1.76816999	     14.38070354	      0.00000000	      0.00000000	    -19.33833794	    -12.19281477	     16.75233411	     22.77345796	    -18.48444375	     11.87244019	    119.81584450	     87.59367019	      0.00000000	      0.00000000	    -43.27369223	    -34.45202120	    -11.29497819	     96.85149514	      1.40754904	      0.00000000	      0.00000000
      4.73500000	    -10.25107082	     10.82129337	     -4.87967797	     -1.64219062	      0.94531390	      0.30205478	    -17.63679061	    -12.54608121	     -5.43441243	     14.54389218	      0.25383880	    -17.68979622	      0.00000000	      0.00000000	     67.65250687	      6.56555124	     -5.30695106	     97.95926908	      1.70971178	     14.57693754	      0.00000000	      0.00000000	    -18.92427633	    -12.97561088	     16.71175815	     22.82346815	    -18.40940185	     12.57417067	    121.16795068	     87.63355422	      0.00000000	      0.00000000	    -45.14117945	    -34.39763150	    -12.68455105	     98.17747666	      1.40665128	      0.00000000	      0.00000000
      4.74000000	    -10.23613996	     11.10903576	     -4.56191763	     -1.61094771	      0.94716851	      0.30285682	    -19.57575693	    -12.61649491	     -5.40162293	     13.13433539	      0.22923740	    -21.71578572	      0.00000000	      0.00000000	     68.01714198	      6.81220996	     -5.70880073	     94.44788669	      1.64842659	     14.80033842	      0.00000000	      0.00000000	    -18.57883616	    -13.55592954	     16.72231775	     22.78979397	    -18.45483543	     13.27191609	    122.38210741	     87.68823225	      0.00000000	      0.00000000	    -46.81974150	    -34.26027315	    -13.95006747	     99.43945690	      1.40341067	      0.00000000	      0.00000000
      4.74500000	    -10.19983966	     11.24340422	     -4.30851230	     -1.57972505	      0.94903148	      0.30364177	    -21.25181197	    -12.53975407	     -5.18539343	     12.27608794	      0.21425815	    -24.92168865	      0.00000000	      0.00000000	     68.10838519	      6.97048062	     -5.95680326	     90.75893319	      1.58404221	     15.03127365	      0.00000000	      0.00000000	    -18.27417939	    -13.96825111	     16.79379848	     22.64266048	    -18.56019077	     14.02454630	    123.44445003	     87.74534313	      0.00000000	      0.00000000	    -48.31468222	    -34.01111898	    -15.04894681	    100.56004235	      1.40528385	      0.00000000	      0.00000000
      4.75000000	    -10.41531983	     11.02338148	     -4.09494338	     -1.54888243	      0.95046988	      0.30443361	    -22.22386402	    -12.11300394	     -4.45342149	     12.29239992	      0.21454285	    -26.79424871	      0.00000000	      0.00000000	     68.26388343	      6.84595598	     -5.93421086	     86.96161798	      1.51776656	     15.19591442	      0.00000000	      0.00000000	    -17.72835422	    -13.99347405	     17.17704624	     22.21254127	    -18.80456686	     14.56620118	    124.43680822	     87.80503580	      0.00000000	      0.00000000	    -49.43688242	    -33.76561603	    -15.81820995	    101.50821474	      1.41440167	      0.00000000	      0.00000000
      4.75500000	     -9.99535999	     11.05345719	     -3.83927981	     -1.51758437	      0.95286879	      0.30499984	    -23.88935833	    -11.92296799	     -4.26644801	     12.33844009	      0.21534640	    -28.80595152	      0.00000000	      0.00000000	     67.43238429	      7.06692854	     -6.16809908	     82.83939735	      1.44582023	     15.46801695	      0.00000000	      0.00000000	    -17.92185400	    -14.26073147	     16.97793065	     22.06947252	    -18.99693187	     15.42808761	    124.93014997	     87.85189100	      0.00000000	      0.00000000	    -50.60575714	    -33.20409225	    -16.80547448	    102.48994058	      1.40930558	      0.00000000	      0.00000000
      4.76000000	    -10.07459633	     10.51112594	     -3.45520762	     -1.48667137	      0.95437513	      0.30531071	    -24.63081010	    -11.09137451	     -3.46495932	     13.24956551	      0.23124854	    -29.44753832	      0.00000000	      0.00000000	     66.97488985	      7.03603927	     -5.81050751	     78.71622866	      1.37385736	     15.58085848	      0.00000000	      0.00000000	    -17.60029782	    -13.85185849	     17.19510360	     21.36166608	    -19.38927629	     15.82047930	    125.46898357	     87.89953027	      0.00000000	      0.00000000	    -51.28779214	    -32.83140222	    -17.19661093	    103.26522350	      1.43325821	      0.00000000	      0.00000000
