CEINMS output
datacolumns 6
datarows 92
endheader
time	hip_flexion_l	hip_adduction_l	hip_rotation_l	knee_angle_l	ankle_angle_l	
3.19	49.9494	-113.694	30.6476	-190.81	3.44922	
3.195	81.4995	-165.003	38.3741	-257.325	9.70991	
3.2	54.893	-143.383	14.8031	-271.689	7.95962	
3.205	36.4386	-122.052	-5.41917	-277.035	6.40714	
3.21	69.3192	-123.327	-17.2528	-285.895	7.65246	
3.215	125.609	-130.446	-11.2548	-294.371	9.67027	
3.22	180.348	-139.531	-10.145	-297.857	12.0473	
3.225	217.982	-142.024	-14.8843	-297.115	14.5614	
3.23	240.195	-141.18	-19.9389	-300.087	16.8993	
3.235	249.743	-137.323	-22.8743	-308.679	19.2511	
3.24	254.491	-126.907	-26.8265	-317.328	21.7819	
3.245	254.259	-115.049	-31.9513	-315.766	24.5734	
3.25	249.117	-106.29	-34.3107	-301.687	27.6045	
3.255	240.313	-98.9999	-35.2743	-279.7	30.7968	
3.26	229.459	-91.4426	-35.272	-253.918	34.0697	
3.265	215.191	-80.067	-34.6086	-224.885	37.2334	
3.27	194.572	-65.0559	-34.0757	-193.689	40.1919	
3.275	168.268	-45.3913	-33.0446	-160.929	42.8977	
3.28	137.801	-24.5832	-31.2924	-126.505	45.2741	
3.285	105.463	-8.6849	-29.265	-98.3118	47.2496	
3.29	72.169	0.974836	-26.8687	-69.0747	48.7642	
3.295	33.9882	11.8036	-24.1468	-35.7308	49.7522	
3.3	-8.56929	22.3682	-20.8972	-19.7638	50.1934	
3.305	-40.9878	20.4496	-16.5958	-22.1246	50.1416	
3.31	-43.5125	12.2245	-12.6676	-31.915	49.6975	
3.315	-30.6305	9.86814	-9.84882	-32.4502	49.0278	
3.32	-15.9018	9.43042	-7.73377	-32.9932	48.3162	
3.325	-3.10077	6.76003	-5.85513	-33.7049	47.7299	
3.33	2.84913	2.33771	-2.19304	-33.8793	47.4143	
3.335	1.68327	-4.42187	0.045121	-33.3964	47.472	
3.34	-0.352558	-10.8738	0.309383	-28.8216	47.9786	
3.345	-3.00279	-15.1133	0.772191	-22.5863	48.7999	
3.35	-7.52829	-16.7075	0.791425	-12.8541	49.0557	
3.355	-15.8409	-14.731	0.463522	2.69983	48.5878	
3.36	-29.8821	-8.57765	-0.287668	27.094	47.656	
3.365	-49.7869	0.747479	-1.41617	59.3517	46.5224	
3.37	-74.6397	11.7248	-2.4607	97.8083	45.3627	
3.375	-103.245	22.9546	-2.76776	140.274	44.2212	
3.38	-134.059	33.2533	-1.70477	185.006	43.0637	
3.385	-165.51	41.7177	1.1679	234.106	41.835	
3.39	-196.405	47.5356	5.82056	282.879	40.4763	
3.395	-227.241	50.8318	11.1171	317.27	38.9184	
3.4	-266.515	54.054	12.3241	343.103	37.0874	
3.405	-299.915	52.1797	12.3692	349.175	34.914	
3.41	-314.248	52.6698	12.2093	342.562	32.3678	
3.415	-324.433	60.0426	10.9429	332.949	29.4714	
3.42	-337.868	64.4191	16.9366	323.432	26.2837	
3.425	-350.599	67.636	23.922	313.039	22.8692	
3.43	-359.017	69.7531	28.8419	304.873	19.2915	
3.435	-362.177	71.0173	32.1607	297.055	15.6025	
3.44	-361.896	71.1094	32.8139	287.568	11.8361	
3.445	-357.811	71.1929	32.0007	272.364	7.99249	
3.45	-350.961	71.2612	29.5619	249.148	4.03157	
3.455	-341.36	71.4434	26.1057	220.286	-0.150945	
3.46	-325.827	71.8286	23.3754	187.528	-4.39392	
3.465	-314.944	72.5733	18.1195	167.213	-5.56874	
3.47	-302.666	73.5765	12.8815	159.045	-5.66915	
3.475	-289.656	74.5831	7.81756	149.755	-7.60622	
3.48	-279.258	66.8372	7.77207	120.761	-12.0223	
3.485	-269.511	55.3075	8.90848	101.878	-21.7075	
3.49	-259.396	44.56	8.66864	84.862	-36.3137	
3.495	-249.884	33.5657	9.46869	67.8201	-52.9947	
3.5	-242.595	18.6246	16.3878	51.4103	-67.0139	
3.505	-238.049	5.67516	24.6922	39.0506	-79.447	
3.51	-230.898	-8.63714	30.7318	29.5916	-91.6479	
3.515	-217.677	-22.6424	32.9263	21.2298	-103.764	
3.52	-202.173	-31.9462	29.7853	10.9586	-115.378	
3.525	-186.998	-33.1901	21.9822	-1.55741	-125.906	
3.53	-170.372	-26.1822	12.9454	-15.4198	-134.979	
3.535	-155.869	-22.0752	4.87911	-28.6546	-142.231	
3.54	-143.927	-22.1594	-2.49303	-40.1283	-147.487	
3.545	-131.52	-23.7803	-9.08577	-48.9495	-150.558	
3.55	-117.096	-26.7315	-14.8777	-55.0254	-151.401	
3.555	-90.8741	-21.9907	-13.7191	-58.1726	-150.064	
3.56	-58.6541	-17.8775	-10.2323	-58.5924	-146.746	
3.565	-28.0906	-11.1037	-9.79472	-56.3507	-141.795	
3.57	-1.4151	-4.98593	-8.62374	-51.8579	-135.609	
3.575	21.8614	-2.0912	-6.86439	-48.8763	-128.072	
3.58	41.9758	-1.7337	-7.49676	-43.5288	-118.013	
3.585	57.9574	-5.04863	-8.13673	-39.3452	-104.342	
3.59	69.2263	-10.9898	-7.49109	-41.076	-86.9392	
3.595	78.2189	-16.9448	-6.53407	-47.1992	-66.5862	
3.6	84.9855	-18.6785	-6.17568	-55.871	-45.0002	
3.605	91.2086	-15.7296	-6.10345	-66.159	-25.4835	
3.61	97.6464	-10.0992	-6.00097	-77.7866	-14.9895	
3.615	104.29	-3.06003	-5.87931	-90.6842	-9.44207	
3.62	110.599	5.28732	-5.93718	-104.593	-3.82029	
3.625	115.83	15.2864	-6.4099	-119.19	1.5658	
3.63	119.637	27.2453	-7.48055	-132.478	5.56515	
3.635	122.36	41.7727	-9.16893	-143.901	7.71372	
3.64	136.187	55.9676	-8.06627	-154.892	8.94246	
3.645	147.128	73.0305	-7.99267	-164.178	8.18308	
