CEINMS output
datacolumns 81
datarows 92
endheader
time	addbrev_r	addlong_r	addmagDist_r	addmagIsch_r	addmagMid_r	addmagProx_r	bflh_r	bfsh_r	edl_r	ehl_r	fdl_r	fhl_r	gaslat_r	gasmed_r	glmax1_r	glmax2_r	glmax3_r	glmed1_r	glmed2_r	glmed3_r	glmin1_r	glmin2_r	glmin3_r	grac_r	iliacus_r	perbrev_r	perlong_r	piri_r	psoas_r	recfem_r	sart_r	semimem_r	semiten_r	soleus_r	tfl_r	tibant_r	tibpost_r	vasint_r	vaslat_r	vasmed_r	addbrev_l	addlong_l	addmagDist_l	addmagIsch_l	addmagMid_l	addmagProx_l	bflh_l	bfsh_l	edl_l	ehl_l	fdl_l	fhl_l	gaslat_l	gasmed_l	glmax1_l	glmax2_l	glmax3_l	glmed1_l	glmed2_l	glmed3_l	glmin1_l	glmin2_l	glmin3_l	grac_l	iliacus_l	perbrev_l	perlong_l	piri_l	psoas_l	recfem_l	sart_l	semimem_l	semiten_l	soleus_l	tfl_l	tibant_l	tibpost_l	vasint_l	vaslat_l	vasmed_l	
3.19	0	0	0	0	0	0	0	0	0	0	0	0	0	0	0	0	0	0	0	0	0	0	0	0	0	0	0	0	0	0	0	0	0	0	0	0	0	0	0	0	0	0	0	0	0	0	0	0	0	0	0	0	0	0	0	0	0	0	0	0	0	0	0	0	0	0	0	0	0	0	0	0	0	0	0	0	0	0	0	0	
3.195	-20.1649	-2.29146	-86.793	-77.697	-113.589	-0.394517	-70.7189	125.399	7.9507	4.19296	-0.998369	-3.31478	73.4629	180.038	-109.893	-179.854	-182.819	177.528	-31.6901	-134.261	40.6852	29.8862	8.32337	-0.147088	55.6232	-1.87057	-3.70725	-34.0861	52.5772	8.03655	12.3725	34.115	1.34305	-235.641	22.5406	23.6816	-6.11898	-73.9053	-206.87	-115.438	-11.3411	-13.3603	-14.5377	-14.8734	-17.2008	-17.9086	-74.2945	-26.6506	1.82614	1.2446	-1.9285	-1.97586	-67.8712	-0.803391	-4.0257	-13.3444	-1.23027	36.2343	5.29104	-0.035603	16.0347	25.9262	-0.0234941	-7.60616	12.9927	-0.734047	-2.53818	-0.263962	4.15006	342.27	-2.28931	-133.134	-33.241	-3.17058	-0.106039	6.31318	-6.95457	-0.164347	329.607	195.202	
3.2	-18.6422	-2.79352	-93.0941	-90.7636	-115.23	-10.2995	-99.9735	123.022	9.16426	4.68936	-1.25499	-3.79822	104.466	230.957	-122.422	-195.321	-194.509	161.706	-44.5413	-150.071	39.1123	27.3403	5.00298	-0.225227	59.5548	-2.35754	-4.50624	-44.8886	59.8428	6.50084	12.3159	26.8314	-1.01379	-277.882	37.0263	26.1763	-7.26615	-95.8224	-270.891	-149.288	-12.8376	-15.9171	-20.7637	-23.1436	-22.7461	-20.9223	-140.868	-37.2248	1.92584	1.27438	-0.0990698	-4.55878	-119.55	-2.43939	-15.5476	-47.7578	-49.0399	54.3639	11.8924	-0.0391756	16.2811	17.2331	-0.0267726	-28.2745	18.0855	-1.42535	-3.78157	-0.771158	5.60388	332.869	-2.76127	-193.018	-38.6841	-20.0227	-0.321967	6.51926	-25.5942	-3.6912	494.808	282.281	
3.205	-16.2799	-2.79236	-91.2105	-89.1436	-112.639	-10.2854	-112.129	114.127	8.27887	4.21495	-1.02402	-3.19151	111.817	223.499	-127.194	-198.211	-195.73	129.693	-56.0461	-157.306	34.1258	22.4753	0.574086	-0.340887	58.6799	-1.97574	-3.62213	-48.7824	59.5226	21.8357	12.0071	-0.196437	-4.72534	-242.579	42.1273	23.3398	-6.14273	-94.297	-267.558	-146.334	-13.02	-16.979	-11.5465	-13.7705	-14.5457	-17.8857	-126.378	-32.3467	1.25137	0.819013	1.09976	-0.925792	-89.2626	-2.43467	-0.302355	-14.9981	-48.5273	29.7441	75.3445	-0.0391076	18.3682	22.524	-0.026734	-15.6672	16.8688	0.0293681	-1.98042	-0.769687	4.59539	326.953	-3.01912	-176.258	-34.4639	-16.4418	-0.321344	4.17132	-6.87537	-3.69	505.398	287.819	
3.21	-14.3947	-2.79117	-92.0376	-90.6898	-111.321	-10.2703	-129.298	106.667	6.67858	3.39823	-0.863171	-2.68247	110.942	213.648	-134.752	-205.155	-200.39	98.448	-68.0095	-165.594	29.2185	17.6343	-3.74631	-0.659578	58.5336	-1.63679	-3.03659	-53.0371	60.3341	36.3318	11.7461	-31.2037	-9.0712	-200.885	40.1148	18.8246	-5.14985	-90.3989	-257.809	-140.485	-15.1282	-20.8928	-5.43801	-4.97999	-10.8913	-18.4164	-118.131	-34.0664	0.455647	0.293488	-0.00342217	-0.239067	-83.2279	-2.42973	-0.194794	-5.26936	-23.834	61.1563	43.5387	-0.0390395	12.6781	7.37552	-0.0266951	-13.1195	-25.2892	-0.164307	-0.754375	-0.768007	-74.2706	319.665	-3.44644	-190.214	-36.2474	-12.6489	-0.320691	1.55384	0.370577	-3.68873	488.972	278.916	
3.215	-12.1146	-2.78954	-92.2494	-92.8947	-108.91	-10.2462	-150.169	98.158	5.04034	2.56014	-0.681455	-2.06823	112.03	213.025	-141.985	-211.098	-203.906	61.352	-80.166	-171.936	23.1438	11.8833	-8.52205	-0.988933	58.3957	-1.2797	-2.36814	-57.2706	61.7448	50.2807	11.4434	-65.6072	-14.0332	-154.753	36.7295	14.1781	-4.00221	-86.9768	-249.12	-135.324	-16.3236	-23.3235	-3.1752	3.20129	-11.4827	-19.3558	-114.573	-36.9748	-0.456031	-0.316291	-1.13492	0.315764	-84.9641	-2.42336	-0.438641	-4.30432	-18.4957	48.4978	5.53949	-0.0389683	17.3062	30.8176	-0.0266533	-13.6454	-17.8231	0.0862178	0.497402	-0.765991	-40.6272	309.791	-3.98267	-206.382	-36.8786	-9.1761	-0.319852	-1.5732	1.93807	-3.71022	483.605	274.493	
3.22	-9.61114	-2.78837	-91.9871	-94.6066	-105.803	-10.2315	-172.215	88.9977	3.15836	1.589	-0.434785	-1.27093	115.463	215.459	-148.952	-216.411	-206.769	20.1872	-92.2165	-176.175	16.2198	5.51905	-13.5614	-1.35349	57.8694	-0.826099	-1.47664	-60.5283	62.7551	64.9658	11.1016	-104.548	-19.5762	-97.5213	34.0061	8.72087	-2.5104	-82.297	-236.555	-127.98	-17.7079	-26.559	-3.58034	9.06826	-14.1475	-15.0649	-113.168	-39.1551	-1.54106	-1.04354	-1.4364	1.45755	-87.2621	-2.4186	2.05046	-2.4035	-19.5568	53.5974	19.427	-0.0389008	18.2603	15.5888	-0.0266148	-14.9628	-10.8846	0.492573	2.08938	-0.764449	-24.1461	296.73	-4.58079	-212.914	-36.8186	-6.2856	-0.319222	-5.34504	3.18465	-3.78883	479.916	264.957	
3.225	-6.90683	-2.78745	-91.4736	-96.3463	-101.989	-10.2218	-194.494	79.6512	0.990393	0.473041	-0.139409	-0.348774	119.788	218.762	-155.518	-221.125	-209.004	-23.5829	-103.443	-177.942	8.69144	-1.24983	-18.6586	-1.72691	57.1218	-0.283827	-0.43578	-62.3924	63.5663	81.1271	10.7348	-146.486	-25.4421	-30.5429	31.8436	2.46637	-0.754421	-76.1368	-219.547	-118.29	-19.1876	-30.6951	-5.52788	8.74979	-15.9539	-11.2911	-112.309	-40.8551	-2.76681	-1.86256	-1.22464	2.85402	-87.6673	-2.41471	5.48628	2.64672	-16.4913	57.5921	26.4991	-0.0388353	17.466	18.8462	-0.0265781	-15.9259	-9.40479	0.890045	3.95461	-0.763182	-21.7317	280.325	-5.22054	-210.469	-36.6642	-4.01494	-0.31871	-9.55797	5.76264	-3.94144	469.745	253.109	
3.23	-4.00965	-2.78639	-90.5295	-98.1149	-97.4642	-10.2091	-216.479	70.4523	-1.37116	-0.737497	0.180822	0.645455	124.431	223.936	-161.344	-225.045	-210.415	-68.8552	-113.747	-176.961	0.742781	-8.24832	-23.682	-2.07433	56.1519	0.30711	0.682656	-61.8477	64.251	98.2716	10.3458	-189.15	-31.3781	42.5819	29.6973	-4.29128	1.14467	-69.3803	-200.654	-107.747	-20.7441	-35.4815	-5.96196	5.37608	-16.2307	-8.2688	-111.391	-40.2321	-4.08781	-2.74509	-0.790405	4.24357	-86.7544	-2.41037	8.99649	9.30325	-10.8694	61.8486	26.3804	-0.0387689	17.0554	20.1366	-0.0265405	-16.527	-10.8472	1.29631	5.95236	-0.761772	-23.5437	265.792	-5.90044	-208.687	-36.3373	-2.28882	-0.318137	-14.0556	9.07563	-4.16492	458.611	243.543	
3.235	-0.934525	-2.78523	-89.0018	-99.3721	-92.2013	-10.1945	-236.996	61.58	-3.8333	-1.99898	0.510284	1.67255	129.486	231.574	-166.102	-227.947	-210.821	-114.611	-122.768	-173.129	-7.43798	-15.3153	-28.5178	-2.36551	54.9388	0.919921	1.83845	-58.9108	64.7498	115.29	9.94062	-230.406	-37.1381	118.809	27.429	-11.3146	3.10524	-62.6322	-181.607	-97.2634	-22.4619	-40.9602	-6.15249	2.65345	-16.3924	-6.09824	-110.427	-35.6934	-5.47053	-3.67015	-0.341517	5.61606	-85.3288	-2.40573	12.8671	16.3858	-5.03812	63.7892	28.5611	-0.038702	18.3169	20.7302	-0.0265023	-17.052	-11.8065	1.73201	8.01684	-0.760271	-22.5934	252.948	-6.61537	-208.008	-35.6723	-1.01171	-0.457753	-18.7536	12.5037	-4.39369	452.742	238.686	
3.24	2.29666	-2.78401	-86.8723	-99.9095	-86.1583	-10.1788	-255.009	53.3799	-6.33163	-3.27906	0.834795	2.68763	134.912	241.37	-169.515	-229.641	-210.039	-159.923	-130.667	-168.823	-15.6763	-22.3089	-33.0844	-2.57521	53.5002	1.53179	2.99369	-54.9533	65.0492	131.343	9.52809	-268.407	-42.4777	195.38	25.109	-18.4226	5.04312	-55.9453	-162.562	-86.8681	-24.4666	-47.4032	-7.0763	-1.6083	-16.7131	-4.61828	-109.405	-32.7876	-6.88765	-4.61734	0.0670809	6.96188	-83.6507	-2.40097	17.2705	23.8684	0.932499	69.3275	32.8043	-0.0386349	18.4752	21.6805	-0.0264639	-17.606	-11.8618	2.169	10.0994	-0.75873	-18.8664	240.209	-7.3529	-205.611	-34.6135	-0.0975431	7.82121	-23.5712	15.8828	-4.64629	451.828	237.338	
3.245	5.66233	5.35013	-84.1075	-99.6554	-79.2972	-10.1629	-270.271	45.8384	-8.79865	-4.54239	1.13712	3.64485	140.589	252.287	-171.316	-230.033	-207.938	-204.056	-137.417	-167.917	-23.8186	-29.1077	-37.3273	-2.68084	51.8622	2.11739	4.09657	-50.8135	65.1285	145.793	9.12535	-301.501	-47.1589	268.905	22.8078	-25.4007	6.86448	-49.4264	-143.851	-76.7147	-26.8181	-54.7889	-7.12484	-3.96274	-16.8536	-3.65348	-108.305	-30.9629	-8.31072	-5.56658	0.507524	8.2336	-81.6568	-2.3962	22.1246	32.0394	7.54332	75.3609	37.4154	24.11	18.746	22.8913	-0.0264256	-18.1201	-12.1301	2.60032	12.1519	-0.757188	-15.2144	219.222	-8.10558	-199.926	-33.1096	0.540238	15.6059	-28.4123	19.2836	-4.91554	444.644	232.462	
3.25	9.14347	20.3668	-80.7104	-98.6065	-71.6548	-10.1469	-283.196	39.2418	-11.1543	-5.74803	1.4015	4.49826	146.324	262.566	-171.296	-229.044	-204.455	-246.386	-143.47	-162.892	-31.7232	-35.6213	-41.2355	-2.66489	50.0538	2.65155	5.0992	-46.2869	64.9512	158.074	8.72281	-329.367	-50.9585	335.122	20.529	-31.9946	8.47792	-43.2825	-126.135	-67.1568	-29.3809	-62.1389	-6.19668	-3.6031	-16.6397	-3.03411	-107.141	-29.9862	-9.7124	-6.49766	0.946445	9.38202	-79.2198	-2.39145	27.3242	40.887	14.9165	79.1957	42.331	31.2551	19.2242	24.1893	-0.0263873	-18.4993	-13.0697	3.01673	14.1202	-0.755652	-10.7622	191.252	-8.86899	-190.558	-31.1169	0.967473	16.1696	-33.1764	22.7103	-5.22368	425.326	221.195	
3.255	12.7166	23.4444	-76.6863	-96.7038	-63.2849	-10.1308	-293.974	33.5215	-13.317	-6.85334	1.61408	5.20327	151.67	269.232	-169.346	-226.682	-199.488	-286.49	-152.828	-157.728	-39.2863	-41.7851	-44.8215	-2.51483	48.1011	3.10896	5.95814	-41.4443	64.4801	167.673	8.32499	-351.705	-53.6415	389.157	18.2524	-37.9378	9.80525	-37.7447	-110.112	-58.5548	-32.6579	-69.4075	-5.58326	-2.69341	-16.8818	-2.6341	-95.3969	-29.6531	-11.0689	-7.39044	1.39309	10.3569	-76.2145	-2.38671	32.7842	50.0654	22.9368	76.3251	47.7215	33.948	19.6847	25.5571	-0.0263491	-18.6906	-15.2234	3.40798	15.9492	-0.754123	-17.9389	157.748	-9.63826	-177.346	-28.6081	1.2353	13.5284	-37.7739	26.1016	-5.60962	395.585	205.131	
3.26	16.3663	25.9691	-72.0631	-94.016	-54.239	-10.1145	-301.03	28.9409	-15.1997	-7.8147	1.76472	5.72558	155.939	270.669	-164.443	-223.084	-193.032	-324.056	-162.502	-152.477	-46.4117	-47.5604	-48.1304	-2.22389	46.0512	3.47043	6.63503	-36.6553	63.7065	174.133	7.93325	-367.431	-55.0402	426.916	15.9636	-42.9997	10.7852	-33.0144	-96.4072	-51.2228	-35.8323	-77.198	-4.65071	-1.32602	-16.8164	-2.3685	-77.6588	-29.493	-12.3564	-7.93064	1.82786	11.1566	-72.5224	-2.38199	38.3997	59.2862	31.4523	78.7468	53.4746	42.4091	20.089	26.9337	-0.026311	-18.6706	-17.3917	3.76149	17.5967	-0.757447	-26.1094	123.026	-10.4054	-160.477	-25.5811	1.37905	10.335	-42.1078	29.3474	-6.05783	362.578	188.466	
3.265	20.0706	30.4989	-66.9544	-90.7094	-44.6076	-10.0981	-302.313	25.4012	-16.7045	-8.58127	1.84748	6.04381	158.407	267.21	-135.918	-218.413	-185.15	-358.881	-170.66	-147.566	-53.0364	-52.932	-51.2293	-1.78979	43.9459	3.71947	7.1005	-32.3255	62.6465	177.106	7.55376	-375.817	-55.0763	446.833	13.6673	-47.0043	11.3803	-29.2575	-85.5283	-45.42	-38.5796	-85.8022	-2.84248	0.448084	-15.9189	-2.18428	-62.6343	-29.3322	-13.5515	-7.61183	2.26947	11.779	-68.133	-2.37729	44.0533	68.4169	40.1851	83.2814	59.409	51.4324	20.3864	28.2407	-0.026273	-18.4203	-20.1959	4.06961	19.0312	-0.75584	-30.7458	85.288	-11.1597	-140.495	-22.0445	1.42613	7.23411	-46.0923	32.3469	-6.55573	328.372	171.51	
3.27	23.8144	35.4969	-61.3191	-86.7778	-34.4797	-10.0815	-297.225	23.0355	-17.7506	-9.11161	1.86151	6.16842	158.462	260.195	-114.585	-212.991	-175.971	-390.812	-179.352	-143.629	-59.1162	-57.9065	-54.1945	-1.21638	41.8412	3.84581	7.33744	-28.822	61.3584	176.372	7.18531	-376.104	-53.7668	450.136	11.3976	-49.844	11.5755	-26.6112	-77.8784	-41.3584	-41.1705	-94.9058	-0.223021	3.05781	-14.3841	-2.04954	-49.3761	-29.1696	-14.6376	-7.59504	2.71485	12.1406	-63.097	-2.37259	49.6153	77.2997	48.9913	85.3762	65.3398	60.226	20.5099	29.3934	-0.0262231	-17.921	-28.8764	4.34133	20.219	-0.753126	-35.34	46.1643	-11.8912	-119.016	-18.0208	1.39615	4.11308	-49.6469	34.9991	-7.08952	293.748	154.312	
3.275	27.576	40.1619	-55.3219	-82.2485	-23.9673	-10.0647	-286.032	21.865	-18.2705	-9.3713	1.80942	6.10386	155.886	249.741	-98.1978	-207.141	-165.709	-401.719	-188.248	-141.218	-64.624	-62.5023	-57.1168	-0.511726	39.7868	3.84481	7.33599	-26.4706	59.9168	171.852	6.83666	-367.97	-51.1864	437.833	9.18038	-51.383	11.3741	-25.1616	-73.7493	-39.1772	-43.84	-104.023	2.58104	6.63874	-12.7342	-1.94554	-36.391	-29.0053	-15.595	-7.60197	3.1405	12.3693	-57.4655	-2.36789	54.9669	85.7654	57.7374	86.7812	71.0531	69.3618	20.3965	30.2936	71.1204	-17.1618	-45.3075	4.56929	21.143	-0.753699	-45.9336	6.40914	-12.5869	-96.895	-13.5541	1.30529	1.0955	-52.703	37.2048	-7.69231	263.511	138.049	
3.28	31.449	44.7601	-49.0115	-77.1937	-13.1933	-10.0478	-269.552	21.7789	-18.1955	-9.32396	1.69852	5.83595	150.918	235.95	-85.6958	-201.305	-154.634	-411.729	-197.533	-140.846	-69.544	-66.7419	-60.0665	0.311535	37.8378	3.71902	7.0976	-25.5501	58.3703	163.616	6.50877	-351.389	-47.4461	411.581	7.02468	-51.3599	10.8062	-24.9519	-73.2702	-38.9431	-46.0742	-111.495	6.73198	11.3446	-10.268	-1.86137	-22.8233	-28.8382	-16.4018	-7.51008	3.53912	12.4086	-51.2989	-2.36321	59.9388	93.5948	66.2223	87.2427	76.3054	78.6761	19.9824	30.8443	78.6513	-16.145	-39.1603	4.74056	21.7943	-0.760721	-52.7883	-33.9731	-13.2366	-74.0528	-8.6542	1.16735	-0.691569	-55.201	38.8705	-8.43255	249.624	130.726	
3.285	35.3056	49.4821	-42.4885	-71.7008	-2.29304	-10.0307	-248.544	22.7626	-17.4908	-8.95515	1.53827	5.37087	143.692	219.347	-75.7353	-195.874	-143.078	-427.785	-207.335	-142.894	-73.8708	-70.6548	-61.1695	1.23627	36.0392	3.47369	6.63121	-26.2735	56.7954	151.876	6.20578	-326.718	-42.7167	373.697	4.93252	-49.4785	9.91143	-25.9724	-76.4544	-40.6553	-48.134	-119.202	12.1061	18.4378	-7.0694	-1.79067	-7.27274	-28.6663	-17.0485	-7.40128	3.89404	12.2501	-44.6722	-2.35854	64.4175	100.67	74.2493	86.3529	80.841	87.7387	19.2115	30.9511	72.5988	-14.8864	-28.8377	4.85504	22.1694	-0.75763	-66.3857	-71.5221	-13.8801	-50.3942	-3.24564	0.995723	-0.466435	-57.0999	39.9334	-9.37475	236.203	122.915	
3.29	39.0907	54.2746	-35.8643	-65.8815	8.58897	-10.0134	-223.96	24.7469	-16.1538	-8.26387	1.33902	4.74862	134.459	200.507	-67.6522	-191.296	-131.403	-442.611	-217.465	-147.592	-77.5988	-74.2527	-58.6695	2.24163	34.4333	3.11799	5.95365	-28.7472	55.2374	135.362	5.9297	-294.8	-37.1317	326.603	2.90872	-45.6641	8.73852	-28.1515	-83.1454	-44.2189	-50.0672	-128.966	18.8576	31.655	-3.47519	-1.72972	11.3348	-28.487	-17.5196	-7.23898	4.20309	12.0253	-37.6728	-2.35388	68.2561	106.759	81.6719	83.9342	84.4052	96.1885	18.0394	30.5275	74.7509	-13.4102	-20.1793	4.91735	22.2747	-0.75256	-80.6673	-101.399	-14.4166	-25.3719	2.64624	0.804644	-0.466558	-58.3787	40.3684	-10.5972	218.061	111.697	
3.295	42.792	59.0467	-29.2425	-59.8528	19.2972	-9.99601	-197.111	27.5431	-14.1951	-7.25346	1.11037	4.0047	123.307	179.687	-60.9972	-187.895	-119.984	-459.949	-227.544	-154.975	-80.7269	-77.5463	-60.2778	3.30332	33.0416	2.6645	5.08232	-32.9584	53.7599	114.375	5.68243	-256.909	-30.8754	271.895	0.958718	-39.9644	7.33583	-31.3602	-93.065	-49.4542	-51.5438	-135.039	24.7119	53.7886	-0.0491635	-1.67626	36.6868	-28.2985	-17.8074	-7.0791	4.45579	11.6038	-30.3606	-2.34922	71.2797	111.686	88.2732	79.877	86.7684	103.673	16.438	29.4375	79.0935	-11.7435	-13.5706	4.93707	22.1256	-0.747768	-84.749	-138.132	-14.7277	3.77761	8.89961	0.608404	-0.453162	-59.0314	40.1933	-7.59051	197.116	99.5197	
3.3	46.3223	63.64	-22.7515	-53.7497	29.8693	-9.97841	-168.958	30.98	-11.6297	-5.92901	0.861329	3.14749	110.396	157.33	-55.4716	-185.968	-109.201	-481.091	-238.04	-164.968	-83.2505	-80.5245	-62.0005	4.39387	31.8741	2.12444	4.03691	-38.8244	52.3897	91.9305	5.46467	-214.424	-24.1726	211.374	-0.910499	-32.4762	5.7447	-35.4027	-105.772	-56.1159	-47.6185	-137.937	28.3187	58.4164	3.2383	-1.62889	83.3499	-28.0987	-17.9112	-6.88395	4.64474	11.0882	-22.6802	-2.34458	73.3977	115.307	93.8302	74.1254	87.7388	109.844	14.4004	27.7546	80.1886	-9.91278	-8.92738	4.90954	21.74	-0.743964	-84.9092	-171.155	-14.8895	42.479	15.2906	0.418846	-0.457002	-59.0763	39.4635	50.3685	176.145	87.9836	
3.305	49.6051	67.3176	-16.5002	-47.7102	39.9111	-9.96064	-140.322	34.9316	-8.48417	-4.30367	0.59693	2.18467	95.8498	133.627	-50.8493	-186.058	-99.3811	-502.552	-249.31	-177.276	-85.155	-83.1646	-64.4637	5.48346	30.9318	1.50916	2.83662	-46.0811	51.1646	69.5173	5.27297	-169.193	-17.2648	145.6	-2.69084	-23.3529	3.99564	-39.9695	-120.611	-63.8479	-38.4021	-138.946	31.6127	57.6882	6.98439	-1.58669	118.79	-27.8859	-17.8254	-6.6438	4.75851	10.6023	-14.5989	-2.33994	74.4802	117.483	98.1652	66.7175	87.1837	114.391	11.9448	25.46	78.613	-7.95183	-5.97704	4.82801	21.1459	-0.740989	-82.8247	-201.464	-14.8936	119.64	21.3854	0.243259	-0.457657	-58.5302	38.2531	61.663	156.586	77.4725	
3.31	52.5734	70.7264	-10.6103	-41.8637	48.9293	-9.94272	-112.069	39.1507	-4.80437	-2.40069	0.318019	1.12748	79.682	108.196	-46.9574	-188.705	-90.8316	-517.43	-261.011	-191.481	-86.4374	-85.4348	-68.0996	6.54142	30.2446	0.826798	1.49759	-54.3596	50.0877	47.6839	5.10884	-123.019	-10.4041	75.0323	-4.37097	-12.765	2.10398	-44.522	-136.74	-72.1623	-30.2436	-116.704	34.2091	45.2909	11.9351	-1.54903	131.277	-27.6583	-17.5645	-6.4079	4.7943	10.0225	-6.07944	-2.33531	74.4744	117.986	101.134	57.7746	85.0472	117.077	9.11788	22.5774	75.6156	-5.9142	-4.24771	4.70167	20.3685	-0.738598	-71.1086	-229.457	-14.9241	224.247	26.503	0.0856034	-0.457777	-57.3369	36.6499	49.7724	137.408	66.9974	
3.315	55.1719	73.9367	-5.18707	-36.3444	57.5962	-9.92463	-85.17	43.3757	-0.653711	-0.256043	0.0223076	-0.0188952	61.8528	81.3062	-43.6621	-192.378	-83.7658	-528.385	-272.543	-207.05	-85.4516	-87.283	-72.9938	7.53292	29.8896	0.0821233	0.0332712	-63.6528	49.1651	26.7557	4.96305	-77.9319	-3.87649	-0.59854	-5.93291	-0.902798	0.0685766	-47.6299	-152.818	-80.2441	-23.3662	-83.7953	38.3862	46.3197	17.8582	-1.51546	144.208	-27.4145	-17.1329	-6.11426	4.77983	9.37071	2.91324	-2.3307	76.1587	117.611	102.642	47.5257	81.3509	117.762	5.99433	19.1763	71.371	-3.81104	-3.28831	4.54401	19.4411	-0.73658	-52.5099	-254.536	-15.2116	239.078	30.7105	-0.0519423	-0.456988	-54.472	34.7417	39.1374	117.373	55.9666	
3.32	57.3355	76.7635	-0.330923	-31.2711	64.8233	-9.90637	-60.4782	47.494	3.88593	2.08476	-0.295949	-1.25571	42.3405	52.909	-40.8596	-197.405	-78.3478	-532.439	-283.491	-223.316	-78.7687	-88.2319	-77.6779	8.43224	29.6826	-0.722156	-1.54869	-74.7048	48.3743	7.15579	4.83598	-35.6107	2.12032	-82.106	-7.35525	11.995	-2.12932	-42.5801	-166.765	-86.5543	-17.5715	-60.7547	39.8951	49.1898	21.8772	-1.48559	157.763	-27.1532	-16.5407	-5.8208	4.71589	8.77655	12.2963	-2.32609	76.8548	117.153	102.649	36.2892	76.2093	87.6927	2.67602	15.3652	65.7789	-1.56627	-2.77353	4.35607	18.389	-0.734789	-42.4903	-276.074	-15.019	248.422	34.161	-0.168055	-0.456078	-51.3347	32.6111	32.4013	96.05	44.3371	
3.325	59.0186	79.1216	3.86172	-26.7477	70.9665	-9.88797	-38.9164	51.134	8.72217	4.57083	-0.64776	-2.58898	20.9953	21.9946	-38.4692	-203.096	-74.638	-529.464	-293.283	-239.544	-78.2321	-82.9206	-81.7467	9.20634	29.6717	-1.58412	-3.23893	-87.1707	47.6898	-10.4409	4.70955	1.95278	7.3118	-170.644	-8.60819	25.6291	-4.52022	-36.9209	-172.281	-83.8915	-12.7415	-45.1448	41.6319	51.9852	24.803	-1.45918	168.471	-26.8734	-15.8167	-5.51377	4.57879	8.14025	21.8521	-2.32149	75.855	114.736	101.144	24.4513	69.8105	99.8067	-0.671928	11.2741	58.9825	0.898033	-2.50272	4.13922	17.2451	-0.733133	-14.7395	-293.775	-14.3413	261.75	36.8331	-0.259298	-0.455164	-49.387	30.3307	25.7349	73.4043	32.0238	
3.33	60.1989	80.9861	7.32575	-22.8605	75.7724	-9.86937	-21.2743	54.261	13.7462	7.14597	-1.04334	-4.02696	-2.23534	-11.2118	-36.4269	-195.813	-72.6358	-525.466	-301.292	-254.715	-77.4629	-81.9121	-85.1927	9.83244	29.8063	-2.50595	-5.03181	-98.8301	47.0637	-25.2119	4.55017	33.0626	11.5078	-268.039	-9.65698	39.6237	-7.13705	-32.3125	-147.226	-69.931	-8.87033	-34.454	42.8752	54.7809	27.6544	-1.43599	175.045	-26.5746	-14.9786	-5.15999	4.3424	7.47025	31.3058	-2.3169	74.0391	111.19	97.7059	12.4537	62.4159	99.6163	-0.863078	7.06026	51.2909	3.4421	-2.36191	3.89754	16.0343	-0.731557	-5.29345	-307.133	-13.3082	269.977	38.7398	-0.321978	-0.454294	-46.9851	27.9639	15.8822	49.7664	19.0726	
3.335	60.8254	82.3235	10.0035	-19.6789	79.1705	91.6013	-8.2501	56.4693	18.8272	9.74181	-1.49406	-5.58104	-27.4023	-47.3572	-34.6822	-165.154	-72.2764	-518.054	-307.735	-252.79	-77.3441	-81.8208	-86.9331	10.3251	30.0458	-3.48585	-6.92187	-108.437	46.4323	-36.1389	4.41339	56.2132	14.529	-376.191	-10.4622	53.5282	-10.0195	-28.633	-126.177	-60.4384	-5.99157	-26.6538	42.818	56.3163	29.8406	-1.41584	178.189	-26.2566	-14.044	-4.82188	4.03383	6.85755	40.422	-2.31232	71.3436	106.639	93.2154	1.15417	54.3453	93.1912	-0.876354	2.89454	43.0588	5.85272	-2.28919	3.63612	14.7822	-0.730027	-3.1054	-316.009	-11.5323	269.56	39.9882	-0.351951	-0.453445	-43.9299	25.5607	3.75082	25.8511	3.62252	
3.34	60.5614	82.9981	11.8478	-17.233	81.0399	130.55	-0.18222	57.8587	23.7649	12.2574	-2.00917	-7.2722	-54.3868	-86.6906	-33.1946	-141.393	-73.3721	-505.632	-313.044	-195.654	-76.1251	-82.0884	-87.9802	10.6327	30.326	-4.52069	-8.89295	-116.18	45.6682	-41.8276	4.26691	70.6879	16.3114	-497.421	-10.9867	66.8805	-13.1926	-25.6185	-109.362	-52.8508	-4.03843	-20.9087	41.9993	56.7439	31.1438	-1.39857	177.178	-25.9198	-13.0285	-4.45732	3.68536	6.24013	48.9588	-2.30775	67.762	101.074	87.7465	-7.27994	45.5692	89.1328	-0.856163	-1.05842	34.6027	7.99714	-2.25172	3.35901	13.5065	-0.728525	-2.86471	-319.833	-9.83326	263.85	40.6632	-0.349215	-0.452603	-40.6247	23.1602	-8.3279	-210.87	-12.7469	
3.345	59.5546	82.9454	12.8541	-15.5575	81.4253	81.3555	2.42231	58.0151	28.3217	14.5724	-2.59552	-9.1021	-83.2022	-129.322	-31.9317	-122.834	-75.8087	-489.05	-315.705	-155.438	-73.7568	-82.0275	-88.9991	10.7269	30.6313	-5.60228	-10.9305	-123.065	44.7507	-39.5904	4.10942	75.3396	16.6757	-633.781	-11.1986	79.5777	-16.6674	-23.1001	-96.1665	-46.8304	-2.81246	-16.721	40.5159	55.3217	31.5178	-1.38404	171.742	-25.5652	-11.9642	-4.08874	3.3432	5.61395	56.7319	-2.30318	63.5241	94.5403	81.4485	-15.7914	36.9889	83.1051	-0.858313	-4.63169	25.907	9.77339	-2.23234	3.07342	12.2286	-0.727038	-2.83361	-319.077	-9.57725	255.652	40.9153	-0.318943	-0.451762	-36.7637	20.8032	-19.0776	-284.255	-27.7107	
3.35	57.8484	82.0084	13.0093	-14.6328	80.2344	95.617	-0.429472	57.0248	32.2622	16.5666	-3.25151	-10.9908	-113.484	-229.766	-30.8673	-108.373	-79.3007	-468.359	-314.6	-126.832	-70.4067	-80.3035	-88.8432	10.5924	30.8888	-6.71649	-13.0038	-127.14	43.6142	-35.0487	3.94162	70.273	15.693	-786.644	-11.0727	91.3554	-20.4278	-20.9703	-85.4152	-41.85	-2.08437	-13.706	38.2039	52.5946	31.113	-1.37216	165.949	-25.1946	-10.862	-3.69902	3.04596	4.99807	63.9666	-2.29863	58.7263	87.2788	74.4694	-22.957	30.5496	76.9305	-0.860053	-7.68491	17.9385	11.1781	-2.22216	2.78352	10.959	-0.725562	-2.82023	-313.523	-8.50998	245.53	40.8083	-0.269482	-0.45092	-30.0523	18.5131	-28.5171	-285.12	-41.4379	
3.355	55.487	80.1821	12.3462	-14.4423	77.5703	91.6138	-8.7766	54.6287	35.4456	18.1728	-3.97185	-13.0059	-144.826	-291.039	-29.9806	-96.6869	-83.6706	-445.922	-310.399	-106.565	-66.0278	-77.6764	-87.4451	10.2148	31.0853	-7.84205	-15.0779	-104.298	42.3146	-32.0903	3.75958	55.4004	13.3181	-954.154	-10.5887	101.317	-24.4277	-19.1555	-76.5043	-37.6838	-1.66694	-11.534	35.4987	50.271	30.224	-1.36286	160.308	-24.8104	-9.73974	-3.32658	2.8028	4.41015	71.1358	-2.29409	53.5655	79.7297	67.0668	-28.4721	25.1852	70.14	-0.861442	-10.107	11.1168	12.3146	-2.21665	2.49292	9.7108	-0.724093	-2.80462	-304.045	-6.75543	229.458	40.477	-0.210642	-0.450078	-25.6747	16.3095	-37.0164	-278.855	-54.1989	
3.36	52.5348	77.48	10.8913	-14.9421	73.4817	85.6486	-22.4902	50.8944	37.8043	19.3622	-4.74198	-15.1168	-176.631	-337.451	-29.2549	-87.0908	-88.6604	-420.065	-302.949	-91.2339	-61.4219	-73.6376	-85.1177	9.6112	31.1889	-8.95328	-17.1009	-75.357	41.0423	-29.6483	3.56272	31.032	9.60885	-1107.52	-9.74027	108.457	-28.5828	-17.5996	-69.0222	-34.1617	-1.43265	-9.94169	33.0465	44.9876	29.287	-1.35605	154.524	-19.9309	-8.60896	-2.92714	2.57468	3.85578	78.6044	-2.28955	48.1713	71.8528	59.4285	-32.2758	19.5838	68.3287	-0.861566	-11.8168	5.43656	13.24	-2.21349	2.20405	8.49055	-0.722628	-2.79591	-291.228	-5.0282	208.791	40.0081	-0.150569	-0.449237	-22.0407	14.2011	-44.9277	-282.452	-66.1942	
3.365	49.2966	73.8395	8.70839	-16.0737	68.1015	79.2775	-41.2851	45.6544	39.3084	20.1217	-5.53907	-17.1614	-207.871	-398.599	-28.6773	-79.1152	-94.0162	-389.799	-292.465	-79.2606	-56.2451	-69.0917	-82.4917	8.80573	31.1677	-10.0149	-19.0096	-56.486	39.5535	-27.6105	3.35147	-2.21577	4.66329	-1212.39	-8.52887	112.662	-32.7666	-16.2579	-62.6915	-31.1652	-1.3028	-8.74001	30.2827	36.5532	28.2044	-1.35169	148.582	22.532	-7.47781	-2.54817	2.34002	3.32685	86.4812	-2.28503	42.671	63.7997	51.7661	-34.272	14.6555	59.6127	-0.861304	-12.7696	0.956565	13.9698	-2.21151	1.91973	7.30376	-0.72117	-2.79177	-276.029	-3.26062	189.052	39.4744	-0.0949067	-0.448397	-18.4607	12.1931	-52.4451	-278.198	-77.6479	
3.37	46.0433	69.5602	5.86695	-17.7596	61.5548	72.3334	-64.8184	38.9432	39.9979	20.476	-6.33328	-19.1914	-236.822	-462.381	-28.2376	-72.4386	-99.3548	-356.543	-279.077	-69.6889	-50.4677	-63.92	-78.3706	7.82091	31.0309	-10.9815	-20.7344	-44.2723	37.9135	-25.8604	3.12453	-43.6568	-1.422	-1310.76	-6.95679	114.38	-36.805	-15.0944	-57.2979	-28.5991	-1.23134	-7.80311	27.6661	29.1752	25.3672	-1.34975	142.713	33.2148	-6.35509	-2.16044	2.04557	2.81194	94.4764	-2.28051	37.1763	55.7562	44.1882	-34.4448	10.6246	51.1458	-0.860954	-12.9648	-2.25836	14.5091	-2.21012	1.63578	6.15613	-0.719714	-2.78961	-259.48	-1.43459	171.798	38.8848	-0.0485254	-0.447558	-15.1762	10.2757	-59.6164	-250.017	-88.5712	
3.375	42.5056	64.7595	2.45404	-19.9166	54.0117	64.802	-92.6677	30.7895	39.9782	20.4891	-7.08661	-21.0749	-261.352	-520.875	-27.9287	-66.8139	-97.8597	-320.721	-262.762	-61.9406	-44.2155	-57.9239	-73.0125	6.67547	30.7642	-11.8028	-22.1965	-35.9923	36.1544	-24.3562	2.88166	-92.5597	-8.50362	-1420.79	-5.03402	113.877	-40.427	-14.0804	-52.6725	-26.3879	-1.19209	-7.05015	22.6596	23.3209	20.442	-1.34958	137.015	30.2446	-5.2489	-1.77317	1.84114	2.31447	101.851	-2.276	31.7731	47.7509	36.7944	-32.8821	7.43435	37.3259	-0.860642	-12.4435	-4.239	14.8773	-2.20903	1.36051	5.05006	-0.718261	-2.78776	-242.609	0.3713	157.099	38.1436	-0.0181177	-0.44672	-12.2144	8.45572	-66.5877	-232.048	-99.2787	
3.38	38.7407	59.4006	-1.42604	-22.4384	45.6489	56.8878	-124.368	21.2317	39.4055	20.247	-7.74646	-22.7347	-282.104	-557.868	-27.7455	-62.0495	-84.9611	-282.661	-243.752	-55.6	-37.5564	-51.2772	-66.8097	5.39368	30.3766	-12.4335	-23.3093	-29.9664	34.2803	-23.062	2.62046	-148.12	-16.392	-1510.05	-2.77945	111.62	-43.3465	-13.1927	-48.6809	-24.4712	-1.17045	-6.42931	17.1496	17.93	16.1863	-1.34984	131.23	36.0914	-4.16649	-1.3946	1.57568	1.83792	107.788	-2.2715	26.5168	39.862	29.6583	-29.7438	5.05861	22.0217	-0.896619	-11.2774	-5.12384	15.0829	-2.20808	1.09175	3.98578	-0.716812	-2.78578	-226.344	2.10231	150.071	37.2321	-0.0120496	-0.445883	-9.46332	6.73014	-73.5709	-223.087	-110.22	
3.385	34.7561	53.5638	-5.65528	-25.2155	36.6685	48.7152	-159.423	10.3976	38.3913	19.7313	-8.26212	-24.0507	-305.529	-566.501	-27.6845	-57.9951	-74.5751	-242.947	-222.39	-50.3598	-30.5791	-44.0907	-59.8921	3.9976	29.9413	-12.8302	-23.9668	-25.4015	32.3126	-21.9501	2.33749	-209.552	-25.1416	-1541.72	-0.224472	108.251	-45.3146	-12.4124	-45.2166	-22.8011	-1.15837	-5.90691	12.7126	12.9679	11.6537	-1.34968	124.5	42.6726	-3.11751	-1.02817	1.30096	1.38477	112.133	-2.28308	21.4361	32.1327	22.9157	-25.2639	3.46059	11.2363	-1.24875	-9.63969	-5.16753	15.125	-2.2072	0.828874	2.97191	-0.715364	-2.78366	-209.661	3.72475	149.797	36.1288	-0.0401429	-0.445047	-6.88191	5.09452	-80.4875	-220.808	-121.214	
3.39	30.5444	47.4281	-10.1062	-28.1142	27.2647	40.4115	-197.268	-1.55478	36.6556	18.6052	-8.58477	-24.9483	-328.503	-570.657	-27.678	-54.5335	-66.1873	-202.015	-199.112	-45.9895	-23.3777	-36.5032	-52.4406	2.50785	29.4132	-12.9617	-24.0857	-21.861	30.2661	-20.5332	2.02701	-275.817	-34.5692	-1542.68	2.58508	103.02	-46.1654	-11.7243	-42.1947	-21.3391	-1.15143	-5.46034	8.48513	8.51132	7.25515	-1.34927	116.674	46.7749	-2.11233	-0.677047	1.07149	0.956652	114.726	-2.52938	16.5212	24.5642	16.602	-19.7225	2.54523	3.67175	-1.30933	-7.76308	-4.67638	14.9632	-2.20636	0.577947	2.01195	-0.713922	-2.78148	-191.761	5.21136	153.451	34.7893	-0.11456	-0.444212	-4.48204	3.55846	-86.8574	-222.745	-131.278	
3.395	26.1477	41.1698	-14.6385	-30.9821	17.6617	32.1005	-237.213	-14.4068	33.6596	16.8449	-8.68184	-25.3208	-341.805	-576.079	-27.663	-51.5716	-59.4719	-160.213	-174.324	-42.316	-16.0455	-28.6548	-44.5554	0.942737	28.7783	-12.8066	-23.6343	-19.0694	28.1473	34.1971	1.68219	-345.42	-44.5102	-1580.19	5.58483	93.6305	-45.8806	-11.1157	-39.5471	-20.054	-1.14725	-5.07397	4.45543	4.48084	3.12226	-1.34883	107.955	49.8435	-1.16464	-0.346049	0.898616	0.557765	115.376	-4.00245	11.7621	17.1391	10.3115	-13.4303	2.17252	-2.2724	-1.1303	-5.14069	-3.63233	14.5965	-2.20554	0.343077	1.11351	-0.712483	-2.77928	-185.162	6.54345	163.368	33.1527	-0.240302	-0.443378	-2.26808	2.13027	-92.1533	-227.277	-139.427	
3.4	21.4964	34.8915	-19.1112	-33.6677	8.05415	23.898	-278.471	-27.9358	29.9044	14.9467	-8.53807	-25.0963	-345.136	-573.46	-27.6479	-49.0361	-53.9276	-118.057	-148.663	-39.2082	-8.68946	-20.6834	-36.4212	-0.681562	28.0333	-12.3636	-22.6258	-16.8356	25.9767	117.122	1.2948	-417.362	-54.8355	-1559.83	8.69092	82.5623	-44.4864	-10.5762	-37.2184	-18.9205	-1.14454	-4.73654	0.766005	0.761109	-0.680056	-1.34839	98.423	52.2275	-0.290745	-0.0420567	0.741262	0.19229	114.061	-5.30165	7.15488	9.88269	4.16021	-6.71537	2.1807	-4.74112	-0.992597	-2.39978	-1.60125	14.0208	-2.20472	0.128174	0.290176	-0.711045	-2.77708	-176.935	7.71023	185.909	31.2199	-0.42573	-0.442545	-0.257914	0.825244	-97.1237	-233.278	-146.06	
3.405	16.5236	28.6818	-23.3761	-36.0118	-1.33253	15.9074	-319.799	-41.8941	26.1032	13.0361	-8.16323	-24.2253	-342.061	-559.51	-27.6325	-46.8682	-49.2944	-76.0034	-122.643	-36.5656	-1.42678	-12.742	-28.2272	-2.35015	27.1604	-11.6435	-21.116	-15.0237	23.7482	184.983	0.856457	-492.884	-65.3896	-1467.83	11.8039	71.6606	-42.134	-10.0972	-35.1634	-17.9176	-1.14262	-4.43974	-7.29903	-5.04563	-3.75859	-1.34796	88.0808	53.6115	0.489978	0.226951	0.604979	-0.131603	110.987	-4.89676	2.68566	2.81245	-1.78599	0.0978696	2.40047	-6.06381	-1.24942	0.328608	1.25776	13.1588	-2.20708	-0.0627379	-0.444206	-0.709612	-3.0717	-167.857	8.7079	246.092	28.9502	-0.676304	-0.441713	1.52013	-0.337805	-103.865	-243.253	-156.81	
3.41	11.925	22.6059	-27.2932	-37.8499	-10.3201	8.23036	-358.92	-56.0792	22.3348	11.1195	-7.57429	-22.7007	-336.934	-534.692	-27.6174	-45.0206	-45.3871	-34.5393	-96.6452	-34.3101	5.62138	-4.98003	-20.1556	-4.04893	26.1255	-10.6725	-19.1827	-13.5356	21.4756	231.451	0.359646	-576.762	-76.0979	-1333.99	14.8052	60.8502	-38.9001	-9.67129	-33.3448	-17.028	-1.14111	-4.17718	-12.3795	-15.8677	-2.5988	-1.34752	77.3159	53.2073	1.15494	0.452999	0.521283	-0.407922	106.65	-4.14703	-1.65095	-4.03891	-7.53685	6.70069	2.66547	-4.74985	-1.2341	3.02727	4.18429	12.0278	-2.77849	-0.223211	-1.07082	-0.708181	-7.69294	-159.065	9.54029	269.874	26.3681	-1.00039	-0.440882	3.02004	-1.33101	-110.989	-258.097	-169.404	
3.415	7.43649	16.7265	-30.7295	-39.0002	-18.714	0.955293	-384.108	-70.3046	18.6243	9.25056	-6.80061	-20.5458	-330.479	-501.763	-27.6024	-43.4554	-42.0756	5.79455	-71.0339	-32.3801	12.3272	2.4476	-12.377	-5.76368	24.9309	-9.48558	-16.8996	-12.3008	19.1439	264.466	-0.201103	-668.717	-87.0148	-1183.48	17.5648	50.3586	-34.8327	-9.29239	-31.7317	-16.2375	-1.13983	-3.94386	-13.7915	-17.779	-2.03912	-1.34709	66.3465	51.1914	1.68035	0.62684	0.481385	-0.624871	101.406	-4.35591	-5.8503	-10.6369	-13.1013	12.8183	2.82402	-3.38579	-1.07679	5.55445	6.74228	10.6944	-4.95588	-0.347996	-1.56768	-0.706753	-4.18564	-148.433	10.2136	227.31	23.6356	-1.39995	-0.440052	4.19181	-2.1212	-117.163	-276.445	-180.759	
3.42	3.17098	11.0934	-33.5715	-39.2123	-26.3653	-5.81807	-333.985	-84.448	15.0572	7.46698	-5.87976	-17.8082	-320.94	-466.407	-27.5877	-42.1418	-39.257	44.5127	-46.2318	-30.7267	18.5817	9.40153	-5.03307	-7.47858	23.5008	-8.12352	-14.3524	-11.2671	16.725	291.25	-0.828747	-758.372	-97.7861	-1023.04	19.943	40.4643	-30.0249	-8.95534	-30.2983	-15.5338	-1.13865	-3.73572	-15.1184	-18.5178	-1.68232	-1.34666	55.0927	48.8553	2.04005	0.740246	0.475587	-0.772727	95.5275	-4.36417	-9.90158	-16.9463	-18.4362	18.2052	-31.5969	-3.74608	-0.963346	7.80435	8.85408	9.22821	-6.38743	-0.428306	-1.91211	-0.705329	-3.11291	-134.948	10.7373	197.681	20.7191	-1.87436	-0.439224	4.97585	-2.67097	-121.509	-296.231	-189.085	
3.425	-0.825842	5.73749	-35.7124	-37.8881	-33.1342	-11.7433	-261.778	-98.5467	11.675	5.78105	-4.84119	-14.6217	-302.118	-479.613	-27.573	-41.0554	-36.8499	81.1563	-22.6698	-29.311	24.2746	15.7707	1.7496	-9.17552	21.8828	-6.63212	-11.6279	-10.3956	14.2854	314.554	-1.5223	-837.666	-108.217	-851.036	21.819	31.1679	-24.6351	-8.65575	344.86	132.297	-1.13754	-3.54947	-16.5368	-19.3656	-1.50734	-1.34622	43.633	45.932	2.20945	0.784381	0.487559	-0.83962	89.2999	-3.84766	-13.8053	-22.9454	-23.4946	22.6726	-15.5436	-5.47783	-1.42768	9.70131	10.4672	7.70066	-5.64943	-0.462275	-2.07829	-0.703907	-2.79383	-118.4	11.1246	173.723	17.5576	-2.41857	-0.438396	5.3052	-2.94921	-123.76	-315.193	-194.013	
3.43	-4.52834	0.684073	-37.0843	-32.5297	-38.9229	-10.9751	-210.602	-112.451	8.48345	4.19932	-3.71788	-11.1425	-246.982	-578.756	-27.5584	-40.1767	-34.7891	115.352	-0.643438	-28.1016	29.3161	21.4691	7.87216	-10.834	19.955	-5.05834	-8.7948	-9.65652	11.7343	334.94	-2.27675	-904.791	-118.011	-669.394	23.1385	22.4884	-18.8356	131.579	520.07	277.857	-1.13646	-3.38237	-18.1679	-20.6094	-1.40917	-1.34579	32.1222	42.4611	2.16425	0.752301	0.53397	-0.814027	82.8923	-3.30986	-17.5653	-28.6225	-28.228	26.0715	-8.59014	-8.07466	-1.52461	11.1868	11.48	6.17932	-4.57434	-0.441939	-2.04455	-0.702489	-19.586	-96.5668	11.3878	144.357	14.1772	-2.99938	-0.437569	5.11751	-2.916	-123.925	-330.164	-194.851	
3.435	-7.92156	-4.05928	-37.6317	-28.4172	-43.6597	-10.9938	-174.393	-126.395	5.48068	2.69651	-2.54484	-7.51503	-186.904	-579.432	-27.544	-39.4907	-33.0227	146.836	19.7137	-27.0732	33.6538	26.4447	13.3006	-12.4234	17.7884	-3.44742	-5.91975	-9.02696	9.08389	351.659	-3.08348	-964.424	-126.795	-482.148	23.9689	14.445	-12.8077	190.374	503.723	270.132	-1.1354	-3.23213	-19.8699	-22.0817	-1.35581	-1.34536	20.6564	38.4972	1.88545	0.636531	0.742414	-0.684915	76.4632	-3.10625	-21.1814	-33.9664	-32.8317	28.3062	-6.73076	-11.2166	-1.2621	12.218	11.824	4.70189	-7.26334	-0.356023	-1.78812	-0.701073	-8.31134	-69.5451	11.5398	110.868	10.6259	-3.61801	-0.436743	4.35287	-2.52312	-122.349	-337.441	-190.872	
3.44	-11.0033	-8.4958	-37.3243	-25.0735	-47.3089	-10.9419	-147.901	-140.355	2.65137	1.29155	-1.36001	-3.86164	-146.046	-557.898	-27.5297	-38.986	-31.5092	175.452	38.3976	-26.2053	37.2612	30.6795	18.0324	-13.9834	15.2737	-1.84098	-3.07011	-8.48882	6.34479	361.973	-3.93083	-1020.61	-134.295	-292.537	24.3698	6.81691	-6.73196	178.633	504.969	266.006	-1.13434	-3.0968	-21.548	-23.6552	-1.32569	-1.34493	9.0749	34.2756	1.35741	0.432962	0.803665	-0.446532	70.1765	-2.93096	-24.6407	-38.9503	-37.2442	29.3326	-7.15707	-14.7576	-1.05732	12.7756	11.4812	3.2838	-6.56248	-0.211936	-1.29276	-0.699661	-4.15426	-40.335	11.5934	76.8421	6.92541	-4.25273	-0.435918	2.96741	-1.75968	-118.874	-335.379	-182.812	
3.445	-13.7819	-12.6438	-36.1615	-22.3788	-49.8647	-10.9489	-127.53	-154.511	-0.0159418	-0.0298017	-0.198464	-0.291188	-117.928	-540.161	-27.5154	-38.6546	-30.2155	201.195	55.5467	-25.4817	40.1519	34.1991	22.1252	-15.45	12.4667	-0.277591	-0.306811	-8.02806	3.48326	362.881	-4.80421	-1058.1	-140.988	-102.998	24.2783	-0.323295	-0.786724	175.415	528.729	278.766	-1.13328	-2.97475	-23.159	-25.2679	-1.30898	-1.3445	-2.52464	30.2377	0.572327	0.138935	1.28046	-0.0914172	64.2105	-2.70225	-27.9108	-43.528	-41.325	29.1513	-6.10634	-18.556	-1.53099	12.8576	10.4767	1.94476	-5.31152	0.00784396	-0.54938	-0.698309	-2.89625	-10.2474	11.5595	43.024	3.18134	-4.89997	-0.435441	0.937904	-0.583915	-112.343	-325.052	-172.117	
3.45	-16.2777	-16.5301	-34.1559	-20.1388	-51.3546	-10.9455	-111.416	-169.155	-2.53385	-1.28063	0.907968	3.10323	-97.79	-527.658	-27.5013	-38.4917	-29.1147	224.196	71.4037	-24.8894	42.3693	37.0628	25.6622	-16.7075	9.29917	1.20937	2.31632	-7.63313	0.480975	354.336	-5.68842	-913.923	-147.128	84.5172	23.6057	-7.06089	4.86621	181.102	537.807	285.867	-1.13223	-2.86456	-24.6358	-26.8845	-1.29973	-1.34407	-14.0229	26.3273	-0.468317	-0.245078	1.23933	0.376428	58.625	-2.51184	-30.9418	-47.6728	-45.072	27.8069	-4.92835	-22.4193	-1.30511	12.4812	8.86175	0.701791	-8.19569	0.285551	0.441387	-0.696887	-2.75045	17.8459	11.4469	9.39117	-0.518182	-5.57037	-0.439642	-9.1785	0.977283	-103.055	-309.511	-160.641	
3.455	-18.5205	-20.1955	-31.3327	-18.256	-51.8252	-10.9416	-98.443	-184.578	-4.91319	-2.46275	1.93221	6.24295	-82.6153	-518.046	-27.4872	-38.469	-28.1853	244.722	86.2813	-24.4179	43.9813	39.3583	28.7597	-17.8631	5.79834	2.59133	4.75469	-7.29507	-2.67396	341.042	-6.57036	-664.671	-151.131	265.047	22.3481	-13.4707	10.0959	184.778	535.11	286.231	-1.13117	-2.76502	-25.9113	-28.4568	-1.2946	-1.34365	-25.4521	22.5855	-1.75657	-0.716508	1.05058	0.948552	53.6531	-2.37615	-33.7007	-51.3724	-48.4701	25.3826	-4.38399	-26.3582	-1.09409	11.6797	6.71127	-0.431272	-7.32471	0.616917	1.66829	-0.695442	-10.7265	45.4335	11.2655	-23.7903	-4.0892	-6.29566	-0.446453	-13.4756	2.87759	-92.8386	-291.049	-148.926	
3.46	-20.3436	-23.6846	-27.731	-16.6578	-51.3414	-10.935	-87.8797	-200.935	-7.16191	-3.58869	2.85279	9.05941	-70.8386	-509.908	-27.4733	-38.4523	-27.4098	263.03	100.571	-24.0596	45.0856	41.1947	31.5562	-18.873	1.97125	3.84515	6.97392	-7.00651	-5.99799	327.367	-7.43459	-500.468	-152.31	432.691	20.6326	-19.5415	14.7913	186.421	535.03	288.05	-1.13011	-2.67509	-26.9262	-29.8958	-1.29169	-1.34322	-36.9034	19.0706	-3.27212	-1.26874	1.48518	1.61687	49.5018	-2.28721	-36.1586	-54.6164	-51.4761	21.9975	-4.65192	-30.3281	-2.39401	10.496	4.11584	-1.44477	-5.8526	1.00962	3.10807	-0.694041	-5.11486	71.9653	11.024	-55.7657	-7.45474	-7.10549	-0.44441	-10.9436	5.11435	-82.8801	-270.785	-136.91	
3.465	-21.8998	-27.0558	-23.3859	-15.2928	-49.9646	-10.9279	-79.1894	-215.783	-9.2841	-4.64507	3.65485	11.4978	-61.5144	-502.298	-27.4594	-38.4319	-26.7743	279.478	114.683	-23.8087	45.7991	42.6866	34.1914	-19.6853	-2.16297	4.95385	8.94658	-6.76161	-9.51061	311.208	-8.26841	-392.805	-150.908	582.302	18.5942	-25.2962	18.8831	187.952	537.245	291.422	-1.12905	-2.59386	-27.6332	-31.0975	-1.28996	-1.3428	-48.1225	15.8199	-4.98688	-1.89345	3.32936	2.36399	46.2233	-2.2309	-38.2866	-57.4158	-54.0477	17.7869	-5.25402	-34.1425	-1.91833	8.9872	1.17729	-2.33016	-8.27181	1.46908	4.7252	-0.692644	-3.31429	96.9061	10.7294	-85.769	-10.5219	-8.05023	-0.440426	-10.0671	7.68605	-73.4117	-148.538	-124.616	
3.47	-23.3921	-30.3503	-18.3367	-14.1199	-47.7872	-10.9207	-71.9717	-228.578	-11.2818	-5.63664	4.32888	13.515	-54.0272	-493.723	-27.4456	-38.4108	-26.2678	294.454	129.023	-23.6613	46.2143	43.9525	36.7972	-20.2706	-6.57072	5.90512	10.6544	-6.55562	-13.2364	283.182	-9.0614	-319.946	-146.903	711.79	16.3367	-30.8106	22.3247	184.27	522.492	285.436	-1.12799	-2.5206	-28.006	-31.9745	-1.28885	-1.34237	-58.4147	12.8491	-14.1719	-2.95482	8.51134	3.16167	43.7853	-2.19562	-40.059	-59.7117	-56.1535	12.9066	-5.58639	-37.5397	-1.43319	7.21326	-1.99605	-3.07781	-7.28609	1.98222	6.46974	-0.69125	-2.7714	119.789	10.3882	-112.629	-13.2669	-9.19023	-0.436615	-14.1	10.5286	-64.3262	-33.1529	-112.261	
3.475	-24.7594	-33.6159	-12.62	-13.1065	-44.855	-10.9136	-65.9253	-238.999	-13.1419	-6.57084	4.87217	15.0846	-47.9376	-481.947	-27.4317	-38.39	-25.8822	308.457	143.941	-23.614	46.3014	45.1098	39.4948	-20.601	-11.209	6.69193	12.0914	-6.38471	-17.1794	243.872	-9.78232	-266.868	-140.524	821.739	13.9057	-36.0242	25.1024	173.79	486.725	267.973	-1.12692	-2.45457	-28.0418	-32.4803	-1.28806	-1.34195	-67.4152	10.1525	-30.7305	-6.14855	1.69431	3.97194	42.0733	-2.17326	-41.4551	-61.5143	-57.7711	7.52184	-3.42265	-40.2829	-2.63176	5.23885	-5.29154	-3.67995	-5.78883	2.48504	8.28059	-0.689873	-21.0844	140.227	10.0065	-136.045	-15.6494	-10.5963	-0.43364	-20.3108	13.3395	-55.6361	-37.9392	-100.042	
3.48	-26.096	-36.8981	-6.26201	-12.2264	-41.2473	-10.9064	-60.8232	-245.691	-14.859	-7.43302	5.28513	16.2037	-42.9258	-458.471	-27.418	-38.3695	-25.6111	321.918	159.724	-23.6089	46.0203	46.2609	42.3819	-20.6484	-16.0237	7.31388	13.2485	-6.24587	-21.3199	202.099	-10.282	-226.618	-131.9	913.353	11.3356	-40.8438	27.2218	159.814	441.08	245.179	-1.12586	-2.39523	-26.7729	-31.3399	-1.28745	-1.34153	-75.0485	7.71475	-21.2132	-4.27634	0.461801	4.77142	40.9288	-2.15862	-42.4581	-62.8273	-58.8924	1.78898	-31.9301	-42.3962	14.5415	3.12754	-8.55787	-4.12781	-6.42516	2.98712	10.0874	-0.688471	-8.87886	157.608	9.59415	-155.901	-17.6441	-12.3449	-0.431403	-25.0946	16.0156	-47.5156	-218.74	-88.2337	
3.485	-27.4417	-40.2004	0.713439	-3.62085	-36.9715	-10.8992	-56.4922	-247.625	-16.4191	-8.21922	5.57234	16.8924	-38.7565	-406.106	-27.4045	-38.3491	-25.4506	334.834	176.524	-23.5965	45.5782	47.4457	45.511	-20.4101	-20.9595	7.77045	14.1318	-6.13673	-25.7595	162.929	-10.7953	-195.321	-120.902	986.498	8.66364	-45.3241	28.7131	145.579	395.244	222.378	-1.12479	-2.34203	-25.9202	-30.6074	-1.28692	-1.34111	-81.3009	5.54797	-12.9025	-3.54508	1.74086	5.53507	40.1486	-2.1485	-43.0796	-63.6816	-59.5259	-4.13264	-32.4173	-44.3627	1.95839	0.941216	-11.5358	-4.42161	-5.47278	3.47685	11.8129	-0.687085	-4.26547	171.522	9.15998	-172.01	-19.2804	-14.5172	-0.429704	-28.8803	18.4593	-40.0673	-80.0579	-76.9788	
3.49	-28.8286	-43.5734	8.27919	32.3385	-32.0725	-10.8918	-52.7986	-245.417	-17.8005	-8.91729	5.73977	17.2029	-35.2551	-314.499	-27.3909	-38.329	-25.3973	346.963	194.38	-23.5838	45.0023	48.5627	48.8955	-19.9466	-26.002	8.07057	14.7415	-6.0555	-30.3835	125.458	-11.2439	-170.589	-107.574	1039.08	5.90417	-49.3427	29.6265	130.944	348.846	199.134	-1.12372	-2.29456	-25.5499	-30.5079	-1.28645	-1.34069	-86.0828	3.66605	10.261	-3.36462	2.08638	6.21834	39.5786	-2.14098	-43.3308	-64.0939	-59.6709	-10.1001	-34.529	-45.9887	2.68945	-1.26551	-14.5407	-4.56071	-4.40129	3.90371	13.3775	-0.685703	-2.86535	181.781	8.71339	-184.325	-20.5553	-17.1912	-0.428356	-32.5195	20.5622	-33.3687	-23.9599	-66.6417	
3.495	-30.2824	-47.1321	16.4127	45.6022	-26.5393	-10.8844	-49.6378	-233.129	-18.9813	-9.52067	5.79605	17.1826	-32.2907	-251	-27.3774	-38.309	-25.3921	357.946	213.18	-23.571	44.2814	49.5432	52.5024	-19.3027	-31.0633	8.22252	15.086	-6.00091	-35.2726	89.2704	-11.6439	-150.76	-92.0834	1070.2	3.06394	-52.8279	30.0171	116.455	309.234	176.049	-1.12264	-2.25242	-25.2221	-30.8342	-1.286	-1.34027	-89.2839	2.07814	1.91554	-6.62616	-1.67549	6.76816	39.0533	-2.13494	-43.2338	-63.9759	-59.3905	-20.017	-34.9556	-47.1305	1.04459	-3.44281	-11.3677	-4.54629	-4.76676	4.14949	14.7044	-0.684324	-2.69865	188.296	8.2649	-192.866	-21.5082	-20.4302	-0.427228	-35.8229	22.0685	-27.4125	-40.9757	-57.5179	
3.5	-31.8282	-51.0058	25.0711	52.8108	-20.3719	-10.8769	-46.9271	-220.304	-19.9384	-10.015	5.74955	16.8807	-29.7633	-205.683	-27.3639	-38.2891	-25.3789	367.48	232.643	-23.5584	43.4121	50.4676	56.35	-18.3859	-36.1512	8.24124	15.1841	-5.97222	-40.3841	54.1802	-12.003	-134.652	-74.6696	1078.67	0.143111	-55.6989	29.9424	105.842	297.875	164.045	-1.12157	-2.21528	-24.7346	-31.412	-1.28556	-1.33985	-91.0958	0.790359	-22.0257	-7.24318	-1.93643	7.14368	38.4085	-2.12973	-42.8227	-63.4518	-58.7668	-30.4778	-34.5297	-47.7724	-0.875886	-5.54972	-9.28936	-4.38189	-4.60688	4.28995	15.7187	-0.682948	-11.7157	191.109	7.82281	-197.7	-22.1242	-24.2602	-0.426234	-38.4388	22.8487	-22.2395	-51.6748	-49.5538	
3.505	-33.4504	-55.0732	34.2024	63.6231	-13.5583	-10.8693	-44.6001	-203.759	-20.6406	-10.3895	5.61323	16.3492	-27.5953	-172.797	-27.3505	-38.2694	-25.3654	375.142	252.313	-23.546	42.3649	51.224	60.3491	-17.171	-41.2556	8.14245	15.0565	-5.96664	-45.7046	22.8203	-12.3276	-121.409	-55.6354	1063.06	-2.86274	-57.8654	29.4585	101.342	280.755	157.014	-1.12049	-2.18287	-24.1615	-31.9714	-1.28513	-1.33943	-91.9053	-0.195093	-22.566	-7.40588	-1.32804	7.33194	37.5434	-2.12498	-42.1451	-62.6423	-57.8062	-31.8407	-35.0658	-47.9894	-0.881475	-7.55588	-8.47044	-4.07414	-3.93314	4.30974	16.3634	-0.681574	-5.40236	190.38	7.3952	-198.699	-22.336	-28.6636	-0.425319	-40.3173	22.9666	-17.9175	-10.0837	-42.4422	
3.51	-35.1563	-59.0177	43.7163	76.2536	-6.11739	-10.8617	-42.6043	-184.471	-21.001	-10.6328	5.40309	15.6402	-25.7259	-147.661	-27.3371	-38.2498	-25.3517	380.337	271.529	-23.5336	41.2606	51.707	64.2532	-15.7107	-46.3712	7.94339	14.7259	-5.96453	-51.1965	-1.58181	-12.6243	-110.408	-35.3558	1033.44	-5.96209	-59.1722	28.6155	93.4298	255.902	144.321	-1.11941	-2.15494	-23.9199	-32.8512	-1.2847	-1.33901	-91.8416	-0.878457	-19.6335	-7.85227	-0.742507	7.3678	36.2547	-2.1205	-41.2589	-61.6119	-56.3281	-36.4718	-35.5927	-47.8813	-0.873626	-10.3064	-7.09929	-3.63314	-3.29559	4.21825	16.5899	-0.680204	84.1945	186.358	6.98981	-146.035	-22.1515	-33.5662	-0.424451	-41.5183	22.5688	-14.5298	96.9274	-36.0388	
3.515	-36.911	-62.6664	53.5008	88.1124	1.9385	-10.8539	-40.8965	-163.622	-20.9834	-10.7073	5.13293	14.8024	-24.107	-127.917	-27.3237	-38.2303	404.556	382.448	289.602	-23.5214	40.2427	51.8255	67.8112	-14.0417	-51.5351	7.66067	14.2289	-5.96139	-56.8219	-28.2522	-12.8893	-101.191	-14.2302	997.661	-9.16867	-59.2564	27.4611	84.1957	230.569	130.235	-1.11833	-2.13128	-23.4767	-33.4395	-1.28427	-1.3386	-90.6749	-1.26248	-19.5342	-8.0846	-0.2683	7.21105	34.6611	-2.11616	-40.2232	-60.4161	-54.2237	-38.8576	-36.775	-47.5496	-0.856413	-13.2955	-5.94277	-3.07214	-5.94186	4.03462	16.3693	-0.678837	67.8212	179.364	6.61262	-110.387	-21.607	-38.8594	-0.42361	-41.6247	21.7384	-12.1345	119.204	-30.5816	
3.52	-38.5236	-65.9337	63.385	99.1177	10.5327	-10.8461	-39.4426	-142.187	-20.6418	-10.5909	4.82013	13.8757	-22.6998	-112.102	-27.3103	379.24	266.762	381.007	305.696	-23.5092	39.043	51.5429	70.8627	-12.1924	-56.8369	7.31116	13.5958	-5.95817	-62.507	-55.7901	-13.1288	-93.4142	7.24737	952.439	-12.4947	-58.2685	26.0496	76.186	208.905	118.252	-1.11724	-2.11174	-22.454	-33.0076	-1.28384	-1.33818	-88.2504	-1.35215	-20.0407	-7.9952	0.157884	6.80284	32.6334	-2.1119	-39.0971	-59.1234	-51.9756	-40.9462	-38.233	-47.0933	-0.856043	-15.1922	-5.20983	-2.40364	-5.53028	3.76756	15.6867	-0.677472	54.1168	169.784	6.26945	-101.398	-20.7311	-44.402	-0.422785	-37.5818	20.4805	-10.7168	84.6757	-26.3917	
3.525	-39.94	-68.6874	73.1768	109.597	19.5623	-10.8381	-38.2146	-120.893	-20.0639	-10.3172	4.47943	12.8951	-21.4733	-99.273	-27.297	518.765	302.906	375.63	318.97	-23.4971	37.6027	51.2627	73.3023	-10.1995	-62.3688	6.91173	12.8606	-5.95496	-68.1664	-82.0445	-13.3369	-86.8151	28.4775	893.916	-15.9286	-56.6414	24.4469	69.6409	190.917	108.477	-1.11616	-2.09616	-20.8226	-31.4345	-1.28342	-1.33777	-84.7339	-1.15346	-19.3086	-7.62747	0.502221	6.22945	30.1379	-2.10769	-37.9362	-57.808	-49.6702	-43.94	-39.6984	-46.6086	-0.856141	-15.9534	-4.6497	-1.64106	-4.58572	3.42274	14.5487	-0.676111	55.9233	158.03	5.9636	-93.4599	-19.5666	-50.0236	-0.421968	-32.8141	18.77	-10.2137	46.0042	-23.6194	
3.53	-41.0929	-70.9979	82.6312	119.384	29.0314	-10.8301	-37.1899	-100.348	-19.3276	-9.93666	4.12405	11.8942	-20.4021	-88.7477	-27.2837	388.367	341.477	365.803	329.116	405.148	35.8273	50.8318	75.01	-8.10782	-68.048	6.4768	12.0531	-5.95181	-73.5763	-107.554	-13.4849	-81.1903	48.8673	827.161	-19.4454	-54.7364	22.7172	63.2475	173.495	98.8522	-1.11507	-2.08445	-18.6102	-29.0683	-1.28299	-1.33736	-80.5491	-0.678718	-17.4802	-6.96472	0.667204	5.50746	27.2564	-2.10351	-36.795	-56.5344	-47.3241	-47.8647	-41.0498	-46.1858	-0.856474	-16.0241	-4.18729	-0.797195	-7.03122	2.99412	12.9689	-0.674752	56.7833	144.548	5.69726	-83.4755	-18.1627	-55.5215	-0.421158	-31.4312	16.5754	-10.5321	19.3138	-22.2745	
3.535	-41.9032	-72.8575	91.4704	128.12	37.9192	-10.8219	-36.3507	-81.0814	-18.5039	-9.49049	3.76495	10.8949	-19.4655	-80.0213	-27.2704	451.808	357.69	349.967	335.569	432.181	33.6448	50.0906	75.9494	-5.95502	-73.3144	6.02013	11.2018	-6.28055	-78.6073	-133.177	-13.5275	-76.3801	67.8817	759.212	-22.9566	-52.5507	20.9197	56.4652	155.212	88.5667	-1.11398	25.6251	-16.1774	-26.3329	-1.28257	-1.33694	-76.0286	0.0502611	-14.9972	-5.98949	0.684402	4.59885	23.9892	-2.09935	-35.7229	-55.3679	-44.9989	-51.4997	-42.2852	-45.9064	-0.856265	-16.7588	-3.79442	0.114463	-6.32214	2.47968	10.9746	-0.673397	54.3769	129.778	5.47064	-74.2593	-16.5775	-60.6762	-0.42035	-28.759	13.9155	-11.5653	-2.24519	-22.2891	
3.54	-42.3052	-74.0773	99.4029	135.528	47.2408	-10.8137	-35.6828	-63.484	-17.5864	-9.00985	3.41113	9.91105	-18.6464	-72.7168	-19.9256	467.167	368.624	328.055	337.379	358.533	30.985	49.0466	76.1805	-3.77937	-78.1134	5.55196	10.3271	133.931	-84.5009	-159.012	-13.4605	-72.2586	85.0644	693.012	-26.3121	-50.0274	19.106	49.1933	135.576	77.3834	-1.11289	111.475	-13.6671	-23.5162	-1.28214	-1.33653	-71.3563	0.994747	-11.9743	-4.70672	0.589857	3.52254	20.3246	-2.09521	-34.7637	-54.3725	-42.7821	-54.3514	-43.4386	-45.8369	-0.855931	-17.805	-3.45836	1.07751	-5.11136	1.88513	8.59578	-0.672044	51.981	114.157	5.2821	-66.4395	-14.8699	-65.3549	-0.419546	-22.5706	10.8289	-13.2147	-20.1986	-23.5546	
3.545	-42.2157	-74.4524	106.1	141.365	55.6723	-10.8053	-35.1754	-47.7297	-16.578	-8.48886	3.06893	8.95935	-17.9308	-66.5506	532.257	465.972	375.866	302.065	334.352	409.577	27.8466	47.6493	75.2651	-1.62233	-82.2976	5.0838	9.45346	204.517	-89.4779	-184.812	-13.2665	-68.7252	100.129	628.781	-29.3548	-47.2144	17.3181	41.1089	113.625	64.8034	-1.1118	110.416	-11.1956	-20.6753	-1.28171	-1.33612	-66.6535	2.10134	-8.37381	-3.13714	0.396874	2.30468	16.3574	-2.09108	-34.3171	-53.7215	-40.7407	-56.6062	-44.5439	-46.0251	-0.855587	-17.5224	-3.16932	2.06977	-5.28738	1.21315	5.86631	-0.670695	50.2554	98.1117	5.12875	-59.4295	-13.0966	-69.5164	-0.418737	-14.8425	7.37217	-15.3925	-38.0485	-25.9472	
3.55	-41.6501	-73.6873	111.267	145.411	63.1663	-10.7969	-34.8207	-33.7413	-15.5059	-7.93277	2.74316	8.05251	-17.307	-61.3076	212.154	461.459	377.806	272.713	326.938	418.263	23.9416	45.8472	72.5423	0.475453	-85.6772	4.62188	8.59517	201.773	-94.025	-209.661	-12.9239	-65.6992	112.915	567.271	-32.4651	-44.1876	15.5857	32.0096	88.7443	50.5345	31.4679	98.7051	-8.65787	-17.7619	-1.28127	-1.33571	-62.0189	3.32052	-4.20326	-1.31573	0.164674	0.961698	11.9426	-2.08696	-34.4916	-53.4898	-38.9263	-58.415	-45.3384	-45.0273	-0.85528	-17.6521	-2.91933	3.0659	-4.50035	0.468655	2.81384	-0.669348	48.7653	82.0357	5.00599	-52.7313	-11.3082	-73.1474	-0.417941	-5.95539	3.56666	-18.0203	-52.0393	-29.336	
3.555	-40.7249	-69.4986	114.664	147.378	69.2798	-10.7884	-34.6135	-21.2503	-14.3824	-7.35445	2.43716	7.19579	-16.7654	-56.822	276.73	452.143	374.52	241.142	315.614	415.392	19.3	41.7507	68.8948	2.47557	-89.1277	4.17321	7.7597	187.54	-97.8675	-231.622	-12.415	-63.1158	123.345	509.307	-36.1246	-40.989	13.9356	21.9558	61.0827	34.6963	52.7507	98.5866	-5.90641	-14.6801	-1.28084	-1.3353	-57.5302	4.60099	0.473858	0.711311	-0.0927591	-0.50177	7.13502	-2.08285	-34.8052	-53.516	-37.373	-59.7786	-40.5078	-34.8626	-0.854995	-19.1394	-2.70183	4.03937	-3.70043	-0.349533	-0.53459	-0.668004	47.3755	66.2721	4.90781	-46.269	-9.5512	-76.2103	-0.417141	4.05668	-0.586261	-21.0236	-64.8716	-33.5882	
3.56	-39.517	-52.7937	116.126	147.059	73.8919	-10.7797	-34.5483	-9.76419	-13.2313	-6.76242	2.15287	6.39582	-16.2979	-52.964	290.887	441.792	366.371	208.851	301.09	409.245	15.1586	37.6026	64.5586	4.35274	-91.1437	3.74377	6.96232	184.653	-100.743	-250.319	-11.7253	-60.9226	131.48	455.235	-39.3767	-37.7024	12.3816	11.1224	31.1531	17.5866	37.8314	103.279	-2.64161	-11.2267	-1.28041	-1.33489	-53.2618	5.89658	5.5707	2.88545	-0.399573	-2.0825	1.83929	-2.07874	-35.2367	-53.8241	-36.1154	-60.7083	-40.9461	-13.8865	-0.854718	-20.8356	-2.51156	4.96282	-3.08274	-1.24351	-4.15982	-0.666663	46.16	51.2597	4.82777	-40.1781	-7.8811	-78.5988	-0.416342	14.8636	-5.1141	-24.3171	-69.5383	-38.5509	
3.565	-38.0333	-40.7691	115.447	144.351	76.6035	-10.7709	-34.5414	1.28972	-12.0674	-6.16444	1.89086	5.64952	-15.8979	-49.6317	281.249	428.204	353.324	177.144	284.003	398.253	11.1271	33.7047	59.7054	6.07767	-92.2024	3.33538	6.20246	184.326	-102.391	-272.089	-10.8352	-59.0774	137.375	405.063	-41.3797	-34.3572	10.9328	-0.174439	-0.123529	-0.265336	41.7585	105.637	0.264722	-7.49998	-1.27998	-1.33448	-49.261	7.16377	10.9879	5.13736	-0.767532	-3.77863	-3.96482	-2.07465	-35.8382	-54.4274	-35.1528	-61.2255	-33.7026	-11.7504	-0.854442	-19.9957	-2.34429	5.81505	-2.68192	-2.21524	-8.04459	-0.665325	6.27856	37.0909	2.49287	-34.3692	-6.33167	-80.1264	-0.415545	26.05	-10.0648	-27.8099	-97.0145	-44.0594	
3.57	-36.4128	-32.4267	112.739	139.369	77.3251	-10.7621	-34.5236	12.6512	-10.9114	-5.5722	1.65195	4.96219	-15.5599	-46.7431	270.513	409.371	336.106	147.445	265.512	382.908	7.55627	29.8252	54.7499	7.64526	-92.2449	2.95196	5.49119	181.907	-102.711	-297.301	-9.75088	400.852	141.402	358.648	-42.1938	-31.037	9.59371	-11.6193	-31.8185	-18.351	42.8981	93.2791	1.45315	-5.02567	-1.27954	-1.33408	-45.5695	8.3582	16.6098	7.3889	-1.17823	-5.5858	-10.3122	-2.07057	-36.6326	-55.3376	-34.4896	-61.4073	-42.4473	-3.24331	-0.854165	-20.9398	-2.19659	6.57386	-22.546	-3.27165	-12.1755	-0.66399	-0.597496	24.2047	4.29529	-29.0538	-4.94449	-80.5226	-0.414748	37.0726	-15.5026	-31.4038	-68.1399	-49.9022	
3.575	-34.7681	-26.6129	108.179	132.133	75.9578	-10.7531	124.493	25.0355	-9.77943	-4.99267	1.43479	4.33228	-15.2795	-44.2326	259.19	387.809	315.202	121.002	245.919	364.088	4.63227	26.3352	50.3642	9.05177	-90.9645	2.59539	4.82737	174.06	-101.597	-314.919	-8.48208	1235.51	143.85	315.942	-42.2925	-27.7941	8.37065	-22.838	-62.8325	-36.0681	44.7615	105.185	0.365346	-5.29789	-1.2791	-1.33367	-42.2095	9.43854	22.2961	9.55277	-1.64664	-7.49276	-17.2327	-2.06649	-37.5913	-56.5247	-34.1083	-61.3145	-18.2112	-2.52415	-0.853887	-21.0126	-2.06566	7.22148	6.05825	-4.41637	-16.5383	-0.662658	54.2589	12.6794	7.19607	-24.2933	-3.74572	-1503.03	-0.413952	47.5983	-21.4986	-34.991	-36.1166	-55.8257	
3.58	-33.2101	-22.297	101.939	123.018	72.5588	-10.744	798.734	39.124	-8.68996	-4.43473	1.23939	3.76022	-15.0531	89.9881	245.38	363.761	291.311	98.8076	225.218	342.722	2.50501	23.4248	46.9259	10.3047	-88.3813	2.26708	4.21763	159.339	-99.2153	-321.672	-7.0454	1329.09	145.019	276.751	-41.948	-24.6685	7.25999	-33.4961	-92.1931	-52.8589	45.4463	110.636	-0.585827	-6.781	-1.27867	-1.33326	-39.1844	10.3696	27.8788	11.54	-2.21498	-9.48262	-24.872	-2.06242	-38.6793	-57.9446	-33.9773	-61.0111	-4.26966	-2.36542	-0.853609	-21.5991	-1.94919	7.74942	15.7637	-5.65383	-21.1127	-0.661329	26.0166	2.68347	3.75141	-20.1378	-2.75173	23.7388	-0.413158	57.4707	-28.1145	-38.4934	-34.0085	-61.6616	
3.585	-31.795	-18.978	94.2226	112.736	67.265	-10.7348	888.778	55.4711	-7.65612	-3.90563	1.06473	3.24461	-14.8779	402.991	230.167	337.761	265.16	81.4917	204.865	319.7	1.27632	21.2262	43.9839	11.4152	-84.58	1.96679	3.65823	142.802	-96.0026	-320.558	-5.46701	1207.29	145.722	240.855	-40.8502	-21.703	6.25868	-43.3337	-119.194	-68.3211	45.4052	112.781	-1.01439	-8.30011	-1.27823	-1.33286	-36.4759	11.1247	33.1311	13.2687	-2.85646	-11.6317	-33.2855	-2.05836	-39.8675	-59.5483	-34.0547	-60.5723	-3.61885	-2.40525	-0.85333	-21.9481	-1.84526	8.15775	23.3099	-6.98146	-25.8682	-0.660003	61.8713	-5.73855	-0.662102	-16.6751	-1.96729	-41.2538	-0.412372	67.1326	-35.3829	-41.8582	-159.181	-67.3944	
3.59	-30.6242	-16.3609	85.3174	101.587	60.3263	-10.7255	781.234	74.4402	-6.69	-3.41171	0.909899	2.78471	-14.7517	577.968	214.107	310.561	237.638	69.7082	186.06	295.809	0.991229	19.8275	41.698	12.3982	-79.8891	1.69601	3.15474	129.055	-91.9815	-316.447	-3.78062	1149.19	146.557	208.047	-37.9607	-18.9408	5.36482	-52.2793	-143.614	-82.2932	45.4456	110.607	-1.01157	-8.42476	-1.27779	-1.33245	-34.0683	11.6903	37.8501	14.6703	-3.59182	-13.8396	-42.819	-2.05431	-41.1271	-61.2815	-34.2897	-60.0738	-4.14348	-2.39343	-0.853049	-23.1758	-1.75227	8.45701	25.5883	-8.39469	-30.7672	-0.65868	68.7047	-12.6368	1.71157	-13.951	-1.38646	36.5873	-0.411577	77.0677	-43.3226	-45.0381	-233.134	-73.1014	
3.595	-29.7343	-14.2666	75.5789	89.8278	52.0516	-10.716	713.905	96.1162	-5.80037	-2.95769	0.773945	2.37684	-14.6732	651.976	197.696	282.825	209.581	64.2312	169.046	272.06	1.63411	19.25	40.1444	13.2735	-74.6063	1.45302	2.70331	118.486	-86.8549	-310.37	-2.03141	1166.48	147.513	178.367	-30.0957	-16.4061	4.57541	-60.4889	-165.963	-95.022	45.3728	108.087	-0.884533	-7.93345	-1.27735	-1.33205	-31.9542	12.0653	41.9731	15.7066	-4.64752	-16.1732	-53.5765	-2.05027	-42.4247	-63.0838	-34.6246	-59.5971	-2.52044	-2.38672	-0.852768	-24.3034	-1.66885	8.67143	25.4256	-9.87963	-35.7569	-0.657359	87.6286	-18.0794	3.5077	-11.9672	-0.992943	1.57146	-0.410781	87.9941	-51.9726	-47.9445	-181.878	-78.5109	
3.6	-29.1478	-12.5693	65.3753	77.8395	42.8222	-10.7065	708.331	120.253	-4.9971	-2.54725	0.655308	2.02053	-14.6413	697.66	181.375	255.216	181.729	68.8581	154.162	249.129	3.12031	19.457	39.3231	14.0603	-68.6383	1.23952	2.30512	110.458	-80.9039	-299.309	-0.270605	1188.91	148.513	152.072	-22.6719	-14.121	3.88484	-68.4205	-187.56	-107.205	45.1488	105.444	-0.66763	-6.76391	-1.27691	-1.33165	-30.1272	12.2592	45.691	16.3775	-5.21422	-18.5705	-65.3948	-2.04624	-43.7284	-64.8986	-35.0001	-59.1818	-2.09345	-2.37995	-0.852489	-25.0068	-1.59387	8.80433	32.6634	-11.3151	-40.7727	-0.656041	41.1234	-22.2183	4.21755	-10.6723	-0.761821	3.8862	-0.409993	101.578	-61.0372	-50.4965	-196.791	-83.1607	
3.605	-28.8575	-11.1771	55.0934	66.0386	33.0459	-10.6969	711.165	146.179	-4.28439	-2.1837	0.553792	1.71246	-14.64	749.673	165.564	228.337	154.763	74.688	141.507	227.497	5.3214	20.3477	39.3123	14.7846	-62.1763	1.05304	1.95969	99.6253	-74.4935	-266.419	1.44661	1194.2	149.727	129.191	-17.682	-12.0997	3.29004	-76.5385	-209.75	-119.585	44.82	102.341	-0.395512	-4.47401	-1.27647	-1.33124	-28.5697	12.2926	48.9052	16.7279	-6.14346	-21.1013	-78.3126	-2.04221	-45.002	-66.666	-35.3557	-58.9062	-2.01924	-2.37622	-0.852208	-23.1884	-1.52636	8.88423	44.9406	-12.1022	-45.7367	-0.654727	37.8681	-25.2505	4.03969	-9.97752	-0.661336	2.57578	-0.409206	121.642	-70.5152	-52.5717	-192.239	-86.6874	
3.61	-28.8327	-10.0223	45.0948	54.7827	23.1534	-10.6871	702.641	172.803	-3.66856	-1.86983	0.468195	1.45306	37.3567	808.111	150.617	202.777	129.313	84.2068	131.339	207.531	8.04748	21.7778	40.1675	15.4588	-55.5983	0.89492	1.66539	85.3417	-67.9248	-197.927	3.06556	1197.07	151.354	109.679	-14.2839	-10.3544	2.78704	-85.4411	-234.22	-133.014	44.4133	99.375	-0.0677437	-3.1459	-1.27602	-1.33083	-27.254	12.1924	51.1344	17.2587	-6.9979	-23.7916	-92.0164	-2.03819	-46.2107	-68.3305	-35.633	-58.8909	-2.01543	-2.37329	-0.851926	-23.7455	-1.46549	8.93409	47.7489	-12.8286	-50.5686	-0.653415	42.8394	-27.4306	3.80235	-9.76365	-0.652615	3.81207	-0.408417	158.939	-80.2384	-54.073	-163.814	-89.1144	
3.615	-29.0121	-9.05458	35.7025	44.4056	13.5731	-10.6772	690.464	198.711	-3.15193	-1.60673	0.398053	1.23854	303.17	863.843	136.858	179.055	105.958	96.0557	127.715	189.535	11.077	23.5628	40.1203	16.0725	-49.1822	0.7638	1.423	73.6305	-61.467	-151.459	4.53421	1209.85	153.407	93.5322	-11.8526	-8.89658	2.37334	-95.6828	-262.699	-148.493	43.9414	96.9593	0.320469	-2.31386	-1.28372	-1.33044	-26.1393	11.9886	52.1417	17.9992	-7.80915	-26.6541	-106.007	-2.03419	-47.3238	-69.8444	-35.7786	-59.201	-2.01321	-2.37056	-0.851643	-24.7698	-1.41056	8.97124	47.51	-13.5544	-55.1764	-0.652106	42.4108	-29.0363	3.66558	-9.88681	-0.64397	4.09569	-0.407631	167.595	-89.989	-54.9505	-124.021	-90.5553	
3.62	-29.3217	-8.23636	27.2192	35.1724	4.72088	-10.6671	682.101	222.541	-2.7378	-1.39614	0.34224	1.06957	410.634	906.944	124.581	157.744	85.2119	108.836	123.756	173.713	14.162	25.49	39.1638	16.6051	-43.1963	0.658665	1.2294	64.456	-55.4102	-120.083	5.8057	1225.94	155.732	80.6915	-10.0244	-7.72871	2.04645	-106.204	-292.456	-164.467	43.42	95.6811	0.779714	-1.83396	-1.34619	52.8258	-25.171	11.7143	52.2114	18.9797	-8.89903	-29.9023	-119.389	-2.03019	-48.3178	-71.1722	-35.7447	-59.8902	-2.01142	-2.36773	-0.85136	-25.6168	-1.36094	9.01523	53.2391	-14.1847	-59.4741	-0.6508	40.4179	-30.3749	3.52911	-10.1896	-0.630575	4.18946	-0.406846	163.893	-99.5426	-55.0248	-105.964	-91.2164	
3.625	-29.6924	-7.53911	19.9233	27.2952	-3.02599	-10.657	676.958	243.026	-2.42743	-1.23876	0.30088	0.943839	418.878	931.857	114.066	139.327	67.5269	121.443	120.566	161.749	17.0494	27.3451	39.3829	17.0337	-37.891	0.580623	1.08657	56.7944	-50.051	-98.5041	6.83933	1222.33	158.318	71.1507	-8.60879	-6.85836	1.80278	-114.835	-317.421	-177.462	42.6927	94.3833	1.3169	-1.55674	-1.67938	38.6094	-24.284	11.4016	51.6855	20.4477	-10.3267	-33.727	-131.163	-2.02619	-49.1751	-72.282	-35.4888	-61.0081	-2.00934	-2.36483	-0.851077	-26.5019	-1.31612	9.07856	57.3171	-14.6833	-63.3743	-0.649496	39.7131	-31.7417	3.34227	-10.5119	-0.604589	4.11362	-0.406062	167.232	-108.665	-54.1131	-17.7261	-91.3215	
3.63	-30.0577	-6.9408	14.0397	20.9528	-9.32331	-10.6467	673.569	259.066	-2.22237	-1.13557	0.273531	0.862345	408.383	944.773	105.567	124.268	53.2834	132.76	118.859	155.996	19.4801	28.9156	39.365	17.3502	-33.5136	0.528264	0.991549	50.5524	-45.607	-82.629	7.60432	1197.4	161.298	64.84	-7.49081	-6.28911	1.64273	-122.067	-336.453	-187.171	41.9946	89.2567	1.93182	-1.40045	-2.04933	33.4274	-23.4051	11.0815	50.6985	22.9244	-12.0158	-38.4162	-138.674	-2.02221	-49.8773	-73.1528	-34.9737	-62.5953	-2.00741	-2.36188	-0.850792	-27.5929	-1.27567	9.17966	64.2528	-15.1289	-66.7963	-0.648196	39.5009	-33.2619	3.12204	-10.6886	-0.531694	4.02582	-0.405279	167.502	-117.136	-51.6939	-4.85218	-91.0687	
3.635	-30.3601	-6.42423	9.76621	16.2897	-13.8798	-10.6363	665.572	270.154	-2.1244	-1.08667	0.259467	0.822621	409.545	946.942	99.3276	112.872	42.7952	141.732	117.937	149.92	21.2291	30.0058	39.2184	17.5481	-30.2587	0.501584	0.945709	45.7497	-42.2734	-70.5175	8.07566	1171.46	164.202	61.7144	-6.59497	-6.02179	1.56378	-138.554	-363.409	-209.989	41.3676	83.1318	2.6258	-1.31289	-1.96007	35.9461	-22.4565	10.7822	49.4657	27.977	-13.8784	-43.5986	-142.626	-2.01824	-50.3812	-73.7691	-34.1689	-64.6797	-2.00556	-2.35892	-0.850507	-28.8334	-1.23915	9.33726	71.9341	-15.4574	-69.6662	-0.646898	39.1738	-35.2948	2.89509	-10.4637	-0.377622	3.94156	-0.404498	164.478	-124.731	-45.3852	-3.00824	-90.6748	
3.64	-30.5466	-5.97582	7.23384	13.3945	-16.4711	-10.6258	648.731	273.164	-2.13342	-1.09307	0.258782	0.825364	415.053	922.204	95.5465	105.706	36.2715	147.585	117.648	147.058	22.0875	30.451	38.8983	17.6265	-28.2828	0.500093	0.94819	42.8497	-40.2132	-61.0418	8.23932	1155.44	164.138	61.7414	-5.86771	-6.05889	1.5636	-155.847	-421.877	-239.122	40.7733	77.4712	3.39946	-1.26439	-1.77388	36.4861	-21.3587	10.5269	48.2527	34.0613	-13.7354	-49.308	-153.895	-2.01427	-50.6502	-74.1166	-33.048	-67.2698	-2.00374	-2.35595	-0.850222	-30.1617	-1.20625	9.57359	11.9248	-15.7023	-71.9122	-0.645604	38.7827	-38.1378	2.67037	-9.74588	-0.117258	3.86283	-0.403717	158.852	-131.192	-39.1613	-3.44588	-90.4093	
3.645	-30.5703	-5.5847	6.53931	12.3089	-16.9326	-10.6151	627.643	263.329	-2.24918	-1.15413	0.270808	0.869157	414.491	864.5	94.3675	102.794	33.8137	149.388	117.907	146.949	21.8891	30.1128	38.2918	17.5809	-27.6968	0.523983	0.998178	41.7592	-39.5499	-53.5083	8.09305	1159.13	160.938	64.84	-5.27019	-6.39919	1.64261	-170.676	-473.666	-263.716	40.2282	71.9853	4.2559	-1.23762	-2.5098	35.732	-20.036	10.333	46.7516	30.3269	-17.9281	-55.6343	-154.801	-2.01031	-50.6002	-74.2039	-31.5899	-70.3603	-2.00192	-2.35297	-0.849936	-31.5627	-1.17668	9.82258	52.5444	-15.8731	-73.4682	-0.644312	38.4287	-41.9582	2.45016	-8.50186	0.265675	3.78448	-0.402938	154.159	-136.456	-33.5797	-3.4533	-90.5542	
