CEINMS output
datacolumns 6
datarows 92
endheader
time	hip_flexion_l	hip_adduction_l	hip_rotation_l	knee_angle_l	ankle_angle_l	
3.19	49.7128	-111.219	30.5203	-190.597	4.61638	
3.195	80.1903	-163.913	39.2247	-257.007	11.1345	
3.2	35.6133	-132.415	16.3672	-267.924	7.27976	
3.205	-21.9848	-97.0951	-21.9966	-268.304	5.99844	
3.21	-5.95328	-94.2127	-47.9682	-273.376	7.52307	
3.215	50.3501	-104.734	-52.5274	-279.355	8.81301	
3.22	106.486	-113.24	-49.6095	-281.047	9.88717	
3.225	140.172	-111.577	-46.714	-278.682	11.5646	
3.23	156.642	-103.891	-45.4355	-280.074	13.8621	
3.235	159.228	-102.079	-44.717	-287.223	16.3197	
3.24	154.795	-101.611	-46.0403	-294.957	18.7575	
3.245	149.323	-88.4541	-52.3059	-292.614	21.1899	
3.25	140.296	-76.9305	-56.6419	-277.613	23.6001	
3.255	126.952	-73.1162	-58.2261	-254.425	25.974	
3.26	111.807	-73.6279	-57.5488	-227.034	28.269	
3.265	96.4368	-76.316	-55.1394	-195.978	30.3323	
3.27	79.8707	-78.6496	-51.7456	-162.151	32.0871	
3.275	57.8099	-81.1222	-48.4834	-125.53	33.4698	
3.28	31.0858	-74.9696	-44.5656	-85.7104	34.4016	
3.285	-1.87982	-63.3765	-40.8418	-51.34	34.7871	
3.29	-42.0971	-49.2884	-37.0427	-36.1406	34.5561	
3.295	-91.2844	-32.0612	-33.2468	-32.0779	33.6675	
3.3	-145.449	-12.4666	-29.4489	-28.7601	32.1071	
3.305	-192.329	5.6222	-25.9829	-31.6899	29.8957	
3.31	-201.793	13.3044	-22.9903	-32.0349	27.0931	
3.315	-186.717	14.1798	-20.1824	-32.4597	23.7809	
3.32	-165.465	16.0725	-18.0226	-33.0875	20.0509	
3.325	-146.148	17.4627	-9.88711	-33.6354	16.0315	
3.33	-127.643	16.9413	1.26257	-33.7639	12.0083	
3.335	-111.89	18.3922	7.50288	-32.9729	8.43247	
3.34	-100.434	14.4169	14.3981	-28.9063	5.83804	
3.345	-92.1696	10.4603	17.0255	-18.4748	5.07704	
3.35	-87.0933	8.10554	16.1469	-0.757093	5.14388	
3.355	-86.0831	8.33529	13.5843	24.496	5.87974	
3.36	-89.6325	11.868	10.0512	57.771	7.62019	
3.365	-97.0003	18.0727	6.55204	98.2111	9.57451	
3.37	-113.743	29.3613	4.87831	139.477	11.2128	
3.375	-142.169	47.3796	5.95613	177.065	12.5568	
3.38	-174.528	60.3701	7.02583	216.932	13.7464	
3.385	-205.552	66.4507	6.19235	264.384	14.8244	
3.39	-232.889	69.1845	8.2125	312.673	15.7549	
3.395	-256.222	72.4741	10.3984	346.43	16.4285	
3.4	-275.845	76.7182	12.1446	369.953	16.7704	
3.405	-310.341	68.8535	13.0897	371.862	16.6454	
3.41	-329.347	61.8497	12.405	361.903	15.9829	
3.415	-340.919	66.4704	10.6233	349.866	14.8032	
3.42	-356.147	70.8902	17.5018	337.789	13.1345	
3.425	-370.431	74.2228	25.7602	324.005	11.0746	
3.43	-380.209	76.3036	29.8478	311.756	8.73383	
3.435	-383.474	76.2814	32.0473	299.151	6.16836	
3.44	-381.293	75.4392	31.7057	284.16	3.42204	
3.445	-374.997	73.9789	29.8097	262.748	0.517239	
3.45	-365.952	72.8612	26.3431	233.065	-2.57365	
3.455	-355.025	72.1889	21.9665	198.049	-5.88149	
3.46	-342.726	72.2778	17.0716	174.484	-6.21561	
3.465	-329.605	73.6892	12.7882	167.6	-5.80721	
3.47	-316.469	74.8555	7.63081	159.495	-6.16447	
3.475	-303.831	76.1441	2.08695	150.347	-8.07063	
3.48	-295.472	68.5185	2.40898	118.075	-13.0577	
3.485	-288.291	59.8824	3.08593	97.2332	-22.1204	
3.49	-281.459	50.6489	5.23099	85.7968	-36.3301	
3.495	-273.959	34.5957	9.78846	68.5726	-53.0864	
3.5	-266.829	17.8908	14.7608	52.568	-67.4275	
3.505	-262.8	2.78426	20.5264	39.767	-80.1366	
3.51	-254.603	-11.3059	26.049	30.2404	-92.7961	
3.515	-238.396	-24.8979	28.9109	21.6428	-105.664	
3.52	-219.644	-36.9424	27.1889	11.5004	-118.219	
3.525	-201.181	-41.502	20.1801	-0.952944	-129.853	
3.53	-184.938	-42.8942	10.8866	-14.6424	-140.199	
3.535	-171.007	-42.9048	1.96694	-27.8324	-148.967	
3.54	-159.334	-41.88	-5.94391	-39.1517	-156.03	
3.545	-149.885	-40.1817	-12.8116	-47.9013	-161.289	
3.55	-126.523	-30.7857	-12.3676	-53.8387	-164.687	
3.555	-92.9326	-24.719	-9.30612	-56.9755	-166.113	
3.56	-59.2892	-17.6377	-9.02053	-57.3965	-165.401	
3.565	-29.1819	-9.9931	-8.11657	-55.2573	-162.285	
3.57	-2.36194	-4.29809	-6.88751	-50.8539	-156.396	
3.575	21.045	-1.21525	-5.70109	-44.6321	-147.235	
3.58	40.6913	-1.22975	-4.77576	-37.0502	-134.331	
3.585	56.4262	-4.60038	-3.86944	-28.5483	-117.493	
3.59	68.8853	-11.604	-4.63943	-26.0729	-96.9662	
3.595	77.6879	-20.9995	-6.38416	-36.0414	-73.6654	
3.6	84.1962	-28.5096	-7.77389	-50.5386	-49.3515	
3.605	89.9762	-31.4511	-9.03208	-67.9431	-27.3503	
3.61	95.899	-30.2281	-10.3059	-86.3008	-14.71	
3.615	102.017	-26.4275	-11.5126	-104.765	-8.50401	
3.62	107.708	-20.5296	-12.5687	-123.29	-2.82888	
3.625	112.251	-12.3084	-13.6602	-141.531	2.6553	
3.63	115.333	-1.46234	-15.0364	-157.992	6.79221	
3.635	117.338	12.3688	-16.8343	-172.028	9.11265	
3.64	132.306	25.507	-15.2185	-185.094	10.5318	
3.645	151.025	39.4708	-12.7183	-196.09	10.0776	
