CEINMS output
datacolumns 81
datarows 92
endheader
time	addbrev_r	addlong_r	addmagDist_r	addmagIsch_r	addmagMid_r	addmagProx_r	bflh_r	bfsh_r	edl_r	ehl_r	fdl_r	fhl_r	gaslat_r	gasmed_r	glmax1_r	glmax2_r	glmax3_r	glmed1_r	glmed2_r	glmed3_r	glmin1_r	glmin2_r	glmin3_r	grac_r	iliacus_r	perbrev_r	perlong_r	piri_r	psoas_r	recfem_r	sart_r	semimem_r	semiten_r	soleus_r	tfl_r	tibant_r	tibpost_r	vasint_r	vaslat_r	vasmed_r	addbrev_l	addlong_l	addmagDist_l	addmagIsch_l	addmagMid_l	addmagProx_l	bflh_l	bfsh_l	edl_l	ehl_l	fdl_l	fhl_l	gaslat_l	gasmed_l	glmax1_l	glmax2_l	glmax3_l	glmed1_l	glmed2_l	glmed3_l	glmin1_l	glmin2_l	glmin3_l	grac_l	iliacus_l	perbrev_l	perlong_l	piri_l	psoas_l	recfem_l	sart_l	semimem_l	semiten_l	soleus_l	tfl_l	tibant_l	tibpost_l	vasint_l	vaslat_l	vasmed_l	
3.19	5.25622e-05	0.000773534	0.00016652	8.78867e-05	4.43359e-05	5.80862e-05	0.000914131	0.000462873	0.000262921	0.000135634	0.000424936	0.000438306	0.000917762	0.00140491	0.00213725	0.00204146	0.00195583	0.00213877	0.00212431	0.00190726	0.000448302	0.00213027	0.00188348	0.000181635	0.000348778	0.00041468	0.000219886	0.00202193	0.000132482	0.000116513	6.46323e-05	0.00216718	0.0011681	0.000901844	5.62209e-05	8.96996e-05	0.000568391	0.000261346	0.000128386	0.000122691	0.000248659	0.000248659	0.247057	0.247057	0.152045	0.000248659	0.00100259	0.000227848	0.000968885	0.000739262	0.448495	0.000469032	0.00250887	0.000248659	0.00283439	0.00475986	0.000358928	0.872914	0.924278	0.00133329	0.445186	0.821272	0.000862863	0.0111408	0.000284681	0.00445073	0.000107514	0.000267727	0.000776532	0.249966	0.65495	0.00859623	0.000962093	0.0395478	0.000248659	0.070296	0.0249732	2.55801e-05	0.000998959	3.03582e-05	
3.195	0.000143169	0.00119938	0.0003875	0.000222473	0.000117934	0.000157914	0.00168795	0.00101731	0.000562033	0.000321892	0.000796865	0.000787985	0.0014989	0.00191979	0.0027885	0.00268745	0.00260659	0.00285819	0.00272277	0.00259835	0.000793858	0.00286018	0.00258216	0.000430155	0.000799858	0.00075472	0.000470716	0.0026465	0.000313226	0.000301267	0.000174491	0.00269349	0.00182472	0.0014769	0.000151563	0.000225198	0.000976726	0.000559261	0.000307226	0.000294488	0.000500749	0.000500749	0.494782	0.479757	0.33321	0.0236841	0.00221792	0.000603209	0.00106577	0.0009611	0.41103	0.00200854	0.00603197	0.000500749	0.00686968	0.011458	0.000788186	0.695804	0.993503	0.00149903	0.312617	0.15406	0.0010073	0.0279652	0.00055606	0.0185361	0.000472817	0.000532862	0.000993041	0.320629	0.887549	0.0192619	0.00249345	0.0789221	0.000500749	0.137623	0.0741399	6.86385e-05	0.00109884	8.10598e-05	
3.2	0.00280274	0.00147286	0.00147114	0.00160169	0.00154203	0.00297016	0.00274905	0.00287831	0.00141435	0.00138138	0.00134373	0.00121313	0.00196544	0.00210627	0.00297486	0.0028816	0.0028146	0.00309139	0.00287842	0.00284492	0.0011869	0.00310268	0.00283922	0.00182083	0.00279444	0.00119134	0.00119131	0.00282847	0.00131167	0.00271723	0.0029309	0.00280785	0.00226037	0.00194393	0.00244934	0.00149871	0.00138435	0.00141335	0.00139406	0.00136473	0.00102267	0.00102267	0.863674	0.800829	0.575974	0.0534154	0.242476	0.106007	0.00107355	0.00102332	0.34197	0.0616925	0.312779	0.00102267	0.189567	0.409895	0.100082	0.569974	0.999308	0.00151596	0.303626	0.0898526	0.0010277	0.662719	0.00103947	0.140878	0.0374215	0.00105049	0.0010485	0.362954	0.973931	0.606067	0.300999	0.209172	0.00102267	0.219652	0.499527	0.00103384	0.00110687	0.00113001	
3.205	0.00280274	0.00147286	0.00147114	0.00160169	0.00154203	0.00297016	0.00274905	0.00287831	0.00141435	0.00138138	0.00134373	0.00121313	0.00196544	0.00210627	0.00297486	0.0028816	0.0028146	0.00309139	0.00287842	0.00284492	0.0011869	0.00310268	0.00283922	0.00182083	0.00279444	0.00119134	0.00119131	0.00282847	0.00131167	0.00271723	0.0029309	0.00280785	0.00226037	0.00194393	0.00244934	0.00149871	0.00138435	0.00141335	0.00139406	0.00136473	0.00102267	0.00102267	0.639169	0.575331	0.422509	0.0445502	0.241609	0.105904	0.00107355	0.00102332	0.266854	0.0608575	0.31064	0.00102267	0.186984	0.404371	0.0998598	0.690589	0.450834	0.00151596	0.149312	0.0133088	0.0010277	0.660295	0.00103947	0.134615	0.0372574	0.00105049	0.0010485	0.38498	0.983147	0.598424	0.300458	0.192493	0.00102267	0.252394	0.466877	0.00103384	0.00110687	0.00113001	
3.21	0.00280274	0.00147286	0.00147114	0.00160169	0.00154203	0.00297016	0.00274905	0.00287831	0.00141435	0.00138138	0.00134373	0.00121313	0.00196544	0.00210627	0.00297486	0.0028816	0.0028146	0.00309139	0.00287842	0.00284492	0.0011869	0.00310268	0.00283922	0.00182083	0.00279444	0.00119134	0.00119131	0.00282847	0.00131167	0.00271723	0.0029309	0.00280785	0.00226037	0.00194393	0.00244934	0.00149871	0.00138435	0.00141335	0.00139406	0.00136473	0.010215	0.0122401	0.427215	0.378362	0.280967	0.0323288	0.240362	0.105745	0.00107355	0.00102332	0.272331	0.0598091	0.307481	0.00102267	0.183222	0.396513	0.0995469	0.503673	0.0515265	0.00151596	0.507897	0.135293	0.0010277	0.65674	0.282125	0.127625	0.0370235	0.00105049	0.749243	0.405859	0.990328	0.587926	0.299614	0.171247	0.00102267	0.289618	0.427339	0.00103384	0.00110687	0.00113001	
3.215	0.00280274	0.00147286	0.00147114	0.00160169	0.00154203	0.00297016	0.00274905	0.00287831	0.00141435	0.00138138	0.00134373	0.00121313	0.00196544	0.00210627	0.00297486	0.0028816	0.0028146	0.00309139	0.00287842	0.00284492	0.0011869	0.00310268	0.00283922	0.00182083	0.00279444	0.00119134	0.00119131	0.00282847	0.00131167	0.00271723	0.0029309	0.00280785	0.00226037	0.00194393	0.00244934	0.00149871	0.00138435	0.00141335	0.00139406	0.00136473	0.0214667	0.0206003	0.276238	0.241224	0.183891	0.0238258	0.238765	0.105532	0.00107355	0.00102332	0.29454	0.0587746	0.303372	0.00102267	0.178665	0.386922	0.0991631	0.501638	0.00537875	0.00151596	0.339866	0.0259453	0.00102839	0.652108	0.382727	0.122245	0.0367768	0.00105049	0.625177	0.42404	0.99582	0.575149	0.298467	0.14786	0.00102267	0.3284	0.385175	0.00103496	0.00110687	0.00113001	
3.22	0.00280274	0.00147286	0.00147114	0.00160169	0.00154203	0.00297016	0.00274905	0.00287831	0.00141435	0.00138138	0.00134373	0.00121313	0.00196544	0.00210627	0.00297486	0.0028816	0.0028146	0.00309139	0.00287842	0.00284492	0.0011869	0.00310268	0.00283922	0.00182083	0.00279444	0.00119134	0.00119131	0.00282847	0.00131167	0.00271723	0.0029309	0.00280785	0.00226037	0.00194393	0.00244934	0.00149871	0.00138435	0.00141335	0.00139406	0.00136473	0.0379552	0.0308892	0.189171	0.165093	0.130186	0.0160976	0.236847	0.105264	0.00107355	0.00102332	0.326664	0.058011	0.2984	0.00102267	0.173552	0.376022	0.0987253	0.431222	0.00167178	0.00246127	0.17658	0.00450592	0.00115376	0.646449	0.428334	0.120655	0.0365853	0.00142275	0.485954	0.442418	0.998116	0.56061	0.297025	0.124343	0.00102267	0.366425	0.34522	0.00106177	0.00110687	0.00113001	
3.225	0.00280274	0.00147286	0.00147114	0.00160169	0.00154203	0.00297016	0.00274905	0.00287831	0.00141435	0.00138138	0.00134373	0.00121313	0.00196544	0.00210627	0.00297486	0.0028816	0.0028146	0.00309139	0.00287842	0.00284492	0.0011869	0.00310268	0.00283922	0.00182083	0.00279444	0.00119134	0.00119131	0.00282847	0.00131167	0.00271723	0.0029309	0.00280785	0.00226037	0.00194393	0.00244934	0.00149871	0.00138435	0.00141335	0.00139406	0.00136473	0.0574242	0.0436509	0.141967	0.125326	0.104986	0.0104466	0.23464	0.104946	0.00107355	0.00102332	0.356063	0.0577028	0.292661	0.00102267	0.168051	0.364133	0.098246	0.37238	0.00140739	0.00679837	0.0821757	0.00144122	0.00162748	0.639803	0.590379	0.123508	0.0365026	0.00141915	0.865791	0.459945	0.998935	0.544771	0.295303	0.10214	0.00102267	0.403215	0.311798	0.00111833	0.00110687	0.00113001	
3.23	0.00280274	0.00147286	0.00147114	0.00160169	0.00154203	0.00297016	0.00274905	0.00287831	0.00141435	0.00138138	0.00134373	0.00121313	0.00196544	0.00210627	0.00297486	0.0028816	0.0028146	0.00309139	0.00287842	0.00284492	0.0011869	0.00310268	0.00283922	0.00182083	0.00279444	0.00119134	0.00119131	0.00282847	0.00131167	0.00271723	0.0029309	0.00280785	0.00226037	0.00194393	0.00244934	0.00149871	0.00138435	0.00141335	0.00139406	0.00136473	0.0759854	0.0564419	0.11677	0.102021	0.0956699	0.00670319	0.232181	0.104576	0.00107355	0.00102332	0.38177	0.0580078	0.286265	0.00102267	0.162297	0.351511	0.0977355	0.313718	0.00138963	0.00547218	0.0362137	0.00105276	0.00318593	0.632215	0.739824	0.130719	0.0365786	0.00132432	0.971823	0.473219	0.999208	0.528058	0.293327	0.0822007	0.00102267	0.436878	0.288455	0.00120194	0.00110687	0.00113001	
3.235	0.00280274	0.00147286	0.00147114	0.00160169	0.00154203	0.00297016	0.00274905	0.00287831	0.00141435	0.00138138	0.00134373	0.00121313	0.00196544	0.00210627	0.00297486	0.0028816	0.0028146	0.00309139	0.00287842	0.00284492	0.0011869	0.00310268	0.00283922	0.00182083	0.00279444	0.00119134	0.00119131	0.00282847	0.00131167	0.00271723	0.0029309	0.00280785	0.00226037	0.00194393	0.00244934	0.00149871	0.00138435	0.00141335	0.00139406	0.00136473	0.0910688	0.0661174	0.111755	0.0946343	0.097794	0.00436011	0.2295	0.104151	0.00107355	0.00102332	0.398087	0.059033	0.279327	0.00102267	0.156435	0.338425	0.0972063	0.257406	0.00138848	0.00500183	0.0156938	0.00100648	0.00435104	0.623741	0.844861	0.14106	0.0369188	0.0054837	0.994037	0.48013	0.999296	0.510872	0.291128	0.0650688	0.00102267	0.465904	0.273712	0.00129708	0.00110687	0.00113001	
3.24	0.00280274	0.00147286	0.00147114	0.00160169	0.00154203	0.00297016	0.00274905	0.00287831	0.00141435	0.00138138	0.00134373	0.00121313	0.00196544	0.00210627	0.00297486	0.0028816	0.0028146	0.00309139	0.00287842	0.00284492	0.0011869	0.00310268	0.00283922	0.00182083	0.00279444	0.00119134	0.00119131	0.00282847	0.00131167	0.00271723	0.0029309	0.00280785	0.00226037	0.00194393	0.00244934	0.00149871	0.00138435	0.00141335	0.00139406	0.00136473	0.102724	0.0724447	0.125085	0.102186	0.108985	0.00294656	0.226628	0.103678	0.00107355	0.00102332	0.430595	0.0609336	0.271966	0.00102267	0.150596	0.325126	0.0966705	0.194588	0.00138841	0.00193473	0.00699204	0.00100117	0.00156894	0.614468	0.846771	0.154941	0.0374612	0.00812337	0.827501	0.481648	0.999324	0.493573	0.288743	0.0510122	0.00102267	0.488789	0.271849	0.0014035	0.00110687	0.00113001	
3.245	0.00280274	0.00147286	0.00147114	0.00160169	0.00154203	0.00297016	0.00274905	0.00287831	0.00141435	0.00138138	0.00134373	0.00121313	0.00196544	0.00210627	0.00297486	0.0028816	0.0028146	0.00309139	0.00287842	0.00284492	0.0011869	0.00310268	0.00283922	0.00182083	0.00279444	0.00119134	0.00119131	0.00282847	0.00131167	0.00271723	0.0029309	0.00280785	0.00226037	0.00194393	0.00244934	0.00149871	0.00138435	0.00141335	0.00139406	0.00136473	0.113822	0.0784197	0.14901	0.11782	0.126004	0.00211555	0.223608	0.103161	0.00107355	0.00102332	0.458912	0.063684	0.264293	0.00102267	0.144836	0.311768	0.096137	0.125147	0.0013884	0.0015547	0.0034243	0.00100057	0.00109505	0.604486	0.840136	0.171155	0.0382495	0.00696853	0.739179	0.481577	0.999333	0.47645	0.286206	0.040024	0.00102267	0.505145	0.279424	0.0015221	0.00110687	0.00113001	
3.25	0.00280274	0.00147286	0.00147114	0.00160169	0.00154203	0.00297016	0.00274905	0.00287831	0.00141435	0.00138138	0.00134373	0.00121313	0.00196544	0.00210627	0.00297486	0.0028816	0.0028146	0.00309139	0.00287842	0.00284492	0.0011869	0.00310268	0.00283922	0.00182083	0.00279444	0.00119134	0.00119131	0.00282847	0.00131167	0.00271723	0.0029309	0.00280785	0.00226037	0.00194393	0.00244934	0.00149871	0.00138435	0.00141335	0.00139406	0.00136473	0.123706	0.0838626	0.178258	0.138122	0.145337	0.0016363	0.220475	0.102605	0.00107355	0.00102332	0.484625	0.0672485	0.256406	0.00102267	0.139204	0.29848	0.0956141	0.059853	0.0013884	0.00151917	0.0019958	0.00100051	0.00466327	0.593886	0.824397	0.188553	0.0393071	0.00517742	0.620578	0.482122	0.999335	0.459713	0.283553	0.0319546	0.00102267	0.514868	0.292114	0.00166113	0.00110687	0.00113001	
3.255	0.00280274	0.00147286	0.00147114	0.00160169	0.00154203	0.00297016	0.00274905	0.00287831	0.00141435	0.00138138	0.00134373	0.00121313	0.00196544	0.00210627	0.00297486	0.0028816	0.0028146	0.00309139	0.00287842	0.00284492	0.0011869	0.00310268	0.00283922	0.00182083	0.00279444	0.00119134	0.00119131	0.00282847	0.00131167	0.00271723	0.0029309	0.00280785	0.00226037	0.00194393	0.00244934	0.00149871	0.00138435	0.00141335	0.00139406	0.00136473	0.1379	0.0920242	0.219364	0.166779	0.174346	0.00136395	0.217249	0.102013	0.00107355	0.00102332	0.506005	0.0717894	0.248391	0.00102267	0.133729	0.285383	0.0951135	0.00975943	0.0013884	0.00151621	0.00143383	0.0010005	0.00315459	0.58278	0.741845	0.207047	0.0407083	0.00731804	0.58305	0.483381	0.999336	0.443511	0.280812	0.0265366	0.00102267	0.518234	0.305898	0.00182781	0.00110687	0.00113001	
3.26	0.00280274	0.00147286	0.00147114	0.00160169	0.00154203	0.00297016	0.00274905	0.00287831	0.00141435	0.00138138	0.00134373	0.00121313	0.00196544	0.00210627	0.00297486	0.0028816	0.0028146	0.00309139	0.00287842	0.00284492	0.0011869	0.00310268	0.00283922	0.00182083	0.00279444	0.00119134	0.00119131	0.00282847	0.00131167	0.00271723	0.0029309	0.00280785	0.00226037	0.00194393	0.00244934	0.00149871	0.00138435	0.00141335	0.00139406	0.00136473	0.166373	0.108567	0.290361	0.208306	0.226922	0.00121099	0.21395	0.101389	0.00107355	0.00102332	0.531429	0.0772237	0.240328	0.00102267	0.128412	0.27258	0.0946551	0.00220321	0.0013884	0.00151597	0.00121573	0.0010005	0.00135831	0.571301	0.524036	0.225568	0.0424224	0.00742877	0.892058	0.485069	0.999336	0.427957	0.278013	0.0234601	0.00102267	0.515699	0.317792	0.00201747	0.00110687	0.00113001	
3.265	0.00280274	0.00147286	0.00147114	0.00160169	0.00154203	0.00297016	0.00274905	0.00287831	0.00141435	0.00138138	0.00134373	0.00121313	0.00196544	0.00210627	0.00297486	0.0028816	0.0028146	0.00309139	0.00287842	0.00284492	0.0011869	0.00310268	0.00283922	0.00182083	0.00279444	0.00119134	0.00119131	0.00282847	0.00131167	0.00271723	0.0029309	0.00280785	0.00226037	0.00194393	0.00244934	0.00149871	0.00138435	0.00141335	0.00139406	0.00136473	0.200796	0.12736	0.381315	0.262123	0.291875	0.0011259	0.21059	0.100737	0.00107355	0.00102332	0.552868	0.083458	0.232285	0.00102267	0.123283	0.260185	0.0942557	0.00132142	0.0013884	0.00151596	0.00113199	0.0010005	0.0046226	0.559578	0.332332	0.2435	0.0444536	0.00583079	0.97727	0.487964	0.999337	0.413098	0.275178	0.0223633	0.00102267	0.508424	0.325762	0.00222007	0.00110687	0.00113001	
3.27	0.00280274	0.00147286	0.00147114	0.00160169	0.00154203	0.00297016	0.00274905	0.00287831	0.00141435	0.00138138	0.00134373	0.00121313	0.00196544	0.00210627	0.00297486	0.0028816	0.0028146	0.00309139	0.00287842	0.00284492	0.0011869	0.00310268	0.00283922	0.00182083	0.00279444	0.00119134	0.00119131	0.00282847	0.00131167	0.00271723	0.0029309	0.00280785	0.00226037	0.00194393	0.00244934	0.00149871	0.00138435	0.00141335	0.00139406	0.00136473	0.230876	0.142084	0.471654	0.319525	0.352124	0.00107893	0.207182	0.100058	0.00107355	0.00102332	0.571295	0.0903813	0.224319	0.00102267	0.118381	0.248288	0.093924	0.00122883	0.0013884	0.00151596	0.00110013	0.0010005	0.0016272	0.547713	0.198182	0.260187	0.0467832	0.00422084	0.995049	0.492214	0.999337	0.398904	0.272327	0.0228737	0.00102267	0.506375	0.328893	0.00244421	0.00110687	0.00113001	
3.275	0.00280274	0.00147286	0.00147114	0.00160169	0.00154203	0.00297016	0.00274905	0.00287831	0.00141435	0.00138138	0.00134373	0.00121313	0.00196544	0.00210627	0.00297486	0.0028816	0.0028146	0.00309139	0.00287842	0.00284492	0.0011869	0.00310268	0.00283922	0.00182083	0.00279444	0.00119134	0.00119131	0.00282847	0.00131167	0.00271723	0.0029309	0.00280785	0.00226037	0.00194393	0.00244934	0.00149871	0.00138435	0.00141335	0.00139406	0.00136473	0.257503	0.153974	0.56217	0.372142	0.405669	0.00105318	0.203734	0.0993541	0.00107355	0.00102332	0.582198	0.0979332	0.216477	0.00102267	0.113595	0.236766	0.0936568	0.00121965	0.0013884	0.00151596	0.00108809	0.0010005	0.0011029	0.535771	0.113693	0.274932	0.0494007	0.00706153	0.998355	0.496758	0.999337	0.385318	0.269468	0.0245853	0.00102267	0.507352	0.328665	0.00270388	0.00110687	0.00113001	
3.28	0.00280274	0.00147286	0.00147114	0.00160169	0.00154203	0.00297016	0.00274905	0.00287831	0.00141435	0.00138138	0.00134373	0.00121313	0.00196544	0.00210627	0.00297486	0.0028816	0.0028146	0.00309139	0.00287842	0.00284492	0.0011869	0.00310268	0.00283922	0.00182083	0.00279444	0.00119134	0.00119131	0.00282847	0.00131167	0.00271723	0.0029309	0.00280785	0.00226037	0.00194393	0.00244934	0.00149871	0.00138435	0.00141335	0.00139406	0.00136473	0.269713	0.156871	0.625729	0.413545	0.444701	0.00103915	0.200254	0.0986264	0.00107355	0.00102332	0.59991	0.105799	0.208799	0.00102267	0.108883	0.225528	0.0934383	0.00121877	0.0013884	0.00151596	0.00108357	0.0010005	0.00103609	0.52375	0.0636238	0.287704	0.0522247	0.00636752	0.998932	0.499205	0.999337	0.372265	0.266602	0.0272293	0.00102267	0.509486	0.323925	0.00302527	0.00110687	0.00113001	
3.285	0.00280274	0.00147286	0.00147114	0.00160169	0.00154203	0.00297016	0.00274905	0.00287831	0.00141435	0.00138138	0.00134373	0.00121313	0.00196544	0.00210627	0.00297486	0.0028816	0.0028146	0.00309139	0.00287842	0.00284492	0.0011869	0.00310268	0.00283922	0.00182083	0.00279444	0.00119134	0.00119131	0.00282847	0.00131167	0.00271723	0.0029309	0.00280785	0.00226037	0.00194393	0.00244934	0.00149871	0.00138435	0.00141335	0.00139406	0.00136473	0.267484	0.153334	0.646912	0.438914	0.462403	0.00103153	0.196749	0.0978743	0.00107355	0.00102332	0.611757	0.113813	0.201318	0.00102267	0.10411	0.214364	0.0932425	0.00121868	0.0013884	0.00151596	0.00108188	0.0010005	0.00102858	0.511617	0.035099	0.298187	0.0551893	0.00494489	0.999028	0.496413	0.999337	0.359661	0.263722	0.0304555	0.00102267	0.512083	0.316562	0.00343863	0.00110687	0.00113001	
3.29	0.00280274	0.00147286	0.00147114	0.00160169	0.00154203	0.00297016	0.00274905	0.00287831	0.00141435	0.00138138	0.00134373	0.00121313	0.00196544	0.00210627	0.00297486	0.0028816	0.0028146	0.00309139	0.00287842	0.00284492	0.0011869	0.00310268	0.00283922	0.00182083	0.00279444	0.00119134	0.00119131	0.00282847	0.00131167	0.00271723	0.0029309	0.00280785	0.00226037	0.00194393	0.00244934	0.00149871	0.00138435	0.00141335	0.00139406	0.00136473	0.259636	0.147592	0.634739	0.422463	0.467689	0.00102742	0.193222	0.0970972	0.00107355	0.00102332	0.618548	0.121767	0.194058	0.00102267	0.099078	0.203274	0.0930452	0.00121868	0.0013884	0.00151596	0.00108125	0.0010005	0.00102779	0.499307	0.0192874	0.306465	0.0582386	0.00457069	0.999044	0.487589	0.999337	0.347416	0.260814	0.0339514	0.00102267	0.514869	0.308128	0.00398759	0.00110687	0.00113001	
3.295	0.00280274	0.00147286	0.00147114	0.00160169	0.00154203	0.00297016	0.00274905	0.00287831	0.00141435	0.00138138	0.00134373	0.00121313	0.00196544	0.00210627	0.00297486	0.0028816	0.0028146	0.00309139	0.00287842	0.00284492	0.0011869	0.00310268	0.00283922	0.00182083	0.00279444	0.00119134	0.00119131	0.00282847	0.00131167	0.00271723	0.0029309	0.00280785	0.00226037	0.00194393	0.00244934	0.00149871	0.00138435	0.00141335	0.00139406	0.00136473	0.252258	0.141902	0.614488	0.337143	0.478746	0.00102521	0.189678	0.0962939	0.00107355	0.00102332	0.623803	0.129472	0.187032	0.00102267	0.0939039	0.192346	0.0928389	0.00121868	0.0013884	0.00151596	0.00108102	0.0010005	0.00102771	0.486748	0.0162832	0.312579	0.0613066	0.00455264	0.999047	0.47328	0.999337	0.335433	0.257859	0.0374275	0.00102267	0.517245	0.299634	0.00430318	0.00110687	0.00113001	
3.3	0.00280274	0.00147286	0.00147114	0.00160169	0.00154203	0.00297016	0.00274905	0.00287831	0.00141435	0.00138138	0.00134373	0.00121313	0.00196544	0.00210627	0.00297486	0.0028816	0.0028146	0.00309139	0.00287842	0.00284492	0.0011869	0.00310268	0.00283922	0.00182083	0.00279444	0.00119134	0.00119131	0.00282847	0.00131167	0.00271723	0.0029309	0.00280785	0.00226037	0.00194393	0.00244934	0.00149871	0.00138435	0.00141335	0.00139406	0.00136473	0.242073	0.136093	0.588394	0.233823	0.497244	0.00102402	0.186107	0.0954629	0.00107355	0.00102332	0.626206	0.136767	0.180251	0.00102267	0.0886803	0.181652	0.0926238	0.00121868	0.0013884	0.00151596	0.00108093	0.0010005	0.0010277	0.473878	0.0163861	0.316665	0.0643171	0.00530394	0.999047	0.45425	0.999337	0.323595	0.254832	0.0406911	0.00102267	0.517954	0.291421	0.00444574	0.00110687	0.00113001	
3.305	0.00280274	0.00147286	0.00147114	0.00160169	0.00154203	0.00297016	0.00274905	0.00287831	0.00141435	0.00138138	0.00134373	0.00121313	0.00196544	0.00210627	0.00297486	0.0028816	0.0028146	0.00309139	0.00287842	0.00284492	0.0011869	0.00310268	0.00283922	0.00182083	0.00279444	0.00119134	0.00119131	0.00282847	0.00131167	0.00271723	0.0029309	0.00280785	0.00226037	0.00194393	0.00244934	0.00149871	0.00138435	0.00141335	0.00139406	0.00136473	0.181075	0.12567	0.556104	0.150748	0.515033	0.00102339	0.182492	0.0946027	0.00107355	0.00102332	0.626343	0.143524	0.173729	0.00102267	0.0834814	0.171248	0.092409	0.00121868	0.0013884	0.00151596	0.0010809	0.0010005	0.0010277	0.460661	0.0122084	0.318997	0.0672129	0.00573016	0.999047	0.431482	0.999337	0.311628	0.251719	0.0436388	0.00102267	0.514835	0.28354	0.00455044	0.00110687	0.00113001	
3.31	0.00280274	0.00147286	0.00147114	0.00160169	0.00154203	0.00297016	0.00274905	0.00287831	0.00141435	0.00138138	0.00134373	0.00121313	0.00196544	0.00210627	0.00297486	0.0028816	0.0028146	0.00309139	0.00287842	0.00284492	0.0011869	0.00310268	0.00283922	0.00182083	0.00279444	0.00119134	0.00119131	0.00282847	0.00131167	0.00271723	0.0029309	0.00280785	0.00226037	0.00194393	0.00244934	0.00149871	0.00138435	0.00141335	0.00139406	0.00136473	0.121698	0.0927432	0.534265	0.138951	0.51036	0.00102305	0.178857	0.0937119	0.00107355	0.00102332	0.623791	0.149577	0.167496	0.00102267	0.0789585	0.161568	0.0922209	0.00121868	0.0013884	0.00151596	0.00108089	0.0010005	0.0010277	0.447104	0.00820119	0.319538	0.0699296	0.00471396	0.999047	0.406053	0.802996	0.299887	0.248529	0.0462357	0.00102267	0.504203	0.27585	0.00519205	0.00110687	0.0012934	
3.315	0.00280274	0.00147286	0.00147114	0.00160169	0.00154203	0.00297016	0.00274905	0.00287831	0.00141435	0.00138138	0.00134373	0.00121313	0.00196544	0.00210627	0.00297486	0.0028816	0.0028146	0.00309139	0.00287842	0.00284492	0.0011869	0.00310268	0.00283922	0.00182083	0.00279444	0.00119134	0.00119131	0.00282847	0.00131167	0.00271723	0.0029309	0.00280785	0.00226037	0.00194393	0.00244934	0.00149871	0.00138435	0.00141335	0.00139406	0.00136473	0.0771133	0.0619995	0.504571	0.171884	0.467267	0.00102287	0.175224	0.0927898	0.00107355	0.00102332	0.62119	0.154887	0.161594	0.00102267	0.0755888	0.153103	0.0920779	0.00121868	0.0013884	0.00151596	0.00108089	0.0010005	0.0010277	0.433252	0.00532969	0.319143	0.0724233	0.00353124	0.66781	0.379151	0.623459	0.288803	0.245279	0.0484783	0.00102267	0.479196	0.268582	0.00624111	0.00110687	0.00140289	
3.32	0.00280274	0.00147286	0.00147114	0.00160169	0.00154203	0.00297016	0.00274905	0.00287831	0.00141435	0.00138138	0.00134373	0.00121313	0.00196544	0.00210627	0.00297486	0.0028816	0.0028146	0.00309139	0.00287842	0.00284492	0.0011869	0.00310268	0.00283922	0.00182083	0.00279444	0.00119134	0.00119131	0.00282847	0.00131167	0.00271723	0.0029309	0.00280785	0.00226037	0.00194393	0.00244934	0.00149871	0.00138435	0.00141335	0.00139406	0.00136473	0.0471563	0.0392769	0.461767	0.19868	0.412537	0.00102277	0.171601	0.0918362	0.00107355	0.00102332	0.616688	0.159451	0.156059	0.00102267	0.0733135	0.145828	0.0919867	0.00121868	0.0013884	0.0103544	0.00108088	0.0010005	0.0010277	0.419176	0.00362161	0.317902	0.0746621	0.00260905	0.171184	0.351665	0.67457	0.278367	0.241978	0.0503532	0.00102267	0.424211	0.261681	0.00782407	0.00110687	0.00147187	
3.325	0.00280274	0.00147286	0.00147114	0.00160169	0.00154203	0.00297016	0.00274905	0.00287831	0.00141435	0.00138138	0.00134373	0.00121313	0.00196544	0.00210627	0.00297486	0.0028816	0.0028146	0.00309139	0.00287842	0.00284492	0.0011869	0.00310268	0.00283922	0.00182083	0.00279444	0.00119134	0.00119131	0.00282847	0.00131167	0.00271723	0.0029309	0.00280785	0.00226037	0.00194393	0.00244934	0.00149871	0.00138435	0.00141335	0.00139406	0.00136473	0.0282401	0.0241369	0.423018	0.216417	0.36745	0.00102272	0.167989	0.0908527	0.00107355	0.00102332	0.610678	0.16327	0.150927	0.00102267	0.0720018	0.139649	0.0919554	0.00121868	0.0013884	0.0609999	0.00108088	0.0010005	0.0010277	0.404965	0.00386709	0.315911	0.0766369	0.00198574	0.0354379	0.323853	0.604759	0.268493	0.238639	0.0518348	0.00102267	0.278649	0.255058	0.0102833	0.00110687	0.00225906	
3.33	0.00280274	0.00147286	0.00147114	0.00160169	0.00154203	0.00297016	0.00274905	0.00287831	0.00141435	0.00138138	0.00134373	0.00121313	0.00196544	0.00210627	0.00297486	0.0028816	0.0028146	0.00309139	0.00287842	0.00284492	0.0011869	0.00310268	0.00283922	0.00182083	0.00279444	0.00119134	0.00119131	0.00282847	0.00131167	0.00271723	0.0029309	0.00280785	0.00226037	0.00194393	0.00244934	0.00149871	0.00138435	0.00141335	0.00139406	0.00136473	0.0167609	0.0146261	0.380838	0.216838	0.327451	0.0010227	0.164391	0.0898429	0.00107355	0.00102332	0.603857	0.166336	0.146224	0.00102267	0.0715379	0.134472	0.0919915	0.00121868	0.0013884	0.115486	0.00145245	0.0010005	0.0010277	0.390714	0.00345017	0.313254	0.0783288	0.00159456	0.00731857	0.29567	0.309537	0.25907	0.235277	0.0528621	0.00102267	0.147579	0.248704	0.0139599	0.00110687	0.00456944	
3.335	0.00280274	0.00147286	0.00147114	0.00160169	0.00154203	0.00297016	0.00274905	0.00287831	0.00141435	0.00138138	0.00134373	0.00121313	0.00196544	0.00210627	0.00297486	0.0028816	0.0028146	0.00309139	0.00287842	0.00284492	0.0011869	0.00310268	0.00283922	0.00182083	0.00279444	0.00119134	0.00119131	0.00282847	0.00131167	0.00271723	0.0029309	0.00280785	0.00226037	0.00194393	0.00244934	0.00149871	0.00138435	0.00141335	0.00139406	0.00136473	0.00998418	0.00887448	0.334646	0.200746	0.290177	0.00102268	0.160811	0.0888127	0.00107355	0.00102332	0.595417	0.168733	0.141977	0.00102267	0.0718288	0.130218	0.0921045	0.00121868	0.0013884	0.156427	0.00164142	0.0010005	0.0010277	0.376536	0.00294778	0.310332	0.0797613	0.00135999	0.00212792	0.267086	0.121979	0.250029	0.231911	0.0533802	0.00102267	0.0711047	0.242737	0.0190662	0.0378307	0.00892569	
3.34	0.00280274	0.00147286	0.00147114	0.00160169	0.00154203	0.00297016	0.00274905	0.00287831	0.00141435	0.00138138	0.00134373	0.00121313	0.00196544	0.00210627	0.00297486	0.0028816	0.0028146	0.00309139	0.00287842	0.00284492	0.0011869	0.00310268	0.00283922	0.00182083	0.00279444	0.00119134	0.00119131	0.00282847	0.00131167	0.00271723	0.0029309	0.00280785	0.00226037	0.00194393	0.00244934	0.00149871	0.00138435	0.00141335	0.00139406	0.00136473	0.0060638	0.00548736	0.291535	0.176335	0.257769	0.00102268	0.157261	0.0877709	0.00107355	0.00102332	0.5878	0.170478	0.138212	0.00102267	0.0728074	0.126837	0.0923057	0.00121868	0.0013884	0.187257	0.00145317	0.0010005	0.0010277	0.362573	0.00237677	0.30708	0.0809308	0.0012236	0.00122761	0.238295	0.0432235	0.241392	0.228572	0.0533907	0.00102267	0.0326821	0.237275	0.0256398	0.202816	0.0154378	
3.345	0.00280274	0.00147286	0.00147114	0.00160169	0.00154203	0.00297016	0.00274905	0.00287831	0.00141435	0.00138138	0.00134373	0.00121313	0.00196544	0.00210627	0.00297486	0.0028816	0.0028146	0.00309139	0.00287842	0.00284492	0.0011869	0.00310268	0.00283922	0.00182083	0.00279444	0.00119134	0.00119131	0.00282847	0.00131167	0.00271723	0.0029309	0.00280785	0.00226037	0.00194393	0.00244934	0.00149871	0.00138435	0.00141335	0.00139406	0.00136473	0.00383067	0.00353143	0.250528	0.144687	0.227146	0.00102267	0.153752	0.0867293	0.00107355	0.00102332	0.579593	0.171568	0.134934	0.00102267	0.0744242	0.124292	0.0926074	0.00121868	0.0013884	0.199827	0.00173186	0.0010005	0.0010277	0.348962	0.00188084	0.30398	0.0818027	0.00114604	0.00144534	0.209603	0.0151214	0.23317	0.225291	0.0529698	0.00102267	0.0148016	0.232365	0.0336812	0.342014	0.0241896	
3.35	0.00280274	0.00147286	0.00147114	0.00160169	0.00154203	0.00297016	0.00274905	0.00287831	0.00141435	0.00138138	0.00134373	0.00121313	0.00196544	0.00210627	0.00297486	0.0028816	0.0028146	0.00309139	0.00287842	0.00284492	0.0011869	0.00310268	0.00283922	0.00182083	0.00279444	0.00119134	0.00119131	0.00282847	0.00131167	0.00271723	0.0029309	0.00280785	0.00226037	0.00194393	0.00244934	0.00149871	0.00138435	0.00141335	0.00139406	0.00136473	0.0025741	0.00241885	0.211784	0.107883	0.196956	0.00102267	0.150298	0.0857028	0.00107355	0.00102332	0.571237	0.172062	0.132105	0.00102267	0.0766549	0.122564	0.0930241	0.00121868	0.0013884	0.193669	0.00176581	0.0010005	0.0010277	0.335824	0.00168617	0.300782	0.0824	0.00110267	0.00115567	0.181724	0.00579367	0.225354	0.222103	0.052242	0.00102267	0.00686028	0.227786	0.0431481	0.509928	0.0352356	
3.355	0.00280274	0.00147286	0.00147114	0.00160169	0.00154203	0.00297016	0.00274905	0.00287831	0.00141435	0.00138138	0.00134373	0.00121313	0.00196544	0.00210627	0.00297486	0.0028816	0.0028146	0.00309139	0.00287842	0.00284492	0.0011869	0.00310268	0.00283922	0.00182083	0.00279444	0.00119134	0.00119131	0.00282847	0.00131167	0.00271723	0.0029309	0.00280785	0.00226037	0.00194393	0.00244934	0.00149871	0.00138435	0.00141335	0.00139406	0.00136473	0.00187399	0.00179349	0.172912	0.0724691	0.164088	0.00102267	0.146907	0.0847062	0.00107355	0.00102332	0.561852	0.171997	0.129625	0.00102267	0.0794972	0.121652	0.0935723	0.00121868	0.0013884	0.170771	0.00150137	0.0010005	0.0010277	0.323205	0.00167849	0.297267	0.082739	0.00107874	0.00107067	0.155419	0.00280275	0.21787	0.219043	0.0513526	0.00102267	0.00344241	0.223377	0.053994	0.714662	0.0486897	
3.36	0.00280274	0.00147286	0.00147114	0.00160169	0.00154203	0.00297016	0.00274905	0.00287831	0.00141435	0.00138138	0.00134373	0.00121313	0.00196544	0.00210627	0.00297486	0.0028816	0.0028146	0.00309139	0.00287842	0.00284492	0.0011869	0.00310268	0.00283922	0.00182083	0.00279444	0.00119134	0.00119131	0.00282847	0.00131167	0.00271723	0.0029309	0.00280785	0.00226037	0.00194393	0.00244934	0.00149871	0.00138435	0.00141335	0.00139406	0.00136473	0.0014871	0.00144538	0.130053	0.0460026	0.124318	0.00102267	0.143584	0.0837533	0.00107355	0.00102332	0.551275	0.171405	0.127346	0.00102267	0.0829682	0.121564	0.0942698	0.00121868	0.0013884	0.125867	0.0012903	0.0010005	0.0010277	0.311108	0.00221142	0.293749	0.0828199	0.00106567	0.0010526	0.131242	0.00186057	0.210668	0.216143	0.0504259	0.00102267	0.00200429	0.219362	0.0660796	0.934496	0.0644281	
3.365	0.00280274	0.00147286	0.00147114	0.00160169	0.00154203	0.00297016	0.00274905	0.00287831	0.00141435	0.00138138	0.00134373	0.00121313	0.00196544	0.00210627	0.00297486	0.0028816	0.0028146	0.00309139	0.00287842	0.00284492	0.0011869	0.00310268	0.00283922	0.00182083	0.00279444	0.00119134	0.00119131	0.00282847	0.00131167	0.00271723	0.0029309	0.00280785	0.00226037	0.00194393	0.00244934	0.00149871	0.00138435	0.00141335	0.00139406	0.00136473	0.00127477	0.00125315	0.0877065	0.0282653	0.0841574	0.00102267	0.140335	0.0828625	0.00107355	0.00102332	0.543256	0.170345	0.125075	0.00102267	0.0870703	0.122279	0.0951318	0.00121868	0.0013884	0.0810965	0.00404381	0.0010005	0.0010277	0.299484	0.00262563	0.290128	0.0826647	0.0010586	0.00104921	0.109635	0.00156662	0.203716	0.213438	0.0495493	0.00102267	0.00140941	0.215658	0.0791902	0.993372	0.0821319	
3.37	0.00280274	0.00147286	0.00147114	0.00160169	0.00154203	0.00297016	0.00274905	0.00287831	0.00141435	0.00138138	0.00134373	0.00121313	0.00196544	0.00210627	0.00297486	0.0028816	0.0028146	0.00309139	0.00287842	0.00284492	0.0011869	0.00310268	0.00283922	0.00182083	0.00279444	0.00119134	0.00119131	0.00282847	0.00131167	0.00271723	0.0029309	0.00280785	0.00226037	0.00194393	0.00244934	0.00149871	0.00138435	0.00141335	0.00139406	0.00136473	0.00115891	0.00114772	0.0557565	0.0170833	0.0536317	0.00102267	0.137154	0.0820531	0.00107355	0.00102332	0.530815	0.16887	0.122573	0.00102267	0.0917594	0.123712	0.0961659	0.00121868	0.0013884	0.0511625	0.00311247	0.0010005	0.0010277	0.288171	0.00246144	0.286329	0.0822957	0.0010548	0.00104862	0.0909794	0.00147542	0.196956	0.210957	0.048808	0.00102267	0.00116659	0.212189	0.093101	0.998688	0.101447	
3.375	0.00280274	0.00147286	0.00147114	0.00160169	0.00154203	0.00297016	0.00274905	0.00287831	0.00141435	0.00138138	0.00134373	0.00121313	0.00196544	0.00210627	0.00297486	0.0028816	0.0028146	0.00309139	0.00287842	0.00284492	0.0011869	0.00310268	0.00283922	0.00182083	0.00279444	0.00119134	0.00119131	0.00282847	0.00131167	0.00271723	0.0029309	0.00280785	0.00226037	0.00194393	0.00244934	0.00149871	0.00138435	0.00141335	0.00139406	0.00136473	0.00109601	0.00109022	0.0342387	0.0103047	0.0329967	0.00102267	0.134033	0.0813435	0.00107355	0.00102332	0.522611	0.167064	0.119693	0.00102267	0.0969646	0.125748	0.0973746	0.00121868	0.0013884	0.0459219	0.00213442	0.0010005	0.0010277	0.276933	0.00218177	0.282443	0.0817422	0.00105277	0.00104852	0.0753645	0.00144721	0.190336	0.208727	0.0483133	0.00102267	0.00106853	0.208993	0.10759	0.999073	0.121995	
3.38	0.00280274	0.00147286	0.00147114	0.00160169	0.00154203	0.00297016	0.00274905	0.00287831	0.00141435	0.00138138	0.00134373	0.00121313	0.00196544	0.00210627	0.00297486	0.0028816	0.0028146	0.00309139	0.00287842	0.00284492	0.0011869	0.00310268	0.00283922	0.00182083	0.00279444	0.00119134	0.00119131	0.00282847	0.00131167	0.00271723	0.0029309	0.00280785	0.00226037	0.00194393	0.00244934	0.00149871	0.00138435	0.00141335	0.00139406	0.00136473	0.00106202	0.00105902	0.0206327	0.00630588	0.0199195	0.00102267	0.130967	0.0807538	0.00107355	0.00102332	0.514995	0.164994	0.116509	0.00102267	0.10262	0.128289	0.0987585	0.00121868	0.0013884	0.0773229	0.00452077	0.0010005	0.0010277	0.265554	0.00188574	0.278516	0.08103	0.00105169	0.0010485	0.062805	0.0014385	0.183812	0.206774	0.0482083	0.00102267	0.00102927	0.206176	0.122435	0.999098	0.143379	
3.385	0.00280274	0.00147286	0.00147114	0.00160169	0.00154203	0.00297016	0.00274905	0.00287831	0.00141435	0.00138138	0.00134373	0.00121313	0.00196544	0.00210627	0.00297486	0.0028816	0.0028146	0.00309139	0.00287842	0.00284492	0.0011869	0.00310268	0.00283922	0.00182083	0.00279444	0.00119134	0.00119131	0.00282847	0.00131167	0.00271723	0.0029309	0.00280785	0.00226037	0.00194393	0.00244934	0.00149871	0.00138435	0.00141335	0.00139406	0.00136473	0.00104372	0.00104217	0.012368	0.00399375	0.0119642	0.00102267	0.12796	0.0803058	0.00107355	0.00102332	0.506107	0.16268	0.113087	0.00102571	0.108675	0.131288	0.100318	0.00121868	0.0013884	0.160178	0.003342	0.0010005	0.0010277	0.253845	0.00158674	0.274551	0.0801732	0.00105112	0.0010485	0.0531929	0.00143582	0.177307	0.205124	0.0486531	0.00102267	0.00101367	0.203611	0.137437	0.9991	0.165259	
3.39	0.00280274	0.00147286	0.00147114	0.00160169	0.00154203	0.00297016	0.00274905	0.00287831	0.00141435	0.00138138	0.00134373	0.00121313	0.00196544	0.00210627	0.00297486	0.0028816	0.0028146	0.00309139	0.00287842	0.00284492	0.0011869	0.00310268	0.00283922	0.00182083	0.00279444	0.00119134	0.00119131	0.00282847	0.00131167	0.00271723	0.0029309	0.00280785	0.00226037	0.00194393	0.00244934	0.00149871	0.00138435	0.00141335	0.00139406	0.00136473	0.00103389	0.00103309	0.00748564	0.00267722	0.00725952	0.00102267	0.125032	0.0800236	0.00107355	0.00102332	0.496005	0.160164	0.109485	0.00106961	0.115094	0.134729	0.102053	0.00121868	0.0013884	0.308391	0.00223633	0.0010005	0.0010277	0.24179	0.00136894	0.270482	0.079192	0.00105082	0.0010485	0.0463389	0.00143499	0.170758	0.203808	0.0498238	0.00102267	0.00100751	0.201481	0.152379	0.9991	0.187258	
3.395	0.00280274	0.00147286	0.00147114	0.00160169	0.00154203	0.00297016	0.00274905	0.00287831	0.00141435	0.00138138	0.00134373	0.00121313	0.00196544	0.00210627	0.00297486	0.0028816	0.0028146	0.00309139	0.00287842	0.00284492	0.0011869	0.00310268	0.00283922	0.00182083	0.00279444	0.00119134	0.00119131	0.00282847	0.00131167	0.00271723	0.0029309	0.00280785	0.00226037	0.00194393	0.00244934	0.00149871	0.00138435	0.00141335	0.00139406	0.00136473	0.00102864	0.00102823	0.00465959	0.00193664	0.00453411	0.00102267	0.122241	0.0799403	0.00107355	0.00102332	0.485213	0.157479	0.105753	0.00159588	0.121824	0.138595	0.103957	0.00121868	0.0013884	0.522607	0.0121191	0.0010005	0.0010277	0.2298	0.00122924	0.266241	0.0781038	0.00105066	0.0010485	0.041807	0.00143473	0.164249	0.202874	0.0518353	0.00102267	0.00100509	0.199476	0.166906	0.9991	0.208677	
3.4	0.00280274	0.00147286	0.00147114	0.00160169	0.00154203	0.00297016	0.00274905	0.00287831	0.00141435	0.00138138	0.00134373	0.00121313	0.00196544	0.00210627	0.00297486	0.0028816	0.0028146	0.00309139	0.00287842	0.00284492	0.0011869	0.00310268	0.00283922	0.00182083	0.00279444	0.00119134	0.00119131	0.00282847	0.00131167	0.00271723	0.0029309	0.00280785	0.00226037	0.00194393	0.00244934	0.00149871	0.00138435	0.00141335	0.00139406	0.00136473	0.00102584	0.00102563	0.0030491	0.00152411	0.00298	0.00102267	0.119674	0.0800941	0.00107355	0.00102332	0.483152	0.154612	0.101933	0.00206797	0.128836	0.142907	0.106024	0.00121868	0.0013884	0.804271	0.00860575	0.0010005	0.0010277	0.218557	0.00446011	0.262466	0.0769161	0.00105058	0.0010485	0.0392557	0.00143465	0.157875	0.202377	0.054796	0.00102267	0.00100414	0.197564	0.180811	0.9991	0.229059	
3.405	0.00280274	0.00147286	0.00147114	0.00160169	0.00154203	0.00297016	0.00274905	0.00287831	0.00141435	0.00138138	0.00134373	0.00121313	0.00196544	0.00210627	0.00297486	0.0028816	0.0028146	0.00309139	0.00287842	0.00284492	0.0011869	0.00310268	0.00283922	0.00182083	0.00279444	0.00119134	0.00119131	0.00282847	0.00131167	0.00271723	0.0029309	0.00280785	0.00226037	0.00194393	0.00244934	0.00149871	0.00138435	0.00141335	0.00139406	0.00136473	0.00102435	0.00102424	0.00214256	0.00129619	0.00210474	0.00102267	0.117481	0.0805365	0.00107355	0.00102332	0.476349	0.151563	0.0980632	0.00193512	0.136199	0.147779	0.108247	0.00121868	0.0013884	0.97912	0.00497596	0.0010005	0.0010277	0.209299	0.00425727	0.258594	0.075636	0.00105054	0.00123899	0.0381538	0.00143463	0.151723	0.202396	0.0587377	0.00102267	0.00100377	0.1958	0.193785	0.9991	0.247968	
3.41	0.00280274	0.00147286	0.00147114	0.00160169	0.00154203	0.00297016	0.00274905	0.00287831	0.00141435	0.00138138	0.00134373	0.00121313	0.00196544	0.00210627	0.00297486	0.0028816	0.0028146	0.00309139	0.00287842	0.00284492	0.0011869	0.00310268	0.00283922	0.00182083	0.00279444	0.00119134	0.00119131	0.00282847	0.00131167	0.00271723	0.0029309	0.00280785	0.00226037	0.00194393	0.00244934	0.00149871	0.00138435	0.00141335	0.00139406	0.00136473	0.00102356	0.0010235	0.0732996	0.0423585	0.00161674	0.00102267	0.115847	0.0813281	0.00107355	0.00102332	0.467059	0.148352	0.0941751	0.00167913	0.144067	0.153355	0.110619	0.00121868	0.0013884	0.997554	0.00287872	0.0010005	0.0010277	0.20326	0.00333003	0.254465	0.0742775	0.00105051	0.00460311	0.0381824	0.00143462	0.147359	0.203006	0.0636577	0.00102267	0.00100363	0.194128	0.205457	0.9991	0.264872	
3.415	0.00280274	0.00147286	0.00147114	0.00160169	0.00154203	0.00297016	0.00274905	0.00287831	0.00141435	0.00138138	0.00134373	0.00121313	0.00196544	0.00210627	0.00297486	0.0028816	0.0028146	0.00309139	0.00287842	0.00284492	0.0011869	0.00310268	0.00283922	0.00182083	0.00279444	0.00119134	0.00119131	0.00282847	0.00131167	0.00271723	0.0029309	0.00280785	0.00226037	0.00194393	0.00244934	0.00149871	0.00138435	0.00141335	0.00139406	0.00136473	0.00102314	0.00102311	0.189154	0.115314	0.0013469	0.00102267	0.114941	0.0825312	0.00107355	0.00102332	0.458068	0.144992	0.0902957	0.0018092	0.152524	0.159679	0.113121	0.00121868	0.0013884	0.999232	0.00185989	0.0010005	0.0010277	0.201204	0.00758155	0.249922	0.0728536	0.0010505	0.00203603	0.038803	0.00143462	0.145848	0.204265	0.0695214	0.00102267	0.00100358	0.192362	0.215536	0.9991	0.279401	
3.42	0.00280274	0.00147286	0.00147114	0.00160169	0.00154203	0.00297016	0.00274905	0.00287831	0.00141435	0.00138138	0.00134373	0.00121313	0.00196544	0.00210627	0.00297486	0.0028816	0.0028146	0.00309139	0.00287842	0.00284492	0.0011869	0.00310268	0.00283922	0.00182083	0.00279444	0.00119134	0.00119131	0.00282847	0.00131167	0.00271723	0.0029309	0.00280785	0.00226037	0.00194393	0.00244934	0.00149871	0.00138435	0.00141335	0.00139406	0.00136473	0.00102291	0.0010229	0.306332	0.191367	0.00119873	0.00102267	0.114897	0.0842046	0.00107355	0.00102332	0.445929	0.14148	0.0864478	0.0018359	0.161475	0.166673	0.115735	0.00121868	0.315227	0.999371	0.00690173	0.0010005	0.0010277	0.203445	0.00675594	0.244673	0.071374	0.0010505	0.00125478	0.039773	0.00143462	0.147653	0.206214	0.0762424	0.00102267	0.00100355	0.190229	0.223901	0.9991	0.291436	
3.425	0.00280274	0.00147286	0.00147114	0.00160169	0.00154203	0.00297016	0.00274905	0.00287831	0.00141435	0.00138138	0.00134373	0.00121313	0.00196544	0.00210627	0.00297486	0.0028816	0.0028146	0.00309139	0.00287842	0.00284492	0.0011869	0.00310268	0.00283922	0.00182083	0.00279444	0.00119134	0.00119131	0.00282847	0.00131167	0.00271723	0.0029309	0.00280785	0.00226037	0.00194393	0.00244934	0.00149871	0.00138435	0.00141335	0.00139406	0.00136473	0.0010228	0.00102279	0.415444	0.258036	0.00111785	0.00102267	0.115821	0.0864039	0.00107355	0.00102332	0.430173	0.137847	0.0826507	0.00164503	0.170744	0.174202	0.118447	0.00121868	0.405136	0.999382	0.0050281	0.0010005	0.0010277	0.20997	0.00500308	0.238848	0.0698499	0.00105049	0.00108683	0.0409286	0.00143462	0.152862	0.20888	0.0836524	0.00102267	0.00100355	0.188811	0.230614	0.9991	0.301077	
3.43	0.00280274	0.00147286	0.00147114	0.00160169	0.00154203	0.00297016	0.00274905	0.00287831	0.00141435	0.00138138	0.00134373	0.00121313	0.00196544	0.00210627	0.00297486	0.0028816	0.0028146	0.00309139	0.00287842	0.00284492	0.0011869	0.00310268	0.00283922	0.00182083	0.00279444	0.00119134	0.00119131	0.00282847	0.00131167	0.00271723	0.0029309	0.00280785	0.00226037	0.00194393	0.00244934	0.00149871	0.00138435	0.00141335	0.00139406	0.00136473	0.00102274	0.00102273	0.510339	0.313633	0.00107392	0.00102267	0.117783	0.089178	0.00107355	0.00102332	0.415328	0.134125	0.0789205	0.00144467	0.180168	0.182126	0.121245	0.00121868	0.457611	0.999383	0.0031202	0.0010005	0.0010277	0.220466	0.00351948	0.23261	0.0682915	0.00105049	0.027625	0.0420631	0.00143462	0.161323	0.212282	0.0914587	0.00102267	0.00100354	0.187487	0.235944	0.9991	0.308671	
3.435	0.00280274	0.00147286	0.00147114	0.00160169	0.00154203	0.00297016	0.00274905	0.00287831	0.00141435	0.00138138	0.00134373	0.00121313	0.00196544	0.00210627	0.00297486	0.0028816	0.0028146	0.00309139	0.00287842	0.00284492	0.0011869	0.00310268	0.00283922	0.00182083	0.00279444	0.00119134	0.00119131	0.00282847	0.00131167	0.00271723	0.0029309	0.00280785	0.00226037	0.00194393	0.00244934	0.00149871	0.00138435	0.00141335	0.00139406	0.00136473	0.0010227	0.0010227	0.588265	0.360047	0.00105017	0.00102267	0.120826	0.0925695	0.00107355	0.00102332	0.401747	0.13034	0.0752701	0.00139285	0.189608	0.190323	0.124124	0.00121868	0.566938	0.999383	0.0151244	0.0010005	0.0010277	0.234439	0.0120576	0.226093	0.0667079	0.00105049	0.00846447	0.0434845	0.00143462	0.172757	0.216429	0.0994603	0.00102267	0.00100354	0.185874	0.240303	0.9991	0.314692	
3.44	0.00280274	0.00147286	0.00147114	0.00160169	0.00154203	0.00297016	0.00274905	0.00287831	0.00141435	0.00138138	0.00134373	0.00121313	0.00196544	0.00210627	0.00297486	0.0028816	0.0028146	0.00309139	0.00287842	0.00284492	0.0011869	0.00310268	0.00283922	0.00182083	0.00279444	0.00119134	0.00119131	0.00282847	0.00131167	0.00271723	0.0029309	0.00280785	0.00226037	0.00194393	0.00244934	0.00149871	0.00138435	0.00141335	0.00139406	0.00136473	0.00102269	0.00102269	0.650266	0.399122	0.00103738	0.00102267	0.124971	0.0966142	0.00107355	0.00102332	0.379674	0.126441	0.0717804	0.00134221	0.198958	0.198684	0.127082	0.00121868	0.655448	0.999383	0.0105868	0.0010005	0.0010277	0.251332	0.0109802	0.218886	0.065101	0.00105049	0.00259981	0.0447356	0.00143462	0.186829	0.221326	0.107465	0.00102267	0.00100354	0.183175	0.244158	0.9991	0.319628	
3.445	0.00280274	0.00147286	0.00147114	0.00160169	0.00154203	0.00297016	0.00274905	0.00287831	0.00141435	0.00138138	0.00134373	0.00121313	0.00196544	0.00210627	0.00297486	0.0028816	0.0028146	0.00309139	0.00287842	0.00284492	0.0011869	0.00310268	0.00283922	0.00182083	0.00279444	0.00119134	0.00119131	0.00282847	0.00131167	0.00271723	0.0029309	0.00280785	0.00226037	0.00194393	0.00244934	0.00149871	0.00138435	0.00141335	0.00139406	0.00136473	0.00102268	0.00102268	0.698395	0.432182	0.00103052	0.00102267	0.130221	0.101341	0.00107355	0.00102332	0.364571	0.122438	0.0686079	0.00125151	0.208133	0.207108	0.130116	0.00121868	0.638145	0.999383	0.00598965	0.0010005	0.0010277	0.270598	0.00801378	0.211134	0.0634767	0.00105049	0.00133692	0.0456868	0.00143462	0.203186	0.226969	0.115469	0.00103467	0.135399	0.179541	0.247907	0.9991	0.323849	
3.45	0.00280274	0.00147286	0.00147114	0.00160169	0.00154203	0.00297016	0.00274905	0.00287831	0.00141435	0.00138138	0.00134373	0.00121313	0.00196544	0.00210627	0.00297486	0.0028816	0.0028146	0.00309139	0.00287842	0.00284492	0.0011869	0.00310268	0.00283922	0.00182083	0.00279444	0.00119134	0.00119131	0.00282847	0.00131167	0.00271723	0.0029309	0.00280785	0.00226037	0.00194393	0.00244934	0.00149871	0.00138435	0.00141335	0.00139406	0.00136473	0.00102267	0.00102267	0.734117	0.459703	0.00102685	0.00102267	0.136566	0.106775	0.00107355	0.00102332	0.364205	0.118394	0.0659131	0.00117256	0.217061	0.215505	0.133225	0.00121868	0.614478	0.999383	0.00334388	0.0010005	0.0010277	0.291721	0.0171294	0.204178	0.0618462	0.00105049	0.00109877	0.0463934	0.00143462	0.221498	0.233354	0.123649	0.00103484	0.366453	0.176662	0.251841	0.9991	0.327592	
3.455	0.00280274	0.00147286	0.00147114	0.00160169	0.00154203	0.00297016	0.00274905	0.00287831	0.00141435	0.00138138	0.00134373	0.00121313	0.00196544	0.00210627	0.00297486	0.0028816	0.0028146	0.00309139	0.00287842	0.00284492	0.0011869	0.00310268	0.00283922	0.00182083	0.00279444	0.00119134	0.00119131	0.00282847	0.00131167	0.00271723	0.0029309	0.00280785	0.00226037	0.00194393	0.00244934	0.00149871	0.00138435	0.00141335	0.00139406	0.00136473	0.00102267	0.00102267	0.758302	0.481609	0.00102489	0.00102267	0.143986	0.112931	0.00107355	0.00102332	0.34511	0.114294	0.0638136	0.00111583	0.225697	0.223796	0.13641	0.00121868	0.571543	0.999383	0.00206073	0.0010005	0.0010277	0.314207	0.0147954	0.197021	0.0602112	0.00105049	0.0222668	0.0474783	0.00143462	0.241483	0.240471	0.132404	0.00103192	0.627305	0.173316	0.256231	0.9991	0.331056	
3.46	0.00280274	0.00147286	0.00147114	0.00160169	0.00154203	0.00297016	0.00274905	0.00287831	0.00141435	0.00138138	0.00134373	0.00121313	0.00196544	0.00210627	0.00297486	0.0028816	0.0028146	0.00309139	0.00287842	0.00284492	0.0011869	0.00310268	0.00283922	0.00182083	0.00279444	0.00119134	0.00119131	0.00282847	0.00131167	0.00271723	0.0029309	0.00280785	0.00226037	0.00194393	0.00244934	0.00149871	0.00138435	0.00141335	0.00139406	0.00136473	0.00102267	0.00102267	0.771185	0.497262	0.00102384	0.00102267	0.152449	0.119815	0.00107355	0.00102332	0.288125	0.10994	0.0623708	0.0010786	0.234004	0.231929	0.13967	0.00121868	0.486628	0.999383	0.00148858	0.0010005	0.0010277	0.337558	0.0104992	0.186889	0.0585516	0.00105049	0.0069679	0.0479827	0.00143462	0.262893	0.248305	0.141867	0.00102893	0.811706	0.167176	0.261305	0.9991	0.334459	
3.465	0.00280274	0.00147286	0.00147114	0.00160169	0.00154203	0.00297016	0.00274905	0.00287831	0.00141435	0.00138138	0.00134373	0.00121313	0.00196544	0.00210627	0.00297486	0.0028816	0.0028146	0.00309139	0.00287842	0.00284492	0.0011869	0.00310268	0.00283922	0.00182083	0.00279444	0.00119134	0.00119131	0.00282847	0.00131167	0.00271723	0.0029309	0.00280785	0.00226037	0.00194393	0.00244934	0.00149871	0.00138435	0.00141335	0.00139406	0.00136473	0.00102267	0.00102267	0.772096	0.505248	0.00102329	0.00102267	0.161917	0.127422	0.00107355	0.00102332	0.149919	0.105232	0.0616109	0.00105543	0.241973	0.239859	0.143007	0.00121868	0.41651	0.999383	0.00124592	0.0010005	0.0010277	0.36125	0.0136617	0.17274	0.0568557	0.00105049	0.00228666	0.0494229	0.00143462	0.285491	0.256831	0.152512	0.00102664	0.881819	0.157159	0.267381	0.664506	0.338206	
3.47	0.00280274	0.00147286	0.00147114	0.00160169	0.00154203	0.00297016	0.00274905	0.00287831	0.00141435	0.00138138	0.00134373	0.00121313	0.00196544	0.00210627	0.00297486	0.0028816	0.0028146	0.00309139	0.00287842	0.00284492	0.0011869	0.00310268	0.00283922	0.00182083	0.00279444	0.00119134	0.00119131	0.00282847	0.00131167	0.00271723	0.0029309	0.00280785	0.00226037	0.00194393	0.00244934	0.00149871	0.00138435	0.00141335	0.00139406	0.00136473	0.00102267	0.00102267	0.760199	0.503877	0.001023	0.00102267	0.17234	0.135735	0.528559	0.25792	0.0352933	0.100204	0.0615304	0.00104151	0.249605	0.247554	0.146424	0.00121868	0.325924	0.999383	0.00114636	0.0010005	0.0010277	0.384708	0.0109246	0.155405	0.055132	0.00105049	0.00127869	0.0524456	0.00143462	0.309025	0.266005	0.164831	0.00102508	0.901707	0.143842	0.274914	0.318477	0.343042	
3.475	0.00280274	0.00147286	0.00147114	0.00160169	0.00154203	0.00297016	0.00274905	0.00287831	0.00141435	0.00138138	0.00134373	0.00121313	0.00196544	0.00210627	0.00297486	0.0028816	0.0028146	0.00309139	0.00287842	0.00284492	0.0011869	0.00310268	0.00283922	0.00182083	0.00279444	0.00119134	0.00119131	0.00282847	0.00131167	0.00271723	0.0029309	0.00280785	0.00226037	0.00194393	0.00244934	0.00149871	0.00138435	0.00141335	0.00139406	0.00136473	0.00102267	0.00102267	0.735406	0.492357	0.00102284	0.00102267	0.18366	0.144728	0.755692	0.405876	0.00762725	0.0949897	0.06212	0.00103336	0.256912	0.254993	0.149924	0.00121868	0.174294	0.999383	0.00110646	0.0010005	0.0010277	0.407364	0.00759622	0.137037	0.0533928	0.00105049	0.00108862	0.0568228	0.00143462	0.333218	0.27577	0.179292	0.0010241	0.902566	0.129068	0.284297	0.284608	0.349656	
3.48	0.00280274	0.00147286	0.00147114	0.00160169	0.00154203	0.00297016	0.00274905	0.00287831	0.00141435	0.00138138	0.00134373	0.00121313	0.00196544	0.00210627	0.00297486	0.0028816	0.0028146	0.00309139	0.00287842	0.00284492	0.0011869	0.00310268	0.00283922	0.00182083	0.00279444	0.00119134	0.00119131	0.00282847	0.00131167	0.00271723	0.0029309	0.00280785	0.00226037	0.00194393	0.00244934	0.00149871	0.00138435	0.00141335	0.00139406	0.00136473	0.00102267	0.00102267	0.650905	0.437774	0.00102276	0.00102267	0.195806	0.154369	0.619351	0.372742	0.00231318	0.0896943	0.063385	0.00102866	0.263791	0.262021	0.1535	0.00121868	0.900072	0.999383	0.00109076	0.0010005	0.0010277	0.428583	0.010644	0.118983	0.0516488	0.00105049	0.0159488	0.0646221	0.00143462	0.357789	0.286049	0.19632	0.0010235	0.911265	0.114046	0.295859	0.740229	0.358707	
3.485	0.00280274	0.00147286	0.00147114	0.00160169	0.00154203	0.00297016	0.00274905	0.00287831	0.00141435	0.00138138	0.00134373	0.00121313	0.00196544	0.00210627	0.00297486	0.0028816	0.0028146	0.00309139	0.00287842	0.00284492	0.0011869	0.00310268	0.00283922	0.00182083	0.00279444	0.00119134	0.00119131	0.00282847	0.00131167	0.00271723	0.0029309	0.00280785	0.00226037	0.00194393	0.00244934	0.00149871	0.00138435	0.00141335	0.00139406	0.00136473	0.00102267	0.00102267	0.565706	0.37966	0.00102272	0.00102267	0.208718	0.164626	0.293833	0.202226	0.00137682	0.084403	0.0654199	0.001026	0.270334	0.268701	0.157162	0.00121868	0.723033	0.999383	0.00108466	0.0010005	0.0010277	0.447988	0.00870677	0.102044	0.0499092	0.00105049	0.00520436	0.0707582	0.00143462	0.382418	0.296763	0.216294	0.00102314	0.922482	0.0995462	0.30944	0.373454	0.369922	
3.49	0.00280274	0.00147286	0.00147114	0.00160169	0.00154203	0.00297016	0.00274905	0.00287831	0.00141435	0.00138138	0.00134373	0.00121313	0.00196544	0.00210627	0.00297486	0.0028816	0.0028146	0.00309139	0.00287842	0.00284492	0.0011869	0.00310268	0.00283922	0.00182083	0.00279444	0.00119134	0.00119131	0.00282847	0.00131167	0.00271723	0.0029309	0.00280785	0.00226037	0.00194393	0.00244934	0.00149871	0.00138435	0.00141335	0.00139406	0.00136473	0.00102267	0.00102267	0.492982	0.329335	0.00102269	0.00102267	0.222333	0.175464	0.0703714	0.056209	0.0012183	0.0791822	0.0682713	0.0010245	0.276671	0.275128	0.16092	0.00121868	0.973037	0.999383	0.00108231	0.0010005	0.0010277	0.465221	0.00616725	0.0866503	0.0481817	0.00105049	0.00191772	0.0772441	0.00143462	0.406776	0.307819	0.23948	0.00102293	0.919713	0.0860313	0.324915	0.29252	0.383215	
3.495	0.00280274	0.00147286	0.00147114	0.00160169	0.00154203	0.00297016	0.00274905	0.00287831	0.00141435	0.00138138	0.00134373	0.00121313	0.00196544	0.00210627	0.00297486	0.0028816	0.0028146	0.00309139	0.00287842	0.00284492	0.0011869	0.00310268	0.00283922	0.00182083	0.00279444	0.00119134	0.00119131	0.00282847	0.00131167	0.00271723	0.0029309	0.00280785	0.00226037	0.00194393	0.00244934	0.00149871	0.00138435	0.00141335	0.00139406	0.00136473	0.00102267	0.00102267	0.433395	0.290445	0.00102268	0.00102267	0.236584	0.186841	0.00728648	0.0130547	0.0792316	0.0741742	0.0720064	0.00102367	0.282972	0.281428	0.164787	0.00985365	0.997219	0.999383	0.00108142	0.0010005	0.0010277	0.479988	0.00814544	0.0752325	0.0464743	0.00105049	0.0012101	0.0843462	0.00143462	0.43052	0.319111	0.265998	0.00102282	0.90755	0.0766244	0.342044	0.331598	0.398329	
3.5	0.00280274	0.00147286	0.00147114	0.00160169	0.00154203	0.00297016	0.00274905	0.00287831	0.00141435	0.00138138	0.00134373	0.00121313	0.00196544	0.00210627	0.00297486	0.0028816	0.0028146	0.00309139	0.00287842	0.00284492	0.0011869	0.00310268	0.00283922	0.00182083	0.00279444	0.00119134	0.00119131	0.00282847	0.00131167	0.00271723	0.0029309	0.00280785	0.00226037	0.00194393	0.00244934	0.00149871	0.00138435	0.00141335	0.00139406	0.00136473	0.00102267	0.00102267	0.396064	0.2674	0.00102267	0.00102267	0.251398	0.198711	0.00152103	0.00339172	0.18011	0.0701492	0.0767232	0.00102322	0.289409	0.287757	0.168783	0.237753	0.999158	0.999383	0.00108108	0.0010005	0.0010277	0.492065	0.00664914	0.0719958	0.0450276	0.00105049	0.00107667	0.091677	0.00143462	0.453303	0.330526	0.295843	0.00102275	0.90108	0.0760708	0.360521	0.33885	0.414903	
3.505	0.00280274	0.00147286	0.00147114	0.00160169	0.00154203	0.00297016	0.00274905	0.00287831	0.00141435	0.00138138	0.00134373	0.00121313	0.00196544	0.00210627	0.00297486	0.0028816	0.0028146	0.00309139	0.00287842	0.00284492	0.0011869	0.00310268	0.00283922	0.00182083	0.00279444	0.00119134	0.00119131	0.00282847	0.00131167	0.00271723	0.0029309	0.00280785	0.00226037	0.00194393	0.00244934	0.00149871	0.00138435	0.00141335	0.00139406	0.00136473	0.00102267	0.00102267	0.382268	0.259952	0.00102267	0.00102267	0.266686	0.211015	0.00110276	0.00146338	0.278211	0.0670729	0.0825184	0.00102296	0.296154	0.29427	0.172927	0.423357	0.999298	0.999383	0.00191947	0.0010005	0.00460009	0.501314	0.00477315	0.0836663	0.0436472	0.00105049	0.00105321	0.100853	0.00143462	0.474783	0.341943	0.328713	0.00102271	0.904424	0.0908537	0.379988	0.274843	0.432506	
3.51	0.00280274	0.00147286	0.00147114	0.00160169	0.00154203	0.00297016	0.00274905	0.00287831	0.00141435	0.00138138	0.00134373	0.00121313	0.00196544	0.00210627	0.00297486	0.0028816	0.0028146	0.00309139	0.00287842	0.00284492	0.0011869	0.00310268	0.00283922	0.00182083	0.00279444	0.00119134	0.00119131	0.00282847	0.00131167	0.00271723	0.0029309	0.00280785	0.00226037	0.00194393	0.00244934	0.00149871	0.00138435	0.00141335	0.00139406	0.00136473	0.00102267	0.00102267	0.405804	0.277023	0.00102267	0.00102267	0.282355	0.223687	0.00107535	0.0011021	0.350789	0.0652217	0.0894778	0.00102283	0.303427	0.301181	0.177246	0.798588	0.999308	0.999383	0.00166295	0.0010005	0.00695148	0.507692	0.00766131	0.108256	0.0423681	0.00105049	0.00104927	0.110396	0.00143462	0.494658	0.353244	0.364254	0.00102269	0.913961	0.114783	0.40007	0.185685	0.450661	
3.515	0.00280274	0.00147286	0.00147114	0.00160169	0.00154203	0.00297016	0.00274905	0.00287831	0.00141435	0.00138138	0.00134373	0.00121313	0.00196544	0.00210627	0.00297486	0.0028816	0.0028146	0.00309139	0.00287842	0.00284492	0.0011869	0.00310268	0.00283922	0.00182083	0.00279444	0.00119134	0.00119131	0.00282847	0.00131167	0.00271723	0.0029309	0.00280785	0.00226037	0.00194393	0.00244934	0.00149871	0.00138435	0.00141335	0.00139406	0.00136473	0.00102267	0.00102267	0.465286	0.318984	0.00102267	0.00102267	0.2983	0.236653	0.00107366	0.00103707	0.395443	0.0648145	0.0976736	0.00102275	0.311447	0.308708	0.181766	0.972005	0.999308	0.999383	0.00138397	0.117265	0.00208471	0.511254	0.00650423	0.141075	0.0411904	0.00105049	0.00104862	0.120344	0.00143462	0.512677	0.364321	0.402093	0.00102268	0.926983	0.139364	0.420351	0.146411	0.468813	
3.52	0.00280274	0.00147286	0.00147114	0.00160169	0.00154203	0.00297016	0.00274905	0.00287831	0.00141435	0.00138138	0.00134373	0.00121313	0.00196544	0.00210627	0.00297486	0.0028816	0.0028146	0.00309139	0.00287842	0.00284492	0.0011869	0.00310268	0.00283922	0.00182083	0.00279444	0.00119134	0.00119131	0.00282847	0.00131167	0.00271723	0.0029309	0.00280785	0.00226037	0.00194393	0.00244934	0.00149871	0.00138435	0.00141335	0.00139406	0.00136473	0.00102267	0.00102267	0.539353	0.37218	0.00102267	0.00102267	0.3144	0.249827	0.00107356	0.00102568	0.430887	0.0658608	0.107165	0.00102271	0.32033	0.316985	0.18651	0.996105	0.999308	0.999383	0.00195001	0.811523	0.00116319	0.512139	0.00474498	0.17622	0.0401184	0.00105049	0.00104852	0.131884	0.00143462	0.528648	0.375073	0.441878	0.00102267	0.944743	0.158249	0.440409	0.118193	0.486405	
3.525	0.00280274	0.00147286	0.00147114	0.00160169	0.00154203	0.00297016	0.00274905	0.00287831	0.00141435	0.00138138	0.00134373	0.00121313	0.00196544	0.00210627	0.00297486	0.0028816	0.0028146	0.00309139	0.00287842	0.00284492	0.0011869	0.00310268	0.00283922	0.00182083	0.00279444	0.00119134	0.00119131	0.00282847	0.00131167	0.00271723	0.0029309	0.00280785	0.00226037	0.00194393	0.00244934	0.00149871	0.00138435	0.00141335	0.00139406	0.00136473	0.00102267	0.00102267	0.609131	0.417487	0.00102267	0.00102267	0.330522	0.263114	0.00107355	0.00102372	0.454175	0.0683062	0.117993	0.00102269	0.330044	0.326007	0.191489	0.99887	0.999308	0.999383	0.00184803	0.971564	0.0126582	0.510545	0.00793339	0.208882	0.0391482	0.00105049	0.0010485	0.146087	0.00143462	0.542444	0.385411	0.483167	0.00102267	0.968937	0.169277	0.459847	0.105915	0.502923	
3.53	0.00280274	0.00147286	0.00147114	0.00160169	0.00154203	0.00297016	0.00274905	0.00287831	0.00141435	0.00138138	0.00134373	0.00121313	0.00196544	0.00210627	0.00297486	0.0028816	0.0028146	0.00309139	0.00287842	0.00284492	0.0011869	0.00310268	0.00283922	0.00182083	0.00279444	0.00119134	0.00119131	0.00282847	0.00131167	0.00271723	0.0029309	0.00280785	0.00226037	0.00194393	0.00244934	0.00149871	0.00138435	0.00141335	0.00139406	0.00136473	0.00102267	0.00104147	0.654116	0.440714	0.00102267	0.00102267	0.346523	0.276416	0.00107355	0.00102339	0.46914	0.0720704	0.130182	0.00102268	0.340428	0.335648	0.196701	0.999159	0.999308	0.999383	0.00150876	0.995485	0.022139	0.506712	0.00677002	0.236383	0.0382721	0.00105049	0.0010485	0.163241	0.00143462	0.554002	0.395256	0.525444	0.00102267	0.984264	0.173269	0.478309	0.0982114	0.517912	
3.535	0.00280274	0.00147286	0.00147114	0.00160169	0.00154203	0.00297016	0.00274905	0.00287831	0.00141435	0.00138138	0.00134373	0.00121313	0.00196544	0.00210627	0.00297486	0.0028816	0.0028146	0.00309139	0.00287842	0.00284492	0.0011869	0.00310268	0.00283922	0.00182083	0.00279444	0.00119134	0.00119131	0.00282847	0.00131167	0.00271723	0.0029309	0.00280785	0.00226037	0.00194393	0.00244934	0.00149871	0.00138435	0.00141335	0.00139406	0.00136473	0.00102267	0.00104173	0.660216	0.438034	0.00102267	0.00102267	0.362261	0.289633	0.00107355	0.00102334	0.483232	0.0768865	0.143737	0.00102267	0.351235	0.345698	0.202131	0.999188	0.999308	0.999383	0.00128553	0.998579	0.00448187	0.500918	0.00493657	0.257169	0.0374802	0.00105049	0.0010485	0.182473	0.00143462	0.563327	0.404547	0.56809	0.00102267	0.992242	0.17202	0.495459	0.0983243	0.530977	
3.54	0.00280274	0.00147286	0.00147114	0.00160169	0.00154203	0.00297016	0.00274905	0.00287831	0.00141435	0.00138138	0.00134373	0.00121313	0.00196544	0.00210627	0.00297486	0.0028816	0.0028146	0.00309139	0.00287842	0.00284492	0.0011869	0.00310268	0.00283922	0.00182083	0.00279444	0.00119134	0.00119131	0.00282847	0.00131167	0.00271723	0.0029309	0.00280785	0.00226037	0.00194393	0.00244934	0.00149871	0.00138435	0.00141335	0.00139406	0.00136473	0.00102267	0.00103716	0.629659	0.413959	0.00102267	0.00102267	0.3776	0.30267	0.00107355	0.00102333	0.492985	0.0825752	0.158657	0.00102267	0.36217	0.355907	0.207748	0.999191	0.999308	0.999383	0.00117143	0.998952	0.00145817	0.493473	0.00345287	0.271771	0.0367634	0.00105049	0.0010485	0.202436	0.00143462	0.570493	0.413243	0.610783	0.00102267	0.996028	0.168227	0.510983	0.0963817	0.541777	
3.545	0.00280274	0.00147286	0.00147114	0.00160169	0.00154203	0.00297016	0.00274905	0.00287831	0.00141435	0.00138138	0.00134373	0.00121313	0.00196544	0.00210627	0.00297486	0.0028816	0.0028146	0.00309139	0.00287842	0.00284492	0.0011869	0.00310268	0.00283922	0.00182083	0.00279444	0.00119134	0.00119131	0.00282847	0.00131167	0.00271723	0.0029309	0.00280785	0.00226037	0.00194393	0.00244934	0.00149871	0.00138435	0.00141335	0.00139406	0.00136473	0.00102267	0.00103247	0.573339	0.37405	0.00102267	0.00102267	0.392411	0.315432	0.00107355	0.00102333	0.500868	0.0888801	0.17494	0.00102267	0.372858	0.365955	0.213506	0.999191	0.999308	0.999383	0.00111909	0.998995	0.0264696	0.484731	0.00245491	0.281126	0.036114	0.00105049	0.0010485	0.221962	0.00143462	0.575638	0.421322	0.653419	0.00102267	0.997731	0.164249	0.524559	0.105271	0.549995	
3.55	0.00280274	0.00147286	0.00147114	0.00160169	0.00154203	0.00297016	0.00274905	0.00287831	0.00141435	0.00138138	0.00134373	0.00121313	0.00196544	0.00210627	0.00297486	0.0028816	0.0028146	0.00309139	0.00287842	0.00284492	0.0011869	0.00310268	0.00283922	0.00182083	0.00279444	0.00119134	0.00119131	0.00282847	0.00131167	0.00271723	0.0029309	0.00280785	0.00226037	0.00194393	0.00244934	0.00149871	0.00138435	0.00141335	0.00139406	0.00136473	0.00102267	0.00102888	0.498545	0.320569	0.00102267	0.00102267	0.406575	0.327832	0.00107355	0.00102332	0.507339	0.0955839	0.192582	0.00102267	0.382826	0.375439	0.21934	0.999191	0.999308	0.999383	0.00109651	0.999	0.0214914	0.475068	0.00184058	0.286501	0.0355264	0.00105049	0.0010485	0.240151	0.00143462	0.578958	0.428782	0.695928	0.00102267	0.998471	0.161255	0.535856	0.100591	0.555367	
3.555	0.00280274	0.00147286	0.00147114	0.00160169	0.00154203	0.00297016	0.00274905	0.00287831	0.00141435	0.00138138	0.00134373	0.00121313	0.00196544	0.00210627	0.00297486	0.0028816	0.0028146	0.00309139	0.00287842	0.00284492	0.0011869	0.00310268	0.00283922	0.00182083	0.00279444	0.00119134	0.00119131	0.00282847	0.00131167	0.00271723	0.0029309	0.00280785	0.00226037	0.00194393	0.00244934	0.00149871	0.00138435	0.00141335	0.00139406	0.00136473	0.00102267	0.00102644	0.4011	0.255185	0.00102267	0.00102267	0.419984	0.339786	0.00107355	0.00102332	0.513487	0.102454	0.211571	0.00102267	0.391698	0.384034	0.225171	0.999191	0.999308	0.174281	0.00108713	0.999	0.00533596	0.464808	0.00148163	0.289203	0.0349978	0.00182035	0.0010485	0.255074	0.00143462	0.580698	0.435643	0.738093	0.00102267	0.998784	0.159521	0.544501	0.117954	0.557652	
3.56	0.00280274	0.00147286	0.00147114	0.00160169	0.00154203	0.00297016	0.00274905	0.00287831	0.00141435	0.00138138	0.00134373	0.00121313	0.00196544	0.00210627	0.00297486	0.0028816	0.0028146	0.00309139	0.00287842	0.00284492	0.0011869	0.00310268	0.00283922	0.00182083	0.00279444	0.00119134	0.00119131	0.00282847	0.00131167	0.00271723	0.0029309	0.00280785	0.00226037	0.00194393	0.00244934	0.00149871	0.00138435	0.00141335	0.00139406	0.00136473	0.00556904	0.0010249	0.289525	0.185237	0.00102267	0.00102267	0.432546	0.351224	0.00107355	0.00102332	0.518767	0.109339	0.231876	0.00102267	0.399153	0.391466	0.230911	0.999191	0.778507	0.0183187	0.00108334	0.999	0.0016057	0.454247	0.0801961	0.290422	0.0345231	0.0018792	0.0010485	0.265224	0.00143462	0.581146	0.441947	0.779439	0.00102267	0.998914	0.159134	0.550142	0.0883639	0.556731	
3.565	0.00280274	0.00147286	0.00147114	0.00160169	0.00154203	0.00297016	0.00274905	0.00287831	0.00141435	0.00138138	0.00134373	0.00121313	0.00196544	0.00210627	0.00297486	0.0028816	0.0028146	0.00309139	0.00287842	0.00284492	0.0011869	0.00310268	0.00283922	0.00182083	0.00279444	0.00119134	0.00119131	0.00282847	0.00131167	0.00271723	0.0029309	0.00280785	0.00226037	0.00194393	0.00244934	0.00149871	0.00138435	0.00141335	0.00139406	0.00136473	0.0224974	0.0168108	0.195353	0.12843	0.00102267	0.00102267	0.444195	0.362086	0.00107355	0.00102332	0.523491	0.11606	0.253436	0.00102267	0.404937	0.397528	0.236471	0.999191	0.316868	0.00291847	0.00108183	0.999	0.00109431	0.443682	0.316467	0.290886	0.034106	0.00168244	0.0010485	0.268908	0.0438762	0.580613	0.44775	0.819198	0.00102267	0.998968	0.159818	0.552418	0.136929	0.552487	
3.57	0.00280274	0.00147286	0.00147114	0.00160169	0.00154203	0.00297016	0.00274905	0.00287831	0.00141435	0.00138138	0.00134373	0.00121313	0.00196544	0.00210627	0.00297486	0.0028816	0.0028146	0.00309139	0.00287842	0.00284492	0.0011869	0.00310268	0.00283922	0.00182083	0.00279444	0.00119134	0.00119131	0.00282847	0.00131167	0.00271723	0.0029309	0.00280785	0.00226037	0.00194393	0.00244934	0.00149871	0.00138435	0.00141335	0.00139406	0.00136473	0.0300688	0.0185084	0.132962	0.0914855	0.00102267	0.00102267	0.454887	0.372328	0.00107355	0.00102332	0.528229	0.12246	0.276138	0.00102267	0.408839	0.402047	0.24176	0.999191	0.24739	0.00162587	0.00108125	0.999	0.00235494	0.433357	0.403882	0.290867	0.0337374	0.00147315	0.0010485	0.266285	0.0225316	0.579407	0.453118	0.856232	0.00102267	0.998989	0.161235	0.551088	0.0399519	0.544988	
3.575	0.00280274	0.00147286	0.00147114	0.00160169	0.00154203	0.00297016	0.00274905	0.00287831	0.00141435	0.00138138	0.00134373	0.00121313	0.00196544	0.00210627	0.00297486	0.0028816	0.0028146	0.00309139	0.00287842	0.00284492	0.0011869	0.00310268	0.00283922	0.00182083	0.00279444	0.00119134	0.00119131	0.00282847	0.00131167	0.00271723	0.0029309	0.00280785	0.00226037	0.00194393	0.00244934	0.00149871	0.00138435	0.00141335	0.00139406	0.00136473	0.034828	0.0208056	0.0908961	0.0664978	0.00102267	0.00102267	0.464596	0.38192	0.00107355	0.00102332	0.531776	0.128406	0.299805	0.00102267	0.410678	0.404863	0.246692	0.999191	0.0284437	0.00152426	0.00108102	0.981081	0.00220463	0.423492	0.510492	0.290552	0.0334223	0.00131412	0.0010485	0.257233	0.00943987	0.577801	0.458115	0.889019	0.00102267	0.998998	0.163349	0.545954	0.0714491	0.534243	
3.58	0.00280274	0.00147286	0.00147114	0.00160169	0.00154203	0.00297016	0.00274905	0.00287831	0.00141435	0.00138138	0.00134373	0.00121313	0.00196544	0.00210627	0.00297486	0.0028816	0.0028146	0.00309139	0.00287842	0.00284492	0.0011869	0.00310268	0.00283922	0.00182083	0.00279444	0.00119134	0.00119131	0.00282847	0.00131167	0.00271723	0.0029309	0.00280785	0.00226037	0.00194393	0.00244934	0.00149871	0.00138435	0.00141335	0.00139406	0.00136473	0.0356838	0.0192566	0.0654977	0.0512476	0.00102267	0.00102267	0.473312	0.390844	0.00107355	0.00102332	0.53408	0.133767	0.324183	0.00102267	0.410339	0.405868	0.25119	0.999191	0.00356068	0.00151657	0.00108094	0.840823	0.00121543	0.414243	0.573692	0.290004	0.033154	0.00120794	0.0010485	0.242655	0.162114	0.575996	0.462796	0.915892	0.00102267	0.999001	0.166028	0.536965	0.00808571	0.52038	
3.585	0.00280274	0.00147286	0.00147114	0.00160169	0.00154203	0.00297016	0.00274905	0.00287831	0.00141435	0.00138138	0.00134373	0.00121313	0.00196544	0.00210627	0.00297486	0.0028816	0.0028146	0.00309139	0.00287842	0.00284492	0.0011869	0.00310268	0.00283922	0.00182083	0.00279444	0.00119134	0.00119131	0.00282847	0.00131167	0.00271723	0.0029309	0.00280785	0.00226037	0.00194393	0.00244934	0.00149871	0.00138435	0.00141335	0.00139406	0.00136473	0.030496	0.0144264	0.0523164	0.0438578	0.00102267	0.00102267	0.481031	0.399083	0.00107355	0.00102332	0.535417	0.138483	0.34895	0.00102267	0.407782	0.405003	0.25519	0.999191	0.00896486	0.001516	0.0010809	0.87307	0.00105089	0.405727	0.59487	0.289406	0.0329419	0.00114586	0.0010485	0.223978	0.648585	0.574096	0.467191	0.935399	0.00102267	0.999003	0.168762	0.524146	0.131966	0.503476	
3.59	0.00280274	0.00147286	0.00147114	0.00160169	0.00154203	0.00297016	0.00274905	0.00287831	0.00141435	0.00138138	0.00134373	0.00121313	0.00196544	0.00210627	0.00297486	0.0028816	0.0028146	0.00309139	0.00287842	0.00284492	0.0011869	0.00310268	0.00283922	0.00182083	0.00279444	0.00119134	0.00119131	0.00282847	0.00131167	0.00271723	0.0029309	0.00280785	0.00226037	0.00194393	0.00244934	0.00149871	0.00138435	0.00141335	0.00139406	0.00136473	0.0219997	0.0099266	0.0364653	0.0352017	0.00102267	0.00102267	0.487748	0.406624	0.00107355	0.00102332	0.534844	0.142528	0.373735	0.00102267	0.403056	0.402279	0.258643	0.999191	0.0290308	0.00151596	0.00108089	0.976864	0.00103027	0.397984	0.650383	0.289158	0.0327824	0.00110633	0.0010485	0.203641	0.879902	0.572101	0.471309	0.946527	0.00102267	0.999003	0.17279	0.507647	0.0348864	0.48362	
3.595	0.00280274	0.00147286	0.00147114	0.00160169	0.00154203	0.00297016	0.00274905	0.00287831	0.00141435	0.00138138	0.00134373	0.00121313	0.00196544	0.00210627	0.00297486	0.0028816	0.0028146	0.00309139	0.00287842	0.00284492	0.0011869	0.00310268	0.00283922	0.00182083	0.00279444	0.00119134	0.00119131	0.00282847	0.00131167	0.00271723	0.0029309	0.00280785	0.00226037	0.00194393	0.00244934	0.00149871	0.00138435	0.00141335	0.00139406	0.00136473	0.0147169	0.00660551	0.0237765	0.0246705	0.00102267	0.00102267	0.493452	0.413448	0.00107355	0.00102332	0.548523	0.145883	0.398141	0.00102267	0.396296	0.397769	0.261515	0.999191	0.0256366	0.00151596	0.00108089	0.995947	0.00102797	0.390936	0.696898	0.288421	0.0327557	0.00108241	0.0010485	0.183413	0.960074	0.569939	0.475138	0.948746	0.00102267	0.999003	0.179593	0.487686	0.141823	0.460865	
3.6	0.00280274	0.00147286	0.00147114	0.00160169	0.00154203	0.00297016	0.00274905	0.00287831	0.00141435	0.00138138	0.00134373	0.00121313	0.00196544	0.00210627	0.00297486	0.0028816	0.0028146	0.00309139	0.00287842	0.00284492	0.0011869	0.00310268	0.00283922	0.00182083	0.00279444	0.00119134	0.00119131	0.00282847	0.00131167	0.00271723	0.0029309	0.00280785	0.00226037	0.00194393	0.00244934	0.00149871	0.00138435	0.00141335	0.00139406	0.00136473	0.00951602	0.00439472	0.0149838	0.0162154	0.00102267	0.00102267	0.498124	0.419534	0.00107355	0.00102332	0.545436	0.148579	0.421758	0.00102267	0.387716	0.391606	0.263785	0.999191	0.00392946	0.00151596	0.00108088	0.99862	0.00102773	0.384405	0.710459	0.287854	0.03278	0.00106841	0.0010485	0.16534	0.973528	0.567493	0.47865	0.941848	0.00102267	0.999003	0.185639	0.464601	0.0152633	0.435246	
3.605	0.00280274	0.00147286	0.00147114	0.00160169	0.00154203	0.00297016	0.00274905	0.00287831	0.00141435	0.00138138	0.00134373	0.00121313	0.00196544	0.00210627	0.00297486	0.0028816	0.0028146	0.00309139	0.00287842	0.00284492	0.0011869	0.00310268	0.00283922	0.00182083	0.00279444	0.00119134	0.00119131	0.00282847	0.00131167	0.00271723	0.0029309	0.00280785	0.00226037	0.00194393	0.00244934	0.00149871	0.00138435	0.00141335	0.00139406	0.00136473	0.00611452	0.00300675	0.00932982	0.010349	0.00102267	0.00102267	0.501751	0.424863	0.00107355	0.00102332	0.54464	0.150613	0.444192	0.00102267	0.377581	0.383972	0.265443	0.999191	0.00159159	0.00151596	0.00108088	0.998956	0.0010277	0.378162	0.716071	0.28716	0.0328605	0.00106041	0.0010485	0.151003	0.972201	0.564631	0.48181	0.925997	0.00102267	0.999004	0.191622	0.438841	0.113322	0.406842	
3.61	0.00280274	0.00147286	0.00147114	0.00160169	0.00154203	0.00297016	0.00274905	0.00287831	0.00141435	0.00138138	0.00134373	0.00121313	0.00196544	0.00210627	0.00297486	0.0028816	0.0028146	0.00309139	0.00287842	0.00284492	0.0011869	0.00310268	0.00283922	0.00182083	0.00279444	0.00119134	0.00119131	0.00282847	0.00131167	0.00271723	0.0029309	0.00280785	0.00226037	0.00194393	0.00244934	0.00149871	0.00138435	0.00141335	0.00139406	0.00136473	0.00400243	0.00216769	0.00585712	0.00657389	0.00102267	0.00102267	0.504328	0.429422	0.00107355	0.00102332	0.535917	0.15194	0.465076	0.00102267	0.366186	0.375076	0.266496	0.999191	0.0582226	0.00151596	0.00108088	0.998995	0.0010277	0.371959	0.717267	0.285438	0.0329755	0.00105592	0.0010485	0.141439	0.968348	0.561233	0.484583	0.901623	0.00102267	0.999004	0.197487	0.410938	0.0124003	0.376471	
3.615	0.00280274	0.00147286	0.00147114	0.00160169	0.00154203	0.00297016	0.00274905	0.00287831	0.00141435	0.00138138	0.00134373	0.00121313	0.00196544	0.00210627	0.00297486	0.0028816	0.0028146	0.00309139	0.00287842	0.00284492	0.0011869	0.00310268	0.00283922	0.00182083	0.00279444	0.00119134	0.00119131	0.00282847	0.00131167	0.00271723	0.0029309	0.00280785	0.00226037	0.00194393	0.00244934	0.00149871	0.00138435	0.00141335	0.00139406	0.00136473	0.0027352	0.00167368	0.0037893	0.0042541	0.00102461	0.00102542	0.505858	0.433204	0.00107355	0.00102332	0.515213	0.152303	0.484086	0.00102267	0.353834	0.365149	0.266957	0.999191	0.0708277	0.00151596	0.00108088	0.999	0.0010277	0.365546	0.710072	0.281047	0.033096	0.00105344	0.0010485	0.137423	0.963345	0.557192	0.486934	0.869309	0.00102267	0.895256	0.202336	0.381486	0.0521585	0.345458	
3.62	0.00280274	0.00147286	0.00147114	0.00160169	0.00154203	0.00297016	0.00274905	0.00287831	0.00141435	0.00138138	0.00134373	0.00121313	0.00196544	0.00210627	0.00297486	0.0028816	0.0028146	0.00309139	0.00287842	0.00284492	0.0011869	0.00310268	0.00283922	0.00182083	0.00279444	0.00119134	0.00119131	0.00282847	0.00131167	0.00271723	0.0029309	0.00280785	0.00226037	0.00194393	0.00244934	0.00149871	0.00138435	0.00141335	0.00139406	0.00136473	0.00199319	0.00138846	0.00258527	0.00287231	0.0010606	0.00102546	0.506356	0.436211	0.00107355	0.00102332	0.491846	0.151665	0.500946	0.00102267	0.340841	0.35444	0.266848	0.999191	0.00880689	0.00151596	0.00108088	0.999	0.0010277	0.358632	0.680851	0.273702	0.0331986	0.00105208	0.0010485	0.139237	0.957882	0.552419	0.488829	0.829715	0.00102267	0.766501	0.206002	0.351286	0.00620585	0.314761	
3.625	0.00280274	0.00147286	0.00147114	0.00160169	0.00154203	0.00297016	0.00274905	0.00287831	0.00141435	0.00138138	0.00134373	0.00121313	0.00196544	0.00210627	0.00297486	0.0028816	0.0028146	0.00309139	0.00287842	0.00284492	0.0011869	0.00310268	0.00283922	0.00182083	0.00279444	0.00119134	0.00119131	0.00282847	0.00131167	0.00271723	0.0029309	0.00280785	0.00226037	0.00194393	0.00244934	0.00149871	0.00138435	0.00141335	0.00139406	0.00136473	0.00156655	0.00122623	0.00189595	0.00206752	0.0013595	0.00102479	0.505847	0.438451	0.00107355	0.00102332	0.461455	0.150101	0.515434	0.00102267	0.327484	0.343186	0.266198	0.999191	0.00198409	0.00151596	0.00108088	0.999	0.0010277	0.351018	0.647006	0.26395	0.0332699	0.00105134	0.0010485	0.146959	0.952065	0.546839	0.490237	0.783562	0.00102267	0.633534	0.208349	0.321286	0.0133983	0.285057	
3.63	0.00280274	0.00147286	0.00147114	0.00160169	0.00154203	0.00297016	0.00274905	0.00287831	0.00141435	0.00138138	0.00134373	0.00121313	0.00196544	0.00210627	0.00297486	0.0028816	0.0028146	0.00309139	0.00287842	0.00284492	0.0011869	0.00310268	0.00283922	0.00182083	0.00279444	0.00119134	0.00119131	0.00282847	0.00131167	0.00271723	0.0029309	0.00280785	0.00226037	0.00194393	0.00244934	0.00149871	0.00138435	0.00141335	0.00139406	0.00136473	0.00132468	0.00113505	0.00150649	0.00160693	0.00158336	0.0010241	0.504367	0.43994	0.00107355	0.00102332	0.432612	0.147708	0.527388	0.00102267	0.314013	0.331618	0.265041	0.999191	0.0698611	0.00151596	0.00108088	0.999	0.0010277	0.342485	0.587212	0.252325	0.033299	0.00105094	0.0010485	0.160027	0.946587	0.540391	0.491128	0.731822	0.00102267	0.501333	0.209255	0.292155	0.00232453	0.256805	
3.635	0.00280274	0.00147286	0.00147114	0.00160169	0.00154203	0.00297016	0.00274905	0.00287831	0.00141435	0.00138138	0.00134373	0.00121313	0.00196544	0.00210627	0.00297486	0.0028816	0.0028146	0.00309139	0.00287842	0.00284492	0.0011869	0.00310268	0.00283922	0.00182083	0.00279444	0.00119134	0.00119131	0.00282847	0.00131167	0.00271723	0.0029309	0.00280785	0.00226037	0.00194393	0.00244934	0.00149871	0.00138435	0.00141335	0.00139406	0.00136473	0.0011891	0.00108429	0.00128878	0.00154094	0.00150456	0.00102358	0.501958	0.4407	0.00107355	0.00102332	0.391939	0.144404	0.536701	0.00102267	0.300646	0.319954	0.26341	0.999191	0.078092	0.00151596	0.00108088	0.999	0.0010277	0.332772	0.510372	0.237974	0.0332565	0.00105073	0.0010485	0.178533	0.940972	0.533012	0.49147	0.675425	0.00102267	0.380692	0.208144	0.26435	0.00119788	0.230295	
3.64	0.00280274	0.00147286	0.00147114	0.00160169	0.00154203	0.00297016	0.00274905	0.00287831	0.00141435	0.00138138	0.00134373	0.00121313	0.00196544	0.00210627	0.00297486	0.0028816	0.0028146	0.00309139	0.00287842	0.00284492	0.0011869	0.00310268	0.00283922	0.00182083	0.00279444	0.00119134	0.00119131	0.00282847	0.00131167	0.00271723	0.0029309	0.00280785	0.00226037	0.00194393	0.00244934	0.00149871	0.00138435	0.00141335	0.00139406	0.00136473	0.00111379	0.00105627	0.00116814	0.0017022	0.00136714	0.00102322	0.498663	0.440755	0.00107355	0.00102332	0.227901	0.140079	0.543322	0.00102267	0.287484	0.308289	0.261334	0.999191	0.00957998	0.00151596	0.00108088	0.999	0.0010277	0.3215	0.62876	0.218653	0.0330799	0.00105062	0.0010485	0.20239	0.935983	0.524611	0.491227	0.615606	0.00102267	0.27492	0.200259	0.238219	0.00111293	0.205694	
3.645	0.00280274	0.00147286	0.00147114	0.00160169	0.00154203	0.00297016	0.00274905	0.00287831	0.00141435	0.00138138	0.00134373	0.00121313	0.00196544	0.00210627	0.00297486	0.0028816	0.0028146	0.00309139	0.00287842	0.00284492	0.0011869	0.00310268	0.00283922	0.00182083	0.00279444	0.00119134	0.00119131	0.00282847	0.00131167	0.00271723	0.0029309	0.00280785	0.00226037	0.00194393	0.00244934	0.00149871	0.00138435	0.00141335	0.00139406	0.00136473	0.00107229	0.0010409	0.00110177	0.00157842	0.00204096	0.00102299	0.494541	0.440138	0.00107355	0.00102332	0.185968	0.134998	0.547268	0.00102267	0.274709	0.296893	0.258857	0.999191	0.00204583	0.00151596	0.00108088	0.999	0.0010277	0.308509	0.496843	0.197228	0.0327883	0.00105056	0.0010485	0.227753	0.931038	0.515173	0.490376	0.553675	0.00102267	0.217781	0.189524	0.213858	0.00110725	0.18307	
