CEINMS output
datacolumns 7
datarows 168
endheader
time	addbrev_r	addlong_r	addmagDist_r	addmagIsch_r	addmagMid_r	addmagProx_r	bflh_r	bfsh_r	edl_r	ehl_r	fdl_r	fhl_r	gaslat_r	gasmed_r	glmax1_r	glmax2_r	glmax3_r	glmed1_r	glmed2_r	glmed3_r	glmin1_r	glmin2_r	glmin3_r	grac_r	iliacus_r	perbrev_r	perlong_r	piri_r	psoas_r	recfem_r	sart_r	semimem_r	semiten_r	soleus_r	tfl_r	tibant_r	tibpost_r	vasint_r	vaslat_r	vasmed_r	addbrev_l	addlong_l	addmagDist_l	addmagIsch_l	addmagMid_l	addmagProx_l	bflh_l	bfsh_l	edl_l	ehl_l	fdl_l	fhl_l	gaslat_l	gasmed_l	glmax1_l	glmax2_l	glmax3_l	glmed1_l	glmed2_l	glmed3_l	glmin1_l	glmin2_l	glmin3_l	grac_l	iliacus_l	perbrev_l	perlong_l	piri_l	psoas_l	recfem_l	sart_l	semimem_l	semiten_l	soleus_l	tfl_l	tibant_l	tibpost_l	vasint_l	vaslat_l	vasmed_l	
0.179942	1531.32	6.90964	0.119107	1	10	1000	
0.185014	1664.71	6.37144	0.039041	1	10	1000	
0.190086	2426.13	4.46312	0.0442197	1	10	1000	
0.194955	2917.14	4.66659	0.0463536	1	10	1000	
0.200027	2960.2	3.77467	0.0341532	1	10	1000	
0.205099	2913.59	3.02191	0.0263359	1	10	1000	
0.209969	2976.42	2.76021	0.0218509	1	10	1000	
0.215041	3069.21	2.52116	0.0196403	1	10	1000	
0.21991	3106.18	2.19633	0.0169257	1	10	1000	
0.224982	3148.24	1.78089	0.0146737	1	10	1000	
0.230054	3301.37	1.58643	0.0151124	1	10	1000	
0.234923	3657.41	1.28539	0.0175498	1	10	1000	
0.239995	4195.31	1.23816	0.0250842	1	10	1000	
0.245067	4757.52	1.41736	0.0282108	1	10	1000	
0.249936	5188.84	1.31352	0.0227777	1	10	1000	
0.255008	5593.11	1.31393	0.0200612	1	10	1000	
0.26008	6031.62	1.41209	0.0237882	1	10	1000	
0.264949	6385.04	1.53659	0.0286851	1	10	1000	
0.270021	6506.64	1.76972	0.0353374	1	10	1000	
0.275093	6361.6	2.31324	0.0491307	1	10	1000	
0.279962	6006.63	2.99206	0.039166	1	10	1000	
0.285034	5555.32	3.52862	0.0279517	1	10	1000	
0.289904	5145.73	3.71548	0.027865	1	10	1000	
0.294976	4782.2	3.49135	0.0312553	1	10	1000	
0.300048	4462.93	3.14219	0.0360695	1	10	1000	
0.304917	4204.32	2.99819	0.0439612	1	10	1000	
0.309989	4013.74	3.19927	0.0623726	1	10	1000	
0.315061	3864.4	3.76098	0.0974982	1	10	1000	
0.31993	3722.52	4.29497	0.154364	1	10	1000	
0.325002	3531.6	4.67072	0.231059	1	10	1000	
0.330074	3201.34	4.7016	0.277482	1	10	1000	
0.334943	2748.32	4.32983	0.245567	1	10	1000	
0.340015	2263.06	3.39882	0.176808	1	10	1000	
0.345087	1850.75	2.55702	0.111096	1	10	1000	
0.349956	1562.01	2.18599	0.0750461	1	10	1000	
0.355028	1397.52	3.2172	0.0680047	1	10	1000	
0.3601	1234.02	3.65847	0.070742	1	10	1000	
0.36497	1151.06	4.11269	0.0798959	1	10	1000	
0.370042	1129.68	3.99106	0.104451	1	10	1000	
0.374911	1088.31	3.64262	0.130099	1	10	1000	
0.379983	1004.68	3.44475	0.116858	1	10	1000	
0.385055	880.718	3.10826	0.0973822	1	10	1000	
0.389924	723.447	2.74474	0.0771501	1	10	1000	
0.394996	557.28	2.31954	0.0533915	1	10	1000	
0.400068	408.241	1.94384	0.0333151	1	10	1000	
0.404937	289.26	1.70003	0.0190298	1	10	1000	
0.410009	204.371	1.53624	0.00922695	1	10	1000	
0.415081	151.981	1.44332	0.00390962	1	10	1000	
0.41995	122.837	1.45816	0.0023198	1	10	1000	
0.425022	103.37	1.47615	0.00216314	1	10	1000	
0.430094	88.6827	1.47265	0.00205919	1	10	1000	
0.434963	78.4568	1.45875	0.00187513	1	10	1000	
0.440036	71.0656	1.42947	0.00150911	1	10	1000	
0.444905	65.1951	1.43369	0.0010908	1	10	1000	
0.449977	59.4285	1.50053	0.000749577	1	10	1000	
0.455049	56.6712	1.65581	0.000647453	1	10	1000	
0.459918	61.525	1.83499	0.000762263	1	10	1000	
0.46499	73.1276	1.96955	0.000927342	1	10	1000	
0.470062	84.7131	2.04977	0.0010774	1	10	1000	
0.474931	93.1736	2.07713	0.00128135	1	10	1000	
0.480003	99.9922	2.0362	0.00143747	1	10	1000	
0.485075	103.154	1.96316	0.00159308	1	10	1000	
0.489944	100.496	1.94307	0.00168689	1	10	1000	
0.495016	88.4761	2.06569	0.00160984	1	10	1000	
0.500088	69.4632	2.37863	0.0012966	1	10	1000	
0.504957	51.8815	2.82086	0.000974694	1	10	1000	
0.510029	43.3876	3.29167	0.000910007	1	10	1000	
0.515101	44.2454	3.69688	0.00103978	1	10	1000	
0.519971	48.5999	3.81124	0.00125613	1	10	1000	
0.525043	50.2952	3.78861	0.00151049	1	10	1000	
0.529912	44.3623	3.69675	0.00166192	1	10	1000	
0.534984	31.8158	3.53827	0.00171435	1	10	1000	
0.540056	20.6839	3.21275	0.00154322	1	10	1000	
0.544925	16.3018	2.8561	0.00114546	1	10	1000	
0.549997	16.3939	2.68447	0.000706641	1	10	1000	
0.555069	17.321	2.7618	0.000424358	1	10	1000	
0.559938	19.0723	2.91625	0.00039595	1	10	1000	
0.56501	21.1556	2.84959	0.000459087	1	10	1000	
0.570082	24.8127	2.55839	0.000520246	1	10	1000	
0.574951	38.6975	2.57257	0.000956727	1	10	1000	
0.580023	82.5669	3.36913	0.00298242	1	10	1000	
0.585095	185.153	4.72099	0.00796621	1	10	1000	
0.589964	364.67	5.73582	0.0150291	1	10	1000	
0.595037	599.317	5.77971	0.0229161	1	10	1000	
0.599906	804.773	5.40925	0.030234	1	10	1000	
0.604978	886.073	5.03299	0.0345019	1	10	1000	
0.61005	832.941	4.7665	0.0322546	1	10	1000	
0.614919	733.89	4.54407	0.0249905	1	10	1000	
0.619991	663.307	4.27184	0.0193524	1	10	1000	
0.625063	631.787	4.06187	0.017127	1	10	1000	
0.629932	623.787	3.99975	0.0161622	1	10	1000	
0.635004	618.881	3.85164	0.0152666	1	10	1000	
0.640076	608.831	3.75397	0.0142004	1	10	1000	
0.644945	594.998	3.75262	0.012738	1	10	1000	
0.650017	577.36	3.67596	0.0114928	1	10	1000	
0.655089	556.58	3.57418	0.0106951	1	10	1000	
0.659958	538.571	3.49159	0.00919794	1	10	1000	
0.66503	527.979	3.46662	0.00991649	1	10	1000	
0.6699	526.774	3.49127	0.00981	1	10	1000	
0.674972	532.685	3.53678	0.0103197	1	10	1000	
0.680044	543.53	3.55051	0.0110236	1	10	1000	
0.684913	557.244	3.4955	0.011481	1	10	1000	
0.689985	573.765	3.43039	0.0118398	1	10	1000	
0.695057	594.476	3.38138	0.0122594	1	10	1000	
0.699926	622.964	3.38722	0.0129888	1	10	1000	
0.704998	663.351	3.53298	0.0136795	1	10	1000	
0.71007	722.559	3.80768	0.0117623	1	10	1000	
0.714939	806.28	4.12879	0.010385	1	10	1000	
0.720011	910.091	4.57947	0.00950549	1	10	1000	
0.725083	1018.81	4.95581	0.00805468	1	10	1000	
0.729952	1126.83	5.12079	0.00784033	1	10	1000	
0.735024	1245.53	5.18087	0.00748233	1	10	1000	
0.740096	1357.8	5.25292	0.00627463	1	10	1000	
0.744966	1436.52	5.37033	0.00460517	1	10	1000	
0.750038	1464.57	5.65968	0.00394443	1	10	1000	
0.754907	1446.18	6.05011	0.00618405	1	10	1000	
0.759979	1369.46	6.80714	0.0107933	1	10	1000	
0.765051	1258.93	7.5336	0.0148564	1	10	1000	
0.76992	1042.1	6.57721	0.0189217	1	10	1000	
0.774992	780.147	6.22564	0.0221068	1	10	1000	
0.780064	586.866	5.45775	0.0253862	1	10	1000	
0.784933	512.3	4.59946	0.0254582	1	10	1000	
0.790005	556.979	3.39605	0.0269945	1	10	1000	
0.795077	481.267	2.27092	0.0744457	1	10	1000	
0.799946	209.847	1.49607	0.0236108	1	10	1000	
0.805018	129.726	2.03912	0.00504209	1	10	1000	
0.81009	232.534	2.74436	0.00969237	1	10	1000	
0.814959	178.449	2.77548	0.00546236	1	10	1000	
0.820031	104.236	1.86256	0.00675823	1	10	1000	
0.824901	85.8963	1.96841	0.00368718	1	10	1000	
0.829973	74.4752	1.58532	0.00244579	1	10	1000	
0.835045	49.7559	0.540996	0.00168228	1	10	1000	
0.839914	55.7942	0.371282	0.00228627	1	10	1000	
0.844986	69.9955	0.336334	0.00289914	1	10	1000	
0.850058	89.5224	0.301857	0.00325647	1	10	1000	
0.854927	115.758	0.326328	0.00428101	1	10	1000	
0.859999	140.766	0.337682	0.00521861	1	10	1000	
0.865071	154.919	0.315127	0.00537913	1	10	1000	
0.86994	162.338	0.30631	0.00537215	1	10	1000	
0.875012	170.198	0.330763	0.00619658	1	10	1000	
0.880084	179.906	0.379338	0.00777749	1	10	1000	
0.884953	185.983	0.411633	0.00840794	1	10	1000	
0.890025	186.669	0.455739	0.00826872	1	10	1000	
0.895097	182.615	0.503666	0.0072226	1	10	1000	
0.899967	179.789	0.577316	0.00620723	1	10	1000	
0.905039	183.135	0.693266	0.00546458	1	10	1000	
0.909908	193.217	0.824492	0.00508658	1	10	1000	
0.91498	207.749	0.954612	0.00491924	1	10	1000	
0.920052	226.052	1.06778	0.00499184	1	10	1000	
0.924921	251.431	1.18873	0.00546951	1	10	1000	
0.929993	283.685	1.31177	0.005836	1	10	1000	
0.935065	322.881	1.48805	0.00679101	1	10	1000	
0.939934	358.168	1.66302	0.0076511	1	10	1000	
0.945006	382.636	1.79152	0.00829773	1	10	1000	
0.950078	416.604	1.98715	0.0101837	1	10	1000	
0.954947	441.858	2.40044	0.0146857	1	10	1000	
0.960019	512.38	3.31683	0.0234829	1	10	1000	
0.965091	716.137	4.59476	0.0577753	1	10	1000	
0.96996	1020.8	5.43455	0.0969801	1	10	1000	
0.975032	1309.81	5.49505	0.132654	1	10	1000	
0.979902	1181.05	4.26876	0.280532	1	10	1000	
0.984974	670.914	2.17889	0.148575	1	10	1000	
0.990046	429.082	1.4124	0.0127627	1	10	1000	
0.994915	337.56	1.12161	0.0054727	1	10	1000	
0.999987	276.779	1.00796	0.00393409	1	10	1000	
1.00506	237.941	1.18086	0.00398453	1	10	1000	
1.00993	213.333	1.41915	0.00601476	1	10	1000	
1.015	200.721	1.57336	0.00757756	1	10	1000	
