CEINMS output
datacolumns 81
datarows 92
endheader
time	addbrev_r	addlong_r	addmagDist_r	addmagIsch_r	addmagMid_r	addmagProx_r	bflh_r	bfsh_r	edl_r	ehl_r	fdl_r	fhl_r	gaslat_r	gasmed_r	glmax1_r	glmax2_r	glmax3_r	glmed1_r	glmed2_r	glmed3_r	glmin1_r	glmin2_r	glmin3_r	grac_r	iliacus_r	perbrev_r	perlong_r	piri_r	psoas_r	recfem_r	sart_r	semimem_r	semiten_r	soleus_r	tfl_r	tibant_r	tibpost_r	vasint_r	vaslat_r	vasmed_r	addbrev_l	addlong_l	addmagDist_l	addmagIsch_l	addmagMid_l	addmagProx_l	bflh_l	bfsh_l	edl_l	ehl_l	fdl_l	fhl_l	gaslat_l	gasmed_l	glmax1_l	glmax2_l	glmax3_l	glmed1_l	glmed2_l	glmed3_l	glmin1_l	glmin2_l	glmin3_l	grac_l	iliacus_l	perbrev_l	perlong_l	piri_l	psoas_l	recfem_l	sart_l	semimem_l	semiten_l	soleus_l	tfl_l	tibant_l	tibpost_l	vasint_l	vaslat_l	vasmed_l	
3.19	0.0129968	0.000592877	0.0230361	0.0232967	0.0284493	0	0.0241391	0.0374142	0.0221239	0.0222317	0.0385102	0.0496496	0.00964731	0.0229832	0.00815624	0.0137444	0.0188356	0.0833961	0.0777083	0.0235867	0.0844028	0.0847468	0.0846967	0.0270969	0.0106325	0.0157891	0.0399591	0.0528093	0.0086565	5.56437e-05	0.0352597	0.0354926	0.0418818	0.0361552	0.000195299	0.0185356	0.0383767	0.00900172	0.00944193	0.0089739	0.00364802	0.0505597	0.0182458	0.0178508	0.0179906	0.00298217	0.00464982	0.00875166	0.0320082	0.084131	0.0433885	0.0456112	0.025903	0	0.00192228	0.0020215	0.00123845	0.0407759	0.0232669	4.3606e-13	0.022465	0.0390867	0	0.00270105	0.000235311	0.0752737	0.0839096	0	0.00061383	0.0848205	0.0411594	0.0555829	0.0364286	0	1.02921e-17	0.0843551	0.0846823	0	0.000191685	1.30939e-06	
3.195	0.0116408	1.49402e-10	0.0210246	0.0214904	0.0256116	0	0.0236454	0.0399366	0.0227039	0.0228703	0.038396	0.0493799	0.0106273	0.0241584	0.00701431	0.0125686	0.0169808	0.083932	0.0770538	0.0221223	0.0853427	0.0854004	0.0848618	0.0270817	0.0129093	0.0156471	0.0397821	0.0501339	0.0102966	0.00100603	0.0376253	0.0356819	0.0419385	0.035287	0.00378558	0.0193567	0.0382027	0.00749173	0.00809599	0.007597	0.00252243	0.0494417	0.0190708	0.0182502	0.0175087	0.00745298	0.00175553	0.00648419	0.0321543	0.0841988	0.0432885	0.0455109	0.023955	0	0.00200926	0.00203858	0	0.047918	0.0279561	3.78461e-10	0.0242933	0.0178645	0	0	0.00202129	0.075774	0.0838878	0	0.00145285	0.0871147	0.0404054	0.0504532	0.0337541	7.2865e-10	0	0.0844247	0.085084	1.43635e-14	0.00385788	0.00398116	
3.2	0.0113357	8.22671e-11	0.0198432	0.0202863	0.0239303	0	0.0232112	0.0419488	0.0231296	0.0233353	0.0382969	0.0491374	0.0112973	0.0250768	0.00656162	0.0120655	0.0160077	0.0839005	0.0763017	0.0211975	0.0853159	0.0853481	0.0847987	0.027107	0.0139959	0.0155685	0.0396352	0.0475456	0.0110859	0.00181289	0.0395021	0.0357738	0.0419248	0.0345797	0.00567312	0.0198976	0.0380555	0.00661484	0.00729972	0.00680437	0.00217365	0.0484205	0.0242159	0.0209044	0.0220409	0.0117049	0.00323306	0.0103562	0.032253	0.084202	0.0431014	0.0458732	0.0245209	2.70404e-11	0.016115	0.017045	0.00463736	0.0462108	0.0205814	3.07713e-09	0.0243436	0.01203	2.92436e-14	0.00727714	0.00201865	0.077054	0.0843131	8.56556e-12	0.00163579	0.0870574	0.0397003	0.0463849	0.0341667	2.99133e-14	8.05975e-12	0.0844617	0.0844144	0	0.00498064	0.00519475	
3.205	0.0110419	3.57962e-11	0.0187628	0.0192212	0.0223853	0	0.0227464	0.0439605	0.0234426	0.0236743	0.0382071	0.0489187	0.0117739	0.0258874	0.00614805	0.0116054	0.0151094	0.0838177	0.0753414	0.0202855	0.0852102	0.085245	0.0847126	0.0270705	0.0148105	0.0155135	0.0395044	0.0449819	0.0116383	0.00202136	0.0414048	0.0357704	0.0418275	0.0339859	0.00664448	0.020256	0.0379257	0.00603634	0.00675223	0.00627114	0.00854137	0.0483226	0.0273751	0.0232355	0.0244332	0.0129678	0.00609078	0.0131298	0.033651	0.0849969	0.0416295	0.0462841	0.0251516	3.07176e-12	0.0274169	0.0296512	0.015517	0.0361117	0.00600771	0	0.0382917	0.0396625	2.49495e-13	0.0141619	0.00825249	0.0777713	0.0846725	0	0.0114743	0.087023	0.0389899	0.0425982	0.0333422	0	5.44296e-12	0.084415	0.0841	3.44572e-11	0.00508008	0.00528081	
3.21	0.0107753	1.23982e-11	0.0176718	0.0181321	0.0209314	0	0.0222098	0.0460459	0.0236932	0.0239464	0.0381285	0.0487299	0.0122024	0.0267024	0.00570104	0.0111206	0.0142292	0.0837348	0.0741232	0.0193446	0.0851053	0.085142	0.0846283	0.0269983	0.0156951	0.0154666	0.0393911	0.0424449	0.0122249	0.00200138	0.0434699	0.0356669	0.0416384	0.0334876	0.00724059	0.0205381	0.0378136	0.00551986	0.00625077	0.0057871	0.0163676	0.048328	0.0258027	0.0237214	0.0220966	0.0125012	0.00802796	0.0131496	0.0348059	0.0855493	0.0404354	0.0465753	0.02502	3.35511e-12	0.0313147	0.0351247	0.0183791	0.0210862	0.00162354	0	0.0505345	0.0628693	1.17618e-14	0.016737	0.0172381	0.0778717	0.0848167	9.25292e-09	0.0237056	0.0869791	0.0382277	0.0390245	0.0316707	3.76759e-10	4.77819e-12	0.0843388	0.0843088	7.58276e-11	0.00499386	0.00519047	
3.215	0.0105824	2.05486e-07	0.0166078	0.0170356	0.0195821	1.96317e-06	0.0215977	0.0481515	0.0238824	0.0241517	0.038067	0.0485827	0.012653	0.0275469	0.00523868	0.0106307	0.0133982	0.0836322	0.0726055	0.0183925	0.0849724	0.0850185	0.0845348	0.026895	0.0166258	0.0154337	0.0393035	0.0399896	0.0128376	0.00209777	0.0456976	0.0354442	0.0413414	0.0331082	0.00785023	0.0207471	0.0377269	0.00502372	0.00577851	0.00532937	0.0220455	0.0477506	0.020625	0.0219605	0.0166296	0.0123723	0.00892912	0.0118471	0.03463	0.0854813	0.04001	0.0467807	0.0243955	1.85003e-07	0.0310889	0.0362576	0.0179386	0.0102315	0.00200481	0	0.0571006	0.0662803	0	0.0166814	0.025376	0.0778086	0.0848478	0	0.0323849	0.0869175	0.0373867	0.0358262	0.0301132	1.03247e-06	1.90563e-07	0.0842726	0.0847247	7.33037e-07	0.00497998	0.00522557	
3.22	0.0104597	1.9726e-07	0.0155866	0.0159518	0.0183224	1.88714e-06	0.0209126	0.0502331	0.023991	0.0242685	0.0380275	0.0484865	0.0131346	0.0284181	0.00474987	0.0101314	0.0126086	0.0835148	0.0707746	0.0174369	0.0848185	0.084881	0.0844356	0.0267546	0.0175792	0.0154208	0.0392479	0.0376725	0.0134645	0.00232232	0.0480896	0.0350871	0.0409267	0.0328751	0.00855958	0.0208546	0.037672	0.00457947	0.00536179	0.00492017	0.0252245	0.0465797	0.0143777	0.0181745	0.0107242	0.0128367	0.00925596	0.0104336	0.0338845	0.0847629	0.0388537	0.0469453	0.0236165	1.77739e-07	0.0301519	0.0362333	0.0175823	0.0044962	0.00234915	0	0.0604358	0.0579123	1.69769e-05	0.0157091	0.0319086	0.0777823	0.0848655	1.35203e-05	0.0380292	0.0868341	0.0364652	0.0329802	0.0287653	1.08804e-06	1.82956e-07	0.0842198	0.0851796	1.41549e-06	0.0049749	0.00543974	
3.225	0.0104102	7.06494e-08	0.0146311	0.0148997	0.0171463	6.75939e-07	0.0201559	0.0522515	0.0240063	0.0242831	0.038013	0.0484484	0.0136471	0.0293204	0.00425772	0.00962084	0.0118512	0.0833866	0.0686225	0.0164962	0.0846491	0.084734	0.0843349	0.0265771	0.0185501	0.0154301	0.0392282	0.0355318	0.0141183	0.0026455	0.0506419	0.0345894	0.0403933	0.0328059	0.00931924	0.0208455	0.0376532	0.00422217	0.00500277	0.00457244	0.0264576	0.044964	0.00926025	0.0132611	0.00631716	0.0132908	0.00942907	0.00927348	0.0328746	0.0841891	0.0378959	0.0471377	0.0229115	6.36581e-08	0.0297928	0.036616	0.0184926	0.00353976	0.00233247	0.00201503	0.0622134	0.0403012	0	0.0148767	0.036186	0.0777923	0.0849019	0	0.040461	0.0867282	0.0354753	0.0303311	0.0275444	4.57063e-07	6.5533e-08	0.0841696	0.0856207	4.22435e-07	0.00492203	0.00582001	
3.23	0.010437	1.06322e-08	0.0137563	0.0139027	0.0160665	9.87866e-08	0.0193319	0.0541666	0.0239213	0.0241882	0.0380259	0.0484736	0.0141955	0.0302627	0.00381387	0.00910184	0.0111177	0.0832509	0.0661734	0.0156004	0.0844683	0.0845812	0.0842352	0.0263665	0.0195382	0.0154614	0.0392471	0.0335663	0.0148079	0.00299483	0.0533466	0.0339519	0.0397478	0.0329119	0.0100656	0.0207119	0.0376734	0.00394953	0.004694	0.00428961	0.026588	0.0431174	0.0059325	0.00875248	0.00373816	0.0134781	0.009641	0.00822474	0.0320013	0.0840024	0.0379112	0.0473862	0.022319	9.53474e-09	0.0298082	0.0374132	0.0201242	0.00362035	0.00241831	0.00195651	0.0632489	0.0200919	0	0.0142805	0.0387698	0.0778119	0.0849475	0	0.0414342	0.0866347	0.0344297	0.0278202	0.0264426	9.1773e-08	9.81114e-09	0.0841148	0.0860392	3.62683e-08	0.00485954	0.0063764	
3.235	0.0105415	0	0.0129598	0.0129693	0.0151092	0	0.0184471	0.0559482	0.0237329	0.0239803	0.0380672	0.0485651	0.0147887	0.0312519	0.00335834	0.00857891	0.0104024	0.0831109	0.0634668	0.0147811	0.0842802	0.084426	0.0841387	0.0261296	0.0205505	0.0155146	0.0393063	0.0317481	0.0155368	0.00328421	0.0561876	0.0331797	0.0390038	0.0331986	0.0107725	0.0204498	0.0377341	0.00373749	0.00443678	0.00406594	0.0260134	0.0411352	0.00399229	0.00560333	0.00203786	0.0141455	0.00993396	0.00719553	0.0315701	0.0839493	0.0386535	0.0476984	0.0218154	0	0.0298339	0.0382705	0.021974	0.00370633	0.00268543	0.00200522	0.0639406	0.00712046	3.56479e-05	0.0137899	0.0399988	0.0778678	0.0849886	2.54262e-05	0.0415071	0.0865519	0.0333396	0.0255086	0.0255064	0	0	0.0840564	0.0864115	0	0.00483195	0.00710768	
3.24	0.0107244	0	0.0122323	0.0120936	0.0142906	0	0.0175102	0.0575625	0.0234412	0.0236596	0.0381367	0.0487235	0.0154335	0.0322904	0.00274082	0.00805779	0.00969983	0.0829694	0.060573	0.0140354	0.0840889	0.0842716	0.0840469	0.0258754	0.0215927	0.0155891	0.0394064	0.0300708	0.0163014	0.00350782	0.0591287	0.0322825	0.0381806	0.033666	0.0114333	0.0200597	0.0378354	0.00355963	0.00423266	0.00389552	0.0249499	0.0390542	0.00278774	0.00386492	0.000846926	0.0152378	0.0103227	0.0062324	0.0312456	0.0838961	0.0396648	0.0480794	0.0213807	0	0.0297799	0.0389735	0.0238774	0.00381393	0.00299	0.00200224	0.0570643	0.00411872	0	0.0133399	0.04011	0.0780418	0.085022	0	0.0409806	0.0864691	0.0322148	0.0234771	0.0247736	0	0.00377245	0.0839959	0.086701	0	0.00483791	0.00796926	
3.245	0.0109853	0.00192027	0.0115642	0.0112637	0.0136055	0	0.0165352	0.0589981	0.0230504	0.0232311	0.0382329	0.0489467	0.0161315	0.0333775	0.00215061	0.00754414	0.00900824	0.0828285	0.0575725	0.0133244	0.0838976	0.0841205	0.083961	0.0256152	0.022665	0.0156831	0.0395462	0.0285595	0.0170925	0.00368255	0.0620843	0.0312742	0.0373013	0.0343084	0.0120443	0.0195476	0.0379756	0.00340698	0.00407595	0.00376346	0.0235655	0.0369017	0.00203151	0.00301328	1.15626e-06	0.0161568	0.0108312	0.00545657	0.0308281	0.0838373	0.0407005	0.0485342	0.0210113	0	0.0296873	0.0394507	0.0258352	0.00393803	0.00326975	0.00206823	0.0418955	0.00398679	2.94696e-05	0.0129499	0.0392608	0.0783775	0.0850485	4.42162e-07	0.0399597	0.0863311	0.0310649	0.0217819	0.0242739	0	0.00788417	0.0839344	0.0868757	2.65578e-07	0.00479777	0.00885658	
3.25	0.0113242	0.00222997	0.0109492	0.0104708	0.0130417	0	0.0155465	0.0602491	0.0225695	0.0227049	0.0383531	0.0492298	0.0168786	0.0345133	0.00201506	0.00704254	0.00833537	0.0826899	0.0545668	0.0126934	0.0837097	0.0839747	0.0838811	0.0253614	0.0237623	0.0157942	0.0397232	0.027237	0.0179008	0.00382068	0.0649772	0.0301762	0.0363907	0.0351158	0.0125995	0.0189241	0.0381512	0.00327661	0.00395665	0.0036566	0.0220337	0.0346982	0.00202118	0.00247487	0	0.0165456	0.0114936	0.00487328	0.0303238	0.0837828	0.0416371	0.0490653	0.0207139	0	0.0295578	0.0396419	0.0278075	0.00406896	0.00352759	0.00230268	0.0272863	0.0040322	1.91367e-07	0.0126552	0.0375892	0.0788928	0.0850674	3.46623e-05	0.0385301	0.0861463	0.0299055	0.0204541	0.0240416	0	0.0117377	0.0838732	0.0869464	6.15547e-07	0.00466898	0.00970232	
3.255	0.0117403	0.00241301	0.0103834	0.00970821	0.0125885	1.68866e-09	0.0145783	0.0613338	0.0220113	0.0220954	0.0384933	0.0495655	0.0176668	0.0357034	0.0016789	0.00655757	0.00769218	0.0825546	0.0516033	0.01211	0.0835278	0.0838356	0.083807	0.025127	0.0248773	0.015919	0.0399334	0.026105	0.018721	0.00392723	0.0677466	0.0290185	0.0354701	0.0360773	0.0130938	0.0182036	0.0383573	0.00316449	0.00386302	0.00356673	0.0204973	0.0323907	0.0019677	0.00229721	7.40245e-06	0.0163893	0.0123477	0.00443673	0.0297567	0.0837317	0.0424798	0.0496744	0.0204993	1.94114e-10	0.029362	0.0395041	0.0296462	0.00421002	0.00377028	0.00269803	0.0168369	0.00412988	3.36992e-05	0.0124736	0.035233	0.0795443	0.0850771	0	0.0367749	0.0859246	0.0287572	0.01951	0.0241247	0	0.015257	0.0838133	0.0869606	0	0.00446421	0.0104846	
3.26	0.0122338	0.00258202	0.00986426	0.00897387	0.0122385	1.60507e-09	0.0136636	0.0622699	0.0213927	0.0214215	0.0386484	0.0499444	0.0184872	0.0369585	0	0.00609588	0.00708694	0.0824233	0.0487282	0.0115661	0.0833542	0.0837042	0.0837379	0.0249253	0.0260014	0.0160537	0.0401713	0.025148	0.0195531	0.00400081	0.0703495	0.0278353	0.0345559	0.0371816	0.0135246	0.0174044	0.0385874	0.00306367	0.00378397	0.00348677	0.0190373	0.0298978	0.00197196	0.00232364	5.66543e-06	0.015887	0.0134515	0.00413102	0.0291336	0.0836231	0.0432747	0.0503614	0.0203825	1.59013e-10	0.0290937	0.0390715	0.0311045	0.00445416	0.00401666	0.00314643	0.0101736	0.00425646	0	0.0124112	0.0323266	0.0802458	0.085077	2.46583e-07	0.0347758	0.0856945	0.0276396	0.0189615	0.024589	0	0.018043	0.083756	0.0869478	0	0.00423909	0.011221	
3.265	0.0128065	0.00289271	0.00939317	0.00827522	0.0119865	6.08798e-10	0.0128209	0.063091	0.0207327	0.0207041	0.0388128	0.0503552	0.0193328	0.0382854	1.57913e-07	0.00566197	0.00652628	0.0822964	0.0459792	0.0110513	0.0831904	0.083581	0.0836725	0.0247692	0.0271255	0.0161941	0.0404304	0.0243382	0.0204008	0.00403693	0.0727503	0.0266614	0.033661	0.0384139	0.0138911	0.0165524	0.0388343	0.00296443	0.00371052	0.00340921	0.0176804	0.0272214	0.00201786	0.00250056	1.85685e-06	0.0152414	0.0148944	0.00394945	0.0284577	0.0832602	0.0440454	0.0511226	0.0203808	6.05568e-11	0.0287646	0.0384273	0.0320314	0.00484733	0.00429028	0.00352499	0.00663029	0.00438224	3.71104e-05	0.0124744	0.028998	0.0809274	0.0850673	4.45901e-05	0.0325984	0.0854437	0.0265695	0.0188232	0.0255186	0	0.0200526	0.0837022	0.0869083	0	0.00401465	0.0119011	
3.27	0.0134654	0.00319501	0.00897686	0.00762365	0.0118293	0	0.0120564	0.0638312	0.0200526	0.0199663	0.0389807	0.0507847	0.0201991	0.0396797	0	0.00524931	0.00601958	0.0821737	0.04337	0.0105529	0.0830376	0.0834658	0.0836092	0.0246707	0.0282402	0.0163356	0.040703	0.023641	0.0212678	0.00403182	0.0749337	0.0255292	0.0327984	0.0397495	0.0141921	0.0156833	0.0390896	0.00285567	0.00363429	0.00332544	0.0164303	0.0244428	0.00200768	0.00279451	0	0.0145853	0.0167795	0.00396746	0.0277377	0.0826028	0.0447865	0.0519499	0.0205129	9.53109e-12	0.0283833	0.0376473	0.0325267	0.00536395	0.0045817	0.00385503	0.00495767	0.0044943	0.00348011	0.0126752	0.0254188	0.0815601	0.0850489	0	0.0302933	0.0851825	0.0255584	0.0191397	0.0270105	0	0.0211115	0.0836533	0.0868375	4.99337e-08	0.00379843	0.0125175	
3.275	0.0142224	0.00342633	0.00861736	0.00702661	0.0117642	0	0.0113701	0.0645212	0.0193749	0.0192325	0.039146	0.0512185	0.0210817	0.0411271	7.92063e-06	0.00485002	0.00557035	0.0807764	0.0409113	0.0100566	0.0828965	0.0833584	0.0835465	0.0246409	0.0293368	0.0164737	0.0409807	0.0230159	0.0221547	0.00398471	0.0768876	0.0244668	0.0319828	0.0411537	0.0144248	0.014842	0.039345	0.00272763	0.00354658	0.0032257	0.0152997	0.02166	0.00202496	0.00312449	0	0.0139887	0.0191877	0.00428619	0.0269849	0.0816942	0.0454893	0.0528312	0.0207968	0	0.0279548	0.0367874	0.0327764	0.00597417	0.00487015	0.0042024	0.00420016	0.00458298	0.00784885	0.0130315	0.0218361	0.0821438	0.0850225	2.58438e-06	0.0279205	0.0849156	0.0246138	0.0199946	0.0291601	0	0.0208372	0.08361	0.0867381	4.5714e-07	0.00360312	0.0130811	
3.28	0.0150999	0.00362082	0.00831732	0.00648933	0.0117883	0	0.0107614	0.0651976	0.0187225	0.0185272	0.0393032	0.0516422	0.0219725	0.0426066	2.9276e-06	0.00446986	0.00516994	0.0771729	0.0386044	0.00954828	0.0827674	0.0832582	0.0834827	0.0246896	0.030407	0.016604	0.0412545	0.0224192	0.0230609	0.00389778	0.0786099	0.0234971	0.0312307	0.0425825	0.0145862	0.014071	0.039592	0.00257334	0.00343769	0.00309836	0.0143058	0.0189323	0.00218573	0.00341729	0	0.0134893	0.0221681	0.00480662	0.0262104	0.0805693	0.0461478	0.0537511	0.0212472	0	0.0274824	0.0358863	0.0329089	0.0066741	0.00513455	0.00459086	0.00388545	0.00463793	0.00768118	0.0135667	0.0185356	0.0826889	0.0849893	5.27852e-06	0.0255616	0.0846437	0.0237406	0.0214781	0.032022	0	0.0185403	0.0835728	0.0866184	1.19478e-07	0.00350716	0.0136964	
3.285	0.0161077	0.00380067	0.00807687	0.0060187	0.0118983	0	0.0102306	0.0658956	0.0181182	0.017875	0.0394474	0.0520425	0.0228589	0.0440924	6.64036e-07	0.00412633	0.00481232	0.0717892	0.0364413	0.00901631	0.0826503	0.0831646	0.0828169	0.0248253	0.0314446	0.0167224	0.0415154	0.0218067	0.0239844	0.00377282	0.0801041	0.0226375	0.0305598	0.0439845	0.0146737	0.0133996	0.0398226	0.0023938	0.00329523	0.00292884	0.013452	0.0162417	0.002474	0.00366908	0	0.0131149	0.0257592	0.00544553	0.0254253	0.0792637	0.0467566	0.0546923	0.0218741	1.05421e-12	0.026966	0.034963	0.0330067	0.00743125	0.00536114	0.00498566	0.00371104	0.00464962	0.00748269	0.0143147	0.015729	0.0832038	0.0849504	1.32639e-05	0.0233118	0.084391	0.022941	0.023657	0.0354947	0	0.0155205	0.0835424	0.0864868	1.52847e-08	0.00340745	0.0142959	
3.29	0.0172396	0.00397783	0.00789437	0.00561535	0.0120901	0	0.00977804	0.0666416	0.0175849	0.0173011	0.0395746	0.0524065	0.0237242	0.0455539	0	0.00382667	0.00450307	0.0651935	0.0343823	0.00844944	0.0825454	0.0830775	0.0799882	0.0250552	0.0324455	0.0168251	0.0417544	0.021136	0.0249238	0.00361526	0.0813793	0.0218995	0.0299847	0.0453032	0.0146863	0.0128458	0.0400295	0.0022058	0.00310231	0.00270796	0.0127413	0.0136121	0.00282608	0.00389651	0	0.012893	0.029957	0.00617316	0.0246405	0.0778075	0.047312	0.0556384	0.022682	2.51778e-12	0.0264012	0.0340173	0.0330818	0.00820414	0.00554148	0.00535181	0.00355704	0.0046171	0.00779577	0.015323	0.0135206	0.0836903	0.0849068	0	0.0212599	0.08419	0.0222147	0.0265559	0.0393373	4.28557e-09	0.0130746	0.0835193	0.0863494	0.0019923	0.00844308	0.0151718	
3.295	0.0184869	0.00416204	0.00776691	0.00527088	0.0123594	0	0.00940521	0.0674614	0.0171449	0.0168305	0.0396815	0.052722	0.0245495	0.0469576	0	0.00353383	0.00424683	0.058042	0.032331	0.00783863	0.0824528	0.0829966	0.0753117	0.0253853	0.0334104	0.0169087	0.0419628	0.0203674	0.0258775	0.00343231	0.0824455	0.0212897	0.0295152	0.0464805	0.0146246	0.0124224	0.0402065	0.00205102	0.00283663	0.00244862	0.0121859	0.0111283	0.00315366	0.00412077	0	0.012847	0.0346489	0.00701035	0.0238661	0.0762388	0.0478113	0.0565747	0.0236683	2.81816e-12	0.0257812	0.0330337	0.0331111	0.00895829	0.0056673	0.00567592	0.0033695	0.00465329	0.00809405	0.0166417	0.0118388	0.0841447	0.0848598	0	0.0194618	0.0839429	0.0215614	0.0301	0.0432069	2.41325e-09	0.0111094	0.0835036	0.08621	0.00443047	0.01639	0.0167643	
3.3	0.0198597	0.00436242	0.00769009	0.00497891	0.0127055	0	0.00911294	0.0683782	0.0168183	0.016485	0.0397657	0.0529779	0.0253143	0.0482677	0	0.00318833	0.00403896	0.0511482	0.0302146	0.00717564	0.0823725	0.082922	0.0693548	0.02582	0.0343485	0.0169703	0.0421325	0.0194663	0.026844	0.00322017	0.0833109	0.0208099	0.0291555	0.0474592	0.0144909	0.0121407	0.0403479	0.00200312	0.00250726	0.00219273	0.0118038	0.00877626	0.00341467	0.0043429	0	0.012994	0.0395733	0.00797378	0.0231111	0.0745945	0.0482538	0.0574884	0.0248232	2.69742e-12	0.0250983	0.0320004	0.0330776	0.00965766	0.00573089	0.00594937	0.0031054	0.00478332	0.00814662	0.0182934	0.0105088	0.0845631	0.0848106	8.81324e-09	0.01786	0.0837203	0.0209811	0.0340249	0.0466032	1.87884e-09	0.00962098	0.0834954	0.0860715	0.00610137	0.0232396	0.0188205	
3.305	0.0214009	0.00466152	0.00765902	0.0047369	0.0131219	9.606e-10	0.00889902	0.0694026	0.0166214	0.0162819	0.0398254	0.0531647	0.0259971	0.0494469	0	0.00274256	0.00386973	0.0451723	0.0280432	0.00645457	0.082305	0.0828544	0.0625892	0.0263625	0.0352768	0.0170072	0.0422561	0.0184017	0.0278216	0.00295948	0.083988	0.0204572	0.028906	0.0481859	0.0142895	0.0120111	0.0404491	0.00199948	0.00218722	0.00202041	0.0116137	0.00653873	0.0036222	0.00454734	0	0.0133465	0.0441161	0.00910701	0.0223832	0.0729047	0.0486398	0.0583697	0.0261274	2.53104e-12	0.0243476	0.0309158	0.0329768	0.0102714	0.00572631	0.00616183	0.00271959	0.00496161	0.00804077	0.0202608	0.00939144	0.0849409	0.0847604	1.64043e-05	0.0163837	0.0835155	0.0204813	0.0375067	0.048838	0	0.00822117	0.0834947	0.0859364	0.00734776	0.0291975	0.0206961	
3.31	0.0231644	0.00511477	0.00766788	0.00454444	0.0135999	0	0.00875754	0.0705374	0.016566	0.0162329	0.0398589	0.0532739	0.0265763	0.0504588	0	0.00227965	0.00372147	0.0401776	0.0258692	0.00568318	0.0822505	0.0827945	0.0555919	0.0270136	0.0362152	0.0170169	0.0423268	0.0171463	0.0288086	0.0026359	0.0844816	0.0202252	0.028763	0.0486129	0.0140263	0.012042	0.0405059	0.00155328	0.00200534	0.00201964	0.0116259	0.0044839	0.00379101	0.00472034	0	0.0139209	0.0462946	0.0104264	0.0216887	0.0712047	0.0489702	0.0592106	0.0275484	2.41029e-12	0.0235328	0.0297886	0.0328138	0.0107746	0.00565035	0.00630314	0.00227481	0.00513989	0.00783542	0.0225123	0.0084172	0.0852779	0.08471	0	0.0151043	0.083326	0.0200809	0.0385852	0.0495487	0	0.00670015	0.0835014	0.085807	0.00828487	0.0300619	0.0220281	
3.315	0.0251901	0.00570475	0.0077106	0.00439571	0.0141511	0	0.00867869	0.0717763	0.01666	0.0163454	0.0398646	0.0532979	0.0270294	0.0512656	0	0.00201384	0.00357919	0.0360515	0.0237315	0.00484317	0.0811487	0.0827433	0.0490736	0.0277715	0.0371854	0.0169971	0.0423388	0.0156866	0.0298022	0.00229855	0.0847992	0.0201031	0.0287191	0.0486995	0.0137095	0.0122385	0.0405145	0.000317589	0.00201382	0.00183965	0.0118423	0.00270903	0.00393021	0.00485179	0	0.0147517	0.0466426	0.0119189	0.0210323	0.0695195	0.0492482	0.0600047	0.0290451	2.3239e-12	0.0227364	0.0286488	0.0326015	0.0111485	0.00550252	0.00636618	0.00200448	0.00527684	0.00752652	0.0249979	0.00743597	0.0855724	0.0846606	0	0.0140689	0.0831559	0.019811	0.0382269	0.0493082	0	0.00499193	0.0835154	0.0856841	0.00893003	0.0283368	0.022801	
3.32	0.0274948	0.0064304	0.00778079	0.0042822	0.0147604	0	0.00865103	0.0731022	0.0169079	0.0166233	0.0398403	0.0532296	0.0273351	0.0518304	0	0.00201317	0.00343136	0.0325044	0.0216498	0.00396883	0.0749896	0.0824081	0.0433969	0.028632	0.0382013	0.0169454	0.0422871	0.0140531	0.0307987	0.00205005	0.0849468	0.0200777	0.0287646	0.0484134	0.0133482	0.0126021	0.0404708	0	0.00151007	0.000861671	0.0122592	0.00195742	0.00404131	0.00493535	0	0.0158979	0.0464197	0.0135526	0.0204172	0.0678754	0.0494787	0.0607484	0.0305643	2.24937e-12	0.0218976	0.0275284	0.0323456	0.0113787	0.00528495	0.00634818	0.00194257	0.00534029	0.00710632	0.0275872	0.00650508	0.0858236	0.0846125	9.75223e-06	0.0132717	0.0830092	0.019702	0.03783	0.0488199	1.05265e-08	0.00312105	0.0835367	0.0855683	0.00924949	0.0267194	0.0231515	
3.325	0.0300607	0.00728912	0.00787171	0.00419499	0.0154327	0	0.00866095	0.0744931	0.0173113	0.0170677	0.0397831	0.053062	0.027472	0.0521185	0	0.00137174	0.00326741	0.0291468	0.0196197	0.00303192	0.0657464	0.0776525	0.0385696	0.0295854	0.0392762	0.0168596	0.0421674	0.0123083	0.031793	0.00201384	0.0849535	0.0201323	0.0288864	0.0477316	0.0129531	0.013133	0.0403705	0	8.0028e-05	0	0.0128688	0.000747396	0.00412121	0.00503212	0.003367	0.0174148	0.0461144	0.0153123	0.0198457	0.0662968	0.0496645	0.0614388	0.0320478	2.17584e-12	0.021005	0.0264034	0.0320339	0.0114563	0.00500078	0.00625068	0.0170693	0.00530575	0.00658438	0.0300562	0.00573052	0.0860308	0.0845666	0	0.0126753	0.0828881	0.0197973	0.0378335	0.0483187	0	0.000566829	0.0835666	0.0854604	0.00929663	0.025971	0.0232098	
3.33	0.0328041	0.00825099	0.00797696	0.00412572	0.0161576	0	0.00869433	0.0759072	0.0178687	0.017676	0.0396892	0.0527886	0.0274207	0.0520976	0	6.47428e-08	0.00307575	0.0259822	0.0176071	0.00200056	0.0559593	0.0691128	0.0344852	0.0306174	0.0404211	0.0167372	0.0419765	0.010481	0.0327797	0.00190621	0.0849444	0.0202488	0.0290694	0.0466428	0.0125353	0.0138327	0.040209	3.20831e-06	0	0	0.0136621	0.000610789	0.00423631	0.00525483	0.00346204	0.0181888	0.0457666	0.0171684	0.0193193	0.0647971	0.0498093	0.0620733	0.0334328	2.10044e-12	0.0200841	0.0253005	0.0317017	0.0113805	0.00465734	0.00607938	0.0292214	0.00515827	0.00598451	0.0321026	0.00511593	0.0861941	0.084523	0	0.0122492	0.0827956	0.0201457	0.0382554	0.0478605	0	0	0.0836073	0.085361	0.00914613	0.0261909	0.0230566	
3.335	0.0356334	0.0092911	0.00809	0.00406691	0.0169209	0.00364021	0.0087365	0.0773093	0.0185762	0.0184432	0.039554	0.052403	0.0271632	0.0517397	0	0	0.00284446	0.0231207	0.0156121	0	0.0475932	0.0592507	0.0307254	0.0317116	0.0416473	0.0165761	0.0417122	0.0085498	0.0337561	0.00119988	0.0849367	0.0204071	0.0292959	0.0451492	0.0121065	0.0147086	0.0399816	2.88424e-06	0	0	0.0134104	0.00157762	0.00443626	0.00561376	0.00329515	0.0173511	0.0453157	0.0190436	0.0188382	0.0633923	0.0499153	0.0626512	0.0346548	2.02413e-12	0.0191351	0.0242254	0.0314154	0.0111725	0.00428494	0.00584502	0.0314333	0.00541621	0.00533108	0.0334238	0.00462206	0.0863157	0.0844821	1.89837e-10	0.0119773	0.0827327	0.0208023	0.0390767	0.0474965	0	0	0.0836636	0.0852698	0.00886759	0.0272536	0.0227491	
3.34	0.0387347	0.0103758	0.00820423	0.0040125	0.0177054	0.00433371	0.00877427	0.0786499	0.0194296	0.0193642	0.0393723	0.0519005	0.0266866	0.0510255	0	0	0.00258312	0.0205713	0.0137703	0	0.0412118	0.0502054	0.0270529	0.0328417	0.0429647	0.0163746	0.0413737	0.00648921	0.0347261	0.000129337	0.0849284	0.0205874	0.0295477	0.0432704	0.0116781	0.0157711	0.0396835	1.10254e-06	5.63693e-06	5.74046e-06	0.0114142	0.00200915	0.00471242	0.00606192	0.00348674	0.014983	0.0447812	0.0208544	0.0184028	0.0620931	0.0499852	0.0631725	0.0356424	1.94752e-12	0.0181558	0.0231749	0.0311628	0.0109105	0.00398259	0.00555565	0.0289475	0.0175138	0.00462293	0.0338302	0.00425296	0.0863979	0.0844439	7.23173e-06	0.0118585	0.0827032	0.0218389	0.0403292	0.0472607	0	6.81861e-05	0.0837364	0.0851862	0.0085235	0.0289737	0.0223486	
3.345	0.0423865	0.0114822	0.0083137	0.00395688	0.0184987	0.00346421	0.00879274	0.0798828	0.0204294	0.020441	0.0391389	0.0512778	0.0259823	0.0499431	0	6.08112e-06	0.00232238	0.0182669	0.0121473	0	0.0364071	0.0431317	0.0236296	0.033984	0.0443833	0.0161318	0.0409617	0.00430244	0.0357007	0	0.0849194	0.0207668	0.0298034	0.0410457	0.0112625	0.0170183	0.0393108	5.0027e-09	2.7682e-06	1.54725e-06	0.0085175	0.00211897	0.00503963	0.00656372	0.00355257	0.0117326	0.0441887	0.0225594	0.0180121	0.0609063	0.0500272	0.0636382	0.0363052	1.87132e-12	0.0171485	0.0221696	0.0309235	0.0105293	0.00376992	0.00522373	0.0259496	0.0216982	0.00400656	0.0334264	0.00398567	0.0864482	0.0844084	0	0.0118849	0.0827039	0.0233309	0.0420208	0.0471727	0	2.75146e-05	0.0837723	0.0851098	0.00819032	0.030562	0.0219472	
3.35	0.0467323	0.0125951	0.00841217	0.00389581	0.0192897	0.00373825	0.00877953	0.0809684	0.0215807	0.0216823	0.0388491	0.0505331	0.0250513	0.0481384	0	2.44488e-06	0.00210921	0.0161565	0.0106854	2.15487e-05	0.0326181	0.0377805	0.0205419	0.0351271	0.0459106	0.0158478	0.040479	0.00200304	0.0366895	0	0.0849098	0.020924	0.0300429	0.0385376	0.0108723	0.0184257	0.038861	0	8.91727e-07	2.59763e-07	0.00583941	0.00206317	0.00538332	0.00708078	0.00351838	0.00851353	0.0435646	0.0241551	0.0176658	0.0598341	0.0500536	0.0640497	0.0365499	0	0.0161178	0.0212413	0.0306834	0.0100784	0.00366791	0.00485442	0.0237917	0.0223106	0.00353191	0.0325633	0.00378114	0.0864768	0.0843755	0	0.0120527	0.0827364	0.0253711	0.0441289	0.0472419	5.86319e-10	5.74791e-06	0.0835658	0.0850405	0.00794688	0.0316654	0.0216339	
3.355	0.0518504	0.0137104	0.00849426	0.00382508	0.0200716	0.00367492	0.00872165	0.08188	0.0228897	0.0230993	0.0384992	0.0496687	0.0239027	0.0459209	0	5.44368e-07	0.0020026	0.0143302	0.00932202	8.15458e-06	0.0292674	0.0336527	0.0177119	0.0362701	0.0475534	0.0155248	0.0399303	5.0371e-07	0.0377004	2.25908e-06	0.0848992	0.0210363	0.0302447	0.035828	0.0105206	0.0199809	0.0383338	0	0	0	0.00391529	0.00201722	0.00572431	0.00758103	0.00344052	0.00594935	0.0429825	0.0256376	0.0173633	0.0588807	0.0500773	0.064409	0.0363799	0	0.0150833	0.0203682	0.0304388	0.00958316	0.00361064	0.00446928	0.0203237	0.0237327	0.00298728	0.031522	0.0035901	0.0864958	0.084345	0	0.0123523	0.0827949	0.0280413	0.0467215	0.0474766	1.81727e-09	0	0.0831568	0.0849785	0.00784147	0.0322769	0.0214446	
3.36	0.0577418	0.0148264	0.0085546	0.00374077	0.0208358	0.00357134	0.00860693	0.0825947	0.0243571	0.0246956	0.038088	0.0486921	0.0225557	0.0434779	0	0	0.0020215	0.0128553	0.00802433	1.52404e-06	0.0263176	0.030072	0.0151006	0.0374079	0.0493154	0.0151668	0.0393229	0	0.0387384	3.31946e-06	0.0848878	0.0210813	0.030388	0.0329667	0.0102217	0.021713	0.037732	0	0	0	0.00246855	0.000817204	0.00604766	0.00804145	0.00331403	0.00419366	0.0424678	0.0269415	0.0171034	0.0580436	0.0501034	0.0647184	0.0359766	0	0.0140682	0.0195181	0.0301774	0.00906758	0.00352076	0.00421622	0.0132215	0.0264159	0.00234904	0.0303975	0.00340037	0.0865167	0.0843169	1.35766e-06	0.012781	0.0828755	0.0313835	0.0499081	0.0478796	2.36353e-09	0	0.0826724	0.0849238	0.00789118	0.0323561	0.0213435	
3.365	0.0641043	0.0159511	0.00858868	0.00363828	0.0215684	0.00345016	0.0084242	0.0831138	0.0259741	0.0264634	0.0376166	0.047614	0.021037	0.0408595	0	0	0.0018493	0.0116629	0.00680109	0	0.0238449	0.0268663	0.0129252	0.0385215	0.0512001	0.0147801	0.0386663	1.44109e-05	0.0397983	6.95523e-07	0.0848755	0.0210379	0.0304535	0.0299282	0.0099899	0.0236654	0.0370616	0	0	0	0.00201636	5.84938e-06	0.00633939	0.00844552	0.00312266	0.00312727	0.0419954	0.0279336	0.0168849	0.057323	0.0501306	0.0649806	0.0355387	8.8009e-07	0.0130791	0.018663	0.0298485	0.00856086	0.00342704	0.00410686	0.00680171	0.0279332	0.00517044	0.0292122	0.0032364	0.0865441	0.0842909	1.24459e-06	0.0133585	0.0829721	0.0353322	0.0537123	0.0484517	3.24753e-09	0	0.0821836	0.0848754	0.00809165	0.0320623	0.0212642	
3.37	0.0702237	0.0170767	0.00859248	0.00351141	0.0222529	0.00330148	0.00816317	0.0834531	0.0277206	0.0283792	0.0370895	0.0464511	0.0193736	0.0381642	0	0	0.00104131	0.0106779	0.00569151	0	0.0218271	0.0241476	0.0111863	0.0395787	0.0532055	0.0143728	0.0379722	3.44776e-05	0.0408756	0	0.0848622	0.0208867	0.030423	0.0267364	0.00983933	0.0258502	0.0363323	0	0	0	0.000649011	0	0.00658521	0.00878155	0.00285096	0.00217162	0.041532	0.028542	0.0167063	0.0567161	0.0501539	0.0651983	0.0351446	6.3839e-06	0.0121088	0.017779	0.0293968	0.00809255	0.00333794	0.00403985	0.00311137	0.026451	0.0118527	0.0279892	0.00314209	0.0865745	0.0842668	1.00514e-07	0.0141296	0.0830778	0.0342574	0.0580666	0.0491904	1.1057e-10	0	0.0817252	0.0848321	0.00840808	0.0314761	0.0211468	
3.375	0.0755488	0.018178	0.00856273	0.00335104	0.0228713	0.00311497	0.00781502	0.0836402	0.0295619	0.0304001	0.0365141	0.0452251	0.0175846	0.0354837	0	0	0	0.00985948	0.00469744	0	0.0202109	0.0219185	0.00974207	0.0405408	0.0553254	0.0139542	0.0372538	9.64136e-06	0.0419639	0	0.0848479	0.0206103	0.0302809	0.0235125	0.00978218	0.0282386	0.035556	0	0	0	9.83637e-07	3.56352e-08	0.00677413	0.00904203	0.00251641	0.00201739	0.0410574	0.0288549	0.0165658	0.0562176	0.050168	0.0653734	0.0348003	0	0.0111451	0.0168448	0.0287828	0.0076885	0.00325456	0.00400947	9.65651e-06	0.0249147	0.0185047	0.0267512	0.00315772	0.0866004	0.0842445	0	0.0151532	0.0831859	0.0236489	0.0628728	0.050118	3.31061e-09	0	0.0813215	0.0847931	0.00878145	0.0306474	0.020946	
3.38	0.0797528	0.0192369	0.00849715	0.00314459	0.0234054	0.00288384	0.00737234	0.0837117	0.0314478	0.0324609	0.0359011	0.0439617	0.0156954	0.0328504	0	0	0	0.00918485	0.00388806	0	0.0189485	0.0201242	0.00850791	0.0413672	0.0575476	0.0135336	0.0365256	0	0.0430552	0	0.0848324	0.0201949	0.0300146	0.0203767	0.00982787	0.0307608	0.034746	0	0	0	0	3.83437e-06	0.00689888	0.00922315	0.00219822	0.00180528	0.0405698	0.029024	0.0164614	0.055823	0.0501764	0.0655095	0.0345014	8.93925e-11	0.0101803	0.015854	0.0279831	0.00736887	0.00318404	0.012795	0	0.0168328	0.0233552	0.0255125	0.00333509	0.0866131	0.0842239	0	0.016482	0.0832901	0.012099	0.0679177	0.0512885	0	0	0.0809898	0.0847578	0.00914785	0.0295991	0.0206321	
3.385	0.0826933	0.0202461	0.00839445	0.00287625	0.0238391	0.00261821	0.00682912	0.0837053	0.0333169	0.0344929	0.0352626	0.0426891	0.0137911	0.0302358	0	0	0	0.00865012	0.00322858	0	0.0180081	0.0187099	0.00746651	0.0420174	0.0598344	0.0131208	0.0358017	0	0.0441408	0	0.0848156	0.0196296	0.0296111	0.0173656	0.00998215	0.0333036	0.0339159	0	0	0	1.82032e-06	0	0.00695518	0.00932354	0.00201116	0.000978722	0.0400766	0.029144	0.016391	0.0555275	0.0501737	0.0656095	0.0342546	1.48221e-05	0.00921165	0.0148174	0.0269992	0.00714711	0.00313576	0.0234147	0	0.00511785	0.0268657	0.024281	0.003686	0.0866138	0.084205	0	0.0181351	0.0833973	0.00668883	0.0729495	0.05274	0	0	0.0807402	0.084726	0.00947616	0.028369	0.0202127	
3.39	0.084408	0.0211979	0.00825449	0.00255924	0.0241597	0.00235484	0.00618463	0.0836484	0.0351258	0.0364869	0.0346124	0.0414366	0.0119733	0.0276632	0	0	4.13983e-06	0.00825969	0.00248874	0	0.0173699	0.0176403	0.00663373	0.0424549	0.0621422	0.0127245	0.0350948	0	0.045211	6.65352e-05	0.0847971	0.0189059	0.0290622	0.0145132	0.0102466	0.0357819	0.0330802	0	0	0	5.6685e-06	0	0.00694095	0.00934355	0.00202103	0	0.0395904	0.0292284	0.0163521	0.055326	0.050157	0.0656746	0.0340792	0	0.00824614	0.0137588	0.0258475	0.00702998	0.0031155	0.0345582	2.17306e-05	0.00159719	0.021518	0.023061	0.00422321	0.0866039	0.0841877	0	0.020094	0.0835129	0.00536407	0.0777457	0.0544904	2.50515e-08	0	0.0805754	0.0846976	0.00978159	0.0270281	0.0197374	
3.395	0.0850584	0.0220758	0.00807846	0.00225702	0.0243584	0.00213842	0.00544599	0.0835488	0.0368836	0.0384863	0.0339648	0.0402328	0.0102689	0.0252141	0	0	1.76482e-06	0.00801372	0.00207354	0	0.0170151	0.0168971	0.00602378	0.0426503	0.0644319	0.0123529	0.0344165	0	0.0462563	0.00201506	0.0847764	0.0180161	0.0283639	0.0119946	0.010619	0.0382647	0.0322546	0	0	0	0	0	0.00685591	0.00928468	0.00169434	0	0.0391424	0.0292465	0.016342	0.0552122	0.0501312	0.0657068	0.0339992	6.52744e-10	0.00730482	0.0127031	0.0245147	0.00701727	0.00312352	0.0439984	8.74023e-06	0.00165443	0.0088915	0.0218522	0.00507473	0.0865878	0.0841718	0	0.0223396	0.0835529	0.00520396	0.0820478	0.0565402	0	0	0.0804941	0.0846728	0.0100944	0.0256593	0.0192621	
3.4	0.0850109	0.0228595	0.00786878	0.00204886	0.0244304	0.00201459	0.00458252	0.0833859	0.0386092	0.0404908	0.0333343	0.0391032	0.00864726	0.0229589	0	0	4.77111e-07	0.00790711	0.0020008	0	0.0169205	0.0164602	0.00563068	0.0425839	0.066666	0.0120125	0.0337773	0	0.047266	0.00346753	0.0847531	0.016953	0.0275176	0.00989281	0.0110933	0.0408148	0.0314566	0	0	0	0	0	0.00670106	0.00914875	0.000341893	0	0.0387716	0.0291729	0.0163576	0.0551788	0.0500952	0.065709	0.0340378	1.90351e-05	0.00694694	0.0118939	0.0230521	0.0071027	0.00315503	0.0487668	0	0.00200668	0.0020206	0.0206493	0.00459687	0.0865692	0.0841577	0	0.0235093	0.0836038	0.00542187	0.0854292	0.0588537	3.14826e-09	0	0.080491	0.0846516	0.0103593	0.0243319	0.0187967	
3.405	0.0848946	0.0235295	0.00762925	0.00200672	0.0243766	0.00201316	0.00370189	0.083107	0.0402815	0.0424519	0.0327356	0.0380698	0.00707724	0.0209275	0	0	0	0.00793136	0.00201457	0	0.0170593	0.0163005	0.00543185	0.0422475	0.0688082	0.0117093	0.033187	0	0.0482297	0.00439828	0.0847267	0.0157184	0.0265301	0.00815657	0.0116615	0.0433848	0.0307049	0	0	0	0	1.46927e-06	0.00647849	0.00893764	0	3.71854e-06	0.0385029	0.0289987	0.0163952	0.0552169	0.0500516	0.0656846	0.034212	0	0.00706589	0.0113425	0.0215202	0.00727558	0.00320164	0.0506486	3.98184e-05	0.00199999	0.000577281	0.0194394	0.00317488	0.0865494	0.0841452	0	0.0141368	0.0836606	0.00583285	0.086874	0.0613721	0	0	0.0805572	0.0846341	0.0104085	0.0228781	0.0181224	
3.41	0.0847859	0.0240711	0.00736472	0.0019922	0.0242019	0.00198938	0.00245884	0.0826288	0.0418556	0.0443092	0.0321826	0.0371494	0.0055658	0.0191162	0	0	0	0.00807338	0.00201146	0	0.0174053	0.0163822	0.00540668	0.0416453	0.0708284	0.0114478	0.0326546	0	0.0491361	0.00528221	0.0846965	0.0143409	0.0254124	0.00671953	0.0123142	0.0458805	0.0300185	0	0	0	0	3.61898e-06	0.00619204	0.00865343	0	1.11918e-06	0.0383385	0.0286894	0.0164503	0.0553165	0.0500019	0.0656375	0.0345273	2.06107e-07	0.00753326	0.0111065	0.0199643	0.00752252	0.00325327	0.050294	0	0.00217745	0.00201279	0.0182022	0.00208303	0.0865282	0.0841347	0	0.00469841	0.0837155	0.00633098	0.0866797	0.0640057	8.20343e-10	0	0.0806807	0.0846201	0.0103154	0.0212653	0.0172774	
3.415	0.0846788	0.0244749	0.00708117	0.00164665	0.0239159	0.00169572	0.00180616	0.0818418	0.0432866	0.0460056	0.0316881	0.0363537	0.00411404	0.0175037	1.28405e-09	0	0	0.00831875	0.0020003	0	0.0179346	0.0166672	0.00552964	0.0407938	0.0726953	0.0112317	0.0321881	0	0.0499739	0.00616247	0.0846624	0.0128691	0.0241766	0.00556601	0.013043	0.048206	0.0294131	0	0	0	0	0	0.0116759	0.0100471	3.27273e-06	6.73643e-07	0.0382371	0.0282659	0.0165181	0.0554653	0.0499437	0.0655713	0.0349711	1.71468e-05	0.00827228	0.0111293	0.0184081	0.00782919	0.00377881	0.0488825	7.72302e-06	0.00263671	0.00254409	0.016916	0.00205474	0.086501	0.0841269	0	0.00202118	0.0837829	0.00687354	0.0861699	0.066613	2.73816e-09	0	0.0808468	0.08461	0.0101664	0.019607	0.0163664	
3.42	0.084576	0.0247362	0.00678538	0.000859604	0.0235315	0.000968049	0	0.0806199	0.0445355	0.0474915	0.0312632	0.0356891	0.00268188	0.0160795	8.5967e-10	0	0	0.00865404	0.00206499	0	0.0186272	0.0171229	0.00576857	0.0397211	0.0743917	0.0110631	0.031794	0	0.0507351	0.00718095	0.0846241	0.0113308	0.0228428	0.00467933	0.0138415	0.050273	0.0289006	0	0	0	0	0	0.0186889	0.0133474	3.11496e-06	0	0.0381048	0.0278179	0.0165926	0.0556488	0.0498852	0.0654916	0.0355176	0	0.00911668	0.0112691	0.0168625	0.00818071	0.0143571	0.0469091	0.00248693	0.00314165	0.00285836	0.0155794	0.00227631	0.0864731	0.0841222	0	0.00200138	0.0838696	0.00744294	0.0858158	0.0690118	0	1.35617e-09	0.0810385	0.0846043	0.0100401	0.0180371	0.0154912	
3.425	0.084479	0.0248552	0.00648577	0	0.0230646	0	0	0.0788472	0.0455713	0.0487273	0.0309165	0.0351583	0.00187147	0.0146058	1.84872e-10	0	0	0.00906711	0.00227759	0	0.0194693	0.0177227	0.00609525	0.0384633	0.0758924	0.010943	0.0314769	0	0.0514054	0.00835486	0.0845815	0.00971541	0.0214292	0.00410576	0.0147068	0.0520115	0.0284888	0	0.00369611	0.00296049	0	1.3564e-06	0.0233794	0.0169908	1.46023e-06	0	0.0378454	0.0273453	0.0166673	0.0558501	0.0498264	0.0654054	0.0361355	5.48028e-07	0.00991957	0.0114208	0.0153586	0.00856237	0.0222277	0.0446029	0.00232661	0.00353042	0.00307531	0.0142281	0.00263483	0.0864566	0.0841204	0	0.00225984	0.0839771	0.00803156	0.0855309	0.0710596	5.08736e-08	2.85697e-09	0.0812368	0.0846032	0.00999046	0.0166757	0.0147303	
3.43	0.0843883	0.0248356	0.00619111	0	0.0225322	3.51075e-08	6.23499e-06	0.0764112	0.0463723	0.0496839	0.0306537	0.0347616	0	0.0127959	0	0	0	0.00954707	0.00262742	0	0.0204586	0.0184459	0.00649055	0.037062	0.0771929	0.0108711	0.0312394	0	0.0519741	0.0096673	0.0845351	0.00799347	0.0199497	0.00384714	0.0156355	0.0533706	0.0281818	0.00399607	0.00476652	0.00453051	0	4.80333e-06	0.0256254	0.0198709	2.74411e-07	0	0.0373913	0.0268552	0.0167349	0.0560499	0.04977	0.0653201	0.0367966	8.44215e-06	0.0106033	0.0115354	0.0139718	0.00895902	0.0270415	0.0420494	0.00245785	0.00384514	0.00334991	0.0129021	0.00299793	0.0864507	0.0841216	0	0.00243815	0.0841203	0.0086343	0.0852428	0.0726622	0	3.65598e-09	0.0814221	0.084607	0.0100819	0.0156433	0.0141753	
3.435	0.0843046	0.0246844	0.00591007	0	0.0219525	0	1.5815e-05	0.0732465	0.0469256	0.0503471	0.0304771	0.0344975	0	0.0113988	0	0	0	0.0100846	0.0030302	0	0.0216023	0.019281	0.00693979	0.0355554	0.078282	0.010846	0.031082	0	0.0524328	0.0110775	0.0844853	0.00615327	0.0184094	0.00382169	0.0166171	0.0543159	0.0279805	0.00515725	0.00504372	0.00477563	0	0	0.0260136	0.0216318	0	2.75967e-06	0.0366994	0.0263571	0.0167876	0.0562268	0.0497176	0.0652444	0.0374787	0	0.0111516	0.0116061	0.0127175	0.00935582	0.0300366	0.0393132	0.00276301	0.00415275	0.0035831	0.0116101	0.0032992	0.0864497	0.0841262	0	0.00264948	0.0842985	0.00924461	0.0849541	0.0737735	1.84775e-09	0	0.0815741	0.0846156	0.0103733	0.0150341	0.0139135	
3.44	0.084228	0.0244105	0.00564929	3.67358e-06	0.0213429	4.47439e-06	5.2128e-06	0.0693378	0.0472273	0.0507113	0.0303867	0.0343629	7.88478e-06	0.0101662	0	0	0	0.0106728	0.00338157	0	0.0229107	0.0202264	0.00743078	0.0339434	0.0791641	0.0108653	0.0310033	0	0.0527701	0.0125452	0.0844328	0.0042098	0.0168084	0.00399653	0.0176307	0.0548369	0.0278829	0.00535912	0.00554445	0.00519602	0	0	0.0255597	0.0224088	0	0	0.0357456	0.0258857	0.0168171	0.056358	0.0496804	0.0651872	0.0381665	4.99594e-07	0.0115824	0.011644	0.0115836	0.00973875	0.0315265	0.0364721	0.00290177	0.00447686	0.00373866	0.0103581	0.00353379	0.0864512	0.0841343	0	0.00291784	0.084492	0.00985609	0.0846849	0.0743816	0	2.62751e-10	0.0816729	0.0846294	0.0108647	0.0148563	0.0139685	
3.445	0.0841583	0.0240242	0.00541316	1.25304e-06	0.0207188	1.36888e-06	0	0.0647428	0.0472813	0.05078	0.0303797	0.0343524	1.56333e-05	0.00898201	0	0	0	0.0113078	0.00368094	0	0.0243919	0.0212897	0.0079585	0.0322013	0.0798406	0.0109254	0.0310002	0	0.0529752	0.0140419	0.0843785	0.00206104	0.0151881	0.00437264	0.0186534	0.0549375	0.0278847	0.0058445	0.00626702	0.00587067	0	3.92264e-07	0.0247716	0.0225094	0	1.19164e-07	0.0345331	0.0254588	0.0168147	0.0564196	0.0496502	0.065158	0.0388516	2.17974e-06	0.0119227	0.0116619	0.0105406	0.0100945	0.0317065	0.0336168	0.00297181	0.00479471	0.00383018	0.00950749	0.00371913	0.0864542	0.084146	0	0.00313489	0.0846919	0.0104634	0.0844384	0.074501	1.81335e-08	9.01994e-11	0.081699	0.0846479	0.0115066	0.0150535	0.014318	
3.45	0.0840951	0.0235363	0.00520669	2.98496e-07	0.0200944	6.15219e-07	0	0.0596263	0.0470984	0.0505658	0.0304514	0.0344586	3.59451e-06	0.0078117	0	0	0	0.0119874	0.00396961	0	0.0260493	0.0224809	0.00852191	0.0303243	0.080322	0.0110225	0.0310685	0	0.0530391	0.0155482	0.0843233	0	0.0136477	0.00493868	0.0196687	0.0546344	0.0279797	0.00659082	0.00702941	0.00660055	0	9.09963e-07	0.0238901	0.0221847	0	5.41464e-07	0.0330857	0.0250552	0.0167722	0.0563875	0.0496236	0.0651663	0.0395334	9.80776e-07	0.0121972	0.0116728	0.0095539	0.0104111	0.0306315	0.0308208	0.00297971	0.00508307	0.00386387	0.00939221	0.00387235	0.086457	0.084161	0	0.00328789	0.0848792	0.011063	0.0842018	0.0741594	4.35187e-09	0	0.0816323	0.0846705	0.0122084	0.0155236	0.0148824	
3.455	0.0840387	0.0229573	0.00503546	0	0.0194823	0	0	0.0542829	0.0466947	0.0500883	0.0305957	0.0346725	0	0.00666474	0	0	0	0.0127115	0.00430477	0	0.0278766	0.0238098	0.00912052	0.0283486	0.0806184	0.011152	0.0312027	0	0.0529535	0.0170817	0.0842681	0	0.0122396	0.00561253	0.0206669	0.0539568	0.0281606	0.00741828	0.00781803	0.00736569	0	2.65468e-06	0.023032	0.0216114	2.67968e-09	4.83589e-07	0.0314391	0.024653	0.0166816	0.0562386	0.0495815	0.0652211	0.0402214	0	0.012429	0.0116915	0.00860932	0.0106777	0.028392	0.0281683	0.00292536	0.00532712	0.00383325	0.00992118	0.0040035	0.0864564	0.084179	0	0.00340064	0.0850638	0.0116532	0.0839623	0.0733851	0	8.13346e-11	0.0814513	0.0846954	0.0129166	0.0161991	0.0156012	
3.46	0.0837695	0.0222965	0.00490504	0	0.0188925	0	0	0.0491359	0.046091	0.0493738	0.0308051	0.0349842	0	0.0055619	0	0	0	0.0134849	0.00470152	0	0.0298529	0.0252829	0.00975466	0.0263406	0.0807353	0.0113093	0.0313968	0	0.052711	0.0186615	0.0842138	0	0.0109454	0.0063666	0.0216364	0.0529425	0.0284188	0.00830479	0.0086821	0.00821388	0	0	0.0222744	0.020915	0	1.51112e-07	0.0296491	0.0242372	0.0172881	0.0561032	0.0484893	0.0653299	0.0409409	0	0.0126403	0.011733	0.00771175	0.010885	0.0250709	0.0257708	0.00280861	0.0055201	0.00372858	0.0108164	0.00411462	0.086435	0.0841995	0	0.00348397	0.0852422	0.0122318	0.083722	0.07221	0	0	0.0813404	0.0847189	0.0136198	0.0151831	0.0164457	
3.465	0.0830374	0.0215625	0.00482095	0	0.0183334	0	0	0.0444251	0.0453119	0.0484516	0.0310711	0.0353831	0	0.00447683	0	0	0	0.014322	0.00514706	0	0.0319338	0.0269037	0.0104261	0.0243586	0.0806707	0.0114897	0.0316441	0	0.0523058	0.0202856	0.084161	3.45235e-05	0.00973605	0.00720662	0.0225589	0.0516354	0.0287452	0.00926183	0.00960429	0.00913476	0	0	0.0216656	0.0201908	1.96055e-09	0	0.0278038	0.0237965	0.0199004	0.0567805	0.0473417	0.0654989	0.0417093	4.30854e-07	0.0128514	0.0118084	0.00687085	0.011025	0.0207114	0.023737	0.00263358	0.00565576	0.00353463	0.0118587	0.0042023	0.086381	0.0842217	0	0.00354234	0.0854108	0.0127977	0.0834982	0.0706653	2.60392e-09	5.30942e-09	0.0811101	0.0847365	0.014332	0.012134	0.0174098	
3.47	0.0817935	0.0207609	0.00478699	0	0.0178128	0	0	0.0402304	0.0443846	0.0473534	0.0313846	0.0358585	0	0.00353965	0	0	0	0.0152399	0.00563037	0	0.0340607	0.02867	0.0111396	0.0224435	0.0804119	0.0116885	0.0319372	0	0.0517355	0.0218985	0.0841105	1.06687e-05	0.00859667	0.00811736	0.0234099	0.0500884	0.0291298	0.0101884	0.0104743	0.0100145	0	0.00198259	0.0212284	0.0195098	1.92182e-10	0	0.0260047	0.0233264	0.0229791	0.0573272	0.0470574	0.0657331	0.0425342	6.88748e-07	0.0130675	0.0119378	0.00609977	0.0110915	0.0151039	0.022134	0.00241661	0.00572762	0.00320646	0.0129472	0.00426419	0.0862936	0.0842448	0	0.00357946	0.0855663	0.013352	0.0833036	0.0687823	1.26761e-08	0	0.0806209	0.0847444	0.0150713	0.00924893	0.0184928	
3.475	0.0800117	0.0198945	0.00480576	0	0.0173385	3.1156e-10	0	0.0365718	0.0433378	0.046115	0.0317366	0.0364002	0	0.00232565	4.59603e-09	0	0	0.0162489	0.00616848	0	0.0362519	0.0305681	0.0119032	0.0206183	0.0799326	0.0119012	0.0322688	0	0.0509991	0.023443	0.0839999	0	0.00754038	0.00909555	0.024163	0.0483582	0.0295624	0.0110284	0.0112444	0.0108023	1.25902e-09	0.00360747	0.0209691	0.0189209	0	0	0.0243207	0.0228311	0.0253339	0.0571149	0.0472098	0.0660349	0.0434194	3.96786e-07	0.0132832	0.0121312	0.00541751	0.0110804	0.00943581	0.020967	0.00219665	0.00573065	0.00265075	0.0140583	0.00429964	0.0861763	0.0842678	0	0.0035983	0.0857061	0.0138987	0.0831413	0.0666032	1.65367e-08	1.58819e-09	0.079953	0.0847408	0.0158484	0.0065055	0.0196902	
3.48	0.0776907	0.0189636	0.00487951	0	0.0169176	2.89984e-09	0	0.0333393	0.0422009	0.0447722	0.0321175	0.0369982	0	0.00195778	4.18999e-09	7.27934e-10	0	0.017341	0.00678119	0	0.0386557	0.0325661	0.0127268	0.0188839	0.0791906	0.0121239	0.0326313	0	0.0500948	0.0248656	0.0833274	0	0.00659936	0.0101295	0.024794	0.0464991	0.0300329	0.0117941	0.0119311	0.0115145	0	0.00398226	0.0208879	0.0184547	4.79411e-09	0	0.0227679	0.0223278	0.026874	0.0562103	0.0474177	0.0664044	0.0443736	3.88266e-08	0.0134688	0.0123539	0.00481178	0.010989	0.0125848	0.0201179	0.00203531	0.00566167	0.00207638	0.0151703	0.00430933	0.0860334	0.0842895	0	0.00360117	0.0858261	0.0144409	0.0830104	0.0641806	2.19102e-08	6.79543e-09	0.0787609	0.0847257	0.0166593	0.00762134	0.0209847	
3.485	0.0748494	0.0179634	0.00500974	0.00134266	0.016557	1.59488e-09	0	0.0302499	0.0410031	0.0433608	0.0325185	0.0376428	0	0	0	1.09396e-09	0	0.0185067	0.00747074	0	0.0413894	0.0346334	0.0136251	0.0172319	0.078128	0.0123526	0.0330174	0	0.0490324	0.0261123	0.0819618	0	0.00581312	0.0112048	0.0252812	0.0445671	0.030531	0.0125056	0.012554	0.0121715	0	0.00405678	0.0209844	0.0178945	0	0	0.0213297	0.0218453	0.0260045	0.054115	0.047618	0.0668381	0.0454115	0	0.013611	0.0125784	0.00431505	0.0108167	0.0153331	0.0193596	0.00200916	0.00551954	0.00197441	0.0162722	0.00429516	0.0858678	0.0843089	0	0.00358995	0.0859234	0.0149798	0.0829103	0.0615846	2.23274e-08	1.53938e-09	0.0770391	0.0847006	0.0174817	0.00736801	0.022342	
3.49	0.0715262	0.016889	0.00519633	0.00218187	0.0162621	4.30287e-10	0	0.0272917	0.0397722	0.0419144	0.0329311	0.0383239	0	0	0	4.23271e-10	0	0.0197532	0.00823983	0	0.044525	0.0368349	0.0146208	0.0156875	0.0766866	0.0125844	0.0334201	0	0.0478177	0.0271228	0.0799152	0	0.00519736	0.0123107	0.0256063	0.042615	0.0310466	0.0131511	0.0131034	0.0127614	0	0.00423216	0.0203762	0.0167222	4.69124e-11	0	0.0199902	0.0214137	0.0226214	0.051488	0.0478408	0.0673294	0.0465344	0	0.0137229	0.0128024	0.00397562	0.0108148	0.0182785	0.0187413	0.00197437	0.0053041	0.00579187	0.0173609	0.00425977	0.0856803	0.084325	0	0.00356629	0.0859966	0.0155147	0.0828415	0.0589029	2.21041e-08	0	0.0750639	0.0846677	0.0182864	0.00570016	0.0237261	
3.495	0.0677788	0.0157472	0.00543942	0.00267719	0.0160379	1.17888e-09	0	0.0246859	0.0385334	0.0404642	0.0333477	0.0390312	0	0	0	1.13059e-10	0	0.0211085	0.00909152	0	0.0481233	0.0393398	0.0157431	0.0143241	0.0747994	0.0128163	0.0338331	0	0.046464	0.0278591	0.0772336	0	0.00475001	0.0134423	0.0257544	0.0406891	0.0315704	0.0137341	0.0136143	0.0132897	0.00364101	0.00449449	0.0188053	0.0148095	0	0	0.0187466	0.0210603	0.0166609	0.0495155	0.0484574	0.0678691	0.0477391	0	0.0138288	0.0130236	0.00378477	0.0104608	0.0211401	0.0182923	0.00144116	0.0148323	0.0115741	0.018438	0.00420658	0.0855331	0.084337	0	0.00353164	0.0860447	0.0160423	0.0828061	0.0562403	1.71658e-08	0	0.0728377	0.0846493	0.01904	0.00548755	0.0251009	
3.5	0.0637072	0.0145683	0.00574039	0.00306501	0.0158884	3.57022e-09	0	0.0224189	0.0373088	0.0390373	0.0337617	0.0397543	0	1.44443e-05	0	0	0	0.0226027	0.0100212	0	0.0522309	0.0422819	0.0170009	0.0131785	0.0724099	0.0130459	0.0342507	0	0.0449884	0.0282982	0.0739921	0	0.00449608	0.0146025	0.0257138	0.0388279	0.0320937	0.0143145	0.0142065	0.0138568	0.00288079	0.00473594	0.0176785	0.012881	2.14027e-11	0	0.0176044	0.0208086	0.013207	0.0480097	0.0493475	0.0684482	0.0490265	0	0.0139543	0.0132476	0.00372769	0.0133873	0.0220301	0.0180044	0	0.0164544	0.015316	0.0195144	0.00413942	0.0857225	0.0843442	0	0.0034874	0.086068	0.0165581	0.0828061	0.0537033	2.13009e-08	3.85792e-09	0.0704107	0.0847045	0.0197085	0.00552651	0.0264239	
3.505	0.0594363	0.0133878	0.00610396	0.00350581	0.0158176	5.83818e-09	0	0.020501	0.0361159	0.0376559	0.0341678	0.0404835	0	4.13694e-06	0	0	0	0.024254	0.0110233	1.08268e-09	0.0568761	0.0457775	0.0183809	0.0122283	0.0694861	0.0132712	0.034668	0	0.0434118	0.02846	0.0702917	0	0.00443548	0.0158036	0.0254762	0.0370599	0.0326088	0.0149498	0.0147692	0.0144483	0.00307061	0.00493348	0.0181696	0.0121376	3.34005e-11	0	0.0165773	0.0206782	0.012417	0.046535	0.0501549	0.0690588	0.0503965	0	0.0141227	0.0134918	0.00381043	0.0158426	0.0219825	0.0178478	0	0.024217	0.0170706	0.0206057	0.00406236	0.086232	0.0843462	0	0.00343477	0.0860675	0.0170594	0.0828374	0.0513633	1.07531e-08	1.61728e-10	0.0678551	0.0847768	0.0202655	0.00556918	0.0276509	
3.51	0.055147	0.0122162	0.00653618	0.003934	0.0158289	0	0	0.0188906	0.0349631	0.0363363	0.0345614	0.0412094	0	0	0	0	0	0.0260663	0.012098	7.94695e-10	0.0619519	0.0499409	0.019891	0.011441	0.0660279	0.0134904	0.0350805	0	0.0417571	0.0284047	0.0662658	0	0.00455546	0.017047	0.0250369	0.0353989	0.0331094	0.0155326	0.0152876	0.0149913	0.00336517	0.00510659	0.0199302	0.0128538	5.77294e-11	0	0.0156857	0.020685	0.0121682	0.045051	0.0508781	0.0696909	0.0518404	0	0.014362	0.013785	0.00401458	0.0209921	0.0212396	0.0177903	0	0.0245576	0.0171267	0.0217295	0.00397969	0.0867106	0.0843428	2.44914e-08	0.00337497	0.0860446	0.0175445	0.0819727	0.0492585	0	0.000129402	0.0652321	0.084793	0.0206938	0.0044984	0.0287378	
3.515	0.0510641	0.011039	0.00703743	0.00443522	0.0159263	0	0	0.0175497	0.0338506	0.0350843	0.034939	0.0419236	0	0	0	3.15214e-09	0.00515269	0.028028	0.0132506	0	0.0671199	0.0548772	0.0215828	0.0107976	0.0620835	0.0137018	0.0354847	0	0.04005	0.0280872	0.0620615	0	0.00484302	0.0183137	0.0243946	0.0338305	0.0335909	0.0160726	0.0157757	0.0155023	0.00350287	0.00526733	0.0220931	0.0144206	8.69581e-11	0	0.0149486	0.0208411	0.011723	0.0436203	0.0514207	0.0703302	0.0533385	0	0.0147061	0.0141537	0.00430745	0.0255538	0.0203916	0.0178021	2.46343e-07	0.0212039	0.0164752	0.0229022	0.00389479	0.0869225	0.0843338	0	0.00330916	0.0860014	0.0180134	0.0799486	0.0474118	0	0.00307934	0.0626201	0.0847614	0.0209809	0.00246397	0.0296413	
3.52	0.0472925	0.00983459	0.00760453	0.00504384	0.0161129	0	0	0.016463	0.0327753	0.0338946	0.0352978	0.0426183	0	0	0	0.00397832	0.00415764	0.0301049	0.0144944	0	0.0720406	0.0606226	0.0235213	0.0102881	0.0577761	0.013904	0.0358771	0	0.0383162	0.027514	0.0578565	0	0.00526643	0.0195843	0.0235524	0.0323276	0.0340497	0.0165888	0.0162423	0.0159965	0.00360173	0.00541664	0.0241599	0.0162125	1.23498e-10	0	0.0143753	0.0211533	0.0111647	0.0422839	0.0518284	0.0709573	0.0548573	0	0.015162	0.0145983	0.00466927	0.0264533	0.0196128	0.0178544	3.33476e-05	0.0235778	0.0156071	0.0241361	0.00380931	0.0869117	0.0843192	3.8042e-08	0.00323875	0.0859408	0.0184673	0.0773607	0.045834	0	0.00389083	0.0601227	0.0847157	0.0211061	0.00173112	0.0303101	
3.525	0.0438601	0.00858251	0.00823615	0.0057164	0.0163913	0	0	0.0156209	0.0317378	0.0327585	0.0356357	0.043287	0	0	0	0.0047346	0.0046943	0.0322313	0.0158562	0	0.0764166	0.0668153	0.0257454	0.00990746	0.0533216	0.0140961	0.036255	0	0.0365787	0.0267079	0.0538489	0	0.00578935	0.020855	0.0225176	0.0308783	0.0344836	0.0170832	0.0166878	0.0164734	0.00370087	0.00555429	0.0260345	0.0178846	1.64803e-10	0.0032939	0.0139641	0.0216236	0.0106921	0.0410746	0.0521442	0.0715502	0.0563568	0	0.0157081	0.015099	0.00508412	0.0251799	0.0189382	0.0179187	0	0.0258486	0.014723	0.0254294	0.00372427	0.0868206	0.0842993	0	0.00316511	0.0858654	0.0189082	0.0746787	0.0445271	0	0.00384021	0.0578538	0.0846706	0.0210395	0.000565992	0.0306834	
3.53	0.0407756	0.00728554	0.00892853	0.00646875	0.0167653	0	0	0.0149981	0.0307433	0.0316729	0.0359512	0.0439244	0	0	0	0.00413429	0.0054013	0.0343327	0.0173321	0.00550841	0.0800078	0.0728834	0.028257	0.00965551	0.0489843	0.014277	0.036616	0	0.0348445	0.0256845	0.0501941	0	0.0064047	0.022127	0.021301	0.0294957	0.034891	0.0175405	0.0171006	0.0169181	0.00379127	0.00568225	0.0277944	0.0193488	2.09536e-10	0.0038318	0.0137116	0.0222471	0.0103334	0.0400238	0.0523884	0.0720863	0.0577902	0	0.0163091	0.0156316	0.00552998	0.0235387	0.0183406	0.0179668	8.93806e-06	0.0255655	0.0138755	0.0267599	0.00364054	0.0867245	0.0842742	0	0.0030899	0.0857782	0.0193387	0.072093	0.043485	0	0.00357061	0.055927	0.0846253	0.0207588	8.7894e-05	0.0307067	
3.535	0.0380327	0.00597224	0.00967281	0.00730878	0.0172192	0	0	0.0145564	0.0298015	0.0306419	0.0362437	0.044526	0	0	0	0.00471615	0.0060594	0.0364276	0.0188915	0.00584367	0.0826423	0.0782741	0.031006	0.00953178	0.044913	0.0144463	0.036958	0	0.0330759	0.02446	0.0469234	0	0.0071057	0.0233918	0.019915	0.0282013	0.035271	0.0179518	0.0174728	0.0173204	0.00387347	0.00580293	0.0295104	0.0206467	0	0.00353252	0.0136168	0.0230142	0.0100661	0.0391584	0.0525696	0.0725459	0.0591145	0	0.0169281	0.0161697	0.00600089	0.0223088	0.0177942	0.0179722	5.56139e-05	0.0240415	0.0130777	0.0280834	0.00355932	0.0866313	0.0842443	0	0.00301475	0.0856826	0.0197618	0.0696764	0.0426954	0	0.003294	0.0544363	0.0845778	0.0202662	0	0.0303536	
3.54	0.0356033	0.00466626	0.0104583	0.00821671	0.0177675	0	0	0.0142565	0.0289214	0.0296753	0.0365125	0.045089	0	0	0.000606178	0.0051717	0.00682412	0.0386114	0.0205471	0.00558397	0.0842463	0.0824741	0.0338677	0.00953095	0.0411802	0.0146033	0.0372794	0.00670312	0.0311989	0.0230561	0.044023	0	0.00787643	0.0246318	0.0183692	0.0270092	0.035623	0.0183104	0.0177975	0.0176723	0.00395056	0.00599805	0.0308298	0.0218169	0	0.0037284	0.0136796	0.0239088	0.00989193	0.0384999	0.0526929	0.0729123	0.060287	0	0.0175029	0.0166677	0.00649157	0.0214215	0.0172832	0.0179124	0	0.0226393	0.0123334	0.0293361	0.00348217	0.0865359	0.0842099	0	0.00294147	0.0855812	0.0201805	0.0674761	0.0421411	0	0.0030237	0.0534546	0.0845286	0.019592	0	0.029646	
3.545	0.0333882	0.00348674	0.0112751	0.00917862	0.01839	0	0	0.0140672	0.0281085	0.0287811	0.0367579	0.0456114	0	0	0.0060105	0.00563971	0.00768491	0.0409042	0.0223465	0.00660197	0.0848482	0.0850462	0.0368011	0.00964299	0.0378252	0.014748	0.0375792	0.00934631	0.0292311	0.0214956	0.0414757	0	0.0087098	0.0258292	0.016669	0.0259251	0.0359469	0.0186048	0.018064	0.0179619	0.00402356	0.00643851	0.030108	0.0222398	4.0912e-06	0.00389352	0.0138974	0.0249097	0.00982891	0.0380663	0.0527616	0.0731715	0.061267	0	0.0178512	0.0170391	0.00698361	0.020673	0.0167985	0.0177688	0	0.0217109	0.0116416	0.0304485	0.00795812	0.0864386	0.0841714	0	0.00287227	0.0854769	0.0205974	0.0655322	0.0418004	0	0.00350025	0.0530329	0.0844789	0.0187826	0.000398425	0.0286576	
3.55	0.0312673	0.00205048	0.0121153	0.0101717	0.0190829	0	0	0.0139652	0.0273654	0.0279634	0.0369802	0.046092	0	0	0.0036201	0.00618196	0.00860105	0.043264	0.0243117	0.00747809	0.0847912	0.0856974	0.0400554	0.00985571	0.0348315	0.0148802	0.0378565	0.0104394	0.0272227	0.0197996	0.0392583	0	0.0095946	0.0269685	0.0148477	0.0249496	0.0362429	0.0188227	0.0182609	0.0181766	0.00409239	0.0071835	0.0264756	0.0215838	0	0.00397498	0.0142628	0.0259909	0.00989122	0.0378741	0.0527783	0.0733125	0.0620152	0	0.017882	0.0172334	0.00745565	0.0200177	0.0163339	0.0103732	0	0.0210158	0.0109977	0.0313652	0.0167596	0.0863412	0.0841291	2.7072e-08	0.00280894	0.0853715	0.0210143	0.0638655	0.0416455	0	0.00426929	0.0531981	0.084429	0.0178724	0.00219979	0.02747	
3.555	0.0292231	0.000311545	0.0129713	0.0111743	0.0198378	0	0	0.0139353	0.0266926	0.0272234	0.0371802	0.0465307	0	0	0.00408821	0.00678052	0.00954467	0.0456252	0.0264199	0.00842307	0.0846902	0.0856089	0.0438043	0.0101561	0.0319763	0.0150002	0.0381109	0.0117627	0.0252318	0.0179813	0.0373432	0	0.0105167	0.0280376	0.0129946	0.0240799	0.0365115	0.0189535	0.0183783	0.0183061	0.0041559	0.00817926	0.0220726	0.0202801	1.81043e-07	0.00404164	0.0147636	0.0271224	0.0100848	0.0379393	0.0527442	0.0733255	0.0624944	0	0.0177188	0.017275	0.0078919	0.0194758	0.0158864	0	1.88249e-05	0.020423	0.0103958	0.0320614	0.0236878	0.0862436	0.084083	2.57774e-08	0.00275216	0.0852678	0.0214326	0.0624763	0.0416432	1.14085e-08	0.0048712	0.0539425	0.0843785	0.0168765	0.00324631	0.0261465	
3.56	0.0273096	0	0.0138396	0.0121729	0.0206515	0	0	0.0139707	0.0260886	0.0265596	0.0373589	0.046928	0	0	0.00426353	0.00742918	0.0104874	0.0479128	0.0286232	0.00945308	0.0845993	0.0855192	0.048092	0.0105326	0.0291297	0.0151083	0.0383426	0.0136858	0.0233032	0.0160517	0.0356983	0	0.0114682	0.0290276	0.0111814	0.0233105	0.0367536	0.0189882	0.0184085	0.0183419	0.0110186	0.00990668	0.0186351	0.0187027	1.03385e-06	0.00410669	0.0153809	0.0282695	0.0104102	0.0382798	0.0526582	0.0732011	0.0626703	0	0.0174022	0.0171709	0.00827559	0.019047	0.0154526	0.000126697	0.000119358	0.0199304	0.00877437	0.0325389	0.0302693	0.0861456	0.0840335	2.67578e-08	0.00270282	0.0851687	0.0218535	0.0613482	0.0417544	0	0.00496539	0.0552105	0.0843267	0.0158004	0.0037274	0.0247335	
3.565	0.0255614	0	0.0147221	0.0131568	0.0215132	0	0	0.0140712	0.0255512	0.0259695	0.0375176	0.0472851	0	0	0.00436635	0.0080954	0.0114064	0.0500516	0.0308467	0.0105065	0.0845096	0.0854347	0.0528904	0.0109739	0.0263716	0.0152047	0.0385518	0.0159161	0.0214662	0.0140702	0.0342771	0	0.0124448	0.029932	0.00941582	0.0226352	0.0369703	0.0189219	0.0183469	0.0182789	0.0149458	0.0115046	0.0162137	0.0170878	9.39738e-07	0.00415829	0.016092	0.0293979	0.0108652	0.0389165	0.052517	0.0729297	0.062511	0	0.0169392	0.0169273	0.00859577	0.018725	0.0150362	0	0	0.0195607	0.00513287	0.0328215	0.0373469	0.086047	0.0839804	0	0.00265939	0.0850749	0.0222777	0.060455	0.0419446	1.92332e-08	0.00461702	0.0568972	0.0842728	0.0146493	0.00382794	0.0232605	
3.57	0.0239828	2.28667e-05	0.0156204	0.0141204	0.0224103	0	0	0.0142439	0.0250766	0.0254492	0.0376575	0.0476035	0	0	0.00455567	0.00875197	0.0122903	0.0519883	0.0330008	0.0115527	0.0844293	0.0853505	0.058113	0.0114724	0.0238072	0.0152902	0.0387393	0.0181879	0.0197298	0.0121335	0.0330418	0.00359135	0.0134509	0.0307483	0.00767625	0.0220464	0.0371628	0.0187524	0.0181921	0.0181155	0.0175365	0.0128189	0.0140814	0.0154889	3.2528e-07	0.00419615	0.016868	0.0304726	0.0114459	0.0398757	0.0523149	0.0725012	0.0619867	0	0.0163296	0.0165481	0.00884221	0.0184956	0.0146358	3.456e-05	1.21826e-05	0.0192802	1.6648e-05	0.032936	0.0439167	0.0859471	0.0839239	0	0.00262356	0.0849894	0.0227052	0.0597623	0.0421783	0	0.00409141	0.0588655	0.0842155	0.0134388	0.00359261	0.0217535	
3.575	0.0225626	9.01595e-06	0.016519	0.0150646	0.0233237	0	0.00233672	0.0145011	0.0246607	0.0249939	0.03778	0.0478855	0	0	0.0048189	0.00939208	0.013129	0.0536907	0.0350353	0.0125765	0.0843631	0.0852747	0.0635006	0.0120219	0.0214811	0.0153654	0.038906	0.0204726	0.0180879	0.0102894	0.0319843	0.00696805	0.014497	0.0314765	0.00596584	0.0215367	0.0373327	0.0184826	0.0179468	0.017854	0.0192969	0.0142149	0.0120963	0.0139247	3.45891e-10	0.00422087	0.0176767	0.0314634	0.0121472	0.0411899	0.0520441	0.0719041	0.0610729	0	0.0155868	0.0160446	0.00901109	0.0183515	0.0142077	0	1.91761e-05	0.0190416	0	0.0329134	0.0499022	0.0858456	0.083864	0	0.00260263	0.0849126	0.0231351	0.0592332	0.0424263	0	0.00358786	0.0610974	0.084154	0.0121927	0.0027233	0.0202375	
3.58	0.0212796	1.08918e-06	0.0173927	0.015991	0.0242289	0	0.00677492	0.0148604	0.024299	0.0245984	0.0378866	0.0481333	0	0.00203882	0.00511525	0.0100011	0.0139199	0.055153	0.0370224	0.0135718	0.0843146	0.0852114	0.068651	0.0126187	0.0193834	0.015431	0.039053	0.0229443	0.0165406	0.00852579	0.0311173	0.00797427	0.015607	0.0321191	0.00430852	0.0210982	0.0374816	0.0181185	0.017617	0.0175009	0.0182788	0.016249	0.00976407	0.0122766	0	0.00423304	0.0184857	0.0323473	0.0129657	0.0428996	0.0516952	0.0711261	0.0597518	7.52444e-13	0.014737	0.0154342	0.00910417	0.0182838	0.0129793	0	5.90526e-05	0.0188168	7.28029e-06	0.0327872	0.0547212	0.0857413	0.0838009	0	0.00273457	0.0848458	0.023566	0.0588293	0.0426652	6.70094e-20	0.00306172	0.0638266	0.0840873	0.0109365	0.00153236	0.0187367	
3.585	0.0201091	0	0.0182211	0.016884	0.025099	0	0.00773185	0.0153434	0.0239866	0.0242574	0.0379788	0.0483494	0	0.00418893	0.00542789	0.0105697	0.0146707	0.0564047	0.0390442	0.0145393	0.0842866	0.0851637	0.0733034	0.0132635	0.017477	0.0154877	0.0391817	0.025729	0.0151318	0.00682037	0.0304593	0.00862281	0.016792	0.0326809	0.00271721	0.0207232	0.037611	0.017669	0.0172113	0.0170654	0.015123	0.0180176	0.0102212	0.0112755	0	0.00423326	0.0192653	0.0331122	0.0139042	0.0450506	0.0512575	0.0701541	0.05802	2.35839e-12	0.0138162	0.0147424	0.009128	0.0182801	0.0118993	0	0	0.0185889	0.000130989	0.0326088	0.057954	0.085634	0.083735	0	0.00266939	0.0847894	0.0348586	0.0585137	0.0428782	0	0.00244703	0.0672737	0.0840147	0.00968911	0	0.0172628	
3.59	0.0190236	0	0.0189907	0.0177212	0.0259048	5.53265e-09	0.00804517	0.0159717	0.0237187	0.0239652	0.038058	0.0485366	0	0.00541255	0.00574611	0.0110939	0.0153827	0.0574852	0.0411123	0.0154978	0.0842802	0.0851336	0.0773207	0.0139629	0.0157705	0.0155365	0.0392935	0.0287682	0.0139187	0.00518376	0.0300207	0.00969321	0.0180417	0.0331684	0.00173789	0.0204043	0.0377228	0.0171435	0.016739	0.0165583	0.0119213	0.0194309	0.0108752	0.011106	0	0.00422252	0.0199914	0.0337566	0.0149742	0.0476924	0.05072	0.0689758	0.0558962	3.19257e-12	0.0128593	0.0139995	0.00909278	0.0183261	0.012036	0	0	0.0183417	0	0.0324418	0.0598669	0.0855247	0.0836667	0	0.0025698	0.0847429	0.0456261	0.0582535	0.0430546	1.10578e-19	0.00203772	0.0714269	0.0839365	0.00845807	0	0.0158126	
3.595	0.017996	0	0.0196928	0.0184863	0.0266193	6.06269e-09	0.00881801	0.0167625	0.0234904	0.0237164	0.0381256	0.0486977	0	0.00629938	0.00606381	0.0115715	0.0160456	0.0584773	0.0432165	0.0164501	0.0842955	0.0851216	0.0806191	0.0147262	0.0143369	0.0155782	0.0393899	0.0318976	0.0129015	0.0036736	0.0298029	0.0111088	0.0193548	0.0335891	0	0.0201345	0.0378188	0.0165503	0.0162086	0.0159905	0.00942088	0.0209726	0.00956893	0.0110783	0	0.00420241	0.020647	0.0342879	0.0161872	0.0508704	0.0500718	0.0675805	0.0534237	3.58722e-12	0.011893	0.0132355	0.00901206	0.0184039	0.0123584	8.90646e-09	4.82099e-06	0.0180591	0	0.0323186	0.0611477	0.0854149	0.0835969	0	0.00253665	0.0847062	0.0494819	0.0580211	0.0431891	0	0.00202113	0.0760719	0.0838537	0.00725608	0	0.0143937	
3.6	0.0170056	0	0.0203197	0.0191709	0.0272188	0	0.0100216	0.0177258	0.0232965	0.0235055	0.0381832	0.0488355	6.71115e-09	0.00728665	0.00637619	0.012002	0.0166447	0.0595079	0.0453468	0.0173806	0.0843307	0.0851269	0.0831398	0.0155629	0.0131912	0.0156136	0.0394727	0.0349499	0.0120451	0.00203183	0.0298005	0.0126373	0.0207583	0.0339505	0	0.0199073	0.0379008	0.015895	0.0156255	0.0153703	0.0075717	0.0228717	0.00716425	0.0103842	0	0.00417458	0.0212215	0.034717	0.0175335	0.0546165	0.0493042	0.0659603	0.0506669	3.76862e-12	0.0109375	0.012476	0.00889857	0.0184785	0.0122362	1.68752e-07	7.49502e-06	0.0177269	1.31408e-05	0.032219	0.062189	0.0852713	0.0835263	0	0.00252712	0.084678	0.0494075	0.0577951	0.0432811	0	0.00201846	0.0807869	0.0837677	0.00609888	0	0.0130314	
3.605	0.0160451	0	0.020864	0.0197704	0.0276863	2.33882e-11	0.0113396	0.0188685	0.0231324	0.0233271	0.038232	0.0489528	0	0.00851419	0.00667755	0.0123864	0.01717	0.0606261	0.0474978	0.0182772	0.0843829	0.0851473	0.0848005	0.016474	0.0122775	0.0156437	0.0395433	0.037931	0.0113149	0.00011033	0.0300029	0.0142404	0.0222937	0.03426	1.49552e-05	0.0197161	0.0379705	0.0151835	0.0149941	0.0147056	0.00630285	0.0251377	0.00504503	0.00869287	0	0.00414101	0.0217109	0.0350556	0.0189904	0.0589373	0.0484107	0.0641109	0.0477096	3.83193e-12	0.0100138	0.0117412	0.00876437	0.0185041	0.0117639	8.58919e-08	9.01162e-06	0.017335	0	0.0320443	0.0619815	0.0849833	0.0834562	0	0.00251585	0.0846572	0.048543	0.0575607	0.043334	0	0.00206729	0.0847443	0.0836803	0.00501603	0	0.0117558	
3.61	0.0151204	0	0.0213198	0.0202829	0.0280129	0	0.0126769	0.0202109	0.0229934	0.0231759	0.0382733	0.0490527	0.00200962	0.00995297	0.00696438	0.0127284	0.0176173	0.0618924	0.0496715	0.0191376	0.0844478	0.0851796	0.0854608	0.0174506	0.0115383	0.0156694	0.0396036	0.0409892	0.0106859	0	0.0303959	0.0159702	0.0239942	0.0345249	1.5633e-05	0.0195548	0.0380298	0.0144204	0.0143157	0.0139988	0.00549969	0.0277136	0.00371558	0.00640604	0	0.00410384	0.0221169	0.0353155	0.0205585	0.0637196	0.0473877	0.0620327	0.04465	3.83393e-12	0.00914306	0.0110464	0.00862173	0.0184502	0.0111556	2.38494e-08	0	0.016877	5.4429e-05	0.0316706	0.0608635	0.0844697	0.0833878	0	0.002501	0.084642	0.0481765	0.0573091	0.0433552	0	0.00319736	0.0861508	0.0835936	0.00402858	4.65701e-05	0.0105885	
3.615	0.0142417	0	0.0216857	0.0207089	0.0281982	0	0.0140736	0.0218001	0.0228747	0.0230471	0.0383085	0.049138	0.00505577	0.0115353	0.00723561	0.013034	0.0179882	0.0633435	0.051941	0.019966	0.0845205	0.0852197	0.0854617	0.0184845	0.0109333	0.0156914	0.0396552	0.0441697	0.0101379	0	0.030961	0.0178526	0.0258778	0.0347526	2.83298e-06	0.0194173	0.0380804	0.0136026	0.0135839	0.0132431	0.00499231	0.0305324	0.00273638	0.00425829	0	0.00406529	0.0224473	0.0355073	0.0222702	0.0687651	0.0462358	0.0597333	0.0415907	3.80328e-12	0.00834756	0.0104058	0.00848317	0.0183012	0.0105246	0	0	0.0163546	0.000130654	0.0310678	0.0594396	0.0837002	0.0833225	0	0.00248631	0.0846308	0.0480622	0.0570375	0.0433715	0	0.00438786	0.086123	0.0835103	0.00320867	0	0.00953478	
3.62	0.0134073	0	0.0219658	0.0210526	0.0282504	0	0.0155673	0.0236936	0.0227719	0.0229354	0.0383388	0.0492116	0.00639126	0.0132279	0.00749282	0.0133093	0.0182885	0.0649972	0.0543076	0.0207699	0.084595	0.0852629	0.0854444	0.0195779	0.0104302	0.0157108	0.0396998	0.0474269	0.00965252	2.61376e-05	0.0316744	0.0198942	0.0279518	0.0349505	0	0.019298	0.0381241	0.0127434	0.0128088	0.0124482	0.00467352	0.0334874	0.00208096	0.00268666	0	0.00402746	0.0227147	0.0356426	0.0241541	0.0738403	0.0449606	0.0572273	0.0386206	3.75558e-12	0.00764828	0.00983231	0.00836051	0.018046	0.00985394	0	0	0.0157745	0	0.0302804	0.0577275	0.0826666	0.0832615	0	0.00247178	0.0846213	0.0478965	0.0567484	0.0433852	1.99262e-22	0.00580748	0.08612	0.0834331	0.00222099	0.00012055	0.00858723	
3.625	0.0126092	0	0.0221701	0.0213227	0.0281853	0	0.0171644	0.0259343	0.0226805	0.0228362	0.0383654	0.0492763	0.00708803	0.0150359	0.00773956	0.0135607	0.0185282	0.0668466	0.0567861	0.0215658	0.0846656	0.0853046	0.0854498	0.0207458	0.0100007	0.0157284	0.0397392	0.0507148	0.00921629	8.36749e-06	0.0325073	0.022163	0.0302046	0.0351262	0	0.0191912	0.0381626	0.0118721	0.0120178	0.0116409	0.00456787	0.0365127	0.00201129	0.00201142	0	0.00399256	0.0229364	0.0357331	0.0262086	0.0786555	0.0435729	0.0545395	0.0358062	3.69936e-12	0.0070569	0.00933933	0.00826418	0.0176767	0.00910898	0	5.01356e-06	0.0151512	0	0.0293666	0.0554349	0.0813691	0.0832063	0	0.00245708	0.0846116	0.0476416	0.0564487	0.0433992	1.32928e-22	0.00716248	0.086194	0.0833649	0.00202129	0	0.00773218	
3.63	0.0118372	0	0.0223126	0.021533	0.0280257	0	0.0188554	0.0285342	0.0225962	0.0227445	0.0383895	0.0493349	0.00790862	0.0169548	0.00798076	0.0137955	0.0187202	0.0688561	0.0593558	0.0223847	0.0847261	0.0853401	0.0854507	0.0220055	0.00961939	0.015745	0.039775	0.0540097	0.00881573	0	0.0334279	0.0247685	0.0325905	0.0352872	0	0.0190916	0.0381977	0.0109828	0.01122	0.010829	0.00467199	0.0397989	0.00200963	0.00165548	0	0.0040117	0.0231328	0.0357914	0.0284065	0.0827897	0.0420863	0.0517033	0.033152	3.63866e-12	0.00657542	0.00893822	0.00820335	0.0171916	0.00827721	0	4.06467e-06	0.0145004	6.85591e-05	0.0283713	0.0523071	0.0798151	0.083158	0	0.00244246	0.084601	0.0473686	0.0561504	0.0434248	5.21911e-23	0.00832581	0.086221	0.0833078	0.00127151	6.18511e-05	0.00695511	
3.635	0.0110814	0	0.0224117	0.0217004	0.0277998	0	0.020657	0.0314373	0.0225146	0.0226557	0.0384123	0.0493903	0.00904335	0.0189584	0.00822259	0.0140217	0.0188797	0.0709682	0.0619835	0.0232041	0.0847714	0.0853653	0.0854491	0.0233677	0.00926311	0.0157617	0.0398091	0.057307	0.00843506	0	0.0344051	0.0277555	0.0350543	0.0354413	0	0.0189937	0.0382309	0.00989492	0.0103472	0.0098571	0.00494191	0.0435424	0.00196726	0.000658102	0	0.00413579	0.0233268	0.03583	0.0306997	0.0854363	0.0405244	0.0487586	0.0305321	3.57605e-12	0.00618473	0.00863605	0.00818631	0.0165963	0.0073623	5.20536e-10	8.23776e-07	0.0138279	0.000135565	0.0273276	0.0483288	0.0780198	0.0831179	0	0.00242828	0.0845869	0.0471141	0.0558765	0.0434751	5.59874e-24	0.00920614	0.0862102	0.0832637	0	0	0.00624167	
3.64	0.0103351	0	0.0224882	0.0218444	0.0275393	0	0.0226257	0.0344568	0.0224314	0.0225651	0.038435	0.0494453	0.0103495	0.0210611	0.00847186	0.0142499	0.0190236	0.0730994	0.0646385	0.0240508	0.0847966	0.0853766	0.0854441	0.0248327	0.0089072	0.0157792	0.0398431	0.0606011	0.00805717	0	0.0354171	0.031073	0.0376896	0.0355963	0	0.0188922	0.0382641	0.00866081	0.00923546	0.00871976	0.00533115	0.0478038	0.00195653	0	0	0.00437301	0.0235417	0.03586	0.0330172	0.0858735	0.0388568	0.0457501	0.0276668	3.51254e-12	0.00585641	0.00842092	0.00822137	0.0159083	0.00636528	5.80907e-10	0	0.0131326	0	0.0262623	0.0483797	0.0760012	0.0830867	0	0.00241488	0.0845675	0.0468757	0.0556427	0.0435604	0	0.00976554	0.0861817	0.0832312	0	1.61141e-05	0.00558391	
3.645	0.0095922	0	0.022565	0.0219859	0.0272784	1.93646e-09	0.0248096	0.0375496	0.0223424	0.0224682	0.0384587	0.0495026	0.0116981	0.0233303	0.00873569	0.0144896	0.0191699	0.0751616	0.0672897	0.0249366	0.0847975	0.0853708	0.0854337	0.0263946	0.0085265	0.0157984	0.0398787	0.0638873	0.00766429	0	0.0364465	0.0345817	0.0406904	0.0357598	0	0.0187821	0.0382989	0.0073231	0.00800924	0.00749074	0.00580812	0.0525763	0.00197878	0	0	0.00471754	0.0238003	0.0358911	0.0353014	0.0857048	0.0371374	0.0427281	0.0252011	3.44911e-12	0.00556657	0.0082724	0.00831707	0.0151552	0.0053098	5.20849e-10	0	0.0124151	0	0.0251971	0.0480169	0.0737982	0.0830653	0	0.00240229	0.0845413	0.046643	0.0554632	0.0436893	0	0.0100064	0.0861297	0.083211	0	0	0.00494917	
