CEINMS output
datacolumns 100
datarows 92
endheader
time	addbrev_l_hip_flexion_l	addlong_l_hip_flexion_l	addmagDist_l_hip_flexion_l	addmagIsch_l_hip_flexion_l	addmagMid_l_hip_flexion_l	addmagProx_l_hip_flexion_l	bflh_l_hip_flexion_l	glmax1_l_hip_flexion_l	glmax2_l_hip_flexion_l	glmax3_l_hip_flexion_l	glmed1_l_hip_flexion_l	glmed2_l_hip_flexion_l	glmed3_l_hip_flexion_l	glmin1_l_hip_flexion_l	glmin2_l_hip_flexion_l	glmin3_l_hip_flexion_l	grac_l_hip_flexion_l	iliacus_l_hip_flexion_l	piri_l_hip_flexion_l	psoas_l_hip_flexion_l	recfem_l_hip_flexion_l	sart_l_hip_flexion_l	semimem_l_hip_flexion_l	semiten_l_hip_flexion_l	tfl_l_hip_flexion_l	addbrev_l_hip_adduction_l	addlong_l_hip_adduction_l	addmagDist_l_hip_adduction_l	addmagIsch_l_hip_adduction_l	addmagMid_l_hip_adduction_l	addmagProx_l_hip_adduction_l	bflh_l_hip_adduction_l	glmax1_l_hip_adduction_l	glmax2_l_hip_adduction_l	glmax3_l_hip_adduction_l	glmed1_l_hip_adduction_l	glmed2_l_hip_adduction_l	glmed3_l_hip_adduction_l	glmin1_l_hip_adduction_l	glmin2_l_hip_adduction_l	glmin3_l_hip_adduction_l	grac_l_hip_adduction_l	iliacus_l_hip_adduction_l	piri_l_hip_adduction_l	psoas_l_hip_adduction_l	recfem_l_hip_adduction_l	sart_l_hip_adduction_l	semimem_l_hip_adduction_l	semiten_l_hip_adduction_l	tfl_l_hip_adduction_l	addbrev_l_hip_rotation_l	addlong_l_hip_rotation_l	addmagDist_l_hip_rotation_l	addmagIsch_l_hip_rotation_l	addmagMid_l_hip_rotation_l	addmagProx_l_hip_rotation_l	bflh_l_hip_rotation_l	glmax1_l_hip_rotation_l	glmax2_l_hip_rotation_l	glmax3_l_hip_rotation_l	glmed1_l_hip_rotation_l	glmed2_l_hip_rotation_l	glmed3_l_hip_rotation_l	glmin1_l_hip_rotation_l	glmin2_l_hip_rotation_l	glmin3_l_hip_rotation_l	grac_l_hip_rotation_l	iliacus_l_hip_rotation_l	piri_l_hip_rotation_l	psoas_l_hip_rotation_l	recfem_l_hip_rotation_l	sart_l_hip_rotation_l	semimem_l_hip_rotation_l	semiten_l_hip_rotation_l	tfl_l_hip_rotation_l	bflh_l_knee_angle_l	bfsh_l_knee_angle_l	gaslat_l_knee_angle_l	gasmed_l_knee_angle_l	grac_l_knee_angle_l	recfem_l_knee_angle_l	sart_l_knee_angle_l	semimem_l_knee_angle_l	semiten_l_knee_angle_l	tfl_l_knee_angle_l	vasint_l_knee_angle_l	vaslat_l_knee_angle_l	vasmed_l_knee_angle_l	edl_l_ankle_angle_l	ehl_l_ankle_angle_l	fdl_l_ankle_angle_l	fhl_l_ankle_angle_l	gaslat_l_ankle_angle_l	gasmed_l_ankle_angle_l	perbrev_l_ankle_angle_l	perlong_l_ankle_angle_l	soleus_l_ankle_angle_l	tibant_l_ankle_angle_l	tibpost_l_ankle_angle_l	
3.19	0	0	-0	-0	0	0	-0	-0	-0	-0	-0	-0	-0	-0	-0	-0	0	0	-0	0	0	0	-0	-0	0	0	0	0	0	0	0	0	-0	-0	0	-0	-0	-0	-0	-0	-0	0	-0	-0	0	-0	-0	0	0	-0	0	0	-0	0	-0	-0	-0	-0	-0	-0	0	-0	-0	0	0	-0	-0	0	-0	0	-0	-0	-0	-0	-0	0	0	0	0	0	-0	0	0	0	-0	-0	-0	-0	0	0	-0	-0	-0	-0	-0	-0	-0	0	-0	
3.195	0.98051	103.496	-5.70773	-11.4482	2.1046	0.493964	-4.73003	-0.517865	-1.25361	-0.242603	-65.0859	-18.9303	-2.09303e-11	-4.08901	-10.5798	-0	0.157262	0.0193599	-0	0.0542712	346.673	14.3462	-255.461	-41.3036	2.49218e-16	1.73147	128.788	19.386	16.1091	21.0554	1.14084	3.69238	-0.208086	-0.178385	0.224949	-123.055	-33.2573	-3.87371e-11	-15.8953	-38.457	-0	0.660083	-0.00511182	-0	0.00837248	-277.24	-16.3861	166.183	37.1809	-8.00621e-16	0.111613	10.7702	-0.0568168	1.52207	-0.127515	-0.169041	-0.552424	-0.150017	-0.342643	-0.0733407	51.2812	-7.07133	-3.78986e-11	4.53185	1.03773	-0	-0.0575943	0.00557465	-0	0.00142057	-28.0059	-1.7742	-0.566103	-1.00552	-2.57363e-17	3.81334	3.34754	39.1099	0	0.359744	-548.22	12.8801	274.247	46.4812	-1.89385e-16	-0	-0.123616	-0.000421937	25.334	48.0233	-9.6286	-36.5757	-62.9034	-0	-17.8757	-60.9855	-0	222.837	-104.364	
3.2	0.580372	101.18	-5.99932	-11.7567	2.14913	1.91491	-0.415626	-1.08074	-1.98059	-0	-82.3149	-25.2885	-1.87117e-08	-4.66343	-3.32729	-0	0	0.434898	-0	0.164225	355.616	13.8162	-223.469	-36.3597	0	1.01707	125.25	20.5666	16.4317	20.2831	4.36941	0.321476	-0.416405	-0.266706	0	-154.118	-43.2955	-3.30639e-08	-17.8121	-11.7117	-0	0	-0.113339	-0	0.025622	-281.625	-15.584	143.548	32.4864	-0	0.0643053	10.4688	-0.0679731	1.57154	-0.129115	-0.652208	-0.0485746	-0.314355	-0.530898	-0	62.6951	-9.8464	-3.33341e-08	4.9613	0.248414	-0	-0	0.124066	-0	0.00371877	-27.6658	-1.71846	-0.52295	-0.933372	-0	0.341167	2.28744	35.3869	0	0	-556.023	13.2349	247.979	42.5651	-0	-2.81272e-12	-14.6502	-7.97649	25.4796	48.0077	-9.6075	-36.4697	-55.8798	-0	-17.9029	-61.004	-0	222.727	-104.892	
3.205	0.465576	99.052	-8.49658	-14.323	3.18044	3.60225	-2.34521	-26.3782	-47.8524	-4.8258	-78.4523	-15.9276	-1.58371e-08	-4.74296	-1.99137	-5.22235e-13	0.614964	0.639211	-1.79425e-10	0.203022	353.327	13.3372	-198.238	-36.8972	1.85216e-10	0.810253	122.056	29.3344	19.8522	28.5193	8.12731	1.79433	-9.74847	-6.11715	4.4008	-145.337	-26.5618	-2.67212e-08	-17.7789	-6.78657	-1.55839e-12	2.39631	-0.164122	-6.49128e-10	0.0320928	-276.762	-14.8263	125.5	32.6585	-6.16715e-10	0.0501875	10.1936	-0.109303	1.92442	-0.192312	-1.22273	-0.273681	-7.68387	-12.5547	-1.4152	57.8209	-6.41634	-2.77153e-08	4.85186	0.110074	-5.35468e-13	-0.220821	0.180683	-7.44806e-10	0.00386823	-26.3735	-1.66826	-0.420951	-0.97758	-1.71741e-11	1.95851	4.20498	37.3286	5.43128e-09	1.4125	-546.38	13.5447	226.422	44.7275	-1.40078e-10	-0	-21.4846	-11.7313	25.5755	47.9631	-9.50599	-36.5736	-57.8224	-8.68794e-09	-18.1325	-61.1494	-0	222.45	-106.039	
3.21	3.64467	99.4791	-10.1082	-16.7815	3.87987	4.22652	-6.49265	-58.1864	-109.926	-26.8829	-54.0304	-2.90832	-2.17229e-08	-9.57734	-11.6777	-4.61812e-12	1.66462	5.97348	-0	9.45435	351.477	12.8925	-175.072	-35.3475	1.22131e-10	6.30479	122.117	35.0144	23.0138	33.3488	9.43929	4.90255	-20.6428	-13.4081	24.2378	-98.9595	-4.72218	-3.50022e-08	-35.1937	-38.5298	-1.31757e-11	6.28949	-1.50708	-0	1.5183	-271.865	-14.0846	108.961	30.9155	-4.13014e-10	0.381988	10.1872	-0.147887	2.26537	-0.24107	-1.43238	-0.754659	-16.9151	-28.1532	-7.74421	38.6253	-1.20175	-3.72545e-08	9.45486	0.480354	-4.62823e-12	-0.594307	1.67317	-0	0.145151	-25.0435	-1.62145	-0.269771	-0.9458	-1.02949e-11	5.50796	5.82279	39.5216	6.45187e-10	3.84385	-535.684	13.7901	204.891	44.1526	-9.14463e-11	-6.47784e-09	-21.5162	-11.7195	27.1347	48.2591	-8.92033	-36.6388	-60.0262	-9.86385e-10	-18.1994	-61.2472	-0	222.449	-107.037	
3.215	9.01469	100.164	-9.21743	-17.3174	3.44163	4.10422	-9.48349	-71.586	-143.971	-34.1863	-23.3745	-0.163095	-2.28155e-08	-14.492	-22.5434	-2.25542e-13	2.10969	16.5586	-2.24116e-07	26.6326	350.082	12.467	-153.549	-32.542	1.05015e-10	15.5171	122.6	31.8652	23.4285	28.6505	9.08612	7.04707	-24.4139	-16.8728	30.3862	-42.2976	-0.257742	-3.51173e-08	-52.1583	-72.0208	-6.15773e-13	7.75972	-4.09102	-6.83292e-07	4.35966	-266.828	-13.3364	93.6705	28.035	-3.5954e-10	0.917865	10.2119	-0.153733	2.34689	-0.22515	-1.39194	-1.09475	-20.6815	-35.8767	-9.64989	16.2696	-0.0684741	-3.82239e-08	13.8851	0.747626	-2.19875e-13	-0.755097	4.59609	-8.1373e-07	0.306361	-23.6634	-1.57602	-0.0876734	-0.859016	-7.6203e-12	8.15369	5.8693	39.9797	7.34794e-10	4.94066	-521.847	13.9484	183.228	41.6599	-7.73248e-11	-1.38712e-08	-20.287	-11.0713	28.372	48.3397	-8.41667	-36.6189	-59.5383	-1.07727e-09	-18.1503	-61.2669	-0	222.457	-107.582	
3.22	14.032	99.13	-6.58301	-15.4533	2.32064	4.14051	-10.9084	-71.4704	-152.808	-33.3912	-7.82398	-0.489999	-0	-17.302	-24.6944	-0	2.0821	29.6299	-2.74725e-06	42.7693	349.275	12.0533	-134.608	-30.1371	4.12064e-06	24.0633	121.098	22.5585	20.5513	18.9337	9.10157	7.95029	-23.4777	-17.3541	29.1596	-13.9813	-0.753552	-0	-60.9571	-76.4239	-0	7.49265	-7.13868	-7.73461e-06	7.16363	-261.648	-12.5714	80.214	25.4791	-1.42199e-05	1.38666	10.0671	-0.125275	2.10048	-0.164118	-1.409	-1.24662	-20.4237	-36.9124	-9.20816	5.32992	-0.206907	-0	16.2117	0.791096	-0	-0.753519	8.14967	-9.32992e-06	0.319695	-22.235	-1.53089	0.107625	-0.76438	-2.33816e-07	9.47651	5.1359	39.2444	4.21375e-05	4.99131	-503.75	14.0029	162.899	39.3076	-2.95876e-06	-0.000131167	-19.3447	-10.7283	27.8502	48.1625	-8.27157	-36.5896	-57.3302	-5.943e-05	-18.099	-61.2481	-0.000430189	222.505	-107.747	
3.225	17.3628	96.3191	-4.01555	-11.7327	1.28067	4.37962	-11.4388	-68.8668	-153.92	-32.9087	-3.52955	-0.750085	-0	-18.8819	-19.8453	-3.59332e-06	1.88944	41.9663	-1.20297e-05	55.4775	349.199	11.6542	-118.601	-28.2132	3.91479e-06	29.7037	117.556	13.5293	15.2757	10.3797	9.57734	8.14596	-21.8456	-17.1033	28.1264	-6.2271	-1.12263	-0	-65.1113	-59.5436	-9.01782e-06	6.70687	-9.81078	-3.14038e-05	9.54627	-256.34	-11.7937	68.7823	23.3105	-1.35391e-05	1.66351	9.74899	-0.0869218	1.59782	-0.100661	-1.49984	-1.28962	-19.3668	-35.8961	-8.83585	2.36867	-0.315153	-0	17.4643	0.758014	-3.25592e-06	-0.693843	11.4374	-3.81799e-05	0.180255	-20.7645	-1.48627	0.304897	-0.666464	-1.41788e-07	10.0035	4.37613	38.0914	4.19981e-05	4.65491	-483.57	13.951	144.72	37.2501	-2.71346e-06	-0.000206091	-18.3867	-10.8582	26.4154	48.0394	-8.28137	-36.6021	-54.6266	-5.71584e-05	-18.0609	-61.2089	-0.000471784	222.739	-107.653	
3.23	18.8075	92.1404	-2.21997	-7.73479	0.61033	4.54513	-11.7817	-68.1803	-157.638	-35.901	-2.12369	-0.754441	-0.000244247	-19.845	-12.0793	-2.80235e-05	1.72439	51.4863	-0.000171691	61.4496	350.009	11.2783	-105.185	-26.6011	1.39736e-06	32.1448	112.475	7.28753	9.81547	4.9915	9.90918	8.16444	-20.9497	-17.3133	29.9058	-3.69954	-1.09931	-0.000329185	-67.0072	-35.181	-6.76017e-05	6.09376	-11.6113	-0.000417416	10.9073	-250.935	-11.0161	59.1362	21.3828	-4.80958e-06	1.74494	9.30028	-0.0544868	1.05391	-0.0547105	-1.57143	-1.30553	-18.7686	-35.3416	-9.35067	1.41486	-0.311856	-0.0003725	18.3146	0.62712	-2.42248e-05	-0.645328	13.9021	-0.000508584	-0.0725453	-19.2658	-1.44314	0.497254	-0.563039	-1.49057e-08	10.3266	3.76629	37.0571	1.55673e-05	4.38902	-467.828	13.8019	128.623	35.3079	-9.23997e-07	-7.53871e-05	-17.3877	-11.5567	25.5233	48.069	-8.38718	-36.6752	-52.2359	-2.05069e-05	-18.0276	-61.1448	-0.000191338	223.201	-107.367	
3.235	19.0981	87.1988	-1.22937	-4.40463	0.263523	4.57703	-12.2711	-68.6918	-164.037	-41.3626	-1.92415	-0.809355	-0	-20.4852	-3.62439	-3.45795e-05	1.59523	57.7406	-0	64.1937	352.023	10.9349	-93.4899	-25.2646	2.10183e-07	32.662	106.584	3.89406	5.42271	2.2148	9.97254	8.23941	-20.518	-17.9873	33.4364	-3.31118	-1.14897	-0	-67.7953	-10.2644	-8.03637e-05	5.67152	-12.4772	-0	11.7995	-245.589	-10.2535	50.7519	19.6663	-7.14179e-07	1.71369	8.78254	-0.0339519	0.599614	-0.0276828	-1.6031	-1.33143	-18.4095	-35.2031	-10.4107	1.28366	-0.325227	-0	19.0863	0.265835	-2.82896e-05	-0.611616	15.4441	-0	-0.372863	-17.7647	-1.40265	0.676419	-0.455247	4.17576e-09	10.7258	3.20121	36.2297	2.40721e-06	4.22228	-458.36	13.568	113.816	33.4631	-1.30833e-07	-0	-16.6243	-12.898	25.2684	48.1906	-8.54376	-36.8067	-50.281	-3.07887e-06	-18.0016	-61.0473	-4.45014e-05	223.898	-106.905	
3.24	18.6213	81.7708	-0.700765	-2.4059	0.0928163	4.9935	-12.9877	-69.1513	-170.68	-48.1061	-2.02145	-0.942845	-0	-20.9384	-0.893479	-0	1.47138	60.9921	-0	64.9192	355.359	10.6323	-83.2956	-24.2534	0	31.9217	100.207	2.12085	2.86025	0.819642	10.9024	8.41296	-20.1592	-18.8622	37.5731	-3.43931	-1.30542	-0	-68.0288	-2.46588	-0	5.32693	-12.5297	-0	12.4009	-240.323	-9.52002	43.4944	18.1979	-0	1.61392	8.22351	-0.0215674	0.326737	-0.0117357	-1.7782	-1.37467	-17.945	-34.9165	-11.6558	1.36305	-0.363608	-0	19.9377	0.0916472	-0	-0.581708	16.1568	-0	-0.689075	-16.2754	-1.36587	0.836325	-0.34546	0	11.2563	2.63428	35.5418	0	4.08257	-450.594	13.2655	100.26	31.8071	-0	-0	-16.1175	-14.7627	25.082	48.3574	-8.69352	-36.993	-48.6677	-0	-17.9885	-60.9118	-0	224.851	-106.28	
3.245	17.6051	75.954	-0.41085	-1.3852	0.010229	5.73758	-13.9755	-69.2311	-176.038	-55.5674	-2.13463	-1.09598	-0.0512944	-17.3192	-0.496743	-0	1.34077	61.7205	-6.73369e-05	64.279	360.047	10.3741	-74.7509	-23.6094	0.505192	30.3081	93.4456	1.17694	1.58308	0.0975794	12.5905	8.69645	-19.7831	-19.7701	41.7567	-3.59552	-1.4821	-0.0614753	-55.3675	-1.3396	-0	5.01332	-11.9437	-0.00013621	12.7992	-235.124	-8.82529	37.4122	17.0009	-1.62777	1.47179	7.63263	-0.0139642	0.187404	-0.00160623	-2.08529	-1.43794	-17.3041	-34.1974	-12.9136	1.46904	-0.399978	-0.0683871	17.0634	0.0693897	-0	-0.551032	16.1886	-0.000160467	-1.00056	-14.803	-1.33334	0.97718	-0.234603	0.0472917	11.9353	2.10516	34.9331	0	3.939	-436.115	12.9088	88.3252	30.4119	-0.266896	-0	-15.5089	-16.7095	24.7789	48.5635	-8.83721	-37.2347	-47.3162	-0	-17.9923	-60.7371	-0	226.061	-105.533	
3.25	16.2378	69.822	-0.249514	-0.936621	1.06216e-05	6.38965	-15.3115	-69.0551	-179.553	-63.6956	-2.25167	-1.26246	-0.786147	-10.9757	-0.487643	-0.000126357	1.20751	60.2361	-6.8929e-05	62.4877	365.854	10.1585	-68.0251	-23.3697	1.57031	28.1325	86.3725	0.67072	1.02477	0.000113574	14.1395	9.11618	-19.4313	-20.636	45.8709	-3.76136	-1.67049	-0.910969	-34.627	-1.28909	-0.000267194	4.74272	-10.8615	-0.00013257	13.0013	-229.834	-8.17376	32.5324	16.0866	-4.85646	1.30756	7.0168	-0.00925724	0.126062	-2.14958e-06	-2.37981	-1.52666	-16.5401	-33.0112	-14.151	1.59724	-0.429152	-0.993023	11.3247	0.0901422	-8.25749e-05	-0.521276	15.6393	-0.000152153	-1.28825	-13.3447	-1.30495	1.10518	-0.122139	0.211591	12.8015	1.68442	34.3888	0	3.80406	-413.162	12.5075	78.3405	29.3315	-0.747326	-4.41598e-06	-14.3737	-18.236	24.3956	48.8093	-8.96814	-37.5297	-46.2059	-0	-18.0099	-60.5216	-0	227.515	-104.714	
3.255	14.7185	63.4862	-0.168608	-0.750683	0	6.70645	-17.1094	-68.6127	-180.759	-72.3331	-2.36385	-1.44935	-0.779841	-5.64775	-0.50215	-0.000211663	1.07611	56.8126	-0.000528198	59.7213	372.821	9.98149	-63.2118	-23.5866	2.84025	25.7237	79.1034	0.422161	0.783504	0	15.0217	9.71136	-19.103	-21.3799	49.7479	-3.92502	-1.88061	-0.87665	-17.6485	-1.30603	-0.000436774	4.53333	-9.42218	-0.000971452	13.0058	-224.505	-7.56769	28.8161	15.4693	-8.35171	1.13996	6.38652	-0.00676253	0.100386	-0	-2.5709	-1.64895	-15.6734	-31.3671	-15.3204	1.74543	-0.450468	-0.929123	6.1744	0.119689	-0.000125086	-0.494762	14.5972	-0.0010776	-1.53511	-11.9152	-1.28035	1.23076	-0.00620051	0.502515	13.9124	1.38886	33.9105	0	3.69617	-386.032	12.0714	70.4614	28.6223	-1.20008	-7.64677e-06	-12.7569	-19.2383	23.9559	49.0918	-9.08778	-37.872	-45.3484	-0	-18.036	-60.2632	-0	229.182	-103.847	
3.26	13.2159	57.0725	-0.140937	-0.697393	4.48403e-05	6.65951	-19.5111	-67.7902	-179.326	-80.9011	-2.4687	-1.65412	-0.964281	-2.73825	-0.525644	-0	0.946251	51.7478	-0	56.1529	380.964	9.83944	-60.3246	-24.3465	4.27368	23.3627	71.7714	0.326682	0.692358	0.000728518	15.1625	10.5255	-18.767	-21.9247	52.9837	-4.08581	-2.11005	-1.05542	-8.51272	-1.3507	-0	4.39113	-7.76909	-0	12.8117	-219.189	-7.00909	26.1691	15.1758	-11.8422	0.982944	5.75362	-0.00604234	0.0925622	-1.81472e-05	-2.64011	-1.81436	-14.7035	-29.3167	-16.3026	1.91579	-0.459469	-1.07891	3.20744	0.158053	-0	-0.472302	13.1545	-0	-1.72727	-10.5326	-1.25925	1.36629	0.116695	0.934826	15.3321	1.17666	33.5145	5.51647e-08	3.62393	-358.174	11.6109	64.6616	28.3582	-1.58165	-0.000105011	-10.9284	-19.8061	23.457	49.4065	-9.19097	-38.2537	-44.7688	-6.38852e-08	-18.0643	-59.9611	-0	231.034	-102.913	
3.265	11.8357	50.5642	-0.152866	-0.736917	2.26458e-05	6.37265	-22.7286	-66.5606	-175.487	-88.3157	-2.64663	-1.86962	-1.26125	-1.35881	-0.550387	-0.000249626	0.814533	45.6284	-0	51.9935	390.361	9.72929	-59.3344	-25.7825	5.63194	21.2279	64.3276	0.326532	0.694432	0.000557491	14.8194	11.6248	-18.4143	-22.2531	54.9564	-4.38062	-2.35139	-1.34928	-4.22454	-1.40384	-0.000496712	4.31589	-6.07892	-0	12.4305	-213.991	-6.49958	24.474	15.2501	-14.5879	0.843832	5.11526	-0.00693598	0.09701	-1.58535e-05	-2.62641	-2.03742	-13.6523	-27.0042	-16.9123	2.17896	-0.450543	-1.31955	1.72373	0.205086	-0.00011364	-0.453819	11.473	-0	-1.85618	-9.21763	-1.24144	1.52447	0.252229	1.45813	17.1577	1.02112	33.2299	4.58376e-08	3.59005	-330.406	11.1366	60.7956	28.636	-1.80342	-0	-9.16244	-20.0213	22.8976	49.707	-9.27881	-38.6665	-44.5061	-5.25596e-08	-18.0883	-59.6157	-0	233.046	-101.87	
3.27	10.6179	43.8984	-0.197809	-0.850265	2.97602e-06	5.97479	-27.047	-64.9635	-169.835	-93.6858	-2.92579	-2.088	-1.56665	-0.747022	-0.569952	-1.92808e-06	0.676303	39.1486	-0.000419799	47.5805	400.843	9.6481	-60.271	-28.0866	6.91015	19.3896	56.6533	0.388189	0.759653	0.000182554	14.2686	13.093	-18.0524	-22.3964	55.3129	-4.86197	-2.59734	-1.64481	-2.33682	-1.45055	-3.79322e-06	4.30919	-4.51004	-0.000699287	11.9132	-208.89	-6.03978	23.6409	15.7561	-16.6143	0.724119	4.46352	-0.00940885	0.110955	-5.9026e-06	-2.57494	-2.33728	-12.5543	-24.6049	-17.0464	2.57903	-0.418669	-1.52609	1.0371	0.259514	-7.36339e-07	-0.439201	9.73544	-0.00066645	-1.92396	-7.98595	-1.22676	1.71906	0.408958	2.04803	19.5096	0.905657	33.09	1.76474e-08	3.59792	-304.003	10.6602	58.727	29.5773	-1.89512	-0	-7.5701	-19.9489	22.2839	49.8468	-9.34702	-39.0992	-44.6105	-2.00993e-08	-18.1017	-59.2284	-0	235.187	-100.673	
3.275	9.55141	37.1929	-0.271859	-1.01917	-0	5.54356	-32.8143	-63.0327	-162.923	-97.1277	-3.28742	-2.29938	-1.88845	-0.484079	-0.581743	-0.0941762	0.525535	32.5326	-0	43.1811	412.321	9.59268	-63.4212	-31.5135	7.84262	17.8309	48.8485	0.489398	0.863082	0	13.6805	15.0205	-17.6846	-22.3921	54.3767	-5.50955	-2.83885	-1.95393	-1.5345	-1.48589	-0.18409	4.3763	-3.12866	-0	11.3087	-203.938	-5.62916	23.6825	16.7752	-17.4008	0.621422	3.80816	-0.0134637	0.131812	-0	-2.5148	-2.73638	-11.438	-22.2529	-16.8078	3.13079	-0.359492	-1.7053	0.743296	0.320229	-0.0286789	-0.428458	8.00076	-0	-1.93768	-6.85661	-1.21498	1.9707	0.598841	2.59152	22.5164	0.906227	33.1357	2.79846e-09	3.65304	-279.29	10.1903	58.5186	31.3196	-1.82736	-0	-6.47977	-20.1081	21.6239	49.785	-9.39415	-39.536	-45.1416	-3.17557e-09	-18.0979	-58.8013	-4.16017e-07	237.425	-99.302	
3.28	8.60613	30.7109	-0.3726	-1.22854	-0	5.11733	-40.8234	-60.7954	-155.177	-99.2651	-3.70247	-2.49186	-2.23711	-0.36658	-0.583483	-1.72814	0.354032	26.1456	-0	38.8509	424.627	9.55959	-69.4646	-36.3754	8.01084	16.5006	41.2017	0.615157	0.986869	0	13.1438	17.6681	-17.311	-22.2721	52.711	-6.29086	-3.06488	-2.29091	-1.18737	-1.50535	-3.37385	4.52633	-1.99391	-0	10.6228	-199.171	-5.26626	24.7455	18.4029	-16.3254	0.532282	3.1736	-0.0190747	0.157468	-0	-2.4621	-3.2915	-10.3253	-20.0329	-16.3719	3.8443	-0.269922	-1.86413	0.629409	0.38533	-0.384557	-0.421677	6.35933	-0	-1.90055	-5.84419	-1.20584	2.31301	0.837052	2.88921	26.5584	1.07522	33.4076	0	3.76322	-255.91	9.73398	60.5078	34.003	-1.57695	-6.70676e-06	-5.76869	-21.0953	20.9258	49.542	-9.41808	-39.9704	-46.1635	-0	-18.0722	-58.3376	-0	239.728	-97.7661	
3.285	7.75777	24.785	-0.49872	-1.46861	-0	4.71583	-52.3405	-58.2773	-146.92	-100.585	-4.13312	-2.65266	-2.59701	-0.304536	-0.573188	-1.70909	0.15042	20.6997	-4.69521e-05	34.6469	438.286	9.5459	-79.3509	-43.0431	6.93331	15.3577	34.1123	0.755926	1.12093	0	12.7112	21.434	-16.9292	-22.0641	50.7189	-7.16236	-3.26333	-2.64356	-1.01784	-1.50443	-3.35079	4.77202	-1.15175	-7.46027e-05	9.86747	-194.738	-4.94933	27.0485	20.7495	-12.9321	0.453931	2.59182	-0.0262507	0.186586	-0	-2.42738	-4.09175	-9.2327	-17.9919	-15.8637	4.72258	-0.148906	-1.98692	0.591674	0.451918	-0.230803	-0.418903	4.98046	-5.64399e-05	-1.81841	-5.26648	-1.19912	2.7904	1.1414	2.68248	32.2189	1.32016	33.9371	0	3.9384	-244.521	9.29781	65.1352	37.7691	-1.15048	-2.88833e-05	-5.37747	-22.0399	20.1995	49.1346	-9.41783	-40.3862	-47.7389	-0	-18.022	-57.8418	-0	242.063	-96.096	
3.29	6.9967	19.6823	-0.648506	-1.73136	-0	4.35084	-67.7707	-55.4995	-138.371	-101.419	-4.53383	-2.76929	-2.94899	-0.260492	-0.549584	-1.55804	-0.100926	16.7286	-0.000562467	30.7098	452.581	9.54858	-94.022	-51.8598	5.06703	14.3884	27.9278	0.904299	1.25892	0	12.4256	26.3024	-16.5336	-21.7877	48.6578	-8.06871	-3.42189	-2.99685	-0.908979	-1.47936	-3.08537	5.13177	-0.577051	-0.000889545	9.08539	-190.647	-4.6762	30.7892	23.9054	-8.62875	0.384698	2.08929	-0.0348903	0.218113	-0	-2.42013	-5.15488	-8.17085	-16.1463	-15.3638	5.7572	0.00200189	-2.05969	0.580425	0.516165	-0.0636605	-0.420244	3.98311	-0.000610859	-1.70405	-4.90624	-1.19455	3.44702	1.5288	2.07349	39.4523	1.60406	34.7514	3.10529e-10	4.19211	-237.917	8.88617	72.7053	42.6959	-0.709241	-4.32879e-06	-4.9852	-22.7896	19.4553	48.575	-9.39304	-40.7756	-49.9216	-3.54234e-10	-17.9473	-57.3188	-0	244.398	-94.3315	
3.295	6.32395	15.1879	-0.819036	-2.00737	-0	4.029	-87.0982	-52.4767	-129.643	-101.792	-4.85645	-2.83069	-3.27381	-0.220102	-0.513559	-1.58756	-0.421557	13.8332	-0	27.22	466.991	9.56471	-114.084	-62.4126	3.59045	13.6033	22.3426	1.05387	1.39539	0	12.3291	32.1166	-16.1146	-21.4499	46.5974	-8.94742	-3.5288	-3.33571	-0.81345	-1.43076	-3.19496	5.63069	-0.180247	-0	8.34044	-186.946	-4.44452	36.0629	27.6317	-5.57372	0.323555	1.64252	-0.0448181	0.250872	-0	-2.4505	-6.47195	-7.14543	-14.4885	-14.8929	6.92688	0.178283	-2.07308	0.571415	0.574795	0.0979455	-0.42583	3.26122	-0	-1.57515	-4.61843	-1.19186	4.31082	1.98956	1.53607	48.006	1.91329	35.8637	7.38299e-10	4.54238	-230.882	8.50236	83.2114	48.2685	-0.425448	-6.17506e-06	-13.1136	-23.4108	18.7042	47.8845	-9.34434	-41.1314	-52.7456	-8.47373e-10	-17.8484	-56.7743	-1.71352e-06	246.707	-92.511	
3.3	5.74558	11.1407	-1.00563	-2.28557	-0	3.74982	-110.872	-49.2228	-120.766	-101.572	-5.05725	-2.82888	-3.55079	-0.178995	-0.483995	-1.6242	-0.840115	11.6611	-5.70144e-09	24.6886	480.502	9.59161	-139.605	-73.1798	2.76251	13.03	17.0995	1.19864	1.52541	0	12.459	38.9736	-15.6595	-21.0444	44.5238	-9.73694	-3.57429	-3.64291	-0.713392	-1.41037	-3.34361	6.29542	0.099511	-9.07668e-09	7.59451	-183.434	-4.25205	42.8391	31.2781	-3.90666	0.269638	1.23271	-0.0557461	0.283521	-0	-2.52856	-8.08316	-6.15912	-12.9952	-14.4443	8.19928	0.372407	-2.02106	0.552061	0.647589	0.283999	-0.435338	2.72401	-4.94768e-09	-1.4064	-4.34684	-1.19077	5.38141	2.46696	1.2239	58.0254	2.23942	37.274	8.20982e-10	5.00757	-225.722	8.14939	96.3316	53.3198	-0.278985	-1.37882	-36.0089	-26.2565	17.9572	47.0806	-9.27303	-41.4418	-56.2202	-9.49376e-10	-17.7268	-56.2147	-0	248.963	-90.6672	
3.305	5.26509	7.72912	-1.20188	-2.55378	-0	3.50465	-138.742	-45.7584	-111.781	-100.679	-5.10034	-2.76	-3.75995	-0.137171	-0.462244	-1.56997	-1.39147	10.0165	-0.000418071	22.5951	493.208	9.62813	-170.218	-82.674	2.29527	12.7016	12.4663	1.33313	1.64464	0	12.8458	46.6906	-15.1545	-20.5643	42.4407	-10.3782	-3.5515	-3.9003	-0.603643	-1.42647	-3.3293	7.14913	0.300191	-0.000672984	6.96928	-180.295	-4.09719	51.0252	34.3129	-2.95714	0.22172	0.879355	-0.0672807	0.314625	-0	-2.66372	-9.9691	-5.21374	-11.6418	-14.0138	9.52906	0.574186	-1.90218	0.515359	0.743963	0.473504	-0.447814	2.32052	-0.000319214	-1.25319	-4.19448	-1.19117	6.63163	2.89286	1.04484	69.2711	2.59423	38.9735	7.79554e-10	5.60313	-223.164	7.83035	111.646	57.0194	-0.199435	-3.65514	-66.0126	-31.0855	17.2247	46.1859	-9.18106	-41.7066	-60.3249	-9.08991e-10	-17.5859	-55.6466	-0	251.145	-88.827	
3.31	4.8796	4.92173	-1.39952	-2.79899	-0	3.27801	-163.69	-42.3722	-102.771	-99.1088	-4.96233	-2.62522	-3.88504	-0.0965699	-0.439064	-1.45552	-2.1201	8.7412	-0	20.7771	504.695	9.67903	-199.382	-89.0425	2.06136	12.6505	8.40888	1.45207	1.7491	0	13.5149	53.0064	-14.743	-20.0079	40.3749	-10.8197	-3.45755	-4.09125	-0.484748	-1.45652	-3.20378	8.2324	0.438449	-0	6.43858	-177.573	-3.98083	58.7901	36.1148	-2.42129	0.178015	0.579082	-0.0788181	0.342674	-0	-2.86526	-11.6441	-4.23342	-10.4073	-13.6031	10.859	0.771518	-1.72062	0.457318	0.858364	0.649039	-0.463199	2.01113	-0	-1.11501	-4.14903	-1.19363	7.78381	3.18203	0.957945	78.4703	3.00241	40.9458	7.25105e-10	6.35886	-222.545	7.55202	125.123	58.5122	-0.155921	-5.21999	-96.5194	-36.2178	16.5165	45.2253	-9.0711	-41.9264	-64.9997	-8.5269e-10	-17.4289	-55.0768	-0	253.235	-87.0127	
3.315	4.57629	2.69323	-1.58897	-3.00819	-0	3.05044	-174.379	-40.0218	-94.7275	-96.9226	-4.63604	-2.431	-3.9166	-0.0599231	-0.407205	-1.31052	-3.09131	7.76718	-2.56077e-06	19.2633	514.606	9.75775	-208.329	-91.4861	1.7501	12.8998	4.91814	1.55087	1.83515	0	14.4976	54.6578	-15.0036	-19.5757	38.3662	-11.0219	-3.29427	-4.20339	-0.360066	-1.4794	-3.01922	9.62596	0.520337	-4.27853e-06	6.01135	-175.323	-3.90712	60.8703	36.5065	-1.87672	0.136044	0.329914	-0.0896719	0.366177	-0	-3.14433	-12.3341	-2.92113	-9.34801	-13.2167	12.1228	0.951517	-1.48637	0.37606	0.980931	0.803579	-0.483279	1.77866	-1.4307e-06	-0.994524	-4.19694	-1.19977	8.08357	3.29021	0.825862	80.9129	3.48393	43.1672	6.84505e-10	7.3368	-223.179	7.32646	126.134	57.7567	-0.116819	-6.27363	-100.184	-40.2709	15.8409	44.2179	-8.94622	-42.0971	-70.1388	-8.11347e-10	-17.259	-54.5119	-0	255.22	-85.2436	
3.32	4.33456	1.12682	-1.75998	-3.16953	-0	2.80128	-175.249	-37.6025	-87.2067	-94.2312	-4.133	-2.18837	-3.85244	-0.0300994	-0.362565	-1.1433	-4.34734	6.75107	-0.000510867	18.0487	522.683	9.88829	-205.117	-91.422	1.2381	13.465	2.2215	1.62585	1.89968	0	15.8485	53.526	-15.1871	-19.1701	36.4588	-10.9635	-3.06794	-4.22927	-0.234496	-1.47784	-2.7827	11.3087	0.562949	-0.000876021	5.68614	-173.608	-3.8841	59.8435	36.1428	-1.21444	0.0928098	0.144842	-0.0993232	0.383801	-0	-3.51818	-12.3772	-1.72475	-8.40241	-12.8601	13.2511	1.10173	-1.21384	0.271714	1.0986	0.92694	-0.504625	1.54028	-0.000232609	-0.891773	-4.35256	-1.21243	7.8473	3.26309	0.590665	79.4568	4.05487	45.6235	6.54724e-10	8.52414	-224.458	7.17154	121.009	55.9981	-0.0740345	-6.93917	-91.0622	-42.8207	15.2046	43.19	-8.80916	-42.2214	-75.6125	-7.81268e-10	-17.0797	-53.9582	-0	257.09	-83.5363	
3.325	4.12852	0.301307	-1.90282	-3.27368	-0	2.50816	-173.207	-35.0061	-80.0834	-91.1252	-3.48266	-1.91211	-3.69787	-0.00962032	-0.304687	-0.960523	-5.84589	5.76537	-0	17.1321	528.736	10.0965	-201.207	-90.4005	0.516042	14.3575	0.648567	1.67438	1.94027	0	17.6657	51.9268	-15.222	-18.7471	34.676	-10.6434	-2.7895	-4.16718	-0.11397	-1.44009	-2.49612	13.0981	0.572533	-0	5.46304	-172.493	-3.9205	59.0718	35.6573	-0.464165	0.0449828	0.0410163	-0.10699	0.394515	-0	-4.01513	-12.2631	-0.650095	-7.54644	-12.5325	14.1772	1.21165	-0.920266	0.14687	1.19672	1.00757	-0.519492	1.31181	-0	-0.80633	-4.59826	-1.23465	7.52744	3.158	0.24798	77.5484	4.72127	48.3019	6.2962e-10	9.79456	-225.955	7.10422	116.967	54.3251	-0.0280949	-7.26961	-83.6434	-44.1453	14.6134	42.1594	-8.66262	-42.3068	-81.2593	-7.54962e-10	-16.8948	-53.4215	-0	258.841	-81.905	
3.33	3.92829	0.030697	-2.01102	-3.37735	-0.78336	2.14384	-170.288	-32.2647	-73.257	-87.6247	-2.72903	-1.61886	-3.46501	-0.0587447	-0.23651	-0.773423	-7.4701	4.93177	-1.59907e-05	16.4798	532.645	10.4217	-199.898	-88.9634	0.00122025	15.5824	0.0730648	1.69682	1.99227	1.66217	20.1233	50.4997	-15.0881	-18.2704	33.0049	-10.0812	-2.47301	-4.02145	-1.73696	-1.36052	-2.17255	14.7686	0.565665	-2.92993e-05	5.33236	-172.025	-4.03083	59.5057	35.2514	-0.00100958	-0.0109327	0.00447364	-0.112412	0.405213	-0.165761	-4.68324	-12.1311	0.28732	-6.75684	-12.2204	14.8441	1.27372	-0.623915	2.49635	1.26078	1.03848	-0.523473	1.12009	-3.81801e-06	-0.735883	-4.94735	-1.27106	7.24867	2.99745	0.000588839	76.1369	5.48521	51.1958	6.06364e-10	10.9992	-227.096	7.149	115.901	53.0814	-6.14981e-05	-7.2889	-80.8378	-44.4953	14.0702	41.1436	-8.51002	-42.3535	-86.9034	-7.28855e-10	-16.7072	-52.9068	-0	260.473	-80.3611	
3.335	3.70129	0	-2.13835	-3.59295	-0.881877	1.57348	-166.435	-29.5064	-66.8506	-83.9577	-1.99653	-1.32544	-3.17106	0.177406	-0.163697	-0.593934	-9.0447	4.2721	-0.000223884	16.062	534.395	10.9128	-201.186	-87.3135	0	17.1334	0	1.74163	2.12259	1.71361	22.1926	49.2129	-14.8161	-17.7571	31.5035	-9.44164	-2.13479	-3.80187	-7.27832	-1.24035	-1.83002	16.0941	0.553238	-0.000427016	5.2858	-172.239	-4.2346	61.1606	34.9829	-0	-0.0783453	0	-0.118493	0.429315	-0.180153	-5.28749	-11.9717	1.07886	-6.03605	-11.9382	15.2193	1.28443	-0.342058	11.7019	1.27909	1.01811	-0.516028	0.969282	-2.73278e-05	-0.678228	-5.37779	-1.32741	7.0017	2.79176	0	75.1638	6.34895	54.2801	5.84258e-10	11.9916	-227.501	7.33546	117.798	52.3647	-0	-7.04685	-82.9332	-44.0191	13.5769	40.1628	-8.35392	-42.3689	-92.3278	-7.02069e-10	-16.5197	-52.4185	-0	261.989	-78.9127	
3.34	3.22104	0	-2.32332	-3.9376	-0.861594	0.776351	-161.436	-26.7919	-60.8908	-80.4477	-1.33287	-1.04843	-2.83714	0.94202	-0.0933494	-0.431968	-10.3653	3.75824	-0	15.8659	534.054	11.6317	-204.883	-85.6389	0.00199885	17.8936	0	1.83872	2.34317	1.5508	21.8174	47.9707	-14.4171	-17.2062	30.2603	-8.79322	-1.79399	-3.5237	-10.313	-1.08717	-1.48642	16.8795	0.539779	-0	5.32079	-173.145	-4.55847	64.0208	34.8994	-0.00141557	-0.155013	0	-0.127356	0.468691	-0.170579	-5.31881	-11.7628	1.72441	-5.38069	-11.7156	15.3239	1.24617	-0.0894728	18.6103	1.24517	0.94945	-0.49918	0.852447	0	-0.631938	-5.89307	-1.41092	6.76598	2.55013	0.000965599	74.4591	7.34826	57.4506	5.63512e-10	12.6423	-227.005	7.70087	122.629	52.2445	-9.07652e-05	-6.61933	-88.8055	-42.8694	13.1341	39.2267	-8.19708	-42.3606	-97.2176	-6.75013e-10	-16.335	-51.9605	-0	263.397	-77.5668	
3.345	2.24183	0.000221797	-2.55732	-4.36396	-0.995164	0.0201458	-155.638	-24.1772	-55.3674	-77.0808	-0.704808	-0.822911	-2.48221	1.54098	-0.126579	-0.294562	-11.2572	3.36453	-0	15.9011	531.812	12.6634	-211.177	-84.0751	0.00377629	15.5003	0.000785847	1.97922	2.62941	1.67651	18.6986	46.824	-13.9094	-16.6113	29.2367	-8.11316	-1.50863	-3.20164	-9.14336	-3.5768	-1.15811	17.0178	0.528144	-0	5.44251	-174.736	-5.04162	68.2043	35.0274	-0.0024917	-0.201473	4.33267e-05	-0.138405	0.517537	-0.191556	-4.66038	-11.5219	2.22935	-4.78671	-11.5372	15.2838	1.19727	0.12318	18.5828	4.54106	0.839869	-0.476368	0.763399	0	-0.596391	-6.4673	-1.53154	6.52894	2.27916	0.00181995	74.0657	8.5524	60.5069	5.44092e-10	12.873	-225.689	8.29778	130.67	52.7514	-0.000166936	-6.09214	-98.7334	-41.2564	12.7408	38.348	-8.0438	-42.3329	-101.152	-6.47944e-10	-16.156	-51.5356	-0	264.687	-76.3281	
3.35	1.2076	0.000787299	-2.82494	-4.82737	-1.0713	-0.447786	-149.365	-21.7092	-50.3559	-73.8205	-0.129612	-0.68539	-2.12785	1.84765	0.0958447	-0.190496	-11.6927	3.05555	-2.30439e-05	16.1644	527.896	14.1007	-220.014	-82.7204	0.000879885	10.9583	0.00332133	2.1509	2.95803	1.7053	13.9364	45.803	-13.3152	-15.9958	28.3857	-7.35285	-1.34722	-2.85654	-7.17152	-4.92045	-0.881946	16.6125	0.517675	-5.09212e-05	5.65212	-176.96	-5.73088	73.7701	35.3789	-0.000543901	-0.187958	0.00017664	-0.150651	0.570494	-0.201037	-3.54685	-11.2648	2.60307	-4.25945	-11.3848	14.9593	1.16895	0.289618	16.4704	6.90935	0.719156	-0.453498	0.693885	6.55247e-06	-0.570348	-7.09482	-1.69996	6.26598	1.98375	0.00042241	73.9928	9.97795	63.1591	5.25877e-10	12.7474	-223.847	9.18413	142.125	53.8904	-3.85175e-05	-5.57491	-107.629	-39.5233	12.3946	37.5339	-7.90069	-42.2908	-103.655	-6.2115e-10	-15.9863	-51.1459	-0	265.753	-75.2007	
3.355	0.521573	0.000471723	-3.10682	-5.2901	-1.08733	-0.574828	-143.02	-19.4045	-45.9477	-70.6605	0.366169	-0.595277	-1.78839	1.82269	0.422959	-0.116971	-11.795	2.79818	-2.877e-05	16.6602	522.65	16.0547	-231.134	-81.6447	0	6.75394	0.00243891	2.3399	3.30815	1.64956	9.03944	44.9567	-12.6463	-15.3985	27.6717	-6.58528	-1.26322	-2.50331	-5.05542	-5.37868	-0.665129	15.9181	0.505979	-6.73287e-05	5.95315	-179.753	-6.6864	80.7053	35.9557	-0	-0.142299	0.000125176	-0.163096	0.623084	-0.199397	-2.34562	-11.0141	2.8556	-3.80594	-11.2458	14.4415	1.19056	0.408021	13.1592	8.33124	0.60448	-0.436633	0.636247	1.27945e-05	-0.552794	-7.74132	-1.92899	5.94485	1.66765	0	74.2816	11.5929	65.0818	5.08503e-10	12.4371	-222.028	10.4313	157.103	55.6497	-0	-5.17586	-114.511	-38.0374	12.0932	36.7927	-7.77391	-42.2395	-104.333	-5.94706e-10	-15.8293	-50.7931	-6.05949e-07	265.845	-74.1879	
3.36	0.175154	0.000213227	-3.38598	-5.72391	-1.07253	-0.508277	-137.088	-17.2689	-42.0478	-67.634	0.771401	-0.524487	-1.52621	1.3969	0.89309	-0.065749	-11.6918	2.55765	-0	17.382	516.416	18.6381	-245.013	-80.9115	0	3.79199	0.00140238	2.53458	3.66202	1.56285	5.47119	44.366	-11.9126	-14.8097	27.0741	-5.84865	-1.2099	-2.23253	-2.9153	-6.30028	-0.489322	15.1269	0.48857	-0	6.34463	-183.009	-7.97491	89.243	36.7589	-0	-0.0936481	6.95367e-05	-0.174707	0.672015	-0.192613	-1.44494	-10.8005	2.99736	-3.41265	-11.1147	13.7826	1.23007	0.50713	8.61974	10.7274	0.491475	-0.427906	0.582482	0	-0.542279	-8.40835	-2.23138	5.5529	1.33444	0	75.0328	13.3586	66.1936	0	12.0697	-220.723	12.1122	176.214	58.0131	-0	-4.95672	-118.329	-36.9975	11.8339	36.125	-7.66718	-42.1851	-103.286	-0	-15.6882	-50.4783	-7.28503e-07	265.057	-73.2917	
3.365	0.0346496	0.000117595	-3.64541	-6.1071	-1.02808	-0.38581	-131.721	-15.2977	-38.5345	-64.7416	1.08497	-0.451123	-1.33968	0.736548	1.50108	-0.0313972	-11.4432	2.33689	-0	18.3353	509.592	21.9934	-262.4	-80.5684	0	1.97651	0.00103535	2.7229	4.00297	1.44897	3.22281	44.0177	-11.1208	-14.2072	26.5607	-5.17044	-1.1388	-2.04865	-1.19754	-7.21112	-0.34097	14.3064	0.467014	-0	6.82853	-186.609	-9.68155	99.7273	37.784	-0	-0.055316	4.96868e-05	-0.184884	0.714824	-0.181165	-0.86455	-10.6307	3.0385	-3.06439	-10.9826	13.0345	1.23975	0.586243	4.02527	13.4364	0.375299	-0.425511	0.533175	0	-0.537659	-9.07327	-2.6233	5.07884	0.98767	0	76.1977	15.1885	66.8494	1.91626e-07	11.6802	-220.482	14.319	200.325	60.9534	-0	-4.94119	-119.607	-36.4502	11.6141	35.5361	-7.58118	-42.1326	-101.335	-2.19271e-07	-15.5655	-50.2019	-1.29229e-06	263.845	-72.5128	
3.37	-0.00749919	0	-3.8712	-6.42582	-0.953847	-0.274087	-126.849	-13.4862	-35.3267	-61.867	1.31487	-0.385268	-1.23082	0.27209	1.96718	-0.0599384	-11.0773	2.16649	-0	19.5684	502.573	21.0206	-283.385	-80.6545	0	0.89533	0	2.89431	4.31656	1.30835	1.90678	43.8317	-10.2803	-13.5433	26.0509	-4.57323	-1.07059	-1.96666	-0.353954	-7.10881	-1.20477	13.4732	0.448711	-0	7.4212	-190.403	-9.52122	112.255	39.0238	-0	-0.0276658	0	-0.192907	0.749916	-0.165242	-0.518449	-10.4941	2.9905	-2.77843	-10.8214	12.2599	1.23824	0.667352	1.35071	14.4104	1.44043	-0.426324	0.49527	0	-0.538769	-9.68605	-2.49786	4.49592	0.631454	0	77.6079	16.9298	67.4507	1.31197e-08	11.2664	-222.005	13.7198	229.839	64.4355	-0	-5.13051	-119.412	-36.3556	11.4313	35.0235	-7.51388	-42.0852	-99.3005	-1.48592e-08	-15.4623	-49.964	-1.31145e-06	262.492	-71.8496	
3.375	-0.00816783	0	-4.05358	-6.67305	-0.854641	-0.186048	-122.394	-11.8265	-32.3662	-58.8931	1.47593	-0.328926	-1.14791	0.0376613	2.25857	-0.0244981	-10.6207	2.07784	-0	21.1786	495.73	12.7207	-307.619	-81.2035	0	0.261658	0	3.04028	4.59077	1.14707	1.12908	43.7257	-9.40123	-12.8174	25.4606	-4.07174	-1.01073	-1.91377	-0.0401273	-6.53253	-2.94739	12.6396	0.441885	-0	8.1564	-194.258	-5.92266	126.7	40.4695	-0	-0.00874068	0	-0.198546	0.776706	-0.145824	-0.310457	-10.3784	2.86571	-2.54176	-10.6018	11.5208	1.23165	0.738973	0.17307	14.2997	3.79202	-0.427495	0.475969	0	-0.546141	-10.2847	-1.50604	3.77938	0.270676	0	79.0788	18.4566	68.1074	0.0017041	10.8256	-225.951	8.3209	264.677	68.4161	-0	-5.50821	-118.756	-36.6489	11.2831	34.5879	-7.46178	-42.0454	-97.4977	-0.00191329	-15.3785	-49.7644	-9.80316e-07	261.155	-71.2986	
3.38	-0	0	-4.18627	-6.84671	-0.735791	-0.119255	-118.337	-10.3102	-29.582	-55.7582	1.58649	-0.281757	-1.15099	0	2.32933	0.153119	-10.098	2.09581	-0	23.2924	489.411	5.09095	-334.552	-82.3054	0	0	0	3.15398	4.81573	0.970849	0.652857	43.642	-8.4957	-12.0172	24.7281	-3.67309	-0.959518	-1.99723	-0	-5.6413	-4.92063	11.8155	0.453454	-0	9.07795	-198.021	-2.43149	142.767	42.1416	-0	-0	0	-0.201829	0.795009	-0.123884	-0.181121	-10.2755	2.67766	-2.3453	-10.3044	10.8713	1.22113	0.850874	0	13.2126	6.7437	-0.426688	0.481059	0	-0.560092	-10.8356	-0.600662	2.92101	-0.0888267	0	80.4598	19.7528	68.7612	0	10.356	-232.459	3.3337	304.331	72.8984	-0	-6.04528	-117.983	-37.2002	11.1673	34.2281	-7.42144	-42.0149	-95.9538	-0	-15.3131	-49.6023	-2.42289e-06	259.936	-70.8555	
3.385	-0	-0	-4.26593	-6.94839	-0.602216	-0.0687442	-114.711	-8.92694	-26.9364	-52.8097	1.66552	-0.243933	-7.20302	0	0.924218	0.452722	-9.52882	2.28242	-0	26.067	483.923	2.14535	-363.072	-84.1081	0	0	0	3.23025	4.984	0.784304	0.348392	43.5505	-7.57642	-11.1506	23.7904	-3.37894	-0.919558	-12.9623	-0	-1.94411	-6.72735	11.0063	0.497831	-0	10.2388	-201.521	-1.04798	159.814	44.094	-0	-0	0	-0.202663	0.805112	-0.100244	-0.0972941	-10.1824	2.44055	-2.17653	-9.94058	10.3547	1.21105	5.94336	0	4.81839	9.71476	-0.42214	0.524926	0	-0.580448	-11.2558	-0.252349	1.93411	-0.44147	0	81.6503	20.8645	69.3437	2.93651e-07	9.85598	-238.81	1.4037	347.42	77.9447	-0	-6.633	-115.712	-37.4363	11.0818	33.9417	-7.39244	-41.9951	-94.6552	-3.26363e-07	-15.2654	-49.4768	-0	258.907	-70.5159	
3.39	-0	-0	-4.29144	-6.9815	-0.458664	-0.0291478	-111.564	-7.66722	-24.3905	-49.7462	1.72979	-0.215403	-14.7992	0.000181831	0.0990241	0.631967	-8.92878	2.72868	-0	29.7555	479.387	1.5188	-391.933	-86.7298	0	0	0	3.26543	5.09033	0.591627	0.139664	43.4375	-6.6576	-10.2211	22.6588	-3.18707	-0.89369	-27.4899	-0.000123812	-0.186803	-6.38685	10.2152	0.594575	-0	11.7248	-204.705	-0.756	177.026	46.3695	-0	-0	0	-0.201284	0.807591	-0.075629	-0.0391725	-10.098	2.16913	-2.02642	-9.49395	10.0004	1.20658	13.2826	0.00071619	0.48376	9.60599	-0.412729	0.628725	0	-0.607552	-11.7758	-0.1782	0.863579	-0.782094	0	82.5853	21.8236	69.8322	0.00230959	9.32522	-247.703	0.990528	392.006	83.6022	-0	-7.21344	-111.666	-37.1905	11.0244	33.7257	-7.37462	-41.9869	-93.632	-0.00256576	-15.2344	-49.3864	-3.76565e-05	258.112	-70.2744	
3.395	-4.91183e-05	-0	-4.26309	-6.95045	-0.309897	-0	-108.956	-6.52144	-21.9267	-46.4168	1.79212	-0.195598	-23.5706	0.00017077	0.00881305	0.294569	-8.31128	3.49428	-0	34.6129	475.381	1.45177	-420.142	-90.2404	0	0.000558078	0	3.25725	5.13181	0.397065	0	43.3081	-5.75381	-9.24177	21.3598	-3.09329	-0.883107	-44.9343	-0.000106509	-0.0153523	-2.35845	9.44519	0.753951	-0	13.6151	-207.547	-0.733214	193.622	48.9853	-0	-2.17552e-05	0	-0.197951	0.803001	-0.0507173	-0	-10.0242	1.87794	-1.88753	-8.96187	9.82387	1.21069	22.4571	0.00065089	0.040965	3.64982	-0.398029	0.806503	0	-0.639651	-12.9845	-0.170018	-0.217876	-1.1049	0	83.2456	22.6054	70.2601	0	8.76636	-270.626	0.941103	436.053	89.8753	-0	-7.77871	-106.127	-36.5276	10.993	33.5764	-7.36626	-41.9902	-92.9617	-0	-15.2188	-49.3294	-0	257.575	-70.1255	
3.4	-1.75662e-05	-0	-4.1822	-6.85954	-0.160987	-0	-107.016	-5.49273	-19.5721	-42.7896	1.8604	-0.183724	-32.2526	6.15366e-05	0.0250656	0.036229	-7.68635	4.60398	-1.484e-07	40.6818	472.259	1.53955	-446.446	-94.6612	0	0.000188557	0	3.20493	5.1076	0.205413	0	43.2067	-4.89023	-8.24468	19.8717	-3.09265	-0.887345	-62.6878	-3.64455e-05	-0.0414388	-0.251215	8.69774	0.975382	-5.90761e-07	15.8947	-209.675	-0.785276	208.678	51.9293	-0	-7.39846e-06	0	-0.192683	0.791882	-0.0262017	-0	-9.97053	1.58426	-1.7568	-8.33888	9.82659	1.22368	31.859	0.000228571	0.112261	0.395078	-0.378168	1.06424	3.23125e-07	-0.669384	-14.1415	-0.180097	-1.22189	-1.40226	0	83.7053	23.1492	70.7032	0	8.18319	-293.924	0.988968	477.075	96.7137	-0	-8.83239	-101.896	-36.995	10.9852	33.4894	-7.36604	-42.0044	-92.7399	-0	-15.2168	-49.3033	-0	257.295	-70.0619	
3.405	-1.14866e-05	-0	-4.05046	-6.71199	-0.0216158	-0	-105.874	-4.90885	-17.7114	-39.0013	1.9374	-0.179021	-36.1437	8.86446e-05	0.0472556	0.00103591	-7.06215	3.9916	-0	37.8478	470.714	1.7175	-468.428	-99.9556	0	0.000121267	0	3.10877	5.01848	0.027528	0	43.1897	-4.38015	-7.41093	18.2553	-3.18019	-0.904637	-71.1147	-5.17115e-05	-0.0760654	-0.00662697	7.9744	0.823766	-0	14.6165	-211.287	-0.880498	220.747	55.1532	-0	-4.73463e-06	0	-0.185733	0.774625	-0.00350547	-0	-9.94876	1.39581	-1.66582	-7.65411	9.99823	1.24343	36.1701	0.000322876	0.20613	0.0104607	-0.353773	0.923901	0	-0.543545	-15.2249	-0.200853	-2.05091	-1.66422	0	84.0779	23.4103	71.2432	0.00327458	7.58163	-318.451	1.08993	511.292	103.999	-0	-10.0942	-104.163	-38.972	10.9984	33.46	-7.37287	-42.0279	-93.0583	-0.00370978	-15.2264	-49.3053	-0	257.26	-70.075	
3.41	-0	-0	-3.86964	-6.50976	-0	-7.41828e-05	-105.582	-4.65977	-16.3454	-35.2136	2.02141	-0.1808	-37.8674	0	0.0745017	0.00704136	-6.44277	2.12519	-0	14.8814	470.739	1.94235	-479.575	-106.022	0	0	0	2.97006	4.86659	0	0.000333755	43.2892	-4.13979	-6.75372	16.5892	-3.35139	-0.932098	-74.8701	-0	-0.119577	-0.04372	7.27383	0.424159	-0	5.65501	-212.333	-0.99601	226.521	58.5693	-0	-0	0	-0.177167	0.751424	-0	-9.3198e-05	-9.96461	1.28576	-1.61645	-6.94371	10.3197	1.26582	37.5308	0	0.31954	0.0684398	-0.325692	0.492437	0	-0.182166	-16.1984	-0.227261	-2.59174	-1.87848	0	84.4419	22.9563	71.9515	0	6.96643	-343.942	1.21416	530.507	111.537	-0	-11.1401	-104.57	-40.2441	11.0295	33.482	-7.38529	-42.0584	-93.9872	-0	-15.2454	-49.3317	-0	257.445	-70.1543	
3.415	-0	-0	-3.64186	-6.25377	-0	-2.70642e-05	-106.093	-4.8404	-15.7244	-31.5699	2.10724	-0.188369	-37.6721	0	0.107777	0.0338073	-5.82935	1.12795	-0	2.51032	472.24	2.19381	-481.836	-112.7	0	0	0	2.79118	4.6554	0	0.000124076	43.4989	-4.25486	-6.38003	14.9478	-3.60211	-0.965843	-74.3109	-0	-0.176291	-0.213009	6.59265	0.216324	-0	0.934931	-212.775	-1.11998	226.847	62.0576	-0	-0	0	-0.166849	0.722328	-0	-3.44311e-05	-10.015	1.27557	-1.63847	-6.24146	10.7658	1.28531	36.1655	0	0.458491	0.326941	-0.294895	0.261589	0	-0.0254699	-17.0317	-0.257005	-2.80073	-2.03173	0	84.815	22.2271	72.8761	3.09114e-09	6.34098	-369.124	1.34715	536.201	119.078	-0	-11.9675	-102.254	-40.7067	11.0751	33.5483	-7.4017	-42.0932	-95.5525	-3.60632e-09	-15.2711	-49.378	-3.94478e-07	257.811	-70.2874	
3.42	-0	-0	-8.89102	-9.28959	-0.000195761	-8.96613e-06	-107.168	-5.49742	-15.7755	-28.1856	2.18745	-0.200881	-36.6852	6.2667e-06	0.142309	0.0454612	-5.22165	1.08174	-0	0.617479	475.199	2.46722	-483.555	-119.681	0	0	0	6.79547	6.85985	0.000250903	4.24462e-05	43.7349	-4.75376	-6.25265	13.3945	-3.92847	-1.00119	-71.7145	-4.21198e-06	-0.241961	-0.303201	5.92683	0.198249	-0	0.224651	-212.662	-1.24849	225.749	65.4208	-0	-0	0	-0.408579	1.07406	-3.17387e-05	-1.16825e-05	-10.0794	1.36114	-1.73352	-5.57578	11.3086	1.2957	33.3773	2.22281e-05	0.605402	0.451533	-0.262398	0.251038	0	-0.00502208	-17.71	-0.28959	-2.72453	-2.10964	0	85.0683	21.3269	74.0056	0.0030879	5.70841	-393.266	1.48495	537.689	126.227	-0	-12.6487	-97.9545	-40.5763	11.1312	33.6504	-7.42	-42.1291	-97.7051	-0.00367032	-15.3013	-49.439	-5.59896e-07	258.31	-70.4599	
3.425	-3.37437e-06	0	-17.0598	-14.4786	-0.000186025	-1.9887e-06	-108.358	-6.45195	-16.1837	-25.1239	2.25314	-1.77561	-35.2928	0.000223523	0.175725	0.0481945	-4.62399	1.36425	-0	1.06314	479.499	2.76096	-487.545	-126.554	0	4.98614e-05	0	12.9894	10.57	0.000239897	9.85693e-06	43.831	-5.45962	-6.23608	11.9684	-4.32588	-8.44541	-67.9704	-0.000164646	-0.316113	-0.355309	5.27798	0.237808	-0	0.376907	-212.035	-1.37933	224.659	68.4203	-0	-1.69466e-06	0	-0.788248	1.67628	-3.02471e-05	-2.68554e-06	-10.1182	1.47537	-1.87528	-4.96423	11.9173	10.5554	29.7839	0.000793546	0.753526	0.508563	-0.229451	0.316747	0	-0.00665243	-18.2245	-0.324868	-2.40332	-2.10047	0	84.9184	20.3886	75.2883	0	5.07721	-415.513	1.62598	538.488	132.524	-0	-13.2789	-92.9405	-40.0761	11.1929	33.7781	-7.43783	-42.1625	-100.334	-0	-15.3334	-49.5086	-1.28595e-06	258.89	-70.655	
3.43	-1.16631e-05	0	-24.0123	-19.495	-8.69363e-05	-0	-109.19	-7.50726	-16.7012	-22.404	2.29521	-3.86768	-33.6435	0	0.206582	0.0494809	-4.04316	1.67785	-0	1.46289	484.944	3.07324	-493.03	-132.954	0	0.000217838	0	18.2007	14.0293	0.000113049	0	43.621	-6.1877	-6.22944	10.6616	-4.78883	-17.3282	-63.5198	-0	-0.399454	-0.423351	4.65089	0.277118	-0	0.50456	-210.934	-1.51041	223.326	70.8637	-0	-6.91054e-06	0	-1.11698	2.26064	-1.41922e-05	-0	-10.0921	1.55631	-2.03903	-4.40847	12.5611	20.7847	25.7716	0	0.899982	0.577534	-0.1973	0.389673	0	-0.0066776	-18.5738	-0.362652	-1.86301	-1.99996	0	84.0935	19.4299	76.6644	5.14997e-05	4.4581	-431.78	1.769	538.16	137.609	-0	-13.8241	-87.5482	-39.0506	11.2549	33.9197	-7.45571	-42.1894	-103.298	-6.38652e-05	-15.3638	-49.5801	-0	259.493	-70.8539	
3.435	-0	0	-27.7031	-23.677	-1.62643e-05	-0	-109.263	-8.54047	-17.2039	-20.1148	2.30492	-5.4919	-31.7352	0.267071	0.233467	0.0479331	-3.48471	1.98013	-0	1.63469	491.404	3.40171	-499.31	-138.622	0	0	0	20.8963	16.7558	2.13752e-05	0	42.9821	-6.82934	-6.1876	9.46088	-5.30972	-22.995	-58.5128	-0.244762	-0.492205	-0.505921	4.04911	0.308928	-0	0.548111	-209.448	-1.6397	221.548	72.6389	-0	-0	0	-1.29939	2.75038	-2.66807e-06	-0	-9.97162	1.57195	-2.21022	-3.91349	13.2083	26.3212	21.5775	0.962935	1.04166	0.653009	-0.166914	0.459953	0	-0.0050468	-18.768	-0.402665	-1.136	-1.81312	0	82.4115	18.4774	78.0696	0.00248835	3.86004	-442.479	1.91308	536.434	141.297	-0	-14.43	-82.9382	-38.0107	11.3112	34.0619	-7.46772	-42.2062	-106.457	-0.00315602	-15.3895	-49.646	-5.72771e-05	260.059	-71.0357	
3.44	-0	0	-28.4899	-26.0109	-0	-0	-108.264	-9.49897	-17.6619	-18.0403	2.27478	-7.05484	-29.553	0.171988	0.255077	0.0411355	-2.95328	2.27813	-0	1.85205	498.632	3.74336	-506.177	-143.356	7.23671e-09	0	0	21.3864	18.0683	0	0	41.839	-7.34512	-6.10483	8.37198	-5.87859	-27.51	-53.0663	-0.177668	-0.594	-0.585289	3.47533	0.334935	-0	0.603753	-207.624	-1.76524	219.363	73.6857	-3.60002e-09	-0	0	-1.34775	3.02697	-0	-0	-9.7381	1.51459	-2.38406	-3.46474	13.8276	29.8984	17.4072	0.629142	1.17528	0.710245	-0.138961	0.529211	0	-0.0034097	-18.8189	-0.444531	-0.261606	-1.55265	3.18046e-09	79.784	17.5566	79.4638	0	3.29007	-449.091	2.05761	533.619	143.523	-1.05126e-09	-15.2638	-80.1852	-37.5581	11.3553	34.19	-7.4702	-42.2091	-109.695	-0	-15.407	-49.6982	-0	260.53	-71.1779	
3.445	5.80837e-08	0	-27.9173	-26.9636	-0	-4.70696e-06	-105.983	-10.3729	-18.0863	-16.1728	2.19932	-8.26151	-27.1119	0.186131	0.270284	0.0290511	-2.45693	2.55872	-0	2.09503	506.24	4.09448	-513.524	-147.038	0	2.30024e-05	0	20.8642	18.3604	0	3.31919e-05	40.166	-7.73637	-5.99123	7.3964	-6.48272	-29.9995	-47.332	-0.217573	-0.703763	-0.653704	2.93641	0.35388	-0	0.66459	-205.459	-1.88517	216.849	74.0034	-0	-5.244e-07	0	-1.33279	3.14339	-0	-8.52056e-06	-9.38419	1.38934	-2.56104	-3.06277	14.3886	30.817	13.4512	0.693867	1.29739	0.741702	-0.113989	0.594411	0	-0.00172788	-18.7373	-0.487765	0.719342	-1.23716	0	76.2143	16.7203	80.8309	0.000100277	2.75785	-455.189	2.20211	530.137	144.346	-0	-16.462	-80.252	-38.2126	11.3801	34.2881	-7.46236	-42.195	-112.928	-0.000132959	-15.4127	-49.7282	-0	260.851	-71.2568	
3.45	5.27785e-06	0	-26.7928	-26.9589	-0	-3.36915e-06	-102.4	-11.1697	-18.4941	-14.4739	2.07562	-9.09315	-24.5364	0.192592	0.278123	0.0127913	-2.11996	2.80912	-0	2.30005	513.927	4.45072	-521.156	-149.603	0	0.00021301	0	19.9509	17.9801	0	2.75231e-05	38.0137	-8.02053	-5.85858	6.51868	-7.10648	-30.8212	-41.618	-0.255372	-0.819346	-0.708912	2.58137	0.365015	-0	0.711132	-202.986	-1.99777	214.044	73.6274	-0	-4.08383e-06	0	-1.29036	3.14797	-0	-6.92845e-06	-8.92022	1.20555	-2.74275	-2.70123	14.8627	29.8045	9.89991	0.734863	1.404	0.748455	-0.0976492	0.652605	0	-4.92594e-05	-18.5393	-0.531781	1.76602	-0.888296	0	71.8376	15.9707	82.1849	0.000695572	2.40389	-463.61	2.34633	526.292	143.892	-0	-18.0637	-83.4601	-40.1851	11.3786	34.3392	-7.43963	-42.1607	-116.107	-0.000941598	-15.4022	-49.7275	-1.42354e-05	260.967	-71.2479	
3.455	0	0	-25.5008	-26.3448	-0	-1.15023e-06	-97.6944	-11.9031	-18.9064	-12.884	1.90386	-9.36088	-22.0854	0.184318	0.277949	-0.00613379	-2.03106	3.02389	-1.06758e-07	2.461	521.325	4.8072	-528.804	-151.008	0	0	0	18.9402	17.2034	0	1.13067e-05	35.5005	-8.21987	-5.71909	5.71268	-7.73178	-29.7368	-36.403	-0.277688	-0.937529	-0.746814	2.52839	0.368872	-3.20447e-07	0.743252	-200.209	-2.1015	210.951	72.6089	-0	-0	0	-1.2375	3.08066	-0	-2.78592e-06	-8.37242	0.972968	-2.93209	-2.36945	15.2246	26.9714	6.90477	0.722982	1.4909	0.730568	-0.0938187	0.702571	7.37718e-08	0.001475	-18.2433	-0.575914	2.83909	-0.528149	0	66.8928	15.2806	83.5566	0.00030225	2.33437	-473.098	2.49014	522.255	142.304	-0	-19.8652	-89.0026	-43.0819	11.3437	34.3264	-7.39747	-42.1032	-119.217	-0.000417018	-15.3714	-49.6874	-0	260.818	-71.1266	
3.46	5.12775e-07	0	-24.2256	-25.3589	-1.50684e-07	-0	-92.1222	-12.591	-19.3514	-11.3707	1.6875	-9.02541	-19.8165	0.170797	0.269573	-0.0256971	-2.16365	3.20016	-0	2.58675	528.296	5.15894	-536.213	-151.228	2.16158e-07	7.04904e-06	0	17.9714	16.2147	2.1731e-07	0	32.7615	-8.35865	-5.58646	4.964	-8.33878	-27.0103	-31.7722	-0.29269	-1.0541	-0.761255	2.76406	0.366351	-0	0.765194	-197.214	-2.19522	207.58	71.0076	-1.19077e-07	-7.79527e-08	0	-1.18316	2.96874	-2.54063e-08	-0	-7.77106	0.700267	-3.13333	-2.06157	15.4534	22.9032	4.45226	0.691628	1.55408	0.68735	-0.101525	0.743689	0	0.00279016	-17.8795	-0.619467	3.90105	-0.177531	9.40735e-08	61.633	14.6304	84.9965	0	2.53069	-482.826	2.63364	518.166	139.725	-3.8018e-08	-21.7293	-96.3873	-46.6231	11.269	34.233	-7.32372	-42.0195	-122.289	-0	-15.3153	-49.5998	-5.79756e-06	260.338	-70.8684	
3.465	2.84831e-06	0	-23.0887	-24.1974	-0	-0	-85.9433	-13.2426	-19.8582	-9.92738	1.43322	-8.04916	-17.751	0.153393	0.253333	-0.0433717	-2.42541	3.33543	-3.25065e-09	2.67864	534.635	5.50098	-543.227	-150.245	0	2.91165e-05	0	17.1346	15.1566	0	0	29.9176	-8.45372	-5.4854	4.26875	-8.90694	-22.8264	-27.7302	-0.299243	-1.16394	-0.746248	3.1928	0.358353	-8.96339e-09	0.778535	-194.045	-2.27813	203.972	68.8829	-0	-1.92452e-07	0	-1.13307	2.83502	-0	-0	-7.14329	0.393771	-3.34253	-1.77605	15.5342	18.0422	2.48891	0.643882	1.59001	0.619678	-0.117376	0.775434	1.2032e-09	0.00392377	-17.4766	-0.661743	4.91802	0.145453	0	56.2714	14.0064	86.5943	0	2.90038	-492.122	2.77699	514.204	136.277	-0	-23.6053	-87.7159	-50.7013	11.1489	34.0437	-7.19421	-41.9067	-125.41	-0	-15.23	-49.4571	-6.80128e-06	260.874	-70.4507	
3.47	3.05132e-06	0	-22.1617	-23.0221	-1.05952e-07	-0	-79.481	-13.8543	-20.4556	-8.56133	1.15042	-6.44038	-15.9761	0.13306	0.230189	-0.056433	-2.72392	3.42855	-1.4516e-08	2.73645	540.169	5.82851	-549.803	-148.071	1.39336e-09	2.46927e-05	0	16.4822	14.1378	1.61914e-07	0	27.0972	-8.51253	-5.41922	3.6284	-9.41583	-17.4151	-24.3716	-0.295674	-1.26161	-0.697265	3.71141	0.345834	-3.85934e-08	0.784096	-190.746	-2.3498	200.205	66.3016	-8.16154e-10	-5.96175e-08	0	-1.09069	2.69815	-1.79848e-08	-0	-6.51836	0.0583899	-3.57147	-1.51343	15.4583	12.7979	0.95153	0.581212	1.59642	0.530652	-0.138234	0.79758	3.34193e-09	0.00495354	-17.0637	-0.702054	5.86166	0.426147	5.9926e-10	51.0275	13.398	88.4059	0.000117872	3.34748	-500.359	2.92027	510.587	132.073	-2.64553e-10	-25.4854	-66.3142	-55.3299	12.1873	34.096	-6.98006	-41.7613	-128.627	-0.000169726	-15.113	-49.2527	-3.15439e-07	261.765	-69.8548	
3.475	8.28068e-07	3.25235e-08	-21.4741	-21.9493	-1.01343e-08	-0	-73.0921	-14.4222	-21.194	-7.28744	0.850476	-4.25223	-14.5692	0.111129	0.201615	-0.062343	-3.00018	3.47998	-4.92714e-07	2.76225	544.766	6.13807	-555.903	-144.73	0	5.54023e-06	1.04364e-07	16.0362	13.2295	1.60175e-08	0	24.4253	-8.54233	-5.40094	3.04677	-9.84651	-11.0342	-21.7632	-0.281395	-1.34154	-0.61172	4.25142	0.329786	-1.26891e-06	0.783059	-187.358	-2.41059	196.35	63.3286	-0	1.00907e-08	6.1894e-09	-1.05746	2.5719	-1.72215e-09	-0	-5.92522	-0.301038	-3.83273	-1.27517	15.2236	7.5219	-0.250647	0.506933	1.57227	0.4252	-0.162414	0.810272	5.03346e-08	0.00599267	-16.6686	-0.739884	6.70853	0.653915	0	46.1118	12.8008	90.4528	0.000144074	3.81015	-506.785	3.06386	507.457	127.206	-0	-27.3519	-46.9814	-60.5311	14.4736	34.3695	-6.81528	-41.58	-131.947	-0.000209238	-14.9635	-48.9813	-1.15404e-05	261.181	-69.0679	
3.48	0	1.10498e-07	-21.0286	-21.0492	-0	0	-67.0044	-14.9405	-22.0683	-6.12824	0.545848	-1.60647	-13.7872	0.088837	0.169504	-0.0591569	-3.22627	3.49156	-9.1238e-09	2.75905	548.336	6.42923	-561.455	-140.294	0	0	3.186e-07	15.8001	12.4694	0	0	21.9716	-8.54844	-5.42989	2.53022	-10.1825	-4.0263	-20.2478	-0.25638	-1.39861	-0.489525	4.77937	0.311149	-2.2873e-08	0.776567	-183.926	-2.46217	192.457	60.0408	-0	0	1.94559e-08	-1.03346	2.46475	-0	-0	-5.38005	-0.679658	-4.12877	-1.0637	14.8349	2.54118	-1.19099	0.424551	1.51819	0.309673	-0.189436	0.81395	-1.43229e-10	0.00715733	-16.3162	-0.775088	7.43938	0.822506	0	41.6327	12.2178	92.7467	6.9099e-05	4.25922	-511.661	3.2093	504.872	121.776	-0	-29.2232	-30.6832	-66.4138	17.2205	34.4916	-6.70831	-41.3587	-135.368	-0.000100911	-14.7816	-48.6394	-3.00574e-05	258.463	-68.0841	
3.485	0	7.39493e-08	-20.8185	-20.355	-2.38368e-07	0	-61.2649	-15.3696	-22.9806	-5.10873	0.248966	-2.44055	-13.3514	0.0671623	0.135945	-0.0460903	-3.38757	3.46623	-5.51858e-09	2.73026	550.813	6.70219	-566.392	-134.892	0	0	1.94033e-07	15.772	11.871	4.06841e-07	0	19.7402	-8.51679	-5.48378	2.08563	-10.41	-5.94553	-19.3536	-0.220876	-1.42846	-0.335004	5.2752	0.29077	-1.35366e-08	0.7656	-180.488	-2.50643	188.573	56.5286	-0	0	1.21832e-08	-1.0182	2.38038	-4.03342e-08	-0	-4.88338	-1.07006	-4.44416	-0.881725	14.3018	3.46897	-2.00173	0.337148	1.43623	0.19215	-0.21909	0.809296	-6.89934e-10	0.0085538	-16.0271	-0.807604	8.03944	0.930067	0	37.5786	11.6616	95.3115	2.25388e-05	4.67758	-515.257	3.3579	502.838	115.904	-0	-31.0918	-39.437	-72.9498	19.1633	34.0512	-6.59661	-41.094	-138.908	-3.29998e-05	-14.5674	-48.2255	-0	254.092	-66.9048	
3.49	0	5.61529e-09	-20.8383	-19.7959	-0	0	-55.8555	-15.6912	-23.8694	-4.25971	-0.0286757	-3.82673	-12.9393	0.0469503	0.103008	-0.0243698	-3.48552	3.40811	-0	2.67955	552.174	6.95685	-570.67	-128.71	0	0	1.35569e-08	15.953	11.3875	0	0	17.7127	-8.44619	-5.55165	1.72198	-10.5189	-9.11775	-18.5829	-0.17585	-1.42782	-0.160288	5.73933	0.269393	-0	0.750986	-177.091	-2.5452	184.748	52.8933	-0	0	8.73769e-10	-1.01112	2.31063	-0	-0	-4.43031	-1.46337	-4.76843	-0.732954	13.6392	4.91247	-2.71544	0.248065	1.32977	0.0830219	-0.251711	0.797241	-0	0.0102579	-15.8173	-0.837351	8.49829	0.979031	0	33.8987	11.1523	98.1922	0	5.06575	-517.794	3.51025	501.328	109.727	-0	-32.9146	-37.5014	-79.9127	18.8425	32.7169	-6.46255	-40.7826	-142.613	-0	-14.3216	-47.7407	-2.63614e-06	248.618	-65.538	
3.495	0.219116	2.96184e-08	-20.5769	-18.7053	-2.17053e-09	0	-50.8172	-15.9237	-24.7356	-3.61279	-0.295934	-5.69284	-12.6071	0.0287464	0.0725346	-0.0890008	-3.53073	3.32186	-0	2.61075	552.437	7.1931	-574.276	-122.009	4.48463e-07	0.881105	6.64371e-08	15.9543	10.636	4.05079e-09	0	15.8896	-8.35372	-5.63729	1.44848	-11.2069	-13.3453	-18.0078	-0.122484	-1.39462	-0.542071	6.18639	0.247611	-0	0.733434	-173.784	-2.58029	181.042	49.2553	-3.10591e-07	0.0173264	4.38726e-09	-0.986921	2.17785	-3.61447e-10	-0	-4.02058	-1.85352	-5.10238	-0.62146	13.7274	6.63537	-3.36321	0.160064	1.20313	0.252406	-0.288056	0.77882	-0	0.0123066	-15.6986	-0.864255	8.80985	0.975564	1.80432e-07	30.5821	10.7082	101.39	0	5.43594	-519.453	3.66641	500.306	103.433	-9.94243e-08	-34.6254	-31.1726	-87.0126	14.3803	30.8535	-6.30735	-40.4217	-146.478	-0	-14.0459	-47.189	-8.51206e-06	242.15	-63.9998	
3.5	0.592917	0	-19.2681	-16.6858	-0	0	-46.2354	-16.1004	-25.5677	-3.19697	-0.71802	-7.97881	-12.386	0.0129139	0.045986	-0.283028	-3.53593	3.21272	-0	2.52762	551.647	7.411	-577.229	-115.098	0	2.18485	0	15.1653	9.4004	0	0	14.2848	-8.2613	-5.74066	1.2735	-15.1917	-18.3884	-17.664	-0.0624867	-1.32818	-1.62604	6.637	0.225899	-0	0.713526	-170.621	-2.61359	177.522	45.7389	-0	0.0528883	0	-0.91062	1.9366	-0	-0	-3.65767	-2.23844	-5.4441	-0.551319	17.5969	8.22272	-3.97884	0.0758134	1.06135	0.67721	-0.329109	0.755196	-0	0.0146961	-15.6781	-0.888271	8.97237	0.928489	0	27.6478	10.3426	104.9	0	5.80461	-520.395	3.82599	499.727	97.2294	-0	-36.1308	-31.9362	-93.9308	10.0266	29.4356	-6.183	-40.0102	-150.49	-0	-13.753	-46.5778	-1.07462e-05	234.636	-62.3252	
3.505	0.494712	2.40563	-18.1594	-14.428	-9.09054e-10	0	-42.1743	-16.2654	-26.3794	-3.03815	-1.20879	-9.19339	-12.2682	0	0.134586	-0.611284	-3.51263	3.08602	-0	2.43391	549.872	7.61063	-579.562	-108.308	0	1.68884	4.77486	14.5422	8.07448	1.87889e-09	0	12.9052	-8.19315	-5.86626	1.2048	-18.4588	-20.9225	-17.5344	-0	-6.79714	-3.36353	7.11392	0.204595	-0	0.691808	-167.658	-2.647	174.256	42.4675	-0	0.0485042	0.329012	-0.842181	1.66822	-1.47345e-10	-0	-3.34373	-2.62078	-5.79671	-0.526712	20.2414	8.33108	-4.58604	0	5.03064	1.24563	-0.376021	0.72754	-0	0.0173863	-15.7582	-0.909372	8.9881	0.848073	0	25.1062	10.0654	108.717	0	6.18914	-520.769	3.98817	499.538	91.3424	-0	-37.3251	-34.6775	-100.329	8.27005	28.3278	-6.06885	-39.5497	-154.65	-0	-13.4629	-45.9175	-7.48891e-06	225.559	-60.5659	
3.51	0.596064	3.15401	-18.4729	-13.3278	-1.35176e-09	0	-38.6185	-16.4615	-27.2243	-3.15704	-1.78272	-9.6203	-12.2261	1.71638e-07	0.0987168	-1.01464	-3.46747	2.94695	-0	2.33303	547.202	7.79233	-581.283	-101.871	0	1.90275	5.95158	15.0868	7.42994	2.95561e-09	0	11.7346	-8.1705	-6.02614	1.24898	-21.9275	-21.7403	-17.5763	-1.06267e-06	-13.4712	-5.41564	7.63547	0.183928	-0	0.668724	-164.954	-2.6825	171.302	39.5157	-0	0.0631214	0.417595	-0.837505	1.53416	-2.15925e-10	-0	-3.07514	-3.00685	-6.17235	-0.551692	22.7903	7.67701	-5.19651	1.11789e-06	9.23218	1.77105	-0.42982	0.696999	-0	0.0203079	-15.9379	-0.927568	8.86198	0.743683	0	22.925	9.88388	112.826	0	6.60206	-520.715	4.15183	499.649	85.9136	-0	-38.1226	-37.6563	-105.883	7.87314	27.2157	-5.92934	-39.0468	-158.953	-0	-13.1855	-45.2223	-1.40004e-06	214.523	-58.7583	
3.515	0.704329	3.15815	-20.0495	-13.8565	-2.21851e-09	0	-35.5287	-16.7373	-28.1858	-3.52781	-3.03923	-9.44126	-12.2313	0	-0.0393853	-1.31222	-3.40304	2.80068	-0	2.22813	543.733	7.95674	-574.656	-95.9202	0	2.11938	5.69981	16.7388	7.71777	5.1483e-09	0	10.7512	-8.21563	-6.23788	1.39558	-32.0003	-21.2891	-17.7471	-0	-12.9792	-6.86736	8.21554	0.164052	-0	0.644699	-162.567	-2.72217	166.473	36.9167	-0	0.0795504	0.406391	-0.884869	1.58696	-3.48003e-10	-0	-2.84695	-3.40749	-6.59135	-0.622945	31.5639	6.63502	-5.8147	0	8.23363	1.96655	-0.491373	0.664715	-0	0.0233702	-16.2125	-0.942925	8.48816	0.623235	0	21.0633	9.80395	117.166	0	7.0512	-520.376	4.31576	493.317	81.0104	-0	-38.4795	-34.2598	-110.311	7.59552	26.0815	-5.76996	-38.5145	-163.35	-0	-12.9187	-44.5094	-3.17057e-06	202.828	-56.9216	
3.52	0.784266	3.31429	-22.2012	-15.4392	-3.16194e-09	0	-32.8954	-17.1489	-29.3734	-4.04168	-4.57099	-9.11456	-12.2581	1.23237e-05	-0.121788	-1.44944	-3.31884	2.6518	-0	2.12189	539.565	8.10472	-557.532	-90.5432	0.171227	2.24004	5.75175	18.9926	8.61858	7.81398e-09	0	9.94408	-8.35353	-6.52437	1.60273	-42.7993	-20.593	-18.0079	-9.62977e-05	-10.544	-7.50496	8.86392	0.145039	-0	0.620097	-160.554	-2.76808	159.297	34.6853	-0.14047	0.0935728	0.415873	-0.949921	1.75843	-4.85226e-10	-0	-2.6571	-3.83895	-7.08233	-0.722782	40.1171	5.63193	-6.43998	8.84212e-05	6.18821	1.86227	-0.561323	0.631712	-0	0.0264742	-16.5747	-0.955553	7.8633	0.49311	0.0596092	19.5023	9.83016	121.659	0	7.54002	-519.89	4.47862	478.594	76.6696	-0.0430445	-38.4005	-24.8758	-113.403	7.16431	24.9747	-5.5888	-37.9681	-167.79	-0	-12.6571	-43.7992	-0	191.656	-55.0847	
3.525	0.859218	3.64758	-24.3779	-17.416	-4.22999e-09	0	-30.7328	-17.736	-30.8176	-4.6459	-5.39802	-8.78911	-12.2822	2.23635e-05	-0.242622	-1.46231	-3.21177	2.50442	-0	2.01678	534.796	8.23744	-535.062	-85.7908	1.11352	2.34351	6.11576	21.421	9.77588	1.11858e-08	0	9.31182	-8.60088	-6.89054	1.85163	-46.0271	-19.9658	-18.3204	-0.000195278	-13.1142	-7.54756	9.58512	0.126912	-0	0.595304	-158.965	-2.82231	151.336	32.824	-0.944654	0.107471	0.447553	-1.00753	1.97155	-6.4032e-10	-0	-2.50594	-4.31747	-7.65746	-0.84308	41.028	4.75723	-7.06715	0.000167869	7.11529	1.60113	-0.639922	0.59892	-0	0.029523	-17.0152	-0.965614	7.09882	0.358272	0.372108	18.2409	9.96517	126.199	0	8.06674	-519.388	4.63918	459.76	72.9069	-0.28681	-37.9225	-15.9307	-115.045	6.7174	23.9297	-5.40014	-37.4264	-172.213	-0	-12.3999	-43.1144	-0	181.185	-53.3018	
3.53	0.934701	3.95872	-26.3931	-19.4338	-5.29944e-09	0.32228	-29.0266	-18.481	-32.4717	-5.33879	-5.71694	-8.49895	-12.28	0	-0.384879	-1.40719	-3.0762	2.36205	-0	1.91467	529.517	8.35612	-511.305	-81.6794	1.39152	2.44718	6.43934	23.8782	11.0059	1.50381e-08	1.5415	8.84624	-8.94701	-7.32549	2.1444	-44.1745	-19.4646	-18.6441	-0	-15.9195	-7.28394	10.3751	0.109647	-0	0.570624	-157.848	-2.88686	143.735	31.3249	-1.2209	0.121788	0.476085	-1.04878	2.18568	-7.81475e-10	-0.22396	-2.39201	-4.84665	-8.30856	-0.984737	37.0763	4.00344	-7.68606	0	7.97655	1.29752	-0.72672	0.567144	-0	0.0324262	-17.5234	-0.973301	6.28262	0.222222	0.444344	17.2645	10.2096	130.636	0	8.622	-518.991	4.79623	440.155	69.7168	-0.367385	-37.0948	-11.5238	-115.207	6.35326	22.9745	-5.21658	-36.9154	-176.518	-0	-12.1526	-42.4791	-0	171.544	-51.645	
3.535	1.00649	4.20175	-28.273	-21.3442	-6.29865e-09	0.544052	-27.7544	-19.3294	-34.2617	-6.1166	-5.77775	-8.23249	-12.2289	1.58939e-06	-0.463988	-1.32548	-2.90383	2.22735	-0	1.8171	523.804	8.46206	-487.922	-78.1986	1.26665	2.54082	6.65476	26.3991	12.2377	1.92595e-08	2.4335	8.53915	-9.36359	-7.80938	2.48305	-41.2241	-19.0462	-18.9364	-1.72208e-05	-16.0681	-6.9128	11.2149	0.0931743	-0	0.546361	-157.238	-2.96362	136.91	30.1734	-1.14972	0.135862	0.496268	-1.07534	2.38414	-9.0192e-10	-0.338518	-2.31356	-5.41766	-9.01961	-1.14831	32.6298	3.34033	-8.2821	1.30175e-05	7.42477	1.00851	-0.819927	0.537011	-0	0.0351084	-18.0873	-0.978846	5.46158	0.0873271	0.384641	16.5564	10.561	134.848	0	9.18397	-518.806	4.94874	421.09	67.0781	-0.34304	-35.9617	-11.4136	-113.942	6.07	22.137	-5.04993	-36.4642	-180.673	-0	-11.926	-41.9183	-0	163.042	-50.1878	
3.54	1.07391	4.41674	-30.0736	-23.1062	-7.1765e-09	0.470945	-26.9051	-20.1983	-36.1114	-6.95957	-5.86625	-7.9805	-12.109	2.78471e-06	-0.490821	-1.23633	-2.68662	2.10245	-0	1.72515	517.721	8.55644	-465.594	-75.3145	1.06309	2.62401	6.83249	29.0505	13.4583	2.37523e-08	1.98535	8.38815	-9.80797	-8.32059	2.86375	-39.1373	-18.6736	-19.1543	-3.36358e-05	-14.9205	-6.51757	12.0714	0.0773966	-0	0.522743	-157.164	-3.05427	130.989	29.3498	-0.998808	0.149448	0.513193	-1.08989	2.56297	-9.9373e-10	-0.26462	-2.27005	-6.00876	-9.77081	-1.33131	29.2565	2.74592	-8.83746	2.38719e-05	6.34647	0.750615	-0.916344	0.509037	-0	0.0375086	-18.695	-0.982484	4.66375	-0.0448977	0.305429	16.1087	11.0126	138.663	0	9.72075	-518.913	5.09578	403.059	64.955	-0.295649	-34.554	-13.7328	-111.351	5.85619	21.4417	-4.91117	-36.1018	-184.6	-0	-11.7336	-41.4567	-0	155.972	-48.9978	
3.545	1.13716	4.71955	-31.8175	-24.747	-7.90679e-09	0.540564	-26.4705	-21.3785	-38.0509	-7.83486	-6.01299	-7.74046	-11.9065	1.22743e-06	-0.506439	-1.1476	-2.4193	1.99911	-0	1.63953	511.318	8.64018	-444.786	-72.9774	0.89871	2.69814	7.15014	31.8741	14.6928	2.84741e-08	2.16144	8.39432	-10.5036	-8.85706	3.27753	-37.8191	-18.3264	-19.2597	-1.66088e-05	-13.8655	-6.12641	12.9011	0.0594045	-0	0.499961	-157.646	-3.16027	126.043	28.8319	-0.874673	0.162419	0.540267	-1.09392	2.72584	-1.05498e-09	-0.276383	-2.26142	-6.60266	-10.5712	-1.52838	26.7352	2.20572	-9.3336	1.10728e-05	5.41604	0.525219	-1.01151	0.486194	-0	0.0395813	-19.3336	-0.984463	3.90952	-0.173431	0.242949	15.9168	11.552	141.959	0	10.1944	-519.37	5.23656	386.4	63.3022	-0.257005	-32.8867	-16.9691	-107.562	5.7188	20.9088	-4.81058	-35.8574	-188.281	-0	-11.589	-41.1178	-0	150.54	-48.135	
3.55	1.19591	5.31059	-32.3047	-25.7726	-9.7747e-08	0.614073	-26.4353	-22.1802	-39.6114	-8.70395	-6.17135	-7.51271	-11.6135	0	-0.530842	-1.06287	-2.10185	1.91545	-0	1.56059	504.626	8.71391	-425.846	-71.1238	0.765685	2.76292	7.89715	33.6432	15.6495	3.85345e-07	2.34082	8.55926	-11.0272	-9.30136	3.71267	-36.7748	-17.9921	-19.2206	-0	-13.2571	-5.74811	13.6583	0.0410565	-0	0.478132	-158.693	-3.28284	122.113	28.5951	-0.772767	0.174579	0.599697	-1.04878	2.81965	-1.25244e-08	-0.287687	-2.28716	-7.08644	-11.2859	-1.73253	24.6133	1.70922	-9.75266	0	4.74097	0.329629	-1.10042	0.467995	-0	0.0412941	-19.9907	-0.985012	3.21318	-0.297499	0.193599	15.9736	12.1589	144.579	0	10.5685	-520.201	5.37038	371.374	62.0645	-0.225535	-30.9594	-20.1714	-102.709	5.67079	20.5553	-4.75723	-35.7581	-191.655	-0	-11.5044	-40.9229	-0	146.876	-47.6518	
3.555	1.24989	6.27773	-29.2436	-25.1946	-0	0.661214	-26.7704	-22.3689	-40.5403	-9.52611	-6.34218	-7.29794	-5.56008	0	-0.561342	-0.984154	-1.73975	8.67815	-0	1.4883	497.66	8.7777	-408.96	-69.6737	0.897324	2.81803	9.18028	31.7397	15.6968	0	2.41284	8.88266	-11.2415	-9.58314	4.15555	-35.8991	-17.6604	-9.41483	-0	-12.8429	-5.38616	14.3006	0.109276	-0	0.457296	-160.305	-3.42287	119.209	28.6106	-0.940387	0.185746	0.70011	-0.89297	2.73898	-0	-0.285716	-2.34563	-7.37543	-11.829	-1.93564	22.7716	1.24822	-4.99072	0	4.18881	0.160479	-1.17816	2.13017	-0	0.042622	-20.6536	-0.984336	2.58315	-0.416239	0.210813	16.2648	12.8084	146.411	0	10.814	-521.4	5.49655	358.123	61.1743	-0.272771	-28.7647	-22.7593	-96.9362	5.72121	20.3957	-4.75873	-35.8266	-194.69	-0	-11.4896	-40.8899	-0	145.104	-47.5933	
3.56	1.29869	7.60253	-22.7854	-23.0258	-1.90002e-06	0.701499	-27.4316	-22.1509	-40.8744	-10.2657	-6.551	-7.09738	-0	0	-0.596984	-0.784478	-1.34248	19.8882	-0	1.42216	490.421	8.83099	-394.12	-68.537	1.13621	2.86273	10.9496	25.8387	14.7648	9.1884e-06	2.45849	9.36133	-11.234	-9.69973	4.59328	-35.2519	-17.3242	-0	-0	-12.4983	-4.3341	14.8056	0.0619435	-0	0.437364	-162.472	-3.58087	117.3	28.8465	-1.23849	0.195727	0.838187	-0.651468	2.48902	-2.22386e-07	-0.281368	-2.43385	-7.5198	-12.1948	-2.12991	21.2108	0.816411	-0	0	3.69997	0.0124319	-1.24328	4.90489	-0	0.0435392	-21.3106	-0.982585	2.02313	-0.528583	0.24619	16.7676	13.4737	147.34	0	10.9361	-522.932	5.61437	346.635	60.5558	-0.357228	-26.3199	-24.3236	-90.3973	5.87515	20.4431	-4.8208	-36.0783	-197.307	-0	-11.5521	-41.0329	-0	145.341	-47.995	
3.565	4.36203	9.24861	-17.4718	-20.2368	-0	0.740791	-28.3536	-21.6151	-40.6423	-10.8856	-6.81368	-6.16623	-0.00669287	0	-0.641111	-0.240024	-0.92148	32.698	-0	1.36205	482.908	8.87284	-381.125	-67.6149	1.20088	9.41468	13.1349	20.7549	13.3951	0	2.49983	9.98602	-11.0383	-9.64892	5.01033	-34.8414	-15.1456	-0.0118356	-0	-12.2284	-1.33363	15.1742	-0.231073	-0	0.418374	-165.183	-3.75708	116.31	29.2666	-1.36416	0.664237	1.009	-0.465518	2.17719	-0	-0.277549	-2.54678	-7.53779	-12.3768	-2.30654	19.8999	0.365007	-0.00682376	0	3.26615	-0.0314935	-1.29733	8.10305	-0	0.0440394	-21.9502	-0.979889	1.53391	-0.63301	0.23793	17.4471	14.1256	147.259	0	10.965	-524.755	5.72314	336.738	60.1251	-0.391449	-23.6796	-24.4013	-83.2897	6.13569	20.7103	-4.94692	-36.52	-199.387	-0	-11.697	-41.3613	-0	147.72	-48.8817	
3.57	7.13022	11.19	-14.4983	-17.5431	-3.73601e-08	0.775298	-29.4621	-20.799	-39.8909	-11.3627	-7.14157	-4.83857	-0	0	-0.69799	-0	-0.49225	46.4668	-0	1.31149	475.096	8.90169	-369.79	-66.822	1.06014	15.0858	15.6856	18.091	12.0207	2.31876e-07	2.52422	10.7443	-10.6665	-9.43633	5.39521	-34.6567	-11.9238	-0	-0	-12.0576	-0	15.4221	-0.837254	-0	0.398681	-168.414	-3.95134	116.176	29.8388	-1.25788	1.09309	1.20909	-0.358939	1.88061	-3.96254e-09	-0.273064	-2.67838	-7.43361	-12.3765	-2.45909	18.801	0.016545	-0	0	2.88419	-0	-1.33788	11.5726	-0	0.045019	-22.5618	-0.97633	1.11499	-0.727895	0.190115	18.2632	14.7402	146.098	0	10.8928	-526.796	5.82214	328.283	59.8104	-0.359219	-20.9351	-22.5304	-75.8657	6.50456	21.2105	-5.13814	-37.1476	-200.772	-0	-11.9267	-41.8793	-0	152.408	-50.2665	
3.575	8.74591	13.4031	-12.5038	-15.1667	-3.20786e-07	0.804746	-30.6695	-19.7278	-38.6642	-11.6759	-7.54026	-3.40671	-0.00183258	0	-0.76883	-0.000746829	-0.0643442	60.3504	-0	1.27108	466.975	8.91575	-359.752	-66.0738	0.82056	18.1557	18.5567	16.435	10.7871	2.31452e-06	2.53181	11.6171	-10.1278	-9.07072	5.73508	-34.6638	-8.39413	-0.00336181	-0	-11.9558	-0.00413129	15.5614	-1.79835	-0	0.378763	-172.143	-4.16325	116.787	30.5286	-1.01956	1.34503	1.43553	-0.286007	1.6225	-3.24166e-08	-0.268172	-2.82111	-7.20913	-12.1969	-2.58114	17.8704	-0.177879	-0.00210674	0	2.53755	-0.000313491	-1.36563	15.1083	-0	0.0464638	-23.1363	-0.971964	0.76451	-0.811488	0.131524	19.1673	15.2963	143.789	0	10.7361	-528.995	5.91076	320.972	59.5399	-0.289827	-18.1808	-18.1057	-68.4472	6.98165	21.9589	-5.39283	-37.9451	-201.249	-0	-12.2412	-42.5856	-0	159.593	-52.1499	
3.58	9.12467	15.8502	-10.4803	-13.0319	-2.47715e-07	0.829328	-31.8875	-18.4499	-37.0281	-11.819	-8.01778	-2.00032	-0	2.81721e-11	-0.853122	-0	0.35488	72.6026	-0	1.2404	458.516	8.91281	-350.706	-65.3026	0.592913	18.598	21.6862	14.5543	9.64555	2.1312e-06	2.52423	12.5824	-9.44805	-8.57013	6.02177	-34.8466	-4.9096	-0	-4.49863e-09	-11.8794	-0	15.6059	-3.08238	-0	0.361102	-176.34	-4.39204	118.048	31.3057	-0.773697	1.4028	1.68413	-0.220408	1.39356	-2.38981e-08	-0.263213	-2.96712	-6.87692	-11.8509	-2.6692	17.0797	-0.214957	-0	1.92658e-09	2.21134	-0	-1.38174	18.2745	-0	0.0476737	-23.6658	-0.966806	0.480316	-0.882212	0.0835879	20.1099	15.7783	140.293	0	10.512	-531.285	5.98839	314.556	59.2574	-0.218949	-15.498	-10.8113	-61.3594	7.56472	22.9735	-5.70648	-38.8842	-200.561	-0	-12.638	-43.4736	-0	169.51	-54.5197	
3.585	8.2737	18.4919	-8.18624	-11.0242	-6.97179e-08	0.8492	-33.0346	-17.0293	-35.0644	-11.7988	-8.58066	-0.696003	-0	-1.11551e-09	-0.930835	-0.000181714	0.760399	82.3346	-0	1.21181	449.697	8.8905	-342.337	-64.4563	0.414825	16.5661	25.0114	12.0495	8.51227	7.41972e-07	2.50291	13.6161	-8.66495	-7.96016	6.25185	-35.1853	-1.69481	-0	-1.71234e-07	-11.5606	-0.000975206	15.5762	-4.61296	-0	0.343396	-180.975	-4.63667	119.856	32.1434	-0.570295	1.26713	1.95069	-0.1573	1.18072	-6.48274e-09	-0.258431	-3.10891	-6.45806	-11.36	-2.72262	16.4038	-0.112712	-0	6.86287e-08	1.85963	-0.000124842	-1.38816	20.8429	-0	0.0484015	-24.1445	-0.960837	0.259624	-0.938962	0.0503379	21.0453	16.1774	135.594	3.33895e-10	10.2409	-533.714	6.05448	308.782	58.9203	-0.160655	-12.9363	-1.16854	-54.699	8.249	24.275	-6.07152	-39.9253	-198.421	-5.25111e-10	-13.1125	-44.5312	-4.94537e-17	182.293	-57.351	
3.59	6.47873	21.3792	-7.2704	-9.62352	-3.55357e-10	0.864447	-34.0443	-15.531	-32.8722	-11.6329	-9.23216	-0.000254121	-0	-0	-0.974972	-0	1.15219	86.0701	-0	1.18472	440.497	15.2184	-334.336	-63.4988	0.278006	12.7484	28.5932	11.3822	7.7705	4.95094e-09	2.46904	14.6953	-7.81937	-7.27295	6.4267	-35.6505	-0.000611403	-0	-0	-10.7747	-0	15.5281	-6.07117	-0	0.325504	-186.015	-8.42221	122.105	33.0197	-0.404069	0.98505	2.24071	-0.127134	1.03471	-3.24101e-11	-0.253974	-3.24031	-5.97682	-10.7546	-2.74346	15.8174	-5.46847e-05	-0	0	1.46903	-0	-1.39016	21.921	-0	0.0486439	-24.569	-1.64119	0.0987783	-0.981189	0.0281592	21.9366	16.4916	129.728	8.38041e-10	9.96414	-536.361	10.5086	303.404	58.5014	-0.113288	-10.5213	-0	-48.2347	9.02792	25.8856	-6.47758	-41.0146	-194.551	-1.36356e-09	-13.6579	-45.7413	-0	197.745	-60.6071	
3.595	4.78719	24.7024	-6.50383	-8.91152	-0	0.875249	-34.8626	-14.0093	-30.5504	-11.347	-9.97216	-0	-0	-1.11868e-10	-1.12058	-0	1.53768	85.802	-0	1.15954	430.897	22.1731	-326.446	-62.4086	0.172172	9.26058	32.6733	10.8705	7.54226	0	2.4241	15.797	-6.94832	-6.54186	6.55187	-36.2064	-0	-0	-3.15226e-09	-11.0116	-0	15.536	-7.37877	-0	0.307576	-191.424	-13.0537	124.693	33.9169	-0.265572	0.720125	2.57407	-0.102837	0.964152	-0	-0.249959	-3.35613	-5.45595	-10.0683	-2.73599	15.2971	-0	-0	1.10267e-09	1.23958	-0	-1.39479	21.9937	-0	0.0484455	-24.9386	-2.39027	-0.00706686	-1.00909	0.0138857	22.7526	16.724	122.765	1.09706e-09	9.73071	-539.245	15.5359	298.223	57.9863	-0.0740821	-8.26614	-0	-41.9013	9.90046	27.8242	-6.91169	-42.0873	-188.732	-1.8291e-09	-14.2654	-47.0822	-8.51017e-17	215.255	-64.2402	
3.6	3.56498	28.613	-4.87418	-7.97906	-0	0.881978	-35.4419	-12.5069	-28.1931	-10.9703	-10.7947	-0.00384654	-9.35639e-09	-0	-1.29824	-0	1.92746	85.1312	-0	1.1358	420.883	24.1578	-318.474	-61.1767	0.093298	6.78153	37.4319	8.73317	7.09481	0	2.37003	16.8961	-6.08308	-5.79884	6.63604	-36.8053	-0.00892578	-1.78736e-08	-0	-11.3522	-0	15.6431	-8.71788	-0	0.289526	-197.168	-15.165	127.533	34.8219	-0.15336	0.528767	2.96625	-0.0690397	0.870963	-0	-0.246497	-3.45187	-4.91545	-9.33555	-2.70583	14.8193	-0.00121556	-1.40028e-08	0	1.01645	-0	-1.40631	21.9716	-0	0.0478219	-25.2555	-2.60833	-0.0639613	-1.02357	0.00552381	23.4653	16.8816	114.886	1.22674e-09	9.56571	-542.39	17.1934	293.094	57.3724	-0.0425491	-6.20746	-0	-35.9833	10.8766	30.1013	-7.35799	-43.0738	-180.911	-2.09006e-09	-14.9249	-48.5289	-0	233.657	-68.1934	
3.605	2.74139	33.2155	-3.04814	-6.32457	-0	0.885033	-35.7475	-11.0663	-25.8844	-10.532	-11.6735	-0.00709577	-8.33003e-06	-5.96336e-10	-1.4433	-0	2.32641	83.2417	-0	1.11287	410.446	23.2975	-310.279	-59.8034	0.069497	5.12945	42.981	5.8813	5.92192	0	2.30875	17.9672	-5.25368	-5.07187	6.68954	-37.3464	-0.0160791	-1.58769e-05	-8.62577e-09	-11.2531	-0	15.8285	-9.96798	-0	0.271241	-203.21	-15.6308	130.549	35.7258	-0.122289	0.399562	3.42763	-0.0382825	0.698505	-0	-0.243647	-3.52413	-4.37646	-8.58941	-2.6592	14.3444	-0.00257361	-1.3054e-05	2.62102e-09	0.756553	-0	-1.42317	21.6407	-0	0.046788	-25.5246	-2.52483	-0.0793606	-1.02614	0.0025472	24.0524	16.9737	106.295	1.2868e-09	9.45353	-545.814	16.8661	287.917	56.6656	-0.0337323	-4.39951	-0.0590702	-30.7368	11.985	32.7132	-7.79838	-43.8962	-171.153	-2.23636e-09	-15.618	-50.0528	-0	251.028	-72.4022	
3.61	2.21412	38.5945	-1.72534	-4.25813	0	0.884926	-35.7618	-9.7233	-23.6886	-10.0586	-12.5608	-0	-4.30432e-06	-8.7386e-10	-1.5689	-2.73155e-06	2.72436	79.8746	-0	1.09059	399.583	21.8323	-301.774	-58.287	0.124825	4.07614	49.4017	3.60315	4.20844	0	2.24235	18.9888	-4.48453	-4.38205	6.72342	-37.692	-0	-8.15827e-06	-9.97068e-09	-10.9403	-1.21645e-05	15.9973	-11.0228	-0	0.252755	-209.515	-15.6921	133.679	36.6232	-0.236298	0.31605	3.96643	-0.0188791	0.477224	-0	-0.241459	-3.57124	-3.85806	-7.8572	-2.60225	13.827	-0	-7.04877e-06	2.81879e-09	0.49926	-3.18013e-06	-1.43706	20.9266	-0	0.045389	-25.7531	-2.38041	-0.0620076	-1.02545	0.00156961	24.5006	17.0104	97.2367	1.30986e-09	9.3363	-549.529	16.1057	282.638	55.9894	-0.0647786	-2.88142	-0	-26.2367	13.2506	35.6227	-8.21463	-44.4801	-159.659	-2.31593e-09	-16.3046	-51.6236	-0	264.048	-76.7965	
3.615	1.88667	44.7442	-0.959227	-2.39643	0	0.882272	-35.4895	-8.50828	-21.6587	-9.57552	-13.4109	-0	-1.21404e-06	-1.32671e-09	-1.68936	-3.66303e-06	3.09108	75.8339	-0	1.06883	388.292	20.6547	-292.916	-56.6259	0.294926	3.41841	56.658	2.18077	2.50613	0	2.17299	19.9468	-3.79448	-3.74483	6.75073	-37.7478	-0	-2.28142e-06	-1.23781e-08	-10.577	-1.55069e-05	15.9974	-11.9165	-0	0.234101	-216.051	-15.9436	136.878	37.5128	-0.603916	0.262871	4.58146	-0.0089302	0.273385	0	-0.239969	-3.59371	-3.37735	-7.16258	-2.54147	13.2449	-0	-2.074e-06	3.25199e-09	0.261516	-4.48124e-06	-1.43457	20.0317	-0	0.0436793	-25.9509	-2.27133	-0.0217659	-1.03394	-0.00400613	24.8094	17.0018	88.0012	1.31368e-09	9.12871	-553.532	15.5601	277.236	55.5321	-0.164479	-1.67319	-0.0968742	-22.4113	14.6796	38.7035	-8.58724	-44.7514	-146.816	-2.35386e-09	-16.9463	-53.2098	-0	266.064	-81.3022	
3.62	1.68431	51.6348	-0.544447	-1.14324	0	0.877756	-34.9572	-7.44266	-19.8339	-9.10503	-14.1843	-0.00598943	-0	-1.77979e-09	-1.80339	-1.66311e-06	3.40424	71.7682	-0	1.04775	376.576	19.6257	-283.698	-54.891	0.582754	3.00456	64.6855	1.3565	1.26836	0	2.10281	20.8381	-3.19475	-3.16942	6.78559	-37.4671	-0.0124114	-0	-1.39429e-08	-10.1835	-6.67923e-06	15.7776	-12.7124	-0	0.215373	-222.786	-16.3131	140.115	38.4209	-1.29865	0.228316	5.26904	-0.00414741	0.133183	0	-0.239208	-3.59428	-2.9473	-6.52426	-2.48314	12.5958	-0.00290294	-0	3.39994e-09	0.045421	-2.11694e-06	-1.41138	19.1234	-0	0.0417351	-26.1297	-2.18243	0.0310248	-1.03913	-0.0248108	24.9918	16.9575	78.8793	1.30719e-09	8.80863	-557.806	15.1367	271.72	55.0781	-0.351291	-0.779654	-0	-19.1632	16.2723	41.7622	-8.897	-44.6479	-133.115	-2.36328e-09	-17.5145	-54.7789	-0	260.452	-85.8442	
3.625	1.55869	59.297	-0.315539	-0.491653	9.01239e-09	0.872073	-34.2089	-6.5361	-18.242	-8.66416	-14.8425	-0.00829194	-0	-2.28576e-09	-1.90242	-3.39062e-07	3.65942	67.3821	-0	1.02736	364.438	18.5631	-274.149	-53.0826	0.931062	2.73852	73.4987	0.86832	0.580302	1.09854e-07	2.03375	21.6714	-2.68824	-2.65933	6.84191	-36.825	-0.016606	-0	-1.53505e-08	-9.73783	-1.29065e-06	15.3799	-13.3382	-0	0.196618	-229.692	-16.6647	143.382	39.3448	-2.27349	0.204905	6.03158	-0.00182872	0.0586782	1.67855e-10	-0.239197	-3.57766	-2.57539	-5.95625	-2.43285	11.8842	-0.00430586	-0	3.46937e-09	-0.148218	-4.45769e-07	-1.37163	18.1209	-0	0.0396344	-26.3037	-2.09335	0.085851	-1.04333	-0.0702276	25.0729	16.8872	70.1119	1.29543e-09	8.40628	-562.055	14.7008	266.117	54.6271	-0.610675	-0.177057	-0.0637036	-16.3915	18.0196	44.5918	-9.1272	-44.1195	-119.071	-2.35075e-09	-17.9841	-56.2988	-1.70218e-19	253.516	-90.3476	
3.63	1.52296	67.7128	-0.191718	-0.199284	8.14736e-05	0.86604	-33.2998	-5.78769	-16.9068	-8.26514	-15.3498	-0	-0	-2.8115e-09	-1.98227	-0	3.86045	61.7767	-0	1.00788	351.889	17.4462	-264.278	-51.2055	1.26187	2.63653	83.0523	0.588162	0.251011	0.000786134	1.96782	22.467	-2.2709	-2.21397	6.93337	-35.8173	-0	-0	-1.64619e-08	-9.24743	-0	14.8625	-13.5645	-0	0.177899	-236.747	-16.9726	146.686	40.2867	-3.40254	0.193567	6.86635	-0.000721389	0.0244537	1.47615e-06	-0.239986	-3.54986	-2.26388	-5.47023	-2.39547	11.119	-0	-0	3.44243e-09	-0.318141	-0	-1.32083	16.7763	-0	0.0374701	-26.4884	-2.00103	0.109839	-1.04902	-0.143295	25.0868	16.8	61.888	1.2813e-09	7.9575	-565.611	14.2331	260.995	54.1818	-0.907391	-0	-0	-13.994	19.887	46.9624	-9.26487	-43.1388	-105.157	-2.31947e-09	-18.3342	-57.7371	-1.14863e-19	246.123	-94.7394	
3.635	1.58075	76.9053	-0.127229	-0.0621495	0	0.879835	-32.2896	-5.19017	-15.8436	-7.91617	-15.679	-0	-0	-3.33998e-09	-2.04098	-0	4.01203	54.4347	-0	0.989475	338.942	16.3153	-254.117	-49.2782	1.5045	2.69779	93.3538	0.440092	0.0838258	0	1.94973	23.2555	-1.93463	-1.82822	7.07392	-34.4659	-0	-0	-1.72962e-08	-8.72746	-0	14.2678	-13.1728	-0	0.159244	-243.932	-17.2678	150.055	41.262	-4.52	0.193692	7.77467	-0.000174097	0.00786939	0	-0.247068	-3.51772	-2.01156	-5.07401	-2.37545	10.3143	-0	-0	3.33891e-09	-0.464289	-0	-1.26302	14.9359	-0	0.0353371	-26.7017	-1.90939	0.0728562	-1.05898	-0.23916	25.0733	16.7047	54.4849	1.26579e-09	7.48672	-568.564	13.763	256.918	53.7601	-1.19669	-0	-0.0327328	-11.9072	21.8265	48.5779	-9.30151	-41.7016	-91.9509	-2.27111e-09	-18.5468	-59.062	-4.53072e-20	237.918	-98.9492	
3.64	1.71313	87.212	-0.0945725	-0.000348963	0	0.932781	-31.2357	-4.73177	-15.0591	-7.62211	-15.8161	-0.00734885	-2.27882e-08	-3.84122e-09	-2.07548	-0	4.11827	45.4044	-0	0.972293	325.61	15.1903	-243.87	-47.3168	1.62573	2.88379	104.789	0.374102	0.000505979	0	2.01807	24.0761	-1.66888	-1.49314	7.27822	-32.8196	-0.0132254	-4.00469e-08	-1.78138e-08	-8.1839	-0	13.6239	-12.0416	-0	0.140646	-251.232	-17.5705	153.573	42.2898	-5.49921	0.201848	8.78938	0.00014882	4.57703e-05	0	-0.266057	-3.48829	-1.81473	-4.77181	-2.37696	9.48803	-0.0044755	-4.78582e-08	3.16469e-09	-0.58718	-0	-1.20094	12.5951	-0	0.0333326	-26.9612	-1.82015	0.00827162	-1.076	-0.348743	25.0748	16.6093	48.0392	1.24973e-09	7.00882	-571.008	13.305	253.025	53.3792	-1.44548	-2.55503e-05	-0	-10.0633	23.7935	48.9214	-9.23253	-39.8285	-79.5377	-2.20662e-09	-18.6114	-60.2417	-4.87403e-21	228.979	-102.91	
3.645	1.9039	98.7458	-0.0779328	-0	0.00017717	1.02463	-30.1878	-4.37956	-14.5072	-7.38566	-15.7627	-0.00980791	-2.68583e-08	-4.28622e-09	-2.08192	-0	4.18376	48.2926	-0	0.956489	311.906	14.0697	-233.602	-45.3286	1.61846	3.16297	117.461	0.359025	0	0.00105901	2.16671	24.9737	-1.45598	-1.1931	7.56284	-30.9503	-0.017046	-4.6626e-08	-1.80005e-08	-7.61737	-0	12.9525	-13.968	-0	0.122068	-258.631	-17.8823	157.309	43.3862	-6.24146	0.215233	9.92038	0.000416666	0	2.42618e-06	-0.297336	-3.4683	-1.66116	-4.55102	-2.40442	8.66047	-0.00623849	-5.90963e-08	2.9301e-09	-0.687263	-0	-1.13668	13.5526	-0	0.0315547	-27.285	-1.73268	-0.0926647	-1.10265	-0.460412	25.1328	16.5196	41.4499	1.23375e-09	6.53428	-573.019	12.8563	249.374	53.048	-1.629	-0.00106586	-0.00743155	-8.39341	25.7537	47.6142	-9.02085	-37.5587	-66.8524	-2.12682e-09	-18.5201	-61.2439	-0	219.465	-106.555	
