CEINMS output
datacolumns 6
datarows 92
endheader
time	hip_flexion_l	hip_adduction_l	hip_rotation_l	knee_angle_l	ankle_angle_l	
3.19	51.0628	-126.609	30.7094	-192.002	5.14159	
3.195	91.6388	-172.359	33.5195	-258.014	11.7196	
3.2	110.629	-170.022	22.4374	-278.001	11.6192	
3.205	128.534	-163.528	15.2044	-289.329	12.0152	
3.21	162.185	-160.183	18.1481	-301.738	14.5543	
3.215	195.079	-156.425	20.949	-311.957	17.9852	
3.22	223.549	-153.376	16.904	-316.319	21.4089	
3.225	253.184	-152.165	10.8952	-316.487	24.5698	
3.23	281.871	-150.842	6.99368	-320.515	27.6081	
3.235	306.791	-148.516	4.45959	-330.12	30.6497	
3.24	325.461	-143.99	1.53156	-340.265	33.7589	
3.245	332.966	-136.148	-4.46655	-340.387	36.964	
3.25	330.267	-127.742	-9.44234	-328.256	40.2841	
3.255	319.591	-124.103	-11.6593	-308.593	43.7305	
3.26	307.178	-120.157	-12.5664	-285.727	47.269	
3.265	295.231	-114.298	-12.3613	-260.414	50.7475	
3.27	282.694	-105.463	-11.0236	-234.01	54.1084	
3.275	263.511	-95.5963	-9.70673	-207.457	57.3378	
3.28	240.148	-78.7307	-7.38511	-180.875	60.4004	
3.285	207.509	-56.719	-5.19732	-160.569	63.2357	
3.29	161.928	-31.5378	-3.22681	-137.309	65.8104	
3.295	115.066	-9.62936	-0.900173	-111.721	68.1074	
3.3	78.1386	3.18422	1.60177	-91.7642	70.1341	
3.305	58.5082	7.36261	3.75703	-80.3858	71.9368	
3.31	51.3136	11.648	5.74668	-77.1662	73.5739	
3.315	40.2613	9.6144	5.16358	-76.3481	75.093	
3.32	30.0075	4.69185	4.6707	-74.2781	76.5057	
3.325	22.7294	-1.76872	4.91531	-70.2095	77.7681	
3.33	17.485	-8.5449	5.96567	-63.8553	78.7495	
3.335	12.9936	-14.2149	7.69013	-55.4719	79.2765	
3.34	8.86183	-18.3166	9.67782	-43.9366	79.6656	
3.345	4.80375	-20.7269	10.9942	-31.044	80.0191	
3.35	-0.429811	-20.9059	11.3483	-17.2085	79.478	
3.355	-8.32629	-18.4233	10.6618	1.8589	77.9778	
3.36	-19.6856	-13.4389	8.95623	28.1996	75.8964	
3.365	-35.1406	-6.61677	6.29314	62.3835	73.4766	
3.37	-55.5829	1.75058	3.28239	99.5393	70.8516	
3.375	-82.6784	11.907	0.568508	140.189	68.0928	
3.38	-115.68	22.9343	-1.08018	182.895	65.2282	
3.385	-152.47	33.4468	-1.08639	229.595	62.2519	
3.39	-191.049	42.1707	0.591996	276.646	59.1317	
3.395	-230.322	48.6661	3.29247	310.683	55.8288	
3.4	-265.969	52.0426	7.22253	338.458	52.308	
3.405	-291.034	51.6421	11.0364	349.56	48.5531	
3.41	-303.588	51.3541	12.7094	346.246	44.5838	
3.415	-311.673	54.4376	12.2983	338.171	40.4316	
3.42	-319.398	57.5743	14.4949	329.92	37.7638	
3.425	-326.048	58.1919	20.0895	320.995	36.5723	
3.43	-330.019	58.3907	24.592	314.27	35.3103	
3.435	-331.084	58.4544	27.2825	307.961	32.7755	
3.44	-329.313	58.398	28.3781	300.16	28.5206	
3.445	-324.86	58.3521	27.9102	286.869	22.7169	
3.45	-318.025	58.4296	25.9473	265.961	16.034	
3.455	-309.019	58.6515	22.8387	241.553	9.22833	
3.46	-298.187	59.0876	18.9415	216.334	2.65043	
3.465	-286.06	59.7277	14.513	191.444	-3.77166	
3.47	-272.575	60.6414	10.3309	168.256	-7.05317	
3.475	-259.509	61.2159	5.17375	148.239	-9.47894	
3.48	-249.2	53.0188	5.86187	124.625	-14.263	
3.485	-240.013	42.9789	6.93315	99.338	-22.3379	
3.49	-231.858	33.4463	7.20426	77.9345	-36.3225	
3.495	-224.992	25.2865	6.39929	59.8753	-51.952	
3.5	-219.697	12.6849	12.1473	43.3054	-65.0503	
3.505	-216.513	-1.14943	19.6287	30.4108	-76.8733	
3.51	-207.785	-15.6872	25.4075	25.3351	-88.7161	
3.515	-191.132	-28.6836	26.7176	12.495	-100.568	
3.52	-171.219	-40.216	24.3219	7.78813	-111.933	
3.525	-151.886	-49.9985	19.8494	-15.6389	-122.309	
3.53	-134.563	-55.9636	13.272	-18.24	-131.549	
3.535	-118.278	-56.8337	5.92164	-37.6254	-139.867	
3.54	-101.226	-52.0648	-0.745725	-43.9629	-148.056	
3.545	-89.7396	-50.3485	-7.93056	-59.2665	-155.528	
3.55	-80.0351	-44.0423	-15.9344	-60.5335	-160.82	
3.555	-64.8494	-32.6059	-17.354	-68.2673	-163.341	
3.56	-51.095	-20.8601	-15.5786	-64.0725	-163.255	
3.565	-28.0505	-11.3704	-17.328	-63.6951	-160.559	
3.57	-1.82404	-4.74217	-15.9084	-56.2131	-154.989	
3.575	22.8812	-3.91681	-13.3026	-53.1425	-146.105	
3.58	42.5103	-3.04552	-11.3927	-44.6231	-133.453	
3.585	57.8077	-3.84417	-10.3246	-38.3895	-116.862	
3.59	70.0131	-4.66729	-9.22465	-36.8047	-96.5629	
3.595	79.1503	-3.65278	-7.90436	-43.1337	-73.4615	
3.6	86.4427	-0.798173	-6.62267	-52.4925	-49.3125	
3.605	92.9381	3.39813	-5.58556	-63.8641	-27.4402	
3.61	99.5087	8.60595	-4.76673	-76.7936	-14.9041	
3.615	106.747	17.2471	-4.18388	-90.6362	-8.79229	
3.62	113.953	28.1439	-4.30752	-105.491	-3.21116	
3.625	119.174	35.9529	-4.52455	-120.569	2.17694	
3.63	123.173	46.5813	-5.43099	-134.145	6.22758	
3.635	126.161	60.2427	-7.14787	-145.518	8.77038	
3.64	140.521	73.273	-6.07375	-156.175	10.2922	
3.645	151.327	89.2535	-6.2825	-165.183	9.4866	
