CEINMS output
datacolumns 81
datarows 92
endheader
time	addbrev_r	addlong_r	addmagDist_r	addmagIsch_r	addmagMid_r	addmagProx_r	bflh_r	bfsh_r	edl_r	ehl_r	fdl_r	fhl_r	gaslat_r	gasmed_r	glmax1_r	glmax2_r	glmax3_r	glmed1_r	glmed2_r	glmed3_r	glmin1_r	glmin2_r	glmin3_r	grac_r	iliacus_r	perbrev_r	perlong_r	piri_r	psoas_r	recfem_r	sart_r	semimem_r	semiten_r	soleus_r	tfl_r	tibant_r	tibpost_r	vasint_r	vaslat_r	vasmed_r	addbrev_l	addlong_l	addmagDist_l	addmagIsch_l	addmagMid_l	addmagProx_l	bflh_l	bfsh_l	edl_l	ehl_l	fdl_l	fhl_l	gaslat_l	gasmed_l	glmax1_l	glmax2_l	glmax3_l	glmed1_l	glmed2_l	glmed3_l	glmin1_l	glmin2_l	glmin3_l	grac_l	iliacus_l	perbrev_l	perlong_l	piri_l	psoas_l	recfem_l	sart_l	semimem_l	semiten_l	soleus_l	tfl_l	tibant_l	tibpost_l	vasint_l	vaslat_l	vasmed_l	
3.19	5.25622e-05	0.000773534	0.00016652	8.78867e-05	4.43359e-05	5.80862e-05	0.000914131	0.000462873	0.000262921	0.000135634	0.000424936	0.000438306	0.000917762	0.00140491	0.00213725	0.00204146	0.00195583	0.00213877	0.00212431	0.00190726	0.000448302	0.00213027	0.00188348	0.000181635	0.000348778	0.00041468	0.000219886	0.00202193	0.000132482	0.000116513	6.46323e-05	0.00216718	0.0011681	0.000901844	5.62209e-05	8.96996e-05	0.000568391	0.000261346	0.000128386	0.000122691	0.000248659	0.000248659	0.247057	0.247057	0.186247	0.000248659	0.00149147	0.00027583	0.000968885	0.000739262	0.790461	0.011267	0.00338483	0.000248659	0.00434362	0.0075666	0.000517861	0.872914	0.924278	0.0014188	0.445186	0.821272	0.000862863	0.0128883	0.000284681	0.0529407	0.00572052	0.000267727	0.000776532	0.241598	0.65495	0.0101508	0.00117953	0.0404872	0.000248659	0.0734435	0.0777985	2.55801e-05	0.000998959	3.03582e-05	
3.195	0.000143169	0.00119938	0.0003875	0.000222473	0.000117934	0.000157914	0.00168795	0.00101731	0.000562033	0.000321892	0.000796865	0.000787985	0.0014989	0.00191979	0.0027885	0.00268745	0.00260659	0.00285819	0.00272277	0.00259835	0.000793858	0.00286018	0.00258216	0.000430155	0.000799858	0.00075472	0.000470716	0.0026465	0.000313226	0.000301267	0.000174491	0.00269349	0.00182472	0.0014769	0.000151563	0.000225198	0.000976726	0.000559261	0.000307226	0.000294488	0.000500749	0.000500749	0.494782	0.494782	0.433812	0.0347654	0.0032195	0.000713173	0.00106577	0.0009611	0.857947	0.0359659	0.00797161	0.000500749	0.0104859	0.0181429	0.00109299	0.711279	0.993503	0.0420057	0.312617	0.15406	0.0010073	0.0312421	0.00055606	0.150406	0.0179541	0.000532862	0.000993041	0.293985	0.887549	0.0231279	0.00297882	0.0807913	0.000500749	0.142705	0.191134	6.86385e-05	0.00109884	8.10598e-05	
3.2	0.00280274	0.00147286	0.00147114	0.00160169	0.00154203	0.00297016	0.00274905	0.00287831	0.00141435	0.00138138	0.00134373	0.00121313	0.00196544	0.00210627	0.00297486	0.0028816	0.0028146	0.00309139	0.00287842	0.00284492	0.0011869	0.00310268	0.00283922	0.00182083	0.00279444	0.00119134	0.00119131	0.00282847	0.00131167	0.00271723	0.0029309	0.00280785	0.00226037	0.00194393	0.00244934	0.00149871	0.00138435	0.00141335	0.00139406	0.00136473	0.00102267	0.00102267	0.895751	0.842707	0.750175	0.0785528	0.345945	0.12374	0.00107355	0.00102332	0.765054	0.87354	0.408486	0.00102267	0.288319	0.647162	0.134841	0.566182	0.999308	0.0365914	0.303626	0.0898526	0.0010277	0.728535	0.00103947	0.894758	0.8652	0.00105049	0.0010485	0.337758	0.990068	0.733713	0.354526	0.213945	0.00102267	0.22804	0.993772	0.00103384	0.00110687	0.00113001	
3.205	0.00280274	0.00147286	0.00147114	0.00160169	0.00154203	0.00297016	0.00274905	0.00287831	0.00141435	0.00138138	0.00134373	0.00121313	0.00196544	0.00210627	0.00297486	0.0028816	0.0028146	0.00309139	0.00287842	0.00284492	0.0011869	0.00310268	0.00283922	0.00182083	0.00279444	0.00119134	0.00119131	0.00282847	0.00131167	0.00271723	0.0029309	0.00280785	0.00226037	0.00194393	0.00244934	0.00149871	0.00138435	0.00141335	0.00139406	0.00136473	0.0125306	0.0145128	0.654626	0.600254	0.537098	0.0625876	0.344588	0.123595	0.00107355	0.00102332	0.818547	0.866103	0.405369	0.00102267	0.283462	0.63751	0.134466	0.614906	0.14116	0.0141305	0.584373	0.0201689	0.0010277	0.725097	0.282125	0.856177	0.863001	0.00105049	0.749243	0.36386	0.994768	0.723442	0.353765	0.196921	0.00102267	0.261009	0.96274	0.00103384	0.00110687	0.00113001	
3.21	0.00280274	0.00147286	0.00147114	0.00160169	0.00154203	0.00297016	0.00274905	0.00287831	0.00141435	0.00138138	0.00134373	0.00121313	0.00196544	0.00210627	0.00297486	0.0028816	0.0028146	0.00309139	0.00287842	0.00284492	0.0011869	0.00310268	0.00283922	0.00182083	0.00279444	0.00119134	0.00119131	0.00282847	0.00131167	0.00271723	0.0029309	0.00280785	0.00226037	0.00194393	0.00244934	0.00149871	0.00138435	0.00141335	0.00139406	0.00136473	0.0514452	0.0574531	0.434628	0.392885	0.352526	0.0479638	0.342645	0.123376	0.00107355	0.00102332	0.81825	0.85321	0.400856	0.00102267	0.276374	0.623772	0.13392	0.433129	0.0129516	0.0107283	0.796648	0.142666	0.0010277	0.720195	0.544558	0.79654	0.859107	0.00105049	0.948608	0.387506	0.997612	0.70947	0.352604	0.175225	0.00102267	0.297964	0.91454	0.00103384	0.00110687	0.00113001	
3.215	0.00280274	0.00147286	0.00147114	0.00160169	0.00154203	0.00297016	0.00274905	0.00287831	0.00141435	0.00138138	0.00134373	0.00121313	0.00196544	0.00210627	0.00297486	0.0028816	0.0028146	0.00309139	0.00287842	0.00284492	0.0011869	0.00310268	0.00283922	0.00182083	0.00279444	0.00119134	0.00119131	0.00282847	0.00131167	0.00271723	0.0029309	0.00280785	0.00226037	0.00194393	0.00244934	0.00149871	0.00138435	0.00141335	0.00139406	0.00136473	0.0894531	0.0863286	0.274256	0.244409	0.236962	0.0437564	0.340178	0.123086	0.00107355	0.00102332	0.823821	0.836011	0.395081	0.00102267	0.267851	0.607075	0.133244	0.374602	0.00221825	0.00894249	0.8016	0.0272622	0.0351105	0.71398	0.728956	0.725132	0.85372	0.0105794	0.989809	0.405704	0.998746	0.692617	0.351057	0.151323	0.00102267	0.336468	0.854382	0.00105211	0.00110687	0.00113001	
3.22	0.00280274	0.00147286	0.00147114	0.00160169	0.00154203	0.00297016	0.00274905	0.00287831	0.00141435	0.00138138	0.00134373	0.00121313	0.00196544	0.00210627	0.00297486	0.0028816	0.0028146	0.00309139	0.00287842	0.00284492	0.0011869	0.00310268	0.00283922	0.00182083	0.00279444	0.00119134	0.00119131	0.00282847	0.00131167	0.00271723	0.0029309	0.00280785	0.00226037	0.00194393	0.00244934	0.00149871	0.00138435	0.00141335	0.00139406	0.00136473	0.117358	0.0993873	0.203705	0.179266	0.183311	0.0447443	0.337243	0.122726	0.00107355	0.00102332	0.833924	0.815411	0.38819	0.00102267	0.258421	0.588263	0.132465	0.386131	0.00144429	0.00834203	0.473127	0.00468855	0.0381383	0.706583	0.844774	0.648428	0.847004	0.0190353	0.99745	0.424231	0.999144	0.673604	0.349142	0.127262	0.00102267	0.375278	0.78627	0.00109123	0.00110687	0.00113001	
3.225	0.00280274	0.00147286	0.00147114	0.00160169	0.00154203	0.00297016	0.00274905	0.00287831	0.00141435	0.00138138	0.00134373	0.00121313	0.00196544	0.00210627	0.00297486	0.0028816	0.0028146	0.00309139	0.00287842	0.00284492	0.0011869	0.00310268	0.00283922	0.00182083	0.00279444	0.00119134	0.00119131	0.00282847	0.00131167	0.00271723	0.0029309	0.00280785	0.00226037	0.00194393	0.00244934	0.00149871	0.00138435	0.00141335	0.00139406	0.00136473	0.141262	0.111732	0.156088	0.133074	0.15426	0.0456001	0.333889	0.1223	0.00107355	0.00102332	0.837567	0.792287	0.38033	0.00102267	0.248281	0.567767	0.131597	0.353037	0.00139203	0.0082464	0.234042	0.00146404	0.0382697	0.698099	0.913283	0.571075	0.839135	0.0250335	0.998781	0.444218	0.999275	0.653058	0.346883	0.104546	0.00102267	0.41303	0.713615	0.00116615	0.00110687	0.00113001	
3.23	0.00280274	0.00147286	0.00147114	0.00160169	0.00154203	0.00297016	0.00274905	0.00287831	0.00141435	0.00138138	0.00134373	0.00121313	0.00196544	0.00210627	0.00297486	0.0028816	0.0028146	0.00309139	0.00287842	0.00284492	0.0011869	0.00310268	0.00283922	0.00182083	0.00279444	0.00119134	0.00119131	0.00282847	0.00131167	0.00271723	0.0029309	0.00280785	0.00226037	0.00194393	0.00244934	0.00149871	0.00138435	0.00141335	0.00139406	0.00136473	0.166064	0.12794	0.111777	0.0891357	0.138466	0.0349895	0.330168	0.121809	0.00107355	0.00102332	0.843639	0.767322	0.371656	0.00102267	0.237541	0.545883	0.130651	0.255943	0.00138863	0.00232831	0.274092	0.00105545	0.0410924	0.688623	0.952308	0.497133	0.830254	0.0286999	0.999004	0.459886	0.999317	0.631535	0.344313	0.0841545	0.00102267	0.447526	0.639385	0.00127533	0.00110687	0.00113001	
3.235	0.00280274	0.00147286	0.00147114	0.00160169	0.00154203	0.00297016	0.00274905	0.00287831	0.00141435	0.00138138	0.00134373	0.00121313	0.00196544	0.00210627	0.00297486	0.0028816	0.0028146	0.00309139	0.00287842	0.00284492	0.0011869	0.00310268	0.00283922	0.00182083	0.00279444	0.00119134	0.00119131	0.00282847	0.00131167	0.00271723	0.0029309	0.00280785	0.00226037	0.00194393	0.00244934	0.00149871	0.00138435	0.00141335	0.00139406	0.00136473	0.192825	0.146189	0.0832851	0.0564287	0.137646	0.0240071	0.32613	0.121245	0.00107355	0.00102332	0.849066	0.741108	0.362326	0.00102267	0.226323	0.522977	0.129637	0.129827	0.00138842	0.00159122	0.432088	0.00100679	0.0405262	0.67826	0.973961	0.429456	0.820493	0.0307602	0.99904	0.467912	0.999331	0.609538	0.341471	0.0666544	0.00102267	0.477079	0.566096	0.00138861	0.00110687	0.00113001	
3.24	0.00280274	0.00147286	0.00147114	0.00160169	0.00154203	0.00297016	0.00274905	0.00287831	0.00141435	0.00138138	0.00134373	0.00121313	0.00196544	0.00210627	0.00297486	0.0028816	0.0028146	0.00309139	0.00287842	0.00284492	0.0011869	0.00310268	0.00283922	0.00182083	0.00279444	0.00119134	0.00119131	0.00282847	0.00131167	0.00271723	0.0029309	0.00280785	0.00226037	0.00194393	0.00244934	0.00149871	0.00138435	0.00141335	0.00139406	0.00136473	0.21752	0.162891	0.0706392	0.0345528	0.146368	0.0155973	0.321819	0.120615	0.00107355	0.00102332	0.876899	0.71384	0.352494	0.00102267	0.214742	0.499448	0.128566	0.058321	0.0013884	0.00152221	0.399665	0.0010012	0.0603496	0.667125	0.985745	0.426708	0.80981	0.0635833	0.999046	0.469988	0.999335	0.587515	0.338403	0.0522724	0.00102267	0.500624	0.495761	0.00150609	0.00110687	0.00113001	
3.245	0.00280274	0.00147286	0.00147114	0.00160169	0.00154203	0.00297016	0.00274905	0.00287831	0.00141435	0.00138138	0.00134373	0.00121313	0.00196544	0.00210627	0.00297486	0.0028816	0.0028146	0.00309139	0.00287842	0.00284492	0.0011869	0.00310268	0.00283922	0.00182083	0.00279444	0.00119134	0.00119131	0.00282847	0.00131167	0.00271723	0.0029309	0.00280785	0.00226037	0.00194393	0.00244934	0.00149871	0.00138435	0.00141335	0.00139406	0.00136473	0.238195	0.176749	0.0711024	0.0217668	0.160479	0.00989264	0.317277	0.119926	0.00107355	0.00102332	0.878621	0.686031	0.342296	0.00102267	0.20298	0.475625	0.127447	0.0325275	0.0013884	0.00151645	0.228668	0.00100058	0.0626305	0.655323	0.992061	0.46281	0.798322	0.0943295	0.999047	0.470951	0.999336	0.565822	0.335149	0.0410211	0.00102267	0.517464	0.429871	0.00163266	0.00110687	0.00113001	
3.25	0.00280274	0.00147286	0.00147114	0.00160169	0.00154203	0.00297016	0.00274905	0.00287831	0.00141435	0.00138138	0.00134373	0.00121313	0.00196544	0.00210627	0.00297486	0.0028816	0.0028146	0.00309139	0.00287842	0.00284492	0.0011869	0.00310268	0.00283922	0.00182083	0.00279444	0.00119134	0.00119131	0.00282847	0.00131167	0.00271723	0.0029309	0.00280785	0.00226037	0.00194393	0.00244934	0.00149871	0.00138435	0.00141335	0.00139406	0.00136473	0.258389	0.188751	0.0986785	0.0381201	0.186511	0.0062701	0.312542	0.119183	0.00107355	0.00102332	0.8805	0.658287	0.331851	0.00102267	0.191218	0.451783	0.126291	0.00581984	0.0013884	0.00151599	0.111405	0.00100051	0.0612638	0.642951	0.995407	0.516457	0.786133	0.115505	0.999047	0.47339	0.999336	0.544716	0.331752	0.0327865	0.00102267	0.527518	0.371459	0.0017782	0.00110687	0.00113001	
3.255	0.00280274	0.00147286	0.00147114	0.00160169	0.00154203	0.00297016	0.00274905	0.00287831	0.00141435	0.00138138	0.00134373	0.00121313	0.00196544	0.00210627	0.00297486	0.0028816	0.0028146	0.00309139	0.00287842	0.00284492	0.0011869	0.00310268	0.00283922	0.00182083	0.00279444	0.00119134	0.00119131	0.00282847	0.00131167	0.00271723	0.0029309	0.00280785	0.00226037	0.00194393	0.00244934	0.00149871	0.00138435	0.00141335	0.00139406	0.00136473	0.293398	0.207021	0.169026	0.0807915	0.241985	0.00406337	0.307644	0.118393	0.00107355	0.00102332	0.874065	0.6329	0.321264	0.00102267	0.1796	0.428144	0.125119	0.00175126	0.0013884	0.00151596	0.0502424	0.0010005	0.0622602	0.630133	0.997161	0.55679	0.773246	0.121153	0.999047	0.477105	0.999337	0.524365	0.328245	0.0272894	0.00102267	0.530945	0.379497	0.00196178	0.00110687	0.00113001	
3.26	0.00280274	0.00147286	0.00147114	0.00160169	0.00154203	0.00297016	0.00274905	0.00287831	0.00141435	0.00138138	0.00134373	0.00121313	0.00196544	0.00210627	0.00297486	0.0028816	0.0028146	0.00309139	0.00287842	0.00284492	0.0011869	0.00310268	0.00283922	0.00182083	0.00279444	0.00119134	0.00119131	0.00282847	0.00131167	0.00271723	0.0029309	0.00280785	0.00226037	0.00194393	0.00244934	0.00149871	0.00138435	0.00141335	0.00139406	0.00136473	0.337474	0.227634	0.264032	0.138607	0.318405	0.00275701	0.302608	0.117559	0.00107355	0.00102332	0.878739	0.612287	0.310626	0.00102267	0.168237	0.404889	0.123954	0.00127438	0.0013884	0.00151596	0.0219071	0.0010005	0.161989	0.616992	0.998074	0.55452	0.759657	0.113021	0.999047	0.481622	0.999337	0.504883	0.32466	0.0241384	0.00102267	0.528348	0.379395	0.00216827	0.00110687	0.00113001	
3.265	0.00280274	0.00147286	0.00147114	0.00160169	0.00154203	0.00297016	0.00274905	0.00287831	0.00141435	0.00138138	0.00134373	0.00121313	0.00196544	0.00210627	0.00297486	0.0028816	0.0028146	0.00309139	0.00287842	0.00284492	0.0011869	0.00310268	0.00283922	0.00182083	0.00279444	0.00119134	0.00119131	0.00282847	0.00131167	0.00271723	0.0029309	0.00280785	0.00226037	0.00194393	0.00244934	0.00149871	0.00138435	0.00141335	0.00139406	0.00136473	0.378046	0.243781	0.375618	0.1995	0.394214	0.00199963	0.297458	0.116688	0.00107355	0.00102332	0.866003	0.595922	0.300015	0.00102267	0.157216	0.382162	0.12282	0.00122419	0.0013884	0.00151596	0.00961396	0.0010005	0.174415	0.603642	0.998545	0.527343	0.745464	0.106621	0.999047	0.487698	0.999337	0.486301	0.321023	0.0229884	0.00102267	0.520236	0.374005	0.00238182	0.00110687	0.00113001	
3.27	0.00280274	0.00147286	0.00147114	0.00160169	0.00154203	0.00297016	0.00274905	0.00287831	0.00141435	0.00138138	0.00134373	0.00121313	0.00196544	0.00210627	0.00297486	0.0028816	0.0028146	0.00309139	0.00287842	0.00284492	0.0011869	0.00310268	0.00283922	0.00182083	0.00279444	0.00119134	0.00119131	0.00282847	0.00131167	0.00271723	0.0029309	0.00280785	0.00226037	0.00194393	0.00244934	0.00149871	0.00138435	0.00141335	0.00139406	0.00136473	0.418794	0.259058	0.488309	0.263163	0.470246	0.00156748	0.292212	0.115781	0.00107355	0.00102332	0.866655	0.583349	0.2895	0.00102267	0.146599	0.360077	0.121729	0.0012192	0.0013884	0.00151596	0.00449578	0.0010005	0.029035	0.590183	0.998787	0.487924	0.730753	0.103795	0.999047	0.495524	0.999337	0.468546	0.317353	0.0235041	0.00102267	0.518045	0.365231	0.00261427	0.00110687	0.00113001	
3.275	0.00280274	0.00147286	0.00147114	0.00160169	0.00154203	0.00297016	0.00274905	0.00287831	0.00141435	0.00138138	0.00134373	0.00121313	0.00196544	0.00210627	0.00297486	0.0028816	0.0028146	0.00309139	0.00287842	0.00284492	0.0011869	0.00310268	0.00283922	0.00182083	0.00279444	0.00119134	0.00119131	0.00282847	0.00131167	0.00271723	0.0029309	0.00280785	0.00226037	0.00194393	0.00244934	0.00149871	0.00138435	0.00141335	0.00139406	0.00136473	0.441687	0.264739	0.571837	0.306738	0.526856	0.00132397	0.286889	0.114843	0.00107355	0.00102332	0.867424	0.579533	0.279135	0.00102267	0.136431	0.338719	0.120667	0.00121873	0.0013884	0.00151596	0.00242382	0.0010005	0.0045004	0.576651	0.998911	0.48317	0.715511	0.118235	0.999047	0.503948	0.999337	0.451505	0.313659	0.0252866	0.00102267	0.522562	0.35521	0.00288803	0.00110687	0.00113001	
3.28	0.00280274	0.00147286	0.00147114	0.00160169	0.00154203	0.00297016	0.00274905	0.00287831	0.00141435	0.00138138	0.00134373	0.00121313	0.00196544	0.00210627	0.00297486	0.0028816	0.0028146	0.00309139	0.00287842	0.00284492	0.0011869	0.00310268	0.00283922	0.00182083	0.00279444	0.00119134	0.00119131	0.00282847	0.00131167	0.00271723	0.0029309	0.00280785	0.00226037	0.00194393	0.00244934	0.00149871	0.00138435	0.00141335	0.00139406	0.00136473	0.446561	0.261159	0.603921	0.312829	0.555719	0.00118814	0.281499	0.113874	0.00107355	0.00102332	0.860921	0.582652	0.268962	0.00102267	0.126741	0.318152	0.119608	0.00121868	0.0013884	0.00151596	0.00160192	0.0010005	0.00141296	0.563029	0.998974	0.483079	0.699788	0.132133	0.999047	0.509309	0.999337	0.435046	0.309937	0.0279834	0.00102267	0.530889	0.346406	0.00322066	0.00110687	0.00113001	
3.285	0.00280274	0.00147286	0.00147114	0.00160169	0.00154203	0.00297016	0.00274905	0.00287831	0.00141435	0.00138138	0.00134373	0.00121313	0.00196544	0.00210627	0.00297486	0.0028816	0.0028146	0.00309139	0.00287842	0.00284492	0.0011869	0.00310268	0.00283922	0.00182083	0.00279444	0.00119134	0.00119131	0.00282847	0.00131167	0.00271723	0.0029309	0.00280785	0.00226037	0.00194393	0.00244934	0.00149871	0.00138435	0.00141335	0.00139406	0.00136473	0.444669	0.255689	0.612174	0.279101	0.575655	0.001113	0.276054	0.112875	0.00107355	0.00102332	0.85281	0.591129	0.259023	0.00102267	0.117549	0.298422	0.118538	0.00121868	0.0013884	0.00151596	0.00128087	0.0010005	0.00106789	0.549286	0.999006	0.485368	0.683671	0.141787	0.999047	0.507754	0.999337	0.419074	0.306181	0.031328	0.00102267	0.541691	0.338561	0.00365255	0.00110687	0.00113001	
3.29	0.00280274	0.00147286	0.00147114	0.00160169	0.00154203	0.00297016	0.00274905	0.00287831	0.00141435	0.00138138	0.00134373	0.00121313	0.00196544	0.00210627	0.00297486	0.0028816	0.0028146	0.00309139	0.00287842	0.00284492	0.0011869	0.00310268	0.00283922	0.00182083	0.00279444	0.00119134	0.00119131	0.00282847	0.00131167	0.00271723	0.0029309	0.00280785	0.00226037	0.00194393	0.00244934	0.00149871	0.00138435	0.00141335	0.00139406	0.00136473	0.443467	0.250077	0.614671	0.203102	0.599988	0.00107173	0.270566	0.111847	0.00107355	0.00102332	0.847602	0.603631	0.249343	0.00102267	0.108862	0.279557	0.117452	0.00121868	0.0013884	0.00151596	0.00115698	0.0010005	0.00103173	0.53536	0.999022	0.477394	0.667211	0.140001	0.999047	0.499141	0.999337	0.403482	0.302378	0.0349017	0.00102267	0.554766	0.328532	0.00421807	0.00110687	0.00113001	
3.295	0.00280274	0.00147286	0.00147114	0.00160169	0.00154203	0.00297016	0.00274905	0.00287831	0.00141435	0.00138138	0.00134373	0.00121313	0.00196544	0.00210627	0.00297486	0.0028816	0.0028146	0.00309139	0.00287842	0.00284492	0.0011869	0.00310268	0.00283922	0.00182083	0.00279444	0.00119134	0.00119131	0.00282847	0.00131167	0.00271723	0.0029309	0.00280785	0.00226037	0.00194393	0.00244934	0.00149871	0.00138435	0.00141335	0.00139406	0.00136473	0.445793	0.244351	0.551385	0.134522	0.622744	0.0010492	0.265025	0.110789	0.00107355	0.00102332	0.8401	0.619049	0.239936	0.00102267	0.10068	0.261572	0.116324	0.00121868	0.0013884	0.00151596	0.00110963	0.0010005	0.00102809	0.521152	0.99903	0.472523	0.650457	0.129271	0.999047	0.484903	0.999337	0.388051	0.298489	0.0384463	0.00102267	0.569699	0.319683	0.00453968	0.00110687	0.00113001	
3.3	0.00280274	0.00147286	0.00147114	0.00160169	0.00154203	0.00297016	0.00274905	0.00287831	0.00141435	0.00138138	0.00134373	0.00121313	0.00196544	0.00210627	0.00297486	0.0028816	0.0028146	0.00309139	0.00287842	0.00284492	0.0011869	0.00310268	0.00283922	0.00182083	0.00279444	0.00119134	0.00119131	0.00282847	0.00131167	0.00271723	0.0029309	0.00280785	0.00226037	0.00194393	0.00244934	0.00149871	0.00138435	0.00141335	0.00139406	0.00136473	0.454419	0.240789	0.411969	0.084454	0.65947	0.00103696	0.259362	0.109699	0.00107355	0.00102332	0.832287	0.63599	0.230811	0.00102267	0.0929969	0.244474	0.115144	0.00121868	0.0013884	0.00151596	0.00109167	0.0010005	0.00102774	0.506587	0.999034	0.469099	0.633482	0.121849	0.999047	0.465693	0.999337	0.37238	0.29447	0.04176	0.00102267	0.585937	0.311452	0.00523303	0.00110687	0.00157783	
3.305	0.00280274	0.00147286	0.00147114	0.00160169	0.00154203	0.00297016	0.00274905	0.00287831	0.00141435	0.00138138	0.00134373	0.00121313	0.00196544	0.00210627	0.00297486	0.0028816	0.0028146	0.00309139	0.00287842	0.00284492	0.0011869	0.00310268	0.00283922	0.00182083	0.00279444	0.00119134	0.00119131	0.00282847	0.00131167	0.00271723	0.0029309	0.00280785	0.00226037	0.00194393	0.00244934	0.00149871	0.00138435	0.00141335	0.00139406	0.00136473	0.456427	0.232272	0.276615	0.051302	0.68856	0.00103034	0.253573	0.108579	0.00107355	0.00102332	0.823912	0.643886	0.222002	0.00102267	0.0858022	0.228257	0.113923	0.00121868	0.0013884	0.00151596	0.00108491	0.0010005	0.0010277	0.491661	0.999036	0.465628	0.616285	0.129842	0.999047	0.442403	0.999337	0.355937	0.290298	0.0447554	0.00102267	0.60238	0.302869	0.00764765	0.39086	0.00530597	
3.31	0.00280274	0.00147286	0.00147114	0.00160169	0.00154203	0.00297016	0.00274905	0.00287831	0.00141435	0.00138138	0.00134373	0.00121313	0.00196544	0.00210627	0.00297486	0.0028816	0.0028146	0.00309139	0.00287842	0.00284492	0.0011869	0.00310268	0.00283922	0.00182083	0.00279444	0.00119134	0.00119131	0.00282847	0.00131167	0.00271723	0.0029309	0.00280785	0.00226037	0.00194393	0.00244934	0.00149871	0.00138435	0.00141335	0.00139406	0.00136473	0.424843	0.174069	0.211669	0.0305563	0.696774	0.00102677	0.247728	0.107425	0.00107355	0.00102332	0.815449	0.644505	0.213569	0.00102267	0.0790812	0.21291	0.112726	0.00121868	0.0013884	0.00151596	0.00108238	0.0010005	0.0010277	0.476433	0.999037	0.46137	0.598935	0.136692	0.999047	0.416101	0.999337	0.339038	0.286021	0.047396	0.00102267	0.617963	0.295013	0.0102055	0.0935113	0.00874223	
3.315	0.00280274	0.00147286	0.00147114	0.00160169	0.00154203	0.00297016	0.00274905	0.00287831	0.00141435	0.00138138	0.00134373	0.00121313	0.00196544	0.00210627	0.00297486	0.0028816	0.0028146	0.00309139	0.00287842	0.00284492	0.0011869	0.00310268	0.00283922	0.00182083	0.00279444	0.00119134	0.00119131	0.00282847	0.00131167	0.00271723	0.0029309	0.00280785	0.00226037	0.00194393	0.00244934	0.00149871	0.00138435	0.00141335	0.00139406	0.00136473	0.344224	0.117108	0.225344	0.0361574	0.6459	0.00102486	0.241896	0.106239	0.00107355	0.00102332	0.807118	0.639307	0.205555	0.00102267	0.0734202	0.198813	0.111612	0.00121868	0.0013884	0.00151596	0.00108144	0.0010005	0.0010277	0.460936	0.999038	0.45744	0.581498	0.139106	0.999047	0.388346	0.999337	0.322808	0.281682	0.049663	0.00102267	0.631625	0.287504	0.0130819	0.0364906	0.0121627	
3.32	0.00280274	0.00147286	0.00147114	0.00160169	0.00154203	0.00297016	0.00274905	0.00287831	0.00141435	0.00138138	0.00134373	0.00121313	0.00196544	0.00210627	0.00297486	0.0028816	0.0028146	0.00309139	0.00287842	0.00284492	0.0011869	0.00310268	0.00283922	0.00182083	0.00279444	0.00119134	0.00119131	0.00282847	0.00131167	0.00271723	0.0029309	0.00280785	0.00226037	0.00194393	0.00244934	0.00149871	0.00138435	0.00141335	0.00139406	0.00136473	0.246296	0.0742594	0.240283	0.0733201	0.539523	0.00102383	0.236101	0.10502	0.00107355	0.00102332	0.798844	0.629274	0.198001	0.00102267	0.0693303	0.186466	0.1106	0.00121868	0.0013884	0.00151596	0.00108109	0.0010005	0.0010277	0.445227	0.733404	0.454001	0.564032	0.133146	0.784127	0.360111	0.532286	0.307564	0.277299	0.0515625	0.00102267	0.642993	0.280988	0.0164477	0.0408442	0.0158268	
3.325	0.00280274	0.00147286	0.00147114	0.00160169	0.00154203	0.00297016	0.00274905	0.00287831	0.00141435	0.00138138	0.00134373	0.00121313	0.00196544	0.00210627	0.00297486	0.0028816	0.0028146	0.00309139	0.00287842	0.00284492	0.0011869	0.00310268	0.00283922	0.00182083	0.00279444	0.00119134	0.00119131	0.00282847	0.00131167	0.00271723	0.0029309	0.00280785	0.00226037	0.00194393	0.00244934	0.00149871	0.00138435	0.00141335	0.00139406	0.00136473	0.161606	0.0454425	0.235572	0.0945469	0.432487	0.00102329	0.23035	0.103771	0.00107355	0.00102332	0.790747	0.615568	0.190951	0.00102267	0.0666076	0.175722	0.109694	0.00121868	0.0013884	0.00151596	0.00108096	0.0010005	0.0010277	0.429404	0.474848	0.450779	0.546593	0.125192	0.48724	0.331644	0.214984	0.293232	0.272887	0.0530497	0.00102267	0.653146	0.274629	0.0204627	0.0305913	0.0199709	
3.33	0.00280274	0.00147286	0.00147114	0.00160169	0.00154203	0.00297016	0.00274905	0.00287831	0.00141435	0.00138138	0.00134373	0.00121313	0.00196544	0.00210627	0.00297486	0.0028816	0.0028146	0.00309139	0.00287842	0.00284492	0.0011869	0.00310268	0.00283922	0.00182083	0.00279444	0.00119134	0.00119131	0.00282847	0.00131167	0.00271723	0.0029309	0.00280785	0.00226037	0.00194393	0.00244934	0.00149871	0.00138435	0.00141335	0.00139406	0.00136473	0.100816	0.0272361	0.221228	0.0991452	0.344608	0.001023	0.224654	0.102495	0.00107355	0.00102332	0.783773	0.599292	0.184455	0.00102267	0.0650923	0.166468	0.108902	0.00121868	0.0013884	0.00315215	0.00289419	0.0010005	0.0010277	0.413585	0.286996	0.447695	0.529229	0.117517	0.123235	0.302792	0.0761343	0.2798	0.268467	0.0540868	0.00102267	0.665609	0.268457	0.0252678	0.072633	0.0247958	
3.335	0.00280274	0.00147286	0.00147114	0.00160169	0.00154203	0.00297016	0.00274905	0.00287831	0.00141435	0.00138138	0.00134373	0.00121313	0.00196544	0.00210627	0.00297486	0.0028816	0.0028146	0.00309139	0.00287842	0.00284492	0.0011869	0.00310268	0.00283922	0.00182083	0.00279444	0.00119134	0.00119131	0.00282847	0.00131167	0.00271723	0.0029309	0.00280785	0.00226037	0.00194393	0.00244934	0.00149871	0.00138435	0.00141335	0.00139406	0.00136473	0.0609286	0.0161834	0.209252	0.101316	0.282975	0.00102284	0.219024	0.1012	0.00107355	0.00102332	0.775073	0.581317	0.178575	0.00102267	0.0646531	0.158599	0.108233	0.00121868	0.0013884	0.0567262	0.00412185	0.0010005	0.0010277	0.39791	0.166252	0.444801	0.511987	0.111441	0.0256179	0.27356	0.025936	0.267282	0.264067	0.0546209	0.00102267	0.688054	0.263156	0.0310057	0.133294	0.0305446	
3.34	0.00280274	0.00147286	0.00147114	0.00160169	0.00154203	0.00297016	0.00274905	0.00287831	0.00141435	0.00138138	0.00134373	0.00121313	0.00196544	0.00210627	0.00297486	0.0028816	0.0028146	0.00309139	0.00287842	0.00284492	0.0011869	0.00310268	0.00283922	0.00182083	0.00279444	0.00119134	0.00119131	0.00282847	0.00131167	0.00271723	0.0029309	0.00280785	0.00226037	0.00194393	0.00244934	0.00149871	0.00138435	0.00141335	0.00139406	0.00136473	0.0361104	0.00965676	0.189547	0.0908859	0.234057	0.00102276	0.21347	0.0998947	0.00107355	0.00102332	0.769394	0.568962	0.173372	0.00102267	0.0651634	0.15201	0.107696	0.00121868	0.0013884	0.0861412	0.022877	0.0010005	0.0010277	0.382512	0.100398	0.443523	0.494906	0.084529	0.00551828	0.244039	0.00923314	0.255607	0.259715	0.0546415	0.00102267	0.735193	0.258253	0.0378756	0.275209	0.037673	
3.345	0.00280274	0.00147286	0.00147114	0.00160169	0.00154203	0.00297016	0.00274905	0.00287831	0.00141435	0.00138138	0.00134373	0.00121313	0.00196544	0.00210627	0.00297486	0.0028816	0.0028146	0.00309139	0.00287842	0.00284492	0.0011869	0.00310268	0.00283922	0.00182083	0.00279444	0.00119134	0.00119131	0.00282847	0.00131167	0.00271723	0.0029309	0.00280785	0.00226037	0.00194393	0.00244934	0.00149871	0.00138435	0.00141335	0.00139406	0.00136473	0.0212002	0.00588025	0.164763	0.0692357	0.19375	0.00102272	0.208004	0.0985908	0.00107355	0.00102332	0.763189	0.561366	0.168868	0.00102267	0.0665279	0.146624	0.107301	0.00121868	0.0013884	0.10864	0.0158522	0.0010005	0.0010277	0.367506	0.0635351	0.439649	0.478026	0.0587265	0.00181706	0.21466	0.00388011	0.244684	0.255442	0.0542104	0.00102267	0.804207	0.25397	0.0460384	0.447863	0.0466254	
3.35	0.00280274	0.00147286	0.00147114	0.00160169	0.00154203	0.00297016	0.00274905	0.00287831	0.00141435	0.00138138	0.00134373	0.00121313	0.00196544	0.00210627	0.00297486	0.0028816	0.0028146	0.00309139	0.00287842	0.00284492	0.0011869	0.00310268	0.00283922	0.00182083	0.00279444	0.00119134	0.00119131	0.00282847	0.00131167	0.00271723	0.0029309	0.00280785	0.00226037	0.00194393	0.00244934	0.00149871	0.00138435	0.00141335	0.00139406	0.00136473	0.0124622	0.00372873	0.134993	0.0470985	0.156708	0.00102269	0.202624	0.0973007	0.00107355	0.00102332	0.757579	0.557639	0.16499	0.00102267	0.0686807	0.142389	0.107062	0.00121868	0.0013884	0.108327	0.00871278	0.0010005	0.0010277	0.352906	0.0431347	0.436133	0.461377	0.039648	0.032018	0.186151	0.00219547	0.234285	0.251277	0.0534656	0.00102267	0.882819	0.249908	0.0557017	0.70441	0.0580669	
3.355	0.00280274	0.00147286	0.00147114	0.00160169	0.00154203	0.00297016	0.00274905	0.00287831	0.00141435	0.00138138	0.00134373	0.00121313	0.00196544	0.00210627	0.00297486	0.0028816	0.0028146	0.00309139	0.00287842	0.00284492	0.0011869	0.00310268	0.00283922	0.00182083	0.00279444	0.00119134	0.00119131	0.00282847	0.00131167	0.00271723	0.0029309	0.00280785	0.00226037	0.00194393	0.00244934	0.00149871	0.00138435	0.00141335	0.00139406	0.00136473	0.00743522	0.00251791	0.0983324	0.0302096	0.116813	0.00102268	0.197335	0.0960379	0.00107355	0.00102332	0.75264	0.556925	0.161608	0.00102267	0.0715864	0.139278	0.106992	0.00121868	0.0013884	0.0904559	0.00460028	0.0010005	0.0010277	0.338711	0.031816	0.434171	0.444991	0.02698	0.0675111	0.159248	0.0016703	0.224278	0.24725	0.0525561	0.00102267	0.935626	0.246937	0.0668259	0.950557	0.0720642	
3.36	0.00280274	0.00147286	0.00147114	0.00160169	0.00154203	0.00297016	0.00274905	0.00287831	0.00141435	0.00138138	0.00134373	0.00121313	0.00196544	0.00210627	0.00297486	0.0028816	0.0028146	0.00309139	0.00287842	0.00284492	0.0011869	0.00310268	0.00283922	0.00182083	0.00279444	0.00119134	0.00119131	0.00282847	0.00131167	0.00271723	0.0029309	0.00280785	0.00226037	0.00194393	0.00244934	0.00149871	0.00138435	0.00141335	0.00139406	0.00136473	0.00458426	0.00184322	0.0652711	0.0187734	0.0784383	0.00102267	0.192126	0.0948182	0.00107355	0.00102332	0.748203	0.558477	0.158518	0.00102267	0.075183	0.137201	0.107102	0.00121868	0.0013884	0.0564614	0.00260497	0.0010005	0.0010277	0.324781	0.025517	0.433163	0.428893	0.019114	0.0751043	0.134542	0.00150744	0.214465	0.243388	0.0516087	0.00102267	0.968176	0.244322	0.0793046	0.994983	0.0885351	
3.365	0.00280274	0.00147286	0.00147114	0.00160169	0.00154203	0.00297016	0.00274905	0.00287831	0.00141435	0.00138138	0.00134373	0.00121313	0.00196544	0.00210627	0.00297486	0.0028816	0.0028146	0.00309139	0.00287842	0.00284492	0.0011869	0.00310268	0.00283922	0.00182083	0.00279444	0.00119134	0.00119131	0.00282847	0.00131167	0.00271723	0.0029309	0.00280785	0.00226037	0.00194393	0.00244934	0.00149871	0.00138435	0.00141335	0.00139406	0.00136473	0.00298569	0.00147035	0.0411574	0.0115187	0.0497604	0.00102267	0.186964	0.0936561	0.00107355	0.00102332	0.744134	0.561601	0.155398	0.00102267	0.079351	0.135971	0.10739	0.00121868	0.0013884	0.0268568	0.00171509	0.0010005	0.0010277	0.310727	0.0219341	0.432313	0.413106	0.01437	0.074774	0.112537	0.00145708	0.204525	0.239707	0.0507164	0.00102267	0.984928	0.241614	0.0930406	0.998809	0.107425	
3.37	0.00280274	0.00147286	0.00147114	0.00160169	0.00154203	0.00297016	0.00274905	0.00287831	0.00141435	0.00138138	0.00134373	0.00121313	0.00196544	0.00210627	0.00297486	0.0028816	0.0028146	0.00309139	0.00287842	0.00284492	0.0011869	0.00310268	0.00283922	0.00182083	0.00279444	0.00119134	0.00119131	0.00282847	0.00131167	0.00271723	0.0029309	0.00280785	0.00226037	0.00194393	0.00244934	0.00149871	0.00138435	0.00141335	0.00139406	0.00136473	0.00209763	0.00126568	0.0252026	0.0071024	0.0305412	0.00102267	0.181821	0.0925614	0.00107355	0.00102332	0.733443	0.565723	0.151838	0.00102267	0.0839596	0.135374	0.107848	0.00121868	0.0013884	0.0118529	0.010163	0.0010005	0.0010277	0.296001	0.0198471	0.431159	0.397649	0.0115602	0.0730066	0.0935595	0.00144154	0.19442	0.236217	0.0499633	0.00102267	0.992829	0.238771	0.107903	0.999081	0.128553	
3.375	0.00280274	0.00147286	0.00147114	0.00160169	0.00154203	0.00297016	0.00274905	0.00287831	0.00141435	0.00138138	0.00134373	0.00121313	0.00196544	0.00210627	0.00297486	0.0028816	0.0028146	0.00309139	0.00287842	0.00284492	0.0011869	0.00310268	0.00283922	0.00182083	0.00279444	0.00119134	0.00119131	0.00282847	0.00131167	0.00271723	0.0029309	0.00280785	0.00226037	0.00194393	0.00244934	0.00149871	0.00138435	0.00141335	0.00139406	0.00136473	0.00160806	0.00115401	0.0152233	0.00448932	0.0184249	0.00102267	0.17671	0.0915438	0.00107355	0.00102332	0.733826	0.570458	0.147877	0.00102267	0.0889084	0.135239	0.108473	0.00121868	0.0013884	0.0199751	0.0156358	0.0010005	0.0010277	0.280294	0.0186122	0.429721	0.38254	0.00991738	0.0714395	0.0777263	0.00143675	0.184286	0.23293	0.0494645	0.00102267	0.996369	0.236582	0.123725	0.999099	0.151595	
3.38	0.00280274	0.00147286	0.00147114	0.00160169	0.00154203	0.00297016	0.00274905	0.00287831	0.00141435	0.00138138	0.00134373	0.00121313	0.00196544	0.00210627	0.00297486	0.0028816	0.0028146	0.00309139	0.00287842	0.00284492	0.0011869	0.00310268	0.00283922	0.00182083	0.00279444	0.00119134	0.00119131	0.00282847	0.00131167	0.00271723	0.0029309	0.00280785	0.00226037	0.00194393	0.00244934	0.00149871	0.00138435	0.00141335	0.00139406	0.00136473	0.00133993	0.00109338	0.00920602	0.00297496	0.01108	0.00102267	0.171641	0.0906148	0.00107355	0.00102332	0.733925	0.575497	0.143601	0.00102267	0.0941574	0.135496	0.109265	0.00121868	0.0013884	0.0627516	0.0183028	0.0010005	0.0010277	0.26406	0.0178487	0.428133	0.367793	0.00895557	0.0718443	0.0650275	0.00143528	0.17423	0.229865	0.0493191	0.00102267	0.997902	0.235238	0.140302	0.9991	0.176117	
3.385	0.00280274	0.00147286	0.00147114	0.00160169	0.00154203	0.00297016	0.00274905	0.00287831	0.00141435	0.00138138	0.00134373	0.00121313	0.00196544	0.00210627	0.00297486	0.0028816	0.0028146	0.00309139	0.00287842	0.00284492	0.0011869	0.00310268	0.00283922	0.00182083	0.00279444	0.00119134	0.00119131	0.00282847	0.00131167	0.00271723	0.0029309	0.00280785	0.00226037	0.00194393	0.00244934	0.00149871	0.00138435	0.00141335	0.00139406	0.00136473	0.0011939	0.00106061	0.00567002	0.00211115	0.00674714	0.00102267	0.166623	0.0897877	0.00107355	0.00102332	0.724917	0.580532	0.139083	0.00102282	0.0997305	0.136187	0.110231	0.00121868	0.0013884	0.154025	0.0193164	0.0010005	0.0010277	0.247659	0.017307	0.426644	0.353419	0.00836862	0.0703659	0.0553191	0.00143482	0.16434	0.227044	0.0497618	0.00102267	0.99855	0.23429	0.157456	0.9991	0.201728	
3.39	0.00280274	0.00147286	0.00147114	0.00160169	0.00154203	0.00297016	0.00274905	0.00287831	0.00141435	0.00138138	0.00134373	0.00121313	0.00196544	0.00210627	0.00297486	0.0028816	0.0028146	0.00309139	0.00287842	0.00284492	0.0011869	0.00310268	0.00283922	0.00182083	0.00279444	0.00119134	0.00119131	0.00282847	0.00131167	0.00271723	0.0029309	0.00280785	0.00226037	0.00194393	0.00244934	0.00149871	0.00138435	0.00141335	0.00139406	0.00136473	0.00111474	0.00104296	0.00363142	0.00162453	0.00424187	0.00102267	0.161665	0.0890785	0.00107355	0.00102332	0.729334	0.585248	0.13439	0.00105034	0.105674	0.137407	0.111381	0.00121868	0.0013884	0.31746	0.029831	0.0010005	0.0010277	0.231369	0.0168295	0.425643	0.339426	0.00797011	0.0683343	0.0485195	0.00143468	0.154685	0.2245	0.0510006	0.00102267	0.998819	0.233393	0.174949	0.9991	0.227948	
3.395	0.00280274	0.00147286	0.00147114	0.00160169	0.00154203	0.00297016	0.00274905	0.00287831	0.00141435	0.00138138	0.00134373	0.00121313	0.00196544	0.00210627	0.00297486	0.0028816	0.0028146	0.00309139	0.00287842	0.00284492	0.0011869	0.00310268	0.00283922	0.00182083	0.00279444	0.00119134	0.00119131	0.00282847	0.00131167	0.00271723	0.0029309	0.00280785	0.00226037	0.00194393	0.00244934	0.00149871	0.00138435	0.00141335	0.00139406	0.00136473	0.00107201	0.00103349	0.00247328	0.00135315	0.00281539	0.00102267	0.156775	0.0885165	0.00107355	0.00102332	0.716339	0.589384	0.129576	0.00148737	0.112018	0.139245	0.112719	0.00121868	0.0013884	0.535484	0.0364263	0.0010005	0.0010277	0.215405	0.0163507	0.425287	0.325823	0.00766158	0.0660387	0.0440412	0.00143464	0.145317	0.222293	0.0530299	0.00102267	0.998929	0.233072	0.192301	0.9991	0.253849	
3.4	0.00280274	0.00147286	0.00147114	0.00160169	0.00154203	0.00297016	0.00274905	0.00287831	0.00141435	0.00138138	0.00134373	0.00121313	0.00196544	0.00210627	0.00297486	0.0028816	0.0028146	0.00309139	0.00287842	0.00284492	0.0011869	0.00310268	0.00283922	0.00182083	0.00279444	0.00119134	0.00119131	0.00282847	0.00131167	0.00271723	0.0029309	0.00280785	0.00226037	0.00194393	0.00244934	0.00149871	0.00138435	0.00141335	0.00139406	0.00136473	0.00104904	0.00102843	0.00182298	0.00120307	0.00201295	0.00102267	0.151959	0.088143	0.00107355	0.00102332	0.725124	0.592627	0.124691	0.00246684	0.118799	0.14183	0.114248	0.00121868	0.0013884	0.846448	0.0388016	0.0010005	0.0010277	0.199926	0.0157916	0.425389	0.312614	0.00737068	0.0638794	0.0414362	0.00143463	0.136277	0.220503	0.0560234	0.00102267	0.998974	0.232565	0.209245	0.9991	0.278827	
3.405	0.00280274	0.00147286	0.00147114	0.00160169	0.00154203	0.00297016	0.00274905	0.00287831	0.00141435	0.00138138	0.00134373	0.00121313	0.00196544	0.00210627	0.00297486	0.0028816	0.0028146	0.00309139	0.00287842	0.00284492	0.0011869	0.00310268	0.00283922	0.00182083	0.00279444	0.00119134	0.00119131	0.00282847	0.00131167	0.00271723	0.0029309	0.00280785	0.00226037	0.00194393	0.00244934	0.00149871	0.00138435	0.00141335	0.00139406	0.00136473	0.00103672	0.00102573	0.00146129	0.00112064	0.00156598	0.00102267	0.147394	0.0880173	0.00107355	0.00102332	0.725428	0.588284	0.119775	0.00330889	0.126258	0.145457	0.115978	0.00121868	0.0013884	0.983385	0.0249341	0.0010005	0.0010277	0.18505	0.0221447	0.424737	0.299801	0.005689	0.072084	0.0402572	0.00143462	0.127593	0.219236	0.060051	0.00102267	0.998992	0.232597	0.225335	0.9991	0.302297	
3.41	0.00280274	0.00147286	0.00147114	0.00160169	0.00154203	0.00297016	0.00274905	0.00287831	0.00141435	0.00138138	0.00134373	0.00121313	0.00196544	0.00210627	0.00297486	0.0028816	0.0028146	0.00309139	0.00287842	0.00284492	0.0011869	0.00310268	0.00283922	0.00182083	0.00279444	0.00119134	0.00119131	0.00282847	0.00131167	0.00271723	0.0029309	0.00280785	0.00226037	0.00194393	0.00244934	0.00149871	0.00138435	0.00141335	0.00139406	0.00136473	0.00103014	0.00102429	0.0899794	0.049154	0.00131903	0.00102267	0.143364	0.0882159	0.00107355	0.00102332	0.723282	0.578344	0.114864	0.0029694	0.134738	0.15043	0.11791	0.00121868	0.0013884	0.997943	0.0143036	0.0010005	0.0010277	0.172702	0.0178115	0.425304	0.287388	0.00409465	0.330015	0.0400647	0.00143462	0.119312	0.218602	0.0651138	0.00102267	0.998999	0.23329	0.240021	0.9991	0.32352	
3.415	0.00280274	0.00147286	0.00147114	0.00160169	0.00154203	0.00297016	0.00274905	0.00287831	0.00141435	0.00138138	0.00134373	0.00121313	0.00196544	0.00210627	0.00297486	0.0028816	0.0028146	0.00309139	0.00287842	0.00284492	0.0011869	0.00310268	0.00283922	0.00182083	0.00279444	0.00119134	0.00119131	0.00282847	0.00131167	0.00271723	0.0029309	0.00280785	0.00226037	0.00194393	0.00244934	0.00149871	0.00138435	0.00141335	0.00139406	0.00136473	0.00102663	0.00102352	0.239278	0.142566	0.00118351	0.00102267	0.14012	0.0888155	0.00107355	0.00102332	0.723218	0.564605	0.109988	0.00240885	0.144421	0.156841	0.120027	0.00121868	0.0013884	0.999265	0.00738854	0.0010005	0.0010277	0.164515	0.0122355	0.425134	0.275372	0.00780024	0.270664	0.0405573	0.00143462	0.113554	0.21868	0.0711299	0.00102267	0.999002	0.233146	0.252871	0.9991	0.341921	
3.42	0.00280274	0.00147286	0.00147114	0.00160169	0.00154203	0.00297016	0.00274905	0.00287831	0.00141435	0.00138138	0.00134373	0.00121313	0.00196544	0.00210627	0.00297486	0.0028816	0.0028146	0.00309139	0.00287842	0.00284492	0.0011869	0.00310268	0.00283922	0.00182083	0.00279444	0.00119134	0.00119131	0.00282847	0.00131167	0.00271723	0.0029309	0.00280785	0.00226037	0.00194393	0.00244934	0.00149871	0.00138435	0.00141335	0.00139406	0.00136473	0.00102477	0.00102312	0.397372	0.239509	0.00110958	0.00102267	0.137854	0.0898873	0.00107355	0.00102332	0.721241	0.548538	0.105172	0.00248703	0.155141	0.164556	0.122311	0.00121868	0.431571	0.999374	0.00388326	0.0010005	0.0010277	0.161403	0.0345821	0.424984	0.263752	0.0113829	0.23257	0.0414409	0.00143462	0.111416	0.219526	0.078027	0.00102267	0.999003	0.235485	0.263677	0.9991	0.35723	
3.425	0.00280274	0.00147286	0.00147114	0.00160169	0.00154203	0.00297016	0.00274905	0.00287831	0.00141435	0.00138138	0.00134373	0.00121313	0.00196544	0.00210627	0.00297486	0.0028816	0.0028146	0.00309139	0.00287842	0.00284492	0.0011869	0.00310268	0.00283922	0.00182083	0.00279444	0.00119134	0.00119131	0.00282847	0.00131167	0.00271723	0.0029309	0.00280785	0.00226037	0.00194393	0.00244934	0.00149871	0.00138435	0.00141335	0.00139406	0.00136473	0.00102378	0.00102291	0.554442	0.330193	0.00106946	0.00102267	0.136721	0.0914974	0.00107355	0.00102332	0.727372	0.531605	0.100436	0.00240596	0.166712	0.173443	0.124747	0.00121868	0.54468	0.999382	0.0306756	0.0010005	0.0010277	0.163806	0.0304789	0.424889	0.252527	0.00962916	0.0608259	0.0424101	0.00143462	0.113419	0.22118	0.0856171	0.00102267	0.999003	0.233405	0.272441	0.9991	0.369426	
3.43	0.00280274	0.00147286	0.00147114	0.00160169	0.00154203	0.00297016	0.00274905	0.00287831	0.00141435	0.00138138	0.00134373	0.00121313	0.00196544	0.00210627	0.00297486	0.0028816	0.0028146	0.00309139	0.00287842	0.00284492	0.0011869	0.00310268	0.00283922	0.00182083	0.00279444	0.00119134	0.00119131	0.00282847	0.00131167	0.00271723	0.0029309	0.00280785	0.00226037	0.00194393	0.00244934	0.00149871	0.00138435	0.00141335	0.00139406	0.00136473	0.00102325	0.00102279	0.677183	0.403638	0.00104777	0.00102267	0.136802	0.0937032	0.00107355	0.00102332	0.701881	0.514636	0.0957995	0.0020488	0.178758	0.183179	0.127321	0.00121868	0.414344	0.999383	0.0213006	0.0010005	0.0010277	0.171485	0.0214902	0.42476	0.241691	0.00701341	0.0132079	0.0435996	0.00143462	0.119539	0.223664	0.0936439	0.00102267	0.999003	0.232262	0.279406	0.9991	0.378823	
3.435	0.00280274	0.00147286	0.00147114	0.00160169	0.00154203	0.00297016	0.00274905	0.00287831	0.00141435	0.00138138	0.00134373	0.00121313	0.00196544	0.00210627	0.00297486	0.0028816	0.0028146	0.00309139	0.00287842	0.00284492	0.0011869	0.00310268	0.00283922	0.00182083	0.00279444	0.00119134	0.00119131	0.00282847	0.00131167	0.00271723	0.0029309	0.00280785	0.00226037	0.00194393	0.00244934	0.00149871	0.00138435	0.00141335	0.00139406	0.00136473	0.00102298	0.00102273	0.76892	0.464161	0.00103609	0.00102267	0.138146	0.0965539	0.00107355	0.00102332	0.707368	0.498221	0.0912748	0.00170753	0.191003	0.193513	0.130023	0.00121868	0.522203	0.999383	0.0115582	0.0010005	0.0010277	0.183915	0.0275094	0.424491	0.23124	0.00485252	0.00327578	0.0449937	0.00143462	0.129531	0.22699	0.101875	0.00102267	0.999003	0.234394	0.284976	0.9991	0.385929	
3.44	0.00280274	0.00147286	0.00147114	0.00160169	0.00154203	0.00297016	0.00274905	0.00287831	0.00141435	0.00138138	0.00134373	0.00121313	0.00196544	0.00210627	0.00297486	0.0028816	0.0028146	0.00309139	0.00287842	0.00284492	0.0011869	0.00310268	0.00283922	0.00182083	0.00279444	0.00119134	0.00119131	0.00282847	0.00131167	0.00271723	0.0029309	0.00280785	0.00226037	0.00194393	0.00244934	0.00149871	0.00138435	0.00141335	0.00139406	0.00136473	0.00102283	0.0010227	0.839764	0.515944	0.00102983	0.00102267	0.140769	0.100091	0.00107355	0.00102332	0.71884	0.482788	0.0868735	0.00168298	0.203228	0.204229	0.132846	0.00121868	0.862909	0.999383	0.0059196	0.0010005	0.0010277	0.20045	0.0216332	0.423956	0.221169	0.00335376	0.00143317	0.0459626	0.00143462	0.143017	0.231161	0.110073	0.00102267	0.999004	0.237625	0.289594	0.9991	0.391278	
3.445	0.00280274	0.00147286	0.00147114	0.00160169	0.00154203	0.00297016	0.00274905	0.00287831	0.00141435	0.00138138	0.00134373	0.00121313	0.00196544	0.00210627	0.00297486	0.0028816	0.0028146	0.00309139	0.00287842	0.00284492	0.0011869	0.00310268	0.00283922	0.00182083	0.00279444	0.00119134	0.00119131	0.00282847	0.00131167	0.00271723	0.0029309	0.00280785	0.00226037	0.00194393	0.00244934	0.00149871	0.00138435	0.00141335	0.00139406	0.00136473	0.00102275	0.00102269	0.89613	0.559987	0.00102648	0.00102267	0.14467	0.104352	0.00107355	0.00102332	0.703397	0.468655	0.0826044	0.00165348	0.215265	0.215141	0.135785	0.00121868	0.597788	0.999383	0.00317815	0.0010005	0.0010277	0.220424	0.0146608	0.42293	0.211469	0.00513148	0.00111247	0.0461328	0.00143462	0.159551	0.236173	0.118176	0.00102267	0.999004	0.240646	0.293614	0.9991	0.395236	
3.45	0.00280274	0.00147286	0.00147114	0.00160169	0.00154203	0.00297016	0.00274905	0.00287831	0.00141435	0.00138138	0.00134373	0.00121313	0.00196544	0.00210627	0.00297486	0.0028816	0.0028146	0.00309139	0.00287842	0.00284492	0.0011869	0.00310268	0.00283922	0.00182083	0.00279444	0.00119134	0.00119131	0.00282847	0.00131167	0.00271723	0.0029309	0.00280785	0.00226037	0.00194393	0.00244934	0.00149871	0.00138435	0.00141335	0.00139406	0.00136473	0.00102271	0.00102268	0.935636	0.595426	0.00102469	0.00102267	0.14983	0.109367	0.00107355	0.00102332	0.709429	0.455873	0.0786801	0.00149252	0.226972	0.226079	0.138835	0.00121868	0.663884	0.999383	0.00195411	0.0010005	0.0010277	0.243175	0.0217776	0.421274	0.202136	0.00712758	0.00105886	0.0463725	0.00143462	0.178672	0.242019	0.126554	0.00102267	0.999004	0.242865	0.297296	0.9991	0.397968	
3.455	0.00280274	0.00147286	0.00147114	0.00160169	0.00154203	0.00297016	0.00274905	0.00287831	0.00141435	0.00138138	0.00134373	0.00121313	0.00196544	0.00210627	0.00297486	0.0028816	0.0028146	0.00309139	0.00287842	0.00284492	0.0011869	0.00310268	0.00283922	0.00182083	0.00279444	0.00119134	0.00119131	0.00282847	0.00131167	0.00271723	0.0029309	0.00280785	0.00226037	0.00194393	0.00244934	0.00149871	0.00138435	0.00141335	0.00139406	0.00136473	0.00102269	0.00102267	0.961197	0.622191	0.00102374	0.00102267	0.156218	0.115158	0.00107355	0.00102332	0.698254	0.44431	0.0753071	0.00133692	0.238232	0.236895	0.141993	0.00121868	0.576055	0.999383	0.00143452	0.0010005	0.0010277	0.268058	0.0286894	0.418623	0.193159	0.0085494	0.00105014	0.0458581	0.00143462	0.199964	0.248686	0.135368	0.00103265	0.999004	0.243969	0.300859	0.9991	0.399585	
3.46	0.00280274	0.00147286	0.00147114	0.00160169	0.00154203	0.00297016	0.00274905	0.00287831	0.00141435	0.00138138	0.00134373	0.00121313	0.00196544	0.00210627	0.00297486	0.0028816	0.0028146	0.00309139	0.00287842	0.00284492	0.0011869	0.00310268	0.00283922	0.00182083	0.00279444	0.00119134	0.00119131	0.00282847	0.00131167	0.00271723	0.0029309	0.00280785	0.00226037	0.00194393	0.00244934	0.00149871	0.00138435	0.00141335	0.00139406	0.00136473	0.00102268	0.00102267	0.97696	0.64006	0.00102323	0.00102267	0.163796	0.121739	0.00107355	0.00102332	0.683056	0.43375	0.0726601	0.00122053	0.24897	0.247468	0.145256	0.00121868	0.550328	0.999383	0.00122123	0.0010005	0.0010277	0.294421	0.0333652	0.415032	0.184532	0.00940103	0.00104876	0.0453093	0.00143462	0.223066	0.256155	0.14504	0.00118816	0.980642	0.244047	0.304532	0.9991	0.40023	
3.465	0.00280274	0.00147286	0.00147114	0.00160169	0.00154203	0.00297016	0.00274905	0.00287831	0.00141435	0.00138138	0.00134373	0.00121313	0.00196544	0.00210627	0.00297486	0.0028816	0.0028146	0.00309139	0.00287842	0.00284492	0.0011869	0.00310268	0.00283922	0.00182083	0.00279444	0.00119134	0.00119131	0.00282847	0.00131167	0.00271723	0.0029309	0.00280785	0.00226037	0.00194393	0.00244934	0.00149871	0.00138435	0.00141335	0.00139406	0.00136473	0.00102267	0.00102267	0.986374	0.648956	0.00102297	0.00102267	0.172513	0.129103	0.293176	0.174973	0.604192	0.423491	0.0708399	0.00114252	0.259138	0.257703	0.14862	0.00121868	0.4375	0.999383	0.00113573	0.0010005	0.0010277	0.32156	0.0345448	0.408147	0.176324	0.00950829	0.00104854	0.0458465	0.00143462	0.247643	0.264395	0.155921	0.00128819	0.958815	0.243656	0.308717	0.578086	0.40044	
3.47	0.00280274	0.00147286	0.00147114	0.00160169	0.00154203	0.00297016	0.00274905	0.00287831	0.00141435	0.00138138	0.00134373	0.00121313	0.00196544	0.00210627	0.00297486	0.0028816	0.0028146	0.00309139	0.00287842	0.00284492	0.0011869	0.00310268	0.00283922	0.00182083	0.00279444	0.00119134	0.00119131	0.00282847	0.00131167	0.00271723	0.0029309	0.00280785	0.00226037	0.00194393	0.00244934	0.00149871	0.00138435	0.00141335	0.00139406	0.00136473	0.00102267	0.00102267	0.990019	0.650586	0.00102283	0.00102267	0.182307	0.13723	0.93407	0.60845	0.15559	0.41221	0.0698304	0.00109333	0.268732	0.267545	0.152086	0.00121868	0.381866	0.999383	0.00110206	0.0010005	0.0010277	0.348709	0.0256455	0.392751	0.168575	0.00862832	0.0010485	0.0487261	0.00143462	0.273365	0.273355	0.168546	0.00124933	0.946726	0.243821	0.314122	0.249082	0.401389	
3.475	0.00280274	0.00147286	0.00147114	0.00160169	0.00154203	0.00297016	0.00274905	0.00287831	0.00141435	0.00138138	0.00134373	0.00121313	0.00196544	0.00210627	0.00297486	0.0028816	0.0028146	0.00309139	0.00287842	0.00284492	0.0011869	0.00310268	0.00283922	0.00182083	0.00279444	0.00119134	0.00119131	0.00282847	0.00131167	0.00271723	0.0029309	0.00280785	0.00226037	0.00194393	0.00244934	0.00149871	0.00138435	0.00141335	0.00139406	0.00136473	0.00102267	0.00102267	0.981223	0.644258	0.00102275	0.00102267	0.193111	0.146091	0.994276	0.629059	0.0313318	0.399152	0.0696006	0.00106351	0.27777	0.276962	0.155655	0.00121868	0.258258	0.999383	0.00108898	0.0010005	0.0010277	0.375163	0.016888	0.364323	0.161304	0.00735363	0.0010485	0.0530876	0.00143462	0.299893	0.28297	0.183365	0.00118424	0.929371	0.249739	0.321285	0.299756	0.403993	
3.48	0.00280274	0.00147286	0.00147114	0.00160169	0.00154203	0.00297016	0.00274905	0.00287831	0.00141435	0.00138138	0.00134373	0.00121313	0.00196544	0.00210627	0.00297486	0.0028816	0.0028146	0.00309139	0.00287842	0.00284492	0.0011869	0.00310268	0.00283922	0.00182083	0.00279444	0.00119134	0.00119131	0.00282847	0.00131167	0.00271723	0.0029309	0.00280785	0.00226037	0.00194393	0.00244934	0.00149871	0.00138435	0.00141335	0.00139406	0.00136473	0.00102267	0.00102267	0.878731	0.574878	0.00102271	0.00102267	0.204835	0.155649	0.998753	0.628939	0.0065188	0.384563	0.0701551	0.00104592	0.286028	0.28565	0.15931	0.00121868	0.939452	0.999383	0.00108395	0.0010005	0.0010277	0.400094	0.0105588	0.329246	0.154428	0.00586529	0.0010485	0.0628006	0.00143462	0.326896	0.293154	0.200804	0.00112822	0.936449	0.261234	0.330649	0.776186	0.409076	
3.485	0.00280274	0.00147286	0.00147114	0.00160169	0.00154203	0.00297016	0.00274905	0.00287831	0.00141435	0.00138138	0.00134373	0.00121313	0.00196544	0.00210627	0.00297486	0.0028816	0.0028146	0.00309139	0.00287842	0.00284492	0.0011869	0.00310268	0.00283922	0.00182083	0.00279444	0.00119134	0.00119131	0.00282847	0.00131167	0.00271723	0.0029309	0.00280785	0.00226037	0.00194393	0.00244934	0.00149871	0.00138435	0.00141335	0.00139406	0.00136473	0.00102267	0.00102267	0.76598	0.499248	0.00102269	0.00102267	0.217412	0.165871	0.236263	0.249769	0.0217164	0.368491	0.0715817	0.00103574	0.293616	0.29368	0.163055	0.00121868	0.944695	0.999383	0.00108204	0.0010005	0.0010277	0.42307	0.00651404	0.291703	0.14781	0.00427344	0.0010485	0.0698896	0.00143462	0.354012	0.303822	0.221239	0.00108817	0.948529	0.26013	0.342114	0.266714	0.416483	
3.49	0.00280274	0.00147286	0.00147114	0.00160169	0.00154203	0.00297016	0.00274905	0.00287831	0.00141435	0.00138138	0.00134373	0.00121313	0.00196544	0.00210627	0.00297486	0.0028816	0.0028146	0.00309139	0.00287842	0.00284492	0.0011869	0.00310268	0.00283922	0.00182083	0.00279444	0.00119134	0.00119131	0.00282847	0.00131167	0.00271723	0.0029309	0.00280785	0.00226037	0.00194393	0.00244934	0.00149871	0.00138435	0.00141335	0.00139406	0.00136473	0.00102267	0.00102267	0.662906	0.43349	0.00102268	0.00102267	0.230771	0.176717	0.0904953	0.121085	0.0633113	0.351542	0.0739173	0.00102995	0.300721	0.301182	0.166901	0.00121868	0.993745	0.999383	0.00108132	0.0010005	0.0010277	0.443687	0.00409594	0.257078	0.141445	0.00873029	0.0010485	0.0768422	0.00143462	0.380874	0.314874	0.244939	0.00106195	0.944434	0.251264	0.355601	0.305255	0.426196	
3.495	0.00280274	0.00147286	0.00147114	0.00160169	0.00154203	0.00297016	0.00274905	0.00287831	0.00141435	0.00138138	0.00134373	0.00121313	0.00196544	0.00210627	0.00297486	0.0028816	0.0028146	0.00309139	0.00287842	0.00284492	0.0011869	0.00310268	0.00283922	0.00182083	0.00279444	0.00119134	0.00119131	0.00282847	0.00131167	0.00271723	0.0029309	0.00280785	0.00226037	0.00194393	0.00244934	0.00149871	0.00138435	0.00141335	0.00139406	0.00136473	0.00102267	0.00102267	0.574152	0.380426	0.00102267	0.00102267	0.244838	0.188144	0.00946756	0.0315024	0.490924	0.335579	0.0772205	0.00102669	0.307575	0.308326	0.170861	0.0135921	0.998865	0.999383	0.00108104	0.0010005	0.0010277	0.461612	0.00270957	0.26205	0.135308	0.00786633	0.0010485	0.0843533	0.00143462	0.407107	0.3262	0.272029	0.00104566	0.930146	0.234707	0.370903	0.276433	0.438007	
3.5	0.00280274	0.00147286	0.00147114	0.00160169	0.00154203	0.00297016	0.00274905	0.00287831	0.00141435	0.00138138	0.00134373	0.00121313	0.00196544	0.00210627	0.00297486	0.0028816	0.0028146	0.00309139	0.00287842	0.00284492	0.0011869	0.00310268	0.00283922	0.00182083	0.00279444	0.00119134	0.00119131	0.00282847	0.00131167	0.00271723	0.0029309	0.00280785	0.00226037	0.00194393	0.00244934	0.00149871	0.00138435	0.00141335	0.00139406	0.00136473	0.00102267	0.00102267	0.516996	0.347415	0.00102267	0.00102267	0.259525	0.200101	0.00168849	0.00746704	0.652363	0.328457	0.0816019	0.00102488	0.314414	0.315319	0.174953	0.246291	0.999277	0.999383	0.00108094	0.0010005	0.0010277	0.476617	0.00193727	0.315446	0.129396	0.00591785	0.0010485	0.092233	0.00143462	0.432334	0.33768	0.302451	0.00103588	0.936004	0.214031	0.387712	0.329899	0.451559	
3.505	0.00280274	0.00147286	0.00147114	0.00160169	0.00154203	0.00297016	0.00274905	0.00287831	0.00141435	0.00138138	0.00134373	0.00121313	0.00196544	0.00210627	0.00297486	0.0028816	0.0028146	0.00309139	0.00287842	0.00284492	0.0011869	0.00310268	0.00283922	0.00182083	0.00279444	0.00119134	0.00119131	0.00282847	0.00131167	0.00271723	0.0029309	0.00280785	0.00226037	0.00194393	0.00244934	0.00149871	0.00138435	0.00141335	0.00139406	0.00136473	0.00102267	0.00102267	0.49853	0.338461	0.00102267	0.00102267	0.274728	0.212526	0.00111405	0.00227117	0.67104	0.329005	0.0871885	0.00102387	0.321493	0.322397	0.179201	0.446203	0.999306	0.999383	0.00420818	0.0010005	0.0676098	0.488536	0.00151596	0.390635	0.123706	0.00419975	0.0010485	0.0989111	0.00143462	0.456201	0.34919	0.336044	0.00103016	0.962119	0.199553	0.405701	0.229339	0.466452	
3.51	0.00280274	0.00147286	0.00147114	0.00160169	0.00154203	0.00297016	0.00274905	0.00287831	0.00141435	0.00138138	0.00134373	0.00121313	0.00196544	0.00210627	0.00297486	0.0028816	0.0028146	0.00309139	0.00287842	0.00284492	0.0011869	0.00310268	0.00283922	0.00182083	0.00279444	0.00119134	0.00119131	0.00282847	0.00131167	0.00271723	0.0029309	0.00280785	0.00226037	0.00194393	0.00244934	0.00149871	0.00138435	0.00141335	0.00139406	0.00136473	0.00102267	0.00102267	0.533087	0.365609	0.00102267	0.00102267	0.290355	0.22535	0.00107606	0.00125283	0.693873	0.339677	0.094076	0.00102332	0.329133	0.329873	0.183634	0.846093	0.999308	0.999383	0.0070771	0.0010005	0.236522	0.497361	0.00128976	0.414739	0.118233	0.00842367	0.0010485	0.108513	0.00143462	0.478376	0.360609	0.372308	0.00102687	0.980444	0.201984	0.424473	0.174818	0.482187	
3.515	0.00280274	0.00147286	0.00147114	0.00160169	0.00154203	0.00297016	0.00274905	0.00287831	0.00141435	0.00138138	0.00134373	0.00121313	0.00196544	0.00210627	0.00297486	0.0028816	0.0028146	0.00309139	0.00287842	0.00284492	0.0011869	0.00310268	0.00283922	0.00182083	0.00279444	0.00119134	0.00119131	0.00282847	0.00131167	0.00271723	0.0029309	0.00280785	0.00226037	0.00194393	0.00244934	0.00149871	0.00138435	0.00141335	0.00139406	0.00136473	0.00102267	0.00102267	0.616538	0.428257	0.00102267	0.00102267	0.306315	0.238496	0.0010737	0.00106413	0.695585	0.358014	0.102344	0.00102302	0.337649	0.33806	0.188285	0.978845	0.999308	0.999383	0.00808487	0.234669	0.230582	0.503163	0.00116984	0.408778	0.112972	0.0103373	0.0010485	0.117553	0.00143462	0.498592	0.371824	0.410879	0.001025	0.990359	0.1991	0.443608	0.121929	0.498207	
3.52	0.00280274	0.00147286	0.00147114	0.00160169	0.00154203	0.00297016	0.00274905	0.00287831	0.00141435	0.00138138	0.00134373	0.00121313	0.00196544	0.00210627	0.00297486	0.0028816	0.0028146	0.00309139	0.00287842	0.00284492	0.0011869	0.00310268	0.00283922	0.00182083	0.00279444	0.00119134	0.00119131	0.00282847	0.00131167	0.00271723	0.0029309	0.00280785	0.00226037	0.00194393	0.00244934	0.00149871	0.00138435	0.00141335	0.00139406	0.00136473	0.00102267	0.00102267	0.729661	0.505073	0.00102267	0.00102267	0.322484	0.251875	0.00107356	0.00103041	0.696901	0.381945	0.112053	0.00102286	0.347206	0.347144	0.19318	0.996904	0.999308	0.999383	0.00744679	0.865003	0.174753	0.506084	0.00110689	0.400714	0.107919	0.0103703	0.0010485	0.127983	0.00143462	0.516646	0.382731	0.451396	0.00102395	0.995162	0.194892	0.462667	0.0991843	0.513919	
3.525	0.00280274	0.00147286	0.00147114	0.00160169	0.00154203	0.00297016	0.00274905	0.00287831	0.00141435	0.00138138	0.00134373	0.00121313	0.00196544	0.00210627	0.00297486	0.0028816	0.0028146	0.00309139	0.00287842	0.00284492	0.0011869	0.00310268	0.00283922	0.00182083	0.00279444	0.00119134	0.00119131	0.00282847	0.00131167	0.00271723	0.0029309	0.00280785	0.00226037	0.00194393	0.00244934	0.00149871	0.00138435	0.00141335	0.00139406	0.00136473	0.00102267	0.00102267	0.821833	0.564473	0.00102267	0.00102267	0.338719	0.265387	0.00107355	0.00102453	0.695968	0.409757	0.123237	0.00102277	0.357782	0.357124	0.198327	0.998955	0.999308	0.999383	0.00899796	0.980536	0.187445	0.506289	0.00107413	0.39326	0.103068	0.00987038	0.0010485	0.141994	0.00143462	0.532402	0.393236	0.493422	0.00102337	0.997349	0.191518	0.481239	0.081011	0.528783	
3.53	0.00280274	0.00147286	0.00147114	0.00160169	0.00154203	0.00297016	0.00274905	0.00287831	0.00141435	0.00138138	0.00134373	0.00121313	0.00196544	0.00210627	0.00297486	0.0028816	0.0028146	0.00309139	0.00287842	0.00284492	0.0011869	0.00310268	0.00283922	0.00182083	0.00279444	0.00119134	0.00119131	0.00282847	0.00131167	0.00271723	0.0029309	0.00280785	0.00226037	0.00194393	0.00244934	0.00149871	0.00138435	0.00141335	0.00139406	0.00136473	0.00102267	0.00102267	0.860919	0.585819	0.00102267	0.00102267	0.354869	0.278931	0.00107355	0.00102353	0.696891	0.440068	0.135909	0.00102272	0.36912	0.367789	0.203722	0.999168	0.999308	0.999383	0.0155048	0.996701	0.226273	0.504012	0.0010572	0.392982	0.0984136	0.0236005	0.0010485	0.160028	0.00143462	0.545793	0.403256	0.536381	0.00102305	0.998307	0.186465	0.498943	0.0783655	0.542319	
3.535	0.00280274	0.00147286	0.00147114	0.00160169	0.00154203	0.00297016	0.00274905	0.00287831	0.00141435	0.00138138	0.00134373	0.00121313	0.00196544	0.00210627	0.00297486	0.0028816	0.0028146	0.00309139	0.00287842	0.00284492	0.0011869	0.00310268	0.00283922	0.00182083	0.00279444	0.00119134	0.00119131	0.00282847	0.00131167	0.00271723	0.0029309	0.00280785	0.00226037	0.00194393	0.00244934	0.00149871	0.00138435	0.00141335	0.00139406	0.00136473	0.00102267	0.00102267	0.840465	0.566865	0.00102267	0.00102267	0.370782	0.292404	0.00107355	0.00102336	0.674486	0.471777	0.150061	0.0010227	0.380884	0.378852	0.209342	0.999189	0.999308	0.999383	0.0232937	0.998729	0.220125	0.499521	0.0010485	0.395494	0.093951	0.0362819	0.0010485	0.180684	0.00143462	0.556823	0.412726	0.579759	0.00102288	0.998715	0.184534	0.515442	0.0709947	0.554111	
3.54	0.00280274	0.00147286	0.00147114	0.00160169	0.00154203	0.00297016	0.00274905	0.00287831	0.00141435	0.00138138	0.00134373	0.00121313	0.00196544	0.00210627	0.00297486	0.0028816	0.0028146	0.00309139	0.00287842	0.00284492	0.0011869	0.00310268	0.00283922	0.00182083	0.00279444	0.00119134	0.00119131	0.00282847	0.00131167	0.00271723	0.0029309	0.00280785	0.00226037	0.00194393	0.00244934	0.00149871	0.00138435	0.00141335	0.00139406	0.00136473	0.00102267	0.00102267	0.771089	0.518204	0.00102267	0.00102267	0.386314	0.305704	0.00107355	0.00102333	0.694382	0.503413	0.165672	0.00102268	0.39267	0.389961	0.215153	0.999191	0.999308	0.999383	0.0253009	0.99897	0.1834	0.493133	0.00104405	0.390823	0.0896741	0.0425125	0.0010485	0.202735	0.00143462	0.565566	0.421599	0.623112	0.00102278	0.998886	0.181939	0.530388	0.076045	0.563773	
3.545	0.00280274	0.00147286	0.00147114	0.00160169	0.00154203	0.00297016	0.00274905	0.00287831	0.00141435	0.00138138	0.00134373	0.00121313	0.00196544	0.00210627	0.00297486	0.0028816	0.0028146	0.00309139	0.00287842	0.00284492	0.0011869	0.00310268	0.00283922	0.00182083	0.00279444	0.00119134	0.00119131	0.00282847	0.00131167	0.00271723	0.0029309	0.00280785	0.00226037	0.00194393	0.00244934	0.00149871	0.00138435	0.00141335	0.00139406	0.00136473	0.00102267	0.00102267	0.672641	0.44933	0.00102267	0.00102267	0.401328	0.318738	0.00107355	0.00102333	0.697728	0.533615	0.182722	0.00102268	0.403947	0.400662	0.2211	0.999191	0.999308	0.999383	0.0249996	0.998997	0.166788	0.485247	0.00104179	0.385536	0.0855869	0.0447079	0.0010485	0.224757	0.00143462	0.572163	0.42985	0.666281	0.00102273	0.998956	0.181927	0.543442	0.0735428	0.570974	
3.55	0.00280274	0.00147286	0.00147114	0.00160169	0.00154203	0.00297016	0.00274905	0.00287831	0.00141435	0.00138138	0.00134373	0.00121313	0.00196544	0.00210627	0.00297486	0.0028816	0.0028146	0.00309139	0.00287842	0.00284492	0.0011869	0.00310268	0.00283922	0.00182083	0.00279444	0.00119134	0.00119131	0.00282847	0.00131167	0.00271723	0.0029309	0.00280785	0.00226037	0.00194393	0.00244934	0.00149871	0.00138435	0.00141335	0.00139406	0.00136473	0.00102267	0.00102267	0.55589	0.36865	0.00102267	0.00102267	0.415697	0.331411	0.00107355	0.00102332	0.69151	0.560555	0.201191	0.00102267	0.414162	0.410476	0.227113	0.999191	0.999308	0.999383	0.014778	0.999	0.142074	0.476296	0.00104064	0.386417	0.0818128	0.0439559	0.0010485	0.245036	0.00143462	0.576816	0.437474	0.709325	0.0010227	0.998985	0.177613	0.554252	0.0832039	0.575408	
3.555	0.00280274	0.00147286	0.00147114	0.00160169	0.00154203	0.00297016	0.00274905	0.00287831	0.00141435	0.00138138	0.00134373	0.00121313	0.00196544	0.00210627	0.00297486	0.0028816	0.0028146	0.00309139	0.00287842	0.00284492	0.0011869	0.00310268	0.00283922	0.00182083	0.00279444	0.00119134	0.00119131	0.00282847	0.00131167	0.00271723	0.0029309	0.00280785	0.00226037	0.00194393	0.00244934	0.00149871	0.00138435	0.00141335	0.00139406	0.00136473	0.00102267	0.00102267	0.411561	0.276567	0.00102267	0.00102267	0.429307	0.34364	0.00107355	0.00102332	0.691726	0.574896	0.221051	0.00102267	0.422936	0.419069	0.23311	0.999191	0.999308	0.174281	0.00771025	0.999	0.0782168	0.466622	0.00104006	0.38855	0.0790949	0.0457686	0.0010485	0.261664	0.00143462	0.579776	0.444491	0.752019	0.00102268	0.998996	0.178519	0.562454	0.0777491	0.57686	
3.56	0.00280274	0.00147286	0.00147114	0.00160169	0.00154203	0.00297016	0.00274905	0.00287831	0.00141435	0.00138138	0.00134373	0.00121313	0.00196544	0.00210627	0.00297486	0.0028816	0.0028146	0.00309139	0.00287842	0.00284492	0.0011869	0.00310268	0.00283922	0.00182083	0.00279444	0.00119134	0.00119131	0.00282847	0.00131167	0.00271723	0.0029309	0.00280785	0.00226037	0.00194393	0.00244934	0.00149871	0.00138435	0.00141335	0.00139406	0.00136473	0.0121054	0.00895329	0.278312	0.193471	0.00102267	0.00102267	0.442066	0.355349	0.00107355	0.00102332	0.691336	0.579374	0.242258	0.00102267	0.430035	0.426247	0.239006	0.999191	0.999308	0.0183187	0.0160526	0.999	0.0607728	0.456581	0.282125	0.389215	0.0774795	0.0476586	0.0010485	0.271851	0.00143462	0.581341	0.450941	0.793854	0.00102268	0.999001	0.179069	0.567644	0.0815895	0.575125	
3.565	0.00280274	0.00147286	0.00147114	0.00160169	0.00154203	0.00297016	0.00274905	0.00287831	0.00141435	0.00138138	0.00134373	0.00121313	0.00196544	0.00210627	0.00297486	0.0028816	0.0028146	0.00309139	0.00287842	0.00284492	0.0011869	0.00310268	0.00283922	0.00182083	0.00279444	0.00119134	0.00119131	0.00282847	0.00131167	0.00271723	0.0029309	0.00280785	0.00226037	0.00194393	0.00244934	0.00149871	0.00138435	0.00141335	0.00139406	0.00136473	0.0377846	0.0188196	0.199327	0.142588	0.00102267	0.00102267	0.453904	0.366477	0.00107355	0.00102332	0.694208	0.576131	0.264733	0.00102267	0.435283	0.431881	0.24471	0.999191	0.539509	0.00291847	0.0271715	0.999	0.0490498	0.446494	0.403009	0.390967	0.0771561	0.047642	0.0010485	0.275183	0.00143462	0.581833	0.456886	0.834065	0.00102267	0.999002	0.180507	0.569472	0.0630467	0.570124	
3.57	0.00280274	0.00147286	0.00147114	0.00160169	0.00154203	0.00297016	0.00274905	0.00287831	0.00141435	0.00138138	0.00134373	0.00121313	0.00196544	0.00210627	0.00297486	0.0028816	0.0028146	0.00309139	0.00287842	0.00284492	0.0011869	0.00310268	0.00283922	0.00182083	0.00279444	0.00119134	0.00119131	0.00282847	0.00131167	0.00271723	0.0029309	0.00280785	0.00226037	0.00194393	0.00244934	0.00149871	0.00138435	0.00141335	0.00139406	0.00136473	0.050993	0.0174507	0.14974	0.11021	0.00102267	0.00102267	0.464774	0.376979	0.00107355	0.00102332	0.69192	0.566868	0.288353	0.00102267	0.438493	0.435814	0.250132	0.999191	0.41509	0.00162587	0.0327604	0.999	0.0445985	0.436617	0.400477	0.392219	0.0780623	0.046391	0.0010485	0.272331	0.00143462	0.58157	0.46239	0.871486	0.00102267	0.999003	0.183134	0.56765	0.0482569	0.561842	
3.575	0.00280274	0.00147286	0.00147114	0.00160169	0.00154203	0.00297016	0.00274905	0.00287831	0.00141435	0.00138138	0.00134373	0.00121313	0.00196544	0.00210627	0.00297486	0.0028816	0.0028146	0.00309139	0.00287842	0.00284492	0.0011869	0.00310268	0.00283922	0.00182083	0.00279444	0.00119134	0.00119131	0.00282847	0.00131167	0.00271723	0.0029309	0.00280785	0.00226037	0.00194393	0.00244934	0.00149871	0.00138435	0.00141335	0.00139406	0.00136473	0.0525539	0.0188187	0.106113	0.0827424	0.00102267	0.00102267	0.474649	0.386823	0.00107355	0.00102332	0.692524	0.552956	0.312824	0.00102267	0.439507	0.437902	0.255181	0.999191	0.229227	0.00152426	0.033773	0.999	0.0611931	0.427149	0.566665	0.395198	0.0802344	0.0441003	0.0010485	0.263315	0.00143462	0.580834	0.46752	0.904586	0.00102267	0.999003	0.186123	0.561997	0.00580198	0.550339	
3.58	0.00280274	0.00147286	0.00147114	0.00160169	0.00154203	0.00297016	0.00274905	0.00287831	0.00141435	0.00138138	0.00134373	0.00121313	0.00196544	0.00210627	0.00297486	0.0028816	0.0028146	0.00309139	0.00287842	0.00284492	0.0011869	0.00310268	0.00283922	0.00182083	0.00279444	0.00119134	0.00119131	0.00282847	0.00131167	0.00271723	0.0029309	0.00280785	0.00226037	0.00194393	0.00244934	0.00149871	0.00138435	0.00141335	0.00139406	0.00136473	0.0508769	0.0148446	0.0868994	0.0701922	0.00102267	0.00102267	0.483519	0.395989	0.00107355	0.00102332	0.693827	0.536706	0.337864	0.00102267	0.438242	0.438067	0.25978	0.999191	0.0273153	0.00151657	0.0311266	0.999	0.190543	0.418302	0.579007	0.396742	0.0838639	0.0404362	0.0010485	0.248008	0.462	0.579836	0.47233	0.931629	0.00102267	0.999003	0.19078	0.552388	0.127232	0.535595	
3.585	0.00280274	0.00147286	0.00147114	0.00160169	0.00154203	0.00297016	0.00274905	0.00287831	0.00141435	0.00138138	0.00134373	0.00121313	0.00196544	0.00210627	0.00297486	0.0028816	0.0028146	0.00309139	0.00287842	0.00284492	0.0011869	0.00310268	0.00283922	0.00182083	0.00279444	0.00119134	0.00119131	0.00282847	0.00131167	0.00271723	0.0029309	0.00280785	0.00226037	0.00194393	0.00244934	0.00149871	0.00138435	0.00141335	0.00139406	0.00136473	0.0487952	0.0104632	0.0755809	0.0638719	0.00102267	0.00102267	0.491369	0.404455	0.00107355	0.00102332	0.706638	0.519489	0.363231	0.00102267	0.434562	0.436183	0.263845	0.999191	0.00482808	0.001516	0.0285109	0.999	0.201316	0.410153	0.630703	0.399775	0.0888039	0.0369006	0.0010485	0.226479	0.733509	0.578653	0.476845	0.952101	0.00102267	0.999004	0.198404	0.538545	0.0267591	0.517367	
3.59	0.00280274	0.00147286	0.00147114	0.00160169	0.00154203	0.00297016	0.00274905	0.00287831	0.00141435	0.00138138	0.00134373	0.00121313	0.00196544	0.00210627	0.00297486	0.0028816	0.0028146	0.00309139	0.00287842	0.00284492	0.0011869	0.00310268	0.00283922	0.00182083	0.00279444	0.00119134	0.00119131	0.00282847	0.00131167	0.00271723	0.0029309	0.00280785	0.00226037	0.00194393	0.00244934	0.00149871	0.00138435	0.00141335	0.00139406	0.00136473	0.0366537	0.00704214	0.0545636	0.0496207	0.00102267	0.00102267	0.498204	0.412214	0.00107355	0.00102332	0.694829	0.502444	0.38861	0.00102267	0.42869	0.432388	0.267348	0.999191	0.0623365	0.00151596	0.0261711	0.999	0.191289	0.402803	0.718307	0.405899	0.0949256	0.0338213	0.0010485	0.206553	0.903879	0.577328	0.481082	0.963447	0.00102267	0.999004	0.206375	0.52092	0.127264	0.495949	
3.595	0.00280274	0.00147286	0.00147114	0.00160169	0.00154203	0.00297016	0.00274905	0.00287831	0.00141435	0.00138138	0.00134373	0.00121313	0.00196544	0.00210627	0.00297486	0.0028816	0.0028146	0.00309139	0.00287842	0.00284492	0.0011869	0.00310268	0.00283922	0.00182083	0.00279444	0.00119134	0.00119131	0.00282847	0.00131167	0.00271723	0.0029309	0.00280785	0.00226037	0.00194393	0.00244934	0.00149871	0.00138435	0.00141335	0.00139406	0.00136473	0.0248734	0.00469949	0.0361504	0.0341487	0.00102267	0.00102267	0.50401	0.419246	0.00107355	0.00102332	0.713712	0.486743	0.413593	0.00102267	0.420799	0.426784	0.27025	0.999191	0.17089	0.00151596	0.0236747	0.999	0.174037	0.396145	0.734977	0.414025	0.102167	0.0309889	0.0010485	0.185843	0.967308	0.57579	0.485028	0.965531	0.00102267	0.999004	0.21305	0.499647	0.0137943	0.471199	
3.6	0.00280274	0.00147286	0.00147114	0.00160169	0.00154203	0.00297016	0.00274905	0.00287831	0.00141435	0.00138138	0.00134373	0.00121313	0.00196544	0.00210627	0.00297486	0.0028816	0.0028146	0.00309139	0.00287842	0.00284492	0.0011869	0.00310268	0.00283922	0.00182083	0.00279444	0.00119134	0.00119131	0.00282847	0.00131167	0.00271723	0.0029309	0.00280785	0.00226037	0.00194393	0.00244934	0.00149871	0.00138435	0.00141335	0.00139406	0.00136473	0.0160478	0.00320354	0.0228788	0.0221202	0.00102267	0.00102267	0.50877	0.425533	0.00107355	0.00102332	0.706649	0.482026	0.437764	0.00102267	0.411139	0.419532	0.27253	0.999191	0.0942828	0.00151596	0.013752	0.999	0.0448835	0.389946	0.747202	0.421299	0.110876	0.0226721	0.0010485	0.167057	0.988926	0.573927	0.488657	0.958421	0.00102267	0.999004	0.224016	0.475018	0.156549	0.443001	
3.605	0.00280274	0.00147286	0.00147114	0.00160169	0.00154203	0.00297016	0.00274905	0.00287831	0.00141435	0.00138138	0.00134373	0.00121313	0.00196544	0.00210627	0.00297486	0.0028816	0.0028146	0.00309139	0.00287842	0.00284492	0.0011869	0.00310268	0.00283922	0.00182083	0.00279444	0.00119134	0.00119131	0.00282847	0.00131167	0.00271723	0.0029309	0.00280785	0.00226037	0.00194393	0.00244934	0.00149871	0.00138435	0.00141335	0.00139406	0.00136473	0.0101268	0.00228889	0.0141544	0.0138997	0.00102267	0.00102267	0.512469	0.431054	0.00107355	0.00102332	0.714668	0.486014	0.460717	0.00102267	0.400014	0.410841	0.274177	0.999191	0.0820694	0.00151596	0.00715728	0.999	0.0225313	0.383881	0.750941	0.429178	0.120789	0.0151248	0.0010485	0.151991	0.991137	0.571611	0.491934	0.942316	0.00102267	0.999004	0.236448	0.447451	0.127853	0.411892	
3.61	0.00280274	0.00147286	0.00147114	0.00160169	0.00154203	0.00297016	0.00274905	0.00287831	0.00141435	0.00138138	0.00134373	0.00121313	0.00196544	0.00210627	0.00297486	0.0028816	0.0028146	0.00309139	0.00287842	0.00284492	0.0011869	0.00310268	0.00283922	0.00182083	0.00279444	0.00119134	0.00119131	0.00282847	0.00131167	0.00271723	0.0029309	0.00280785	0.00226037	0.00194393	0.00244934	0.00149871	0.00138435	0.00141335	0.00139406	0.00136473	0.00639172	0.00174599	0.00871958	0.00865643	0.00110539	0.00102267	0.515101	0.435797	0.00107355	0.00102332	0.724526	0.496722	0.482076	0.00102267	0.387767	0.400958	0.275194	0.999191	0.0944218	0.00151596	0.0152562	0.999	0.0704928	0.37753	0.746387	0.437858	0.131656	0.00968771	0.0010485	0.141915	0.982833	0.568719	0.49482	0.917635	0.00102267	0.999004	0.25173	0.41749	0.0923985	0.379483	
3.615	0.00280274	0.00147286	0.00147114	0.00160169	0.00154203	0.00297016	0.00274905	0.00287831	0.00141435	0.00138138	0.00134373	0.00121313	0.00196544	0.00210627	0.00297486	0.0028816	0.0028146	0.00309139	0.00287842	0.00284492	0.0011869	0.00310268	0.00283922	0.00182083	0.00279444	0.00119134	0.00119131	0.00282847	0.00131167	0.00271723	0.0029309	0.00280785	0.00226037	0.00194393	0.00244934	0.00149871	0.00138435	0.00141335	0.00139406	0.00136473	0.00412649	0.00143062	0.00545156	0.00545298	0.00158848	0.00102267	0.516669	0.439755	0.00107355	0.00102332	0.711652	0.512462	0.501509	0.00102267	0.374747	0.390152	0.275592	0.999191	0.0755097	0.00151596	0.0551756	0.999	0.0790456	0.370449	0.735222	0.446855	0.143213	0.00615336	0.0010485	0.137589	0.974739	0.565144	0.49728	0.884958	0.00102267	0.91229	0.267807	0.38606	0.0613207	0.346953	
3.62	0.00280274	0.00147286	0.00147114	0.00160169	0.00154203	0.00297016	0.00274905	0.00287831	0.00141435	0.00138138	0.00134373	0.00121313	0.00196544	0.00210627	0.00297486	0.0028816	0.0028146	0.00309139	0.00287842	0.00284492	0.0011869	0.00310268	0.00283922	0.00182083	0.00279444	0.00119134	0.00119131	0.00282847	0.00131167	0.00271723	0.0029309	0.00280785	0.00226037	0.00194393	0.00244934	0.00149871	0.00138435	0.00141335	0.00139406	0.00136473	0.00278975	0.00125039	0.00353494	0.00355261	0.00190113	0.00102267	0.517186	0.442928	0.00107355	0.00102332	0.734186	0.531332	0.518732	0.00102267	0.36128	0.37869	0.275394	0.999191	0.0665151	0.00151596	0.0378616	0.999	0.0729147	0.362272	0.716044	0.455662	0.155207	0.00398624	0.0010485	0.139233	0.967104	0.560795	0.499277	0.844908	0.00102267	0.789806	0.285551	0.354343	0.0197057	0.315145	
3.625	0.00280274	0.00147286	0.00147114	0.00160169	0.00154203	0.00297016	0.00274905	0.00287831	0.00141435	0.00138138	0.00134373	0.00121313	0.00196544	0.00210627	0.00297486	0.0028816	0.0028146	0.00309139	0.00287842	0.00284492	0.0011869	0.00310268	0.00283922	0.00182083	0.00279444	0.00119134	0.00119131	0.00282847	0.00131167	0.00271723	0.0029309	0.00280785	0.00226037	0.00194393	0.00244934	0.00149871	0.00138435	0.00141335	0.00139406	0.00136473	0.00201661	0.00114871	0.00243161	0.00244916	0.00176788	0.00102267	0.516678	0.445326	0.00107355	0.00102332	0.747799	0.55159	0.533518	0.00102267	0.347671	0.366841	0.274625	0.999191	0.0335826	0.00151596	0.020941	0.999	0.067921	0.352596	0.673064	0.464093	0.167407	0.00270668	0.0010485	0.146915	0.959909	0.555597	0.500777	0.7982	0.00102267	0.662791	0.305933	0.32319	0.0150371	0.284646	
3.63	0.00280274	0.00147286	0.00147114	0.00160169	0.00154203	0.00297016	0.00274905	0.00287831	0.00141435	0.00138138	0.00134373	0.00121313	0.00196544	0.00210627	0.00297486	0.0028816	0.0028146	0.00309139	0.00287842	0.00284492	0.0011869	0.00310268	0.00283922	0.00182083	0.00279444	0.00119134	0.00119131	0.00282847	0.00131167	0.00271723	0.0029309	0.00280785	0.00226037	0.00194393	0.00244934	0.00149871	0.00138435	0.00141335	0.00139406	0.00136473	0.00157628	0.00109194	0.00180552	0.00181878	0.00155245	0.00102267	0.515178	0.446963	0.00107355	0.00102332	0.76077	0.57193	0.545699	0.00102267	0.334185	0.354864	0.273316	0.999191	0.0285583	0.00151596	0.0367567	0.999	0.0537394	0.340984	0.614254	0.472009	0.179608	0.00197085	0.0010485	0.16046	0.95324	0.549487	0.501749	0.745716	0.00102267	0.53529	0.328134	0.293194	0.00245496	0.255842	
3.635	0.00280274	0.00147286	0.00147114	0.00160169	0.00154203	0.00297016	0.00274905	0.00287831	0.00141435	0.00138138	0.00134373	0.00121313	0.00196544	0.00210627	0.00297486	0.0028816	0.0028146	0.00309139	0.00287842	0.00284492	0.0011869	0.00310268	0.00283922	0.00182083	0.00279444	0.00119134	0.00119131	0.00282847	0.00131167	0.00271723	0.0029309	0.00280785	0.00226037	0.00194393	0.00244934	0.00149871	0.00138435	0.00141335	0.00139406	0.00136473	0.00132853	0.00106051	0.0014543	0.00161558	0.00276632	0.00102267	0.512727	0.447861	0.00107355	0.00102332	0.770594	0.591585	0.555165	0.00102267	0.321027	0.342993	0.271503	0.999191	0.0723326	0.00151596	0.0658827	0.999	0.0496657	0.327021	0.536456	0.479156	0.191653	0.00155587	0.0010485	0.17907	0.946847	0.5424	0.502159	0.688384	0.00102267	0.414303	0.350888	0.264748	0.00120682	0.228968	
3.64	0.00280274	0.00147286	0.00147114	0.00160169	0.00154203	0.00297016	0.00274905	0.00287831	0.00141435	0.00138138	0.00134373	0.00121313	0.00196544	0.00210627	0.00297486	0.0028816	0.0028146	0.00309139	0.00287842	0.00284492	0.0011869	0.00310268	0.00283922	0.00182083	0.00279444	0.00119134	0.00119131	0.00282847	0.00131167	0.00271723	0.0029309	0.00280785	0.00226037	0.00194393	0.00244934	0.00149871	0.00138435	0.00141335	0.00139406	0.00136473	0.0011905	0.00104323	0.00125911	0.00200361	0.00265428	0.00102267	0.509369	0.448044	0.00107355	0.00102332	0.725729	0.609145	0.561868	0.00102267	0.308251	0.331282	0.269237	0.999191	0.0783527	0.00151596	0.0788651	0.999	0.0455395	0.311448	0.647279	0.482545	0.203186	0.00132532	0.0010485	0.204526	0.941355	0.534228	0.501964	0.627666	0.00102267	0.297061	0.370147	0.238155	0.00111349	0.204144	
3.645	0.00280274	0.00147286	0.00147114	0.00160169	0.00154203	0.00297016	0.00274905	0.00287831	0.00141435	0.00138138	0.00134373	0.00121313	0.00196544	0.00210627	0.00297486	0.0028816	0.0028146	0.00309139	0.00287842	0.00284492	0.0011869	0.00310268	0.00283922	0.00182083	0.00279444	0.00119134	0.00119131	0.00282847	0.00131167	0.00271723	0.0029309	0.00280785	0.00226037	0.00194393	0.00244934	0.00149871	0.00138435	0.00141335	0.00139406	0.00136473	0.00111422	0.00103379	0.00115146	0.00243558	0.00222879	0.00102267	0.505162	0.447545	0.00107355	0.00102332	0.757235	0.62312	0.565828	0.00102267	0.296066	0.320084	0.266569	0.999191	0.0658577	0.00151596	0.077338	0.999	0.0378797	0.294859	0.52206	0.479401	0.213803	0.00119875	0.0010485	0.230608	0.936077	0.524971	0.501142	0.564793	0.00102267	0.23081	0.384022	0.213468	0.00110728	0.181403	
