CEINMS output
datacolumns 7
datarows 645
endheader
time	addbrev_r	addlong_r	addmagDist_r	addmagIsch_r	addmagMid_r	addmagProx_r	bflh_r	bfsh_r	edl_r	ehl_r	fdl_r	fhl_r	gaslat_r	gasmed_r	glmax1_r	glmax2_r	glmax3_r	glmed1_r	glmed2_r	glmed3_r	glmin1_r	glmin2_r	glmin3_r	grac_r	iliacus_r	perbrev_r	perlong_r	piri_r	psoas_r	recfem_r	sart_r	semimem_r	semiten_r	soleus_r	tfl_r	tibant_r	tibpost_r	vasint_r	vaslat_r	vasmed_r	addbrev_l	addlong_l	addmagDist_l	addmagIsch_l	addmagMid_l	addmagProx_l	bflh_l	bfsh_l	edl_l	ehl_l	fdl_l	fhl_l	gaslat_l	gasmed_l	glmax1_l	glmax2_l	glmax3_l	glmed1_l	glmed2_l	glmed3_l	glmin1_l	glmin2_l	glmin3_l	grac_l	iliacus_l	perbrev_l	perlong_l	piri_l	psoas_l	recfem_l	sart_l	semimem_l	semiten_l	soleus_l	tfl_l	tibant_l	tibpost_l	vasint_l	vaslat_l	vasmed_l	
0.015	2515.46	5.75822	0.225052	10	10	3000	
0.015	2393.08	3.51381	0.0275832	10	10	3000	
0.015	2329.25	3.11197	0.00681985	10	10	3000	
0.02	2307.67	2.02409	0.00686908	10	10	3000	
0.025	2211.75	2.90671	0.0160933	10	10	3000	
0.03	2145.76	3.09893	0.0321521	10	10	3000	
0.035	2111.17	3.13702	0.0265043	10	10	3000	
0.04	2080	3.06582	0.0183507	10	10	3000	
0.045	2054.02	3.03847	0.0169995	10	10	3000	
0.05	2033.08	2.94877	0.0183597	10	10	3000	
0.055	2015.33	2.9461	0.0182451	10	10	3000	
0.06	1999.54	2.94611	0.0175981	10	10	3000	
0.065	1985.46	2.94611	0.0172798	10	10	3000	
0.07	1973.9	2.9646	0.0170362	10	10	3000	
0.075	1965.05	2.94385	0.0166773	10	10	3000	
0.08	1958.38	2.94345	0.0164084	10	10	3000	
0.085	1953.15	2.93554	0.0163746	10	10	3000	
0.09	1948.04	2.93603	0.0163817	10	10	3000	
0.095	1942.65	2.93713	0.0163456	10	10	3000	
0.1	1937.07	2.99129	0.0163662	10	10	3000	
0.105	1931.77	2.98961	0.016426	10	10	3000	
0.11	1927.44	2.97382	0.016552	10	10	3000	
0.115	1924.23	2.97404	0.0167324	10	10	3000	
0.12	1921.56	2.97978	0.0168919	10	10	3000	
0.125	1919.71	2.98103	0.0169451	10	10	3000	
0.13	1918.78	2.98214	0.0170118	10	10	3000	
0.135	1918.58	2.98324	0.0171206	10	10	3000	
0.14	1917.91	2.98567	0.0170654	10	10	3000	
0.145	1916.32	2.98669	0.0167755	10	10	3000	
0.15	1914.08	3.00101	0.0163547	10	10	3000	
0.155	1912.24	3.0012	0.0160624	10	10	3000	
0.16	1910.59	3.0009	0.0158174	10	10	3000	
0.165	1909.16	3.01596	0.0156067	10	10	3000	
0.17	1907	3.01481	0.015348	10	10	3000	
0.175	1903.41	3.00147	0.0150363	10	10	3000	
0.18	1898.71	3.01608	0.014694	10	10	3000	
0.185	1894.3	3.02643	0.014495	10	10	3000	
0.19	1891.32	3.03169	0.0145164	10	10	3000	
0.195	1889.58	3.03299	0.0145737	10	10	3000	
0.2	1888.54	3.0261	0.0146916	10	10	3000	
0.205	1887.67	3.03161	0.014941	10	10	3000	
0.21	1887.17	3.0322	0.0153151	10	10	3000	
0.215	1887.92	3.04482	0.0157647	10	10	3000	
0.22	1890.65	3.04031	0.0161896	10	10	3000	
0.225	1894.74	3.03924	0.016378	10	10	3000	
0.23	1899.63	3.03773	0.0163719	10	10	3000	
0.235	1904.79	3.03616	0.0163051	10	10	3000	
0.24	1908.82	3.03604	0.016226	10	10	3000	
0.245	1911.11	3.03519	0.0161186	10	10	3000	
0.25	1911.66	3.0347	0.0159742	10	10	3000	
0.255	1911.87	3.03323	0.0160107	10	10	3000	
0.26	1911.63	3.0315	0.0158726	10	10	3000	
0.265	1912.23	3.01599	0.0159581	10	10	3000	
0.27	1914.42	3.01563	0.0161655	10	10	3000	
0.275	1916.69	3.0117	0.0160972	10	10	3000	
0.28	1918.69	3.01192	0.0162695	10	10	3000	
0.285	1918.71	3.01194	0.0162053	10	10	3000	
0.29	1918.19	3.01365	0.016457	10	10	3000	
0.295	1918.06	3.013	0.016592	10	10	3000	
0.3	1920.14	3.01508	0.0170453	10	10	3000	
0.305	1924.26	3.01838	0.0177166	10	10	3000	
0.31	1929.48	3.01869	0.0182742	10	10	3000	
0.315	1935.22	3.01894	0.0186115	10	10	3000	
0.32	1940.88	3.01993	0.0187092	10	10	3000	
0.325	1946.8	3.03308	0.0186682	10	10	3000	
0.33	1953.88	3.03301	0.0186335	10	10	3000	
0.335	1962.29	3.0281	0.0185963	10	10	3000	
0.34	1971.42	3.02798	0.0184726	10	10	3000	
0.345	1980.91	3.02744	0.0182522	10	10	3000	
0.35	1989.78	3.02515	0.0180643	10	10	3000	
0.355	1997.27	3.02364	0.0179434	10	10	3000	
0.36	2003.05	3.02378	0.0179993	10	10	3000	
0.365	2006.27	3.05067	0.0180635	10	10	3000	
0.37	2006.73	3.04849	0.0181856	10	10	3000	
0.375	2005.95	3.09098	0.0182938	10	10	3000	
0.38	2004.67	3.08928	0.0182942	10	10	3000	
0.385	2002.93	3.09802	0.01825	10	10	3000	
0.39	2001.02	3.09734	0.0182828	10	10	3000	
0.395	1999.27	3.09929	0.018286	10	10	3000	
0.4	1998.11	3.10045	0.0182137	10	10	3000	
0.405	1997.31	3.13788	0.0178703	10	10	3000	
0.41	1996.3	3.13438	0.0172452	10	10	3000	
0.415	1995.1	3.15204	0.0166904	10	10	3000	
0.42	1993.07	3.15638	0.016319	10	10	3000	
0.425	1991.05	3.13866	0.0161918	10	10	3000	
0.43	1990.17	3.13953	0.0162406	10	10	3000	
0.435	1991.56	3.13702	0.0163523	10	10	3000	
0.44	1996.11	3.10794	0.0163615	10	10	3000	
0.445	2004.14	3.11319	0.0166365	10	10	3000	
0.45	2014.93	3.11383	0.0170552	10	10	3000	
0.455	2027.18	3.11332	0.0175304	10	10	3000	
0.46	2039.49	3.12605	0.0178648	10	10	3000	
0.465	2051.03	3.13062	0.0180498	10	10	3000	
0.47	2062.05	3.14079	0.0182368	10	10	3000	
0.475	2072.78	3.14783	0.0185508	10	10	3000	
0.48	2083.4	3.1481	0.0189012	10	10	3000	
0.485	2093.7	3.1688	0.0192801	10	10	3000	
0.49	2103.27	3.16444	0.0196912	10	10	3000	
0.495	2112.69	3.15319	0.0201152	10	10	3000	
0.5	2122.61	3.15356	0.0204884	10	10	3000	
0.505	2133.58	3.14783	0.0209061	10	10	3000	
0.51	2145.87	3.15235	0.0214681	10	10	3000	
0.515	2158.51	3.15901	0.0222097	10	10	3000	
0.52	2171.61	3.17108	0.023091	10	10	3000	
0.525	2185.76	3.17811	0.0240629	10	10	3000	
0.53	2200.73	3.1844	0.0250157	10	10	3000	
0.535	2216.14	3.18726	0.0260466	10	10	3000	
0.54	2231.44	3.19144	0.0271333	10	10	3000	
0.545	2245.81	3.21772	0.0282239	10	10	3000	
0.55	2258.99	3.2223	0.0296042	10	10	3000	
0.555	2270.15	3.24835	0.0313779	10	10	3000	
0.56	2278.05	3.24263	0.0335146	10	10	3000	
0.565	2282.31	3.25577	0.0360635	10	10	3000	
0.57	2282.97	3.25374	0.0387846	10	10	3000	
0.575	2279.31	3.23	0.0415097	10	10	3000	
0.58	2270.16	3.23113	0.0437236	10	10	3000	
0.585	2254.86	3.22866	0.0454467	10	10	3000	
0.59	2233.13	3.22607	0.0465217	10	10	3000	
0.595	2204.62	3.22009	0.0468937	10	10	3000	
0.6	2169.76	3.1891	0.0468015	10	10	3000	
0.605	2130.01	3.15415	0.0463338	10	10	3000	
0.61	2087.13	3.11128	0.045573	10	10	3000	
0.615	2042.13	3.07883	0.0446844	10	10	3000	
0.62	1996.02	3.04885	0.0439524	10	10	3000	
0.625	1948.97	3.02056	0.0434317	10	10	3000	
0.63	1900.69	2.98002	0.0430065	10	10	3000	
0.635	1850.62	3.22341	0.0420998	10	10	3000	
0.64	1801.97	2.42312	0.0421992	10	10	3000	
0.645	1753.66	2.38907	0.044691	10	10	3000	
0.65	1704.66	2.81205	0.0470268	10	10	3000	
0.655	1653.32	2.79021	0.0457178	10	10	3000	
0.66	1601.34	2.40616	0.0438718	10	10	3000	
0.665	1549.59	2.12061	0.0432379	10	10	3000	
0.67	1497.98	2.08343	0.0432273	10	10	3000	
0.675	1446.67	2.05235	0.0430752	10	10	3000	
0.68	1395.35	1.92764	0.0416262	10	10	3000	
0.685	1345.84	1.79991	0.0396562	10	10	3000	
0.69	1299.1	1.68762	0.0375375	10	10	3000	
0.695	1255.92	1.52671	0.0354116	10	10	3000	
0.7	1218.4	1.34608	0.0337598	10	10	3000	
0.705	1188.68	1.14419	0.0330539	10	10	3000	
0.71	1166.25	0.958397	0.0332669	10	10	3000	
0.715	1157.74	0.849931	0.0342035	10	10	3000	
0.72	1135.68	0.795874	0.0352679	10	10	3000	
0.725	1166.75	0.737144	0.037009	10	10	3000	
0.73	1182.71	0.731802	0.0365902	10	10	3000	
0.735	1206.19	0.62742	0.0359438	10	10	3000	
0.74	1233.4	0.685523	0.0355279	10	10	3000	
0.745	1263.31	1.1988	0.0342272	10	10	3000	
0.75	1294.43	0.661868	0.0326881	10	10	3000	
0.755	1274.03	2.16708	0.0313183	10	10	3000	
0.76	1214.15	1.56239	0.030201	10	10	3000	
0.765	1237.5	2.58367	0.0297135	10	10	3000	
0.77	1251.23	1.50137	0.0277937	10	10	3000	
0.775	1267.52	1.65265	0.0275521	10	10	3000	
0.78	1280.33	1.01348	0.0278912	10	10	3000	
0.785	1287.13	1.02337	0.0286928	10	10	3000	
0.79	1287.39	0.993875	0.0295345	10	10	3000	
0.795	1282.31	1.0299	0.0305237	10	10	3000	
0.8	1273.83	1.06258	0.0318003	10	10	3000	
0.805	1264.15	1.08496	0.0333786	10	10	3000	
0.81	1255.69	1.13523	0.0354283	10	10	3000	
0.815	1249.8	1.18281	0.0381823	10	10	3000	
0.82	1246.36	1.2389	0.041573	10	10	3000	
0.825	1244.56	1.29366	0.0452827	10	10	3000	
0.83	1243.01	1.34395	0.0488655	10	10	3000	
0.835	1240.67	1.38741	0.052088	10	10	3000	
0.84	1237.59	1.42778	0.0549015	10	10	3000	
0.845	1234.22	1.4612	0.0573865	10	10	3000	
0.85	1231.34	1.49459	0.0594971	10	10	3000	
0.855	1230.57	1.52887	0.0613611	10	10	3000	
0.86	1233.48	1.56843	0.0633181	10	10	3000	
0.865	1240.75	1.61914	0.0654468	10	10	3000	
0.87	1252.06	1.67764	0.0675708	10	10	3000	
0.875	1266.02	1.74002	0.0690987	10	10	3000	
0.88	1279.72	1.79703	0.0695916	10	10	3000	
0.885	1291.56	1.85016	0.0685605	10	10	3000	
0.89	1299.9	1.88382	0.0659648	10	10	3000	
0.895	1303.65	1.89819	0.0622806	10	10	3000	
0.9	1302.7	1.88269	0.0583952	10	10	3000	
0.905	1297.91	1.87388	0.0551869	10	10	3000	
0.91	1290.74	1.86991	0.0532749	10	10	3000	
0.915	1282.96	1.86551	0.0528562	10	10	3000	
0.92	1277.77	1.90765	0.0541391	10	10	3000	
0.925	1278.7	1.99984	0.0570272	10	10	3000	
0.93	1287.01	2.0606	0.0606055	10	10	3000	
0.935	1303.4	2.10605	0.0642085	10	10	3000	
0.94	1328.03	2.14919	0.0676348	10	10	3000	
0.945	1361.02	2.20007	0.0711031	10	10	3000	
0.95	1401.83	2.25421	0.0747181	10	10	3000	
0.955	1448.94	2.31162	0.0783107	10	10	3000	
0.96	1500.12	2.38807	0.0815137	10	10	3000	
0.965	1553.91	2.47688	0.0842616	10	10	3000	
0.97	1610.53	2.57151	0.0865367	10	10	3000	
0.975	1669.99	2.65634	0.0883643	10	10	3000	
0.98	1730.98	2.68579	0.0886524	10	10	3000	
0.985	1791.13	2.75567	0.0870703	10	10	3000	
0.99	1847.54	2.80603	0.0840293	10	10	3000	
0.995	1898.77	2.76263	0.0801696	10	10	3000	
1	1945.74	2.77487	0.0770393	10	10	3000	
1.005	1991.2	2.77567	0.0756985	10	10	3000	
1.01	2038.46	2.76249	0.0768	10	10	3000	
1.015	2090.03	2.77145	0.0799825	10	10	3000	
1.02	2146.92	2.80372	0.084468	10	10	3000	
1.025	2206.43	2.83313	0.0886463	10	10	3000	
1.03	2263.58	2.8581	0.090976	10	10	3000	
1.035	2314.33	2.86951	0.0911863	10	10	3000	
1.04	2357.44	2.87841	0.0901709	10	10	3000	
1.045	2394.01	2.89041	0.088798	10	10	3000	
1.05	2426.89	2.93653	0.0878381	10	10	3000	
1.055	2459.51	2.93498	0.0876585	10	10	3000	
1.06	2494.74	2.9889	0.0881868	10	10	3000	
1.065	2534.89	3.04846	0.0892224	10	10	3000	
1.07	2580.38	3.15447	0.0900955	10	10	3000	
1.075	2628.19	3.19507	0.0896524	10	10	3000	
1.08	2672.9	3.29829	0.0872547	10	10	3000	
1.085	2710.3	3.31605	0.0831737	10	10	3000	
1.09	2738.77	3.35181	0.0785879	10	10	3000	
1.095	2759.59	3.35107	0.0745933	10	10	3000	
1.1	2775.09	3.35301	0.0719809	10	10	3000	
1.105	2787.7	3.36053	0.0708207	10	10	3000	
1.11	2801.05	3.37568	0.0710567	10	10	3000	
1.115	2819.64	3.45017	0.0725402	10	10	3000	
1.12	2845.28	3.45051	0.0747414	10	10	3000	
1.125	2876.14	3.51045	0.0763628	10	10	3000	
1.13	2908.5	3.53928	0.0766201	10	10	3000	
1.135	2939.78	3.56138	0.075715	10	10	3000	
1.14	2968.55	3.58964	0.0742177	10	10	3000	
1.145	2995.44	3.61405	0.0728442	10	10	3000	
1.15	3020.59	3.66305	0.0716551	10	10	3000	
1.155	3045.34	3.74335	0.0708585	10	10	3000	
1.16	3072.85	3.86459	0.0707674	10	10	3000	
1.165	3104.46	4.00754	0.0710533	10	10	3000	
1.17	3139.18	4.13986	0.0710376	10	10	3000	
1.175	3175.14	4.29989	0.0703705	10	10	3000	
1.18	3211.57	4.4175	0.0692	10	10	3000	
1.185	3247.42	4.53802	0.0677143	10	10	3000	
1.19	3281.95	4.68193	0.0659567	10	10	3000	
1.195	3314.9	4.8457	0.0639161	10	10	3000	
1.2	3345.93	5.01023	0.0618173	10	10	3000	
1.205	3376.25	5.21787	0.0599652	10	10	3000	
1.21	3408.51	5.43063	0.0587182	10	10	3000	
1.215	3445.82	5.65055	0.0582959	10	10	3000	
1.22	3489.57	5.89368	0.0585913	10	10	3000	
1.225	3540.69	6.06095	0.0593328	10	10	3000	
1.23	3598.37	6.16007	0.0601912	10	10	3000	
1.235	3659.53	6.25126	0.0609074	10	10	3000	
1.24	3720.69	6.34538	0.0612895	10	10	3000	
1.245	3780.08	6.41457	0.061606	10	10	3000	
1.25	3838.55	6.39496	0.0620935	10	10	3000	
1.255	3896.61	6.34006	0.0625959	10	10	3000	
1.26	3954.66	6.25496	0.0629202	10	10	3000	
1.265	4013.28	6.11777	0.0629439	10	10	3000	
1.27	4071.67	6.04161	0.0625595	10	10	3000	
1.275	4128.16	6.08378	0.0609314	10	10	3000	
1.28	4181.03	6.28471	0.0584706	10	10	3000	
1.285	4236.41	6.00228	0.0565426	10	10	3000	
1.29	4298.17	5.8063	0.055503	10	10	3000	
1.295	4364.63	5.81878	0.0555673	10	10	3000	
1.3	4434.42	5.98488	0.0565035	10	10	3000	
1.305	4512.01	6.0719	0.0579453	10	10	3000	
1.31	4594.87	6.07818	0.0588712	10	10	3000	
1.315	4680.97	5.9938	0.0593799	10	10	3000	
1.32	4766.27	6.01972	0.0593729	10	10	3000	
1.325	4850.49	6.02596	0.0592725	10	10	3000	
1.33	4936.56	5.91999	0.0596426	10	10	3000	
1.335	5021.34	5.79884	0.0604687	10	10	3000	
1.34	5098.14	5.7079	0.0613696	10	10	3000	
1.345	5171.67	5.65174	0.0622594	10	10	3000	
1.35	5239.92	5.60084	0.062798	10	10	3000	
1.355	5301.14	5.55701	0.0627969	10	10	3000	
1.36	5354.28	5.51861	0.0623079	10	10	3000	
1.365	5400	5.48934	0.0615952	10	10	3000	
1.37	5440.09	5.46035	0.0608005	10	10	3000	
1.375	5477.82	5.43684	0.0601235	10	10	3000	
1.38	5517.1	5.4499	0.0596767	10	10	3000	
1.385	5562.85	5.4944	0.0597442	10	10	3000	
1.39	5616.87	5.4946	0.0602833	10	10	3000	
1.395	5680.07	5.49396	0.0610174	10	10	3000	
1.4	5751.39	5.47277	0.0617096	10	10	3000	
1.405	5828.41	5.50649	0.0623097	10	10	3000	
1.41	5908.94	5.49172	0.0625054	10	10	3000	
1.415	5988.73	5.57567	0.0623124	10	10	3000	
1.42	6066.53	5.62201	0.0620125	10	10	3000	
1.425	6140.06	5.7062	0.0616453	10	10	3000	
1.43	6206.49	5.8137	0.0611294	10	10	3000	
1.435	6264.13	5.92503	0.0604837	10	10	3000	
1.44	6310.22	6.01093	0.0595782	10	10	3000	
1.445	6343.09	6.05537	0.0583323	10	10	3000	
1.45	6365.53	6.06591	0.0569777	10	10	3000	
1.455	6380.85	6.06466	0.0555655	10	10	3000	
1.46	6392.14	6.07018	0.054014	10	10	3000	
1.465	6401.71	6.09458	0.0523368	10	10	3000	
1.47	6410.41	6.08534	0.0505094	10	10	3000	
1.475	6416.62	6.08384	0.0485327	10	10	3000	
1.48	6419.4	6.11493	0.0465073	10	10	3000	
1.485	6419.28	6.11246	0.0445623	10	10	3000	
1.49	6418	6.09501	0.0427638	10	10	3000	
1.495	6417.42	6.12988	0.0412241	10	10	3000	
1.5	6421.43	6.10288	0.0399087	10	10	3000	
1.505	6432.95	6.16237	0.0388481	10	10	3000	
1.51	6450.9	6.13962	0.0379222	10	10	3000	
1.515	6470.4	6.16482	0.0369225	10	10	3000	
1.52	6487.93	6.12674	0.0358839	10	10	3000	
1.525	6501.22	6.13502	0.0347451	10	10	3000	
1.53	6508.77	6.1429	0.0334748	10	10	3000	
1.535	6510.54	6.12665	0.0320596	10	10	3000	
1.54	6507.45	6.16842	0.0306142	10	10	3000	
1.545	6499.68	6.21043	0.0292626	10	10	3000	
1.55	6486.46	6.25856	0.0280712	10	10	3000	
1.555	6465.38	6.28859	0.0267636	10	10	3000	
1.56	6434.24	6.28833	0.0254656	10	10	3000	
1.565	6415.37	6.23111	0.0243225	10	10	3000	
1.57	6391.21	6.19282	0.0233669	10	10	3000	
1.575	6380.94	6.14418	0.0225489	10	10	3000	
1.58	6370.97	6.16534	0.0218361	10	10	3000	
1.585	6362.92	6.25399	0.021261	10	10	3000	
1.59	6351.63	6.26553	0.0204889	10	10	3000	
1.595	6336.71	6.21416	0.0195879	10	10	3000	
1.6	6325.11	6.18571	0.0189809	10	10	3000	
1.605	6315.82	6.16044	0.0184278	10	10	3000	
1.61	6309.51	6.14456	0.0179953	10	10	3000	
1.615	6306.55	6.1	0.0176066	10	10	3000	
1.62	6308.77	6.12856	0.0172963	10	10	3000	
1.625	6314.59	6.1257	0.0167965	10	10	3000	
1.63	6322.03	6.13935	0.016093	10	10	3000	
1.635	6329.25	6.16534	0.0153476	10	10	3000	
1.64	6333.36	6.19554	0.0145572	10	10	3000	
1.645	6332.76	6.21362	0.0137762	10	10	3000	
1.65	6326.23	6.20505	0.0130164	10	10	3000	
1.655	6317.44	6.30782	0.0123137	10	10	3000	
1.66	6306.24	6.34839	0.0116113	10	10	3000	
1.665	6294.15	6.36205	0.0109111	10	10	3000	
1.67	6282.69	6.35714	0.0102491	10	10	3000	
1.675	6276.07	5.98174	0.00966062	10	10	3000	
1.68	6277.04	5.60161	0.00921616	10	10	3000	
1.685	6289.09	5.67899	0.00861141	10	10	3000	
1.69	6313.06	5.64193	0.00881966	10	10	3000	
1.695	6338.99	5.43988	0.00839068	10	10	3000	
1.7	6366.45	5.39128	0.00796297	10	10	3000	
1.705	6397.98	5.44838	0.00763732	10	10	3000	
1.71	6433.09	5.2324	0.00743351	10	10	3000	
1.715	6471.13	5.00621	0.0073056	10	10	3000	
1.72	6511.79	4.81425	0.00722494	10	10	3000	
1.725	6554.44	4.94618	0.00718798	10	10	3000	
1.73	6599.37	4.91887	0.00717707	10	10	3000	
1.735	6647.14	4.86914	0.00719866	10	10	3000	
1.74	6699.87	4.80509	0.00723501	10	10	3000	
1.745	6757.74	4.80014	0.00726945	10	10	3000	
1.75	6821.81	4.67822	0.00742295	10	10	3000	
1.755	6881.72	4.63741	0.00739444	10	10	3000	
1.76	6938.7	4.55164	0.00729258	10	10	3000	
1.765	6997.44	4.45555	0.0072243	10	10	3000	
1.77	7061.64	4.43803	0.00724014	10	10	3000	
1.775	7133.98	4.41767	0.0072833	10	10	3000	
1.78	7213.26	4.42012	0.00732565	10	10	3000	
1.785	7297.99	4.3514	0.00739528	10	10	3000	
1.79	7384.71	4.23615	0.00743234	10	10	3000	
1.795	7473.27	4.19439	0.00745054	10	10	3000	
1.8	7565.83	4.14138	0.00749523	10	10	3000	
1.805	7665.05	4.13652	0.00752185	10	10	3000	
1.81	7771.88	4.09072	0.0076365	10	10	3000	
1.815	7878.07	4.14	0.00766764	10	10	3000	
1.82	7979.7	4.16266	0.00766308	10	10	3000	
1.825	8078.04	4.18974	0.00769496	10	10	3000	
1.83	8173.55	4.18984	0.00778238	10	10	3000	
1.835	8267.35	4.17619	0.00788951	10	10	3000	
1.84	8362.11	4.15678	0.00803127	10	10	3000	
1.845	8457.67	4.0496	0.00818245	10	10	3000	
1.85	8554.12	3.98496	0.00833119	10	10	3000	
1.855	8650.9	3.92611	0.00838575	10	10	3000	
1.86	8745.5	3.87709	0.00842928	10	10	3000	
1.865	8834.06	3.83247	0.0083914	10	10	3000	
1.87	8913.02	3.84808	0.00830765	10	10	3000	
1.875	8985.84	3.99879	0.00820232	10	10	3000	
1.88	9053.89	3.80861	0.00813941	10	10	3000	
1.885	9120.55	3.81978	0.00802904	10	10	3000	
1.89	9191.29	3.85641	0.00796592	10	10	3000	
1.895	9264.8	3.77658	0.00786008	10	10	3000	
1.9	9344.25	3.78243	0.00778736	10	10	3000	
1.905	9426.55	3.78244	0.00779841	10	10	3000	
1.91	9508.77	3.80626	0.0075898	10	10	3000	
1.915	9587.46	3.80003	0.00747243	10	10	3000	
1.92	9660	3.80926	0.00733469	10	10	3000	
1.925	9732.64	3.80918	0.00720839	10	10	3000	
1.93	9799.79	3.87011	0.00705271	10	10	3000	
1.935	9867.24	3.87054	0.00690796	10	10	3000	
1.94	9939.31	3.88614	0.0067386	10	10	3000	
1.945	10014.8	3.83935	0.00659203	10	10	3000	
1.95	10093.5	3.87839	0.00644498	10	10	3000	
1.955	10176.7	3.84978	0.00630971	10	10	3000	
1.96	10267	3.85888	0.00619897	10	10	3000	
1.965	10364.9	3.81006	0.00610801	10	10	3000	
1.97	10468.7	3.83469	0.00601257	10	10	3000	
1.975	10574.1	3.8155	0.00591024	10	10	3000	
1.98	10677.3	3.97545	0.00582509	10	10	3000	
1.985	10777.9	4.00968	0.00574624	10	10	3000	
1.99	10870.8	4.04923	0.00566075	10	10	3000	
1.995	10952.8	4.0892	0.00554395	10	10	3000	
2	11027.1	4.13337	0.00549268	10	10	3000	
2.005	11095.8	4.15907	0.00538942	10	10	3000	
2.01	11154.6	4.15894	0.0053623	10	10	3000	
2.015	11205.7	4.23852	0.00528015	10	10	3000	
2.02	11244.1	4.28139	0.00522654	10	10	3000	
2.025	11270.5	4.22013	0.00518897	10	10	3000	
2.03	11283.2	4.12334	0.0051561	10	10	3000	
2.035	11283.3	4.12323	0.00516327	10	10	3000	
2.04	11277.9	4.07585	0.00502641	10	10	3000	
2.045	11272.4	4.21407	0.00499254	10	10	3000	
2.05	11269.9	4.18065	0.00492438	10	10	3000	
2.055	11271.1	4.20309	0.004871	10	10	3000	
2.06	11277	4.18549	0.00481323	10	10	3000	
2.065	11290.4	4.26579	0.00471437	10	10	3000	
2.07	11313.8	4.24139	0.00473039	10	10	3000	
2.075	11348.9	4.27731	0.00467953	10	10	3000	
2.08	11393.8	4.33567	0.00462002	10	10	3000	
2.085	11445.6	4.48784	0.00455855	10	10	3000	
2.09	11506.1	4.6737	0.0045097	10	10	3000	
2.095	11575.8	4.79826	0.00447964	10	10	3000	
2.1	11653.4	4.88382	0.00446239	10	10	3000	
2.105	11733.7	4.93096	0.00445632	10	10	3000	
2.11	11808.9	4.98296	0.00445231	10	10	3000	
2.115	11873.5	5.01652	0.00447006	10	10	3000	
2.12	11927.1	4.9395	0.00446294	10	10	3000	
2.125	11975.4	4.95267	0.00448045	10	10	3000	
2.13	12022.7	4.9602	0.00448922	10	10	3000	
2.135	12070.9	5.01421	0.00451457	10	10	3000	
2.14	12122	5.09535	0.00454317	10	10	3000	
2.145	12155.2	7.05007	0.00458301	10	10	3000	
2.15	12174.5	7.34202	0.0046618	10	10	3000	
2.155	12208.6	7.74137	0.00477127	10	10	3000	
2.16	12209.6	9.12076	0.00493637	10	10	3000	
2.165	12185.8	9.18023	0.00513658	10	10	3000	
2.17	12190.3	9.28136	0.00558504	10	10	3000	
2.175	12229.7	9.41181	0.00609762	10	10	3000	
2.18	12303.1	9.5214	0.00657814	10	10	3000	
2.185	12397.5	9.74384	0.00709775	10	10	3000	
2.19	12504.5	9.77813	0.00777714	10	10	3000	
2.195	12621.3	9.80493	0.00869789	10	10	3000	
2.2	12747.9	9.83432	0.00993354	10	10	3000	
2.205	12880.1	9.87828	0.0115158	10	10	3000	
2.21	13012.7	9.92756	0.0134467	10	10	3000	
2.215	13138.9	9.78588	0.0156017	10	10	3000	
2.22	13253.1	9.49188	0.0178277	10	10	3000	
2.225	13356.4	8.70346	0.019898	10	10	3000	
2.23	13448.9	8.30201	0.0216831	10	10	3000	
2.235	13526.8	8.06198	0.0232846	10	10	3000	
2.24	13585.5	7.89388	0.0248876	10	10	3000	
2.245	13621	7.83451	0.0264903	10	10	3000	
2.25	13633.2	7.87559	0.0282068	10	10	3000	
2.255	13622.3	7.95634	0.0300541	10	10	3000	
2.26	13586.4	7.96642	0.0320354	10	10	3000	
2.265	13523.4	7.98722	0.0341455	10	10	3000	
2.27	13437.3	7.92713	0.0363132	10	10	3000	
2.275	13335.8	7.89631	0.0384996	10	10	3000	
2.28	13223.8	7.87467	0.0405892	10	10	3000	
2.285	13104.9	7.09062	0.0423232	10	10	3000	
2.29	12977.4	6.81529	0.042775	10	10	3000	
2.295	12837.2	6.71947	0.0426332	10	10	3000	
2.3	12681.2	6.63297	0.0429396	10	10	3000	
2.305	12508.1	6.53389	0.0436777	10	10	3000	
2.31	12355.5	6.46194	0.0471034	10	10	3000	
2.315	12197.6	6.7419	0.0475826	10	10	3000	
2.32	12100.9	6.50665	0.0527504	10	10	3000	
2.325	12021.1	6.5447	0.058046	10	10	3000	
2.33	11959.6	6.57778	0.0632262	10	10	3000	
2.335	11922.8	6.59026	0.0687691	10	10	3000	
2.34	11915.9	6.59375	0.0747097	10	10	3000	
2.345	11935.4	6.60126	0.0809552	10	10	3000	
2.35	11975.5	6.61287	0.0873106	10	10	3000	
2.355	12030.9	6.66868	0.0935781	10	10	3000	
2.36	12094.5	6.68591	0.0997465	10	10	3000	
2.365	12158.4	6.71903	0.105474	10	10	3000	
2.37	12220.9	6.68616	0.112398	10	10	3000	
2.375	12260.1	6.64746	0.119937	10	10	3000	
2.38	12281.1	6.46743	0.126449	10	10	3000	
2.385	12291	6.35944	0.131416	10	10	3000	
2.39	12290.6	6.343	0.139267	10	10	3000	
2.395	12279	6.42244	0.148425	10	10	3000	
2.4	12260.8	6.5236	0.156541	10	10	3000	
2.405	12241.9	6.33067	0.162233	10	10	3000	
2.41	12222.9	6.21417	0.166827	10	10	3000	
2.415	12199.1	6.20584	0.172403	10	10	3000	
2.42	12164.6	6.18977	0.179402	10	10	3000	
2.425	12111.8	6.51201	0.186664	10	10	3000	
2.43	12047.3	6.19522	0.193129	10	10	3000	
2.435	11968.8	6.45494	0.198792	10	10	3000	
2.44	11876.2	6.41075	0.205276	10	10	3000	
2.445	11769.6	6.52514	0.211284	10	10	3000	
2.45	11645	6.4607	0.214709	10	10	3000	
2.455	11498	6.49583	0.216125	10	10	3000	
2.46	11320.7	6.80837	0.216587	10	10	3000	
2.465	11115.3	6.61739	0.218657	10	10	3000	
2.47	10881	6.6835	0.217763	10	10	3000	
2.475	10628.5	6.85948	0.216529	10	10	3000	
2.48	10332.1	6.72172	0.216248	10	10	3000	
2.485	10008.7	6.89349	0.20398	10	10	3000	
2.49	9668.71	6.97148	0.198298	10	10	3000	
2.495	9307.77	6.89259	0.193842	10	10	3000	
2.5	8931.96	6.94899	0.189577	10	10	3000	
2.505	8551.76	6.94835	0.184224	10	10	3000	
2.51	8176.77	7.00756	0.179397	10	10	3000	
2.515	7779.32	7.15039	0.170968	10	10	3000	
2.52	7367.58	7.459	0.162342	10	10	3000	
2.525	6977.96	7.24296	0.151438	10	10	3000	
2.53	6573.31	7.39185	0.141176	10	10	3000	
2.535	6098.05	8.28372	0.12871	10	10	3000	
2.54	5652.8	8.43953	0.114788	10	10	3000	
2.545	5239.37	8.43916	0.100817	10	10	3000	
2.55	4818.22	8.53368	0.0841187	10	10	3000	
2.555	4427.77	8.64596	0.0662776	10	10	3000	
2.56	4094.66	8.55394	0.0502965	10	10	3000	
2.565	3813.73	8.48897	0.0370198	10	10	3000	
2.57	3579.84	8.50894	0.0263861	10	10	3000	
2.575	3390.33	8.59095	0.0182169	10	10	3000	
2.58	3245.18	5.81386	0.01291	10	10	3000	
2.585	3123.57	3.97999	0.00931172	10	10	3000	
2.59	3006.88	6.50141	0.00657894	10	10	3000	
2.595	2891.82	5.80232	0.00438435	10	10	3000	
2.6	2778.22	5.13998	0.00251643	10	10	3000	
2.605	2667.36	4.73122	0.00127988	10	10	3000	
2.61	2561.8	3.92762	0.000830746	10	10	3000	
2.615	2461.74	3.32348	0.000673813	10	10	3000	
2.62	2365.83	3.36681	0.000596348	10	10	3000	
2.625	2273.11	3.34826	0.000545173	10	10	3000	
2.63	2183.11	3.06105	0.000494622	10	10	3000	
2.635	2095.37	2.76313	0.000455638	10	10	3000	
2.64	2009.79	2.59086	0.000429556	10	10	3000	
2.645	1926.32	2.51229	0.000424937	10	10	3000	
2.65	1844.82	2.43644	0.00042954	10	10	3000	
2.655	1764.48	2.35327	0.000433379	10	10	3000	
2.66	1684.64	2.29059	0.000450801	10	10	3000	
2.665	1605.09	2.18454	0.000490467	10	10	3000	
2.67	1525.93	2.09364	0.000539658	10	10	3000	
2.675	1447.51	1.99392	0.000585165	10	10	3000	
2.68	1370.64	1.87975	0.000627307	10	10	3000	
2.685	1297.02	1.78167	0.000630006	10	10	3000	
2.69	1228.6	1.66406	0.000592326	10	10	3000	
2.695	1167.14	1.54206	0.000533345	10	10	3000	
2.7	1113.73	1.49073	0.000468808	10	10	3000	
2.705	1069.16	1.44193	0.000396084	10	10	3000	
2.71	1033.17	1.36277	0.000398521	10	10	3000	
2.715	1004.09	1.29884	0.000631296	10	10	3000	
2.72	980.481	1.22667	0.000645809	10	10	3000	
2.725	961.653	1.18873	0.000643013	10	10	3000	
2.73	947.124	1.12076	0.00068597	10	10	3000	
2.735	936.082	1.09165	0.000717918	10	10	3000	
2.74	927.412	1.01719	0.000580187	10	10	3000	
2.745	920.463	0.983647	0.000570644	10	10	3000	
2.75	914.971	0.956584	0.000955132	10	10	3000	
2.755	910.01	0.973326	0.00138953	10	10	3000	
2.76	904.884	0.937855	0.00192685	10	10	3000	
2.765	899.896	0.890337	0.00270428	10	10	3000	
2.77	895.492	0.887439	0.00332091	10	10	3000	
2.775	893.707	0.885882	0.00451429	10	10	3000	
2.78	895.087	0.877873	0.00599911	10	10	3000	
2.785	899.753	0.884659	0.00737458	10	10	3000	
2.79	907.904	0.894219	0.0085541	10	10	3000	
2.795	919.535	0.89454	0.00946054	10	10	3000	
2.8	934.101	0.900068	0.00992679	10	10	3000	
2.805	950.551	0.899838	0.00997565	10	10	3000	
2.81	968.347	0.882755	0.00973081	10	10	3000	
2.815	987.532	0.88739	0.00922148	10	10	3000	
2.82	1008.23	0.93236	0.00849548	10	10	3000	
2.825	1030.67	0.942788	0.00757211	10	10	3000	
2.83	1055.79	0.976991	0.00656648	10	10	3000	
2.835	1084.84	1.01811	0.00564123	10	10	3000	
2.84	1119.52	0.996431	0.00499485	10	10	3000	
2.845	1160.71	0.971957	0.0045613	10	10	3000	
2.85	1208.57	1.01389	0.00419989	10	10	3000	
2.855	1262.26	1.05717	0.00396777	10	10	3000	
2.86	1320.7	1.05219	0.00387764	10	10	3000	
2.865	1383.3	1.10989	0.00389762	10	10	3000	
2.87	1448.82	1.20526	0.00400074	10	10	3000	
2.875	1515.87	1.28181	0.00411933	10	10	3000	
2.88	1583.97	1.35501	0.00416159	10	10	3000	
2.885	1652.41	1.43205	0.00413147	10	10	3000	
2.89	1721.09	1.5302	0.00406256	10	10	3000	
2.895	1789.62	1.64837	0.00418382	10	10	3000	
2.9	1858.86	1.86826	0.00439953	10	10	3000	
2.905	1926.24	1.83697	0.00473995	10	10	3000	
2.91	1992.94	1.99941	0.00522961	10	10	3000	
2.915	2058.32	2.09631	0.00597759	10	10	3000	
2.92	2122.1	2.19486	0.00694661	10	10	3000	
2.925	2184.19	2.25418	0.00802015	10	10	3000	
2.93	2244.08	2.27306	0.00895825	10	10	3000	
2.935	2301.2	2.28576	0.00944066	10	10	3000	
2.94	2355.51	2.40498	0.00932239	10	10	3000	
2.945	2407.88	2.51764	0.00879478	10	10	3000	
2.95	2459.17	2.71093	0.00812624	10	10	3000	
2.955	2508.67	2.75153	0.00759067	10	10	3000	
2.96	2560.94	2.85403	0.00728041	10	10	3000	
2.965	2598.12	2.9221	0.00719986	10	10	3000	
2.97	2662.82	3.02759	0.00736016	10	10	3000	
2.975	2716.22	3.15239	0.00773044	10	10	3000	
2.98	2774.33	3.27141	0.00818804	10	10	3000	
2.985	2836.23	3.38309	0.00870268	10	10	3000	
2.99	2902.28	3.41363	0.00920038	10	10	3000	
2.995	2971.27	3.43079	0.00971957	10	10	3000	
3	3044.46	3.40789	0.0103626	10	10	3000	
3.005	3124.37	3.40996	0.0113366	10	10	3000	
3.01	3213.72	3.39656	0.0127465	10	10	3000	
3.015	3315	3.40008	0.0145368	10	10	3000	
3.02	3428.32	3.37197	0.0164495	10	10	3000	
3.025	3551.47	3.36385	0.018818	10	10	3000	
3.03	3679.96	3.33127	0.021522	10	10	3000	
3.035	3808.22	3.32992	0.0240099	10	10	3000	
3.04	3931.07	3.32896	0.0261148	10	10	3000	
3.045	4044.72	3.40619	0.0273829	10	10	3000	
3.05	4145.96	3.39755	0.0276175	10	10	3000	
3.055	4232.53	3.33025	0.0267549	10	10	3000	
3.06	4301	3.3426	0.0251518	10	10	3000	
3.065	4348.86	3.35253	0.0232189	10	10	3000	
3.07	4361.81	4.53868	0.0215713	10	10	3000	
3.075	4407.57	3.52112	0.0208889	10	10	3000	
3.08	4453.85	2.95466	0.0214225	10	10	3000	
3.085	4442.6	3.46639	0.020512	10	10	3000	
3.09	4408.66	3.44729	0.0193909	10	10	3000	
3.095	4376.72	3.41466	0.0192293	10	10	3000	
3.1	4345.67	3.4208	0.0198052	10	10	3000	
3.105	4314.41	3.41462	0.0208631	10	10	3000	
3.11	4281.95	3.24893	0.0221647	10	10	3000	
3.115	4247.73	3.1962	0.0232261	10	10	3000	
3.12	4213.1	3.41681	0.0240824	10	10	3000	
3.125	4180.19	3.42651	0.0247048	10	10	3000	
3.13	4152.19	3.4307	0.025015	10	10	3000	
3.135	4131.72	3.42729	0.0250554	10	10	3000	
3.14	4120.64	3.41955	0.0250334	10	10	3000	
3.145	4118.08	3.40921	0.0250312	10	10	3000	
3.15	4122.82	3.37242	0.0248613	10	10	3000	
3.155	4131.95	3.30779	0.0243417	10	10	3000	
3.16	4140.25	3.37097	0.0236116	10	10	3000	
3.165	4148.42	3.37747	0.0227445	10	10	3000	
3.17	4155.53	3.3825	0.0217802	10	10	3000	
3.175	4162.18	3.38819	0.0208067	10	10	3000	
3.18	4167.78	3.38368	0.0199435	10	10	3000	
3.185	4170.7	3.37749	0.0192718	10	10	3000	
3.19	4168.75	3.37572	0.0187941	10	10	3000	
3.195	4160.27	3.35842	0.0184806	10	10	3000	
3.2	4144.55	3.34905	0.0182426	10	10	3000	
3.205	4122.41	3.34082	0.0181482	10	10	3000	
3.21	4094.87	3.32021	0.0182937	10	10	3000	
3.215	4063.79	3.3238	0.0185719	10	10	3000	
3.22	4035.71	3.32176	0.0189178	10	10	3000	
3.225	4017.43	3.33441	0.0192069	10	10	3000	
