CEINMS output
datacolumns 7
datarows 203
endheader
time	addbrev_r	addlong_r	addmagDist_r	addmagIsch_r	addmagMid_r	addmagProx_r	bflh_r	bfsh_r	edl_r	ehl_r	fdl_r	fhl_r	gaslat_r	gasmed_r	glmax1_r	glmax2_r	glmax3_r	glmed1_r	glmed2_r	glmed3_r	glmin1_r	glmin2_r	glmin3_r	grac_r	iliacus_r	perbrev_r	perlong_r	piri_r	psoas_r	recfem_r	sart_r	semimem_r	semiten_r	soleus_r	tfl_r	tibant_r	tibpost_r	vasint_r	vaslat_r	vasmed_r	addbrev_l	addlong_l	addmagDist_l	addmagIsch_l	addmagMid_l	addmagProx_l	bflh_l	bfsh_l	edl_l	ehl_l	fdl_l	fhl_l	gaslat_l	gasmed_l	glmax1_l	glmax2_l	glmax3_l	glmed1_l	glmed2_l	glmed3_l	glmin1_l	glmin2_l	glmin3_l	grac_l	iliacus_l	perbrev_l	perlong_l	piri_l	psoas_l	recfem_l	sart_l	semimem_l	semiten_l	soleus_l	tfl_l	tibant_l	tibpost_l	vasint_l	vaslat_l	vasmed_l	
0.015	5673.96	13.6731	1.10561	1	10	2000	
0.015	5192.53	11.5749	0.03732	1	10	2000	
0.015	4584.91	8.2732	0.0154621	1	10	2000	
0.019969	3856.13	8.18815	0.0100789	1	10	2000	
0.024937	3307.88	8.29822	0.00787677	1	10	2000	
0.029906	2353.97	8.56507	0.00787322	1	10	2000	
0.035091	2286.12	7.71548	0.0063139	1	10	2000	
0.040059	2442.74	6.39646	0.00587311	1	10	2000	
0.045028	2554.49	5.63109	0.00528963	1	10	2000	
0.049997	2702.99	5.01066	0.00355175	1	10	2000	
0.054965	3101.31	5.27787	0.00230326	1	10	2000	
0.059934	3535.9	5.64496	0.00277443	1	10	2000	
0.064903	3766.34	4.98086	0.00416679	1	10	2000	
0.070087	3786.61	4.46873	0.0046163	1	10	2000	
0.075056	3604.07	5.18647	0.00471048	1	10	2000	
0.080025	3367.55	5.25997	0.00574045	1	10	2000	
0.084994	3352.39	5.96297	0.00932802	1	10	2000	
0.089962	3858.27	7.08045	0.0171965	1	10	2000	
0.094931	5017.21	7.35433	0.03034	1	10	2000	
0.100116	6544.58	7.31335	0.0491223	1	10	2000	
0.105084	7794.28	7.1056	0.0727191	1	10	2000	
0.110053	8042.68	6.54662	0.0942923	1	10	2000	
0.115022	7137.72	5.35093	0.0976777	1	10	2000	
0.11999	5949.11	3.21476	0.0489719	1	10	2000	
0.124959	5117.7	1.39767	0.0281247	1	10	2000	
0.129928	4454.9	1.05939	0.0228959	1	10	2000	
0.135112	3858.25	0.70733	0.0176304	1	10	2000	
0.140081	3332.87	0.49219	0.014222	1	10	2000	
0.14505	2915.91	0.291819	0.0119839	1	10	2000	
0.150018	2644.34	0.220586	0.0117201	1	10	2000	
0.154987	2483.43	0.210013	0.0137592	1	10	2000	
0.159956	2370.32	0.231654	0.0176422	1	10	2000	
0.164924	2257.9	0.2849	0.0219413	1	10	2000	
0.170109	2130.26	0.364719	0.0245816	1	10	2000	
0.175078	1990.31	0.475748	0.022772	1	10	2000	
0.180046	1863.14	0.667563	0.0185881	1	10	2000	
0.185015	1768.87	1.0316	0.0142059	1	10	2000	
0.189984	1721.95	1.44403	0.0107245	1	10	2000	
0.194952	1728.04	1.79827	0.00903238	1	10	2000	
0.199921	1773.96	2.05445	0.00858143	1	10	2000	
0.205106	1828.66	2.46357	0.00982251	1	10	2000	
0.210075	1881.76	2.98493	0.0139775	1	10	2000	
0.215043	1936.52	2.98682	0.0178095	1	10	2000	
0.220012	1991.87	2.96043	0.0202639	1	10	2000	
0.224981	2049.92	3.08556	0.0235725	1	10	2000	
0.229949	2081.99	3.302	0.0293187	1	10	2000	
0.234918	2061.58	3.51994	0.0367853	1	10	2000	
0.240103	1994.94	3.74526	0.0430972	1	10	2000	
0.245071	1921.88	3.95912	0.045294	1	10	2000	
0.25004	1861.45	4.13157	0.0430407	1	10	2000	
0.255009	1777.05	4.18459	0.0402537	1	10	2000	
0.259977	1660.23	4.20392	0.0381913	1	10	2000	
0.264946	1513.01	4.2289	0.0286082	1	10	2000	
0.269915	1391.63	4.38772	0.0168066	1	10	2000	
0.275099	1320.81	5.70077	0.00884852	1	10	2000	
0.280068	1221.16	6.01021	0.00543752	1	10	2000	
0.285037	1183.48	6.2862	0.004749	1	10	2000	
0.290005	1209.82	6.12007	0.00492776	1	10	2000	
0.294974	1286.42	5.76122	0.00516999	1	10	2000	
0.299943	1341.65	5.93618	0.00570391	1	10	2000	
0.304911	1281.92	5.92138	0.00676134	1	10	2000	
0.310096	1157.47	5.14163	0.0054936	1	10	2000	
0.315065	1071.66	4.82862	0.00423306	1	10	2000	
0.320033	938.088	4.10599	0.00339078	1	10	2000	
0.325002	790.833	3.81361	0.00283444	1	10	2000	
0.329971	646.978	4.09221	0.00330373	1	10	2000	
0.33494	533.063	4.7475	0.00195365	1	10	2000	
0.339908	423.897	5.6409	0.00149436	1	10	2000	
0.345093	296.627	5.89775	0.00124594	1	10	2000	
0.350062	225.706	5.62929	0.00106231	1	10	2000	
0.35503	204.317	5.11662	0.000998217	1	10	2000	
0.359999	198.223	4.60336	0.000867535	1	10	2000	
0.364968	170.424	4.0666	0.000665419	1	10	2000	
0.369936	144.547	3.84555	0.000562336	1	10	2000	
0.374905	120.965	3.49801	0.000508633	1	10	2000	
0.38009	105.049	2.83851	0.000486353	1	10	2000	
0.385058	101.115	2.07387	0.000527026	1	10	2000	
0.390027	107.491	1.70429	0.000644898	1	10	2000	
0.394996	119.141	1.65	0.000793985	1	10	2000	
0.399964	130.422	1.63794	0.000928682	1	10	2000	
0.404933	140.857	1.5778	0.00104742	1	10	2000	
0.409902	148.889	1.5363	0.00111964	1	10	2000	
0.415086	150.28	1.45368	0.00109779	1	10	2000	
0.420055	142.992	1.34021	0.000960248	1	10	2000	
0.425024	126.835	1.28353	0.000758242	1	10	2000	
0.429992	99.8966	1.29462	0.000530196	1	10	2000	
0.434961	72.2693	1.41529	0.000355958	1	10	2000	
0.43993	54.5029	1.59015	0.000273114	1	10	2000	
0.445114	50.9799	1.78246	0.000267264	1	10	2000	
0.450083	61.264	1.91617	0.000329191	1	10	2000	
0.455052	82.7039	2.11547	0.00040698	1	10	2000	
0.460021	111.603	2.43797	0.000527527	1	10	2000	
0.464989	145.554	2.91572	0.000704578	1	10	2000	
0.469958	184.294	3.54244	0.000967772	1	10	2000	
0.474927	227.526	4.34486	0.0014377	1	10	2000	
0.480111	281.86	5.16458	0.0021458	1	10	2000	
0.48508	350.863	5.71082	0.00281139	1	10	2000	
0.490049	431.84	6.04897	0.00341791	1	10	2000	
0.495017	521.476	6.28154	0.00404526	1	10	2000	
0.499986	614.843	6.52354	0.0045705	1	10	2000	
0.504955	703.809	6.67459	0.005046	1	10	2000	
0.509923	774.5	6.77916	0.00532178	1	10	2000	
0.515108	810.788	6.71815	0.00516029	1	10	2000	
0.520077	805.439	6.45341	0.00449573	1	10	2000	
0.525045	768.152	6.12914	0.00344111	1	10	2000	
0.530014	722.248	5.87014	0.00242577	1	10	2000	
0.534983	689.508	5.67031	0.00204915	1	10	2000	
0.539951	685.899	5.72137	0.00323808	1	10	2000	
0.54492	717.013	6.20087	0.00500509	1	10	2000	
0.550105	771.662	6.5026	0.00606193	1	10	2000	
0.555073	862.506	6.56077	0.00718402	1	10	2000	
0.560042	1021.49	6.66269	0.00923264	1	10	2000	
0.565011	1270.35	6.83685	0.0127315	1	10	2000	
0.569979	1589.21	7.2567	0.0173038	1	10	2000	
0.574948	1879.54	7.53959	0.0215974	1	10	2000	
0.579917	2019.52	7.47531	0.0239293	1	10	2000	
0.585102	2660.99	10.2278	0.0274288	1	10	2000	
0.59007	3233.17	9.86266	0.025847	1	10	2000	
0.595039	3497.76	9.03744	0.0230223	1	10	2000	
0.600008	3033.22	8.07181	0.0168597	1	10	2000	
0.604976	2280.32	6.57382	0.010972	1	10	2000	
0.609945	1819.13	5.516	0.00751367	1	10	2000	
0.614914	1750.8	5.27678	0.0043722	1	10	2000	
0.620098	1856.14	4.8161	0.00295103	1	10	2000	
0.625067	1956.79	4.85892	0.00247441	1	10	2000	
0.630036	2017.75	5.06355	0.00273398	1	10	2000	
0.635004	2050.72	5.02981	0.00334557	1	10	2000	
0.639973	2071.52	4.59791	0.00364322	1	10	2000	
0.644942	2096.01	2.79501	0.00355413	1	10	2000	
0.64991	2260.98	2.0051	0.00369119	1	10	2000	
0.655095	2610.24	1.72961	0.00430081	1	10	2000	
0.660064	3115.23	1.70418	0.00476223	1	10	2000	
0.665032	3706.38	1.57895	0.00460162	1	10	2000	
0.670001	4292.25	1.90006	0.00392462	1	10	2000	
0.67497	4826.15	2.03394	0.00329549	1	10	2000	
0.679938	5295.7	2.15095	0.00316507	1	10	2000	
0.684907	5667.13	2.29244	0.00362023	1	10	2000	
0.690092	5950.97	2.43373	0.00442756	1	10	2000	
0.69506	6159.36	2.53097	0.00437819	1	10	2000	
0.700029	6320.24	2.64422	0.00450311	1	10	2000	
0.704998	6516.24	3.23178	0.0145803	1	10	2000	
0.709967	6620.88	3.77128	0.0122887	1	10	2000	
0.714935	6706.52	2.95332	0.00853331	1	10	2000	
0.719904	6816.14	3.52239	0.00667882	1	10	2000	
0.725089	6907.63	4.07023	0.00660233	1	10	2000	
0.730057	6933.28	3.90944	0.00661353	1	10	2000	
0.735026	6865.83	3.53783	0.00657601	1	10	2000	
0.739995	6690.6	3.23846	0.00660079	1	10	2000	
0.744963	6404.62	3.0628	0.00691785	1	10	2000	
0.749932	6009.35	2.98967	0.00758905	1	10	2000	
0.754901	5549.04	3.08935	0.0086427	1	10	2000	
0.760085	5070.64	3.25741	0.0102452	1	10	2000	
0.765054	4615.78	3.35707	0.0121221	1	10	2000	
0.770023	4216.07	3.33303	0.0138386	1	10	2000	
0.774991	3888.99	3.21653	0.0155741	1	10	2000	
0.77996	3627.02	3.08569	0.0166766	1	10	2000	
0.784929	3409.21	2.97059	0.0159103	1	10	2000	
0.790113	3225.49	2.9858	0.0130558	1	10	2000	
0.795082	3077.5	3.33046	0.00886751	1	10	2000	
0.800051	2984.26	4.07331	0.00459242	1	10	2000	
0.805019	2970.48	4.74994	0.0018237	1	10	2000	
0.809988	3073.52	5.4218	0.00215189	1	10	2000	
0.814957	3198.68	5.34782	0.00322359	1	10	2000	
0.819925	3323.53	4.35785	0.0035847	1	10	2000	
0.82511	3371.43	4.68294	0.00314995	1	10	2000	
0.830079	3388.32	3.83421	0.00271506	1	10	2000	
0.835048	3418.65	2.85681	0.00237428	1	10	2000	
0.840016	3486.39	2.20646	0.0023195	1	10	2000	
0.844985	3578.23	1.77893	0.00252195	1	10	2000	
0.849954	3677.32	1.69287	0.00287558	1	10	2000	
0.854922	3772.03	1.71731	0.00313597	1	10	2000	
0.860107	3859.81	1.60153	0.00305504	1	10	2000	
0.865076	3945.09	1.46041	0.0030222	1	10	2000	
0.870044	4036.57	1.39372	0.00328578	1	10	2000	
0.875013	4135.42	1.35683	0.00376625	1	10	2000	
0.879982	4241.35	1.29087	0.00427294	1	10	2000	
0.88495	4357.49	1.26918	0.00470046	1	10	2000	
0.889919	4496.27	1.32022	0.00517283	1	10	2000	
0.895104	4708.55	1.57269	0.00677556	1	10	2000	
0.900072	5018.67	2.07373	0.00872229	1	10	2000	
0.905041	5464.32	2.84182	0.0105907	1	10	2000	
0.91001	6182.16	3.83117	0.015403	1	10	2000	
0.914978	7163.56	4.20605	0.0468823	1	10	2000	
0.919947	7545.17	4.02836	0.211893	1	10	2000	
0.924916	7379.44	3.61886	0.220287	1	10	2000	
0.9301	7154.52	3.17055	0.189179	1	10	2000	
0.935069	7300.1	3.32975	0.0897485	1	10	2000	
0.940038	7803.45	4.14748	0.0934085	1	10	2000	
0.945006	8307.67	4.75386	0.227901	1	10	2000	
0.949975	8724.84	5.09605	0.253278	1	10	2000	
0.954944	9144.92	5.25257	0.30379	1	10	2000	
0.959913	9123.97	4.9231	0.394614	1	10	2000	
0.965097	9013.07	4.43945	0.19582	1	10	2000	
0.970066	8926.79	4.07714	0.228122	1	10	2000	
0.975035	8881.37	4.13938	0.175218	1	10	2000	
0.980003	8997.7	4.69912	0.175569	1	10	2000	
0.984972	9221.01	5.53676	0.206209	1	10	2000	
0.989941	9479.92	6.17119	0.237335	1	10	2000	
0.994909	9746.88	6.55251	0.25541	1	10	2000	
1.00009	10058.9	6.83144	0.247901	1	10	2000	
1.00506	10346.2	6.80647	0.236402	1	10	2000	
1.01003	10601.6	6.67579	0.221917	1	10	2000	
1.015	10874.2	6.63317	0.196444	1	10	2000	
