CEINMS output
datacolumns 81
datarows 92
endheader
time	addbrev_r	addlong_r	addmagDist_r	addmagIsch_r	addmagMid_r	addmagProx_r	bflh_r	bfsh_r	edl_r	ehl_r	fdl_r	fhl_r	gaslat_r	gasmed_r	glmax1_r	glmax2_r	glmax3_r	glmed1_r	glmed2_r	glmed3_r	glmin1_r	glmin2_r	glmin3_r	grac_r	iliacus_r	perbrev_r	perlong_r	piri_r	psoas_r	recfem_r	sart_r	semimem_r	semiten_r	soleus_r	tfl_r	tibant_r	tibpost_r	vasint_r	vaslat_r	vasmed_r	addbrev_l	addlong_l	addmagDist_l	addmagIsch_l	addmagMid_l	addmagProx_l	bflh_l	bfsh_l	edl_l	ehl_l	fdl_l	fhl_l	gaslat_l	gasmed_l	glmax1_l	glmax2_l	glmax3_l	glmed1_l	glmed2_l	glmed3_l	glmin1_l	glmin2_l	glmin3_l	grac_l	iliacus_l	perbrev_l	perlong_l	piri_l	psoas_l	recfem_l	sart_l	semimem_l	semiten_l	soleus_l	tfl_l	tibant_l	tibpost_l	vasint_l	vaslat_l	vasmed_l	
3.19	218.362	1.51842	1470.1	1495.38	2015.13	0	5148.38	4248.11	445.226	212.46	724.512	2242.88	807.511	5426.11	834.746	2461.36	2549.94	24264.7	15599.1	3296.34	3085.72	3272.9	3700.97	281.459	268.99	236.579	2019.63	2765.51	282.82	0.434382	371.947	14083.7	3782.39	19892.8	0.208509	694.588	2946.44	480.33	1556.04	774.296	33.9561	2321.75	330.426	320.325	323.872	23.462	107.796	112.54	773.685	1377.31	873.9	1998.63	1473.86	0	9.21221	18.966	3.86349	2040.77	609.294	0	282.443	691.459	0	9.7407	0.628099	2218.1	5361.04	0	2.45709	10662.8	471.999	6326.59	928.557	0	1.06485e-14	5933.64	8410.94	0	2.5609	0.00905458	
3.195	187.174	3.44631e-07	1279.49	1322.82	1724.36	0	4990.29	4693.62	463.08	221.799	721.222	2226.17	923.787	5851.11	677.934	2174.94	2203.11	24449.8	15440.2	2990.89	3126.64	3302.94	3709.56	281.225	352.973	233.759	2006.18	2578.11	359.378	9.51244	411.988	14203.2	3789.9	19140.5	23.9456	740.105	2925.93	373.191	1259.63	615.894	19.8508	2252.01	352.32	330.541	311.773	101.907	9.74799	74.4595	779.078	1378.63	871.255	1996.69	1310.84	0	19.0049	29.6067	0	2576.53	801.677	1.63003e-09	317.947	211.968	0	0	14.005	2239.12	5363.71	0	7.37777	11005.1	459.195	5557.97	823.037	7.93846e-06	0	5939.46	8457.07	6.13418e-11	310.872	175.921	
3.2	180.328	1.89768e-07	1172.59	1212.15	1557.3	0	4852.25	5049.02	476.317	228.67	718.366	2211.16	1006.38	6188.41	617.793	2054.05	2035.09	24439	15258.2	2802.79	3125.48	3300.54	3706.28	281.614	394.468	232.202	1995.03	2396.56	398.476	24.2887	443.858	14261.3	3788.09	18535	45.1349	771.147	2908.6	314.005	1092.15	528.763	15.7357	2188.21	505.282	404.254	438.138	199.643	62.0276	159.578	782.736	1378.69	867.705	2019.49	1357.75	2.11965e-07	459.471	708.045	77.7446	2456.85	510.12	0.295935	318.939	123.66	3.28731e-11	44.9447	20.4335	2230.24	5357.14	2.21935e-08	9.0504	10996.6	447.223	4948.29	836.906	4.90505e-10	8.33881e-09	5939.98	8358.05	0	467.118	265.066	
3.205	173.807	8.25721e-08	1079.42	1118.33	1407.52	0	4705.66	5404.34	486.112	233.714	715.78	2197.62	1066.45	6489.65	563.494	1945.01	1884.88	24410.3	15025.4	2622.28	3120.87	3295.8	3701.8	281.052	425.715	231.115	1985.1	2216.82	426.602	40.8078	476.165	14259.1	3775.17	18034.5	56.5773	792.11	2893.31	275.845	980.223	471.561	121.792	2182.1	606.716	474.694	512.12	242.263	170.814	236	867.556	1389.91	863.865	2046.18	1410.48	2.4079e-08	1004.19	1610.37	421.091	1717.3	92.2453	3.72673	634.831	706.934	2.80461e-10	112.476	189.562	2224.81	5354.04	0	418.194	10991.4	435.161	4380.82	804.99	0	5.63142e-09	5933.47	8306.38	1.47155e-07	480.744	271.52	
3.21	167.959	2.85994e-08	990.957	1027.57	1270.9	0	4538.05	5772.74	493.995	237.784	713.514	2185.94	1121.29	6795.7	505.19	1832.02	1739.15	24381.7	14729.6	2442.47	3116.31	3291.06	3697.42	279.942	459.846	230.19	1976.49	2038.93	457.064	56.3591	511.23	14193.7	3750.1	17621.2	63.7472	808.813	2880.11	242.153	879.523	420.102	298.017	2182.43	555.696	489.797	439.823	246.926	252.735	247.491	971.851	1382.23	861.388	2068.13	1399.5	2.63002e-08	1225.39	2090.75	530.938	784.741	4.71273	3.47948	946.611	1330.79	1.32216e-11	140.961	521.653	2227.28	5355.14	2.39745e-05	1168.83	10984.9	422.218	3845.33	744.575	1.62574e-07	4.94363e-09	5928.3	8311.95	3.23835e-07	468.92	264.747	
3.215	163.771	0.000474015	910.088	942.016	1149.62	0.00925993	4349.15	6144.62	499.965	240.864	711.744	2176.84	1179.61	7116.53	446.273	1720.02	1602.02	24346.2	14362.1	2268.92	3110.52	3285.39	3692.55	278.356	496.604	229.54	1969.84	1866.8	489.381	71.246	549.065	14053.3	3710.71	17311.1	71.2689	821.296	2869.89	210.973	785.467	372.326	459.209	2146.76	396.1	435.708	290.567	254.244	295.176	222.848	1043.94	1376.31	861.123	2087.06	1347.53	0.00145025	1214.35	2201.7	513.086	314.997	14.3622	3.63936	1113.84	1422.4	0	141.025	926.661	2232.17	5357.12	0	1862.16	10975.6	407.937	3366.43	691.236	0.0170597	0.000197166	5924.95	8326.51	0.00265479	467.028	267.37	
3.22	161.125	0.000455039	836.227	862.341	1043	0.00890117	4141.24	6512.47	503.4	242.62	710.604	2170.9	1242.49	7451.7	386.987	1608.41	1472.55	24305.7	13917.7	2104.35	3103.81	3279.07	3687.4	276.203	535.996	229.286	1965.62	1704.35	522.757	86.804	589.681	13829	3655.71	17122.4	80.2601	827.755	2863.43	184.313	703.886	331.369	562.854	2073.96	239.296	328.585	159.242	275.546	312.472	191.646	1093.23	1375.76	863.368	2104.89	1283.42	0.00139331	1161.76	2202.13	498.95	94.4983	21.9902	4.8041	1198.76	1254.48	0.020706	130.98	1302.91	2242.55	5358.87	0.041569	2396.06	10963.2	392.295	2954.43	646.715	0.0190833	0.000189296	5921.33	8340.72	0.0153776	466.338	283.59	
3.225	160.062	0.000162971	768.67	787.612	950.4	0.00318764	3916.97	6868.86	503.882	242.84	710.188	2168.54	1309.74	7804.17	327.908	1497.15	1350.17	24261.4	13396.2	1951.17	3096.44	3272.31	3682.17	273.489	578.494	229.468	1964.12	1554.57	557.723	103.746	633.017	13519	3584.97	17066.7	90.2093	827.205	2861.22	162.579	636.089	297.701	604.359	1973.23	129.891	214.299	76.5492	301.028	322.019	166.451	1111.24	1375.43	868.223	2125.36	1226.29	0.000499011	1142.42	2241.08	536.024	56.1449	21.7523	6.49813	1244.05	815.668	0	122.811	1586.75	2259.13	5360.63	0	2632.27	10947.3	375.566	2602.21	607.461	0.00658544	6.78027e-05	5917.09	8363.08	0	459.166	313.074	
3.23	160.636	2.45257e-05	707.131	717.413	870.601	0.000465824	3680.18	7207.12	501.193	241.413	710.559	2170.1	1381.92	8179.3	269.929	1386.95	1234.43	24214.5	12802.2	1811.28	3088.57	3265.29	3676.99	270.276	624.302	230.086	1965.56	1420.76	594.691	121.502	678.921	13127.3	3499.36	17152.1	100.355	819.186	2863.59	144.899	579.833	269.973	608.788	1858.01	69.9708	120.202	33.9508	321.569	332.672	145.664	1115.16	1391.25	874.517	2150.18	1179.16	7.47415e-05	1144.18	2319.63	607.373	58.554	22.9149	8.62756	1270.43	354.881	0.0244515	117.327	1766.32	2279.43	5362.64	0	2726.81	10933.3	358.148	2289.66	572.812	0.000212867	1.01509e-05	5912.48	8398.6	0	450.739	356.835	
3.235	162.887	0	651.333	651.999	802.398	0	3436.61	7521.6	495.245	238.292	711.747	2175.76	1460.14	8582.55	214.021	1278.7	1124.77	24166	12146.5	1685.88	3080.39	3258.16	3671.98	266.673	673.481	231.138	1970.05	1303.92	633.937	138.945	727.174	12663	3400.68	17384.6	110.321	803.57	2870.74	130.491	533.1	247.081	589.333	1734.16	38.4336	64.3826	12.5577	334.818	346.707	126.633	1108.78	1389.03	882.567	2179.8	1139.96	0	1146.4	2403.96	694.015	61.2468	26.2973	11.3889	1288	81.1626	0	113.026	1851.76	2300.58	5364.83	0.250276	2733.88	10921	340.482	2012.98	543.97	0	0	5907.61	8445.39	0	447.03	415.195	
3.24	166.85	0	600.869	591.339	744.695	0	3192.31	7807.19	486.069	233.496	713.751	2185.55	1545.47	9019.06	161.16	1173.3	1020.64	24117.1	11444.8	1572.29	3072.08	3251.07	3667.23	262.819	725.992	232.611	1977.65	1202	675.766	155.27	777.127	12138.5	3291.5	17768.5	119.922	780.596	2882.68	119.048	495.151	228.633	553.703	1604.07	21.5188	36.1885	1.49414	338.861	365.126	109.321	1094.77	1376.47	891.795	2214.17	1106.99	0	1143.93	2473.42	787.232	64.6045	30.1585	14.8907	1195.96	28.6104	0.0949919	109.128	1859.49	2320.43	5367.08	0	2682.74	10908.7	322.903	1777.06	521.907	0	23.7865	5902.56	8498.2	0.000167352	447.83	486.205	
3.245	172.562	8.55345	555.352	535.21	696.538	0	2952.13	8060.4	473.847	227.126	716.524	2199.35	1639	9492.82	112.364	1071.58	921.688	24068.2	10717.9	1464.29	3063.78	3244.14	3662.77	258.887	781.515	234.473	1988.27	1113.62	720.452	169.895	827.331	11567.7	3174.89	18305.3	129.007	750.971	2899.19	110.181	464.945	214.074	508.097	1469.58	12.3783	23.7903	0.00173798	333.492	389.386	95.0882	1074.25	1371.23	902.226	2252.9	1079.92	0	1139.09	2520.97	886.079	68.6156	34.3227	19.1654	785.49	25.6095	0	105.795	1800.45	2337.79	5369.32	0	2583.57	10888.2	305.609	1586.41	507.397	0	71.6932	5897.44	8551.04	0.00832197	442.444	562.033	
3.25	180.069	24.1966	514.382	483.227	657.05	0	2719.27	8281.56	458.924	219.369	719.987	2216.88	1741.83	10006.1	68.5587	974.329	828.519	24020.1	9989.05	1368.98	3055.64	3237.46	3658.63	255.064	839.543	236.68	2001.71	1038.22	768.196	182.309	876.461	10965.6	3054.16	18993.2	137.409	715.865	2919.87	103.363	440.994	202.618	458.834	1333.09	7.86798	18.4705	0	320.362	421.539	84.2158	1048.42	1370.43	913.704	2295.27	1059.17	0	1132.01	2540.68	988.367	72.7656	39.0148	24.2442	406.502	26.0095	0	103.448	1684.24	2353.59	5371.51	0	2444.71	10860.9	288.748	1442.75	501.385	0	124.425	5892.33	8598.09	0	425.21	637.286	
3.255	189.421	27.3764	477.604	435.016	625.492	7.9627e-06	2496.02	8472.8	441.783	210.484	724.024	2237.67	1854.84	10559.3	30.4801	882.2	741.919	23973.1	9270.4	1281.78	3047.76	3231.1	3654.8	251.545	899.528	239.167	2017.67	974.835	819.124	192.044	923.498	10347.6	2932.69	19825.1	144.965	676.79	2944.14	98.0161	421.672	193.43	411.138	1197.16	6.15222	16.5715	0.0111374	302.54	463.869	75.9607	1018.48	1369.72	926.02	2340.69	1045.5	1.52163e-06	1121.07	2528.3	1086.65	77.0489	44.2082	30.1521	198.139	26.9736	0.0508833	102.362	1520.99	2369.77	5373.6	0.138189	2274.22	10828	272.482	1345.01	505.336	0	178.35	5887.34	8634.23	0	397.727	709.808	
3.26	200.682	29.979	444.729	390.316	601.298	7.56853e-06	2286.08	8638.53	423.031	200.794	728.492	2261.11	1978.35	11151	0	795.605	662.498	23927.5	8573.32	1201.75	3040.24	3225.09	3651.22	248.526	960.942	241.863	2035.74	921.973	873.293	198.676	967.674	9730.2	2813.6	20787.8	151.585	635.412	2971.25	93.5736	405.331	185.679	368.192	1061.28	6.21799	16.8715	0.00852167	283.104	519.349	69.8097	985.639	1367.49	938.888	2388.4	1039.92	1.24648e-06	1106	2487.12	1167.43	84.1783	49.7703	36.8743	98.3472	28.3137	0.00670233	102.663	1329.05	2387.15	5375.55	0.117851	2081.57	10793.8	256.977	1290.51	521.417	0	224.319	5882.56	8655.46	0	366.867	780.557	
3.265	213.93	34.6123	415.639	349.22	584.008	2.87072e-06	2093.67	8783.65	403.382	190.677	733.23	2286.45	2112.09	11778.1	0.00181566	714.801	590.679	23883.5	7906.97	1127.42	3033.14	3219.46	3647.84	246.196	1023.27	244.686	2055.41	877.779	930.691	201.875	1008.46	9128.71	2699.55	21863.3	157.233	593.389	3000.33	89.4992	390.379	178.568	331.135	923.8	7.48058	18.7285	0.00279134	264.161	592.504	65.7435	951.051	1360.38	952.047	2437.28	1043.72	4.74696e-07	1087.55	2425.24	1220.54	95.3767	55.5723	44.3628	53.6748	29.6466	0	104.464	1129.43	2405.43	5377.3	0.0380465	1881.05	10756.4	242.374	1277.62	552.623	0	264.622	5878.07	8660.73	0.000538092	334.636	847.738	
3.27	229.313	39.6928	390.495	311.971	573.293	0	1921.21	8914.06	383.587	180.528	738.066	2312.93	2255.07	12437	0	639.721	526.672	23840.9	7274.35	1056.91	3026.51	3214.19	3644.57	244.728	1086.08	247.548	2076.11	840.127	991.269	201.424	1045.52	8557.7	2592.62	23028.9	161.876	552.202	3030.41	85.2885	375.303	171.338	299.548	786.766	9.55236	21.5845	0	246.923	692.684	65.5032	915.899	1347.59	965.198	2486.99	1058.38	7.47127e-08	1066.26	2350.09	1249.58	110.552	61.4493	52.5273	34.6781	30.8103	29.1233	107.939	929.001	2424.11	5378.84	0	1683.76	10717.4	228.771	1309.94	602.751	0	292.927	5873.97	8654.64	0.00296579	301.783	909.874	
3.275	247.075	44.4133	369.185	278.711	568.872	0	1769.54	9036.04	364.392	170.733	742.828	2339.73	2405.75	13121	0.0911797	570.124	470.436	23357.5	6678.33	988.286	3020.38	3209.28	3641.32	244.284	1149	250.357	2097.2	806.718	1054.83	197.237	1078.69	8029.61	2494.39	24254.4	165.471	513.182	3060.49	80.5031	358.708	163.311	272.444	655.111	12.1742	25.0242	0	232.108	836.659	70.9238	881.372	1329.91	978.069	2537.08	1085.48	0	1042.49	2267.11	1264.42	129.398	67.1907	61.206	26.6414	31.7235	77.1192	113.303	738.481	2442.89	5380.13	0.0276489	1492.2	10677.3	216.226	1398.56	676.479	0	301.153	5870.32	8642.84	0.000274976	272.955	967.408	
3.28	267.726	49.0495	351.661	249.463	570.51	0	1638.24	9155.59	346.51	161.661	747.357	2365.97	2562.04	13820.2	0.0336755	505.473	421.702	22108.3	6119.1	919.777	3014.77	3204.7	3638.02	245.009	1211.79	253.024	2117.99	775.184	1121.04	189.358	1107.94	7554.48	2406.15	25501.4	167.964	477.625	3089.58	74.7694	339.399	153.9	249.032	535.207	15.1853	28.8046	0	220.17	1034.63	79.8001	848.526	1308.05	990.401	2587.03	1126.55	0	1016.46	2180.26	1272.35	151.386	72.5572	70.1791	23.0431	32.2877	74.2781	120.813	577.843	2461.42	5381.16	0.0135503	1308.95	10636.6	204.775	1558.92	780.063	0	281.117	5867.19	8628.66	0	259.83	1030.63	
3.285	291.713	53.7967	337.778	224.163	577.991	0	1526.54	9278.55	330.535	153.601	751.512	2390.73	2720.72	14522.4	0.00763558	445.132	379.968	20242.8	5594.78	849.929	3009.67	3200.42	3603.52	247.032	1274.31	255.461	2137.8	743.209	1189.64	177.954	1133.32	7139.47	2329.11	26724.9	169.316	446.743	3116.74	67.8	316.369	142.622	229	432.239	18.4616	32.7632	0	211.442	1288.55	91.3426	722.355	1282.58	1001.97	2636.63	1182.83	8.2638e-09	988.23	2092.02	1278.22	175.715	77.2931	79.1547	21.0257	32.4077	72.5209	130.882	461.165	2479.37	5381.92	0	1139.58	10598.7	194.423	1805.4	918.371	0	245.182	5864.63	8613.4	0	247.082	1092.42	
3.29	319.741	58.6062	327.33	202.646	591.102	0	1433.59	9410.38	316.919	146.772	755.176	2413.19	2878.21	15213.2	0	388.271	344.545	17958.1	5101.97	777.44	3005.11	3196.43	3456.73	250.47	1336.55	257.586	2155.95	708.721	1260.4	164.085	1154.98	6788.66	2264.16	27876.2	169.512	421.384	3141.12	59.4168	288.894	129.145	212.414	341.086	21.8921	36.7495	0	206.318	1604.57	105.441	560.558	1254.28	1012.61	2685.93	1255.22	1.97365e-08	957.609	2003.25	1282.76	201.357	81.138	87.7878	19.3868	32.074	76.9631	144.346	376.275	2496.49	5382.42	0	990.71	10568.6	185.152	2146.68	1077.92	0	211.41	5862.68	8597.43	100.998	1142.86	1251.08	
3.295	352.796	63.393	320.078	184.676	609.628	0	1358.61	9555.53	306.014	141.342	758.256	2432.64	3030.4	15876.6	0	334.109	314.602	15480.6	4635.38	701.294	3001.07	3192.72	3214.15	255.424	1398.61	259.326	2171.78	670.07	1333.16	149.45	1173.07	6503.2	2211.75	28903.6	168.558	402.128	3161.96	49.5611	256.531	113.306	199.582	257.505	25.3646	40.6166	0	205.198	2004.75	122.154	491.643	1223.76	1022.19	2734.57	1344.09	2.20911e-08	924.28	1913.5	1284.53	227.191	83.8519	95.6937	17.6237	32.4453	80.8165	162.469	312.721	2512.6	5382.66	0.0191402	867.237	10531.8	176.932	2584.43	1240.2	0	180.739	5861.35	8581.1	207.363	2763.06	1501.38	
3.3	392.049	68.3576	315.725	169.941	633.619	0	1300.8	9717.37	298.096	137.442	760.683	2448.42	3173.01	16495.6	0	281.875	289.194	13091.2	4185.78	620.768	2997.58	3189.3	2905	261.982	1460.86	260.612	2184.66	626.142	1407.83	134.757	1187.77	6282.01	2171.96	29757.8	166.491	389.417	3178.62	38.321	219.209	95.1086	190.862	185.246	28.7669	44.2249	0	208.411	2456.49	142.24	473.056	1191.72	1030.66	2782.12	1449.18	2.11446e-08	887.893	1822.37	1282.53	251.988	85.2314	102.477	15.5371	33.7792	81.4428	186.378	264.628	2527.49	5382.66	0.0221262	765.732	10498.6	169.745	3117.77	1384.47	0	150.961	5860.63	8564.81	293.645	4428.9	1804.18	
3.305	438.934	75.5364	313.968	158.079	662.66	4.5296e-06	1259.01	9898.17	293.39	135.178	762.403	2459.96	3301.6	17053.4	0	230.517	267.354	11021.1	3748.21	535.646	2994.64	3186.2	2554.08	270.215	1523.99	261.385	2194.05	576.677	1484.4	119.606	1199.24	6121.67	2144.53	30391.9	163.38	383.602	3190.54	26.0006	177.343	74.7999	186.563	123.379	31.9787	47.4378	0	216.24	2888.33	167.007	455.162	1158.87	1037.98	2828.48	1569.66	1.98405e-08	848.304	1730.02	1276.5	274.482	85.1318	107.773	13.0647	35.6213	80.0124	216.398	226.411	2540.98	5382.45	0.00696377	680.338	10468.2	163.661	3640.18	1481.29	0.000199124	119.787	5860.52	8548.92	371.644	6103.44	2084.25	
3.31	495.061	86.4559	314.469	148.702	696.146	0	1231.61	10098.6	292.074	134.635	763.369	2466.71	3411.54	17531.3	0	178.966	248.094	9290.45	3325.48	446.192	2992.27	3183.45	2190.95	280.177	1588.77	261.589	2199.42	522.228	1562.88	103.269	1207.63	6017.32	2128.87	30764.4	159.318	384.987	3197.24	13.2691	131.847	52.9112	186.838	71.319	34.8779	50.1244	0	229.075	3124.81	197.284	433.124	1125.72	1044.19	2873.6	1703.91	1.88939e-08	805.819	1636.99	1266.78	293.443	83.4853	111.302	10.2144	37.4995	77.2372	252.343	194.774	2553.02	5382.04	0.254283	610.617	10440	158.865	3806.72	1512.45	0	87.6933	5861	8533.65	435.813	6364.75	2283.64	
3.315	561.705	101.452	316.886	141.388	734.883	0	1216.41	10317.4	294.309	135.884	763.533	2468.19	3498.15	17912.2	0	128.56	230.519	7861.34	2921.77	353.216	2944.49	3181.09	1852.77	291.89	1656.17	261.174	2200.33	463.407	1643.34	85.4145	1213.03	5962.74	2124.06	30840	154.432	393.822	3198.24	1.93392	84.525	30.4819	191.736	31.8798	37.346	52.1681	0	247.704	3179.27	232.885	412.108	1092.95	1049.36	2916.87	1850.02	1.82167e-08	764.818	1545.25	1254.2	307.807	80.3025	112.879	7.04071	38.9703	73.0726	293.848	164.237	2563.57	5381.47	0	555.075	10414.6	155.674	3753	1500.8	5.4808e-05	56.8002	5862.08	8519.17	478.117	5891.95	2399.88	
3.32	639.806	120.48	320.865	135.718	777.79	0	1211.1	10551.9	300.255	138.995	762.833	2463.97	3556.91	18179.6	0	78.9152	213.802	6679.5	2541.73	258.12	2676.91	3165.69	1558.23	305.354	1726.8	260.093	2196.4	400.016	1725.85	66.2603	1215.55	5951.41	2129.04	30590.3	148.872	410.286	3193.09	0	38.3653	9.49528	201.266	9.2272	39.2772	53.4759	0	273.609	3162.24	273.681	393.935	1060.98	1053.59	2958.11	2005.58	1.76325e-08	722.321	1456.88	1239.15	316.755	75.6877	112.429	3.64319	39.6591	67.4893	339.652	136.388	2572.65	5380.75	0	512.473	10392.7	154.395	3690.47	1477.77	5.32322e-05	28.1147	5863.81	8505.57	496.022	5450	2447.58	
3.325	730.111	143.446	326.038	131.284	825.292	0	1213	10797.2	310.104	144.061	761.184	2453.62	3583.32	18315.8	0	30.8898	197.267	5671.41	2190.49	162.852	2275.35	2947.68	1307.78	320.518	1801.52	258.304	2187.31	333.043	1810.48	46.6691	1215.66	5975.79	2142.38	29995.5	142.809	434.517	3181.28	0	1.42043	0	215.381	2.39753	40.6241	55.005	28.0941	309.461	3130.74	321.876	377.671	1030.2	1057	2997.12	2167.5	1.70561e-08	678.018	1369.61	1220.99	319.791	69.8203	109.991	255.383	39.2836	60.694	387.162	113.744	2580.31	5379.93	0	480.787	10374.7	155.513	3687.5	1454.22	6.75945e-05	4.65201	5866.53	8492.91	494.309	5280.64	2444.52	
3.33	833.115	170.15	332.048	127.7	877.186	0	1219.42	11047.5	324.108	151.206	758.478	2436.74	3573.41	18305.9	0	0.0010639	180.363	4783.72	1873.16	70.1175	1850.22	2556.07	1097.08	337.287	1881.12	255.766	2172.82	265.885	1897.21	27.9878	1215.51	6027.89	2162.48	29045.3	136.432	466.652	3162.26	0.0185474	0	0	233.922	4.69861	42.5143	58.5955	29.4596	318.491	3095.42	377.281	362.884	1001.06	1059.7	3033.6	2328.81	1.6465e-08	633.607	1285.33	1201.82	316.824	62.9539	105.717	504.786	37.6956	53.0018	429.935	96.3274	2586.65	5379.01	0	458.337	10360.8	159.637	3747.69	1432.39	2.03601e-05	0	5872.37	8481.22	478.992	5404	2404.41	
3.335	949.034	200.288	338.532	124.604	933.385	101.277	1227.55	11294.8	342.591	160.605	754.583	2412.98	3523.84	18136.7	0	0	162.681	4014.19	1592.25	0	1486.86	2103.92	918.51	355.576	1966.36	252.451	2152.75	200.681	1985.97	11.9991	1215.37	6099.06	2187.46	27741.7	129.943	507.02	3135.47	0.0166731	0	0	224.576	20.361	45.7006	64.5583	27.125	283.722	3052.12	436.389	349.642	973.715	1061.81	3067.31	2478.62	1.58669e-08	589.527	1204.34	1185.43	308.734	55.4626	99.8815	505.182	88.3227	44.7646	458.909	83.086	2591.77	5378.04	0.0851702	444.141	10351.4	167.558	3868.06	1414.34	2.42266e-05	0	5894.98	8470.49	455.256	5780.19	2338.77	
3.34	1081.02	233.405	345.115	121.688	993.592	138.304	1234.84	11531.5	365.92	172.466	749.35	2381.96	3432.59	17798.6	0	0	144.033	3361.52	1345.39	0	1209.66	1689.25	760.622	375.156	2057.95	248.339	2127.04	137.072	2076.85	1.02167	1215.23	6180.64	2215.37	26101.7	123.54	556.308	3100.36	0.00637173	0.0988876	0.053745	175.791	49.6595	50.0015	72.1813	29.8306	221.067	3001.28	496.602	337.978	948.425	1063.42	3098.14	2605.67	1.52663e-08	546.297	1126.4	1171.06	298.636	49.0145	92.7376	422.269	299.773	36.3624	468.694	73.1432	2595.78	5377.02	0.0490706	437.969	10347	180.408	4053.28	1401.55	3.34751e-05	0.0614965	5939.68	8460.7	429.013	6278.56	2263.49	
3.345	1236.6	268.973	351.451	118.652	1057.47	92.536	1238.41	11749.3	394.495	187.025	742.625	2343.4	3298.79	17288.1	0	0.100023	124.246	2819.91	1130.53	0	1000.98	1364.87	621.254	395.726	2156.58	243.431	2095.76	75.1345	2170.16	0	1215.08	6262.33	2243.86	24160.1	117.416	616.123	3056.46	2.89065e-05	0.0485404	0.0144767	115.397	69.9539	55.1245	80.7873	30.8508	150.804	2944.72	556.956	327.786	925.298	1062.81	3126.1	2698.33	0	504.442	1053.11	1157.54	284.144	44.2003	84.7263	353.863	399.445	28.9329	460.186	65.5098	2598.8	5375.98	0.0197967	439.338	10347.1	199.453	4304.61	1394.87	1.42981e-05	0.0403768	5968.46	8451.8	407.483	6708.27	2199.49	
3.35	1421.78	306.208	357.176	115.268	1124.22	106.531	1235.86	11941.4	428.701	204.525	734.274	2297.42	3123.81	16434.6	0	0.0401909	103.432	2381.71	944.515	0.220567	841.918	1119.53	502.29	417.013	2262.77	237.747	2059.1	19.1797	2265.93	0	1214.91	6334.33	2270.69	21971.3	111.754	688.656	3003.48	0	0.0156319	0.00242997	67.3595	69.5246	60.708	89.7781	30.3153	95.3175	2883.52	617.134	318.957	904.572	1059.41	3151.21	2741.98	0	463.995	986.754	1144.05	267.333	41.9419	76.1509	309.996	423.704	22.833	440.826	59.33	2600.8	5374.92	0	448.064	10352	226.271	4618.66	1394.69	5.24237e-05	0.0107978	5950	8443.67	396.015	6993.29	2157.28	
3.355	1639.87	344.347	361.968	111.327	1192.9	103.111	1224.69	12102	468.846	225.175	724.196	2244.06	2910.98	15386.6	0	0.00894613	81.6869	2029.73	781.465	0.0832945	715.38	932.868	404.226	438.736	2376.99	231.339	2017.44	0.00130522	2364.12	0.0174889	1214.74	6385.97	2293.41	19608.4	106.732	775.994	2941.38	0	0	0	36.1754	52.8162	66.4272	98.6624	29.1419	57.8043	2824.19	676.364	311.391	885.944	1057.76	3173.37	2727.39	0.00556164	424.9	925.916	1130.4	249.305	40.7183	67.4133	239.008	453.887	17.5895	418.053	53.7721	2602.04	5373.86	0	463.752	10360.7	262.518	5005.51	1401.38	8.38502e-05	0	5893.43	8436.23	396.499	7114.41	2131.58	
3.36	1890.95	382.763	365.5	106.669	1262.11	97.7387	1202.63	12228.4	515.015	249.068	712.348	2183.61	2666.12	14231.9	0	0	59.289	1748.85	636.036	0.0155513	611.29	786.104	326.029	460.516	2499.51	224.284	1971.32	0	2464.94	0.0257021	1214.54	6406.72	2309.62	17196.4	102.526	880.079	2870.49	0	0	0	17.6596	30.5426	71.9375	107.005	27.3745	34.7053	2770.13	731.237	304.999	869.643	1058.5	3192.58	2672.93	0.0553235	386.976	868.509	1115.91	231.01	38.8789	61.5342	173.146	451.065	12.8301	394.791	48.8306	2602.97	5372.81	0	486.385	10372.8	310.338	5481.79	1415.04	0.000119177	0	5819.83	8429.56	407.22	7080.08	2111.68	
3.365	2161.93	421.827	367.5	101.175	1330.14	91.882	1167.74	12320.2	567.035	276.155	698.767	2116.99	2398	12994.6	0	0	36.6044	1526.11	506.088	0	527.3	665.31	263.867	481.844	2630.46	216.693	1921.46	0.0374223	2567.9	0.00538316	1214.33	6386.72	2317.04	14857.5	99.3085	1002.95	2791.52	0	0	0	6.75683	12.4901	76.9304	114.455	25.0031	20.9794	2719.76	773.764	299.7	855.601	1059.57	3208.99	2609.9	0	350.173	813.01	1097.82	213.469	37.0771	58.9038	90.9731	428.511	90.0387	371.399	45.0843	2603.64	5371.77	0	517.102	10387.2	373.163	6050.34	1435.7	0	0	5750.89	8423.83	424.559	6933.8	2088.33	
3.37	2422.71	462.348	367.723	94.781	1394.88	85.3703	1118.36	12380	624.496	306.261	683.58	2045.11	2118.7	11720.8	0	0	14.2274	1348.57	392.689	0	461.112	567.277	215.534	502.09	2769.81	208.714	1868.75	0.0898125	2672.55	0	1214.1	6317.18	2313.58	12573.7	97.2385	1145.1	2705.67	0	0	0	0.630046	2.2472	81.1577	120.75	22.1361	12.6577	2670.14	797.874	295.413	843.758	1061.26	3222.84	2552.87	0	314.487	758.453	1073.23	197.606	35.4762	57.2525	34.8628	396.65	219.901	348.035	43.1312	2603.81	5370.76	0	558.329	10403	355.317	6702.34	1463.28	0.000412846	0	5694.97	8418.62	444.642	6703.63	2055.51	
3.375	2649.66	504.489	365.977	87.4597	1454.18	78.1739	1053.32	12412.9	686.798	339.125	667.01	1969.34	1842.8	10456.4	0	0	0	1206.82	296.696	0	410.346	489.824	177.742	520.517	2917.35	200.524	1814.2	0.0250182	2778.26	0	1213.86	6191.06	2297.5	10372.4	96.4569	1305.4	2614.68	0	0	0	0.00121537	0	84.4256	125.698	18.8863	7.44646	2619.26	807.715	292.068	834.043	1062.24	3234.3	2502.78	0.0134204	279.975	703.904	1040.18	184.16	34.0734	56.492	8.85272	370.836	333.92	324.971	43.4455	2603.54	5369.76	0	613.249	10419.1	203.58	7421.93	1498.61	0.00030436	0	5650.37	8413.53	463.847	6408.85	2009.72	
3.38	2828.69	547.736	362.136	79.2509	1505.95	70.4764	971.929	12425.5	753.236	374.44	649.397	1891.23	1580.36	9260.88	0	0	0	1094.3	218.186	0	372.797	430.342	147.509	536.344	3071.91	192.31	1758.92	0	2884.26	0	1213.6	6003.75	2267.51	8346.98	97.0815	1482	2520.72	0	0	0	0	0	86.595	129.175	15.3536	3.95749	2566.94	811.526	289.597	826.368	1062.57	3243.47	2457.99	0.155616	246.727	648.874	997.712	173.681	32.9543	175.744	0	281.69	432.967	302.392	47.2827	2602.99	5368.85	0	685.817	10434.6	78.7469	8177.45	1543.79	0	0	5615.23	8408.51	479.239	6060.69	1948.71	
3.385	2954.02	591.203	356.144	70.2399	1548.35	62.3858	874.13	12424.4	822.979	411.69	631.161	1812.58	1328.69	8168.49	0	0	0	1007.73	156.627	0	346.424	386.289	123.262	548.795	3230.85	184.267	1704.11	0	2989.72	0	1213.31	5753.63	2222.42	6615.59	99.2016	1672.81	2426.17	0	0	0	0.00102085	0.000131861	87.5777	131.116	11.6351	1.41487	2514.02	813.688	287.937	820.632	1062.41	3250.4	2418.44	0	214.882	593.006	946.196	166.493	32.2216	634.807	0	77.3536	491.626	280.413	56.5042	2602.29	5368.11	0	782.485	10450.5	34.6366	8931.18	1600.44	0	0	5588.9	8404.5	490.087	5672.48	1874.91	
3.39	3027	633.771	348.02	60.5841	1579.86	54.0179	760.476	12414.4	894.563	450.054	612.786	1735.16	1091.87	7161	0	0	0.0458841	945.84	110.943	0	329.37	355.203	104.613	557.175	3391.27	176.58	1651	0	3093.71	0.520303	1213	5442.9	2161.69	5201	102.875	1873.71	2333.34	0	0	0	0.00701799	0.0332902	87.329	131.504	7.83214	0	2461.61	814.646	287.023	816.721	1061.81	3255.13	2386.04	0.000947069	184.609	536.373	886.803	162.724	31.9218	1252.22	0	6.3217	328.099	259.108	72.3193	2601.47	5367.57	0	909.693	10467.8	25.2171	9649.65	1669.41	0.000221766	0	5570.97	8401.76	498.368	5264.99	1796.23	
3.395	3054.78	674.126	337.869	50.5088	1599.46	45.5061	632.179	12396.8	966.406	488.962	594.762	1660.76	880.604	6239.2	0	0	0.0195533	907.37	79.7588	0	320.167	334.761	91.2607	560.918	3550.41	169.417	1600.67	0	3195.24	60.8152	1212.65	5077.74	2085.37	3998.5	108.128	2080.97	2244.18	0	0	0	0	0	85.8467	130.364	4.05776	0	2412.35	813.186	286.787	814.511	1060.94	3257.73	2363.44	0.112015	156.265	480.213	819.199	162.317	32.0399	1773.93	0.0149657	2.44648	90.3702	238.524	95.1984	2600.58	5367.21	0	1068.25	10473.7	24.1218	10294	1750.43	0	0	5561.01	8399.58	506.821	4860.49	1720.91	
3.4	3052.75	710.818	325.871	40.2831	1606.58	36.9923	491.274	12368.1	1037.3	527.975	577.549	1590.94	694.594	5417.42	0	0	0.0052851	890.812	61.2829	0	317.745	323.128	82.7304	559.647	3705.67	162.911	1554.03	0	3293.33	152.125	1212.25	4666.6	1994.04	3054.22	114.949	2294.08	2160.35	0	0	0	0	0	83.1594	127.743	0.543828	0	2369.91	808.36	287.153	813.861	1059.89	3258.29	2353.28	0	151.613	442.165	746.42	165.062	32.5108	2087.48	0.00581193	4.7349	5.57962	218.681	108.488	2599.65	5367	0	1256.15	10481.3	25.6168	10801	1842.3	0.000124964	0	5558.45	8397.39	512.653	4476.92	1650.52	
3.405	3047.78	742.622	312.287	30.2228	1601.26	28.6099	341.164	12319	1106.01	566.141	561.533	1527.07	527.107	4705.93	0	0	0	894.573	53.6695	0	321.304	318.935	78.481	553.203	3854.63	157.171	1511.78	0	3386.92	232.256	1211.8	4216.94	1888.92	2341.82	123.292	2508.84	2083.29	0	0	0	0.000202422	0	79.3196	123.708	0	0.00571314	2336.97	799.894	288.036	814.602	1058.56	3256.98	2357.67	0	167.637	422.062	671.957	170.649	33.2281	2184.93	0	7.08335	0.681218	199.573	79.7037	2598.73	5366.96	0	652.415	10489.7	28.5082	11017.5	1942.53	5.57341e-05	0	5562.52	8395.29	505.732	4068.81	1558.21	
3.41	3043.14	768.589	297.442	20.6784	1584.02	20.4911	187.437	12234.4	1170.69	602.29	547.029	1470.18	374.558	4108.83	0	0	0	916.666	55.1578	0	330.298	321.077	77.9479	541.669	3995.03	152.27	1474.39	0	3475	304.046	1211.28	3731.3	1771.6	1791.63	133.078	2717.43	2014.26	0	0	0	0.000446778	0.014871	74.4062	118.339	0	0.0026139	2314.17	786.627	289.337	816.536	1057.1	3254.1	2377.74	0.142227	194.649	417.461	599.167	178.701	34.0523	2174.68	0.0207824	9.961	7.15101	181.182	42.6613	2597.85	5367.08	0	144.302	10497.9	32.0637	10988.2	2047.58	0	0	5572.18	8393.59	490.758	3632.1	1451.43	
3.415	3038.56	788.078	281.714	12.0379	1555.88	12.7528	47.8485	12095.3	1229.48	635.311	534.291	1421.03	237.975	3621.83	1.47635e-05	0	0	955.136	64.0784	0	344.425	328.609	80.5631	525.363	4124.99	148.253	1442.19	0	3556.5	380.552	1210.7	3216.53	1643.93	1368.31	144.186	2911.75	1954.3	0	0	0	0.0058033	0	151.852	111.732	0.00490768	0.000900882	2298.37	769.476	290.938	819.424	1055.5	3249.98	2412.82	0	225.631	422.721	531.148	188.817	34.8241	2096.93	0	13.2563	14.4413	163.495	29.1076	2597.04	5367.37	0	19.7624	10507.9	35.9752	10911.6	2151.7	0.000764628	0	5586.13	8392.4	473.345	3205.18	1344.18	
3.42	3034.17	800.754	265.511	4.77267	1518.25	5.52181	0	11879.8	1280.8	664.231	523.508	1380.12	120.428	3228.07	9.88412e-06	0	0	1008.35	78.7065	0	363.618	340.878	85.7093	504.817	4242.78	145.143	1415.38	0	3630.26	471.398	1210.05	2691.32	1508.7	1062.11	156.468	3084.57	1904.12	0	0	0	0	0	290.011	166.302	0.00519514	0	2280.94	751.753	292.705	822.986	1053.84	3245.04	2460.58	4.30936e-06	255.762	431.169	469.797	200.568	270.207	1984.52	13.0759	16.6746	16.5745	146.515	30.8699	2596.35	5367.84	0	25.0242	10520.8	40.1665	10858.2	2247.48	0	0	5602.87	8391.67	458.496	2830.34	1246.43	
3.425	3030.03	806.538	249.271	0	1472.86	0	0	11566.3	1323.37	688.275	514.814	1347.67	30.1712	2840.47	2.12558e-06	0	0	1075.04	97.4283	0	388.017	357.525	92.8191	480.73	4347.31	142.94	1394.06	0	3695.39	580.725	1209.33	2171.56	1369.07	866.337	169.828	3229.83	1864.16	0	387.49	144.636	0	0	422.962	257.562	0.00149885	0	2252.74	733.427	294.483	826.894	1052.28	3239.73	2517.7	0.114544	282.376	438.688	414.898	213.521	526.793	1849.88	10.2772	20.1628	18.269	130.156	36.4048	2595.75	5368.49	0	38.9276	10536.8	44.6065	10815.3	2328.97	0	0	5620.71	8391.17	449.403	2533.2	1163.57	
3.43	3026.16	805.587	233.411	0	1421.58	0.000165546	0.0960246	11136.3	1356.28	706.923	508.278	1323.6	0	2370.13	0	0	0	1154.24	119.062	0	417.95	378.427	101.464	453.892	4437.58	141.626	1378.23	0	3750.72	709.791	1208.54	1660.57	1228.68	769.897	184.244	3343.23	1834.56	148.023	592.959	293.637	0.000809286	0.0308571	508.514	338.912	0.000425078	0.000819601	2206.8	714.63	296.098	830.778	1050.88	3234.56	2580.8	0	304.115	443.522	365.936	227.216	726.191	1699.54	11.6551	23.6887	20.8399	114.193	42.0127	2595.36	5369.34	0	43.6268	10558.2	49.2651	10771.8	2392.61	0.000734113	0	5637.86	8391.38	449.659	2321.46	1103.13	
3.435	3022.59	798.237	218.343	0	1366.35	0	0.243928	10577.3	1379.01	719.818	503.915	1307.7	0	2015.8	0	0	0	1245.24	142.907	0	453.902	403.708	111.393	425.117	4513.35	141.168	1367.81	0	3795.2	858.097	1207.69	1153.84	1091.56	760.202	199.837	3422.4	1815.23	219.197	643.674	317.335	0.00594735	0	537.652	402.273	0	0.00446462	2138.91	695.668	297.36	834.221	1049.75	3230.05	2647.13	0.00109667	320.803	445.66	322.192	241.18	861.316	1537.88	13.3615	27.1988	23.4495	98.6243	47.5811	2595.37	5370.4	1.07148e-08	48.2123	10584.8	54.1128	10728.3	2436.28	0	0	5652.49	8392.63	462.643	2198.69	1073.63	
3.44	3019.33	784.964	204.443	0.0173322	1309.04	0.0211131	0.0802692	9886.69	1391.41	726.887	501.687	1299.63	0.0697044	1717.66	0	0	0	1347.67	168.692	0	496.343	433.637	122.448	394.981	4574.55	141.519	1362.61	0	3827.87	1021.63	1206.8	658.472	961.469	826.441	216.725	3466	1805.88	231.876	739.35	358.76	0	0	533.778	432.934	0	0	2047.24	676.95	298.066	836.777	1049.03	3226.8	2714.8	0.105726	333.101	445.902	283.619	254.92	932.939	1369.83	14.1916	30.6296	25.4031	83.9296	53.0355	2595.78	5371.67	4.26017e-06	54.4134	10613.7	59.1183	10686.1	2459.83	0	0	5662.78	8394.56	488.71	2161.33	1077.38	
3.445	3016.36	766.33	192.032	0.0059097	1251.39	0.00645615	0	9075.26	1393.63	728.222	501.514	1299	0.13837	1447.49	0	0	0	1461.31	196.518	0	545.636	468.607	134.589	363.967	4621.65	142.618	1362.41	0	3847.76	1193.49	1205.88	205.252	839.854	959.284	234.838	3474.4	1806.05	263.257	882.77	428.957	0	0.010089	514.628	440.802	0	0.000260264	1933.43	658.547	298.01	837.976	1048.85	3225.42	2782.79	0	342.069	445.068	249.594	267.929	941.521	1204.29	14.6301	33.8963	26.606	72.2917	58.0721	2596.55	5373.16	0	60.0652	10643.6	64.2457	10647.1	2463.83	0.000382651	0	5666.96	8396.86	526.067	2197.62	1112.01	
3.45	3013.66	742.947	181.392	0.00140759	1194.93	0.00290127	0	8171.52	1386.11	724.063	503.281	1305.36	0.0317557	1194.95	0	0	0	1586.01	226.764	0	602.041	509.061	147.842	332.482	4655.21	144.397	1366.91	0	3853.96	1367.93	1204.94	0	727.106	1148.82	253.909	3449.06	1815.15	312.412	1036.56	506.802	0.000856805	0.0038544	490.221	434.213	0	0.000577773	1803.06	639.926	296.991	837.351	1049.14	3226.53	2850.94	0.0032369	348.753	443.945	219.011	279.701	892.629	1054.67	14.6792	36.8963	27.0543	67.547	62.5256	2597.72	5374.84	4.87633e-08	64.5776	10671.6	69.4552	10611.3	2449.42	0	0	5663.21	8399.41	570.937	2287.81	1170.76	
3.455	3011.26	715.434	172.753	0	1140.91	0	0	7227.71	1369.52	714.794	506.844	1318.22	0	959.134	0	0	0	1721.66	260.017	0	665.707	555.347	162.289	300.899	4675.85	146.78	1375.8	0	3845.65	1551.76	1204	0	625.103	1385.1	273.532	3392.32	1832.52	368.149	1200.55	590.161	0.00142654	0.00422629	465.612	419.557	0	0.000476232	1663.48	620.834	294.824	834.451	1049.42	3230.7	2920.14	0.0324915	354.102	443.335	191.256	289.755	794.697	922.97	14.3279	39.5158	26.6481	69.6718	66.3386	2599.31	5376.67	0	68.2385	10699.2	74.707	10576.3	2417.83	4.89718e-05	1.88868e-07	5695.38	8401.71	619.971	2420.14	1249.19	
3.46	2999.81	684.402	166.297	0	1090.33	0	0	6318.53	1344.72	700.877	512.037	1337.08	0	740.125	0	0	0	1868.42	297.073	0	736.696	607.78	178.06	269.882	4683.99	149.692	1388.71	0	3822.15	1757.68	1203.08	0	534.418	1661.1	293.253	3307.46	1857.4	430.031	1386.46	685.73	0	1.28472	443.683	400.919	0	0.000101089	1520.74	601.156	291.358	828.873	1051.03	3238.44	2993.38	0	358.983	444.022	166.085	297.658	658.099	808.954	13.6032	41.634	25.2706	76.3999	69.4656	2601.23	5378.59	4.36211e-05	71.1563	10725.9	79.9615	10541.4	2370.21	0	0	5763.31	8403.45	670.778	2314.45	1345.39	
3.465	2968.69	650.421	162.178	0	1043.91	0	0	5486.43	1312.71	682.91	518.679	1361.38	0	538.504	0	0	0	2028.16	338.884	0	815.032	666.683	195.322	240.089	4679.49	153.052	1405.27	0	3782.9	1989.28	1202.18	0.81618	453.976	1974.4	312.475	3198.36	1889.01	499.531	1593.11	793.446	4.99554e-06	33.9238	426.03	381.354	0	0	1380.03	580.677	342.072	838.898	1053.9	3250.12	3072.47	0.00166839	364.16	446.582	143.471	303.036	526.699	715.074	12.5446	43.1423	22.865	85.6732	71.87	2603.28	5380.56	0.000335241	73.3092	10751.1	85.1782	10508.8	2307.77	0.000223282	0	5755.93	8404.16	722.882	1694.01	1460.7	
3.47	2915.64	614.056	160.52	0	1002.06	0	0	4745.51	1274.6	661.543	526.576	1390.53	0	356.165	0	0	0	2203.94	386.53	0	900.69	732.432	214.275	212.11	4661.47	156.781	1425.08	0	3727.52	2234.06	1201.32	0.251285	382.488	2326.37	330.524	3069.18	1926.5	569.995	1797.03	900.933	0	48.2324	413.38	363.065	0	0	1247.15	559.338	438.272	852.868	1055.91	3266.03	3157.77	0.00269999	370.276	452.054	123.466	305.602	351.21	643.15	11.1929	43.9463	19.4476	96.2053	73.5386	2604.84	5382.46	0	74.7221	10774.4	90.3324	10480.2	2231.88	0.0002312	2.16605e-06	5681.92	8398.27	776.971	1145.56	1598.01	
3.475	2839.75	575.847	161.436	0	965.087	1.46912e-06	0	4099.35	1231.58	637.438	535.53	1423.9	0	196.334	5.28432e-05	0	0	2399.91	441.166	0	994.25	805.5	235.161	186.462	4628.07	160.799	1447.72	0	3655.87	2477.59	1199.45	0	319.406	2719.71	346.715	2924.47	1969.02	636.712	1984.65	1001.29	0	51.0636	405.922	347.5	0	0	1126.28	537.373	523.375	851.733	1057.96	3286.25	3249.01	0.00134122	377.847	460.983	106.21	305.172	148.441	592.31	9.60179	43.9803	15.1075	107.517	74.4801	2605.15	5384.21	0	75.4517	10795.3	95.4385	10456.1	2144.09	0.000301219	2.65046e-09	5592.44	8381.72	834.38	682.969	1758.61	
3.48	2740.88	536.326	165.044	0	933.134	1.36739e-05	0	3541.54	1184.87	611.304	545.341	1460.84	0	69.8521	4.81748e-05	1.19618e-05	0	2621.15	504.028	0	1098.63	886.497	258.245	163.555	4576.39	165.034	1472.77	0	3568.23	2707.57	1188.05	0	265.489	3156.15	360.416	2769.12	2015.7	699.58	2156.76	1095.04	0	54.7231	403.641	335.429	0	0	1018.26	515.389	585.407	836.309	1060.72	3310.66	3347.42	0.00198531	385.469	472.327	91.7989	301.649	226.276	556.449	7.82007	43.2082	10.0499	119.265	74.7242	2603.64	5385.75	0	75.5635	10813.2	100.515	10436.6	2046.58	0.00034112	3.49096e-08	5482.8	8360.33	895.895	824.673	1940.12	
3.485	2619.79	496.055	171.472	8.58375	906.34	7.52046e-06	0	3055.04	1135.66	583.829	555.806	1500.68	0	0	0	1.79766e-05	0	2873.28	576.396	0	1217.38	976.118	283.789	143.638	4502.66	169.412	1499.8	0	3464.9	2912.87	1164.85	0	221.57	3634.08	371.079	2607.66	2065.68	759.424	2316.1	1183.68	0	60.7621	406.528	324.922	0	0	921.822	494.378	584.285	797.844	1057.72	3338.94	3455.83	0	391.78	484.564	80.4333	295.048	306.263	525.411	5.90778	41.6277	4.68051	131.377	74.3232	2600.92	5387.06	3.56301e-05	75.1271	10827.7	105.57	10421.7	1942.08	0.000332549	1.08289e-07	5335.12	8350.41	960.265	791.13	2136.16	
3.49	2478.14	455.434	180.864	47.4804	884.768	2.02897e-06	0	2623.36	1085.09	555.68	566.726	1542.78	0	0	0	6.95543e-06	0	3162.5	659.614	0	1353.58	1076.17	312.265	126.601	4402.4	173.873	1528.37	0	3346.91	3081.76	1130.11	0	188.056	4146.96	378.232	2444.52	2118.11	814.512	2458.34	1264.66	27.2414	66.9831	378.713	298.64	0	0	835.903	475.381	482.043	744.872	1022.61	3370.54	3574.28	0	396.715	496.964	72.3883	285.472	401.274	500.947	3.91821	90.133	59.0603	144.07	73.3422	2596.64	5388.13	0	74.2169	10838.6	110.609	10411.4	1834.18	0.000352851	0	5160.32	8351.22	1025.12	486.225	2340.14	
3.495	2318.59	414.68	193.401	64.1719	868.539	5.55887e-06	0	2259.03	1034.19	527.456	577.909	1586.49	0	0	0	1.85785e-06	0	3495.43	754.988	0	1509.88	1191.01	344.568	112.136	4271.18	178.357	1558.06	0	3215.42	3206.36	1084.57	0	164.98	4686.12	381.499	2283.58	2172.17	864.595	2591.38	1337.84	22.7877	72.4253	317.116	251.844	0	0	760.439	459.287	300.319	704.073	1018.73	3404.78	3701.86	0	401.033	509.04	67.918	349.999	515.932	483.711	1.90946	53.0787	147.323	157.554	71.8624	2599.82	5388.89	0.000148307	72.9082	10845.8	115.63	10406.2	1727.03	0.00030119	1.00368e-06	4971.68	8355.72	1087.3	437.173	2546.35	
3.5	2145.03	373.867	209.281	76.4088	857.789	1.6835e-05	0	1952.88	983.874	499.686	589.18	1631.18	0	0.252837	0	0	0	3878.53	863.682	0	1688.32	1325.9	381.984	100.062	4105.12	182.812	1588.48	0	3072.08	3281.32	1029.51	0	152.108	5244.05	380.602	2128.04	2227.09	914.605	2746.1	1416.77	23.5383	77.3125	286.728	206.661	0	0	695.73	446.82	214.762	674.25	1044.58	3441.31	3838.87	0	405.918	521.216	67.2352	452.33	556.081	472.904	0	101.831	206.05	171.962	69.9718	2609.02	5389.3	9.46237e-05	71.2816	10849.3	120.63	10406.2	1624.99	0.000374041	2.29746e-06	4769.12	8361.43	1143.24	428.487	2748.2	
3.505	1963.07	333.274	228.734	94.5104	852.711	2.75293e-05	0	1704.84	934.901	472.801	600.376	1676.25	0	0.0722986	0	0	0	4315.24	986.586	1.1045e-05	1890.09	1486.19	426.057	90.1517	3901.79	187.195	1619.23	0	2918.9	3309.07	966.694	0	149.011	5825.82	375.364	1980.3	2282.12	969.462	2893.4	1499.31	27.1728	81.9158	308.173	191.431	0	0	641.337	438.526	196.705	645.633	1060.41	3479.69	3986.01	0	412.63	534.915	70.4867	491.032	557.878	467.105	0	331.868	233.317	187.334	67.7625	2615.27	5389.33	2.79094e-05	69.412	10849.2	125.607	10411	1530.92	0.000165203	0	4555.23	8368.37	1190.22	423.9	2939.09	
3.51	1780.35	293.4	251.993	117.389	853.522	0	0	1509.13	887.995	447.126	611.355	1721.12	0	0	0	0	0	4806.8	1124.11	8.10712e-06	2110.57	1677.14	478.526	82.1168	3661.27	191.467	1649.93	0	2758.17	3299.58	898.304	0	155.129	6449.42	365.722	1841.98	2336.55	1020	3029.47	1575.26	29.5389	86.2601	365.616	209.228	5.9539e-08	0	596.377	434.816	192.06	616.755	1086.65	3518.72	4142.85	0	422.821	552.263	77.1961	728.512	529.907	464.993	0	354.297	230.143	203.79	65.3328	2615.13	5388.96	0	67.3745	10845.7	130.557	10281.3	1446.37	0	3.86608	4335.26	8376.1	1226.24	267.529	3111.97	
3.515	1606.31	254.527	279.306	143.342	860.508	0	0	1358.58	843.712	422.947	621.985	1765.26	0	0	0	5.17979e-05	419.647	5352.65	1276.14	0	2335.06	1903.46	541.415	75.718	3387.18	195.592	1680.23	0	2592.35	3245.23	826.942	0	169.698	7129.41	351.73	1714.42	2389.76	1067.36	3158.47	1646.99	31.3359	90.3037	435.858	245.241	1.27041e-07	0	560.13	435.994	182.527	588.88	1101.04	3557.22	4305.81	0	437.379	574.022	86.0073	1000.22	498.283	465.426	0	276.469	216.555	221.563	62.7757	2612.22	5388.19	0	65.2363	10839.3	135.482	9978.12	1372.2	0	21.2537	4116.68	8383.26	1248.81	91.4347	3257.39	
3.52	1445.65	216.652	310.893	173.172	873.954	0	0	1245.09	802.31	400.47	632.16	1808.2	0	0	0	417.591	303.867	5950.03	1442.16	0	2548.79	2166.82	616.952	70.7754	3087.82	199.544	1709.81	0	2423.93	3147.79	755.563	0	191.725	7864.83	333.575	1597.64	2441.26	1113.5	3283.42	1717.06	33.1639	94.0545	502.072	285.721	1.94817e-07	0	532.175	442.262	170.297	562.869	1111.84	3594.05	4470.68	0	455.98	599.512	96.331	1059.69	470.094	467.351	0.0439704	317.099	200.722	240.96	60.1808	2609.38	5387.04	0	63.0644	10830.3	140.387	9590.37	1308.93	0	26.4428	3907.8	8388.53	1253.05	23.8514	3359.53	
3.525	1299.39	179.601	346.959	208.005	894.184	0	0	1160.97	763.772	379.739	641.798	1849.53	0	0	0	550.498	366.459	6593.62	1625.38	0	2738.91	2450.74	706.636	67.1614	2777.88	203.299	1738.4	0	2255.17	3012.12	687.468	0	220.252	8645.06	311.607	1490.49	2490.61	1158.75	3404.87	1785.78	34.9152	97.5584	562.123	325.468	2.64272e-07	32.6721	512.258	453.721	160.194	539.336	1119.79	3627.92	4631.85	0	477.692	627.568	108.187	983.436	446.534	469.725	0	365.967	185.409	262.055	57.6302	2606.61	5385.52	0	60.9137	10819	145.282	9188.45	1256.63	0	24.5717	3718.23	8391.08	1232.91	6.75377	3402	
3.53	1167.97	143.349	387.61	248.352	921.758	0	0	1099.9	728.032	360.665	650.835	1888.92	0	0	0	446.578	449.637	7275.07	1832.71	426.228	2894.88	2729.05	811.231	64.8079	2476.46	206.84	1765.77	0	2088.09	2842.05	625.434	0	254.561	9459.26	286.366	1392.25	2537.44	1201.74	3519.85	1851.19	36.5467	100.865	619.593	363.339	3.35635e-07	33.2496	500.215	470.309	152.745	518.886	1126.11	3657.6	4785.51	0	501.402	657.1	121.538	886.15	426.349	471.507	0.012985	362.361	170.943	284.501	55.1919	2603.55	5383.64	0	58.8347	10806	150.179	8801.09	1215.06	0	21.3072	3556.95	8390.73	1185.11	1.90027	3373.66	
3.535	1051.11	108.441	432.823	294.324	955.95	0	0	1056.78	695.07	343.159	659.23	1926.12	0	0	0	547.369	531.687	7991.31	2071.43	464.693	3009.32	2976.18	931.101	63.6632	2193.42	210.153	1791.73	0	1923.83	2641.53	569.878	0	294.236	10291.8	258.679	1302.85	2581.47	1241.44	3625.83	1911.75	38.0741	104.011	677.317	399.292	0	30.5086	496.03	491.797	147.296	502.042	1130.85	3682.13	4926.38	0	525.976	686.973	136.113	816.498	408.471	471.706	38.1112	330.868	157.443	307.504	52.9262	2600.16	5381.43	0	56.8666	10791.7	155.096	8439.06	1183.74	0	18.6983	3432.5	8387.75	1113.76	0	3270.7	
3.54	947.762	75.649	482.419	345.835	998.483	0	0	1027.57	664.889	327.177	666.963	1960.93	0	0	7.75916	625.929	628.649	8747.83	2347.86	434.831	3078.92	3168.73	1066.23	63.6555	1933.89	213.229	1816.14	143.435	1759.61	2415.91	520.624	0	339.182	11125.7	229.689	1222.21	2622.5	1276.88	3720.26	1965.9	39.5056	109.119	736.348	434.027	0.000186327	34.1233	499.696	517.783	143.774	489.226	1134.08	3700.8	5050.82	0	549.248	715.305	151.472	767.969	392.258	469.49	425.209	301.746	145.008	330.206	50.8805	2596.7	5378.91	0	55.0414	10776.6	160.052	8109.57	1161.96	0	16.5386	3350.27	8382.73	1030.47	0	3109.13	
3.545	856.269	45.7875	535.969	402.617	1048.54	0	0	1009.13	637.459	312.691	674.027	1993.21	0	0	545.507	710.69	740.954	9542.17	2667.2	552.878	3105.11	3286.66	1216.03	64.6918	1700.65	216.065	1838.91	226.817	1596.89	2171.82	477.37	0	389.412	11944.6	200.68	1150.05	2660.42	1306.57	3799.18	2011.34	40.8349	120.695	731.607	449.103	0	36.7368	511.09	547.675	142.502	480.789	1135.83	3713.13	5154.19	0	563.28	737.082	167.069	727.775	377.311	318.377	329.351	282.967	133.685	351.507	209.235	2593.24	5376.09	0	53.3805	10761	165.065	7818.19	1148.84	0.00140321	19.4209	3315.01	8376.88	946.072	192.014	2913.01	
3.55	774.351	19.7658	592.831	464.098	1106.49	0	0	999.2	612.695	299.653	680.431	2022.92	0	0	244.39	811.702	864.968	10359.8	3030.17	657.226	3102.63	3316.58	1384.87	66.6756	1493.54	218.658	1859.97	264.414	1437.36	1918.13	439.717	0	444.88	12735.9	172.008	1085.99	2695.16	1328.88	3858.31	2045.57	42.0589	140.579	623.337	431.798	4.46214e-06	38.0871	529.863	580.743	143.753	477.047	1136.14	3718.65	5232.83	0	563.617	748.778	182.329	693.238	363.333	85.7754	288.746	269.344	123.409	370.201	578.767	2589.77	5373	0	51.8952	10745.3	170.153	7568.58	1143.26	0	26.3137	3328.8	8370.95	865.906	363.73	2700.43	
3.555	700.144	0.756549	652.139	529.264	1172.11	0	0	996.288	590.506	287.996	686.194	2050.03	0	0	306.572	924.355	998.14	11178	3431.35	774.113	3098.23	3312.52	1579.36	69.5136	1307.12	221.012	1879.28	312.53	1283.79	1666.56	407.198	0	505.371	13490.1	143.445	1029.58	2726.75	1342.4	3893.93	2066.44	146.087	168.122	509.733	393.717	4.56415e-05	39.282	555.435	616.102	147.674	478.316	1135.03	3716.82	5282.47	0	555.6	751.445	196.699	665.336	350.124	0.180306	302.174	257.97	114.059	385.386	965.212	2586.3	5369.63	0	50.5805	10729.8	175.326	7360.88	1143.87	0.000488719	30.4957	3391.12	8365.01	790.32	493.913	2483.3	
3.56	633.439	0	712.982	596.784	1245.24	0	0	999.739	570.761	277.647	691.343	2074.59	0	0	328.625	1049.11	1137.62	11970.5	3863.32	907.14	3094.27	3308.4	1801.83	73.1322	1137.02	223.134	1896.88	385.835	1138.94	1427.08	379.321	0	570.55	14199.9	116.231	980.281	2755.25	1346.01	3903.13	2072.22	298.542	231.949	423.265	344.987	4.1766e-05	40.3874	586.962	652.739	154.352	484.943	1132.46	3707.06	5299.5	0	541.302	745.508	209.549	643.798	337.498	0	312.33	248.668	105.43	396.573	1348.66	2582.83	5366	0	49.4447	10715	180.592	7191.73	1149.07	0	29.2101	3497.18	8358.93	716.802	568.233	2267.3	
3.565	574.129	0	775.084	665.096	1324.96	0	0	1009.52	553.319	268.525	695.914	2096.66	0	0	341.195	1180.83	1279.61	12712	4317.16	1050.42	3090.37	3304.52	2050.72	77.4549	981.366	225.03	1912.76	472.43	1005.36	1196.75	355.641	0	639.822	14860.4	91.5007	937.537	2780.77	1339.12	3884.39	2062.04	376.824	291.379	356.507	293.98	1.4384e-05	41.2388	623.771	689.59	163.864	497.335	1128.33	3688.67	5280.61	0	521.454	731.588	220.424	627.955	325.469	0	308.738	241.797	42.5549	403.865	1796.73	2579.34	5362.12	0	48.4455	10700.9	185.951	7058.4	1157.45	0.000374433	23.8031	3638.08	8352.58	642.817	588.004	2055.55	
3.57	521.75	0.052935	838.635	732.721	1409.91	0	0	1026.33	538.02	260.538	699.944	2116.34	0	0	363.919	1314.23	1420.83	13382.8	4784.26	1199.8	3086.87	3300.65	2321.84	82.4336	841.939	226.712	1927	567.104	885.094	975.008	335.76	492.455	712.749	15468.2	69.1029	900.724	2803.45	1321.65	3837.58	2035.78	409.954	360.186	300.096	243.341	0	41.8598	665.16	725.506	176.272	516.002	1122.48	3660.9	5222.56	0	496.489	710.243	228.898	616.845	292.477	0.052546	306.22	236.666	0	407.629	2219.52	2575.81	5357.97	0	47.6191	10688.1	191.399	6955.06	1167.55	0	17.2794	3802.54	8345.83	568.371	545.277	1851.28	
3.575	475.677	0.0208264	903.545	799.251	1498	0	174.223	1051.4	524.695	253.594	703.474	2133.77	0	0	395.196	1448.23	1557.76	13972.1	5256.51	1351.42	3083.99	3297.17	2601.3	88.0258	720.291	228.193	1939.65	675.301	779.593	773.977	319.384	1373.83	789.186	16021.9	48.563	869.231	2823.46	1294.19	3764.31	1994.32	363.263	413.02	244.098	191.209	0	42.2636	710.233	759.313	191.608	541.581	1114.65	3622.95	5122.82	0	467.239	682.462	234.756	609.939	142.161	0	307.394	232.363	0.206601	408.435	2599.91	2572.21	5353.57	0	47.1345	10676.6	196.923	6876.02	1178.18	0	11.6925	3988.97	8338.58	495.322	438.635	1659.08	
3.58	435.159	0.00251287	969.264	865.156	1586.68	0	864.493	1086.46	513.167	247.598	706.545	2149.08	0	146.24	430.987	1579.74	1688.06	14479.4	5735.59	1501.82	3081.89	3294.26	2868.49	94.2031	616.963	229.486	1950.82	802.918	689.096	597.09	306.384	1655.09	870.736	16521.1	30.069	842.47	2840.99	1257.82	3667.54	1939.38	299.923	471.908	177.59	140.312	0	42.4613	757.601	789.934	209.873	574.853	1104.56	3574.07	4979.99	0	434.585	649.413	237.997	606.715	27.6907	0	310.073	228.359	0	407.019	2905.07	2568.5	5348.91	0	54.2171	10666.6	202.503	6815.9	1188.37	1.01271e-15	7.66662	4217.12	8330.72	425.798	265.293	1483.8	
3.585	399.462	0	1034.76	930.622	1673	0	1037.91	1133.69	503.26	242.453	709.201	2162.43	0	485.109	470.106	1706.25	1812.18	14912.4	6225.71	1649.01	3080.67	3292.06	3109.92	100.955	531.671	230.606	1960.59	953.987	612.095	438.887	296.739	1842.65	960.2	16966.5	14.3455	819.867	2856.24	1214.04	3551.11	1873.2	241.125	537.923	114.69	96.7462	0	42.4648	805.388	816.681	231.055	616.725	1091.9	3513.65	4793.16	0	399.319	612.297	238.812	606.54	2.05862	0	313.159	224.35	0.00204437	404.058	3133.26	2564.7	5344.03	0	103.199	10658.2	209.265	6769.12	1197.42	0	4.95558	4505.29	8322.19	361.139	27.7128	1327.57	
3.59	367.802	0	1098.65	994.836	1753.88	2.60886e-05	1096.21	1195.71	494.798	238.065	711.483	2174	0	711.148	511.036	1825.85	1930.31	15287.7	6727.04	1795.49	3080.39	3290.68	3318.31	108.322	462.779	231.57	1969.08	1125.67	547.039	295.785	290.402	2164.7	1060.55	17360	2.94562	800.87	2869.41	1164.35	3418.99	1798.15	180.346	592.109	115.886	80.6296	0	42.2904	851.56	839.346	255.319	668.141	1076.41	3440.46	4564.1	0	362.476	572.313	237.552	608.726	25.947	0	316.329	220.062	0	401.006	3270.98	2560.83	5338.94	0	82.3298	10651.2	376.116	6730.64	1204.92	1.67292e-15	3.04754	4852.19	8312.97	301.214	0	1184.94	
3.595	339.483	0	1159.32	1056.45	1826.29	2.85879e-05	1243.3	1275.7	487.612	234.343	713.433	2183.95	0	886.075	552.475	1937.06	2041.51	15631.1	7237.14	1943.85	3081.06	3290.13	3489.53	116.387	407.538	232.394	1976.41	1313.25	492.777	169.11	287.279	2617.65	1174.42	17704.8	0	784.975	2880.72	1110.02	3274.32	1716.19	132.055	648.785	122.023	85.9024	0	41.9628	894.437	858.071	283.16	729.978	1057.77	3354.21	4298.07	0	325.266	530.705	234.671	612.442	128.189	0	318.986	215.239	0	400.278	3351.12	2556.94	5333.74	0	51.706	10645.7	553.973	6696.26	1210.65	0	1.62886	5240.63	8303.24	245.162	1.70179	1049.41	
3.6	313.812	0	1215.15	1114.01	1887.59	0	1483.34	1377.66	481.534	231.199	715.09	2192.47	5.92568e-05	1085.58	593.393	2038.92	2144.21	15988.1	7753.66	2094.94	3082.58	3290.37	3620.27	125.269	363.703	233.096	1982.69	1514.33	447.67	63.7912	287.243	3136.09	1304.53	18004.9	0	771.71	2890.37	1051.7	3118.62	1628.41	99.0681	726.229	97.6605	88.3687	0	41.507	932.887	873.151	315.631	802.922	1035.63	3253.87	4001.98	0	288.989	488.901	230.641	616.022	215.114	0.0187056	320.399	209.678	0	403.059	3411.01	2551.85	5328.53	2.5187e-08	44.3191	10641.5	612.434	6662.76	1214.62	0	0.585082	5634.66	8293.15	192.909	0	921.127	
3.605	290.203	0	1264.7	1166.16	1935.77	1.10284e-07	1762.9	1506.54	476.405	228.548	716.496	2199.73	0	1345	633.107	2130.98	2236.73	16375.3	8275.11	2248.54	3084.85	3291.31	3706.37	135.131	329.09	233.692	1988.05	1722.47	410.063	0.868849	290.146	3696.03	1453.97	18264.5	0.0155089	760.646	2898.59	989.69	2952.39	1535.28	77.75	828.671	63.4735	75.6983	0	40.953	966.251	884.959	353.776	886.989	1009.86	3139.69	3684.54	0	255.245	448.785	225.917	617.254	236.007	0.0413066	319.838	203.259	0.0272407	407.362	3463.95	2541.63	5323.41	0	45.0031	10638.4	607.689	6627.92	1216.98	0	0	5965.17	8282.88	145.318	1.59553	803.894	
3.61	268.21	0	1306.89	1211.84	1969.62	0	2060.97	1668.59	472.069	226.309	717.687	2205.91	55.213	1667.8	671.25	2213.63	2317.74	16814.1	8802.36	2403.95	3087.68	3292.79	3740.71	146.161	301.642	234.2	1992.63	1936.87	378.492	0	295.82	4306.9	1625.27	18488.5	0.0162135	751.383	2905.57	923.735	2774.66	1436.58	64.4764	953.129	38.5258	51.7622	0.00100639	40.3339	994.39	893.895	398.265	980.069	980.389	3011.46	3356.29	0	225.545	412.274	220.937	614.664	219.554	0	316.735	195.945	0.17823	408.306	3436.83	2523.41	5318.48	9.76575e-10	45.2507	10636.1	592.502	6590.43	1218.03	0	0	6082.87	8272.71	103.642	0	700.519	
3.615	247.526	0	1341.15	1250.49	1988.91	0	2380.11	1871.49	468.379	224.404	718.701	2211.19	325.383	2049.73	707.736	2287.88	2386.61	17317.2	9352.37	2560.43	3090.84	3294.64	3740.76	158.555	279.699	234.638	1996.55	2159.86	351.69	0	304.076	5012.79	1820.25	18682.2	0.00293235	743.543	2911.53	853.279	2583.46	1331.37	56.347	1097.35	24.1578	28.71	0.0211534	39.685	1017.66	900.368	449.711	1078.26	947.21	2869.61	3028.21	0	200.909	380.761	216.128	607.544	197.352	0	310.656	187.815	0	403.409	3373.47	2496.2	5313.83	6.70371e-09	44.5279	10634.4	586.651	6549.91	1218.9	0	0	6080.53	8262.94	68.8091	0	610.994	
3.62	227.952	0	1367.61	1282.08	1994.35	0	2724.11	2123.65	465.188	222.758	719.574	2215.75	457.218	2481.87	742.735	2355	2443.54	17890.1	9926.09	2717.45	3094.08	3296.62	3739.86	172.507	261.872	235.022	1999.93	2388.24	328.56	0.203099	314.696	5869.97	2040.74	18851.4	0	736.783	2916.68	779.655	2381.94	1221.54	51.4232	1261.67	15.6722	13.6881	0	39.0403	1036.81	904.829	508.567	1177.04	910.496	2715.12	2709.87	0	181.454	355.204	211.875	595.499	179.293	0.0335014	301.387	178.993	0	393.353	3290.06	2459.71	5309.62	6.02094e-09	43.995	10633	584.893	6506.74	1219.67	3.01947e-18	0.000587362	6080.28	8253.92	40.9842	0.581813	533.414	
3.625	209.35	0	1387	1307.16	1987.57	0	3105.61	2432.02	462.358	221.297	720.34	2219.76	528.22	2952.81	776.667	2416.41	2489.74	18530.5	10526.8	2877.17	3097.16	3298.54	3740.14	188.21	246.982	235.371	2002.92	2618.73	308.252	0.0648391	327.409	6913.31	2288.89	19002.1	0	730.768	2921.22	706.08	2178.78	1111.94	49.8613	1445.71	10.6339	5.9779	4.37548e-06	38.4384	1052.94	907.744	574.669	1270.76	870.551	2549.52	2408.55	0	166.136	335.7	208.513	578.411	162.014	0.0283496	288.934	169.667	0.122527	379.839	3165.72	2413.91	5305.97	2.09943e-09	43.6692	10631.6	582.073	6462.06	1220.47	2.0127e-18	0.00193197	6086.45	8245.97	20.2015	0	465.283	
3.63	191.621	0	1400.58	1326.81	1970.96	0	3547.51	2801.86	459.75	219.95	721.035	2223.39	614.45	3466.56	810.168	2473.87	2527.21	19226.6	11149.8	3044.99	3099.79	3300.17	3740.19	205.848	234.032	235.702	2005.65	2849.75	289.985	0	341.889	8178.82	2567.32	19140.7	0	725.182	2925.34	633.031	1978.61	1004.76	51.6389	1650.44	7.89005	2.11925	0.0413521	38.7694	1067.41	909.605	647.47	1351.24	827.878	2374.86	2133.24	3.10847e-11	153.593	321.278	206.332	556.532	142.759	0.0134448	273.615	159.997	0	364.22	2979.52	2359.09	5303.03	1.10243e-10	43.342	10630	577.766	6417.66	1221.76	7.88605e-19	9.93092e-05	6088.69	8239.38	5.87679	0.822979	404.652	
3.635	174.681	0	1410.04	1342.54	1947.51	0	4064.82	3236.4	457.23	218.648	721.692	2226.82	738.66	4059.09	844.082	2529.27	2558.67	19958.1	11786.8	3215.73	3101.77	3301.33	3740.1	225.499	222.158	236.033	2008.23	3081.03	272.94	0	357.744	9689.01	2878.27	19273.6	0	719.726	2929.26	547.316	1766.67	881.347	56.0883	1883.91	6.62762	0.199254	0	40.8664	1081.76	910.915	726.49	1402.76	783.073	2193.68	1882.88	8.06923e-11	142.847	310.718	205.593	530.506	121.53	0	255.953	150.031	0.123255	347.297	2726.44	2295.97	5300.93	0	42.9888	10627.9	573.227	6377.07	1224.06	8.16736e-20	0	6087.78	8234.41	0	0	349.888	
3.64	158.453	0	1417.36	1356.12	1920.59	0	4667.79	3730.01	454.665	217.322	722.346	2230.23	890.252	4751.57	879.397	2585.21	2587.3	20697.4	12430.5	3394.78	3102.86	3301.85	3739.85	247.143	210.503	236.381	2010.81	3311.88	256.295	0	374.587	11456	3226.39	19407.6	0	714.103	2933.17	455.528	1509.34	744.343	62.6791	2149.82	6.27706	0	0	44.7027	1097.58	912.092	811.495	1411.28	736.854	2008.88	1627.9	9.43459e-11	133.279	303.046	206.565	501.318	99.1199	0.116693	236.686	139.76	0.0464663	329.601	2708.68	2225.46	5299.82	0	42.6508	10625	569.027	6342.63	1227.76	0	0	6085.27	8231.3	0	0.21897	299.522	
3.645	142.87	0	1424.72	1369.51	1893.72	9.13114e-06	5364.87	4272.02	451.928	215.905	723.028	2233.78	1056.83	5550.78	917.195	2644.01	2616.62	21411.9	13073.4	3584.46	3102.9	3301.58	3739.31	270.704	198.252	236.764	2013.52	3542.26	239.256	0	391.977	13514.2	3624.37	19549.3	0	708.036	2937.27	361.638	1241.13	604.041	71.0773	2447.62	6.49539	0	0.0460006	50.0809	1116.41	913.498	901.681	1407.99	689.995	1823.58	1417.94	9.16416e-11	124.479	297.541	209.538	470.066	76.1788	0.255716	216.645	129.243	0	311.57	2730.86	2148.83	5299.82	0	42.3361	10621.1	565.074	6316.43	1233.23	0	0	6081.06	8230.41	0	0	252.424	
