CEINMS output
datacolumns 81
datarows 92
endheader
time	addbrev_r	addlong_r	addmagDist_r	addmagIsch_r	addmagMid_r	addmagProx_r	bflh_r	bfsh_r	edl_r	ehl_r	fdl_r	fhl_r	gaslat_r	gasmed_r	glmax1_r	glmax2_r	glmax3_r	glmed1_r	glmed2_r	glmed3_r	glmin1_r	glmin2_r	glmin3_r	grac_r	iliacus_r	perbrev_r	perlong_r	piri_r	psoas_r	recfem_r	sart_r	semimem_r	semiten_r	soleus_r	tfl_r	tibant_r	tibpost_r	vasint_r	vaslat_r	vasmed_r	addbrev_l	addlong_l	addmagDist_l	addmagIsch_l	addmagMid_l	addmagProx_l	bflh_l	bfsh_l	edl_l	ehl_l	fdl_l	fhl_l	gaslat_l	gasmed_l	glmax1_l	glmax2_l	glmax3_l	glmed1_l	glmed2_l	glmed3_l	glmin1_l	glmin2_l	glmin3_l	grac_l	iliacus_l	perbrev_l	perlong_l	piri_l	psoas_l	recfem_l	sart_l	semimem_l	semiten_l	soleus_l	tfl_l	tibant_l	tibpost_l	vasint_l	vaslat_l	vasmed_l	
3.19	0.0129968	0.000592877	0.0230361	0.0232967	0.0284493	0	0.0241391	0.0374142	0.0221239	0.0222317	0.0385102	0.0496496	0.00964731	0.0229832	0.00815624	0.0137444	0.0188356	0.0833961	0.0777083	0.0235867	0.0844028	0.0847468	0.0846967	0.0270969	0.0106325	0.0157891	0.0399591	0.0528093	0.0086565	5.56437e-05	0.0352597	0.0354926	0.0418818	0.0361552	0.000195299	0.0185356	0.0383767	0.00900172	0.00944193	0.0089739	0.00364802	0.0505597	0.0182458	0.0178508	0.0179906	0.00298217	0.00464982	0.0087766	0.0320082	0.084131	0.0433156	0.0456104	0.025903	0	0.00192228	0.0020215	0.00123845	0.0407759	0.0232669	4.3606e-13	0.022465	0.0390867	0	0.00270105	0.000235311	0.0752625	0.0839093	0	0.00061383	0.0848205	0.0411594	0.0555829	0.0364286	8.77765e-12	1.02921e-17	0.0842992	0.0846325	0	0.000191685	1.30939e-06	
3.195	0.0116408	1.49402e-10	0.0210246	0.0214904	0.0256116	0	0.0236454	0.0399366	0.0227039	0.0228703	0.038396	0.0493799	0.0106273	0.0241584	0.00701431	0.0125686	0.0169808	0.083932	0.0770538	0.0221223	0.0853427	0.0854004	0.0848618	0.0270817	0.0129093	0.0156471	0.0397821	0.0501339	0.0102966	0.00100603	0.0376253	0.0356819	0.0419385	0.035287	0.00378558	0.0193567	0.0382027	0.00749173	0.00809599	0.007597	0.00252243	0.0494417	0.0190708	0.0182502	0.0175087	0.00776114	0.00176614	0.0065099	0.0321543	0.0841988	0.0432024	0.0455091	0.023955	0	0.00200926	0.00203858	0	0.0479712	0.0279561	3.78461e-10	0.0242933	0.0178645	0	0	0.00202129	0.0756182	0.0838855	0	0.00145285	0.0871147	0.0404054	0.0504532	0.0337563	1.0688e-09	0	0.0843759	0.0850403	1.43635e-14	0.00385788	0.00398116	
3.2	0.0113357	8.22671e-11	0.0198432	0.0202863	0.0239303	0	0.0232112	0.0419488	0.0231296	0.0233353	0.0382969	0.0491374	0.0112973	0.0250768	0.00656162	0.0120655	0.0160077	0.0839005	0.0763017	0.0211975	0.0853159	0.0853481	0.0847987	0.027107	0.0139959	0.0155685	0.0396352	0.0475456	0.0110859	0.00181289	0.0395021	0.0357738	0.0419248	0.0345797	0.00567312	0.0198976	0.0380555	0.00661484	0.00729972	0.00680437	0.00217365	0.0484205	0.0242159	0.0209044	0.0220409	0.0127691	0.00337552	0.0113894	0.032253	0.084202	0.0430189	0.0458672	0.0245209	2.70404e-11	0.0161329	0.0170602	0.0045613	0.0463571	0.0207455	3.10903e-10	0.0243436	0.01203	2.92436e-14	0.00724168	0.00201865	0.0769914	0.0842896	8.56556e-12	0.00163579	0.0870574	0.0397003	0.0463849	0.0341167	3.07069e-14	8.05975e-12	0.0843742	0.0844644	0	0.00498064	0.00519475	
3.205	0.0110419	3.57962e-11	0.0187628	0.0192212	0.0223853	0	0.0227464	0.0439605	0.0234426	0.0236743	0.0382071	0.0489187	0.0117739	0.0258874	0.00614805	0.0116054	0.0151094	0.0838177	0.0753414	0.0202855	0.0852102	0.085245	0.0847126	0.0270705	0.0148105	0.0155135	0.0395044	0.0449819	0.0116383	0.00202136	0.0414048	0.0357704	0.0418275	0.0339859	0.00664448	0.020256	0.0379257	0.00603634	0.00675223	0.00627114	0.00854137	0.0483226	0.0273751	0.0232355	0.0244332	0.0147283	0.00638381	0.0151971	0.0337315	0.0851581	0.0422719	0.0462725	0.0251518	3.07176e-12	0.0274698	0.0296942	0.0153814	0.0364341	0.00606996	4.13671e-10	0.0382917	0.0396625	2.49495e-13	0.0141245	0.00825249	0.0777398	0.0846258	0	0.0114743	0.087023	0.03899	0.0425982	0.0332815	0	5.44296e-12	0.0844209	0.0841816	3.44572e-11	0.00508008	0.00528081	
3.21	0.0107753	1.23982e-11	0.0176718	0.0181321	0.0209314	0	0.0222098	0.0460459	0.0236932	0.0239464	0.0381285	0.0487299	0.0122024	0.0267024	0.00570104	0.0111206	0.0142292	0.0837348	0.0741232	0.0193446	0.0851053	0.085142	0.0846283	0.0269983	0.0156951	0.0154666	0.0393911	0.0424449	0.0122249	0.00200138	0.0434699	0.0356669	0.0416384	0.0334876	0.00724059	0.0205381	0.0378136	0.00551986	0.00625077	0.0057871	0.0163676	0.048328	0.0258027	0.0237214	0.0220966	0.0149508	0.00847211	0.0158086	0.0346705	0.0854785	0.0404481	0.0465577	0.0250206	3.35511e-12	0.0314135	0.0352044	0.0182018	0.0217083	0.00160471	4.21107e-10	0.0505345	0.0628693	1.17618e-14	0.0167201	0.0172381	0.0777528	0.0847547	9.25292e-09	0.0237056	0.0869789	0.0382277	0.0390245	0.0316332	0	4.77819e-12	0.0843883	0.0843766	7.58276e-11	0.00499386	0.00519047	
3.215	0.0105824	2.05486e-07	0.0166078	0.0170356	0.0195821	1.96317e-06	0.0215977	0.0481515	0.0238824	0.0241517	0.038067	0.0485827	0.012653	0.0275469	0.00523868	0.0106307	0.0133982	0.0836322	0.0726055	0.0183925	0.0849724	0.0850185	0.0845348	0.026895	0.0166258	0.0154337	0.0393035	0.0399896	0.0128376	0.00209777	0.0456976	0.0354442	0.0413414	0.0331082	0.00785023	0.0207471	0.0377269	0.00502372	0.00577851	0.00532937	0.0220455	0.0477566	0.020625	0.0219605	0.0166296	0.0155597	0.0094843	0.0146567	0.034544	0.08505	0.0392334	0.0467564	0.0243973	1.85003e-07	0.0312289	0.0363756	0.0177463	0.011419	0.00200381	0	0.0571006	0.0662803	0	0.0167104	0.025376	0.0775736	0.0847792	4.74867e-08	0.0323849	0.086917	0.0373867	0.0358263	0.0301023	9.48447e-07	1.90563e-07	0.0842995	0.0847733	6.49375e-07	0.00497998	0.00522557	
3.22	0.0104597	1.9726e-07	0.0155866	0.0159518	0.0183224	1.88714e-06	0.0209126	0.0502331	0.023991	0.0242685	0.0380275	0.0484865	0.0131346	0.0284181	0.00474987	0.0101314	0.0126086	0.0835148	0.0707746	0.0174369	0.0848185	0.084881	0.0844356	0.0267546	0.0175792	0.0154208	0.0392479	0.0376725	0.0134645	0.00232232	0.0480896	0.0350871	0.0409267	0.0328751	0.00855958	0.0208546	0.037672	0.00457947	0.00536179	0.00492017	0.0252245	0.0465905	0.0143777	0.0181745	0.0107242	0.0168121	0.00988215	0.0131531	0.0339073	0.0846034	0.0390328	0.0469148	0.0236208	1.77739e-07	0.030321	0.0363838	0.0173903	0.00484867	0.00235088	1.77224e-05	0.0604358	0.060428	5.63694e-06	0.0158092	0.0319086	0.0774587	0.0847944	1.57583e-06	0.0380292	0.0868333	0.0364653	0.0329803	0.0287793	1.13915e-06	1.82956e-07	0.0842239	0.0852114	3.04721e-06	0.0049749	0.00543974	
3.225	0.0104102	7.06494e-08	0.0146311	0.0148997	0.0171463	6.75939e-07	0.0201559	0.0522515	0.0240063	0.0242831	0.038013	0.0484484	0.0136471	0.0293204	0.00425772	0.00962084	0.0118512	0.0833866	0.0686225	0.0164962	0.0846491	0.084734	0.0843349	0.0265771	0.0185501	0.0154301	0.0392282	0.0355318	0.0141183	0.0026455	0.0506419	0.0345894	0.0403933	0.0328059	0.00931924	0.0208455	0.0376532	0.00422217	0.00500277	0.00457244	0.0264576	0.0449771	0.00926025	0.0132611	0.00631716	0.0180549	0.0100978	0.011909	0.0329997	0.0843272	0.0390862	0.0471013	0.0229205	6.36581e-08	0.0299826	0.0367941	0.0183036	0.00354104	0.00233394	0	0.0622134	0.0443887	0	0.0150671	0.036186	0.0774148	0.0848286	1.64118e-05	0.040461	0.0867267	0.0354753	0.030331	0.0275849	4.49049e-07	6.5533e-08	0.0841688	0.0856379	0	0.00492203	0.00582001	
3.23	0.010437	1.06322e-08	0.0137563	0.0139027	0.0160665	9.87866e-08	0.0193319	0.0541666	0.0239213	0.0241882	0.0380259	0.0484736	0.0141955	0.0302627	0.00381387	0.00910184	0.0111177	0.0832509	0.0661734	0.0156004	0.0844683	0.0845812	0.0842352	0.0263665	0.0195382	0.0154614	0.0392471	0.0335663	0.0148079	0.00299483	0.0533466	0.0339519	0.0397478	0.0329119	0.0100656	0.0207119	0.0376734	0.00394953	0.004694	0.00428961	0.026588	0.0431314	0.0059325	0.00875248	0.00373816	0.0189088	0.0103357	0.0108477	0.0320595	0.0840942	0.0394978	0.0473435	0.0223354	9.53474e-09	0.030015	0.0376177	0.0199348	0.00362253	0.00241808	2.26145e-05	0.0632489	0.0262572	0	0.0145745	0.0387698	0.0774019	0.0848708	0	0.0414342	0.0866322	0.0344297	0.0278198	0.026512	4.60176e-08	9.81114e-09	0.084115	0.0860434	0	0.00485954	0.0063764	
3.235	0.0105415	0	0.0129598	0.0129693	0.0151092	0	0.0184471	0.0559482	0.0237329	0.0239803	0.0380672	0.0485651	0.0147887	0.0312519	0.00335834	0.00857891	0.0104024	0.0831109	0.0634668	0.0147811	0.0842802	0.084426	0.0841387	0.0261296	0.0205505	0.0155146	0.0393063	0.0317481	0.0155368	0.00328421	0.0561876	0.0331797	0.0390038	0.0331986	0.0107725	0.0204498	0.0377341	0.00373749	0.00443678	0.00406594	0.0260134	0.041147	0.00399229	0.00560333	0.00203786	0.0192911	0.0106453	0.00983449	0.0315669	0.0839573	0.0400161	0.0476489	0.0218432	0	0.0300554	0.0385016	0.0217782	0.00370986	0.00268519	0	0.0639406	0.00924768	1.36648e-05	0.0141922	0.0399988	0.0774513	0.0849084	0	0.0415071	0.0865492	0.0333396	0.0255083	0.0256063	0	0	0.0840566	0.0864071	0	0.00483195	0.00710768	
3.24	0.0107244	0	0.0122323	0.0120936	0.0142906	0	0.0175102	0.0575625	0.0234412	0.0236596	0.0381367	0.0487235	0.0154335	0.0322904	0.00274082	0.00805779	0.00969983	0.0829694	0.060573	0.0140354	0.0840889	0.0842716	0.0840469	0.0258754	0.0215927	0.0155891	0.0394064	0.0300708	0.0163014	0.00350782	0.0591287	0.0322825	0.0381806	0.033666	0.0114333	0.0200597	0.0378354	0.00355963	0.00423266	0.00389552	0.0249499	0.0390626	0.00278774	0.00386492	0.000846926	0.0192236	0.0110454	0.00886628	0.0312406	0.0838906	0.0406797	0.0480196	0.0214247	0	0.0300128	0.0392301	0.0236697	0.00381434	0.00299003	0.0021633	0.0603697	0.00432002	0	0.0138456	0.04011	0.0776407	0.0849375	4.27844e-06	0.0409806	0.0864665	0.0322148	0.0234785	0.0249055	0	0.00377245	0.0839959	0.0866946	4.48603e-08	0.00483791	0.00796926	
3.245	0.0109853	0.00192027	0.0115642	0.0112637	0.0136055	0	0.0165352	0.0589981	0.0230504	0.0232311	0.0382329	0.0489467	0.0161315	0.0333775	0.00215061	0.00754414	0.00900824	0.0828285	0.0575725	0.0133244	0.0838976	0.0841205	0.083961	0.0256152	0.022665	0.0156831	0.0395462	0.0285595	0.0170925	0.00368255	0.0620843	0.0312742	0.0373013	0.0343084	0.0120443	0.0195476	0.0379756	0.00340698	0.00407595	0.00376346	0.0235655	0.0369076	0.00203151	0.00301328	1.07993e-06	0.0187984	0.011563	0.00803318	0.0308286	0.0838379	0.0414096	0.0484586	0.0210778	0	0.0299279	0.0397293	0.0256118	0.00393782	0.00326978	0.00214778	0.0441232	0.00401543	1.62822e-05	0.0135503	0.0392608	0.078038	0.0849589	1.0617e-05	0.0399597	0.0863287	0.0310649	0.0217879	0.0244399	0	0.00788417	0.0839344	0.0868739	1.27729e-06	0.00479777	0.00885658	
3.25	0.0113242	0.00222997	0.0109492	0.0104708	0.0130417	0	0.0155465	0.0602491	0.0225695	0.0227049	0.0383531	0.0492298	0.0168786	0.0345133	0.00201506	0.00704254	0.00833537	0.0826899	0.0545668	0.0126934	0.0837097	0.0839747	0.0838811	0.0253614	0.0237623	0.0157942	0.0397232	0.027237	0.0179008	0.00382068	0.0649772	0.0301762	0.0363907	0.0351158	0.0125995	0.0189241	0.0381512	0.00327661	0.00395665	0.0036566	0.0220337	0.0347034	0.00202118	0.00247487	0	0.0181165	0.0122353	0.00737254	0.0303251	0.0837843	0.04216	0.048972	0.0208099	0	0.0298029	0.0399371	0.0275672	0.00406899	0.00352759	0.00221303	0.0285702	0.00404814	1.21122e-09	0.0133455	0.0375892	0.0786587	0.0849733	0	0.0385301	0.086145	0.0299055	0.0204682	0.0242443	0	0.0117377	0.0838733	0.0869494	2.93135e-07	0.00466898	0.00970232	
3.255	0.0117403	0.00241301	0.0103834	0.00970821	0.0125885	1.68866e-09	0.0145783	0.0613338	0.0220113	0.0220954	0.0384933	0.0495655	0.0176668	0.0357034	0.0016789	0.00655757	0.00769218	0.0825546	0.0516033	0.01211	0.0835278	0.0838356	0.083807	0.025127	0.0248773	0.015919	0.0399334	0.026105	0.018721	0.00392723	0.0677466	0.0290185	0.0354701	0.0360773	0.0130938	0.0182036	0.0383573	0.00316449	0.00386302	0.00356673	0.0204973	0.0323962	0.0019677	0.00229721	6.16566e-06	0.0172851	0.0131039	0.00685523	0.0297567	0.0837318	0.0429247	0.0495658	0.0206324	1.94114e-10	0.0296087	0.0398088	0.029391	0.00421004	0.00377027	0.00266577	0.0176356	0.00413265	1.53144e-05	0.0132576	0.035233	0.0794147	0.084981	0	0.0367749	0.0859245	0.0287572	0.0195352	0.0243678	0	0.015257	0.0838134	0.0869637	0	0.00446421	0.0104846	
3.26	0.0122338	0.00258202	0.00986426	0.00897387	0.0122385	1.60507e-09	0.0136636	0.0622699	0.0213927	0.0214215	0.0386484	0.0499444	0.0184872	0.0369585	0	0.00609588	0.00708694	0.0824233	0.0487282	0.0115661	0.0833542	0.0837042	0.0837379	0.0249253	0.0260014	0.0160537	0.0401713	0.025148	0.0195531	0.00400081	0.0703495	0.0278353	0.0345559	0.0371816	0.0135246	0.0174044	0.0385874	0.00306367	0.00378397	0.00348677	0.0190373	0.0299038	0.00197196	0.00232364	5.39729e-06	0.0163984	0.0142309	0.00646132	0.0291334	0.0836229	0.0436621	0.0502436	0.0205605	1.59013e-10	0.0293396	0.0393789	0.0308405	0.00445415	0.00401666	0.00315763	0.0105841	0.00425599	0	0.0132987	0.0323266	0.0801884	0.084982	6.01966e-06	0.0347758	0.0856957	0.0276396	0.0189985	0.0248776	0	0.0180674	0.083756	0.0869484	0	0.00423909	0.011221	
3.265	0.0128065	0.00289271	0.00939317	0.00827522	0.0119865	6.08798e-10	0.0128209	0.063091	0.0207327	0.0207041	0.0388128	0.0503552	0.0193328	0.0382854	1.57913e-07	0.00566197	0.00652628	0.0822964	0.0459792	0.0110513	0.0831904	0.083581	0.0836725	0.0247692	0.0271255	0.0161941	0.0404304	0.0243382	0.0204008	0.00403693	0.0727503	0.0266614	0.033661	0.0384139	0.0138911	0.0165524	0.0388343	0.00296443	0.00371052	0.00340921	0.0176804	0.0272273	0.00201786	0.00250056	1.97847e-06	0.0155322	0.015707	0.00619719	0.0284576	0.0832602	0.044382	0.0510029	0.0206115	6.05568e-11	0.0290078	0.0387322	0.0317667	0.00484733	0.00429028	0.00352695	0.00683025	0.00438234	1.84764e-05	0.01348	0.028998	0.0809076	0.0849767	0	0.0325984	0.0854457	0.0265695	0.0188713	0.0258596	0	0.0202183	0.0837022	0.0869075	0	0.00401465	0.0119011	
3.27	0.0134654	0.00319501	0.00897686	0.00762365	0.0118293	0	0.0120564	0.0638312	0.0200526	0.0199663	0.0389807	0.0507847	0.0201991	0.0396797	0	0.00524931	0.00601958	0.0821737	0.04337	0.0105529	0.0830376	0.0834658	0.0836092	0.0246707	0.0282402	0.0163356	0.040703	0.023641	0.0212678	0.00403182	0.0749337	0.0255292	0.0327984	0.0397495	0.0141921	0.0156833	0.0390896	0.00285567	0.00363429	0.00332544	0.0164303	0.0244482	0.00200768	0.00279451	0	0.0147442	0.017629	0.00617645	0.0277377	0.0826028	0.0450748	0.0518341	0.020804	9.53109e-12	0.0286223	0.0379465	0.0322656	0.00536395	0.0045817	0.00385393	0.0050471	0.00449434	0.0020008	0.0138176	0.0254188	0.081554	0.0849655	0	0.0302933	0.0851846	0.0255584	0.0191977	0.0274122	0	0.0216297	0.0836531	0.0868366	1.20047e-07	0.00379843	0.0125175	
3.275	0.0142224	0.00342633	0.00861736	0.00702661	0.0117642	0	0.0113701	0.0645212	0.0193749	0.0192325	0.039146	0.0512185	0.0210817	0.0411271	7.92063e-06	0.00485002	0.00557035	0.0807764	0.0409113	0.0100566	0.0828965	0.0833584	0.0835465	0.0246409	0.0293368	0.0164737	0.0409807	0.0230159	0.0221547	0.00398471	0.0768876	0.0244668	0.0319828	0.0411537	0.0144248	0.014842	0.039345	0.00272763	0.00354658	0.0032257	0.0152997	0.021665	0.00202496	0.00312449	0	0.014071	0.0200711	0.00651657	0.0269849	0.0816942	0.0457359	0.0527231	0.0211553	0	0.0281888	0.0370787	0.0325199	0.00597417	0.00487015	0.00420217	0.00423471	0.00458297	0.00786101	0.014334	0.0218361	0.0821412	0.0849487	4.26344e-06	0.0279205	0.0849172	0.0246138	0.0200622	0.0296308	0	0.0220076	0.0836093	0.0867377	6.53261e-07	0.00360312	0.0130811	
3.28	0.0150999	0.00362082	0.00831732	0.00648933	0.0117883	0	0.0107614	0.0651976	0.0187225	0.0185272	0.0393032	0.0516422	0.0219725	0.0426066	2.9276e-06	0.00446986	0.00516994	0.0771729	0.0386044	0.00954828	0.0827674	0.0832582	0.0834827	0.0246896	0.030407	0.016604	0.0412545	0.0224192	0.0230609	0.00389778	0.0786099	0.0234971	0.0312307	0.0425825	0.0145862	0.014071	0.039592	0.00257334	0.00343769	0.00309836	0.0143058	0.0189371	0.00218573	0.00341729	0	0.013531	0.0230884	0.00707221	0.0262104	0.0805693	0.0463586	0.0536525	0.0216798	0	0.0277107	0.0361696	0.0326571	0.0066741	0.00513455	0.00459103	0.00389792	0.00463793	0.00783395	0.0150537	0.0185356	0.0826871	0.0849265	1.75903e-05	0.0255616	0.0846447	0.0237406	0.0215558	0.0325659	3.25206e-09	0.0208664	0.0835718	0.0866184	9.32794e-08	0.00350716	0.0136964	
3.285	0.0161077	0.00380067	0.00807687	0.0060187	0.0118983	0	0.0102306	0.0658956	0.0181182	0.017875	0.0394474	0.0520425	0.0228589	0.0440924	6.64036e-07	0.00412633	0.00481232	0.0717892	0.0364413	0.00901631	0.0826503	0.0831646	0.0828169	0.0248253	0.0314446	0.0167224	0.0415154	0.0218067	0.0239844	0.00377282	0.0801041	0.0226375	0.0305598	0.0439845	0.0146737	0.0133996	0.0398226	0.0023938	0.00329523	0.00292884	0.013452	0.0162461	0.002474	0.00366908	0	0.0131367	0.0267277	0.00777922	0.0254253	0.0792637	0.0469366	0.054604	0.0223873	1.05421e-12	0.0271881	0.0352398	0.0327592	0.00743125	0.00536114	0.00498569	0.003716	0.00464963	0.00748277	0.0160067	0.015729	0.0832021	0.084899	0	0.0233118	0.0843914	0.022941	0.0237462	0.0361171	1.23065e-09	0.0188616	0.0835411	0.0864869	0	0.00340745	0.0142959	
3.29	0.0172396	0.00397783	0.00789437	0.00561535	0.0120901	0	0.00977804	0.0666416	0.0175849	0.0173011	0.0395746	0.0524065	0.0237242	0.0455539	0	0.00382667	0.00450307	0.0651935	0.0343823	0.00844944	0.0825454	0.0830775	0.0799882	0.0250552	0.0324455	0.0168251	0.0417544	0.021136	0.0249238	0.00361526	0.0813793	0.0218995	0.0299847	0.0453032	0.0146863	0.0128458	0.0400295	0.0022058	0.00310231	0.00270796	0.0127413	0.0136159	0.00282608	0.00389651	0	0.0129047	0.0309895	0.00861768	0.0246405	0.0778075	0.0474652	0.0555605	0.0232821	2.51778e-12	0.0266168	0.0342898	0.0328384	0.00820414	0.00554148	0.00535178	0.0035591	0.0046171	0.00775154	0.0172278	0.0135206	0.0836883	0.0848664	4.59632e-09	0.0212599	0.0841903	0.0222147	0.0266593	0.0400654	3.00949e-09	0.0169079	0.0835175	0.0863494	0.00346434	0.00939892	0.0159201	
3.295	0.0184869	0.00416204	0.00776691	0.00527088	0.0123594	0	0.00940521	0.0674614	0.0171449	0.0168305	0.0396815	0.052722	0.0245495	0.0469576	0	0.00353383	0.00424683	0.058042	0.032331	0.00783863	0.0824528	0.0829966	0.0753117	0.0253853	0.0334104	0.0169087	0.0419628	0.0203674	0.0258775	0.00343231	0.0824455	0.0212897	0.0295152	0.0464805	0.0146246	0.0124224	0.0402065	0.00205102	0.00283663	0.00244862	0.0121859	0.0111312	0.00315366	0.00412077	0	0.0128534	0.035764	0.00957338	0.0238661	0.0762388	0.0479409	0.0565067	0.0243621	2.81816e-12	0.02599	0.0333036	0.0328714	0.00895829	0.0056673	0.00567592	0.00337039	0.00465329	0.00808302	0.0187444	0.0118388	0.0841418	0.0848293	5.20578e-05	0.0194618	0.0839431	0.0215614	0.030222	0.0440748	0	0.0149829	0.0835014	0.0862099	0.0059934	0.0178591	0.0182778	
3.3	0.0198597	0.00436242	0.00769009	0.00497891	0.0127055	0	0.00911294	0.0683782	0.0168183	0.016485	0.0397657	0.0529779	0.0253143	0.0482677	0	0.00318833	0.00403896	0.0511482	0.0302146	0.00717564	0.0823725	0.082922	0.0693548	0.02582	0.0343485	0.0169703	0.0421325	0.0194663	0.026844	0.00322017	0.0833109	0.0208099	0.0291555	0.0474592	0.0144909	0.0121407	0.0403479	0.00200312	0.00250726	0.00219273	0.0118038	0.00877843	0.00341467	0.0043429	0	0.0129975	0.0408159	0.010665	0.0231111	0.0745945	0.0483624	0.0574291	0.0256183	2.69742e-12	0.0252999	0.0322682	0.0328413	0.00965766	0.00573089	0.00594937	0.0031058	0.00478332	0.00815246	0.0205683	0.0105088	0.0845582	0.0847883	0	0.01786	0.0837204	0.0209811	0.0341728	0.0476314	0	0.0131072	0.0834926	0.0860713	0.00783762	0.024486	0.0207171	
3.305	0.0214009	0.00466152	0.00765902	0.0047369	0.0131219	9.606e-10	0.00889902	0.0694026	0.0166214	0.0162819	0.0398254	0.0531647	0.0259971	0.0494469	0	0.00274256	0.00386973	0.0451723	0.0280432	0.00645457	0.082305	0.0828544	0.0625892	0.0263625	0.0352768	0.0170072	0.0422561	0.0184017	0.0278216	0.00295948	0.083988	0.0204572	0.028906	0.0481859	0.0142895	0.0120111	0.0404491	0.00199948	0.00218722	0.00202041	0.0116137	0.00654032	0.0036222	0.00454734	0	0.0133484	0.0456388	0.0119403	0.0223832	0.0729047	0.0487288	0.058317	0.0270333	2.53104e-12	0.0245416	0.0311805	0.0327434	0.0102714	0.00572631	0.00616183	0.00271977	0.00496161	0.00804386	0.0227024	0.00939144	0.0849342	0.0847446	2.49855e-06	0.0163837	0.0835156	0.0204813	0.0377135	0.050007	0	0.0111164	0.0834912	0.0859363	0.00931959	0.0303218	0.0227638	
3.31	0.0231644	0.00511477	0.00766788	0.00454444	0.0135999	0	0.00875754	0.0705374	0.016566	0.0162329	0.0398589	0.0532739	0.0265763	0.0504588	0	0.00227965	0.00372147	0.0401776	0.0258692	0.00568318	0.0822505	0.0827945	0.0555919	0.0270136	0.0362152	0.0170169	0.0423268	0.0171463	0.0288086	0.0026359	0.0844816	0.0202252	0.028763	0.0486129	0.0140263	0.012042	0.0405059	0.00155328	0.00200534	0.00201964	0.0116259	0.00448508	0.00379101	0.00472034	0	0.013922	0.0482706	0.0134347	0.0216887	0.0712047	0.0490432	0.0591623	0.0285777	2.41029e-12	0.023719	0.0300482	0.0325828	0.0107746	0.00565035	0.00630314	0.00227486	0.00513989	0.00783472	0.0251419	0.0084172	0.0852677	0.0846991	4.11701e-05	0.0151043	0.0833261	0.0200809	0.0388441	0.050765	0	0.00889487	0.0834969	0.0858067	0.0104214	0.0311794	0.0241527	
3.315	0.0251901	0.00570475	0.0077106	0.00439571	0.0141511	0	0.00867869	0.0717763	0.01666	0.0163454	0.0398646	0.0532979	0.0270294	0.0512656	0	0.00201384	0.00357919	0.0360515	0.0237315	0.00484317	0.0811487	0.0827433	0.0490736	0.0277715	0.0371854	0.0169971	0.0423388	0.0156866	0.0298022	0.00229855	0.0847992	0.0201031	0.0287191	0.0486995	0.0137095	0.0122385	0.0405145	0.000317589	0.00201382	0.00183965	0.0118423	0.00271029	0.00393021	0.00485179	0	0.0147523	0.0488711	0.0151645	0.0210323	0.0695195	0.0493068	0.0599593	0.0302121	2.3239e-12	0.0229149	0.0289014	0.0323724	0.0111485	0.00550252	0.00636618	0.00200448	0.00527684	0.00752573	0.027857	0.00743597	0.0855581	0.0846531	0	0.0140689	0.0831559	0.019811	0.0384896	0.0504724	0	0.00650013	0.0835096	0.0856837	0.011108	0.0296139	0.0249409	
3.32	0.0274948	0.0064304	0.00778079	0.0042822	0.0147604	0	0.00865103	0.0731022	0.0169079	0.0166233	0.0398403	0.0532296	0.0273351	0.0518304	0	0.00201317	0.00343136	0.0325044	0.0216498	0.00396883	0.0749896	0.0824081	0.0433969	0.028632	0.0382013	0.0169454	0.0422871	0.0140531	0.0307987	0.00205005	0.0849468	0.0200777	0.0287646	0.0484134	0.0133482	0.0126021	0.0404708	0	0.00151007	0.000861671	0.0122592	0.0019579	0.00404131	0.00493535	0	0.0158983	0.0486784	0.0171027	0.0204172	0.0678754	0.0495186	0.0607046	0.0318841	2.24937e-12	0.0220685	0.0277725	0.0321182	0.0113787	0.00528495	0.00634818	0.00194258	0.00534029	0.0071063	0.0307172	0.00650508	0.0858045	0.0846076	1.831e-06	0.0132717	0.0830093	0.019702	0.0380657	0.049903	0	0.00404001	0.0835297	0.0855682	0.0113824	0.0281015	0.025249	
3.325	0.0300607	0.00728912	0.00787171	0.00419499	0.0154327	0	0.00866095	0.0744931	0.0173113	0.0170677	0.0397831	0.053062	0.027472	0.0521185	0	0.00137174	0.00326741	0.0291468	0.0196197	0.00303192	0.0657464	0.0776525	0.0385696	0.0295854	0.0392762	0.0168596	0.0421674	0.0123083	0.031793	0.00201384	0.0849535	0.0201323	0.0288864	0.0477316	0.0129531	0.013133	0.0403705	0	8.0028e-05	0	0.0128688	0.000878821	0.00412121	0.00503212	0.00358919	0.0174151	0.0483259	0.0191775	0.0198457	0.0662968	0.0496804	0.0613952	0.0335349	2.17584e-12	0.021169	0.0266382	0.0318085	0.0114563	0.00500078	0.00625068	0.0210253	0.00530575	0.00658454	0.0334666	0.00573052	0.0860028	0.0845634	1.83781e-05	0.0126753	0.0828881	0.0197973	0.0380371	0.0493243	0	0.00196921	0.0835608	0.0854603	0.0113331	0.0275269	0.0252038	
3.33	0.0328041	0.00825099	0.00797696	0.00412572	0.0161576	0	0.00869433	0.0759072	0.0178687	0.017676	0.0396892	0.0527886	0.0274207	0.0520976	0	6.47428e-08	0.00307575	0.0259822	0.0176071	0.00200056	0.0559593	0.0691128	0.0344852	0.0306174	0.0404211	0.0167372	0.0419765	0.010481	0.0327797	0.00190621	0.0849444	0.0202488	0.0290694	0.0466428	0.0125353	0.0138327	0.040209	3.20831e-06	0	0	0.0136621	0.00144485	0.00423631	0.00525483	0.00335308	0.0177781	0.0479307	0.0213063	0.0193193	0.0647971	0.0497787	0.0620285	0.0350997	2.10044e-12	0.0202422	0.0255258	0.0314795	0.0113805	0.00465734	0.00607938	0.0330943	0.00515827	0.00598454	0.0357584	0.00511593	0.0861483	0.0845209	0	0.0122492	0.0827956	0.0201457	0.0384307	0.0487896	0	0	0.0836247	0.0853597	0.0110563	0.0279844	0.0249	
3.335	0.0356334	0.0092911	0.00809	0.00406691	0.0169209	0.00364021	0.0087365	0.0773093	0.0185762	0.0184432	0.039554	0.052403	0.0271632	0.0517397	0	0	0.00284446	0.0231207	0.0156121	0	0.0475932	0.0592507	0.0307254	0.0317116	0.0416473	0.0165761	0.0417122	0.0085498	0.0337561	0.00119988	0.0849367	0.0204071	0.0292959	0.0451492	0.0121065	0.0147086	0.0399816	2.88424e-06	0	0	0.0133103	0.00206799	0.00443626	0.00561376	0.00330183	0.016337	0.047446	0.0234304	0.0188382	0.0633923	0.0497574	0.0626039	0.036515	2.02413e-12	0.0192886	0.0244411	0.0311976	0.0111725	0.00428494	0.00584502	0.0331111	0.00877769	0.00533106	0.0372702	0.00462206	0.0862379	0.0844807	8.56205e-07	0.0119773	0.0827327	0.0208023	0.0392263	0.0483488	0	0	0.0838784	0.0852654	0.0106345	0.029318	0.0244157	
3.34	0.0387347	0.0103758	0.00820423	0.0040125	0.0177054	0.00433371	0.00877427	0.0786499	0.0194296	0.0193642	0.0393723	0.0519005	0.0266866	0.0510255	0	0	0.00258312	0.0205713	0.0137703	0	0.0412118	0.0502054	0.0270529	0.0328417	0.0429647	0.0163746	0.0413737	0.00648921	0.0347261	0.000129337	0.0849284	0.0205874	0.0295477	0.0432704	0.0116781	0.0157711	0.0396835	1.10254e-06	5.63693e-06	5.74046e-06	0.0112225	0.003665	0.00471242	0.00606192	0.00349944	0.0135641	0.0468773	0.0255188	0.0184028	0.0620931	0.0495349	0.0631217	0.0377099	1.94752e-12	0.0183063	0.0233814	0.0309503	0.0109105	0.00398259	0.00555565	0.0294021	0.0221293	0.00462292	0.0377784	0.00425296	0.0862698	0.0844429	5.67109e-06	0.0118585	0.0827032	0.0218389	0.0404551	0.048039	0	6.01863e-05	0.0844136	0.0851757	0.0101698	0.0310002	0.0238676	
3.345	0.0423865	0.0114822	0.0083137	0.00395688	0.0184987	0.00346421	0.00879274	0.0798828	0.0204294	0.020441	0.0391389	0.0512778	0.0259823	0.0499431	0	6.08112e-06	0.00232238	0.0182669	0.0121473	0	0.0364071	0.0431317	0.0236296	0.033984	0.0443833	0.0161318	0.0409617	0.00430244	0.0357007	0	0.0849194	0.0207668	0.0298034	0.0410457	0.0112625	0.0170183	0.0393108	5.0027e-09	2.7682e-06	1.54725e-06	0.00831023	0.00448617	0.00503963	0.00656372	0.00355289	0.0103141	0.0462447	0.0275607	0.0180121	0.0609063	0.0492145	0.0635832	0.038586	0	0.0172968	0.0223672	0.0307169	0.0105293	0.00376992	0.00522373	0.026094	0.0269353	0.00400656	0.037334	0.00398567	0.0862444	0.0844077	0	0.0118849	0.0827039	0.0233309	0.0421258	0.0478813	0	3.84207e-05	0.0847811	0.0850892	0.00979746	0.0323839	0.0234105	
3.35	0.0467323	0.0125951	0.00841217	0.00389581	0.0192897	0.00373825	0.00877953	0.0809684	0.0215807	0.0216823	0.0388491	0.0505331	0.0250513	0.0481384	0	2.44488e-06	0.00210921	0.0161565	0.0106854	2.15487e-05	0.0326181	0.0377805	0.0205419	0.0351271	0.0459106	0.0158478	0.040479	0.00200304	0.0366895	0	0.0849098	0.020924	0.0300429	0.0385376	0.0108723	0.0184257	0.038861	0	8.91727e-07	2.59763e-07	0.00567529	0.00449426	0.00538332	0.00708078	0.00351692	0.00739395	0.0455607	0.0295425	0.0176658	0.0598341	0.0485655	0.0639899	0.0390065	1.32999e-06	0.0162621	0.0214304	0.030483	0.0100784	0.00366791	0.00485442	0.0238885	0.0279938	0.00353191	0.0363252	0.00378114	0.0861646	0.084375	0	0.0120527	0.0827364	0.0253711	0.0442157	0.0478854	0	1.01234e-05	0.0845219	0.0850039	0.00962034	0.0332631	0.0231132	
3.355	0.0518504	0.0137104	0.00849426	0.00382508	0.0200716	0.00367492	0.00872165	0.08188	0.0228897	0.0230993	0.0384992	0.0496687	0.0239027	0.0459209	0	5.44368e-07	0.0020026	0.0143302	0.00932202	8.15458e-06	0.0292674	0.0336527	0.0177119	0.0362701	0.0475534	0.0155248	0.0399303	5.0371e-07	0.0377004	2.25908e-06	0.0848992	0.0210363	0.0302447	0.035828	0.0105206	0.0199809	0.0383338	0	0	0	0.00381725	0.0038438	0.00572431	0.00758103	0.00344067	0.00520626	0.0448984	0.031421	0.0173633	0.0588807	0.0479704	0.0643432	0.0388809	1.36571e-06	0.0152199	0.0205499	0.0302448	0.00958316	0.00361064	0.00446928	0.0197885	0.0295354	0.00298729	0.0351311	0.0035901	0.0860392	0.0843446	0	0.0123523	0.0827949	0.0280413	0.0467915	0.0480597	6.11134e-09	0	0.0837665	0.0849191	0.00966696	0.0336243	0.0229326	
3.36	0.0577418	0.0148264	0.0085546	0.00374077	0.0208358	0.00357134	0.00860693	0.0825947	0.0243571	0.0246956	0.038088	0.0486921	0.0225557	0.0434779	0	0	0.0020215	0.0128553	0.00802433	1.52404e-06	0.0263176	0.030072	0.0151006	0.0374079	0.0493154	0.0151668	0.0393229	0	0.0387384	3.31946e-06	0.0848878	0.0210813	0.030388	0.0329667	0.0102217	0.021713	0.037732	0	0	0	0.00236724	0.00274411	0.00604766	0.00804145	0.0033142	0.00378122	0.0442956	0.0330738	0.0171034	0.0580436	0.0479521	0.0646452	0.0383759	2.48081e-06	0.0141942	0.019693	0.0299896	0.00906758	0.00352076	0.00421622	0.0153963	0.029579	0.00234904	0.033884	0.00340037	0.0858936	0.0843165	7.85831e-07	0.012781	0.0828755	0.0313835	0.0499635	0.0484074	3.24603e-09	0	0.0828805	0.0848399	0.00989501	0.0335167	0.0227907	
3.365	0.0641043	0.0159511	0.00858868	0.00363828	0.0215684	0.00345016	0.0084242	0.0831138	0.0259741	0.0264634	0.0376166	0.047614	0.021037	0.0408595	0	0	0.0018493	0.0116629	0.00680109	0	0.0238449	0.0268663	0.0129252	0.0385215	0.0512001	0.0147801	0.0386663	1.44109e-05	0.0397983	6.95523e-07	0.0848755	0.0210379	0.0304535	0.0299282	0.0099899	0.0236654	0.0370616	0	0	0	0.00199888	0.00201519	0.00633939	0.00844552	0.00312263	0.00273194	0.0437342	0.0342877	0.0168849	0.057323	0.0482189	0.0648987	0.0377861	0	0.0131946	0.018832	0.029667	0.00856086	0.00342704	0.00410686	0.00953947	0.0286382	0.00811526	0.0325806	0.0032364	0.0858136	0.0842905	9.62544e-07	0.0133585	0.0829721	0.0353322	0.0537559	0.0489283	0	0	0.082107	0.0847883	0.0102298	0.033068	0.022621	
3.37	0.0702237	0.0170767	0.00859248	0.00351141	0.0222529	0.00330148	0.00816317	0.0834531	0.0277206	0.0283792	0.0370895	0.0464511	0.0193736	0.0381642	0	0	0.00104131	0.0106779	0.00569151	0	0.0218271	0.0241476	0.0111863	0.0395787	0.0532055	0.0143728	0.0379722	3.44776e-05	0.0408756	0	0.0848622	0.0208867	0.030423	0.0267364	0.00983933	0.0258502	0.0363323	0	0	0	0.000464747	0.00102224	0.00658521	0.00878155	0.00285093	0.00204163	0.043181	0.0349485	0.0167063	0.0567161	0.0485897	0.0651065	0.0372514	0	0.0122152	0.0179429	0.029222	0.00809255	0.00333794	0.00403985	0.00477509	0.0273557	0.0158274	0.0312185	0.00314209	0.0858383	0.0842665	0	0.0141296	0.0830778	0.0342574	0.0581013	0.0496196	1.11109e-08	0	0.081475	0.0847672	0.0105981	0.03235	0.0223816	
3.375	0.0755488	0.018178	0.00856273	0.00335104	0.0228713	0.00311497	0.00781502	0.0836402	0.0295619	0.0304001	0.0365141	0.0452251	0.0175846	0.0354837	0	0	0	0.00985948	0.00469744	0	0.0202109	0.0219185	0.00974207	0.0405408	0.0553254	0.0139542	0.0372538	9.64136e-06	0.0419639	0	0.0848479	0.0206103	0.0302809	0.0235125	0.00978218	0.0282386	0.035556	0	0	0	0	0	0.00677413	0.00904203	0.00251642	0.00201737	0.0426139	0.0352078	0.0165658	0.0562176	0.0489748	0.0652712	0.0367815	1.71063e-06	0.0112439	0.017003	0.0286153	0.0076885	0.00325456	0.00400947	0.00201867	0.0261964	0.0215398	0.0298173	0.00315772	0.085937	0.0842442	0	0.0151532	0.0831859	0.0236489	0.062901	0.0505054	0	0	0.0809581	0.0847587	0.0109386	0.0314053	0.0220472	
3.38	0.0797528	0.0192369	0.00849715	0.00314459	0.0234054	0.00288384	0.00737234	0.0837117	0.0314478	0.0324609	0.0359011	0.0439617	0.0156954	0.0328504	0	0	0	0.00918485	0.00388806	0	0.0189485	0.0201242	0.00850791	0.0413672	0.0575476	0.0135336	0.0365256	0	0.0430552	0	0.0848324	0.0201949	0.0300146	0.0203767	0.00982787	0.0307608	0.034746	0	0	0	2.25911e-06	0	0.00689888	0.00922315	0.00219822	0.00167323	0.042031	0.0353015	0.0164614	0.055823	0.0492559	0.0653958	0.0363604	3.80766e-05	0.0102722	0.0160039	0.0278239	0.00736887	0.00318404	0.00927934	0	0.0214609	0.0258401	0.0284014	0.00333509	0.0860795	0.0842235	0	0.016482	0.0832901	0.012099	0.0679416	0.0516346	4.37548e-09	0	0.0805466	0.0847455	0.0112054	0.0302539	0.0216001	
3.385	0.0826933	0.0202461	0.00839445	0.00287625	0.0238391	0.00261821	0.00682912	0.0837053	0.0333169	0.0344929	0.0352626	0.0426891	0.0137911	0.0302358	0	0	0	0.00865012	0.00322858	0	0.0180081	0.0187099	0.00746651	0.0420174	0.0598344	0.0131208	0.0358017	0	0.0441408	0	0.0848156	0.0196296	0.0296111	0.0173656	0.00998215	0.0333036	0.0339159	0	0	0	0	0	0.00695518	0.00932354	0.00201116	0.000809133	0.0414415	0.0353509	0.016391	0.0555275	0.0494541	0.0654838	0.035987	0	0.00929679	0.0149548	0.0268494	0.00714711	0.00313576	0.0221358	0	0.00832432	0.028436	0.026989	0.003686	0.0862355	0.0842043	0	0.0181351	0.0833973	0.00668883	0.0729707	0.0530502	0	0	0.0802367	0.0847227	0.0113905	0.0289317	0.0210537	
3.39	0.084408	0.0211979	0.00825449	0.00255924	0.0241597	0.00235484	0.00618463	0.0836484	0.0351258	0.0364869	0.0346124	0.0414366	0.0119733	0.0276632	0	0	4.13983e-06	0.00825969	0.00248874	0	0.0173699	0.0176403	0.00663373	0.0424549	0.0621422	0.0127245	0.0350948	0	0.045211	6.65352e-05	0.0847971	0.0189059	0.0290622	0.0145132	0.0102466	0.0357819	0.0330802	0	0	0	0	4.07815e-06	0.00694095	0.00934355	0.00202103	0	0.0408577	0.0353681	0.0163521	0.055326	0.0495925	0.0655384	0.0356789	8.48367e-07	0.00832399	0.013881	0.0257081	0.00702998	0.0031155	0.0344764	0	0.00201513	0.0219322	0.0255925	0.00422321	0.0863672	0.0841867	0	0.020094	0.0835129	0.00536407	0.0777651	0.0547669	0	0	0.0800247	0.0846963	0.0115291	0.0275077	0.0204616	
3.395	0.0850584	0.0220758	0.00807846	0.00225702	0.0243584	0.00213842	0.00544599	0.0835488	0.0368836	0.0384863	0.0339648	0.0402328	0.0102689	0.0252141	0	0	1.76482e-06	0.00801372	0.00207354	0	0.0170151	0.0168971	0.00602378	0.0426503	0.0644319	0.0123529	0.0344165	0	0.0462563	0.00201506	0.0847764	0.0180161	0.0283639	0.0119946	0.010619	0.0382647	0.0322546	0	0	0	7.40588e-07	2.02534e-05	0.00685591	0.00928468	0.00169434	0	0.0403094	0.0353203	0.016342	0.0552122	0.0496987	0.0655627	0.0354617	2.52582e-05	0.00737477	0.0128103	0.0243867	0.00701727	0.00312352	0.0433708	1.48688e-05	0.00162354	0.00880851	0.024218	0.00507473	0.0864522	0.0841705	0	0.0223396	0.0835529	0.00520396	0.0820663	0.0567866	4.00419e-08	0	0.0799067	0.0846717	0.0116676	0.0260638	0.0198832	
3.4	0.0850109	0.0228595	0.00786878	0.00204886	0.0244304	0.00201459	0.00458252	0.0833859	0.0386092	0.0404908	0.0333343	0.0391032	0.00864726	0.0229589	0	0	4.77111e-07	0.00790711	0.0020008	0	0.0169205	0.0164602	0.00563068	0.0425839	0.066666	0.0120125	0.0337773	0	0.047266	0.00346753	0.0847531	0.016953	0.0275176	0.00989281	0.0110933	0.0408148	0.0314566	0	0	0	7.33831e-06	0	0.00670106	0.00914875	0.000341893	0	0.0398375	0.0351814	0.0163576	0.0551788	0.0497516	0.0655599	0.035361	0	0.00721459	0.0120734	0.0229352	0.0071027	0.00315503	0.0485879	3.51873e-06	0.00201176	0.00201997	0.0228664	0.00508806	0.0864924	0.0841559	0	0.0248678	0.0836039	0.00542187	0.0854482	0.0590742	0	0	0.0798765	0.0846507	0.0117613	0.0246687	0.0193303	
3.405	0.0848946	0.0235295	0.00762925	0.00200672	0.0243766	0.00201316	0.00370189	0.083107	0.0402815	0.0424519	0.0327356	0.0380698	0.00707724	0.0209275	0	0	0	0.00793136	0.00201457	0	0.0170593	0.0163005	0.00543185	0.0422475	0.0688082	0.0117093	0.033187	0	0.0482297	0.00439828	0.0847267	0.0157184	0.0265301	0.00815657	0.0116615	0.0433848	0.0307049	0	0	0	0	0	0.00647849	0.00893764	0	3.78341e-06	0.0394718	0.0349435	0.0163952	0.0552169	0.0497855	0.0655331	0.0353974	2.73788e-07	0.00776845	0.0116842	0.0214084	0.00727558	0.00320164	0.0502585	9.2174e-05	0.00200016	0.000559077	0.0215317	0.00382495	0.0865031	0.084143	0	0.0161586	0.0836606	0.00583285	0.086896	0.0615691	2.55707e-10	0	0.0799253	0.0846333	0.0116458	0.0231539	0.0185826	
3.41	0.0847859	0.0240711	0.00736472	0.0019922	0.0242019	0.00198938	0.00245884	0.0826288	0.0418556	0.0443092	0.0321826	0.0371494	0.0055658	0.0191162	0	0	0	0.00807338	0.00201146	0	0.0174053	0.0163822	0.00540668	0.0416453	0.0708284	0.0114478	0.0326546	0	0.0491361	0.00528221	0.0846965	0.0143409	0.0254124	0.00671953	0.0123142	0.0458805	0.0300185	0	0	0	0	5.29272e-07	0.00619204	0.00865343	0	2.6798e-06	0.0392193	0.0345733	0.0164503	0.0553165	0.0497909	0.0654857	0.0355815	2.67007e-05	0.00866992	0.0115999	0.0198498	0.00752252	0.00325327	0.0500604	0.00383257	0.00217727	0.00200869	0.0202006	0.00249588	0.0864978	0.084132	0	0.0055547	0.0837156	0.00633098	0.0866993	0.0641823	0	0	0.0800406	0.0846193	0.0113965	0.0214863	0.0176759	
3.415	0.0846788	0.0244749	0.00708117	0.00164665	0.0239159	0.00169572	0.00180616	0.0818418	0.0432866	0.0460056	0.0316881	0.0363537	0.00411404	0.0175037	1.28405e-09	0	0	0.00831875	0.0020003	0	0.0179346	0.0166672	0.00552964	0.0407938	0.0726953	0.0112317	0.0321881	0	0.0499739	0.00616247	0.0846624	0.0128691	0.0241766	0.00556601	0.013043	0.048206	0.0294131	0	0	0	2.84824e-07	1.9495e-05	0.0107136	0.00829861	3.26764e-06	0	0.0390446	0.0340923	0.0165181	0.0554653	0.0497797	0.0654218	0.0359063	0	0.00965455	0.0117073	0.0182906	0.00782919	0.00329984	0.0487381	0.00232271	0.00263604	0.00255559	0.0188514	0.00216057	0.0864837	0.0841232	0	0.00201857	0.0837829	0.00687354	0.0861844	0.0667724	0	0	0.0802072	0.0846092	0.011104	0.0197793	0.0167131	
3.42	0.084576	0.0247362	0.00678538	0.000859604	0.0235315	0.000968049	0	0.0806199	0.0445355	0.0474915	0.0312632	0.0356891	0.00268188	0.0160795	8.5967e-10	0	0	0.00865404	0.00206499	0	0.0186272	0.0171229	0.00576857	0.0397211	0.0743917	0.0110631	0.031794	0	0.0507351	0.00718095	0.0846241	0.0113308	0.0228428	0.00467933	0.0138415	0.050273	0.0289006	0	0	0	8.2303e-06	0	0.0171482	0.0110616	3.31211e-06	0	0.0388514	0.0335893	0.0165926	0.0556488	0.049755	0.0653466	0.0363491	2.22657e-07	0.0105641	0.0118742	0.0167495	0.00818071	0.013161	0.0468327	0.00227047	0.00314183	0.00285431	0.017454	0.00234978	0.0864643	0.084117	0	0.00200024	0.0838696	0.00744294	0.0858264	0.0691546	2.30836e-08	0	0.0804071	0.0846033	0.0108515	0.0181674	0.0157943	
3.425	0.084479	0.0248552	0.00648577	0	0.0230646	0	0	0.0788472	0.0455713	0.0487273	0.0309165	0.0351583	0.00187147	0.0146058	1.84872e-10	0	0	0.00906711	0.00227759	0	0.0194693	0.0177227	0.00609525	0.0384633	0.0758924	0.010943	0.0314769	0	0.0514054	0.00835486	0.0845815	0.00971541	0.0214292	0.00410576	0.0147068	0.0520115	0.0284888	0	0.00369611	0.00296049	0	0	0.0220014	0.0151904	1.19172e-06	1.92854e-07	0.0385376	0.0330611	0.0166673	0.0558501	0.0497218	0.0652658	0.0368785	1.46489e-05	0.0113348	0.0120208	0.0152627	0.00856237	0.0211621	0.0445581	0.00245208	0.00353045	0.00307235	0.015992	0.00269885	0.0864432	0.0841135	0	0.00227267	0.0839771	0.00803156	0.0855391	0.071182	0	0	0.0806202	0.0846019	0.0106945	0.0167712	0.014996	
3.43	0.0843883	0.0248356	0.00619111	0	0.0225322	3.51075e-08	6.23499e-06	0.0764112	0.0463723	0.0496839	0.0306537	0.0347616	0	0.0127959	0	0	0	0.00954707	0.00262742	0	0.0204586	0.0184459	0.00649055	0.037062	0.0771929	0.0108711	0.0312394	0	0.0519741	0.0096673	0.0845351	0.00799347	0.0199497	0.00384714	0.0156355	0.0533706	0.0281818	0.00399607	0.00476652	0.00453051	0	1.73238e-06	0.0246378	0.0185703	2.79238e-07	6.98892e-07	0.0380253	0.0325095	0.0167349	0.0560499	0.0496851	0.0651867	0.0374637	0	0.011947	0.012114	0.0139048	0.00895902	0.0261322	0.042021	0.00261424	0.00384513	0.00335006	0.0144946	0.00304166	0.0864241	0.0841132	0	0.00245809	0.0841203	0.0086343	0.0852491	0.0727597	1.19636e-08	0	0.0808252	0.0846052	0.0106962	0.0157109	0.0144098	
3.435	0.0843046	0.0246844	0.00591007	0	0.0219525	0	1.5815e-05	0.0732465	0.0469256	0.0503471	0.0304771	0.0344975	0	0.0113988	0	0	0	0.0100846	0.0030302	0	0.0216023	0.019281	0.00693979	0.0355554	0.078282	0.010846	0.031082	0	0.0524328	0.0110775	0.0844853	0.00615327	0.0184094	0.00382169	0.0166171	0.0543159	0.0279805	0.00515725	0.00504372	0.00477563	1.28563e-06	1.79044e-05	0.0254229	0.0208367	0	3.11555e-06	0.0372652	0.0319425	0.0167876	0.0562268	0.0496487	0.0651174	0.0380793	4.75928e-07	0.0124083	0.0121543	0.0126852	0.00935582	0.0293248	0.0392941	0.0027807	0.00415275	0.0035836	0.0130201	0.00332378	0.0864091	0.0841162	0	0.00265022	0.0842986	0.00924461	0.0849591	0.0738448	3.24583e-09	0	0.0810004	0.0846135	0.0109133	0.0150804	0.0141228	
3.44	0.084228	0.0244105	0.00564929	3.67358e-06	0.0213429	4.47439e-06	5.2128e-06	0.0693378	0.0472273	0.0507113	0.0303867	0.0343629	7.88478e-06	0.0101662	0	0	0	0.0106728	0.00338157	0	0.0229107	0.0202264	0.00743078	0.0339434	0.0791641	0.0108653	0.0310033	0	0.0527701	0.0125452	0.0844328	0.0042098	0.0168084	0.00399653	0.0176307	0.0548369	0.0278829	0.00535912	0.00554445	0.00519602	2.18104e-06	0	0.0252215	0.0218685	0	0	0.0362359	0.0313709	0.0168171	0.056358	0.0496098	0.0650666	0.0387077	8.6971e-06	0.0127443	0.0121577	0.0115869	0.00973875	0.0309128	0.0364595	0.00290837	0.00447686	0.00373875	0.0116016	0.00354877	0.0863981	0.0841227	1.0719e-08	0.00291517	0.084492	0.00985609	0.0846776	0.0744275	0	0	0.0811238	0.0846266	0.0113458	0.0148874	0.0141583	
3.445	0.0841583	0.0240242	0.00541316	1.25304e-06	0.0207188	1.36888e-06	0	0.0647428	0.0472813	0.05078	0.0303797	0.0343524	1.56333e-05	0.00898201	0	0	0	0.0113078	0.00368094	0	0.0243919	0.0212897	0.0079585	0.0322013	0.0798406	0.0109254	0.0310002	0	0.0529752	0.0140419	0.0843785	0.00206104	0.0151881	0.00437264	0.0186534	0.0549375	0.0278847	0.0058445	0.00626702	0.00587067	9.87509e-08	0	0.0245747	0.0221289	0	5.9867e-08	0.0349468	0.0307977	0.0168147	0.0564196	0.0495628	0.0650432	0.0393393	0	0.0129875	0.01214	0.0105807	0.0100945	0.0310985	0.033609	0.00297531	0.00479471	0.0038301	0.0103672	0.00372928	0.0863883	0.0841328	0	0.0031348	0.0846919	0.0104634	0.0844157	0.0745249	0	0	0.0811738	0.084644	0.0119549	0.0150744	0.0144933	
3.45	0.0840951	0.0235363	0.00520669	2.98496e-07	0.0200944	6.15219e-07	0	0.0596263	0.0470984	0.0505658	0.0304514	0.0344586	3.59451e-06	0.0078117	0	0	0	0.0119874	0.00396961	0	0.0260493	0.0224809	0.00852191	0.0303243	0.080322	0.0110225	0.0310685	0	0.0530391	0.0155482	0.0843233	0	0.0136477	0.00493868	0.0196687	0.0546344	0.0279797	0.00659082	0.00702941	0.00660055	0	2.03735e-06	0.0237727	0.0219109	0	6.17479e-07	0.0334281	0.0301984	0.0167722	0.0563875	0.0494487	0.065056	0.0399725	1.88349e-07	0.0131677	0.0121169	0.00963428	0.0104111	0.0299897	0.0308161	0.00298095	0.00508307	0.00386383	0.00979003	0.00387954	0.0863714	0.0841463	1.82392e-11	0.00328825	0.0848792	0.011063	0.0841748	0.074166	0	5.11574e-09	0.0811289	0.0846643	0.0126726	0.0155379	0.0150611	
3.455	0.0840387	0.0229573	0.00503546	0	0.0194823	0	0	0.0542829	0.0466947	0.0500883	0.0305957	0.0346725	0	0.00666474	0	0	0	0.0127115	0.00430477	0	0.0278766	0.0238098	0.00912052	0.0283486	0.0806184	0.011152	0.0312027	0	0.0529535	0.0170817	0.0842681	0	0.0122396	0.00561253	0.0206669	0.0539568	0.0281606	0.00741828	0.00781803	0.00736569	0	0.000660999	0.0229634	0.021422	0	5.67992e-07	0.0317176	0.0295654	0.0166816	0.0562386	0.0492253	0.0651137	0.0406158	2.71152e-06	0.0133114	0.0121037	0.00873419	0.0106777	0.0277591	0.0281656	0.00292578	0.00532712	0.00383326	0.00996242	0.00400864	0.0863411	0.0841629	0	0.00340068	0.0850638	0.0116532	0.0839407	0.0733795	2.21659e-08	1.54521e-10	0.0813263	0.0846853	0.013447	0.0162092	0.0158152	
3.46	0.0837695	0.0222965	0.00490504	0	0.0188925	0	0	0.0491359	0.046091	0.0493738	0.0308051	0.0349842	0	0.0055619	0	0	0	0.0134849	0.00470152	0	0.0298529	0.0252829	0.00975466	0.0263406	0.0807353	0.0113093	0.0313968	0	0.052711	0.0186615	0.0842138	0	0.0109454	0.0063666	0.0216364	0.0529425	0.0284188	0.00830479	0.0086821	0.00821388	2.48557e-07	0.00242453	0.0222362	0.0207904	0	1.78565e-07	0.0298695	0.0288983	0.0165358	0.0559519	0.0489451	0.0652249	0.0412953	0	0.0134423	0.0121159	0.00788425	0.010885	0.0251492	0.0257694	0.0028088	0.0055201	0.00372859	0.0106369	0.00411821	0.0862937	0.084182	9.13518e-10	0.00348392	0.0852422	0.0122318	0.0837086	0.072197	0	0	0.0821157	0.0847043	0.0142434	0.0156834	0.0167169	
3.465	0.0830374	0.0215625	0.00482095	0	0.0183334	0	0	0.0444251	0.0453119	0.0484516	0.0310711	0.0353831	0	0.00447683	0	0	0	0.014322	0.00514706	0	0.0319338	0.0269037	0.0104261	0.0243586	0.0806707	0.0114897	0.0316441	0	0.0523058	0.0202856	0.084161	3.45235e-05	0.00973605	0.00720662	0.0225589	0.0516354	0.0287452	0.00926183	0.00960429	0.00913476	3.79785e-07	0.00325049	0.0216451	0.0201126	0	0	0.0279699	0.0281921	0.0178469	0.0560332	0.0479306	0.0653963	0.0420278	0	0.0135814	0.0121646	0.00709417	0.011025	0.0212795	0.0237362	0.00263365	0.00565576	0.00353463	0.0115626	0.00420472	0.086221	0.0842031	1.19124e-08	0.00354234	0.0854108	0.0127977	0.0834909	0.0706482	9.68685e-09	0	0.0822663	0.0847174	0.0150539	0.0124659	0.0177436	
3.47	0.0817935	0.0207609	0.00478699	0	0.0178128	0	0	0.0402304	0.0443846	0.0473534	0.0313846	0.0358585	0	0.00353965	0	0	0	0.0152399	0.00563037	0	0.0340607	0.02867	0.0111396	0.0224435	0.0804119	0.0116885	0.0319372	0	0.0517355	0.0218985	0.0841105	1.06687e-05	0.00859667	0.00811736	0.0234099	0.0500884	0.0291298	0.0101884	0.0104743	0.0100145	2.13318e-07	0.00343477	0.0212175	0.0194623	0	0	0.0261229	0.0274462	0.0210013	0.0567192	0.0472208	0.0656331	0.0428166	1.84659e-07	0.0137459	0.0122697	0.00637355	0.0110915	0.0156739	0.0221337	0.00241663	0.00572762	0.00320646	0.0125892	0.00426576	0.0861209	0.0842253	7.12708e-10	0.00357947	0.0855663	0.013352	0.0832995	0.0687631	1.01215e-08	2.07106e-09	0.0814949	0.0847213	0.0158832	0.00941988	0.0188842	
3.475	0.0800117	0.0198945	0.00480576	0	0.0173385	3.1156e-10	0	0.0365718	0.0433378	0.046115	0.0317366	0.0364002	0	0.00232565	4.59603e-09	0	0	0.0162489	0.00616848	0	0.0362519	0.0305681	0.0119032	0.0206183	0.0799326	0.0119012	0.0322688	0	0.0509991	0.023443	0.0839999	0	0.00754038	0.00909555	0.024163	0.0483582	0.0295624	0.0110284	0.0112444	0.0108023	1.48182e-08	0.00360814	0.0209631	0.0188925	0	0	0.0244029	0.0266689	0.0239751	0.0569039	0.0472008	0.0659378	0.0436601	2.21094e-07	0.01395	0.0124413	0.00574253	0.0110804	0.00829225	0.0209669	0.00219665	0.00573065	0.00265075	0.0136739	0.00430062	0.0859973	0.0842477	1.03388e-10	0.0035983	0.0857061	0.0138987	0.0831386	0.066583	1.65229e-08	1.00882e-11	0.0803663	0.0847147	0.0167342	0.00648836	0.0201284	
3.48	0.0776907	0.0189636	0.00487951	0	0.0169176	2.89984e-09	0	0.0333393	0.0422009	0.0447722	0.0321175	0.0369982	0	0.00195778	4.18999e-09	7.27934e-10	0	0.017341	0.00678119	0	0.0386557	0.0325661	0.0127268	0.0188839	0.0791906	0.0121239	0.0326313	0	0.0500948	0.0248656	0.0833274	0	0.00659936	0.0101295	0.024794	0.0464991	0.0300329	0.0117941	0.0119311	0.0115145	0	0.00383682	0.0208845	0.0184379	0	0	0.022828	0.0258813	0.0259851	0.0562395	0.0474012	0.0663104	0.0445699	2.39833e-07	0.0141554	0.0126599	0.00520137	0.010989	0.0113309	0.0201178	0.00203531	0.00566167	0.00207638	0.0147854	0.00430993	0.0858549	0.0842691	0	0.00360117	0.085826	0.0144409	0.0830086	0.0641593	1.839e-08	3.40521e-11	0.0790049	0.0846981	0.0175994	0.00744379	0.0214591	
3.485	0.0748494	0.0179634	0.00500974	0.00134266	0.016557	1.59488e-09	0	0.0302499	0.0410031	0.0433608	0.0325185	0.0376428	0	0	0	1.09396e-09	0	0.0185067	0.00747074	0	0.0413894	0.0346334	0.0136251	0.0172319	0.078128	0.0123526	0.0330174	0	0.0490324	0.0261123	0.0819618	0	0.00581312	0.0112048	0.0252812	0.0445671	0.030531	0.0125056	0.012554	0.0121715	0.00398714	0.00407389	0.0209825	0.0180466	0	0	0.0213786	0.0251179	0.025596	0.0542647	0.0476221	0.0667475	0.0455736	0	0.0143241	0.012895	0.00475132	0.0108167	0.0163511	0.0193595	0.00200916	0.00551954	0.00197441	0.0159039	0.00429552	0.0856958	0.0842887	6.87629e-09	0.00358995	0.0859233	0.0149798	0.0829088	0.061562	1.91679e-08	1.44445e-10	0.0772916	0.0846729	0.0184485	0.00723096	0.0228367	
3.49	0.0715262	0.016889	0.00519633	0.00218187	0.0162621	4.30287e-10	0	0.0272917	0.0397722	0.0419144	0.0329311	0.0383239	0	0	0	4.23271e-10	0	0.0197532	0.00823983	0	0.044525	0.0368349	0.0146208	0.0156875	0.0766866	0.0125844	0.0334201	0	0.0478177	0.0271228	0.0799152	0	0.00519736	0.0123107	0.0256063	0.042615	0.0310466	0.0131511	0.0131034	0.0127614	0.00406872	0.00430356	0.0199039	0.0169698	0	0	0.0200335	0.0244156	0.0222652	0.0515558	0.0478454	0.0672424	0.0466709	0	0.0144501	0.0131282	0.00442669	0.0105645	0.0199758	0.0187413	0.00197437	0.00573036	0.00531749	0.0170149	0.00425997	0.0855193	0.0843053	8.00845e-09	0.00356629	0.0859965	0.0155147	0.0828402	0.0588784	2.12772e-08	0	0.0752812	0.0846412	0.0192502	0.00523216	0.0242241	
3.495	0.0677788	0.0157472	0.00543942	0.00267719	0.0160379	1.17888e-09	0	0.0246859	0.0385334	0.0404642	0.0333477	0.0390312	0	0	0	1.13059e-10	0	0.0211085	0.00909152	0	0.0481233	0.0393398	0.0157431	0.0143241	0.0747994	0.0128163	0.0338331	0	0.046464	0.0278591	0.0772336	0	0.00475001	0.0134423	0.0257544	0.0406891	0.0315704	0.0137341	0.0136143	0.0132897	0.00387647	0.00452195	0.0175712	0.0149329	0	0	0.018786	0.0238074	0.0164967	0.0495191	0.0484568	0.0677861	0.0478539	0	0.0145541	0.0133498	0.00424922	0.0120252	0.0223829	0.0182923	0.00144116	0.00646852	0.0102184	0.018111	0.00420669	0.085394	0.0843182	8.43399e-09	0.00353164	0.0860447	0.0160423	0.0828048	0.0562136	1.63495e-08	8.93927e-10	0.0729689	0.0846268	0.0199741	0.00493665	0.025588	
3.5	0.0637072	0.0145683	0.00574039	0.00306501	0.0158884	3.57022e-09	0	0.0224189	0.0373088	0.0390373	0.0337617	0.0397543	0	1.44443e-05	0	0	0	0.0226027	0.0100212	0	0.0522309	0.0422819	0.0170009	0.0131785	0.0724099	0.0130459	0.0342507	0	0.0449884	0.0282982	0.0739921	0	0.00449608	0.0146025	0.0257138	0.0388279	0.0320937	0.0143145	0.0142065	0.0138568	0.00381388	0.00473103	0.016559	0.0130437	0	0	0.0176402	0.0233209	0.0131893	0.0480075	0.0493406	0.0683702	0.0491271	3.04784e-08	0.0146708	0.0135709	0.00422079	0.0138234	0.0226571	0.0180044	0	0.0147211	0.0138493	0.0191994	0.00413948	0.0856265	0.0843267	8.74838e-09	0.0034874	0.086068	0.0165581	0.0828045	0.0536738	2.06285e-08	2.266e-09	0.0704696	0.0846924	0.0205889	0.0049583	0.0268861	
3.505	0.0594363	0.0133878	0.00610396	0.00350581	0.0158176	5.83818e-09	0	0.020501	0.0361159	0.0376559	0.0341678	0.0404835	0	4.13694e-06	0	0	0	0.024254	0.0110233	1.08268e-09	0.0568761	0.0457775	0.0183809	0.0122283	0.0694861	0.0132712	0.034668	0	0.0434118	0.02846	0.0702917	0	0.00443548	0.0158036	0.0254762	0.0370599	0.0326088	0.0149498	0.0147692	0.0144483	0.00374203	0.00492733	0.0176839	0.0124969	8.99154e-12	0	0.0166091	0.0229771	0.012429	0.0465359	0.0501466	0.0689878	0.0504985	3.3719e-08	0.0148375	0.0138215	0.00434518	0.0149757	0.0221477	0.0178478	0	0.0269497	0.0159818	0.0202949	0.00406239	0.0861842	0.0843304	9.11193e-09	0.00343477	0.0860673	0.0170594	0.0828353	0.0513305	7.90355e-09	0	0.0678796	0.0847739	0.0210727	0.00502959	0.0280758	
3.51	0.055147	0.0122162	0.00653618	0.003934	0.0158289	0	0	0.0188906	0.0349631	0.0363363	0.0345614	0.0412094	0	0	0	0	0	0.0260663	0.012098	7.94695e-10	0.0619519	0.0499409	0.019891	0.011441	0.0660279	0.0134904	0.0350805	0	0.0417571	0.0284047	0.0662658	0	0.00455546	0.017047	0.0250369	0.0353989	0.0331094	0.0155326	0.0152876	0.0149913	0.00369182	0.0051066	0.0199195	0.0133493	4.49858e-11	0	0.0157128	0.022792	0.012171	0.0450516	0.0508724	0.0696288	0.0519621	0	0.0151019	0.0141429	0.0046107	0.0199696	0.0212645	0.0177903	0	0.0282165	0.0164601	0.0214185	0.00397971	0.0866945	0.084329	9.48752e-09	0.00337497	0.0860443	0.0175445	0.0819701	0.0492218	0	0.00190721	0.0652437	0.0847934	0.0214117	0.00401435	0.0291133	
3.515	0.0510641	0.011039	0.00703743	0.00443522	0.0159263	0	0	0.0175497	0.0338506	0.0350843	0.034939	0.0419236	0	0	0	3.15214e-09	0.00515269	0.028028	0.0132506	0	0.0671199	0.0548772	0.0215828	0.0107976	0.0620835	0.0137018	0.0354847	0	0.04005	0.0280872	0.0620615	0	0.00484302	0.0183137	0.0243946	0.0338305	0.0335909	0.0160726	0.0157757	0.0155023	0.00368902	0.00526898	0.0222608	0.0149292	8.49547e-11	0	0.0149705	0.0227767	0.0117192	0.0436202	0.0514171	0.0702781	0.0534861	0	0.0154866	0.014549	0.00496218	0.0250957	0.0203997	0.0178021	0	0.0232651	0.0161465	0.0225954	0.0038948	0.0869195	0.0843223	9.87355e-09	0.00330916	0.0860012	0.0180134	0.0799455	0.0473708	0	0.00354594	0.062626	0.0847617	0.0215906	0.00215142	0.0299489	
3.52	0.0472925	0.00983459	0.00760453	0.00504384	0.0161129	0	0	0.016463	0.0327753	0.0338946	0.0352978	0.0426183	0	0	0	0.00397832	0.00415764	0.0301049	0.0144944	0	0.0720406	0.0606226	0.0235213	0.0102881	0.0577761	0.013904	0.0358771	0	0.0383162	0.027514	0.0578565	0	0.00526643	0.0195843	0.0235524	0.0323276	0.0340497	0.0165888	0.0162423	0.0159965	0.00371998	0.00541725	0.0243156	0.0166467	1.26893e-10	0	0.0143918	0.0229371	0.0111627	0.0422838	0.0518261	0.0709156	0.0550236	0	0.0159776	0.0150259	0.0053598	0.0264408	0.0196292	0.0178544	2.81576e-05	0.0238145	0.0154442	0.0238502	0.00380931	0.0869114	0.08431	1.02661e-08	0.00323875	0.0859407	0.0184673	0.0773576	0.0457887	0	0.00398926	0.0601254	0.0847155	0.0215695	0.00159635	0.0305051	
3.525	0.0438601	0.00858251	0.00823615	0.0057164	0.0163913	0	0	0.0156209	0.0317378	0.0327585	0.0356357	0.043287	0	0	0	0.0047346	0.0046943	0.0322313	0.0158562	0	0.0764166	0.0668153	0.0257454	0.00990746	0.0533216	0.0140961	0.036255	0	0.0365787	0.0267079	0.0538489	0	0.00578935	0.020855	0.0225176	0.0308783	0.0344836	0.0170832	0.0166878	0.0164734	0.0037699	0.00555416	0.026135	0.0182146	1.71247e-10	0.0035806	0.0139751	0.0232735	0.0106923	0.0410746	0.0521425	0.0715182	0.0565309	0	0.0165423	0.01555	0.00579932	0.0252409	0.0189535	0.0179187	0	0.0256649	0.0146365	0.0251872	0.00372428	0.0868203	0.0842923	1.06659e-08	0.00316511	0.0858654	0.0189082	0.0746757	0.0444775	0	0.00383719	0.0578549	0.0846704	0.0212926	0.000542663	0.0306995	
3.53	0.0407756	0.00728554	0.00892853	0.00646875	0.0167653	0	0	0.0149981	0.0307433	0.0316729	0.0359512	0.0439244	0	0	0	0.00413429	0.0054013	0.0343327	0.0173321	0.00550841	0.0800078	0.0728834	0.028257	0.00965551	0.0489843	0.014277	0.036616	0	0.0348445	0.0256845	0.0501941	0	0.0064047	0.022127	0.021301	0.0294957	0.034891	0.0175405	0.0171006	0.0169181	0.00383053	0.00568212	0.027856	0.0195858	2.17564e-10	0.00373139	0.0137175	0.0237799	0.0103338	0.0400238	0.0523872	0.072063	0.057964	0	0.0171435	0.0160963	0.00628612	0.0235517	0.018349	0.0179668	7.40494e-06	0.0254919	0.0138249	0.0265778	0.00364054	0.0867244	0.0842691	1.10732e-08	0.0030899	0.0857782	0.0193387	0.0720901	0.0434311	0	0.00355899	0.0559275	0.0846253	0.0207316	0.000115684	0.0304727	
3.535	0.0380327	0.00597224	0.00967281	0.00730878	0.0172192	0	0	0.0145564	0.0298015	0.0306419	0.0362437	0.044526	0	0	0	0.00471615	0.0060594	0.0364276	0.0188915	0.00584367	0.0826423	0.0782741	0.031006	0.00953178	0.044913	0.0144463	0.036958	0	0.0330759	0.02446	0.0469234	0	0.0071057	0.0233918	0.019915	0.0282013	0.035271	0.0179518	0.0174728	0.0173204	0.00389629	0.00580294	0.029553	0.0208151	2.65553e-10	0.00353119	0.0136181	0.0244436	0.0100662	0.0391584	0.0525689	0.0725304	0.0592822	0	0.0177466	0.0166388	0.00681237	0.0222953	0.0177968	0.0179722	2.05652e-05	0.0240819	0.0130479	0.0279597	0.00355932	0.0866312	0.0842408	1.14884e-08	0.00301475	0.0856822	0.0197618	0.0696735	0.0426369	0	0.00329767	0.0544366	0.0845778	0.0199244	0	0.0298161	
3.54	0.0356033	0.00466626	0.0104583	0.00821671	0.0177675	0	0	0.0142565	0.0289214	0.0296753	0.0365125	0.045089	0	0	0.000606178	0.0051717	0.00682412	0.0386114	0.0205471	0.00558397	0.0842463	0.0824741	0.0338677	0.00953095	0.0411802	0.0146033	0.0372794	0.00670312	0.0311989	0.0230561	0.044023	0	0.00787643	0.0246318	0.0183692	0.0270092	0.035623	0.0183104	0.0177975	0.0176723	0.00396393	0.00599809	0.0306187	0.0219626	0	0.0037432	0.0136762	0.025246	0.00989185	0.0384999	0.0526923	0.072904	0.060445	0	0.0183071	0.0171428	0.00735372	0.0214146	0.0172835	0.0179124	4.85164e-05	0.0226699	0.012317	0.0292395	0.00348217	0.0865352	0.0842076	1.19113e-08	0.00294147	0.085581	0.0201805	0.067473	0.0420772	0	0.00338141	0.0534548	0.0845286	0.018965	0.00202011	0.0288166	
3.545	0.0333882	0.00348674	0.0112751	0.00917862	0.01839	0	0	0.0140672	0.0281085	0.0287811	0.0367579	0.0456114	0	0	0.0060105	0.00563971	0.00768491	0.0409042	0.0223465	0.00660197	0.0848482	0.0850462	0.0368011	0.00964299	0.0378252	0.014748	0.0375792	0.00934631	0.0292311	0.0214956	0.0414757	0	0.0087098	0.0258292	0.016669	0.0259251	0.0359469	0.0186048	0.018064	0.0179619	0.00403133	0.00643852	0.0295037	0.022546	0	0.00389524	0.0138886	0.026163	0.00982887	0.0380663	0.0527611	0.0731697	0.0614127	0	0.0186441	0.0175197	0.00788772	0.0206738	0.0167984	0.0177688	0	0.0217117	0.0116333	0.0303327	0.0110709	0.0864376	0.0841699	0	0.00287227	0.0854766	0.0205974	0.0655288	0.0417304	0	0.00415425	0.053033	0.0844789	0.0179329	0.00343557	0.0275931	
3.55	0.0312673	0.00205048	0.0121153	0.0101717	0.0190829	0	0	0.0139652	0.0273654	0.0279634	0.0369802	0.046092	0	0	0.0036201	0.00618196	0.00860105	0.043264	0.0243117	0.00747809	0.0847912	0.0856974	0.0400554	0.00985571	0.0348315	0.0148802	0.0378565	0.0104394	0.0272227	0.0197996	0.0392583	0	0.0095946	0.0269685	0.0148477	0.0249496	0.0362429	0.0188227	0.0182609	0.0181766	0.00409685	0.0071835	0.0255719	0.0224738	1.92323e-06	0.00397304	0.0142478	0.0271657	0.00989123	0.0378741	0.0527779	0.0733159	0.0621466	0	0.0186612	0.0177149	0.00839637	0.0200193	0.016334	0.010359	0	0.0210102	0.0109938	0.0311876	0.0200304	0.0863404	0.0841281	3.18371e-07	0.00280894	0.0853713	0.0210143	0.0638617	0.0415688	0	0.00530576	0.0531981	0.084429	0.0168641	0.00447907	0.026239	
3.555	0.0292231	0.000311545	0.0129713	0.0111743	0.0198378	0	0	0.0139353	0.0266926	0.0272234	0.0371802	0.0465307	0	0	0.00408821	0.00678052	0.00954467	0.0456252	0.0264199	0.00842307	0.0846902	0.0856089	0.0438043	0.0101561	0.0319763	0.0150002	0.0381109	0.0117627	0.0252318	0.0179813	0.0373432	0	0.0105167	0.0280376	0.0129946	0.0240799	0.0365115	0.0189535	0.0183783	0.0183061	0.00415843	0.00817925	0.0216365	0.0220376	0	0.0040416	0.0147415	0.0282209	0.0100848	0.0379393	0.0527439	0.0733326	0.0626107	0	0.018478	0.0177512	0.0088628	0.0194759	0.0158865	0	7.92092e-06	0.0204218	0.010394	0.0317929	0.0268207	0.0862431	0.0840825	1.19631e-07	0.00275216	0.0852676	0.0214326	0.0624719	0.0415593	4.10948e-09	0.00603961	0.0539425	0.0843785	0.0157652	0.00527221	0.0248173	
3.56	0.0273096	0	0.0138396	0.0121729	0.0206515	0	0	0.0139707	0.0260886	0.0265596	0.0373589	0.046928	0	0	0.00426353	0.00742918	0.0104874	0.0479128	0.0286232	0.00945308	0.0845993	0.0855192	0.048092	0.0105326	0.0291297	0.0151083	0.0383426	0.0136858	0.0233032	0.0160517	0.0356983	0	0.0114682	0.0290276	0.0111814	0.0233105	0.0367536	0.0189882	0.0184085	0.0183419	0.0110686	0.00973134	0.0184684	0.0212486	0	0.00410695	0.0153506	0.0292912	0.0104102	0.0382798	0.052658	0.0732103	0.0627714	2.88527e-10	0.0181317	0.0176331	0.00926821	0.0190467	0.0154527	0.000126872	1.0275e-06	0.0199314	0.00956862	0.0321659	0.0336302	0.0861452	0.0840331	0	0.00270282	0.0851686	0.0218535	0.061343	0.0416631	0	0.00622165	0.0552105	0.0843268	0.0146327	0.0056821	0.0233594	
3.565	0.0255614	0	0.0147221	0.0131568	0.0215132	0	0	0.0140712	0.0255512	0.0259695	0.0375176	0.0472851	0	0	0.00436635	0.0080954	0.0114064	0.0500516	0.0308467	0.0105065	0.0845096	0.0854347	0.0528904	0.0109739	0.0263716	0.0152047	0.0385518	0.0159161	0.0214662	0.0140702	0.0342771	0	0.0124448	0.029932	0.00941582	0.0226352	0.0369703	0.0189219	0.0183469	0.0182789	0.0156442	0.0112353	0.0154864	0.0201585	4.95207e-07	0.00415829	0.0160526	0.03034	0.0108652	0.0389165	0.0525168	0.0729399	0.0625971	5.05675e-10	0.0176297	0.0173674	0.00960135	0.0187249	0.0150362	0	1.10276e-05	0.0195611	0.00698125	0.032342	0.0402378	0.0860469	0.0839803	0	0.00265939	0.0850748	0.0222777	0.0604489	0.0418459	4.90672e-08	0.00595571	0.0568972	0.0842728	0.0134682	0.00572689	0.021882	
3.57	0.0239828	2.28667e-05	0.0156204	0.0141204	0.0224103	0	0	0.0142439	0.0250766	0.0254492	0.0376575	0.0476035	0	0	0.00455567	0.00875197	0.0122903	0.0519883	0.0330008	0.0115527	0.0844293	0.0853505	0.058113	0.0114724	0.0238072	0.0152902	0.0387393	0.0181879	0.0197298	0.0121335	0.0330418	0.00359135	0.0134509	0.0307483	0.00767625	0.0220464	0.0371628	0.0187524	0.0181921	0.0181155	0.0181878	0.0125268	0.012454	0.0188242	5.53766e-07	0.00419612	0.0168186	0.031331	0.0114459	0.0398757	0.0523148	0.0725111	0.0620585	6.83636e-10	0.0169734	0.0169599	0.00985265	0.0184956	0.0146358	3.44241e-05	2.3292e-05	0.0192801	0.00158496	0.0323551	0.0464641	0.0859472	0.0839239	0	0.00262356	0.0849892	0.0227052	0.0597549	0.0420725	0	0.00544453	0.0588655	0.0842156	0.0122824	0.0053623	0.0203996	
3.575	0.0225626	9.01595e-06	0.016519	0.0150646	0.0233237	0	0.00233672	0.0145011	0.0246607	0.0249939	0.03778	0.0478855	0	0	0.0048189	0.00939208	0.013129	0.0536907	0.0350353	0.0125765	0.0843631	0.0852747	0.0635006	0.0120219	0.0214811	0.0153654	0.038906	0.0204726	0.0180879	0.0102894	0.0319843	0.00696805	0.014497	0.0314765	0.00596584	0.0215367	0.0373327	0.0184826	0.0179468	0.017854	0.0202492	0.0139363	0.00955301	0.0172986	2.55294e-07	0.00422087	0.0176169	0.0322345	0.0121472	0.0411899	0.0520441	0.0719131	0.0611314	8.47089e-10	0.0161758	0.0164232	0.0100191	0.0183515	0.0141643	0	4.83504e-06	0.0190415	1.54838e-05	0.0322396	0.0519054	0.0858456	0.0838642	3.50394e-07	0.00260263	0.0849125	0.0231351	0.0592244	0.042314	0	0.00481213	0.0610974	0.084154	0.0110895	0.00451341	0.0189265	
3.58	0.0212796	1.08918e-06	0.0173927	0.015991	0.0242289	0	0.00677492	0.0148604	0.024299	0.0245984	0.0378866	0.0481333	0	0.00203882	0.00511525	0.0100011	0.0139199	0.055153	0.0370224	0.0135718	0.0843146	0.0852114	0.068651	0.0126187	0.0193834	0.015431	0.039053	0.0229443	0.0165406	0.00852579	0.0311173	0.00797427	0.015607	0.0321191	0.00430852	0.0210982	0.0374816	0.0181185	0.017617	0.0175009	0.0193082	0.0158452	0.00695969	0.0155274	3.48077e-08	0.00423304	0.0184149	0.0330296	0.0129657	0.0428996	0.0516951	0.0711338	0.0597984	1.01006e-09	0.0152607	0.015775	0.0101035	0.0182838	0.0130553	0	0	0.0188168	7.95879e-06	0.0320293	0.0561903	0.0857411	0.0838013	2.72566e-07	0.00425627	0.0848458	0.023566	0.0588189	0.042547	6.90105e-20	0.00421958	0.0638266	0.0840873	0.00990403	0.0031974	0.0174764	
3.585	0.0201091	0	0.0182211	0.016884	0.025099	0	0.00773185	0.0153434	0.0239866	0.0242574	0.0379788	0.0483494	0	0.00418893	0.00542789	0.0105697	0.0146707	0.0564047	0.0390442	0.0145393	0.0842866	0.0851637	0.0733034	0.0132635	0.017477	0.0154877	0.0391817	0.025729	0.0151318	0.00682037	0.0304593	0.00862281	0.016792	0.0326809	0.00271721	0.0207232	0.037611	0.017669	0.0172113	0.0170654	0.0160293	0.01761	0.00491273	0.0135988	0	0.00423326	0.019183	0.0337075	0.0139042	0.0450506	0.0512575	0.0701603	0.0580563	1.18073e-09	0.014264	0.015039	0.0101133	0.0182801	0.0114166	0	4.80933e-06	0.0185889	4.23255e-05	0.0317582	0.0592816	0.085634	0.0837354	7.67517e-06	0.00571698	0.0847893	0.0265414	0.0585015	0.0427547	0	0.00377445	0.0672737	0.0840148	0.00873897	0.000947825	0.0160615	
3.59	0.0190236	0	0.0189907	0.0177212	0.0259048	5.53265e-09	0.00804517	0.0159717	0.0237187	0.0239652	0.038058	0.0485366	0	0.00541255	0.00574611	0.0110939	0.0153827	0.0574852	0.0411123	0.0154978	0.0842802	0.0851336	0.0773207	0.0139629	0.0157705	0.0155365	0.0392935	0.0287682	0.0139187	0.00518376	0.0300207	0.00969321	0.0180417	0.0331684	0.00173789	0.0204043	0.0377228	0.0171435	0.016739	0.0165583	0.0125634	0.0191546	0.00513445	0.0124415	0	0.00422252	0.0198972	0.0342704	0.0149742	0.0476924	0.0507199	0.0689808	0.0559237	1.36418e-09	0.0132279	0.0142467	0.0100597	0.0183261	0.0113614	0	6.99371e-06	0.0183417	5.00685e-07	0.0315175	0.0613167	0.0855247	0.0836672	0	0.00421586	0.0847428	0.0376116	0.0582396	0.042927	1.13767e-19	0.00327765	0.0714269	0.0839366	0.00759871	0	0.014683	
3.595	0.017996	0	0.0196928	0.0184863	0.0266193	6.06269e-09	0.00881801	0.0167625	0.0234904	0.0237164	0.0381256	0.0486977	0	0.00629938	0.00606381	0.0115715	0.0160456	0.0584773	0.0432165	0.0164501	0.0842955	0.0851216	0.0806191	0.0147262	0.0143369	0.0155782	0.0393899	0.0318976	0.0129015	0.0036736	0.0298029	0.0111088	0.0193548	0.0335891	0	0.0201345	0.0378188	0.0165503	0.0162086	0.0159905	0.00986518	0.0208189	0.00524633	0.0114882	0	0.00420241	0.0205402	0.0347277	0.0161872	0.0508704	0.0500718	0.0675845	0.0534441	1.56365e-09	0.0121921	0.0134347	0.00995668	0.0184039	0.0120011	0	9.92913e-06	0.0180591	0	0.0314018	0.0624025	0.0854147	0.0835974	5.66865e-07	0.00284403	0.0847059	0.0466173	0.0580058	0.0430591	0	0.00251135	0.0760719	0.0838537	0.00648452	0.000137976	0.0133524	
3.6	0.0170056	0	0.0203197	0.0191709	0.0272188	0	0.0100216	0.0177258	0.0232965	0.0235055	0.0381832	0.0488355	6.71115e-09	0.00728665	0.00637619	0.012002	0.0166447	0.0595079	0.0453468	0.0173806	0.0843307	0.0851269	0.0831398	0.0155629	0.0131912	0.0156136	0.0394727	0.0349499	0.0120451	0.00203183	0.0298005	0.0126373	0.0207583	0.0339505	0	0.0199073	0.0379008	0.015895	0.0156255	0.0153703	0.00787178	0.0227882	0.004359	0.00993078	0	0.00417458	0.0211017	0.0350916	0.0175335	0.0546165	0.0493044	0.0659634	0.050682	1.78126e-09	0.0111902	0.0126382	0.00981794	0.0184785	0.01216	2.65673e-06	8.76009e-06	0.0177269	0	0.0313815	0.0624769	0.0852709	0.0835268	1.95949e-06	0.00246584	0.0846777	0.0493849	0.057779	0.0431508	0	0.00235821	0.0807869	0.0837677	0.00542415	0	0.0120933	
3.605	0.0160451	0	0.020864	0.0197704	0.0276863	2.33882e-11	0.0113396	0.0188685	0.0231324	0.0233271	0.038232	0.0489528	0	0.00851419	0.00667755	0.0123864	0.01717	0.0606261	0.0474978	0.0182772	0.0843829	0.0851473	0.0848005	0.016474	0.0122775	0.0156437	0.0395433	0.037931	0.0113149	0.00011033	0.0300029	0.0142404	0.0222937	0.03426	1.49552e-05	0.0197161	0.0379705	0.0151835	0.0149941	0.0147056	0.00649106	0.0250905	0.00341095	0.00771971	0	0.00414101	0.0215781	0.0353752	0.0189904	0.0589373	0.048411	0.0641132	0.0477212	2.01857e-09	0.0102559	0.0118871	0.00965681	0.0185041	0.0117939	0	0	0.017335	0	0.0312566	0.0619642	0.0849829	0.0834566	1.65402e-06	0.00252956	0.0846569	0.0490227	0.0575448	0.0432054	0	0.00316788	0.0847443	0.0836802	0.00440646	0.000124352	0.010926	
3.61	0.0151204	0	0.0213198	0.0202829	0.0280129	0	0.0126769	0.0202109	0.0229934	0.0231759	0.0382733	0.0490527	0.00200962	0.00995297	0.00696438	0.0127284	0.0176173	0.0618924	0.0496715	0.0191376	0.0844478	0.0851796	0.0854608	0.0174506	0.0115383	0.0156694	0.0396036	0.0409892	0.0106859	0	0.0303959	0.0159702	0.0239942	0.0345249	1.5633e-05	0.0195548	0.0380298	0.0144204	0.0143157	0.0139988	0.00561133	0.0276878	0.00245507	0.00534609	0	0.00410384	0.0219714	0.0355908	0.0205585	0.0637196	0.047388	0.0620344	0.0446599	2.27677e-09	0.00942505	0.0112066	0.00948738	0.0184502	0.0111751	3.36288e-06	0	0.016877	0	0.0308882	0.0610295	0.0844694	0.083388	5.12188e-07	0.00253407	0.0846418	0.0482501	0.0572944	0.0432303	0	0.00432069	0.0861508	0.0835936	0.00358603	0	0.00986214	
3.615	0.0142417	0	0.0216857	0.0207089	0.0281982	0	0.0140736	0.0218001	0.0228747	0.0230471	0.0383085	0.049138	0.00505577	0.0115353	0.00723561	0.013034	0.0179882	0.0633435	0.051941	0.019966	0.0845205	0.0852197	0.0854617	0.0184845	0.0109333	0.0156914	0.0396552	0.0441697	0.0101379	0	0.030961	0.0178526	0.0258778	0.0347526	2.83298e-06	0.0194173	0.0380804	0.0136026	0.0135839	0.0132431	0.0050599	0.0305194	0.00202417	0.00351493	0	0.00406529	0.0222897	0.0357502	0.0222702	0.0687651	0.0462361	0.0597344	0.0416001	2.55684e-09	0.00873234	0.0106204	0.00932357	0.0183012	0.010521	1.12938e-07	0	0.0163546	4.12385e-07	0.0302788	0.0598683	0.0837001	0.0833225	0	0.00249158	0.0846306	0.0479457	0.0570253	0.043252	0	0.00588484	0.0861228	0.0835103	0.00263524	0	0.00890116	
3.62	0.0134073	0	0.0219658	0.0210526	0.0282504	0	0.0155673	0.0236936	0.0227719	0.0229354	0.0383388	0.0492116	0.00639126	0.0132279	0.00749282	0.0133093	0.0182885	0.0649972	0.0543076	0.0207699	0.084595	0.0852629	0.0854444	0.0195779	0.0104302	0.0157108	0.0396998	0.0474269	0.00965252	2.61376e-05	0.0316744	0.0198942	0.0279518	0.0349505	0	0.019298	0.0381241	0.0127434	0.0128088	0.0124482	0.0047128	0.0334811	0.00201995	0.00208955	0	0.00402746	0.0225462	0.0358652	0.0241541	0.0738403	0.0449607	0.0572281	0.0386304	2.85962e-09	0.00817533	0.0101513	0.00917783	0.018046	0.00984651	0	9.8852e-06	0.0157745	2.42621e-07	0.0294938	0.0584652	0.0826666	0.0832614	0	0.00246817	0.0846211	0.0478248	0.0567397	0.0432726	2.04239e-22	0.00741065	0.0861198	0.0834332	0.00200454	2.85054e-05	0.00803457	
3.625	0.0126092	0	0.0221701	0.0213227	0.0281853	0	0.0171644	0.0259343	0.0226805	0.0228362	0.0383654	0.0492763	0.00708803	0.0150359	0.00773956	0.0135607	0.0185282	0.0668466	0.0567861	0.0215658	0.0846656	0.0853046	0.0854498	0.0207458	0.0100007	0.0157284	0.0397392	0.0507148	0.00921629	8.36749e-06	0.0325073	0.022163	0.0302046	0.0351262	0	0.0191912	0.0381626	0.0118721	0.0120178	0.0116409	0.00458978	0.0365097	0.00198179	0.001946	0	0.00399256	0.0227583	0.0359475	0.0262086	0.0786555	0.0435728	0.05454	0.035817	3.18586e-09	0.00772163	0.00979544	0.00906096	0.0176767	0.00910662	0	5.98079e-05	0.0151512	7.98559e-08	0.0285942	0.0564892	0.0813695	0.083206	0	0.00245626	0.0846115	0.0476402	0.0564448	0.0432947	1.36169e-22	0.00872113	0.0861938	0.0833649	0.00183578	0	0.0072501	
3.63	0.0118372	0	0.0223126	0.021533	0.0280257	0	0.0188554	0.0285342	0.0225962	0.0227445	0.0383895	0.0493349	0.00790862	0.0169548	0.00798076	0.0137955	0.0187202	0.0688561	0.0593558	0.0223847	0.0847261	0.0853401	0.0854507	0.0220055	0.00961939	0.015745	0.039775	0.0540097	0.00881573	0	0.0334279	0.0247685	0.0325905	0.0352872	0	0.0190916	0.0381977	0.0109828	0.01122	0.010829	0.00468416	0.0397973	0.00190607	0.00107127	0	0.0040117	0.0229466	0.0360095	0.0284065	0.0827897	0.0420882	0.0517037	0.0331648	3.53622e-09	0.00733563	0.00953131	0.00898247	0.0171916	0.00827794	0	2.44378e-06	0.0145004	1.7383e-09	0.0276206	0.0536498	0.0798169	0.0831575	0	0.0024431	0.0846008	0.0473837	0.056152	0.0433291	5.31106e-23	0.00971391	0.0862207	0.0833077	0.000463199	5.63123e-05	0.00653369	
3.635	0.0110814	0	0.0224117	0.0217004	0.0277998	0	0.020657	0.0314373	0.0225146	0.0226557	0.0384123	0.0493903	0.00904335	0.0189584	0.00822259	0.0140217	0.0188797	0.0709682	0.0619835	0.0232041	0.0847714	0.0853653	0.0854491	0.0233677	0.00926311	0.0157617	0.0398091	0.057307	0.00843506	0	0.0344051	0.0277555	0.0350543	0.0354413	0	0.0189937	0.0382309	0.00989492	0.0103472	0.0098571	0.00494851	0.0435417	0.00188183	6.98626e-05	0	0.00413579	0.0231341	0.0360633	0.0306997	0.0854363	0.0405268	0.048759	0.0305481	3.91132e-09	0.00699256	0.00933753	0.00895097	0.0165963	0.00736302	0	0	0.0138279	0	0.0266032	0.0498945	0.0780243	0.0831172	0	0.00242849	0.0845866	0.0471195	0.0558845	0.0433884	5.03952e-24	0.0103722	0.0862098	0.0832633	0	0	0.00587883	
3.64	0.0103351	0	0.0224882	0.0218444	0.0275393	0	0.0226257	0.0344568	0.0224314	0.0225651	0.038435	0.0494453	0.0103495	0.0210611	0.00847186	0.0142499	0.0190236	0.0730994	0.0646385	0.0240508	0.0847966	0.0853766	0.0854441	0.0248327	0.0089072	0.0157792	0.0398431	0.0606011	0.00805717	0	0.0354171	0.031073	0.0376896	0.0355963	0	0.0188922	0.0382641	0.00866081	0.00923546	0.00871976	0.0053346	0.0478034	0.00191045	0	0	0.00437301	0.0233435	0.0361189	0.0330172	0.0858735	0.0388566	0.0457505	0.0276865	4.31169e-09	0.00667639	0.00919772	0.00897507	0.0159083	0.00636532	5.48621e-09	0	0.0131326	0	0.0255677	0.0498698	0.0760088	0.0830859	0	0.00241479	0.0845672	0.0468739	0.0556576	0.0434817	0	0.0107111	0.0861799	0.0832303	0	1.17055e-05	0.00526742	
3.645	0.0095922	0	0.022565	0.0219859	0.0272784	1.93646e-09	0.0248096	0.0375496	0.0223424	0.0224682	0.0384587	0.0495026	0.0116981	0.0233303	0.00873569	0.0144896	0.0191699	0.0751616	0.0672897	0.0249366	0.0847975	0.0853708	0.0854337	0.0263946	0.0085265	0.0157984	0.0398787	0.0638873	0.00766429	0	0.0364465	0.0345817	0.0406904	0.0357598	0	0.0187821	0.0382989	0.0073231	0.00800924	0.00749074	0.00580994	0.0525761	0.00196011	0	1.33624e-09	0.00471754	0.023597	0.0361847	0.0353014	0.0857048	0.037114	0.0427285	0.0252256	4.73783e-09	0.00637661	0.00909901	0.00906362	0.0151552	0.00530965	6.0283e-09	0	0.0124151	0	0.0245343	0.0498903	0.0738017	0.0830644	0	0.00240225	0.084541	0.046641	0.0554856	0.0436169	0	0.0107558	0.0861292	0.0832074	3.50125e-06	0	0.00466444	
